{"type":"FeatureCollection","features":[{"type":"Feature","properties":{"_gpxType":"trk","name":"464 Girard Ave, East Aurora, NY 14052 - 172 Co Rd 126 - 316 Jewett Holmwood Rd - 965 Jewett Holmwood Rd - 6631 Jewett Holmwood Rd - 6340 Newton Rd - 2985 Lakeview Rd - 6013 Old Lake Shore Rd - Old Lake Shore Road Arthur Avenue N - 5905 NY-5","coordinateProperties":{},"id":1},"geometry":{"type":"LineString","coordinates":[[-78.61744,42.7721],[-78.61765,42.77211],[-78.61856,42.77212],[-78.61931,42.77215],[-78.61935,42.77215],[-78.62093,42.77219],[-78.62164,42.77221],[-78.62213,42.77223],[-78.62262,42.77224],[-78.62286,42.77225],[-78.62384,42.77228],[-78.62409,42.77228],[-78.6258,42.77233],[-78.62714,42.77237],[-78.6286,42.77241],[-78.62917,42.77243],[-78.62934,42.77244],[-78.62949,42.77244],[-78.62983,42.77245],[-78.63064,42.77247],[-78.63095,42.77246],[-78.63105,42.77246],[-78.63111,42.77245],[-78.63126,42.77243],[-78.63129,42.77243],[-78.63148,42.77239],[-78.6317,42.77234],[-78.63199,42.77224],[-78.63222,42.77214],[-78.63227,42.77212],[-78.6326,42.77192],[-78.63295,42.77169],[-78.63331,42.77145],[-78.63331,42.77145],[-78.63341,42.77153],[-78.63341,42.77153],[-78.63347,42.7715],[-78.63353,42.77148],[-78.63363,42.77144],[-78.63365,42.77143],[-78.63379,42.7714],[-78.63389,42.77137],[-78.63404,42.77134],[-78.63413,42.77133],[-78.63425,42.77127],[-78.63436,42.77123],[-78.63451,42.77118],[-78.63466,42.77114],[-78.63481,42.77108],[-78.63495,42.77104],[-78.63496,42.77104],[-78.63507,42.77101],[-78.63519,42.771],[-78.6352,42.77099],[-78.6353,42.77098],[-78.63542,42.77096],[-78.63553,42.77096],[-78.63563,42.77091],[-78.63569,42.77085],[-78.63581,42.77077],[-78.63593,42.7707],[-78.63605,42.77062],[-78.63613,42.77057],[-78.63619,42.7705],[-78.6362,42.77044],[-78.63623,42.77034],[-78.63625,42.77025],[-78.63625,42.77017],[-78.63626,42.77007],[-78.63624,42.76994],[-78.63621,42.76987],[-78.63619,42.76981],[-78.63618,42.7698],[-78.63614,42.76971],[-78.63613,42.76964],[-78.63612,42.76962],[-78.63609,42.76951],[-78.63609,42.76942],[-78.63612,42.76935],[-78.63617,42.7693],[-78.63623,42.76926],[-78.63641,42.76914],[-78.63653,42.76903],[-78.63665,42.76895],[-78.63669,42.76892],[-78.63677,42.76885],[-78.63687,42.7688],[-78.63688,42.76879],[-78.63699,42.76876],[-78.6371,42.76874],[-78.63729,42.76869],[-78.63733,42.76868],[-78.63742,42.76863],[-78.63752,42.76857],[-78.63755,42.76855],[-78.63757,42.76846],[-78.63758,42.7684],[-78.63758,42.7684],[-78.63807,42.76841],[-78.63848,42.76841]]}},{"type":"Feature","properties":{"_gpxType":"trk","name":"464 Girard Ave, East Aurora, NY 14052 - 172 Co Rd 126 - 316 Jewett Holmwood Rd - 965 Jewett Holmwood Rd - 6631 Jewett Holmwood Rd - 6340 Newton Rd - 2985 Lakeview Rd - 6013 Old Lake Shore Rd - Old Lake Shore Road Arthur Avenue N - 5905 NY-5","coordinateProperties":{},"id":1},"geometry":{"type":"LineString","coordinates":[[-78.63848,42.76841],[-78.63961,42.76843],[-78.64026,42.76843],[-78.64143,42.76845],[-78.64321,42.76847],[-78.64345,42.76847],[-78.64346,42.76847],[-78.64369,42.76848],[-78.64395,42.76848],[-78.64419,42.76848],[-78.64535,42.7685],[-78.64615,42.76851],[-78.64658,42.76851],[-78.64713,42.76851],[-78.64713,42.76851],[-78.64713,42.76813],[-78.64714,42.76795],[-78.64714,42.76777],[-78.64714,42.76759],[-78.64714,42.76741],[-78.64714,42.76729],[-78.64716,42.76687],[-78.64717,42.76669],[-78.64719,42.76627],[-78.64718,42.76597],[-78.64718,42.76594],[-78.64717,42.76579],[-78.64717,42.76575],[-78.64707,42.7655],[-78.64703,42.76545],[-78.64692,42.76533],[-78.64688,42.76531],[-78.64671,42.76518],[-78.64669,42.76517],[-78.64652,42.76506],[-78.64611,42.76481],[-78.64611,42.7648],[-78.64601,42.76474],[-78.64583,42.76461],[-78.64548,42.76436],[-78.64544,42.76433],[-78.64536,42.76425],[-78.64529,42.76417],[-78.64528,42.76415],[-78.64523,42.76406],[-78.64523,42.76405],[-78.64505,42.76352],[-78.64498,42.76328],[-78.64494,42.76314],[-78.64489,42.76304],[-78.64477,42.76286],[-78.64476,42.76285],[-78.64463,42.7627],[-78.64449,42.76253],[-78.64437,42.7624],[-78.64436,42.7624],[-78.64435,42.76238],[-78.64421,42.76226],[-78.64413,42.76221],[-78.64395,42.76214],[-78.64378,42.76211],[-78.64353,42.7621],[-78.64336,42.76209],[-78.64328,42.76209],[-78.64279,42.7621],[-78.64212,42.7621],[-78.64205,42.7621],[-78.64191,42.7621],[-78.64184,42.76209],[-78.64176,42.76208],[-78.64171,42.76206],[-78.64164,42.76203],[-78.64158,42.76198],[-78.64147,42.76187],[-78.64147,42.76187],[-78.64148,42.76181],[-78.64149,42.76179],[-78.6415,42.76178],[-78.64151,42.76176],[-78.64153,42.76174],[-78.64156,42.76171],[-78.64161,42.76166],[-78.64167,42.76161],[-78.64171,42.76158],[-78.64173,42.76157],[-78.64177,42.76155],[-78.64182,42.76152],[-78.64187,42.76149],[-78.64191,42.76147],[-78.64192,42.76147],[-78.64195,42.76146],[-78.642,42.76143],[-78.64231,42.76133],[-78.64253,42.76127],[-78.64287,42.76116],[-78.64303,42.76111],[-78.64304,42.76111],[-78.6432,42.76104],[-78.64334,42.76096],[-78.64342,42.7609],[-78.64348,42.76086],[-78.64353,42.76082],[-78.64362,42.76072],[-78.64367,42.76066],[-78.64372,42.76059],[-78.64376,42.76052],[-78.64379,42.76045],[-78.64382,42.76036],[-78.64384,42.76025],[-78.64386,42.76008],[-78.64386,42.76006],[-78.64389,42.75972],[-78.64389,42.7597],[-78.64393,42.75936],[-78.64393,42.75934],[-78.64393,42.75932],[-78.64396,42.75917],[-78.64399,42.75902],[-78.644,42.75901],[-78.644,42.75899],[-78.64404,42.75885],[-78.64405,42.75883],[-78.6441,42.75869],[-78.64412,42.75864],[-78.64418,42.75848],[-78.6442,42.75844],[-78.64427,42.75831],[-78.64429,42.75826],[-78.64439,42.7581],[-78.64447,42.75799],[-78.64453,42.75789],[-78.64472,42.75765],[-78.64486,42.75751],[-78.64505,42.75732],[-78.64507,42.7573],[-78.64521,42.75719],[-78.64538,42.75706],[-78.64541,42.75703],[-78.6455,42.75696],[-78.64565,42.75686],[-78.64574,42.75681],[-78.64578,42.75678],[-78.64593,42.7567],[-78.64621,42.75655],[-78.64633,42.75649],[-78.64636,42.75648],[-78.6466,42.75638],[-78.64696,42.75625],[-78.64719,42.75618],[-78.64721,42.75618],[-78.64744,42.75612],[-78.64782,42.75601],[-78.6479,42.75599],[-78.64807,42.75594],[-78.64813,42.75593],[-78.64836,42.75587],[-78.64846,42.75584],[-78.64864,42.75578],[-78.64898,42.75567],[-78.64917,42.7556],[-78.64949,42.75546],[-78.65003,42.75519]]}},{"type":"Feature","properties":{"_gpxType":"trk","name":"464 Girard Ave, East Aurora, NY 14052 - 172 Co Rd 126 - 316 Jewett Holmwood Rd - 965 Jewett Holmwood Rd - 6631 Jewett Holmwood Rd - 6340 Newton Rd - 2985 Lakeview Rd - 6013 Old Lake Shore Rd - Old Lake Shore Road Arthur Avenue N - 5905 NY-5","coordinateProperties":{},"id":1},"geometry":{"type":"LineString","coordinates":[[-78.65003,42.75519],[-78.65026,42.75507],[-78.65067,42.75486],[-78.65087,42.75476],[-78.65089,42.75475],[-78.65128,42.75457],[-78.65154,42.75443],[-78.65171,42.75435],[-78.65175,42.75433],[-78.65195,42.75424],[-78.65216,42.75414],[-78.65238,42.75406],[-78.65297,42.75386],[-78.65345,42.75371],[-78.6535,42.75369],[-78.65372,42.75362],[-78.65387,42.75358],[-78.65441,42.75343],[-78.65479,42.75333],[-78.6551,42.75325],[-78.65533,42.75319],[-78.65551,42.75316],[-78.65557,42.75316],[-78.65566,42.75315],[-78.65577,42.75315],[-78.65596,42.75314],[-78.65606,42.75314],[-78.65652,42.75314],[-78.6568,42.75315],[-78.65688,42.75315],[-78.65704,42.75315],[-78.65729,42.75314],[-78.65785,42.75314],[-78.65802,42.75314],[-78.65827,42.75314],[-78.65925,42.75314],[-78.65937,42.75314],[-78.65998,42.75314],[-78.66091,42.75314],[-78.66242,42.75314],[-78.66268,42.75314],[-78.66292,42.75314],[-78.66335,42.75314],[-78.66439,42.75313],[-78.66464,42.75313],[-78.66486,42.75312],[-78.66513,42.75312],[-78.66562,42.75311],[-78.66586,42.75311],[-78.6661,42.7531],[-78.66635,42.7531],[-78.66641,42.7531],[-78.66844,42.75307],[-78.66855,42.75307],[-78.66988,42.75306],[-78.67051,42.75305],[-78.67076,42.75305],[-78.67137,42.75305],[-78.67186,42.75304],[-78.67211,42.75304],[-78.67277,42.75304],[-78.67324,42.75304],[-78.67348,42.75304],[-78.67373,42.75304],[-78.67422,42.75304],[-78.67446,42.75304],[-78.67471,42.75304],[-78.67495,42.75304],[-78.6752,42.75304],[-78.67544,42.75303],[-78.67569,42.75303],[-78.67593,42.75303],[-78.67598,42.75303],[-78.67667,42.75303],[-78.67668,42.75303],[-78.67691,42.75303],[-78.67768,42.75303],[-78.67789,42.75303],[-78.67814,42.75303],[-78.67912,42.75302],[-78.67936,42.75302],[-78.67957,42.75302],[-78.67961,42.75302]]}},{"type":"Feature","properties":{"_gpxType":"trk","name":"464 Girard Ave, East Aurora, NY 14052 - 172 Co Rd 126 - 316 Jewett Holmwood Rd - 965 Jewett Holmwood Rd - 6631 Jewett Holmwood Rd - 6340 Newton Rd - 2985 Lakeview Rd - 6013 Old Lake Shore Rd - Old Lake Shore Road Arthur Avenue N - 5905 NY-5","coordinateProperties":{},"id":1},"geometry":{"type":"LineString","coordinates":[[-78.67961,42.75302],[-78.68086,42.75301],[-78.68136,42.75301],[-78.68161,42.75301],[-78.68234,42.75301],[-78.68358,42.75301],[-78.68422,42.75301],[-78.68496,42.75301],[-78.68537,42.75301],[-78.68572,42.75301],[-78.68643,42.75301],[-78.68667,42.75301],[-78.68888,42.75301],[-78.69133,42.75301],[-78.69157,42.75301],[-78.69182,42.75301],[-78.69193,42.75301],[-78.69206,42.75301],[-78.69329,42.75301],[-78.695,42.75301],[-78.69524,42.75301],[-78.69549,42.75301],[-78.69599,42.75301],[-78.69689,42.75301],[-78.69733,42.753],[-78.69759,42.75299],[-78.69785,42.75297],[-78.69787,42.75297],[-78.69811,42.75295],[-78.69872,42.7529],[-78.69981,42.75281],[-78.70079,42.75274],[-78.70114,42.75271],[-78.70176,42.75266],[-78.70201,42.75264],[-78.70274,42.75258],[-78.70322,42.75254],[-78.70347,42.75252],[-78.70492,42.75241],[-78.70642,42.75229],[-78.70716,42.75223],[-78.7074,42.75222],[-78.70789,42.75218],[-78.70813,42.75216],[-78.70862,42.75212],[-78.70886,42.7521],[-78.70959,42.75204],[-78.71026,42.75199],[-78.71032,42.75198],[-78.71057,42.75196],[-78.71105,42.75192],[-78.71209,42.75183],[-78.71227,42.75182],[-78.71251,42.7518],[-78.71323,42.75174],[-78.71396,42.75168],[-78.71415,42.75167],[-78.71574,42.75155],[-78.71586,42.75154],[-78.71634,42.7515],[-78.71647,42.75149],[-78.71659,42.75148],[-78.71707,42.75145],[-78.71722,42.75143],[-78.71732,42.75143],[-78.71795,42.75138],[-78.71814,42.75136],[-78.71827,42.75135],[-78.71904,42.75128],[-78.71997,42.7512],[-78.72001,42.75119],[-78.72094,42.75111],[-78.72158,42.75106],[-78.7222,42.75101],[-78.72269,42.75096],[-78.72316,42.75092],[-78.72373,42.75088],[-78.72409,42.75085],[-78.72436,42.75083],[-78.72452,42.75082],[-78.72473,42.75081],[-78.72504,42.7508],[-78.72505,42.7508],[-78.72579,42.75081],[-78.72653,42.75082],[-78.72677,42.75082],[-78.72814,42.75083],[-78.72882,42.75083],[-78.72906,42.75084],[-78.73004,42.75084],[-78.7306,42.75085],[-78.73063,42.75085],[-78.73201,42.75086],[-78.73321,42.75086],[-78.73443,42.75087],[-78.73468,42.75087],[-78.73492,42.75087],[-78.73571,42.75088],[-78.73615,42.75088],[-78.7373,42.75089],[-78.73877,42.7509],[-78.73901,42.7509],[-78.73926,42.7509],[-78.73964,42.75091],[-78.73985,42.75091],[-78.74009,42.75092],[-78.74058,42.75092],[-78.74181,42.75095],[-78.74205,42.75095],[-78.74223,42.75095],[-78.7423,42.75095],[-78.74254,42.75096],[-78.74279,42.75096],[-78.74285,42.75096]]}},{"type":"Feature","properties":{"_gpxType":"trk","name":"464 Girard Ave, East Aurora, NY 14052 - 172 Co Rd 126 - 316 Jewett Holmwood Rd - 965 Jewett Holmwood Rd - 6631 Jewett Holmwood Rd - 6340 Newton Rd - 2985 Lakeview Rd - 6013 Old Lake Shore Rd - Old Lake Shore Road Arthur Avenue N - 5905 NY-5","coordinateProperties":{},"id":1},"geometry":{"type":"LineString","coordinates":[[-78.74285,42.75096],[-78.74376,42.75098],[-78.7445,42.75099],[-78.74474,42.751],[-78.74523,42.75101],[-78.74597,42.75102],[-78.74663,42.75103],[-78.7467,42.75103],[-78.74671,42.75103],[-78.74718,42.75104],[-78.7474,42.75104],[-78.74789,42.75104],[-78.74789,42.75104],[-78.74793,42.75071],[-78.74796,42.75049],[-78.74798,42.75032],[-78.74802,42.74997],[-78.74809,42.74943],[-78.7481,42.74937],[-78.74816,42.74891],[-78.74817,42.74884],[-78.7482,42.74833],[-78.74821,42.74824],[-78.74823,42.74797],[-78.74824,42.74783],[-78.74824,42.7476],[-78.74825,42.74716],[-78.74824,42.74647],[-78.74822,42.74564],[-78.74821,42.74542],[-78.74821,42.7451],[-78.7482,42.7447],[-78.74819,42.74464],[-78.74819,42.74438],[-78.74818,42.7441],[-78.74817,42.74402],[-78.74816,42.74375],[-78.74815,42.74366],[-78.74811,42.74285],[-78.7481,42.74277],[-78.7481,42.74267],[-78.74808,42.74241],[-78.74807,42.74207],[-78.74807,42.74205],[-78.74807,42.74189],[-78.74806,42.74176],[-78.74806,42.74171],[-78.74805,42.74151],[-78.74804,42.74117],[-78.74804,42.74105],[-78.74803,42.74081],[-78.74802,42.74067],[-78.748,42.74019],[-78.748,42.73994],[-78.748,42.73976],[-78.748,42.73971],[-78.748,42.73958],[-78.748,42.73945],[-78.748,42.7394],[-78.74801,42.73918],[-78.74803,42.73894],[-78.74805,42.73872],[-78.74806,42.73866],[-78.74808,42.73852],[-78.7481,42.73836],[-78.74812,42.73827],[-78.74818,42.73797],[-78.74821,42.73786],[-78.74852,42.73644],[-78.74857,42.7362],[-78.74861,42.73602],[-78.74869,42.73566],[-78.74873,42.73549],[-78.74876,42.73531],[-78.74915,42.73353],[-78.74916,42.7335],[-78.74919,42.73336],[-78.74923,42.73318],[-78.74926,42.73309],[-78.74927,42.733],[-78.74931,42.73282],[-78.74932,42.73273],[-78.74937,42.73247],[-78.7494,42.73207],[-78.7494,42.73185],[-78.7494,42.73175],[-78.7494,42.73164],[-78.7494,42.73157],[-78.74939,42.73144],[-78.74935,42.73106],[-78.74932,42.73085],[-78.74927,42.73056],[-78.74923,42.73039],[-78.74922,42.73033],[-78.74918,42.73019],[-78.74912,42.72998],[-78.74901,42.72963],[-78.74896,42.72945],[-78.7489,42.72928],[-78.7489,42.72926],[-78.74881,42.72898],[-78.74875,42.72875],[-78.74874,42.72872],[-78.74866,42.7284],[-78.74866,42.7284],[-78.74992,42.72811],[-78.75016,42.72805],[-78.75039,42.728],[-78.75044,42.72799],[-78.75063,42.72795],[-78.75087,42.72791],[-78.75123,42.72784],[-78.75181,42.72773],[-78.75203,42.72769],[-78.75205,42.72768],[-78.75229,42.72764],[-78.75264,42.72758],[-78.753,42.72751],[-78.75324,42.72747],[-78.75348,42.72743],[-78.7542,42.72733],[-78.75426,42.72732],[-78.7545,42.72728],[-78.75468,42.72725],[-78.75474,42.72725],[-78.75546,42.72714],[-78.75564,42.72711],[-78.75588,42.72708],[-78.75594,42.72707]]}},{"type":"Feature","properties":{"_gpxType":"trk","name":"464 Girard Ave, East Aurora, NY 14052 - 172 Co Rd 126 - 316 Jewett Holmwood Rd - 965 Jewett Holmwood Rd - 6631 Jewett Holmwood Rd - 6340 Newton Rd - 2985 Lakeview Rd - 6013 Old Lake Shore Rd - Old Lake Shore Road Arthur Avenue N - 5905 NY-5","coordinateProperties":{},"id":1},"geometry":{"type":"LineString","coordinates":[[-78.75594,42.72707],[-78.75738,42.72687],[-78.75767,42.72683],[-78.75845,42.72673],[-78.75855,42.72672],[-78.75893,42.72667],[-78.75907,42.72666],[-78.75925,42.72664],[-78.75931,42.72664],[-78.75949,42.72662],[-78.75967,42.72661],[-78.75984,42.72661],[-78.76004,42.72662],[-78.7603,42.72666],[-78.76078,42.72673],[-78.76146,42.72683],[-78.76222,42.72694],[-78.76246,42.72698],[-78.76295,42.72705],[-78.76354,42.72714],[-78.7639,42.72718],[-78.76402,42.72719],[-78.76421,42.7272],[-78.76422,42.7272],[-78.76446,42.72718],[-78.7646,42.72715],[-78.76487,42.72708],[-78.76499,42.72703],[-78.76506,42.727],[-78.7652,42.72694],[-78.76526,42.72691],[-78.76548,42.72678],[-78.76571,42.72662],[-78.76593,42.72645],[-78.76612,42.7263],[-78.7664,42.72607],[-78.76641,42.72606],[-78.76666,42.72584],[-78.76781,42.7248],[-78.76796,42.72466],[-78.76843,42.72425],[-78.7686,42.72411],[-78.76882,42.72393],[-78.76899,42.72381],[-78.76901,42.72379],[-78.76917,42.72368],[-78.76941,42.72353],[-78.76957,42.72344],[-78.76962,42.72341],[-78.76976,42.72333],[-78.76985,42.72329],[-78.76997,42.72324],[-78.77003,42.72321],[-78.77018,42.72314],[-78.77025,42.72311],[-78.77053,42.723],[-78.77061,42.72297],[-78.77083,42.7229],[-78.77084,42.72289],[-78.77102,42.72284],[-78.77126,42.72277],[-78.7715,42.72271],[-78.77166,42.72267],[-78.77183,42.72264],[-78.77199,42.72261],[-78.77207,42.7226],[-78.77223,42.72258],[-78.77242,42.72255],[-78.77247,42.72255],[-78.77257,42.72254],[-78.77272,42.72253],[-78.77273,42.72252],[-78.77322,42.72249],[-78.77345,42.72248],[-78.77352,42.72248],[-78.77369,42.72247],[-78.77564,42.72236],[-78.77589,42.72235],[-78.77638,42.72233],[-78.77698,42.72229],[-78.77721,42.72228],[-78.77727,42.72228],[-78.77745,42.72227],[-78.77769,42.72225],[-78.77774,42.72225],[-78.77778,42.72225],[-78.77818,42.72222],[-78.7812,42.72207],[-78.78136,42.72206],[-78.78209,42.72202],[-78.7834,42.72196],[-78.78429,42.72192],[-78.78453,42.72191],[-78.78523,42.72187],[-78.78704,42.72179],[-78.78911,42.7217],[-78.78918,42.72169],[-78.78942,42.72168],[-78.78966,42.72167],[-78.79089,42.72162],[-78.79124,42.7216],[-78.79208,42.72157],[-78.79259,42.72153],[-78.7929,42.72154],[-78.79326,42.72152],[-78.79356,42.72149],[-78.79358,42.72149],[-78.7938,42.72145],[-78.79395,42.72143],[-78.79432,42.72135],[-78.79488,42.72122],[-78.79521,42.72113],[-78.79559,42.72104],[-78.7959,42.72096],[-78.79613,42.7209],[-78.79647,42.72081],[-78.79706,42.72067],[-78.79708,42.72067],[-78.79744,42.72058],[-78.79769,42.72053],[-78.79792,42.72049],[-78.79793,42.72048],[-78.79817,42.72045],[-78.79846,42.72041],[-78.79864,42.72038],[-78.79888,42.72035],[-78.79901,42.72034],[-78.79936,42.72029],[-78.7996,42.72025],[-78.79983,42.72022],[-78.8,42.72019],[-78.80026,42.72014],[-78.80055,42.72008],[-78.80059,42.72006],[-78.80093,42.71997],[-78.80191,42.71966],[-78.80213,42.71959],[-78.80348,42.71916],[-78.80378,42.71907],[-78.80438,42.71887],[-78.8052,42.7186],[-78.80527,42.71858],[-78.80542,42.71854],[-78.8055,42.71852],[-78.80566,42.71849],[-78.80578,42.71846],[-78.8059,42.71845],[-78.80601,42.71845],[-78.80622,42.71845],[-78.80761,42.71846],[-78.80843,42.71846],[-78.80869,42.71847],[-78.80892,42.71847],[-78.80916,42.71847],[-78.80941,42.71847],[-78.81038,42.71848],[-78.81087,42.71849],[-78.81136,42.71849],[-78.81161,42.71849],[-78.81278,42.7185],[-78.81308,42.7185],[-78.81319,42.7185],[-78.81332,42.7185],[-78.8135,42.71851],[-78.81351,42.71851],[-78.81362,42.71851],[-78.8137,42.7185],[-78.81379,42.71849],[-78.81393,42.71847],[-78.81404,42.71845],[-78.81423,42.7184],[-78.81436,42.71836],[-78.81444,42.71834],[-78.81446,42.71833],[-78.81467,42.71825],[-78.81501,42.71811],[-78.8151,42.71807],[-78.81554,42.71789],[-78.81565,42.71785],[-78.81579,42.71779],[-78.81603,42.71769],[-78.81645,42.71751],[-78.81666,42.71742],[-78.81677,42.71737],[-78.81689,42.71731],[-78.81706,42.71723],[-78.81721,42.71714],[-78.81756,42.71695],[-78.81796,42.71673],[-78.81822,42.71657],[-78.8185,42.71642],[-78.81858,42.71637],[-78.81911,42.71607],[-78.81922,42.71601],[-78.81976,42.71569],[-78.82002,42.71554],[-78.82007,42.71551],[-78.82011,42.71549],[-78.82023,42.71541],[-78.82041,42.71529],[-78.82041,42.71529],[-78.82087,42.71532],[-78.82295,42.71548],[-78.82322,42.7155],[-78.82465,42.71561],[-78.82492,42.71563],[-78.82546,42.71566],[-78.82602,42.7157],[-78.82636,42.71571],[-78.82641,42.71571],[-78.82675,42.71572],[-78.82691,42.71573],[-78.82724,42.71574],[-78.82753,42.71574],[-78.82763,42.71574],[-78.82773,42.71574],[-78.82783,42.71574],[-78.82809,42.71573],[-78.82821,42.71572],[-78.82867,42.71572],[-78.82924,42.7158],[-78.82924,42.7158],[-78.82925,42.71582],[-78.82926,42.71582],[-78.82927,42.71583],[-78.82927,42.71584],[-78.82928,42.71584],[-78.82929,42.71585],[-78.8293,42.71586],[-78.82931,42.71587],[-78.82932,42.71587],[-78.82933,42.71588],[-78.82934,42.71588],[-78.82935,42.71588],[-78.82936,42.71588],[-78.82937,42.71589],[-78.82938,42.71589],[-78.8294,42.71589],[-78.82941,42.71589],[-78.82942,42.71589],[-78.82943,42.71589],[-78.82944,42.71589],[-78.82945,42.71589],[-78.82946,42.71588],[-78.82947,42.71588],[-78.82948,42.71588],[-78.82949,42.71588],[-78.8295,42.71587],[-78.82951,42.71587],[-78.82952,42.71587],[-78.82953,42.71586],[-78.82954,42.71585],[-78.82956,42.71584],[-78.82957,42.71583],[-78.82958,42.71582],[-78.82959,42.71581],[-78.82959,42.7158],[-78.82959,42.71579],[-78.8296,42.71578],[-78.8296,42.71577],[-78.8296,42.71576],[-78.8296,42.71575],[-78.8296,42.71574],[-78.8296,42.71573],[-78.8296,42.71572],[-78.82959,42.71572],[-78.82959,42.71571],[-78.82959,42.7157],[-78.82958,42.71569],[-78.82957,42.71568],[-78.82957,42.71567],[-78.82956,42.71567],[-78.82955,42.71566],[-78.82954,42.71565],[-78.82953,42.71565],[-78.82953,42.71564],[-78.82951,42.71563],[-78.82949,42.71559],[-78.82948,42.71558],[-78.82948,42.71556],[-78.82948,42.71555],[-78.82947,42.71554],[-78.82947,42.71551],[-78.82947,42.71547],[-78.82947,42.71542],[-78.82947,42.71538],[-78.82947,42.71535],[-78.82947,42.71533],[-78.82946,42.7153],[-78.82945,42.71526],[-78.82944,42.71522],[-78.82944,42.71508],[-78.82948,42.71449],[-78.82948,42.71449],[-78.83003,42.7145],[-78.83087,42.71452],[-78.83094,42.71452],[-78.83209,42.71454],[-78.83446,42.71457],[-78.83568,42.71459],[-78.83573,42.71459],[-78.83593,42.71459],[-78.83673,42.71461],[-78.83913,42.71465],[-78.83913,42.71465],[-78.83917,42.71484],[-78.83913,42.71608],[-78.83912,42.71657],[-78.83911,42.71663],[-78.83911,42.71663],[-78.83919,42.71662],[-78.83924,42.71661],[-78.83929,42.7166],[-78.83933,42.71659],[-78.83942,42.71656],[-78.83949,42.71654],[-78.83956,42.71652],[-78.83963,42.7165],[-78.8397,42.71648],[-78.83987,42.71641],[-78.83992,42.71639],[-78.84,42.71636],[-78.84005,42.71633],[-78.8401,42.71631],[-78.84017,42.71627],[-78.84022,42.71624],[-78.84028,42.71621],[-78.84033,42.71618],[-78.84037,42.71615],[-78.84041,42.71613],[-78.84054,42.71604],[-78.84054,42.71604],[-78.84063,42.71605],[-78.84066,42.71605],[-78.84071,42.71605],[-78.84075,42.71605],[-78.8408,42.71605],[-78.84086,42.71604],[-78.84092,42.71602],[-78.84104,42.71598],[-78.84124,42.71591],[-78.84135,42.71587],[-78.84224,42.71554],[-78.84355,42.71508],[-78.84394,42.71494],[-78.84415,42.71486],[-78.84435,42.71479],[-78.84457,42.71471],[-78.84477,42.71465],[-78.84489,42.71461],[-78.84502,42.71456],[-78.84519,42.71452],[-78.84534,42.71448],[-78.84544,42.71447],[-78.84551,42.71445],[-78.84573,42.71442],[-78.84584,42.71441],[-78.846,42.71439],[-78.846,42.71439],[-78.8462,42.71438],[-78.84637,42.71438],[-78.8466,42.71438],[-78.84717,42.71439],[-78.84793,42.71441],[-78.84944,42.71444],[-78.85063,42.71446],[-78.85126,42.71447],[-78.85163,42.71448],[-78.8531,42.71451],[-78.85335,42.71451],[-78.85352,42.71452],[-78.85359,42.71452],[-78.85414,42.71453],[-78.85512,42.71454],[-78.8559,42.71456],[-78.8572,42.71459],[-78.85726,42.71459],[-78.85763,42.71459],[-78.85775,42.71459],[-78.8579,42.7146],[-78.85823,42.7146],[-78.8585,42.7146],[-78.85872,42.7146],[-78.85898,42.71459],[-78.85919,42.71459],[-78.85965,42.71458],[-78.86009,42.71457],[-78.86011,42.71457],[-78.86046,42.71456],[-78.86306,42.7145],[-78.86362,42.71448],[-78.86378,42.71448],[-78.86387,42.71448],[-78.86411,42.71447],[-78.86433,42.71446],[-78.86485,42.71446],[-78.86546,42.71447],[-78.86565,42.71448],[-78.86602,42.71451],[-78.86631,42.71454],[-78.86663,42.71458],[-78.86711,42.71465],[-78.86767,42.71473],[-78.86776,42.71474],[-78.86824,42.71481],[-78.86833,42.71482],[-78.86897,42.71492],[-78.86987,42.71505],[-78.87419,42.71569],[-78.87454,42.71573],[-78.87499,42.7158],[-78.87569,42.7159],[-78.87614,42.71594],[-78.87622,42.71594],[-78.87643,42.71595],[-78.87682,42.71596],[-78.87711,42.71596],[-78.87744,42.71594],[-78.87761,42.71593],[-78.87795,42.71589],[-78.87831,42.71584],[-78.87858,42.7158],[-78.87883,42.71575],[-78.87937,42.71561],[-78.87984,42.71546],[-78.87997,42.71542],[-78.88037,42.71526],[-78.88061,42.71516],[-78.88122,42.71492],[-78.88195,42.71463],[-78.88338,42.71405],[-78.88369,42.71392],[-78.88426,42.71369],[-78.88448,42.71361],[-78.88468,42.71353],[-78.88529,42.71328],[-78.88553,42.71319],[-78.88553,42.71319],[-78.8855,42.71301]]}},{"type":"Feature","properties":{"_gpxType":"trk","name":"464 Girard Ave, East Aurora, NY 14052 - 172 Co Rd 126 - 316 Jewett Holmwood Rd - 965 Jewett Holmwood Rd - 6631 Jewett Holmwood Rd - 6340 Newton Rd - 2985 Lakeview Rd - 6013 Old Lake Shore Rd - Old Lake Shore Road Arthur Avenue N - 5905 NY-5","coordinateProperties":{},"id":1},"geometry":{"type":"LineString","coordinates":[[-78.8855,42.71301],[-78.88553,42.71319],[-78.88553,42.71319],[-78.88591,42.71303],[-78.8862,42.71292],[-78.88698,42.7126],[-78.8873,42.71248],[-78.88788,42.71224],[-78.88947,42.71161],[-78.88971,42.71152],[-78.89035,42.71125],[-78.89042,42.71122],[-78.89129,42.71088],[-78.89197,42.71061],[-78.89357,42.70997],[-78.89427,42.70969],[-78.89499,42.7094],[-78.89619,42.70891],[-78.89633,42.70886],[-78.89698,42.70859],[-78.89756,42.70836],[-78.89855,42.70798],[-78.89903,42.70782],[-78.89945,42.7077],[-78.89946,42.7077],[-78.8996,42.70767],[-78.89971,42.70766],[-78.89982,42.70764],[-78.89992,42.70763],[-78.90012,42.70762],[-78.90024,42.70761],[-78.90045,42.7076],[-78.90082,42.7076],[-78.90083,42.7076],[-78.90112,42.7076],[-78.90149,42.70759],[-78.90221,42.70759],[-78.90322,42.70757],[-78.90327,42.70757],[-78.9042,42.70756],[-78.90442,42.70756],[-78.90444,42.70756],[-78.90469,42.70756],[-78.90616,42.70754],[-78.90773,42.70753],[-78.90862,42.70752],[-78.90936,42.70752],[-78.90982,42.70752],[-78.91028,42.70751],[-78.91073,42.70751],[-78.91084,42.7075],[-78.91109,42.7075],[-78.91144,42.7075],[-78.91185,42.70749],[-78.91218,42.70749],[-78.91242,42.70749],[-78.91316,42.70748],[-78.91344,42.70747],[-78.91365,42.70747],[-78.91389,42.70747],[-78.91512,42.70746],[-78.91578,42.70745],[-78.91586,42.70745],[-78.91627,42.70745],[-78.91652,42.70744],[-78.91659,42.70744],[-78.91695,42.70744],[-78.91798,42.70743],[-78.91904,42.70742],[-78.91929,42.70741],[-78.91949,42.70741],[-78.9197,42.70741],[-78.92021,42.70741],[-78.92109,42.7074],[-78.92304,42.70738],[-78.92524,42.70736],[-78.92682,42.70734],[-78.92706,42.70734],[-78.92737,42.70734],[-78.92829,42.70732],[-78.92858,42.70733],[-78.92878,42.70733],[-78.9289,42.70733],[-78.92902,42.70733],[-78.92913,42.70733],[-78.92927,42.70733],[-78.9293,42.70734],[-78.92943,42.70735],[-78.92956,42.70737],[-78.9297,42.7074],[-78.92986,42.70745],[-78.93004,42.70751],[-78.9302,42.70757],[-78.93039,42.70766],[-78.93063,42.70776],[-78.93145,42.70811],[-78.93191,42.70841],[-78.93241,42.70874],[-78.93251,42.70881],[-78.9327,42.70893],[-78.93273,42.70895],[-78.93278,42.70898],[-78.93324,42.70929],[-78.93346,42.70943],[-78.9335,42.70947],[-78.93379,42.70965],[-78.9346,42.71019],[-78.93472,42.71027],[-78.935,42.71045],[-78.93518,42.71057],[-78.93591,42.71104],[-78.9364,42.71136],[-78.93695,42.71171],[-78.93714,42.71183],[-78.93732,42.71194],[-78.93765,42.71215],[-78.93791,42.71233],[-78.93812,42.71248],[-78.93826,42.7126],[-78.93852,42.71284],[-78.93856,42.71288],[-78.93858,42.71291],[-78.93865,42.71299],[-78.9387,42.71305],[-78.93877,42.71313],[-78.93879,42.71316],[-78.93893,42.71336],[-78.93899,42.71347],[-78.93914,42.71375],[-78.93935,42.71419],[-78.93955,42.71462],[-78.93957,42.71465],[-78.93963,42.71475],[-78.93977,42.71493],[-78.93979,42.71497],[-78.93986,42.71505],[-78.93997,42.71517],[-78.94006,42.71527],[-78.94019,42.7154],[-78.94075,42.71594],[-78.94146,42.71661],[-78.94155,42.71669],[-78.94305,42.71812],[-78.94329,42.71834],[-78.94347,42.71851],[-78.94359,42.71862],[-78.94404,42.71905],[-78.94407,42.71908],[-78.94408,42.71908],[-78.94434,42.71933],[-78.9446,42.71958],[-78.94464,42.71961],[-78.9449,42.71988],[-78.94521,42.7202],[-78.94527,42.72026],[-78.94564,42.72061],[-78.94565,42.72063],[-78.94578,42.72074],[-78.94599,42.72094],[-78.94624,42.72117],[-78.94626,42.72119],[-78.94641,42.72133],[-78.94649,42.7214],[-78.9467,42.7216],[-78.94687,42.72175],[-78.94703,42.72189],[-78.94715,42.72201],[-78.94718,42.72203],[-78.94748,42.72232],[-78.9477,42.72251],[-78.94779,42.7226],[-78.94809,42.72288],[-78.9484,42.72317],[-78.94871,42.72347],[-78.94895,42.72369],[-78.94962,42.72432],[-78.95006,42.72472],[-78.95008,42.72474],[-78.95052,42.72517],[-78.95064,42.72529],[-78.95067,42.72532],[-78.95082,42.72546],[-78.95085,42.72548],[-78.95117,42.72579],[-78.95117,42.72579],[-78.9513,42.72572],[-78.95163,42.72553],[-78.95192,42.72537],[-78.9521,42.72526],[-78.95222,42.7252],[-78.95257,42.725],[-78.9526,42.72498],[-78.95281,42.72487],[-78.95302,42.72474],[-78.95316,42.72467],[-78.95333,42.72457]]}},{"type":"Feature","properties":{"_gpxType":"trk","name":"464 Girard Ave, East Aurora, NY 14052 - 172 Co Rd 126 - 316 Jewett Holmwood Rd - 965 Jewett Holmwood Rd - 6631 Jewett Holmwood Rd - 6340 Newton Rd - 2985 Lakeview Rd - 6013 Old Lake Shore Rd - Old Lake Shore Road Arthur Avenue N - 5905 NY-5","coordinateProperties":{},"id":1},"geometry":{"type":"LineString","coordinates":[[-78.95333,42.72457],[-78.95336,42.72455],[-78.95369,42.72437],[-78.95375,42.72434],[-78.95393,42.72424],[-78.95433,42.72402],[-78.95452,42.72392],[-78.95472,42.72381],[-78.95492,42.7237],[-78.95516,42.72357],[-78.95538,42.72345],[-78.95561,42.72332],[-78.95609,42.72306],[-78.95625,42.72297],[-78.9563,42.72295],[-78.95649,42.72284],[-78.95672,42.72271],[-78.95681,42.72267],[-78.957,42.72256],[-78.95722,42.72245],[-78.95729,42.72242],[-78.95738,42.72237],[-78.95761,42.72224],[-78.95779,42.72215],[-78.95791,42.72209],[-78.95813,42.72197],[-78.95856,42.72174],[-78.95914,42.72144],[-78.95963,42.72118],[-78.95972,42.72114],[-78.96011,42.72093],[-78.96075,42.72059],[-78.96099,42.72046],[-78.96134,42.72028],[-78.9615,42.72019],[-78.96152,42.72018],[-78.96163,42.7201],[-78.96168,42.72006],[-78.96172,42.72003],[-78.9618,42.71995],[-78.96188,42.71986],[-78.96192,42.71979],[-78.96195,42.71974],[-78.96199,42.71967],[-78.96203,42.71959],[-78.96222,42.71928],[-78.96238,42.71902],[-78.96244,42.71891],[-78.96245,42.71891],[-78.96246,42.71889],[-78.96263,42.71861],[-78.9627,42.71849],[-78.96293,42.7181],[-78.96318,42.71767],[-78.96319,42.71766],[-78.96339,42.71733],[-78.96381,42.71662],[-78.96413,42.71609],[-78.96438,42.71566],[-78.96458,42.71533],[-78.96469,42.71514],[-78.96478,42.715],[-78.96516,42.71437],[-78.96518,42.71435],[-78.96527,42.71418],[-78.96552,42.71377],[-78.96558,42.71367],[-78.96573,42.7134],[-78.96576,42.71334],[-78.96577,42.71334],[-78.96582,42.71324],[-78.96584,42.71321],[-78.96603,42.71293],[-78.96604,42.71292],[-78.96605,42.71291],[-78.96617,42.71276],[-78.96629,42.7126],[-78.96631,42.71258],[-78.96652,42.71229],[-78.96674,42.71197],[-78.96685,42.71181],[-78.96687,42.71178],[-78.96697,42.71165],[-78.96701,42.7116],[-78.9671,42.71149],[-78.9671,42.71148],[-78.96724,42.71135],[-78.96725,42.71133],[-78.96734,42.71126],[-78.9674,42.71121],[-78.96743,42.71119],[-78.96757,42.71111],[-78.96773,42.71103],[-78.96785,42.71098],[-78.968,42.71093],[-78.96802,42.71093],[-78.96825,42.71087],[-78.96826,42.71086],[-78.96843,42.71083],[-78.96895,42.71071],[-78.969,42.7107],[-78.9692,42.71065],[-78.96969,42.71052],[-78.97032,42.71034],[-78.97078,42.71022],[-78.97101,42.71016],[-78.97124,42.71009],[-78.97147,42.71003],[-78.97169,42.70997],[-78.97209,42.70986],[-78.97215,42.70984],[-78.97238,42.70978],[-78.97242,42.70977],[-78.97284,42.70965],[-78.97307,42.70959],[-78.97309,42.70959],[-78.97312,42.70958],[-78.9733,42.70953],[-78.97353,42.70946],[-78.97362,42.70944],[-78.97369,42.70942],[-78.97376,42.7094],[-78.97385,42.70937],[-78.97394,42.70935],[-78.97399,42.70934],[-78.97417,42.70928],[-78.97421,42.70927],[-78.97476,42.7091],[-78.97587,42.70874],[-78.97683,42.70844],[-78.97698,42.7084],[-78.97781,42.70814],[-78.97811,42.70804],[-78.97874,42.70784],[-78.97921,42.70769],[-78.98029,42.70734],[-78.98142,42.70698],[-78.98251,42.70662],[-78.98304,42.70645],[-78.98328,42.70637],[-78.98355,42.70628],[-78.98439,42.70601],[-78.98595,42.7055],[-78.98618,42.70543],[-78.9864,42.70536],[-78.98662,42.70528],[-78.98732,42.70506],[-78.98799,42.70484],[-78.98834,42.70473],[-78.98857,42.70465],[-78.98879,42.70458],[-78.99036,42.70408],[-78.99151,42.70369],[-78.99174,42.70362],[-78.9922,42.70347],[-78.99241,42.70341],[-78.99286,42.70326],[-78.99308,42.70319],[-78.99381,42.70296],[-78.99468,42.70269],[-78.99491,42.70262],[-78.99558,42.70241],[-78.99649,42.70214],[-78.99672,42.70207],[-78.99787,42.70172],[-78.99829,42.70159],[-78.99844,42.70154],[-78.99935,42.70126],[-78.99953,42.70121],[-78.99998,42.70107],[-79.00038,42.70095],[-79.00043,42.70094],[-79.00066,42.70087],[-79.00111,42.70073],[-79.00126,42.7007],[-79.0014,42.70066],[-79.00181,42.70058],[-79.00204,42.70054],[-79.00205,42.70053],[-79.00237,42.70048],[-79.00272,42.70043],[-79.00301,42.7004],[-79.00374,42.70032],[-79.00426,42.70026],[-79.00446,42.70024],[-79.00486,42.7002],[-79.00506,42.70018],[-79.00517,42.70017],[-79.00535,42.70014],[-79.00559,42.70011],[-79.00583,42.70008],[-79.00593,42.70007],[-79.00616,42.70004],[-79.00635,42.70001],[-79.0068,42.69995],[-79.00688,42.69994],[-79.00704,42.69991],[-79.00712,42.6999],[-79.00738,42.69985],[-79.00751,42.69983],[-79.00776,42.69978],[-79.00807,42.69972],[-79.00822,42.69969],[-79.00826,42.69969],[-79.00854,42.69962],[-79.00869,42.69959],[-79.00884,42.69956],[-79.00896,42.69953],[-79.00901,42.69952],[-79.00916,42.69948],[-79.00924,42.69946],[-79.00939,42.69942],[-79.00968,42.69935],[-79.01031,42.69919],[-79.01116,42.69897],[-79.01202,42.69875],[-79.01341,42.69839],[-79.0141,42.69821],[-79.01478,42.69804],[-79.01548,42.69785],[-79.01618,42.69768],[-79.01619,42.69767],[-79.01645,42.69761],[-79.01664,42.69756],[-79.01696,42.69748],[-79.01808,42.69724],[-79.0184,42.69717],[-79.0191,42.69704],[-79.0192,42.69702],[-79.01923,42.69702],[-79.01952,42.69696],[-79.0197,42.69693],[-79.01996,42.69688],[-79.02032,42.69681],[-79.02041,42.69679],[-79.02057,42.69676],[-79.02076,42.69672],[-79.02091,42.69668],[-79.02098,42.69665],[-79.02108,42.69661],[-79.0211,42.6966],[-79.02116,42.69657],[-79.02122,42.69654],[-79.02128,42.6965],[-79.02138,42.69642],[-79.02157,42.69626],[-79.02185,42.69603],[-79.022,42.69591],[-79.0221,42.69583],[-79.02216,42.69578],[-79.02224,42.69573],[-79.02233,42.69567],[-79.02241,42.69563],[-79.02248,42.6956],[-79.0225,42.69559],[-79.02266,42.69553],[-79.02279,42.69549],[-79.02289,42.69547],[-79.02296,42.69545],[-79.02306,42.69544],[-79.02312,42.69543],[-79.0232,42.69542],[-79.02332,42.69541],[-79.0234,42.69541],[-79.02353,42.69541],[-79.02372,42.6954],[-79.02384,42.69541],[-79.02407,42.6954],[-79.02415,42.6954],[-79.02418,42.6954],[-79.02428,42.69539],[-79.02435,42.69538],[-79.02442,42.69537],[-79.02447,42.69536],[-79.0245,42.69535],[-79.02455,42.69534],[-79.0246,42.69532],[-79.02462,42.69531],[-79.02464,42.69531],[-79.02467,42.69529],[-79.02472,42.69527],[-79.02478,42.69524],[-79.02483,42.69521],[-79.02487,42.69517],[-79.02495,42.69511],[-79.02504,42.69502],[-79.02513,42.69492],[-79.02539,42.69463],[-79.02553,42.69448],[-79.02565,42.69435],[-79.0257,42.69429],[-79.026,42.69397],[-79.02624,42.6937],[-79.02693,42.69295],[-79.02751,42.69232],[-79.02765,42.69218],[-79.02779,42.69203],[-79.02792,42.69188],[-79.02806,42.69173],[-79.02834,42.69143],[-79.02859,42.69115],[-79.02884,42.69089],[-79.02923,42.69048],[-79.02944,42.69024],[-79.02958,42.6901],[-79.02979,42.68988],[-79.03058,42.68902],[-79.03068,42.68891],[-79.03082,42.68876],[-79.03101,42.68855],[-79.03104,42.68851],[-79.03168,42.68782],[-79.03311,42.68629],[-79.03325,42.68614],[-79.03366,42.6857],[-79.03368,42.68568],[-79.0338,42.68555],[-79.03408,42.68525],[-79.03421,42.68511],[-79.03463,42.68466],[-79.03472,42.68456],[-79.035,42.68426],[-79.03504,42.68421],[-79.03531,42.68391],[-79.03532,42.6839],[-79.03544,42.68376],[-79.03554,42.68363],[-79.03556,42.6836],[-79.03565,42.68349],[-79.03581,42.68329],[-79.03581,42.68329],[-79.03595,42.68308],[-79.03613,42.68279],[-79.03617,42.68274],[-79.03644,42.68232],[-79.03654,42.68216],[-79.03664,42.682],[-79.03683,42.68171],[-79.03716,42.68117],[-79.03726,42.68101],[-79.03754,42.68057],[-79.03788,42.68003],[-79.03795,42.67993],[-79.03797,42.67989],[-79.03817,42.67955],[-79.03832,42.67931],[-79.03929,42.67774],[-79.03932,42.6777],[-79.03953,42.67737],[-79.03971,42.67708],[-79.04022,42.67627],[-79.04034,42.67608],[-79.04035,42.67605],[-79.04042,42.67594],[-79.04078,42.67538],[-79.04093,42.67514],[-79.04095,42.6751],[-79.04125,42.67463],[-79.04136,42.67444],[-79.0418,42.67388],[-79.0418,42.67388],[-79.04255,42.67389],[-79.04354,42.67384],[-79.04378,42.67384],[-79.04403,42.67384],[-79.04451,42.67384],[-79.04476,42.67384],[-79.04525,42.67384],[-79.04549,42.67384],[-79.04598,42.67384],[-79.04672,42.67384],[-79.04721,42.67384],[-79.04794,42.67384],[-79.04818,42.67384],[-79.04941,42.67384],[-79.04965,42.67384],[-79.0499,42.67383],[-79.05024,42.67383],[-79.05065,42.67383],[-79.05112,42.67379],[-79.05128,42.67372],[-79.05141,42.67365],[-79.0515,42.67357],[-79.0521,42.673],[-79.05293,42.67211],[-79.0538,42.67122],[-79.05404,42.67097],[-79.05445,42.67056],[-79.05467,42.67032],[-79.05481,42.67018],[-79.05495,42.67003],[-79.05509,42.66988],[-79.05517,42.66981],[-79.05523,42.66973],[-79.05541,42.66952],[-79.05555,42.66937],[-79.05568,42.66922],[-79.05581,42.66906],[-79.05594,42.66891],[-79.05607,42.66876],[-79.05616,42.66866],[-79.0562,42.66861],[-79.05659,42.66815],[-79.05672,42.668],[-79.05685,42.66785],[-79.05698,42.66769],[-79.05711,42.66754],[-79.05724,42.66739],[-79.0575,42.66708],[-79.05753,42.66704],[-79.05768,42.66687],[-79.0578,42.6667],[-79.05785,42.66662],[-79.05789,42.66653],[-79.05795,42.66639],[-79.05798,42.66624],[-79.05801,42.66608],[-79.05802,42.66601],[-79.05801,42.66553],[-79.05802,42.66455],[-79.05803,42.66337],[-79.05806,42.66191],[-79.05807,42.66092],[-79.05809,42.65987],[-79.05823,42.65961],[-79.05847,42.65918],[-79.05847,42.65917],[-79.05853,42.65908],[-79.05856,42.65901],[-79.05894,42.65835],[-79.059,42.65824],[-79.05913,42.65802],[-79.05922,42.65786],[-79.05927,42.65779],[-79.05932,42.6577],[-79.05942,42.65754],[-79.05968,42.65709],[-79.06,42.65655],[-79.06007,42.65628],[-79.06014,42.65594],[-79.06023,42.65517],[-79.06028,42.65486],[-79.0603,42.65468],[-79.06039,42.65411],[-79.06042,42.65378],[-79.06046,42.65348],[-79.06051,42.65308],[-79.06054,42.65288],[-79.06056,42.65274],[-79.06061,42.65247],[-79.06063,42.65233],[-79.06071,42.65185],[-79.06071,42.65184],[-79.06074,42.65164],[-79.06077,42.65154],[-79.06081,42.65139],[-79.06085,42.65126],[-79.06093,42.65099],[-79.06097,42.65089],[-79.06099,42.65085],[-79.06107,42.65062],[-79.0611,42.65054],[-79.0616,42.64915],[-79.06191,42.64828],[-79.06197,42.64811],[-79.06212,42.64768],[-79.06224,42.64729],[-79.06243,42.64662],[-79.06259,42.64609],[-79.06264,42.64592],[-79.06268,42.64577],[-79.06274,42.64557],[-79.06282,42.64527],[-79.06285,42.64516],[-79.06285,42.645],[-79.06247,42.6441],[-79.06246,42.64405],[-79.0624,42.64392],[-79.06234,42.64375],[-79.06234,42.64375],[-79.0627,42.64343],[-79.06281,42.64333],[-79.06367,42.64265],[-79.06381,42.64254],[-79.06398,42.64241],[-79.06411,42.64231],[-79.0645,42.642],[-79.06506,42.64156],[-79.0653,42.64146],[-79.06595,42.6412],[-79.06723,42.64067],[-79.06766,42.6405],[-79.06851,42.64015],[-79.06974,42.63965],[-79.06978,42.63963],[-79.07041,42.63936],[-79.07062,42.63927],[-79.07103,42.6391],[-79.07154,42.63888],[-79.0717,42.63882],[-79.07246,42.6385],[-79.07288,42.63833],[-79.07322,42.63817],[-79.07338,42.63808],[-79.0735,42.63802],[-79.07374,42.63787],[-79.07375,42.63786],[-79.07431,42.63749],[-79.07465,42.63725],[-79.07482,42.63712],[-79.07544,42.63666],[-79.07577,42.63642],[-79.07593,42.63631],[-79.07628,42.63605],[-79.07645,42.63592],[-79.07714,42.63541],[-79.07829,42.63454],[-79.07888,42.63412],[-79.07908,42.63398],[-79.08076,42.6327],[-79.08093,42.63257],[-79.08095,42.63255],[-79.08177,42.63192],[-79.08199,42.63175],[-79.08212,42.63166],[-79.08331,42.63077],[-79.08396,42.6303],[-79.0843,42.63005],[-79.08452,42.62989],[-79.08456,42.62986],[-79.08472,42.62974],[-79.08485,42.62967],[-79.08493,42.62963],[-79.08508,42.62955],[-79.08512,42.62952],[-79.08525,42.62946],[-79.0855,42.62932],[-79.08564,42.62925],[-79.08567,42.62924],[-79.08572,42.62921],[-79.08582,42.62916],[-79.08592,42.62911],[-79.08608,42.62903],[-79.08613,42.62901],[-79.08625,42.62895],[-79.08653,42.62881],[-79.08728,42.62842],[-79.08733,42.6284],[-79.08753,42.62829],[-79.08774,42.62819],[-79.08797,42.62806],[-79.08811,42.628],[-79.08829,42.6279],[-79.08868,42.62771],[-79.0888,42.62765],[-79.08926,42.62743],[-79.0903,42.62692],[-79.09134,42.62645],[-79.09195,42.62615],[-79.09212,42.62607],[-79.09242,42.62593],[-79.09275,42.62564],[-79.09316,42.62519],[-79.09335,42.62499],[-79.09394,42.62436],[-79.09423,42.62405],[-79.09446,42.6238],[-79.09461,42.62365],[-79.09517,42.62306],[-79.09531,42.62291],[-79.09559,42.62262],[-79.09568,42.62252],[-79.09589,42.62223],[-79.09622,42.62174],[-79.09629,42.62163],[-79.09639,42.62149],[-79.09672,42.62101],[-79.09683,42.62085],[-79.09763,42.61971],[-79.09772,42.61934],[-79.09777,42.61909]]}},{"type":"Feature","properties":{"_gpxType":"trk","name":"464 Girard Ave, East Aurora, NY 14052 - 172 Co Rd 126 - 316 Jewett Holmwood Rd - 965 Jewett Holmwood Rd - 6631 Jewett Holmwood Rd - 6340 Newton Rd - 2985 Lakeview Rd - 6013 Old Lake Shore Rd - Old Lake Shore Road Arthur Avenue N - 5905 NY-5","coordinateProperties":{},"id":1},"geometry":{"type":"LineString","coordinates":[[-79.09777,42.61909],[-79.09786,42.61869],[-79.09798,42.61812],[-79.098,42.61803],[-79.09815,42.61737],[-79.09822,42.61704],[-79.09829,42.61671],[-79.09833,42.61653],[-79.09844,42.61604],[-79.09846,42.61597],[-79.09858,42.61538],[-79.09868,42.61494],[-79.09873,42.61471],[-79.09888,42.61404],[-79.09891,42.61389],[-79.09902,42.61339],[-79.09922,42.61251],[-79.09934,42.61197],[-79.09938,42.6118],[-79.09949,42.61126],[-79.09953,42.61108],[-79.09957,42.61091],[-79.09961,42.61073],[-79.09965,42.61055],[-79.09968,42.6104],[-79.09976,42.61026],[-79.09986,42.61009],[-79.09994,42.60996],[-79.10005,42.60975],[-79.10013,42.60958],[-79.10022,42.60942],[-79.10031,42.60925],[-79.10059,42.60871],[-79.10075,42.60841],[-79.10085,42.60824],[-79.1013,42.60741],[-79.1014,42.60719],[-79.10156,42.60693],[-79.10164,42.60679],[-79.10168,42.6067],[-79.10176,42.60653],[-79.10183,42.60641],[-79.10192,42.60629],[-79.10199,42.60621],[-79.10201,42.60618],[-79.10211,42.60607],[-79.10213,42.60606],[-79.10229,42.60592],[-79.10241,42.60583],[-79.10245,42.6058],[-79.10256,42.60572],[-79.10273,42.60562],[-79.10289,42.60553],[-79.10303,42.60547],[-79.10307,42.60545],[-79.10324,42.60538],[-79.10325,42.60537],[-79.10346,42.6053],[-79.10391,42.60515],[-79.10394,42.60514],[-79.10413,42.60507],[-79.10435,42.605],[-79.10479,42.60484],[-79.10501,42.60477],[-79.10512,42.60473],[-79.10523,42.60469],[-79.10545,42.60461],[-79.10634,42.60429],[-79.10721,42.60397],[-79.10742,42.60389],[-79.10756,42.60384],[-79.10764,42.60381],[-79.10786,42.60373],[-79.1079,42.60371],[-79.10807,42.60364],[-79.10823,42.60357],[-79.10854,42.6034],[-79.10878,42.60326],[-79.10885,42.60321],[-79.10901,42.6031],[-79.10922,42.60294],[-79.10932,42.60285],[-79.1095,42.60267],[-79.10951,42.60267],[-79.10964,42.60252],[-79.10983,42.60231],[-79.10998,42.60213],[-79.11004,42.60207],[-79.11017,42.60194],[-79.11018,42.60193],[-79.11032,42.60178],[-79.11046,42.60163],[-79.11052,42.60155],[-79.11059,42.60148],[-79.11085,42.60117],[-79.11098,42.60102],[-79.111,42.60099],[-79.11124,42.60073],[-79.11125,42.60072],[-79.1114,42.60058],[-79.11147,42.60051],[-79.11177,42.60025],[-79.1122,42.59993],[-79.11247,42.59975],[-79.11251,42.59972],[-79.11265,42.59963],[-79.11287,42.5995],[-79.11304,42.59937],[-79.11321,42.59924],[-79.11337,42.5991],[-79.11352,42.59896],[-79.11364,42.59884],[-79.11366,42.59882],[-79.11379,42.59867],[-79.11386,42.59859],[-79.11398,42.59842],[-79.11409,42.59825],[-79.11415,42.59813],[-79.11421,42.59801],[-79.11437,42.59775],[-79.11453,42.5975],[-79.11466,42.59731],[-79.11471,42.59725],[-79.11478,42.59715],[-79.11488,42.597],[-79.11489,42.59699],[-79.11501,42.59686],[-79.11502,42.59684],[-79.11514,42.59672],[-79.11517,42.5967],[-79.11529,42.59659],[-79.11544,42.59645],[-79.11592,42.59602],[-79.1162,42.59578],[-79.11636,42.59564],[-79.11683,42.59523],[-79.11741,42.59469],[-79.11794,42.59425],[-79.11814,42.59406],[-79.11864,42.59366],[-79.11881,42.5935],[-79.11887,42.59344],[-79.11896,42.59334],[-79.11924,42.59298],[-79.11946,42.59263],[-79.11978,42.59211],[-79.11997,42.5918],[-79.12012,42.5916],[-79.12042,42.5911],[-79.12047,42.59095],[-79.12052,42.59069],[-79.12052,42.59043],[-79.12052,42.59042],[-79.12051,42.59016],[-79.1205,42.59],[-79.1205,42.5897],[-79.1205,42.58958],[-79.12048,42.58905],[-79.12046,42.58833],[-79.12046,42.58815],[-79.12044,42.58766],[-79.12044,42.58761],[-79.12044,42.58743],[-79.12042,42.58672],[-79.12044,42.586],[-79.12044,42.58565],[-79.12044,42.58565],[-79.12044,42.5855],[-79.12045,42.58506],[-79.1205,42.58398],[-79.12051,42.5838],[-79.12055,42.58308],[-79.12057,42.5827],[-79.12058,42.58262],[-79.12063,42.58172],[-79.12065,42.58154],[-79.12068,42.581],[-79.1207,42.58064],[-79.12071,42.58046],[-79.12071,42.58045],[-79.12073,42.58028],[-79.12074,42.5801],[-79.12081,42.57921],[-79.12082,42.57903],[-79.12086,42.57852],[-79.12087,42.57849],[-79.12088,42.57831],[-79.12089,42.57813],[-79.1209,42.57795],[-79.12094,42.57723],[-79.12095,42.57713],[-79.12101,42.57669],[-79.12102,42.57659],[-79.12118,42.57599],[-79.12118,42.57598],[-79.12148,42.57493],[-79.12174,42.57401],[-79.12192,42.5733],[-79.12193,42.57327],[-79.12197,42.57313],[-79.12212,42.5726],[-79.12217,42.57245],[-79.12218,42.57242],[-79.12223,42.57225],[-79.12232,42.57196],[-79.12232,42.57196],[-79.12201,42.57187],[-79.12178,42.5718],[-79.12156,42.57173],[-79.12133,42.57166],[-79.12106,42.57159],[-79.12087,42.57154],[-79.12041,42.57142],[-79.12038,42.57141],[-79.12018,42.57135],[-79.12016,42.57135],[-79.12014,42.57134],[-79.12,42.5713],[-79.11973,42.57123],[-79.1195,42.57117],[-79.11949,42.57117],[-79.11923,42.5711],[-79.11904,42.57108],[-79.11902,42.57108],[-79.11899,42.57108],[-79.11898,42.57108],[-79.11864,42.57105],[-79.1178,42.57105],[-79.11776,42.57105],[-79.11775,42.57105],[-79.11756,42.57105],[-79.11753,42.57105],[-79.11732,42.57105],[-79.11704,42.57105],[-79.11683,42.57106],[-79.11659,42.57106],[-79.11609,42.57105],[-79.11606,42.57105],[-79.11605,42.57105],[-79.11586,42.57105],[-79.11585,42.57105],[-79.11564,42.57106],[-79.11557,42.57106],[-79.1155,42.57106],[-79.11539,42.57108],[-79.11537,42.57108],[-79.11534,42.57109],[-79.11528,42.57111],[-79.11513,42.57118],[-79.11496,42.5713],[-79.1148,42.57142],[-79.11478,42.57143],[-79.11477,42.57144],[-79.11472,42.57148],[-79.11418,42.5719],[-79.11414,42.57194],[-79.11408,42.57201],[-79.11399,42.57209],[-79.11398,42.57211],[-79.11397,42.57212],[-79.11394,42.57216],[-79.11392,42.5722],[-79.11388,42.57228],[-79.11384,42.57234],[-79.11372,42.57248],[-79.11359,42.57256],[-79.11358,42.57256],[-79.11338,42.57266],[-79.11318,42.57276],[-79.11314,42.57278],[-79.11285,42.57293],[-79.11262,42.57308],[-79.1126,42.5731],[-79.11246,42.57317],[-79.11224,42.57334],[-79.11206,42.57346],[-79.11197,42.57353],[-79.11189,42.57358],[-79.11189,42.57359],[-79.11158,42.57381],[-79.11154,42.57384],[-79.11137,42.57397],[-79.11119,42.5741],[-79.11107,42.57419],[-79.1104,42.57468],[-79.11033,42.57473],[-79.10989,42.57506],[-79.10982,42.57511],[-79.1096,42.57527],[-79.10936,42.5755],[-79.10925,42.5756],[-79.10909,42.57575],[-79.10905,42.57581],[-79.10896,42.57591],[-79.10893,42.57597],[-79.10889,42.57603],[-79.10883,42.57613],[-79.10882,42.57615],[-79.10873,42.57629],[-79.10842,42.57678],[-79.10832,42.57694],[-79.10821,42.57711],[-79.10818,42.57716],[-79.10812,42.57727],[-79.10812,42.57728],[-79.10804,42.57744],[-79.10798,42.57755],[-79.10794,42.57761],[-79.10775,42.57794],[-79.10775,42.57794],[-79.10759,42.57789],[-79.10752,42.57788],[-79.1075,42.57787],[-79.10748,42.57787],[-79.10747,42.57788],[-79.10746,42.57788],[-79.10744,42.5779],[-79.10736,42.57805],[-79.10728,42.57819],[-79.10718,42.57837],[-79.10714,42.57846],[-79.10714,42.57849],[-79.10714,42.57854],[-79.10714,42.57855],[-79.10705,42.57872],[-79.10695,42.5789],[-79.10689,42.57902],[-79.10685,42.57909],[-79.10685,42.57909],[-79.10659,42.57908],[-79.10659,42.57908],[-79.10657,42.57897],[-79.10656,42.57889],[-79.10653,42.57877],[-79.10649,42.57868],[-79.10645,42.57857],[-79.10641,42.57847],[-79.10636,42.57839],[-79.10635,42.57837],[-79.10631,42.57828],[-79.10624,42.57817],[-79.10616,42.57805],[-79.106,42.57783],[-79.10599,42.57781],[-79.10594,42.57774],[-79.10571,42.57745],[-79.10547,42.57713],[-79.1054,42.57703],[-79.10534,42.57696],[-79.10524,42.57682],[-79.10523,42.57682],[-79.10512,42.57666],[-79.10493,42.57642],[-79.10488,42.57635],[-79.10476,42.57619],[-79.10434,42.57563],[-79.10393,42.57509],[-79.10381,42.57493],[-79.10369,42.57477],[-79.10358,42.57462],[-79.10357,42.57461],[-79.10333,42.5743],[-79.10321,42.57414],[-79.10297,42.57383],[-79.10286,42.57367],[-79.10226,42.57288],[-79.10219,42.57278],[-79.10208,42.57264],[-79.10201,42.57255],[-79.10196,42.57248],[-79.10191,42.5724],[-79.10184,42.5723],[-79.10176,42.57214],[-79.10174,42.57209],[-79.10172,42.57204],[-79.10168,42.57196],[-79.10164,42.57186],[-79.1016,42.5717],[-79.10158,42.57163],[-79.10156,42.57158],[-79.10154,42.57145],[-79.10153,42.57124],[-79.10153,42.57121],[-79.10153,42.57114],[-79.10153,42.57107],[-79.10153,42.57106],[-79.10153,42.57103],[-79.10154,42.571],[-79.10154,42.57094],[-79.10155,42.57088],[-79.10156,42.57079],[-79.10157,42.57077],[-79.10159,42.57066],[-79.1016,42.57057],[-79.10161,42.57047],[-79.10161,42.57038],[-79.10166,42.57027],[-79.1017,42.5702],[-79.10179,42.57007],[-79.10179,42.57007],[-79.1018,42.57007],[-79.10181,42.57007],[-79.10182,42.57007],[-79.10185,42.57005],[-79.10187,42.57005],[-79.10188,42.57004],[-79.10189,42.57003],[-79.1019,42.57002],[-79.10192,42.57],[-79.10193,42.56999],[-79.10193,42.56998],[-79.10194,42.56997],[-79.10195,42.56995],[-79.10195,42.56994],[-79.10195,42.56993],[-79.10196,42.56992],[-79.10196,42.56991],[-79.10196,42.5699],[-79.10196,42.56989],[-79.10195,42.56989],[-79.10215,42.56965],[-79.10222,42.56951],[-79.10237,42.5694],[-79.10285,42.56902],[-79.10301,42.56891],[-79.10303,42.5689],[-79.10321,42.56877],[-79.10338,42.56865],[-79.10365,42.56846],[-79.10396,42.56824],[-79.10404,42.56819],[-79.10427,42.56805],[-79.10453,42.56789],[-79.10472,42.56777],[-79.10528,42.56743],[-79.10566,42.5672],[-79.10648,42.56681],[-79.10682,42.56659],[-79.10685,42.56657],[-79.10704,42.56645],[-79.10722,42.56633],[-79.10777,42.56598],[-79.10781,42.56596],[-79.10796,42.56582],[-79.10811,42.56573],[-79.10851,42.56547],[-79.10894,42.5652],[-79.10905,42.56513],[-79.10925,42.56501],[-79.10942,42.56491],[-79.10959,42.56481],[-79.10979,42.5647],[-79.10979,42.5647],[-79.11,42.56504],[-79.1101,42.56521],[-79.11017,42.56531],[-79.11019,42.56536],[-79.11048,42.56587],[-79.11065,42.56621],[-79.11082,42.56654],[-79.11087,42.56664],[-79.11099,42.56686],[-79.11099,42.56686],[-79.11125,42.56677],[-79.11147,42.5667],[-79.11214,42.56648],[-79.113,42.56622],[-79.11314,42.56618],[-79.11449,42.56576],[-79.11489,42.56566],[-79.11509,42.56563],[-79.11509,42.56563],[-79.11585,42.56493],[-79.116,42.56479],[-79.11611,42.56469],[-79.11616,42.56465],[-79.11639,42.5645],[-79.11699,42.56417],[-79.11734,42.56394],[-79.11766,42.56364],[-79.11778,42.56351],[-79.11782,42.56346],[-79.11789,42.56334],[-79.11815,42.56291],[-79.11827,42.56274],[-79.1183,42.5627],[-79.11839,42.5626],[-79.11842,42.56257],[-79.11844,42.56255],[-79.11874,42.56227],[-79.11887,42.56216],[-79.11888,42.56215],[-79.11896,42.56206],[-79.11899,42.56199],[-79.119,42.56198],[-79.11905,42.56182],[-79.11905,42.56182],[-79.11982,42.56159],[-79.12026,42.56146],[-79.12057,42.56137],[-79.12083,42.56129],[-79.12131,42.56114],[-79.12131,42.56114],[-79.12104,42.56062],[-79.12099,42.56053],[-79.1209,42.56037],[-79.12077,42.56015],[-79.12067,42.55999],[-79.12057,42.55982],[-79.12047,42.55966],[-79.12047,42.55964],[-79.12038,42.55949],[-79.12028,42.55933],[-79.12018,42.55916],[-79.11989,42.55867],[-79.11979,42.5585],[-79.1197,42.55835],[-79.1195,42.55801],[-79.11932,42.55767],[-79.11918,42.55744],[-79.11888,42.55691],[-79.11879,42.55674],[-79.1186,42.55641],[-79.11851,42.55624],[-79.11841,42.55608],[-79.11832,42.55591],[-79.11822,42.55575],[-79.11785,42.55508],[-79.11757,42.55458],[-79.11747,42.55442],[-79.11746,42.5544],[-79.11739,42.55425],[-79.11733,42.5541],[-79.11732,42.55408],[-79.11729,42.55391],[-79.11729,42.5539],[-79.11728,42.5538],[-79.11729,42.55372],[-79.11729,42.55366],[-79.11732,42.55354],[-79.11737,42.55337],[-79.11742,42.55319],[-79.11747,42.55301],[-79.11752,42.55284],[-79.11757,42.55266],[-79.11762,42.55249],[-79.11767,42.55231],[-79.11769,42.55225],[-79.11773,42.55213],[-79.11779,42.55196],[-79.11785,42.55179],[-79.11791,42.55161],[-79.11803,42.55126],[-79.11805,42.55121],[-79.11808,42.55109],[-79.11808,42.55107],[-79.11808,42.55098],[-79.11805,42.55087],[-79.118,42.55073],[-79.11793,42.55056],[-79.11787,42.55039],[-79.1178,42.55021],[-79.11774,42.55004],[-79.11761,42.54969],[-79.11748,42.54935],[-79.11736,42.54901],[-79.11723,42.54862],[-79.11723,42.54861],[-79.11719,42.54843],[-79.11717,42.54837],[-79.11714,42.54807],[-79.11713,42.54805],[-79.11708,42.54717],[-79.11707,42.547],[-79.11706,42.54682],[-79.11705,42.54665],[-79.11706,42.54664],[-79.11709,42.54635],[-79.11712,42.54628],[-79.11718,42.54614],[-79.1172,42.54611],[-79.11729,42.54594],[-79.11747,42.54561],[-79.11766,42.54528],[-79.11782,42.54497],[-79.11784,42.54494],[-79.11793,42.54479],[-79.11812,42.54458],[-79.11821,42.54448],[-79.11836,42.54433],[-79.1185,42.54419],[-79.11878,42.5439],[-79.11886,42.54382],[-79.11893,42.54375],[-79.11906,42.54364],[-79.11934,42.54346],[-79.11955,42.54337],[-79.11985,42.54327],[-79.11992,42.54325],[-79.12015,42.54318],[-79.12038,42.54312],[-79.12105,42.54291],[-79.12196,42.54264],[-79.12196,42.54264],[-79.12169,42.54214],[-79.1216,42.54197],[-79.12124,42.5413],[-79.12108,42.54101],[-79.12104,42.54091],[-79.121,42.54084],[-79.12092,42.5407],[-79.1209,42.54067],[-79.12086,42.5406],[-79.12081,42.54051],[-79.1208,42.5405],[-79.1208,42.54049],[-79.12067,42.54027],[-79.12064,42.54022],[-79.12055,42.54005],[-79.12029,42.53964],[-79.12027,42.53961],[-79.12017,42.53945],[-79.12007,42.53928],[-79.11973,42.53871],[-79.11973,42.53871],[-79.11989,42.53862],[-79.12003,42.53852],[-79.12016,42.5384],[-79.12023,42.5383],[-79.12031,42.53816],[-79.12031,42.53815],[-79.12035,42.53803],[-79.12037,42.53775],[-79.12045,42.5369],[-79.12054,42.53596],[-79.12063,42.5351],[-79.12065,42.53483],[-79.12068,42.53456],[-79.12075,42.5339],[-79.12078,42.5336],[-79.1208,42.53345],[-79.12081,42.53342],[-79.12088,42.53308],[-79.12095,42.53287],[-79.12102,42.53272],[-79.12103,42.5327],[-79.12112,42.53251],[-79.12122,42.53237],[-79.12132,42.53223],[-79.12169,42.53176],[-79.12187,42.53152],[-79.12211,42.53121],[-79.12248,42.53074],[-79.1226,42.53058],[-79.12272,42.53043],[-79.12279,42.53033],[-79.12284,42.53027],[-79.12304,42.53005],[-79.12338,42.52975],[-79.12369,42.52951],[-79.12378,42.52943],[-79.12403,42.52925],[-79.1242,42.52913],[-79.12424,42.5291],[-79.1247,42.52875],[-79.12495,42.52858],[-79.12527,42.52839],[-79.12578,42.52808],[-79.12673,42.52751],[-79.12692,42.5274],[-79.128,42.52677],[-79.12806,42.52673],[-79.12844,42.5265],[-79.12976,42.5257],[-79.13014,42.52547],[-79.13109,42.5249],[-79.13196,42.52439],[-79.13216,42.52428],[-79.13233,42.52418],[-79.13235,42.52417],[-79.13272,42.52394],[-79.13291,42.52382],[-79.13307,42.52372],[-79.13377,42.52331],[-79.13428,42.52299],[-79.13441,42.5229],[-79.13458,42.52278],[-79.13472,42.52268],[-79.1351,42.52238],[-79.13526,42.52226],[-79.13542,42.52212],[-79.13554,42.52203],[-79.13559,42.52199],[-79.13628,42.52144],[-79.13692,42.52094],[-79.13708,42.5208],[-79.13725,42.52067],[-79.13791,42.52015],[-79.13819,42.51993],[-79.13875,42.51949],[-79.13918,42.51914],[-79.13941,42.51896],[-79.14024,42.5183],[-79.14069,42.51794],[-79.14141,42.51736],[-79.14169,42.51713],[-79.14181,42.51702],[-79.14187,42.51696],[-79.14199,42.51684],[-79.14209,42.51672],[-79.14218,42.51659],[-79.14224,42.51649],[-79.14228,42.51642],[-79.14237,42.51626],[-79.14245,42.51607],[-79.14253,42.51588],[-79.1426,42.5157],[-79.14268,42.51549],[-79.14283,42.5151],[-79.14297,42.51474],[-79.143,42.51467],[-79.14305,42.51453],[-79.14313,42.51432],[-79.14319,42.51415],[-79.14326,42.51397],[-79.14332,42.5138],[-79.14333,42.51376],[-79.1435,42.51327],[-79.14356,42.5131],[-79.14362,42.51293],[-79.1438,42.5124],[-79.1438,42.5124],[-79.14428,42.5124],[-79.14526,42.51241],[-79.14552,42.51241],[-79.14568,42.51241],[-79.14617,42.51241],[-79.14739,42.51241],[-79.14813,42.51241],[-79.14885,42.5124],[-79.14934,42.51239],[-79.15007,42.51239],[-79.15056,42.51238],[-79.1508,42.51238],[-79.151,42.51238],[-79.15227,42.51237],[-79.1537,42.51236],[-79.15397,42.51236],[-79.15422,42.51236],[-79.15607,42.51236],[-79.15617,42.51236],[-79.15641,42.51236],[-79.15861,42.51236],[-79.15924,42.51235],[-79.16046,42.51234],[-79.16046,42.51234],[-79.16046,42.51194],[-79.16046,42.51162],[-79.16046,42.51128],[-79.16047,42.50928],[-79.16048,42.5091],[-79.16048,42.50887],[-79.16048,42.50874],[-79.16048,42.5082],[-79.16048,42.50802],[-79.16048,42.50784],[-79.16049,42.50748],[-79.16049,42.5073],[-79.16049,42.50713],[-79.16049,42.50704],[-79.16049,42.50641],[-79.16048,42.50623],[-79.16048,42.50612],[-79.16048,42.50605],[-79.16049,42.50587],[-79.16049,42.50548],[-79.16049,42.50479],[-79.16049,42.50465],[-79.16048,42.50371],[-79.16048,42.50318],[-79.16048,42.50247],[-79.16048,42.50237],[-79.16048,42.50202],[-79.16047,42.50172],[-79.16046,42.50154],[-79.16043,42.50133],[-79.16042,42.50129],[-79.16036,42.50105],[-79.16034,42.50093],[-79.16032,42.50087],[-79.16028,42.50071],[-79.16024,42.50058],[-79.16013,42.50016],[-79.15995,42.49952],[-79.1599,42.49935],[-79.15985,42.49917],[-79.15965,42.49847],[-79.15943,42.49767],[-79.15941,42.49759],[-79.15938,42.49746],[-79.15934,42.49729],[-79.15932,42.4971],[-79.1593,42.4969],[-79.15931,42.4967],[-79.15934,42.49651],[-79.15936,42.49635],[-79.1594,42.49617],[-79.15945,42.49602],[-79.15946,42.49599],[-79.15951,42.49584],[-79.15959,42.49568],[-79.1596,42.49566],[-79.15967,42.49555],[-79.15976,42.49542],[-79.15984,42.49533],[-79.15996,42.49519],[-79.15996,42.49518],[-79.15997,42.49517],[-79.16009,42.49503],[-79.16018,42.49492],[-79.16023,42.49488],[-79.16036,42.49474],[-79.16037,42.49473],[-79.16049,42.4946],[-79.16051,42.49459],[-79.16065,42.49444],[-79.16078,42.49429],[-79.16086,42.4942],[-79.16119,42.49384],[-79.16131,42.49369],[-79.16147,42.49349],[-79.16157,42.49336],[-79.16179,42.493],[-79.16191,42.49278],[-79.16202,42.49257],[-79.16215,42.49234],[-79.16225,42.49213],[-79.16225,42.49213],[-79.16291,42.49216],[-79.163,42.49216],[-79.16388,42.49221],[-79.16437,42.49225],[-79.1651,42.4923],[-79.16534,42.49232],[-79.16582,42.49235],[-79.16607,42.49237],[-79.16631,42.49239],[-79.16801,42.49251],[-79.16825,42.49253],[-79.16849,42.49255],[-79.16874,42.49256],[-79.16922,42.4926],[-79.16937,42.49261],[-79.17034,42.49269],[-79.17059,42.49271],[-79.17083,42.49272],[-79.17107,42.49274],[-79.17131,42.49276],[-79.1718,42.4928],[-79.17228,42.49284],[-79.17253,42.49286],[-79.17277,42.49288],[-79.17301,42.49289],[-79.17345,42.49293],[-79.17422,42.49299],[-79.1749,42.49305],[-79.17544,42.49309],[-79.17767,42.49323],[-79.17843,42.49329],[-79.17858,42.4933],[-79.18068,42.49346],[-79.18134,42.4935],[-79.18149,42.4935],[-79.18168,42.49351],[-79.18232,42.49346],[-79.18308,42.49339],[-79.18426,42.49329],[-79.1844,42.49328],[-79.18585,42.49315],[-79.186,42.49313],[-79.18634,42.4931],[-79.18972,42.49278],[-79.19008,42.49274],[-79.19045,42.49271],[-79.19056,42.49271],[-79.19069,42.49269],[-79.19093,42.49266],[-79.19165,42.49258],[-79.19187,42.49256],[-79.19211,42.49251],[-79.19235,42.49247],[-79.19259,42.49243],[-79.19282,42.49237],[-79.19305,42.49232],[-79.1934,42.49224],[-79.19421,42.49204],[-79.19444,42.49198],[-79.19467,42.49192],[-79.1949,42.49186],[-79.19503,42.49183],[-79.19513,42.4918],[-79.19536,42.49174],[-79.19582,42.49162],[-79.19583,42.49162],[-79.19626,42.49147],[-79.19634,42.49144],[-79.19669,42.4913],[-79.19673,42.49128],[-79.1969,42.4912],[-79.19732,42.49102],[-79.19752,42.49092],[-79.19773,42.49083],[-79.19787,42.49077],[-79.19794,42.49074],[-79.19815,42.49064],[-79.19877,42.49036],[-79.19897,42.49026],[-79.1996,42.48997],[-79.1998,42.48988],[-79.20001,42.48979],[-79.20022,42.48969],[-79.20029,42.48966],[-79.20042,42.48959],[-79.20083,42.48939],[-79.20103,42.48929],[-79.20123,42.48919],[-79.20129,42.48916],[-79.20143,42.48909],[-79.20193,42.48884],[-79.20223,42.48868],[-79.20243,42.48857],[-79.20263,42.48847],[-79.20283,42.48836],[-79.20317,42.48818],[-79.20362,42.48794],[-79.20381,42.48783],[-79.20401,42.48773],[-79.20421,42.48762],[-79.20429,42.48758],[-79.2048,42.4873],[-79.20499,42.48719],[-79.20519,42.48709],[-79.20525,42.48705],[-79.20538,42.48698],[-79.20558,42.48687],[-79.20578,42.48676],[-79.20622,42.48652],[-79.20656,42.48633],[-79.20713,42.48601],[-79.20714,42.48601],[-79.20729,42.48592],[-79.20733,42.4859],[-79.20747,42.48582],[-79.20752,42.48579],[-79.2077,42.48566],[-79.20802,42.48544],[-79.20816,42.48534],[-79.20833,42.48522],[-79.20841,42.48516],[-79.2085,42.48509],[-79.20851,42.48508],[-79.20877,42.4849],[-79.20905,42.48473],[-79.20926,42.48464],[-79.20937,42.48459],[-79.20969,42.48448],[-79.20993,42.48443],[-79.21002,42.48441],[-79.21017,42.48439],[-79.21035,42.48437],[-79.21041,42.48437],[-79.2107,42.48434],[-79.21114,42.48432],[-79.21138,42.48431],[-79.21158,42.4843],[-79.21162,42.48429],[-79.21176,42.48427],[-79.21186,42.48425],[-79.21201,42.48422],[-79.21209,42.48419],[-79.21239,42.48412],[-79.21255,42.48408],[-79.21278,42.48401],[-79.21301,42.48395],[-79.21302,42.48395],[-79.21324,42.48388],[-79.21346,42.48382],[-79.21392,42.48368],[-79.2146,42.48348],[-79.21482,42.48342],[-79.21515,42.48332],[-79.21539,42.48325],[-79.21567,42.48316],[-79.21638,42.48296],[-79.21653,42.48292],[-79.21676,42.48286],[-79.21813,42.48249],[-79.21861,42.48236],[-79.21905,42.48224],[-79.21912,42.48222],[-79.21951,42.48212],[-79.21966,42.48208],[-79.21996,42.48199],[-79.22019,42.48193],[-79.22039,42.48188],[-79.22064,42.48181],[-79.22137,42.48161],[-79.22157,42.48156],[-79.22179,42.48149],[-79.22202,42.48143],[-79.22227,42.48136],[-79.22261,42.48128],[-79.22303,42.48121],[-79.22344,42.48116],[-79.22357,42.48115],[-79.22416,42.4811],[-79.22436,42.48108],[-79.2244,42.48108],[-79.22465,42.48105],[-79.2248,42.48104],[-79.22489,42.48103],[-79.22513,42.48101],[-79.22537,42.48099],[-79.2261,42.48092],[-79.22628,42.4809],[-79.22634,42.4809],[-79.22658,42.48088],[-79.22718,42.48082],[-79.22775,42.48078],[-79.22793,42.48077],[-79.22824,42.48074],[-79.22865,42.4807],[-79.22913,42.48065],[-79.22946,42.48061],[-79.22962,42.48059],[-79.22996,42.48055],[-79.23034,42.4805],[-79.23049,42.48048],[-79.23081,42.48043],[-79.23091,42.48041],[-79.23129,42.48035],[-79.23198,42.48021],[-79.23237,42.48013],[-79.23246,42.48011],[-79.23312,42.47996],[-79.23402,42.47974],[-79.23454,42.47959],[-79.23473,42.47952],[-79.23506,42.47939],[-79.23545,42.47921],[-79.23555,42.47916],[-79.23575,42.47906],[-79.23595,42.47895],[-79.23615,42.47885],[-79.23675,42.47854],[-79.23742,42.47816],[-79.23817,42.47775],[-79.2382,42.47773],[-79.2384,42.47763],[-79.23842,42.47762],[-79.23923,42.47718],[-79.23958,42.47699],[-79.23978,42.47689],[-79.23983,42.47686],[-79.23999,42.47679],[-79.24012,42.47672],[-79.24019,42.47669],[-79.24095,42.47638],[-79.24105,42.47635],[-79.24169,42.4761],[-79.24192,42.47602],[-79.24205,42.47599],[-79.24215,42.47596],[-79.24227,42.47593],[-79.24248,42.4759],[-79.2428,42.47585],[-79.24305,42.47583],[-79.2431,42.47583],[-79.2434,42.47582],[-79.24363,42.47583],[-79.24396,42.47585],[-79.24427,42.47589],[-79.2449,42.47601],[-79.24532,42.47609],[-79.24545,42.47611],[-79.24639,42.47629],[-79.24685,42.47637],[-79.24757,42.47651],[-79.24781,42.47655],[-79.24857,42.47669],[-79.24909,42.47679],[-79.25027,42.47701],[-79.25074,42.4771],[-79.25108,42.47716],[-79.25145,42.47721],[-79.25234,42.47731],[-79.25242,42.47732],[-79.25307,42.47738],[-79.25344,42.47742],[-79.25376,42.47743],[-79.25421,42.47745],[-79.25424,42.47745],[-79.25453,42.47746],[-79.25483,42.47746],[-79.25522,42.47745],[-79.25546,42.47745],[-79.25583,42.47744],[-79.25619,42.47744],[-79.25644,42.47743],[-79.25668,42.47743],[-79.25674,42.47743],[-79.25693,42.47742],[-79.25717,42.47742],[-79.25737,42.47741],[-79.25741,42.47741],[-79.25762,42.47741],[-79.25766,42.47741],[-79.25786,42.47741],[-79.2579,42.47742],[-79.25792,42.47742],[-79.25794,42.47743],[-79.25795,42.47743],[-79.25796,42.47745],[-79.25798,42.47746],[-79.25799,42.47748],[-79.25801,42.47759],[-79.25801,42.47759],[-79.25824,42.47744],[-79.25854,42.47725],[-79.25888,42.47704],[-79.25921,42.47684],[-79.2597,42.47655],[-79.2598,42.47649],[-79.25989,42.47644],[-79.26067,42.47601],[-79.2607,42.47599],[-79.26093,42.47587],[-79.26117,42.47576],[-79.26128,42.47571],[-79.26134,42.47568],[-79.26149,42.47562],[-79.26167,42.47554],[-79.2617,42.47553],[-79.26195,42.47542],[-79.26231,42.47527],[-79.26233,42.47526],[-79.2626,42.47514],[-79.26297,42.47498],[-79.26338,42.4748],[-79.26352,42.47475],[-79.2638,42.47462],[-79.26388,42.47459],[-79.26402,42.47453],[-79.2643,42.47441],[-79.26444,42.47435],[-79.26476,42.47421],[-79.26568,42.47382],[-79.26595,42.4737],[-79.26697,42.4732],[-79.26701,42.47318],[-79.26718,42.47311],[-79.26723,42.47309],[-79.2675,42.47297],[-79.26773,42.47287],[-79.2678,42.47283],[-79.26799,42.47274],[-79.26822,42.47262],[-79.26843,42.4725],[-79.26867,42.47235],[-79.26883,42.47225],[-79.26904,42.47213],[-79.26915,42.47206],[-79.26934,42.47195],[-79.26941,42.4719],[-79.27012,42.47146],[-79.27059,42.47118],[-79.27065,42.47114],[-79.27116,42.47081],[-79.27182,42.4704],[-79.27232,42.47009],[-79.27264,42.46989],[-79.27288,42.46974],[-79.27306,42.46963],[-79.27356,42.46931],[-79.27356,42.46931],[-79.27372,42.46946],[-79.27395,42.46968],[-79.27411,42.46983],[-79.27417,42.46989],[-79.27446,42.47018],[-79.2746,42.47033],[-79.27462,42.47034],[-79.27474,42.47047],[-79.27501,42.47077],[-79.27517,42.47094],[-79.27545,42.47123],[-79.27555,42.47134],[-79.27559,42.47138],[-79.27573,42.47152],[-79.27588,42.47167],[-79.27602,42.47181],[-79.27609,42.47188],[-79.27618,42.47195],[-79.27634,42.47208],[-79.27652,42.47221],[-79.27659,42.47225],[-79.27671,42.47232],[-79.27686,42.47241],[-79.2771,42.47253],[-79.27716,42.47256],[-79.27731,42.47263],[-79.27752,42.47272],[-79.27773,42.47281],[-79.27787,42.47285],[-79.27794,42.47288],[-79.27816,42.47295],[-79.27827,42.47299],[-79.27838,42.47303],[-79.27871,42.47314],[-79.27882,42.47319],[-79.27898,42.47326],[-79.27906,42.47328],[-79.27923,42.47335],[-79.27948,42.47343],[-79.2795,42.47343],[-79.27975,42.4735],[-79.27996,42.47355],[-79.28014,42.47358],[-79.28036,42.47361],[-79.28044,42.47362],[-79.28063,42.47363],[-79.28086,42.47366],[-79.28117,42.47367],[-79.2812,42.47367],[-79.28151,42.47367],[-79.28218,42.47367],[-79.28242,42.47367],[-79.28267,42.47367],[-79.28291,42.47366],[-79.28315,42.47366],[-79.28381,42.47365],[-79.28413,42.47365],[-79.28449,42.47365],[-79.28504,42.47366],[-79.28515,42.47366],[-79.28555,42.47367],[-79.28625,42.4737],[-79.28672,42.47372],[-79.28673,42.47372],[-79.28697,42.47374],[-79.28722,42.47375],[-79.28811,42.4738],[-79.28819,42.4738],[-79.28892,42.47385],[-79.28916,42.47386],[-79.28963,42.47389],[-79.28983,42.4739],[-79.29007,42.47392],[-79.29046,42.47394],[-79.29104,42.47397],[-79.29201,42.47403],[-79.29347,42.47412],[-79.29365,42.47414],[-79.29445,42.47416],[-79.2946,42.47417],[-79.29523,42.47418],[-79.29608,42.47417],[-79.29614,42.47417],[-79.29638,42.47417],[-79.29681,42.47416],[-79.29687,42.47416],[-79.29882,42.47416],[-79.29978,42.47416],[-79.30003,42.47416],[-79.30063,42.47416],[-79.30198,42.47416],[-79.30271,42.47416],[-79.30295,42.47416],[-79.30368,42.47416],[-79.30393,42.47416],[-79.30442,42.47416],[-79.30466,42.47416],[-79.30549,42.47416],[-79.30549,42.47416],[-79.3052,42.47367],[-79.30485,42.47304],[-79.30473,42.47284],[-79.30454,42.47251],[-79.30444,42.47234],[-79.3039,42.47141],[-79.30374,42.47118],[-79.30368,42.47111],[-79.30368,42.47111],[-79.30384,42.47106],[-79.30392,42.47105],[-79.30401,42.47103],[-79.30415,42.47103],[-79.30431,42.47103],[-79.30473,42.47105],[-79.30571,42.47106],[-79.3059,42.47106],[-79.30612,42.47106],[-79.3066,42.47105],[-79.30782,42.47105],[-79.30807,42.47105],[-79.30855,42.47104],[-79.30904,42.47104],[-79.30913,42.47104],[-79.30928,42.47105],[-79.30933,42.47105],[-79.3094,42.47106],[-79.30945,42.47107],[-79.30953,42.4711],[-79.30958,42.47112],[-79.30963,42.47115],[-79.30967,42.47118],[-79.30975,42.47125],[-79.31006,42.4716],[-79.31023,42.47175],[-79.31029,42.47178],[-79.31033,42.47181],[-79.31045,42.47186],[-79.31055,42.47188],[-79.31101,42.4719],[-79.31196,42.47186],[-79.31223,42.47185],[-79.31229,42.47185],[-79.31278,42.47184],[-79.31283,42.47183],[-79.31288,42.47175],[-79.31357,42.47172],[-79.31429,42.4717],[-79.31672,42.47171],[-79.31812,42.47173],[-79.31836,42.47173],[-79.31837,42.47173],[-79.31861,42.47173],[-79.31885,42.47173],[-79.3191,42.47174],[-79.31934,42.47174],[-79.31983,42.47174],[-79.32066,42.47149],[-79.32073,42.47147],[-79.32112,42.47137],[-79.32194,42.47122],[-79.32224,42.47118],[-79.32254,42.47115],[-79.32303,42.47112],[-79.32323,42.47111],[-79.32332,42.47111],[-79.32401,42.4711],[-79.32549,42.47115],[-79.32598,42.47116],[-79.32648,42.47118],[-79.32695,42.4712],[-79.32695,42.4712],[-79.32692,42.47192],[-79.32692,42.47192],[-79.3274,42.47192],[-79.32769,42.47193],[-79.32814,42.47193],[-79.3285,42.47193],[-79.32899,42.47193],[-79.32923,42.47193],[-79.32972,42.47193],[-79.33007,42.47194],[-79.33165,42.47195],[-79.33214,42.47195],[-79.33322,42.47195],[-79.33322,42.47195],[-79.33324,42.47162],[-79.33327,42.47105],[-79.33328,42.47088],[-79.3333,42.47049],[-79.33333,42.46972],[-79.33334,42.46951],[-79.33337,42.46903],[-79.3334,42.46841],[-79.33343,42.46777],[-79.33345,42.46748],[-79.33345,42.46744],[-79.33346,42.46708],[-79.33348,42.46653],[-79.33349,42.46625],[-79.33349,42.46616],[-79.33355,42.46529],[-79.33356,42.4651],[-79.33358,42.46473],[-79.33359,42.46427],[-79.33361,42.46397],[-79.33362,42.46373],[-79.33365,42.46301],[-79.33365,42.46284],[-79.33369,42.46193],[-79.33371,42.46139],[-79.33374,42.46108],[-79.33377,42.46041],[-79.3338,42.45982],[-79.33381,42.45958],[-79.33381,42.45958],[-79.33389,42.45958],[-79.3343,42.45959],[-79.33438,42.45959],[-79.33455,42.45958],[-79.33479,42.45957],[-79.33528,42.45954],[-79.33611,42.45955],[-79.33636,42.45955],[-79.33757,42.45955],[-79.33763,42.45955],[-79.33782,42.45956],[-79.338,42.45956],[-79.3383,42.4596],[-79.33859,42.45964],[-79.33902,42.45969],[-79.33923,42.45969],[-79.34001,42.45969],[-79.34098,42.45969],[-79.34159,42.45977],[-79.34216,42.45976],[-79.34241,42.45976],[-79.3429,42.45976],[-79.343,42.45976],[-79.34363,42.45976],[-79.34411,42.45976],[-79.34412,42.45976],[-79.34436,42.45976],[-79.34439,42.45976],[-79.3446,42.45976],[-79.34485,42.45976],[-79.34534,42.45976],[-79.34582,42.45976],[-79.34606,42.45976],[-79.34631,42.45976],[-79.34631,42.45976],[-79.34631,42.45955],[-79.34631,42.45933],[-79.34631,42.45915],[-79.34631,42.45911],[-79.34631,42.45897],[-79.34632,42.45893],[-79.34632,42.45886],[-79.34632,42.45879],[-79.34632,42.45878],[-79.34632,42.45877],[-79.34632,42.45861],[-79.34632,42.45853],[-79.34632,42.45835],[-79.34632,42.45817],[-79.34633,42.45801],[-79.34633,42.45799],[-79.34633,42.45746],[-79.34633,42.45745],[-79.34633,42.45734],[-79.34634,42.45683],[-79.34634,42.4568],[-79.34634,42.45665],[-79.34634,42.45644],[-79.34634,42.45611],[-79.34634,42.45592],[-79.34635,42.45497],[-79.34636,42.45484],[-79.34636,42.45434],[-79.34636,42.45413],[-79.34638,42.4531],[-79.34638,42.45304],[-79.3464,42.45218],[-79.34641,42.45192],[-79.34641,42.45191],[-79.34642,42.45173],[-79.34642,42.45155],[-79.34642,42.45155],[-79.34707,42.45138],[-79.34758,42.45126],[-79.34802,42.45114],[-79.34804,42.45114],[-79.34827,42.45109],[-79.34872,42.45099],[-79.34873,42.45098],[-79.34915,42.45088],[-79.3495,42.4508],[-79.34985,42.45072],[-79.3499,42.45071],[-79.35032,42.45062],[-79.35069,42.45054],[-79.35079,42.45051],[-79.35132,42.4504],[-79.35165,42.45033],[-79.35197,42.45023],[-79.35216,42.45015],[-79.35237,42.45007],[-79.3525,42.45002],[-79.35304,42.44982],[-79.35335,42.4497],[-79.3539,42.4495],[-79.3541,42.44942],[-79.35411,42.44941],[-79.35445,42.44923],[-79.35451,42.4492],[-79.35452,42.4492],[-79.3546,42.44916],[-79.3557,42.44857],[-79.35589,42.44847],[-79.35598,42.44842],[-79.35609,42.44836],[-79.35639,42.44821],[-79.35689,42.44795],[-79.35716,42.4478],[-79.35717,42.4478],[-79.35728,42.44774],[-79.35745,42.44765],[-79.35807,42.44731],[-79.35815,42.44726],[-79.35904,42.44677],[-79.35913,42.44672],[-79.35971,42.4464],[-79.35996,42.44628],[-79.36027,42.44617],[-79.36036,42.44615],[-79.36078,42.44607],[-79.361,42.44607],[-79.36111,42.44607],[-79.36208,42.44607],[-79.36306,42.44608],[-79.36328,42.44608],[-79.3633,42.44608],[-79.36427,42.44609],[-79.36476,42.4461],[-79.36501,42.4461],[-79.36525,42.4461],[-79.36647,42.44612],[-79.36671,42.44613],[-79.36744,42.44614],[-79.36769,42.44614],[-79.36784,42.44614],[-79.36793,42.44615],[-79.36842,42.44615],[-79.36939,42.44615],[-79.36988,42.44616],[-79.37012,42.44616],[-79.37085,42.44616],[-79.37096,42.44616],[-79.37183,42.44618],[-79.37253,42.44619],[-79.37256,42.44619],[-79.37354,42.4462],[-79.37451,42.44621],[-79.37475,42.44621],[-79.37479,42.44621],[-79.37524,42.44621],[-79.37524,42.44621],[-79.37527,42.44605],[-79.37535,42.44587],[-79.3754,42.44579],[-79.37546,42.44574],[-79.37555,42.44568],[-79.37571,42.44561],[-79.37586,42.44555],[-79.37607,42.44546],[-79.37628,42.44538],[-79.37638,42.44534],[-79.37653,42.44525],[-79.37663,42.44516],[-79.37664,42.44514],[-79.3767,42.44505],[-79.37671,42.44497],[-79.37673,42.44479],[-79.37674,42.44461],[-79.37675,42.44353],[-79.37675,42.44335],[-79.37675,42.44317],[-79.37675,42.44306],[-79.37677,42.44245],[-79.37677,42.44227],[-79.3768,42.44138],[-79.3768,42.4412],[-79.37681,42.44085],[-79.37681,42.44084],[-79.37682,42.44066],[-79.37683,42.44053],[-79.37683,42.44048],[-79.37683,42.4403],[-79.37683,42.44012],[-79.37683,42.43994],[-79.37683,42.43976],[-79.37683,42.4394],[-79.37684,42.43868],[-79.37684,42.43856],[-79.37684,42.4385],[-79.37686,42.4377],[-79.37686,42.4376],[-79.37687,42.43742],[-79.37688,42.43653],[-79.37688,42.43634],[-79.37689,42.43616],[-79.37691,42.43562],[-79.37692,42.43526],[-79.37692,42.43526],[-79.37766,42.43526],[-79.37815,42.43526],[-79.37839,42.43526],[-79.37864,42.43527],[-79.37884,42.43527],[-79.37888,42.43527],[-79.37937,42.43527],[-79.37961,42.43527],[-79.37985,42.43527],[-79.3801,42.43527],[-79.38034,42.43527],[-79.38041,42.43527],[-79.38059,42.43527],[-79.38132,42.43527],[-79.38156,42.43527],[-79.3818,42.43527],[-79.38205,42.43527],[-79.38229,42.43528],[-79.38254,42.43528],[-79.38278,42.43528],[-79.38327,42.43528],[-79.38375,42.43528],[-79.384,42.43528],[-79.38424,42.43528],[-79.38449,42.43528],[-79.38522,42.43529],[-79.3857,42.43529],[-79.38595,42.43529],[-79.38605,42.43529],[-79.38619,42.43529],[-79.38643,42.43529],[-79.38668,42.4353],[-79.38688,42.4353],[-79.38713,42.4353],[-79.38737,42.4353],[-79.38761,42.4353],[-79.38786,42.4353],[-79.3881,42.4353],[-79.38835,42.4353],[-79.38859,42.4353],[-79.38908,42.4353],[-79.38932,42.4353],[-79.38981,42.4353],[-79.39176,42.4353],[-79.39224,42.4353],[-79.39249,42.4353],[-79.39346,42.4353],[-79.39395,42.4353],[-79.39419,42.4353],[-79.39614,42.43531],[-79.39712,42.43531],[-79.39736,42.43531],[-79.39785,42.43531],[-79.39957,42.43531],[-79.40019,42.43531],[-79.40022,42.43531],[-79.40153,42.43532],[-79.40168,42.43532],[-79.40193,42.43532],[-79.40217,42.43532],[-79.40388,42.43532],[-79.40523,42.43533],[-79.4055,42.43533],[-79.40569,42.43533],[-79.40665,42.43533],[-79.40689,42.43533],[-79.40835,42.43533],[-79.4086,42.43534],[-79.40884,42.43534],[-79.40908,42.43534],[-79.40933,42.43534],[-79.41104,42.43534],[-79.41177,42.43534],[-79.41225,42.43534],[-79.41274,42.43533],[-79.41298,42.43533],[-79.41371,42.43533],[-79.41439,42.43532],[-79.41493,42.43532],[-79.41542,42.43532],[-79.41761,42.4353],[-79.41832,42.43528],[-79.41857,42.43536],[-79.41883,42.43542],[-79.41903,42.4355],[-79.41913,42.43554],[-79.41925,42.43559],[-79.41946,42.43568],[-79.41946,42.43568],[-79.41998,42.43496],[-79.42005,42.43486],[-79.42028,42.43455],[-79.42032,42.4345],[-79.4204,42.43439],[-79.42057,42.43416],[-79.42072,42.43391],[-79.42091,42.43373],[-79.42106,42.43357],[-79.4212,42.43344],[-79.42134,42.43333],[-79.42148,42.43323],[-79.42177,42.43301],[-79.42235,42.43261],[-79.42265,42.4324],[-79.42273,42.43235],[-79.42282,42.43228],[-79.42288,42.43223],[-79.42298,42.43216],[-79.4232,42.43198],[-79.4234,42.43181],[-79.42352,42.4317],[-79.4236,42.43163],[-79.42368,42.43156],[-79.42373,42.43151],[-79.42394,42.43128],[-79.42394,42.43128],[-79.42407,42.43128],[-79.4242,42.43124],[-79.42432,42.4312],[-79.42441,42.43114],[-79.42448,42.4311],[-79.42493,42.43077],[-79.42518,42.43053],[-79.42533,42.43029],[-79.42536,42.42975],[-79.42537,42.42958],[-79.42537,42.42955],[-79.42537,42.4294],[-79.42538,42.42922],[-79.42538,42.42904],[-79.42538,42.42902],[-79.42539,42.42872],[-79.42538,42.4287],[-79.42532,42.42865],[-79.42532,42.42865],[-79.42536,42.42836],[-79.42538,42.42811],[-79.42539,42.42788],[-79.42539,42.42745],[-79.42539,42.42735],[-79.4254,42.42716],[-79.4254,42.42656],[-79.4254,42.42625],[-79.42541,42.42555],[-79.42542,42.42526],[-79.42543,42.42499],[-79.42544,42.42487],[-79.42544,42.42481],[-79.42545,42.42471],[-79.42546,42.42456],[-79.4255,42.42439],[-79.42553,42.42425],[-79.42558,42.42407],[-79.42562,42.42396],[-79.42567,42.42385],[-79.42574,42.42369],[-79.42579,42.42357],[-79.42589,42.4234],[-79.42599,42.42325],[-79.4261,42.4231],[-79.42619,42.42298],[-79.42629,42.42286],[-79.42637,42.42277],[-79.42645,42.42269],[-79.42651,42.42263],[-79.42663,42.42252],[-79.42683,42.42235],[-79.42702,42.4222],[-79.42715,42.42211],[-79.42715,42.42211],[-79.42712,42.42201],[-79.4271,42.42197],[-79.4271,42.42194],[-79.42711,42.4219],[-79.42712,42.42187],[-79.42718,42.42173],[-79.42718,42.42173],[-79.42721,42.42149],[-79.42728,42.42117],[-79.4273,42.42111],[-79.42732,42.42102],[-79.42733,42.421],[-79.42736,42.42093],[-79.42746,42.42085],[-79.42746,42.42084],[-79.42755,42.42079],[-79.42762,42.42075],[-79.42763,42.42075],[-79.42765,42.42074],[-79.42775,42.42071],[-79.42785,42.42069],[-79.42787,42.42068],[-79.42788,42.42068],[-79.42797,42.42067],[-79.42808,42.42068],[-79.42809,42.42068],[-79.42812,42.42069],[-79.42816,42.42071],[-79.42831,42.42077],[-79.42849,42.42088],[-79.42852,42.4209],[-79.42855,42.42091],[-79.4286,42.42095],[-79.42867,42.421],[-79.42873,42.42105],[-79.42883,42.42114],[-79.42925,42.42146],[-79.42938,42.42154],[-79.42949,42.42159],[-79.42949,42.42159],[-79.42948,42.42167],[-79.42948,42.42173],[-79.4295,42.42179],[-79.42951,42.42183],[-79.42954,42.42189],[-79.42961,42.42192],[-79.42967,42.42193],[-79.42976,42.42194],[-79.42988,42.42194],[-79.42996,42.42193],[-79.43003,42.42191],[-79.43011,42.42187],[-79.43017,42.42193],[-79.43026,42.42202],[-79.43078,42.42239],[-79.43085,42.42244],[-79.43129,42.42272],[-79.43145,42.42281],[-79.43153,42.42284],[-79.43156,42.42285],[-79.43172,42.4229],[-79.43185,42.42293],[-79.432,42.42294],[-79.43203,42.42295],[-79.43223,42.42295],[-79.43244,42.42298],[-79.43275,42.42305],[-79.43303,42.42314],[-79.43315,42.42317],[-79.43402,42.42345],[-79.43412,42.42347],[-79.43424,42.42348],[-79.43435,42.42346],[-79.43437,42.42346],[-79.43446,42.4234],[-79.4345,42.42335],[-79.43451,42.42331],[-79.43457,42.42327]]}}]}