{"type":"FeatureCollection","features":[{"type":"Feature","properties":{"_gpxType":"trk","name":"Turkey Hollow Campground, Township Road 102, Millersburg, OH - Jitters Coffee House, South Washington Street, Millersburg, OH - 11753 OH-520 - 14262 Township Rd 13 - 8480 Fairview Rd, Mt Vernon, OH 43050","coordinateProperties":{},"id":10},"geometry":{"type":"LineString","coordinates":[[-81.90798,40.51362],[-81.90796,40.51366],[-81.90794,40.51371],[-81.9079,40.5138],[-81.90787,40.51388],[-81.90786,40.51397],[-81.90785,40.51409],[-81.90787,40.51419],[-81.90788,40.51426],[-81.9079,40.51437],[-81.90792,40.51446],[-81.90794,40.51451],[-81.90797,40.51454],[-81.90795,40.51459],[-81.90795,40.51459],[-81.90807,40.51461],[-81.90813,40.51463],[-81.90815,40.51464],[-81.90816,40.51465],[-81.90816,40.51466],[-81.90817,40.51468],[-81.90817,40.51471],[-81.90816,40.51475],[-81.90814,40.51479],[-81.90808,40.5149],[-81.908,40.51502],[-81.90791,40.51515],[-81.90786,40.51523],[-81.90781,40.51529],[-81.90777,40.51532],[-81.90774,40.51533],[-81.90769,40.51534],[-81.90769,40.51534],[-81.90768,40.51539],[-81.90768,40.51539],[-81.90725,40.51539],[-81.90715,40.51539],[-81.90691,40.51539],[-81.90669,40.51539],[-81.90668,40.51539],[-81.90642,40.51538],[-81.90631,40.51538],[-81.90621,40.51536],[-81.90614,40.51536],[-81.90602,40.51534],[-81.90594,40.51532],[-81.90591,40.51531],[-81.90552,40.51522],[-81.90541,40.5152],[-81.90532,40.51518],[-81.90523,40.51517],[-81.90504,40.51515],[-81.90473,40.51514],[-81.90462,40.51513],[-81.90438,40.51513],[-81.90425,40.51512],[-81.90415,40.51512],[-81.90391,40.51511],[-81.9032,40.51508],[-81.90292,40.51507],[-81.90273,40.51506],[-81.90234,40.51505],[-81.90226,40.51505],[-81.9018,40.51504],[-81.90171,40.51504],[-81.90155,40.51505],[-81.90145,40.51507],[-81.90135,40.51509],[-81.90124,40.51512],[-81.90118,40.51514],[-81.90109,40.51517],[-81.90108,40.51517],[-81.90106,40.51518],[-81.90105,40.51518],[-81.9009,40.51526],[-81.90086,40.51529],[-81.9007,40.51538],[-81.9006,40.51545],[-81.90052,40.51552],[-81.9005,40.51554],[-81.90048,40.51557],[-81.90042,40.51564],[-81.90042,40.51566],[-81.90037,40.51581],[-81.90037,40.51584],[-81.90036,40.51593],[-81.90035,40.516],[-81.90035,40.51601],[-81.90033,40.51621],[-81.90033,40.51637],[-81.90032,40.51655],[-81.90031,40.51667],[-81.90031,40.51673],[-81.9003,40.51686],[-81.90029,40.51691],[-81.90027,40.517],[-81.90027,40.51701],[-81.90024,40.51709],[-81.90024,40.51711],[-81.9002,40.51715],[-81.90015,40.51718],[-81.9001,40.51721],[-81.90005,40.51722],[-81.90005,40.51722],[-81.90005,40.51732],[-81.90004,40.51737],[-81.90004,40.5174],[-81.90004,40.51742],[-81.89999,40.51761],[-81.89995,40.51771],[-81.89995,40.51772],[-81.89991,40.51778],[-81.89985,40.51785],[-81.8998,40.5179],[-81.89977,40.51793],[-81.89969,40.51799],[-81.89967,40.51801],[-81.89963,40.51802],[-81.8996,40.51804],[-81.89948,40.51809],[-81.89943,40.51811],[-81.89941,40.51812],[-81.89922,40.51817],[-81.89899,40.51824],[-81.89893,40.51826],[-81.89879,40.51831],[-81.89877,40.51831],[-81.89867,40.51836],[-81.89861,40.51839],[-81.89858,40.51841],[-81.89857,40.51841],[-81.89851,40.51846],[-81.89844,40.51852],[-81.89841,40.51854],[-81.89834,40.51861],[-81.89831,40.51866],[-81.89822,40.51882],[-81.89821,40.51887],[-81.89821,40.51888],[-81.8982,40.51898],[-81.8982,40.51917],[-81.8982,40.51922],[-81.8982,40.51932],[-81.89822,40.5194],[-81.89823,40.51951],[-81.89825,40.51958],[-81.89828,40.51968],[-81.89832,40.51978],[-81.89836,40.51988],[-81.89843,40.52],[-81.89848,40.52006],[-81.89858,40.52016],[-81.89861,40.52019],[-81.89864,40.52021],[-81.89871,40.52026],[-81.89879,40.52031],[-81.89887,40.52035],[-81.89898,40.5204],[-81.89907,40.52043],[-81.89919,40.52046],[-81.89932,40.52048],[-81.89945,40.5205],[-81.89957,40.52052],[-81.89967,40.52054],[-81.89975,40.52056],[-81.89983,40.52059],[-81.89992,40.52063],[-81.90002,40.52068],[-81.9001,40.52074],[-81.90013,40.52076],[-81.90031,40.52089],[-81.90031,40.5209],[-81.90032,40.52091],[-81.90035,40.52094],[-81.90043,40.52109],[-81.90046,40.52122],[-81.90048,40.52134],[-81.90048,40.52141],[-81.90048,40.52143],[-81.90047,40.52152],[-81.90044,40.5218],[-81.90037,40.52213],[-81.90036,40.52216],[-81.90036,40.52218],[-81.90035,40.52237],[-81.90037,40.5225],[-81.9004,40.52267],[-81.90048,40.52315],[-81.90049,40.52319],[-81.9005,40.52321],[-81.90052,40.52332],[-81.90054,40.5235],[-81.90056,40.52362],[-81.90063,40.52422],[-81.90065,40.52438],[-81.90065,40.5244],[-81.90067,40.52458],[-81.90068,40.52476],[-81.90068,40.52477],[-81.90069,40.52486],[-81.9007,40.52494],[-81.90071,40.52499],[-81.90077,40.52526],[-81.90079,40.52529],[-81.90084,40.52541],[-81.90085,40.52543],[-81.90089,40.52551],[-81.9009,40.52554],[-81.90101,40.52576],[-81.90107,40.52587],[-81.90118,40.52612],[-81.9012,40.52616],[-81.90123,40.52621],[-81.90146,40.52669],[-81.90147,40.52672],[-81.90154,40.52687],[-81.90167,40.52711],[-81.9017,40.52717],[-81.9018,40.52734],[-81.90183,40.5274],[-81.90185,40.52743],[-81.90189,40.52751],[-81.9019,40.52754],[-81.90195,40.52763],[-81.9021,40.52792],[-81.90212,40.52795],[-81.90216,40.52801],[-81.90219,40.52805],[-81.90227,40.52818],[-81.9023,40.52822],[-81.90249,40.5285],[-81.90251,40.52853],[-81.90271,40.52882],[-81.90316,40.52944],[-81.90317,40.52945],[-81.90339,40.52974],[-81.90353,40.52993],[-81.90357,40.52999],[-81.90367,40.53012],[-81.90369,40.53014],[-81.90373,40.53019],[-81.9038,40.53027],[-81.90382,40.53029],[-81.90391,40.53038],[-81.90402,40.53048],[-81.90414,40.53057],[-81.90428,40.53066],[-81.90441,40.53075],[-81.90449,40.53079],[-81.90455,40.53082],[-81.90469,40.53089],[-81.9047,40.53089],[-81.90518,40.5311],[-81.90521,40.53111],[-81.90546,40.53123],[-81.9057,40.53136],[-81.90579,40.53141],[-81.90605,40.53156],[-81.90614,40.53161],[-81.9062,40.53164],[-81.90632,40.5317],[-81.90639,40.53175],[-81.90646,40.53178],[-81.90653,40.53182],[-81.90675,40.53195],[-81.9068,40.53197],[-81.90682,40.53199],[-81.90699,40.53207],[-81.90739,40.53227],[-81.90749,40.53231],[-81.90751,40.53232],[-81.90813,40.5326],[-81.90853,40.53278],[-81.90877,40.53289],[-81.90915,40.53305],[-81.90923,40.53309],[-81.90936,40.53314],[-81.90949,40.53319],[-81.90952,40.5332],[-81.90957,40.53322],[-81.9097,40.53327],[-81.90992,40.53334],[-81.91014,40.5334],[-81.91023,40.53341],[-81.91047,40.53346],[-81.91071,40.53351],[-81.91093,40.53356],[-81.91099,40.53357],[-81.91117,40.53361],[-81.91172,40.53372],[-81.91207,40.53379],[-81.91213,40.5338],[-81.91226,40.53383],[-81.91231,40.53384],[-81.91236,40.53386],[-81.9125,40.53389],[-81.91255,40.5339],[-81.91277,40.53397],[-81.91292,40.53401],[-81.91293,40.53402],[-81.91305,40.53406],[-81.91309,40.53408],[-81.91316,40.53411],[-81.91333,40.53417],[-81.9135,40.53424],[-81.91361,40.53429],[-81.91404,40.53446],[-81.91476,40.53465],[-81.91569,40.53477],[-81.91599,40.53481],[-81.91646,40.5349],[-81.91646,40.5349],[-81.91645,40.53495],[-81.91644,40.53498],[-81.91638,40.53504],[-81.91637,40.53506],[-81.91636,40.53506],[-81.91635,40.5351],[-81.91636,40.53519],[-81.91637,40.53524],[-81.91638,40.5353],[-81.9164,40.53543]]}},{"type":"Feature","properties":{"_gpxType":"trk","name":"Turkey Hollow Campground, Township Road 102, Millersburg, OH - Jitters Coffee House, South Washington Street, Millersburg, OH - 11753 OH-520 - 14262 Township Rd 13 - 8480 Fairview Rd, Mt Vernon, OH 43050","coordinateProperties":{},"id":10},"geometry":{"type":"LineString","coordinates":[[-81.9164,40.53543],[-81.9164,40.53545],[-81.91642,40.53559],[-81.91644,40.5357],[-81.91644,40.5357],[-81.91648,40.5357],[-81.9167,40.53573],[-81.91685,40.53576],[-81.91707,40.53576],[-81.91716,40.53576],[-81.91724,40.53574],[-81.91731,40.53571],[-81.91738,40.53569],[-81.91748,40.53566],[-81.91756,40.53564],[-81.91766,40.53562],[-81.91773,40.53562],[-81.91777,40.53563],[-81.91793,40.53564],[-81.91813,40.53567],[-81.91822,40.53568],[-81.91846,40.53571],[-81.91868,40.53574],[-81.91875,40.53574],[-81.91881,40.53573],[-81.91886,40.53572],[-81.9189,40.53569],[-81.91894,40.53566],[-81.91896,40.5356],[-81.91901,40.53537],[-81.91909,40.53513],[-81.91912,40.53503],[-81.91912,40.53503],[-81.91933,40.53506],[-81.91953,40.53509],[-81.91976,40.53513],[-81.91999,40.53516],[-81.91999,40.53516],[-81.92,40.53512],[-81.92,40.53512],[-81.92043,40.5352],[-81.92043,40.5352],[-81.92069,40.53451],[-81.9207,40.53447],[-81.92075,40.53435],[-81.92076,40.53434],[-81.92083,40.53414],[-81.92089,40.53399],[-81.92092,40.5339],[-81.92099,40.5337],[-81.92108,40.53347],[-81.92108,40.53346],[-81.92131,40.5328],[-81.92137,40.53267],[-81.92142,40.53253],[-81.92159,40.53199],[-81.92168,40.53176],[-81.92187,40.5312],[-81.92192,40.53106],[-81.92223,40.53019],[-81.92226,40.53012],[-81.92236,40.52985],[-81.92269,40.52893],[-81.92304,40.52789],[-81.92334,40.52702],[-81.92341,40.52683],[-81.92364,40.52633],[-81.9238,40.52598],[-81.92426,40.52516],[-81.92484,40.52418],[-81.92544,40.52317],[-81.92552,40.52303],[-81.92562,40.52287],[-81.92614,40.52196],[-81.92638,40.52155],[-81.92666,40.52106],[-81.92727,40.52],[-81.92733,40.51991],[-81.92743,40.51974],[-81.92753,40.51958],[-81.92772,40.51925],[-81.92811,40.5186],[-81.92821,40.51843],[-81.9284,40.5181],[-81.9286,40.51778],[-81.9287,40.51761],[-81.92909,40.51696],[-81.92919,40.51679],[-81.92928,40.51663],[-81.92929,40.51662],[-81.92937,40.51646],[-81.92955,40.51613],[-81.92964,40.51596],[-81.92991,40.51544],[-81.92996,40.51535],[-81.9301,40.51511],[-81.9302,40.51495],[-81.93029,40.51478],[-81.93048,40.51446],[-81.93058,40.51429],[-81.93068,40.51413],[-81.93078,40.51396],[-81.93097,40.51364],[-81.93134,40.51302],[-81.93137,40.51298],[-81.93161,40.51267],[-81.93176,40.51247],[-81.93215,40.51204],[-81.93241,40.51178],[-81.93263,40.51157],[-81.93289,40.51134],[-81.93319,40.51112],[-81.93337,40.51099],[-81.93348,40.51091],[-81.9339,40.51063],[-81.93426,40.5104],[-81.93434,40.51035],[-81.93486,40.51002],[-81.93543,40.50965],[-81.93571,40.50947],[-81.93656,40.50892],[-81.93733,40.50843],[-81.93824,40.50785],[-81.93841,40.50774],[-81.93914,40.50727],[-81.94041,40.50646],[-81.94095,40.50611],[-81.94107,40.50603],[-81.94185,40.50553],[-81.94257,40.50506],[-81.94275,40.50494],[-81.94293,40.50482],[-81.94329,40.50459],[-81.9438,40.50426],[-81.94437,40.50389],[-81.9451,40.50343],[-81.946,40.50285],[-81.94637,40.50262],[-81.94691,40.50228],[-81.94727,40.50205],[-81.94764,40.50182],[-81.94789,40.50166],[-81.94824,40.50146],[-81.94858,40.50127],[-81.9486,40.50126],[-81.94878,40.50118],[-81.94886,40.50115],[-81.94917,40.50102],[-81.94945,40.50091],[-81.94963,40.50086],[-81.94977,40.50082],[-81.94985,40.50079],[-81.95004,40.50074],[-81.95007,40.50073],[-81.9504,40.50066],[-81.95068,40.5006],[-81.95099,40.50056],[-81.951,40.50055],[-81.95135,40.50051],[-81.95178,40.50048],[-81.95216,40.50047],[-81.95227,40.50047],[-81.9524,40.50047],[-81.95262,40.50048],[-81.95304,40.5005],[-81.95357,40.50057],[-81.9537,40.50059],[-81.95413,40.50067],[-81.95448,40.50076],[-81.95462,40.50079],[-81.95513,40.50095],[-81.95535,40.50104],[-81.95598,40.50129],[-81.9561,40.50133],[-81.95681,40.50163],[-81.95702,40.50172],[-81.95721,40.5018],[-81.95723,40.50181],[-81.95804,40.50213],[-81.95827,40.50223],[-81.9589,40.50249],[-81.9591,40.50257],[-81.95931,40.50266],[-81.96015,40.503],[-81.96035,40.50308],[-81.9614,40.50351],[-81.96167,40.50362],[-81.96286,40.5041],[-81.96307,40.50418],[-81.96339,40.50431],[-81.96369,40.50444],[-81.9643,40.50471],[-81.96451,40.5048],[-81.96466,40.50487],[-81.96471,40.5049],[-81.96491,40.505],[-81.96499,40.50504],[-81.9651,40.5051],[-81.96513,40.50511],[-81.96549,40.50531],[-81.96568,40.50541],[-81.96587,40.50552],[-81.96606,40.50562],[-81.96616,40.50568],[-81.96625,40.50573],[-81.96652,40.50588],[-81.96664,40.50594],[-81.96684,40.50603],[-81.96693,40.50608],[-81.96718,40.50621],[-81.96752,40.50634],[-81.96754,40.50635],[-81.96777,40.50641],[-81.96788,40.50644],[-81.96821,40.50653],[-81.96842,40.50659],[-81.96865,40.50666],[-81.96887,40.50672],[-81.96903,40.50676],[-81.9697,40.50689],[-81.97002,40.50693],[-81.97025,40.50697],[-81.97074,40.50703],[-81.97095,40.50705],[-81.97119,40.50707],[-81.9713,40.50708],[-81.97166,40.50709],[-81.9719,40.5071],[-81.97213,40.50709],[-81.97261,40.50708],[-81.97269,40.50708],[-81.97347,40.50703],[-81.97355,40.50702],[-81.97378,40.50698],[-81.974,40.50694],[-81.97401,40.50694],[-81.9747,40.50682],[-81.97475,40.50681],[-81.97493,40.50676],[-81.97515,40.50671],[-81.9756,40.50659],[-81.97573,40.50656],[-81.97583,40.50653],[-81.97642,40.50635],[-81.97648,40.50633],[-81.97669,40.50624],[-81.97677,40.50621],[-81.9769,40.50616],[-81.97726,40.50602],[-81.97732,40.506],[-81.97767,40.50585],[-81.9782,40.50561],[-81.97833,40.50553],[-81.97872,40.50532],[-81.97905,40.50514],[-81.9791,40.50511],[-81.97929,40.505],[-81.97953,40.50486],[-81.97966,40.50478],[-81.98004,40.50455],[-81.98021,40.50444],[-81.98061,40.50416],[-81.9807,40.50409],[-81.98072,40.50406],[-81.98078,40.504],[-81.98087,40.50392],[-81.98088,40.50391],[-81.98097,40.50381],[-81.98102,40.50374],[-81.98104,40.50366],[-81.98105,40.50358],[-81.98105,40.50358],[-81.98111,40.50356],[-81.98193,40.50319],[-81.98225,40.50304],[-81.98233,40.50301],[-81.98248,40.50293],[-81.98262,40.50285],[-81.98268,40.50281],[-81.98268,40.50281],[-81.98261,40.50276],[-81.98258,40.50274],[-81.98243,40.50265],[-81.9824,40.50264],[-81.98233,40.50261],[-81.98233,40.50261],[-81.98249,40.50242],[-81.98257,40.50229],[-81.98267,40.50217],[-81.98272,40.50208],[-81.98276,40.50194],[-81.98282,40.5018],[-81.9829,40.5016],[-81.98295,40.5015],[-81.983,40.50136],[-81.98303,40.50115],[-81.98308,40.50098],[-81.98312,40.50075],[-81.98316,40.50054],[-81.98328,40.50001],[-81.98336,40.49956],[-81.9834,40.49926],[-81.98351,40.49848],[-81.98361,40.49753],[-81.98361,40.49683],[-81.98363,40.49592],[-81.98366,40.49539],[-81.98369,40.49503],[-81.98369,40.49503],[-81.98381,40.49503],[-81.98418,40.49505],[-81.98431,40.49506],[-81.98443,40.49506],[-81.9848,40.49507],[-81.98492,40.49508],[-81.98501,40.49508],[-81.98504,40.49508],[-81.98539,40.49508],[-81.98551,40.49508],[-81.98566,40.49507],[-81.98574,40.49507],[-81.98609,40.49504],[-81.98623,40.49502],[-81.98623,40.49502],[-81.98634,40.49501],[-81.98636,40.49501],[-81.9866,40.49498],[-81.98666,40.49497],[-81.98677,40.49496],[-81.98747,40.4949],[-81.98753,40.4949],[-81.9877,40.49489],[-81.98771,40.49489],[-81.98818,40.49487],[-81.98832,40.49487],[-81.98913,40.49485],[-81.98981,40.49484],[-81.98984,40.49484],[-81.99007,40.49483],[-81.99057,40.49482],[-81.99057,40.49482],[-81.9906,40.49491],[-81.99071,40.49503],[-81.99073,40.49506],[-81.99089,40.49527],[-81.99096,40.49537],[-81.99097,40.49539],[-81.99105,40.49554],[-81.99109,40.4956],[-81.99115,40.4957],[-81.99121,40.49581],[-81.99123,40.49587],[-81.99131,40.49604],[-81.99133,40.49609],[-81.99138,40.49621],[-81.99149,40.49646],[-81.99161,40.49672],[-81.99166,40.49684],[-81.99169,40.49689],[-81.99172,40.49695],[-81.99176,40.49703],[-81.99179,40.49709],[-81.99184,40.49717],[-81.99187,40.49722],[-81.99189,40.49725],[-81.99199,40.49738],[-81.99204,40.49745],[-81.99211,40.49754],[-81.99216,40.49761],[-81.99222,40.49769],[-81.99223,40.49771],[-81.99229,40.4978],[-81.99233,40.49786],[-81.99237,40.49793],[-81.99243,40.49802],[-81.99247,40.49808],[-81.99252,40.49818],[-81.99254,40.49822],[-81.99259,40.49831],[-81.99262,40.4984],[-81.9927,40.49861],[-81.99274,40.4987],[-81.99277,40.49877],[-81.99282,40.49887],[-81.99284,40.49891],[-81.99291,40.49903],[-81.99292,40.49904],[-81.99301,40.49919],[-81.99302,40.49919],[-81.99304,40.49923],[-81.99314,40.49934],[-81.99324,40.49945],[-81.99329,40.49949],[-81.99336,40.49955],[-81.99345,40.49962],[-81.99349,40.49965],[-81.99356,40.4997],[-81.99363,40.49974],[-81.99371,40.49979],[-81.99382,40.49984],[-81.99413,40.49999],[-81.99443,40.50012],[-81.99444,40.50012],[-81.99464,40.5002],[-81.99477,40.50025],[-81.99485,40.50028],[-81.99506,40.50036],[-81.99513,40.50038],[-81.99528,40.50044],[-81.99551,40.50052],[-81.99569,40.5006],[-81.9959,40.50069],[-81.99611,40.50078],[-81.99632,40.50086],[-81.99638,40.50089],[-81.99653,40.50094],[-81.99659,40.50097],[-81.99674,40.50102],[-81.99696,40.50109],[-81.99714,40.50112],[-81.99719,40.50113],[-81.99729,40.50115],[-81.99742,40.50117],[-81.99746,40.50118],[-81.99764,40.5012],[-81.99766,40.5012],[-81.99789,40.5012],[-81.998,40.5012],[-81.99813,40.5012],[-81.99829,40.5012],[-81.99836,40.50119],[-81.9986,40.50118],[-81.99907,40.50116],[-81.99918,40.50115],[-81.99931,40.50114],[-81.99954,40.50113],[-81.99958,40.50113],[-81.99978,40.50111],[-82,40.50109],[-82.00001,40.50109],[-82.00025,40.50107],[-82.00058,40.50103],[-82.00072,40.50102],[-82.00087,40.501],[-82.00095,40.50099],[-82.00118,40.50096],[-82.00122,40.50095],[-82.00131,40.50094],[-82.00165,40.50088],[-82.00188,40.50084],[-82.00207,40.5008],[-82.00211,40.5008],[-82.00257,40.50071],[-82.00286,40.50065],[-82.00303,40.50063],[-82.00367,40.50052],[-82.00418,40.50044],[-82.00471,40.50036],[-82.00504,40.50033],[-82.00535,40.50031],[-82.00541,40.50031],[-82.00566,40.50032],[-82.00588,40.50032],[-82.00603,40.50032],[-82.00612,40.50033],[-82.00636,40.50033],[-82.00659,40.50034],[-82.00679,40.50035],[-82.00683,40.50035],[-82.00707,40.50036],[-82.00717,40.50036],[-82.00754,40.50037],[-82.00759,40.50037],[-82.00778,40.50036],[-82.008,40.50036],[-82.00801,40.50036],[-82.00825,40.50036],[-82.00841,40.50035],[-82.00849,40.50035],[-82.00872,40.50035],[-82.00884,40.50034],[-82.00919,40.50033],[-82.00943,40.50033],[-82.00948,40.50033],[-82.00967,40.50033],[-82.0099,40.50034],[-82.00996,40.50034],[-82.01014,40.50035],[-82.01021,40.50035],[-82.01045,40.50036],[-82.01072,40.50038],[-82.01092,40.50038],[-82.01107,40.50038],[-82.01115,40.50038],[-82.0113,40.50037],[-82.01139,40.50037],[-82.01163,40.50035],[-82.01169,40.50035],[-82.01186,40.50032],[-82.01202,40.5003],[-82.01209,40.50029],[-82.01228,40.50025],[-82.01232,40.50024],[-82.01252,40.50019],[-82.01254,40.50019],[-82.01276,40.50012],[-82.01281,40.50011],[-82.01316,40.49999],[-82.01338,40.49991],[-82.01341,40.4999],[-82.01359,40.49982],[-82.01361,40.49981],[-82.01382,40.49971],[-82.01387,40.49969],[-82.01402,40.49962],[-82.01406,40.49961],[-82.01421,40.49955],[-82.01423,40.49954],[-82.01435,40.4995],[-82.01445,40.49948],[-82.01456,40.49946],[-82.01468,40.49944],[-82.0148,40.49943],[-82.01492,40.49942],[-82.0151,40.4994],[-82.01515,40.4994],[-82.01539,40.49938],[-82.01557,40.49937],[-82.01562,40.49936],[-82.01582,40.49936],[-82.01586,40.49936],[-82.01602,40.49935],[-82.0161,40.49936],[-82.01621,40.49937],[-82.01633,40.4994],[-82.01642,40.49942],[-82.01655,40.49947],[-82.01659,40.49948],[-82.01675,40.49955],[-82.01684,40.49959],[-82.01712,40.49975],[-82.01732,40.49987],[-82.01742,40.49993],[-82.01751,40.49999],[-82.01769,40.5001],[-82.0177,40.50011],[-82.01786,40.50023],[-82.01798,40.50032],[-82.01818,40.50049],[-82.01819,40.50051],[-82.01832,40.50063],[-82.01846,40.50078],[-82.01852,40.50083],[-82.0186,40.50092],[-82.01872,40.50105],[-82.01874,40.50107],[-82.01888,40.50121],[-82.01904,40.50137],[-82.01917,40.5015],[-82.01932,40.50164],[-82.01947,40.50178],[-82.01952,40.50183],[-82.01955,40.50185],[-82.01962,40.50191],[-82.01972,40.502],[-82.01978,40.50205],[-82.02009,40.50229],[-82.02011,40.50231],[-82.02044,40.50256],[-82.02061,40.50269],[-82.02078,40.50282],[-82.02096,40.50296],[-82.02125,40.50318],[-82.02127,40.5032],[-82.0214,40.50332],[-82.02147,40.50339],[-82.02154,40.50346],[-82.02156,40.50349],[-82.02163,40.5036],[-82.02168,40.5037],[-82.02173,40.50382],[-82.02178,40.50398],[-82.02181,40.50406],[-82.02185,40.5042],[-82.02187,40.50423],[-82.02192,40.50441],[-82.02197,40.50455],[-82.02198,40.50458],[-82.02204,40.50476],[-82.02209,40.50491],[-82.02215,40.5051],[-82.0222,40.50522],[-82.02223,40.50528],[-82.02226,40.50533],[-82.02231,40.50539],[-82.02235,40.50543],[-82.02237,40.50544],[-82.02244,40.50549],[-82.02249,40.50551],[-82.02258,40.50554],[-82.02268,40.50555],[-82.02277,40.50555],[-82.02295,40.50555],[-82.02325,40.50554],[-82.02375,40.50552],[-82.02387,40.50552],[-82.02397,40.50552],[-82.02411,40.50552],[-82.02418,40.50552],[-82.02434,40.50554],[-82.02435,40.50554],[-82.02451,40.50557],[-82.02471,40.50561],[-82.02494,40.50567],[-82.02502,40.5057],[-82.02516,40.50574],[-82.02524,40.50577],[-82.02545,40.50585],[-82.02546,40.50585],[-82.02566,40.50593],[-82.02573,40.50596],[-82.02587,40.50602],[-82.02606,40.5061],[-82.02608,40.5061],[-82.02641,40.50625],[-82.02666,40.50635],[-82.02669,40.50637],[-82.02683,40.50642],[-82.02691,40.50644],[-82.02699,40.50646],[-82.02714,40.50649],[-82.02716,40.50649],[-82.0274,40.50654],[-82.02806,40.50666],[-82.02814,40.50668],[-82.02845,40.50673],[-82.02864,40.50676],[-82.02874,40.50679],[-82.02884,40.50683],[-82.02888,40.50685],[-82.02892,40.50688],[-82.02894,40.50689],[-82.02896,40.50691],[-82.02901,40.50697],[-82.02903,40.50702],[-82.02904,40.50705],[-82.02904,40.50706],[-82.02905,40.50716],[-82.02905,40.50728],[-82.02904,40.50741],[-82.02904,40.50762],[-82.02902,40.50795],[-82.02901,40.50813],[-82.029,40.50831],[-82.02899,40.50867],[-82.029,40.50877],[-82.02901,40.50886],[-82.02901,40.50887],[-82.02903,40.50898],[-82.02905,40.50905],[-82.02906,40.50909],[-82.0291,40.50922],[-82.02913,40.50931],[-82.02916,40.5094],[-82.02926,40.50968],[-82.02935,40.50992],[-82.02951,40.51038],[-82.02953,40.51044],[-82.02959,40.51061],[-82.02959,40.51063],[-82.02964,40.51077],[-82.02965,40.51079],[-82.02969,40.51087],[-82.02973,40.51095],[-82.02975,40.511],[-82.0298,40.51108],[-82.02982,40.5111],[-82.02983,40.51112],[-82.02987,40.51116],[-82.02995,40.51125],[-82.03007,40.51135],[-82.03018,40.51144],[-82.03031,40.51151],[-82.03042,40.51156],[-82.03052,40.5116],[-82.03064,40.51164],[-82.03079,40.51168],[-82.03099,40.51172],[-82.03128,40.51178],[-82.03129,40.51178],[-82.03173,40.51186],[-82.03174,40.51187],[-82.03197,40.51192],[-82.03207,40.51194],[-82.03245,40.51203],[-82.03282,40.51215],[-82.03286,40.51216],[-82.03329,40.51231],[-82.0333,40.51231],[-82.0335,40.51239],[-82.03352,40.5124],[-82.0337,40.51248],[-82.03382,40.51253],[-82.03398,40.51261],[-82.03411,40.51267],[-82.03428,40.51275],[-82.03431,40.51276],[-82.03447,40.51283],[-82.03452,40.51285],[-82.03493,40.51302],[-82.0351,40.51308],[-82.03535,40.51318],[-82.03548,40.51323],[-82.03564,40.51329],[-82.03589,40.51337],[-82.03601,40.51339],[-82.03608,40.51341],[-82.03623,40.51344],[-82.03647,40.51347],[-82.0367,40.5135],[-82.03694,40.51352],[-82.03705,40.51353],[-82.03764,40.51359],[-82.03809,40.51363],[-82.03811,40.51363],[-82.03834,40.51365],[-82.03852,40.51366],[-82.03858,40.51366],[-82.03877,40.51367],[-82.0391,40.51367],[-82.03916,40.51367],[-82.03935,40.51366],[-82.03941,40.51366],[-82.04157,40.51363],[-82.04192,40.51362],[-82.04216,40.51361],[-82.04222,40.51361],[-82.04251,40.5136],[-82.04263,40.51359],[-82.04269,40.51358],[-82.04286,40.51356],[-82.04298,40.51355],[-82.0431,40.51352],[-82.04315,40.51351],[-82.04332,40.51348],[-82.04349,40.51343],[-82.04355,40.51341],[-82.04383,40.51333],[-82.04421,40.51322],[-82.04436,40.51317],[-82.04443,40.51315],[-82.04487,40.51302],[-82.0449,40.51301],[-82.04507,40.51295],[-82.04522,40.51289],[-82.04529,40.51286],[-82.04553,40.51276],[-82.04573,40.51267],[-82.04588,40.51259],[-82.0459,40.51258],[-82.04594,40.51255],[-82.04602,40.51251],[-82.04608,40.51247],[-82.04615,40.51242],[-82.04646,40.51221],[-82.04656,40.51212],[-82.04658,40.51211],[-82.04665,40.51204],[-82.04679,40.51189],[-82.04688,40.51178],[-82.04693,40.5117],[-82.04697,40.51166],[-82.0471,40.51146],[-82.0472,40.51129],[-82.04732,40.51107],[-82.0478,40.51025],[-82.04808,40.50976],[-82.04828,40.50941],[-82.04851,40.50903],[-82.04872,40.50867],[-82.04882,40.50851],[-82.0489,40.50837],[-82.04897,40.50825],[-82.0491,40.50802],[-82.04918,40.50787],[-82.04938,40.50755],[-82.04944,40.50747],[-82.04951,40.5074],[-82.04955,40.50737],[-82.04959,40.50734],[-82.04968,40.50728],[-82.04978,40.50724],[-82.04988,40.5072],[-82.04994,40.50718],[-82.04995,40.50718],[-82.05005,40.50715],[-82.05016,40.50713],[-82.05027,40.50712],[-82.05045,40.50711],[-82.05062,40.50711],[-82.05074,40.50711],[-82.05088,40.50713],[-82.05092,40.50713],[-82.05109,40.50715],[-82.05111,40.50716],[-82.05126,40.50718],[-82.05155,40.50724],[-82.05157,40.50724],[-82.0518,40.5073],[-82.05225,40.5074],[-82.05256,40.50748],[-82.0527,40.50751],[-82.05293,40.50756],[-82.05305,40.50759]]}},{"type":"Feature","properties":{"_gpxType":"trk","name":"Turkey Hollow Campground, Township Road 102, Millersburg, OH - Jitters Coffee House, South Washington Street, Millersburg, OH - 11753 OH-520 - 14262 Township Rd 13 - 8480 Fairview Rd, Mt Vernon, OH 43050","coordinateProperties":{},"id":10},"geometry":{"type":"LineString","coordinates":[[-82.05305,40.50759],[-82.05316,40.50761],[-82.05338,40.50766],[-82.05356,40.5077],[-82.05357,40.5077],[-82.05397,40.50777],[-82.05415,40.5078],[-82.05433,40.50781],[-82.05456,40.50783],[-82.05478,40.50784],[-82.05572,40.50788],[-82.05573,40.50788],[-82.05625,40.50792],[-82.05643,40.50793],[-82.05647,40.50794],[-82.05648,40.50794],[-82.05666,40.50796],[-82.05683,40.50799],[-82.05705,40.50804],[-82.05712,40.50805],[-82.05733,40.5081],[-82.05735,40.5081],[-82.05766,40.50818],[-82.05802,40.50827],[-82.05805,40.50828],[-82.05821,40.50833],[-82.05841,40.50841],[-82.05851,40.50846],[-82.0586,40.50851],[-82.05864,40.50853],[-82.0587,40.50857],[-82.05882,40.50865],[-82.0592,40.50893],[-82.05933,40.50903],[-82.05937,40.50905],[-82.05951,40.50914],[-82.05969,40.50925],[-82.05969,40.50926],[-82.05988,40.50936],[-82.06007,40.50947],[-82.06038,40.50965],[-82.06057,40.50977],[-82.06063,40.50981],[-82.06074,40.50988],[-82.06099,40.51006],[-82.06129,40.51028],[-82.0615,40.51043],[-82.06167,40.51054],[-82.06168,40.51055],[-82.06187,40.51066],[-82.06241,40.51097],[-82.06244,40.51099],[-82.06253,40.51104],[-82.06256,40.51105],[-82.06274,40.51116],[-82.06286,40.51124],[-82.06288,40.51125],[-82.06316,40.51144],[-82.06351,40.51174],[-82.06369,40.51188],[-82.06386,40.51201],[-82.06413,40.5121],[-82.06426,40.51213],[-82.06431,40.51214],[-82.0644,40.51215],[-82.06459,40.51217],[-82.06478,40.51218],[-82.06482,40.51218],[-82.06502,40.51219],[-82.06525,40.51218],[-82.06541,40.51216],[-82.06549,40.51214],[-82.06561,40.51211],[-82.06564,40.5121],[-82.06576,40.51206],[-82.06589,40.51201],[-82.06603,40.51195],[-82.0662,40.51188],[-82.06628,40.51184],[-82.06634,40.51182],[-82.06668,40.5117],[-82.0669,40.51163],[-82.06703,40.51159],[-82.06723,40.51153],[-82.06725,40.51153],[-82.06748,40.51148],[-82.06759,40.51145],[-82.06771,40.51142],[-82.06793,40.51137],[-82.06799,40.51136],[-82.06816,40.51133],[-82.06825,40.51132],[-82.0684,40.51131],[-82.06854,40.5113],[-82.06863,40.5113],[-82.06885,40.5113],[-82.06887,40.5113],[-82.06911,40.51131],[-82.06939,40.51133],[-82.06958,40.51134],[-82.06974,40.51135],[-82.06981,40.51135],[-82.07012,40.51137],[-82.07029,40.51138],[-82.07041,40.51138],[-82.07052,40.51139],[-82.0707,40.51141],[-82.07076,40.51141],[-82.07099,40.51144],[-82.071,40.51144],[-82.07129,40.51149],[-82.07145,40.51152],[-82.07148,40.51153],[-82.07165,40.51157],[-82.07168,40.51158],[-82.07182,40.51163],[-82.07189,40.51165],[-82.072,40.51169],[-82.07211,40.51173],[-82.07215,40.51174],[-82.07232,40.5118],[-82.07235,40.51181],[-82.07247,40.51186],[-82.07253,40.51188],[-82.0726,40.51191],[-82.07273,40.51198],[-82.07276,40.512],[-82.07288,40.51208],[-82.07291,40.5121],[-82.07301,40.51218],[-82.07307,40.51223],[-82.07313,40.51229],[-82.07326,40.51243],[-82.07339,40.51258],[-82.07348,40.51267],[-82.07352,40.51272],[-82.07361,40.51282],[-82.07364,40.51285],[-82.07375,40.51299],[-82.07389,40.51311],[-82.07401,40.51327],[-82.07405,40.51333],[-82.07411,40.51343],[-82.07413,40.51346],[-82.07419,40.51358],[-82.07424,40.5137],[-82.07433,40.51394],[-82.07437,40.51406],[-82.07444,40.51425],[-82.07446,40.51431],[-82.07451,40.51443],[-82.07461,40.51465],[-82.07472,40.51488],[-82.07485,40.51516],[-82.07508,40.51566],[-82.07516,40.51583],[-82.07517,40.51584],[-82.07523,40.51596],[-82.07526,40.516],[-82.07532,40.51609],[-82.07541,40.51621],[-82.07556,40.51641],[-82.07561,40.51647],[-82.07563,40.51649],[-82.07574,40.51662],[-82.07583,40.51672],[-82.07593,40.51684],[-82.07605,40.51695],[-82.07616,40.51703],[-82.07622,40.51707],[-82.07644,40.51714],[-82.07654,40.51718],[-82.07666,40.51721],[-82.07688,40.51727],[-82.07694,40.51728],[-82.07711,40.51732],[-82.07733,40.51737],[-82.07755,40.51742],[-82.07756,40.51743],[-82.07779,40.51748],[-82.07801,40.51753],[-82.07819,40.51757],[-82.07824,40.51758],[-82.07847,40.51763],[-82.07873,40.51768],[-82.07926,40.51776],[-82.07963,40.51781],[-82.08,40.51784],[-82.08038,40.51786],[-82.08074,40.51788],[-82.08091,40.51788],[-82.08113,40.51788],[-82.08159,40.51787],[-82.08193,40.51785],[-82.08199,40.51785],[-82.08224,40.51783],[-82.08248,40.51781],[-82.0825,40.51781],[-82.08318,40.51775],[-82.08362,40.51772],[-82.08419,40.51768],[-82.08436,40.51766],[-82.08459,40.51764],[-82.08524,40.51759],[-82.08529,40.51758],[-82.08547,40.51757],[-82.08553,40.51756],[-82.08561,40.51756],[-82.08583,40.51754],[-82.08591,40.51754],[-82.08604,40.51753],[-82.08646,40.51749],[-82.08662,40.51748],[-82.08679,40.51747],[-82.087,40.51745],[-82.08728,40.51742],[-82.08745,40.5174],[-82.08754,40.5174],[-82.08764,40.51739],[-82.08779,40.51738],[-82.08788,40.51737],[-82.08829,40.51733],[-82.08835,40.51732],[-82.08843,40.51731],[-82.08868,40.51728],[-82.08876,40.51727],[-82.08921,40.51722],[-82.08955,40.51718],[-82.08976,40.51716],[-82.08988,40.51715],[-82.09001,40.51715],[-82.09012,40.51715],[-82.0902,40.51714],[-82.09036,40.51715],[-82.09059,40.51716],[-82.09104,40.51719],[-82.09106,40.51719],[-82.0913,40.51722],[-82.0915,40.51724],[-82.09153,40.51725],[-82.09176,40.51728],[-82.09189,40.5173],[-82.09199,40.51732],[-82.09217,40.51736],[-82.0923,40.51739],[-82.09244,40.51745],[-82.09258,40.51751],[-82.09264,40.51754],[-82.09271,40.51757],[-82.09283,40.51765],[-82.09288,40.51768],[-82.09301,40.51777],[-82.09313,40.51788],[-82.09322,40.51797],[-82.09344,40.51819],[-82.09372,40.51848],[-82.09399,40.51875],[-82.09437,40.51912],[-82.09446,40.51922],[-82.09454,40.51929],[-82.09473,40.5195],[-82.09487,40.51965],[-82.09492,40.51971],[-82.09501,40.51981],[-82.09506,40.51985],[-82.09511,40.5199],[-82.09523,40.51998],[-82.09523,40.51998],[-82.09547,40.51999],[-82.0958,40.52],[-82.09596,40.52],[-82.09615,40.52],[-82.09642,40.52001],[-82.09671,40.52002],[-82.0969,40.52002],[-82.09701,40.52003],[-82.09737,40.52003],[-82.09748,40.52003],[-82.09748,40.52003],[-82.09752,40.51964],[-82.09752,40.51955],[-82.09754,40.51929],[-82.09755,40.51921],[-82.09756,40.51904],[-82.09756,40.51896],[-82.09757,40.51885],[-82.09757,40.51878],[-82.09756,40.51867],[-82.09755,40.5186],[-82.09751,40.51853],[-82.09749,40.5185],[-82.09748,40.51847],[-82.09741,40.51838],[-82.0974,40.51836],[-82.09739,40.51836],[-82.09738,40.51834],[-82.09736,40.51832],[-82.09732,40.51828],[-82.0973,40.51825],[-82.09728,40.51822],[-82.09721,40.51813],[-82.09719,40.5181],[-82.09715,40.51806],[-82.09711,40.51801],[-82.09711,40.51801],[-82.09737,40.518],[-82.09762,40.51799],[-82.09784,40.51796],[-82.09792,40.51795],[-82.09807,40.51793],[-82.09825,40.5179],[-82.0983,40.51789],[-82.09853,40.51785],[-82.09876,40.5178],[-82.09912,40.51773],[-82.09944,40.51765],[-82.09952,40.51763],[-82.09971,40.51756],[-82.09987,40.5175],[-82.09996,40.51747],[-82.10022,40.51735],[-82.10044,40.5172],[-82.10045,40.51719],[-82.10062,40.51707],[-82.10079,40.51694],[-82.10106,40.51675],[-82.10129,40.51656],[-82.10145,40.51643],[-82.10162,40.5163],[-82.10227,40.51577],[-82.10282,40.51533],[-82.1029,40.51524],[-82.10295,40.51519],[-82.1031,40.51507],[-82.10328,40.51483],[-82.1033,40.5148],[-82.10341,40.51463],[-82.1035,40.51447],[-82.10379,40.51398],[-82.10391,40.51376],[-82.10397,40.51365],[-82.10401,40.51358],[-82.10406,40.51348],[-82.10411,40.51339],[-82.10433,40.51309],[-82.10442,40.51302],[-82.10458,40.51289],[-82.10474,40.51275],[-82.1049,40.51263],[-82.10524,40.51237],[-82.10574,40.51199],[-82.10607,40.51174],[-82.10624,40.51161],[-82.10641,40.51148],[-82.10674,40.51123],[-82.10691,40.5111],[-82.10702,40.51102],[-82.10708,40.51097],[-82.1073,40.51079],[-82.10741,40.51072],[-82.10752,40.51063],[-82.10795,40.51037],[-82.10814,40.51026],[-82.10887,40.5098],[-82.10896,40.50975],[-82.10912,40.50964],[-82.10922,40.50956],[-82.10932,40.50948],[-82.10946,40.50931],[-82.10963,40.50912],[-82.10975,40.50897],[-82.10978,40.50894],[-82.10999,40.50866],[-82.11011,40.5085],[-82.11034,40.50821],[-82.11036,40.50819],[-82.1105,40.50805],[-82.1107,40.50785],[-82.11079,40.50777],[-82.11092,40.50768],[-82.11096,40.50765],[-82.11114,40.50753],[-82.11127,40.50745],[-82.11154,40.50733],[-82.11174,40.50725],[-82.11197,40.50719],[-82.1122,40.50712],[-82.11241,40.50705],[-82.11263,40.507],[-82.11286,40.50695],[-82.11289,40.50694],[-82.11307,40.50687],[-82.1132,40.50682],[-82.11377,40.50653],[-82.11385,40.50647],[-82.11402,40.50634],[-82.11424,40.50616],[-82.11434,40.50607],[-82.11444,40.50598],[-82.1146,40.50578],[-82.11472,40.50562],[-82.11484,40.50547],[-82.11496,40.50531],[-82.11508,40.50516],[-82.11512,40.50511],[-82.1152,40.505],[-82.11527,40.5049],[-82.11532,40.50485],[-82.11546,40.5047],[-82.11551,40.50465],[-82.11562,40.50457],[-82.1158,40.50445],[-82.11597,40.50433],[-82.11604,40.50428],[-82.11616,40.50422],[-82.11624,40.50419],[-82.11636,40.50413],[-82.11646,40.50407],[-82.11657,40.50404],[-82.11674,40.50398],[-82.11678,40.50397],[-82.11724,40.50384],[-82.11746,40.5038],[-82.11765,40.50376],[-82.11769,40.50376],[-82.11792,40.50375],[-82.11813,40.50373],[-82.11816,40.50373],[-82.11839,40.5037],[-82.11863,40.50367],[-82.11877,40.50366],[-82.11908,40.50359],[-82.11909,40.50359],[-82.11953,40.50347],[-82.11954,40.50347],[-82.11998,40.50335],[-82.12043,40.50324],[-82.12067,40.50317],[-82.12088,40.50316],[-82.12097,40.50315],[-82.12112,40.50313],[-82.12124,40.50311],[-82.12135,40.50311],[-82.12159,40.5031],[-82.12183,40.50309],[-82.12206,40.50309],[-82.1223,40.50308],[-82.12253,40.50307],[-82.12265,40.50307],[-82.12301,40.50306],[-82.12314,40.50306],[-82.12324,40.50306],[-82.12348,40.50306],[-82.12362,40.50305],[-82.12372,40.50304],[-82.12395,40.50301],[-82.12401,40.50301],[-82.12418,40.50298],[-82.12441,40.50294],[-82.12464,40.5029],[-82.12511,40.50283],[-82.12516,40.50282],[-82.12534,40.5028],[-82.1255,40.50277],[-82.12557,40.50277],[-82.12567,40.50275],[-82.12581,40.50275],[-82.12595,40.50275],[-82.12604,40.50276],[-82.12628,40.50277],[-82.12641,40.50278],[-82.12674,40.50284],[-82.12697,40.50288],[-82.12715,40.50292],[-82.1272,40.50293],[-82.12743,40.50298],[-82.12754,40.503],[-82.12766,40.50302],[-82.12782,40.50305],[-82.12789,40.50306],[-82.12812,40.50309],[-82.12833,40.50312],[-82.12859,40.50312],[-82.12878,40.50312],[-82.12883,40.50311],[-82.12906,40.50309],[-82.12918,40.50307],[-82.12929,40.50305],[-82.12952,40.503],[-82.12975,40.50294],[-82.12997,40.50289],[-82.13001,40.50288],[-82.13019,40.50282],[-82.1303,40.50279],[-82.13059,40.50263],[-82.13078,40.50253],[-82.13106,40.50238],[-82.13115,40.5023],[-82.13125,40.50222],[-82.13152,40.50198],[-82.13161,40.50189],[-82.13185,40.50166],[-82.13191,40.50162],[-82.13205,40.5015],[-82.13225,40.50137],[-82.1326,40.50112],[-82.13265,40.50108],[-82.1334,40.50074],[-82.1336,40.50065],[-82.1338,40.50055],[-82.134,40.50046],[-82.13441,40.50027],[-82.13454,40.50023],[-82.13462,40.50019],[-82.13465,40.50017],[-82.13483,40.50012],[-82.13505,40.50005],[-82.1351,40.50004],[-82.13528,40.49999],[-82.1354,40.49997],[-82.1355,40.49995],[-82.13565,40.49993],[-82.13574,40.49991],[-82.13588,40.49989],[-82.13597,40.49988],[-82.13607,40.49988],[-82.13621,40.49987],[-82.13644,40.49985],[-82.13649,40.49985],[-82.13671,40.49984],[-82.13691,40.49983],[-82.13715,40.49982],[-82.13728,40.49981],[-82.13738,40.4998],[-82.13762,40.49978],[-82.13776,40.49977],[-82.13786,40.49977],[-82.13793,40.49977],[-82.13809,40.49976],[-82.13853,40.49973],[-82.13899,40.49969],[-82.13927,40.49968],[-82.1393,40.49968],[-82.13951,40.49966],[-82.13974,40.49965],[-82.13998,40.49964],[-82.14021,40.49962],[-82.14032,40.49961],[-82.14068,40.4996],[-82.1408,40.4996],[-82.14092,40.49959],[-82.14116,40.49958],[-82.14139,40.49956],[-82.14181,40.49954],[-82.14186,40.49953],[-82.14215,40.49949],[-82.14242,40.49946],[-82.1428,40.49939],[-82.14302,40.49934],[-82.1431,40.49932],[-82.14336,40.49925],[-82.14346,40.49922],[-82.14361,40.49917],[-82.14383,40.49909],[-82.14389,40.49906],[-82.14409,40.49896],[-82.14433,40.49884],[-82.14457,40.49873],[-82.14468,40.49867],[-82.14489,40.49857],[-82.14508,40.49848],[-82.1452,40.49842],[-82.14548,40.49827],[-82.14577,40.4981],[-82.14584,40.49805],[-82.14595,40.49796],[-82.14613,40.49782],[-82.14629,40.49766],[-82.1463,40.49764],[-82.14641,40.4975],[-82.14656,40.49733],[-82.14666,40.49711],[-82.14672,40.497],[-82.1468,40.49683],[-82.14682,40.49679],[-82.14688,40.49666],[-82.14695,40.49651],[-82.14696,40.49649],[-82.14719,40.49607],[-82.14722,40.49599],[-82.1473,40.49582],[-82.14735,40.49572],[-82.14737,40.49565],[-82.14749,40.49531],[-82.14749,40.4953],[-82.14753,40.49512],[-82.14755,40.49505],[-82.14754,40.49495],[-82.14752,40.49469],[-82.14749,40.49459],[-82.14742,40.49435],[-82.14738,40.49424],[-82.14731,40.49407],[-82.1473,40.49404],[-82.14719,40.49391],[-82.14696,40.49364],[-82.14676,40.49349],[-82.14668,40.49343],[-82.14659,40.49337],[-82.14641,40.49325],[-82.14637,40.49323],[-82.14621,40.49314],[-82.14602,40.49304],[-82.14583,40.49294],[-82.14582,40.49293],[-82.14561,40.49288],[-82.14544,40.49283],[-82.14539,40.49281],[-82.14518,40.49274],[-82.14517,40.49273],[-82.14496,40.49265],[-82.14482,40.4926],[-82.14475,40.49257],[-82.14455,40.49248],[-82.14447,40.49244],[-82.14419,40.49222],[-82.14409,40.49213],[-82.14406,40.49207],[-82.14401,40.49195],[-82.14398,40.49189],[-82.14386,40.49167],[-82.14378,40.49152],[-82.14374,40.49146],[-82.14374,40.49145],[-82.14371,40.49141],[-82.14369,40.49139],[-82.14365,40.49136],[-82.1436,40.49134],[-82.14358,40.49133],[-82.14356,40.49132],[-82.14353,40.49129],[-82.1435,40.49126],[-82.14347,40.49118],[-82.14345,40.49111],[-82.14344,40.491],[-82.14342,40.49087],[-82.1434,40.49067],[-82.14342,40.49046],[-82.14342,40.49045],[-82.14348,40.49021],[-82.14359,40.4899],[-82.14367,40.48977],[-82.14377,40.48962],[-82.14392,40.4894],[-82.14399,40.48929],[-82.14406,40.48918],[-82.14409,40.48912],[-82.14425,40.48887],[-82.14438,40.48863],[-82.14443,40.48855],[-82.14448,40.48847],[-82.14456,40.48834],[-82.14458,40.48831],[-82.14465,40.48819],[-82.14468,40.48814],[-82.14474,40.48802],[-82.14484,40.48781],[-82.14484,40.4878],[-82.14492,40.48761],[-82.14497,40.48746],[-82.145,40.48738],[-82.14508,40.48713],[-82.14516,40.48686],[-82.14519,40.48676],[-82.14524,40.48658],[-82.14525,40.48657],[-82.14529,40.48641],[-82.14534,40.48623],[-82.14538,40.48603],[-82.1454,40.48589],[-82.1454,40.48587],[-82.14543,40.4857],[-82.14544,40.48568],[-82.14545,40.48552],[-82.14545,40.48546],[-82.14544,40.48524],[-82.14544,40.48507],[-82.14544,40.48482],[-82.14543,40.4848],[-82.14543,40.48461],[-82.14542,40.48445],[-82.14543,40.48427],[-82.14543,40.48426],[-82.14544,40.48409],[-82.14547,40.48388],[-82.14551,40.48374],[-82.14551,40.48372],[-82.14555,40.48359],[-82.14556,40.48355],[-82.1456,40.48341],[-82.14566,40.48325],[-82.14572,40.48312],[-82.14575,40.48303],[-82.14577,40.48298],[-82.14588,40.48275],[-82.14598,40.48252],[-82.14598,40.48251],[-82.14605,40.48235],[-82.14607,40.4823],[-82.14621,40.48202],[-82.14635,40.48173],[-82.14637,40.48167],[-82.14641,40.48157],[-82.14649,40.4814],[-82.14658,40.48119],[-82.14667,40.48099],[-82.1467,40.48091],[-82.14675,40.48082],[-82.14683,40.48063],[-82.14692,40.48044],[-82.14705,40.48013],[-82.14709,40.48004],[-82.14723,40.47961],[-82.14723,40.4796],[-82.14738,40.47908],[-82.1475,40.47866],[-82.14758,40.47839],[-82.14759,40.47838],[-82.14765,40.47821],[-82.14772,40.47804],[-82.14789,40.4777],[-82.1479,40.47769],[-82.148,40.47754],[-82.1481,40.47739],[-82.1481,40.47738],[-82.14823,40.47723],[-82.14824,40.47722],[-82.14835,40.47708],[-82.14839,40.47703],[-82.14855,40.47683],[-82.14868,40.47668],[-82.14873,40.47662],[-82.14876,40.47657],[-82.14884,40.47646],[-82.14886,40.47643],[-82.14891,40.47634],[-82.14893,40.47629],[-82.14893,40.47629],[-82.1489,40.47627],[-82.14869,40.47613],[-82.14854,40.47606],[-82.14834,40.47597],[-82.14813,40.47587],[-82.14811,40.47586],[-82.14796,40.47579],[-82.14793,40.47578],[-82.14773,40.47568],[-82.14762,40.47562],[-82.14753,40.47558],[-82.14748,40.47556],[-82.1474,40.47553],[-82.14732,40.47549],[-82.14726,40.47547],[-82.14711,40.47542],[-82.1471,40.47542],[-82.14696,40.4754],[-82.14678,40.4754],[-82.14644,40.47543],[-82.1464,40.47543],[-82.14621,40.47545],[-82.14617,40.47546],[-82.14594,40.47547],[-82.14593,40.47547],[-82.1457,40.47549],[-82.14557,40.47549],[-82.14551,40.4755],[-82.14536,40.47551],[-82.14507,40.47555],[-82.145,40.47557],[-82.14496,40.47557],[-82.14455,40.47568],[-82.14423,40.47595],[-82.14409,40.47603],[-82.14404,40.47605],[-82.144,40.47608],[-82.14386,40.47614],[-82.14384,40.47614],[-82.1432,40.47637],[-82.14298,40.47645],[-82.14296,40.47646],[-82.14255,40.4766],[-82.14237,40.47666],[-82.14234,40.47668],[-82.14213,40.47676],[-82.14192,40.47684],[-82.14182,40.47687],[-82.14171,40.47692],[-82.14128,40.47709],[-82.14128,40.47709],[-82.14113,40.47703]]}},{"type":"Feature","properties":{"_gpxType":"trk","name":"Turkey Hollow Campground, Township Road 102, Millersburg, OH - Jitters Coffee House, South Washington Street, Millersburg, OH - 11753 OH-520 - 14262 Township Rd 13 - 8480 Fairview Rd, Mt Vernon, OH 43050","coordinateProperties":{},"id":10},"geometry":{"type":"LineString","coordinates":[[-82.14113,40.47703],[-82.14128,40.47709],[-82.14128,40.47709],[-82.14171,40.47692],[-82.14182,40.47687],[-82.14192,40.47684],[-82.14213,40.47676],[-82.14234,40.47668],[-82.14237,40.47666],[-82.14255,40.4766],[-82.14296,40.47646],[-82.14298,40.47645],[-82.1432,40.47637],[-82.14384,40.47614],[-82.14386,40.47614],[-82.144,40.47608],[-82.14404,40.47605],[-82.14409,40.47603],[-82.14423,40.47595],[-82.14455,40.47568],[-82.14496,40.47557],[-82.145,40.47557],[-82.14507,40.47555],[-82.14536,40.47551],[-82.14551,40.4755],[-82.14557,40.47549],[-82.1457,40.47549],[-82.14593,40.47547],[-82.14594,40.47547],[-82.14617,40.47546],[-82.14621,40.47545],[-82.1464,40.47543],[-82.14644,40.47543],[-82.14678,40.4754],[-82.14696,40.4754],[-82.1471,40.47542],[-82.14711,40.47542],[-82.14726,40.47547],[-82.14732,40.47549],[-82.1474,40.47553],[-82.14748,40.47556],[-82.14753,40.47558],[-82.14762,40.47562],[-82.14773,40.47568],[-82.14793,40.47578],[-82.14796,40.47579],[-82.14811,40.47586],[-82.14813,40.47587],[-82.14834,40.47597],[-82.14854,40.47606],[-82.14869,40.47613],[-82.1489,40.47627],[-82.14893,40.47629],[-82.14893,40.47629],[-82.14921,40.47579],[-82.14923,40.47577],[-82.14931,40.47563],[-82.1494,40.47546],[-82.1495,40.4753],[-82.14957,40.47519],[-82.14971,40.47498],[-82.14985,40.47479],[-82.15008,40.47452],[-82.1501,40.47451],[-82.1502,40.47437],[-82.15028,40.47427],[-82.15032,40.47421],[-82.15035,40.47416],[-82.15041,40.47404],[-82.15049,40.47389],[-82.1505,40.47388],[-82.15058,40.47367],[-82.15064,40.47351],[-82.15067,40.47335],[-82.15068,40.47329],[-82.15069,40.47317],[-82.1507,40.47307],[-82.1507,40.47299],[-82.15071,40.47283],[-82.15072,40.47282],[-82.15073,40.47263],[-82.15074,40.4725],[-82.15074,40.47246],[-82.15075,40.47231],[-82.15078,40.47213],[-82.15083,40.47192],[-82.15087,40.4717],[-82.1509,40.47157],[-82.15094,40.47139],[-82.15097,40.47124],[-82.15098,40.47121],[-82.15099,40.47111],[-82.15102,40.47093],[-82.15105,40.47086],[-82.1511,40.47068],[-82.15112,40.47061],[-82.15116,40.47051],[-82.15122,40.47033],[-82.15123,40.47032],[-82.15136,40.46999],[-82.15137,40.46997],[-82.15151,40.46974],[-82.15157,40.46967],[-82.15169,40.46951],[-82.15173,40.46947],[-82.15188,40.46927],[-82.15215,40.469],[-82.15223,40.46892],[-82.15253,40.46867],[-82.15271,40.46852],[-82.15285,40.46841],[-82.15287,40.4684],[-82.15305,40.46828],[-82.15322,40.46817],[-82.15323,40.46816],[-82.15341,40.46804],[-82.15347,40.46799],[-82.15352,40.46796],[-82.15374,40.46779],[-82.15386,40.46769],[-82.1542,40.46733],[-82.15428,40.4672],[-82.15432,40.46714],[-82.15436,40.46707],[-82.15458,40.46674],[-82.15471,40.46656],[-82.15482,40.4664],[-82.15482,40.46639],[-82.15487,40.46634],[-82.15511,40.46611],[-82.15516,40.46606],[-82.15533,40.46592],[-82.1556,40.46577],[-82.15603,40.46556],[-82.15623,40.46547],[-82.15631,40.46544],[-82.15648,40.46536],[-82.15665,40.4653],[-82.15673,40.46527],[-82.15686,40.46522],[-82.15694,40.46519],[-82.15707,40.46513],[-82.15715,40.4651],[-82.15722,40.46506],[-82.15746,40.46493],[-82.15748,40.46492],[-82.15779,40.46472],[-82.15797,40.46456],[-82.1581,40.46444],[-82.15817,40.46436],[-82.15826,40.46427],[-82.1584,40.46413],[-82.15843,40.46409],[-82.15857,40.46392],[-82.15861,40.46386],[-82.15865,40.46383],[-82.15886,40.46364],[-82.15898,40.46356],[-82.15914,40.46346],[-82.15915,40.46345],[-82.15935,40.46335],[-82.15946,40.4633],[-82.15964,40.46323],[-82.15971,40.4632],[-82.1599,40.46313],[-82.15992,40.46313],[-82.16009,40.46311],[-82.16037,40.46307],[-82.16072,40.46304],[-82.16078,40.46303],[-82.16102,40.46301],[-82.16106,40.463],[-82.16141,40.46297],[-82.16179,40.46291],[-82.16194,40.46287],[-82.16213,40.46282],[-82.16261,40.46266],[-82.163,40.4625],[-82.16321,40.4624],[-82.16346,40.46228],[-82.16372,40.46214],[-82.1638,40.46209],[-82.16396,40.462],[-82.16413,40.46184],[-82.16414,40.46184],[-82.16438,40.46161],[-82.16457,40.46139],[-82.16472,40.46123],[-82.16485,40.4611],[-82.16497,40.46101],[-82.165,40.46099],[-82.16513,40.46089],[-82.16517,40.46087],[-82.16531,40.46077],[-82.1655,40.46065],[-82.1657,40.46055],[-82.16595,40.46046],[-82.16616,40.46038],[-82.16627,40.46034],[-82.16658,40.46022],[-82.16677,40.46014],[-82.16743,40.4599],[-82.16746,40.45989],[-82.16792,40.45972],[-82.16832,40.45959],[-82.16855,40.45951],[-82.16872,40.45946],[-82.16879,40.45945],[-82.16911,40.45939],[-82.16933,40.45936],[-82.16941,40.45935],[-82.16956,40.45934],[-82.16982,40.45933],[-82.17012,40.45934],[-82.17034,40.45936],[-82.17059,40.4594],[-82.17083,40.45945],[-82.17112,40.45953],[-82.17145,40.45965],[-82.17147,40.45966],[-82.17166,40.45975],[-82.17184,40.45984],[-82.17186,40.45985],[-82.17221,40.46006],[-82.17241,40.4602],[-82.17256,40.46031],[-82.17258,40.46032],[-82.17276,40.46044],[-82.17277,40.46045],[-82.17294,40.46054],[-82.17333,40.46078],[-82.17346,40.46085],[-82.17352,40.46089],[-82.17406,40.46121],[-82.17426,40.46133],[-82.17488,40.46169],[-82.1752,40.46188],[-82.17539,40.46199],[-82.17551,40.46206],[-82.17583,40.46225],[-82.17613,40.46243],[-82.17619,40.46247],[-82.17631,40.46255],[-82.17643,40.46262],[-82.17649,40.46267],[-82.17659,40.46274],[-82.17685,40.46298],[-82.17695,40.46308],[-82.17728,40.4634],[-82.17789,40.46398],[-82.17797,40.46407],[-82.17826,40.46435],[-82.17855,40.46464],[-82.17912,40.46514],[-82.17932,40.46532],[-82.17992,40.46588],[-82.17995,40.46591],[-82.18006,40.466],[-82.18007,40.46601],[-82.18025,40.46616],[-82.18046,40.46629],[-82.18076,40.46648],[-82.18078,40.46649],[-82.18089,40.46657],[-82.18095,40.46662],[-82.18104,40.46673],[-82.18114,40.46685],[-82.18119,40.46692],[-82.18137,40.46716],[-82.18138,40.46717],[-82.18138,40.46719],[-82.18139,40.46724],[-82.18139,40.46726],[-82.1814,40.46732],[-82.18142,40.46736],[-82.18146,40.4674],[-82.18147,40.46741],[-82.18151,40.46745],[-82.18156,40.46749],[-82.18164,40.46751],[-82.1817,40.46752],[-82.18177,40.46753],[-82.18182,40.46752],[-82.18188,40.46751],[-82.18217,40.46741],[-82.18247,40.46731],[-82.18247,40.46731],[-82.18255,40.46732],[-82.18263,40.46734],[-82.18269,40.46734],[-82.18277,40.46739],[-82.18285,40.46743],[-82.18292,40.46746],[-82.183,40.46749],[-82.18312,40.46753],[-82.18336,40.46759],[-82.18358,40.46762],[-82.18404,40.46771],[-82.18406,40.46771],[-82.1844,40.46779],[-82.18449,40.4678],[-82.18489,40.46784],[-82.18496,40.46785],[-82.1852,40.46787],[-82.18528,40.46788],[-82.18543,40.46788],[-82.18567,40.46789],[-82.18576,40.46789],[-82.1859,40.46789],[-82.18614,40.46788],[-82.18637,40.46788],[-82.18638,40.46788],[-82.18661,40.46786],[-82.18685,40.46785],[-82.18731,40.46779],[-82.18737,40.46778],[-82.18754,40.46775],[-82.18783,40.4677],[-82.18801,40.46767],[-82.18823,40.46763],[-82.18823,40.46762],[-82.18846,40.46757],[-82.18865,40.46752],[-82.18868,40.46751],[-82.18891,40.46745],[-82.18895,40.46744],[-82.18912,40.46738],[-82.18933,40.4673],[-82.18935,40.46729],[-82.18962,40.4672],[-82.18976,40.46714],[-82.18992,40.46708],[-82.18997,40.46706],[-82.19017,40.46696],[-82.19021,40.46695],[-82.19037,40.46687],[-82.19057,40.46678],[-82.19077,40.46668],[-82.19097,40.46658],[-82.19116,40.46648],[-82.1917,40.4662],[-82.19175,40.46617],[-82.19195,40.46607],[-82.19214,40.46597],[-82.19234,40.46587],[-82.19273,40.46567],[-82.19282,40.46563],[-82.19293,40.46557],[-82.19322,40.46542],[-82.19329,40.46539],[-82.19334,40.46536],[-82.19344,40.46531],[-82.19356,40.46524],[-82.19376,40.46514],[-82.19395,40.46504],[-82.19415,40.46494],[-82.1943,40.46486],[-82.19474,40.46464],[-82.19513,40.46444],[-82.19576,40.46413],[-82.19592,40.46405],[-82.19631,40.46384],[-82.1969,40.46354],[-82.19758,40.4632],[-82.19789,40.46304],[-82.19828,40.46284],[-82.19867,40.46264],[-82.19892,40.46251],[-82.19906,40.46244],[-82.19984,40.46204],[-82.20024,40.46184],[-82.2003,40.4618],[-82.20102,40.46143],[-82.20147,40.4612],[-82.20168,40.4611],[-82.20203,40.46092],[-82.20244,40.46074],[-82.20278,40.46063],[-82.20292,40.46059],[-82.20359,40.46037],[-82.20448,40.46013],[-82.20514,40.45993],[-82.20573,40.45974],[-82.20598,40.45964],[-82.20623,40.45954],[-82.20667,40.45933],[-82.20705,40.45912],[-82.20746,40.45887],[-82.20777,40.45864],[-82.20787,40.45856],[-82.20819,40.4583],[-82.20862,40.45793],[-82.20945,40.45723],[-82.20966,40.45705],[-82.20976,40.45696],[-82.21025,40.45655],[-82.21051,40.45626],[-82.21054,40.45622],[-82.21074,40.45595],[-82.21084,40.45582],[-82.21097,40.45563],[-82.21118,40.45531],[-82.21126,40.45519],[-82.21139,40.45499],[-82.2115,40.45483],[-82.2116,40.45467],[-82.21163,40.45463],[-82.21172,40.45451],[-82.21205,40.45406],[-82.21208,40.45405],[-82.21236,40.45383],[-82.21241,40.45379],[-82.21267,40.45359],[-82.21291,40.45343],[-82.21293,40.45342],[-82.21313,40.45333],[-82.21334,40.45325],[-82.21346,40.4532],[-82.21355,40.45317],[-82.21371,40.45312],[-82.21377,40.45311],[-82.214,40.45306],[-82.21403,40.45305],[-82.2144,40.45301],[-82.2147,40.45299],[-82.21494,40.45298],[-82.21504,40.45297],[-82.21517,40.45296],[-82.21596,40.4529],[-82.21658,40.45285],[-82.21693,40.45283],[-82.21706,40.45282],[-82.21729,40.4528],[-82.21753,40.45279],[-82.218,40.45276],[-82.21802,40.45276],[-82.21847,40.45274],[-82.21894,40.45272],[-82.21911,40.45271],[-82.21963,40.45267],[-82.21988,40.45264],[-82.21991,40.45264],[-82.22011,40.4526],[-82.22022,40.45259],[-82.2205,40.45253],[-82.22057,40.45251],[-82.22075,40.45245],[-82.221,40.45235],[-82.22119,40.45225],[-82.22124,40.45223],[-82.22152,40.45209],[-82.22176,40.45194],[-82.2221,40.45173],[-82.22262,40.45142],[-82.22299,40.45117],[-82.22307,40.45114],[-82.22314,40.4511],[-82.22324,40.45105],[-82.22338,40.45098],[-82.2235,40.45091],[-82.22371,40.45079],[-82.2238,40.45073],[-82.22396,40.45066],[-82.22408,40.4506],[-82.22411,40.45059],[-82.22464,40.4504],[-82.22498,40.45033],[-82.22505,40.45032],[-82.22522,40.45029],[-82.22539,40.45027],[-82.22545,40.45027],[-82.22569,40.45026],[-82.22592,40.45026],[-82.22599,40.45026],[-82.22612,40.45026],[-82.22662,40.4503],[-82.22663,40.4503],[-82.227,40.45032],[-82.2271,40.45033],[-82.2278,40.45038],[-82.22836,40.45042],[-82.22874,40.45045],[-82.22968,40.45053],[-82.22992,40.45055],[-82.23045,40.4506],[-82.23062,40.45061],[-82.23086,40.45063],[-82.23109,40.45065],[-82.23203,40.45073],[-82.23227,40.45074],[-82.2325,40.45076],[-82.23274,40.45078],[-82.23278,40.45079],[-82.23344,40.45084],[-82.23368,40.45086],[-82.23379,40.45087],[-82.23415,40.4509],[-82.23533,40.45099],[-82.23556,40.45101],[-82.23648,40.4511],[-82.2365,40.4511],[-82.23673,40.45112],[-82.23697,40.45114],[-82.2372,40.45115],[-82.23725,40.45116],[-82.23744,40.45118],[-82.23787,40.45121],[-82.23814,40.45123],[-82.23837,40.45124],[-82.23838,40.45124],[-82.23862,40.45124],[-82.23878,40.45125],[-82.23909,40.45124],[-82.23913,40.45124],[-82.23932,40.45123],[-82.23948,40.45122],[-82.23978,40.4512],[-82.24003,40.45117],[-82.24015,40.45115],[-82.24049,40.4511],[-82.24051,40.45109],[-82.24087,40.45101],[-82.24094,40.45099],[-82.24121,40.45092],[-82.24187,40.45071],[-82.24244,40.45053],[-82.24252,40.45051],[-82.24383,40.4501],[-82.24467,40.44984],[-82.24534,40.44959],[-82.24545,40.44956],[-82.24666,40.44919],[-82.24765,40.44889],[-82.24798,40.44879],[-82.24977,40.44825],[-82.25039,40.44806],[-82.25192,40.44758],[-82.25297,40.44725],[-82.25301,40.44724],[-82.2541,40.44689],[-82.2542,40.44686],[-82.25454,40.44676],[-82.25476,40.44669],[-82.2552,40.44656],[-82.25557,40.44644],[-82.2563,40.44622],[-82.25647,40.44617],[-82.25695,40.446],[-82.25696,40.44594],[-82.25698,40.44591],[-82.25702,40.44587],[-82.25708,40.44584],[-82.25723,40.44571],[-82.25723,40.44571],[-82.25727,40.44564],[-82.25727,40.44559],[-82.25731,40.4453],[-82.25732,40.44487],[-82.25737,40.44446],[-82.25742,40.44403],[-82.25744,40.44359],[-82.25747,40.44316],[-82.25747,40.44316],[-82.25762,40.44317],[-82.25833,40.44319],[-82.25844,40.4432],[-82.25856,40.44321],[-82.25924,40.44323],[-82.2596,40.44324],[-82.25996,40.44325],[-82.26067,40.44326],[-82.26131,40.44329],[-82.26222,40.4433],[-82.26336,40.44335],[-82.26362,40.44334],[-82.26362,40.44334],[-82.26357,40.44415],[-82.26357,40.44415],[-82.26376,40.44411],[-82.26393,40.44407],[-82.26508,40.44369],[-82.26547,40.44358],[-82.26603,40.44339],[-82.26613,40.44336],[-82.26613,40.44336],[-82.26616,40.44325],[-82.26617,40.44323],[-82.26619,40.44318],[-82.26622,40.44315],[-82.26625,40.44312],[-82.26629,40.4431],[-82.2668,40.44295],[-82.26702,40.44288],[-82.26812,40.44256],[-82.26982,40.44205],[-82.27054,40.44183],[-82.2712,40.44162],[-82.27338,40.44094],[-82.27404,40.44073],[-82.27448,40.4406],[-82.27497,40.44044],[-82.27535,40.44032],[-82.27557,40.44025],[-82.27666,40.43991],[-82.27753,40.43963],[-82.27862,40.43929],[-82.27884,40.43922],[-82.27993,40.43887],[-82.28022,40.43878],[-82.28056,40.43868],[-82.28067,40.43865],[-82.28166,40.43835],[-82.28173,40.43833],[-82.2828,40.4381],[-82.28315,40.43803],[-82.28372,40.43793],[-82.2851,40.43769],[-82.28533,40.43765],[-82.28579,40.43757],[-82.28648,40.43745],[-82.28717,40.43732],[-82.28822,40.43714],[-82.28832,40.43712],[-82.28925,40.43697],[-82.2904,40.43678],[-82.29179,40.43655],[-82.2926,40.4364],[-82.29329,40.43628],[-82.29352,40.43624],[-82.29494,40.43598],[-82.29536,40.43592],[-82.29583,40.43585],[-82.296,40.43583],[-82.29606,40.43582],[-82.29647,40.43574],[-82.29721,40.43561],[-82.29738,40.43558],[-82.29767,40.43553],[-82.29843,40.4354],[-82.29902,40.43528],[-82.29927,40.43522],[-82.29949,40.43517],[-82.29969,40.43512],[-82.29993,40.43504],[-82.29994,40.43504],[-82.30037,40.43489],[-82.3006,40.43481],[-82.30082,40.43472],[-82.3012,40.43455],[-82.30121,40.43454],[-82.30161,40.43431],[-82.30191,40.43414],[-82.30195,40.43411],[-82.30213,40.43401],[-82.30228,40.4339],[-82.30245,40.43377],[-82.30274,40.43349],[-82.30302,40.4332],[-82.30309,40.43312],[-82.30325,40.43292],[-82.30328,40.43287],[-82.30341,40.43269],[-82.30359,40.43244],[-82.30362,40.43239],[-82.30367,40.4323],[-82.30378,40.43214],[-82.30435,40.43126],[-82.30466,40.43077],[-82.30498,40.43027],[-82.3054,40.42962],[-82.30561,40.4293],[-82.30582,40.42898],[-82.30613,40.42849],[-82.30665,40.42769],[-82.30717,40.42688],[-82.30738,40.42656],[-82.30769,40.42607],[-82.3079,40.42575],[-82.30831,40.4251],[-82.30838,40.425],[-82.30841,40.42494],[-82.3085,40.42477],[-82.30897,40.42395],[-82.30916,40.42362],[-82.30936,40.42327],[-82.3095,40.42304],[-82.30966,40.4228],[-82.30998,40.42234],[-82.31009,40.42216],[-82.3105,40.42152],[-82.31061,40.42136],[-82.31082,40.42103],[-82.31097,40.42079],[-82.31103,40.42071],[-82.31147,40.42011],[-82.31161,40.41993],[-82.31197,40.41946],[-82.31221,40.41915],[-82.31262,40.41871],[-82.3129,40.41842],[-82.31331,40.41798],[-82.31338,40.41789],[-82.31353,40.41774],[-82.31386,40.41743],[-82.31388,40.41741],[-82.31446,40.41693],[-82.31469,40.41675],[-82.31527,40.41627],[-82.31581,40.41583],[-82.31693,40.41491],[-82.31752,40.41443],[-82.31902,40.41319],[-82.31928,40.41298],[-82.32057,40.41192],[-82.32063,40.41187],[-82.32121,40.41139],[-82.32142,40.41122],[-82.32159,40.41108],[-82.32201,40.41073],[-82.32232,40.41046],[-82.32264,40.4102],[-82.32286,40.41001],[-82.32328,40.40966],[-82.32359,40.4094],[-82.32413,40.40895],[-82.32446,40.40869],[-82.32472,40.40848],[-82.32495,40.4083],[-82.3252,40.4081],[-82.32538,40.40796],[-82.32552,40.40786],[-82.32554,40.40783],[-82.32598,40.40744],[-82.326,40.40742],[-82.32631,40.40715],[-82.32633,40.40713],[-82.32634,40.40712],[-82.32646,40.40701],[-82.3266,40.40686],[-82.32711,40.40634],[-82.32718,40.40627],[-82.32787,40.40558],[-82.32801,40.40542],[-82.32803,40.40541],[-82.32803,40.4054],[-82.32848,40.40497],[-82.3288,40.40464],[-82.32904,40.40441],[-82.32916,40.40428],[-82.32975,40.40369],[-82.33059,40.40285],[-82.33061,40.40283],[-82.3313,40.40213],[-82.33161,40.40183],[-82.33261,40.40082],[-82.33288,40.40056],[-82.33445,40.39898],[-82.33446,40.39896],[-82.33459,40.39884],[-82.33478,40.39865],[-82.33502,40.39841],[-82.33532,40.3981],[-82.33559,40.39783],[-82.33587,40.39755],[-82.33589,40.39753],[-82.33593,40.39748],[-82.33718,40.39624],[-82.33773,40.39569],[-82.33799,40.39543],[-82.33804,40.39538],[-82.33875,40.39467],[-82.33916,40.39425],[-82.33932,40.39409],[-82.34018,40.39323],[-82.34031,40.39311],[-82.34041,40.393],[-82.3406,40.39283],[-82.34089,40.39258],[-82.34124,40.3923],[-82.34143,40.39216],[-82.34148,40.39211],[-82.34158,40.39205],[-82.34176,40.39193],[-82.342,40.39176],[-82.34231,40.39159],[-82.3425,40.39148],[-82.34264,40.3914],[-82.34311,40.39117],[-82.34321,40.39112],[-82.34328,40.39108],[-82.34368,40.3909],[-82.34448,40.39054],[-82.34469,40.39045],[-82.34489,40.39036],[-82.34632,40.38973],[-82.34653,40.38964],[-82.34755,40.38918],[-82.34775,40.38909],[-82.34877,40.38864],[-82.34938,40.38837],[-82.35081,40.38773],[-82.35163,40.38737],[-82.35183,40.38728],[-82.35184,40.38728],[-82.35203,40.38719],[-82.35223,40.3871],[-82.35284,40.38682],[-82.35345,40.38655],[-82.35366,40.38646],[-82.35386,40.38637],[-82.35468,40.38601],[-82.35489,40.38592],[-82.35509,40.38583],[-82.35525,40.38576],[-82.3553,40.38574],[-82.35652,40.3852],[-82.35693,40.38501],[-82.35713,40.38492],[-82.35734,40.38483],[-82.35795,40.38456],[-82.35815,40.38447],[-82.35835,40.38438],[-82.35917,40.38401],[-82.35958,40.38383],[-82.35999,40.38365],[-82.3608,40.38329],[-82.36141,40.38302],[-82.36182,40.38283],[-82.36202,40.38274],[-82.36223,40.38265],[-82.36243,40.38256],[-82.36304,40.38229],[-82.36365,40.38202],[-82.36426,40.38174],[-82.36447,40.38165],[-82.36569,40.38111],[-82.36712,40.38047],[-82.36732,40.38038],[-82.36814,40.38002],[-82.36854,40.37984],[-82.36875,40.37974],[-82.37017,40.37911],[-82.37038,40.37902],[-82.37094,40.37877],[-82.37103,40.37873],[-82.37164,40.37846],[-82.37185,40.37837],[-82.37226,40.37819],[-82.37246,40.3781],[-82.37266,40.37801],[-82.37389,40.37747],[-82.37484,40.37705],[-82.37573,40.37666],[-82.37594,40.37657],[-82.37612,40.37649],[-82.37634,40.37638],[-82.37654,40.37629],[-82.37687,40.37612],[-82.37701,40.37606],[-82.37706,40.37604],[-82.37714,40.37601],[-82.37723,40.37599],[-82.37732,40.37596],[-82.37739,40.37594],[-82.37746,40.37589],[-82.37753,40.37582],[-82.37763,40.37573],[-82.37768,40.3757],[-82.37772,40.37569],[-82.37782,40.37567],[-82.37793,40.37564],[-82.37803,40.37561],[-82.37829,40.37549],[-82.37844,40.37542],[-82.37891,40.37523],[-82.37911,40.37514],[-82.37943,40.37501],[-82.37973,40.37487],[-82.38115,40.37423],[-82.38136,40.37414],[-82.38176,40.37396],[-82.38197,40.37387],[-82.38257,40.37359],[-82.38365,40.37312],[-82.38385,40.37303],[-82.38609,40.37203],[-82.3863,40.37194],[-82.38752,40.37139],[-82.388,40.37118],[-82.38831,40.37103],[-82.38874,40.37084],[-82.38894,40.37075],[-82.38914,40.37066],[-82.39016,40.3702],[-82.39063,40.36999],[-82.39098,40.36984],[-82.39199,40.36938],[-82.39217,40.3693],[-82.39252,40.36915],[-82.39267,40.36909],[-82.39275,40.36906],[-82.39288,40.36901],[-82.39301,40.36897],[-82.39323,40.36891],[-82.39351,40.36885],[-82.39378,40.3688],[-82.39411,40.36877],[-82.39435,40.36875],[-82.39449,40.36874],[-82.39459,40.36874],[-82.3949,40.36872],[-82.39496,40.36872],[-82.39525,40.36871],[-82.39543,40.36871],[-82.39549,40.36871],[-82.39567,40.36872],[-82.39576,40.36872],[-82.39621,40.36876],[-82.39653,40.36879],[-82.3966,40.3688],[-82.39668,40.36881],[-82.39683,40.36884],[-82.39692,40.36885],[-82.39706,40.36888],[-82.39716,40.36889],[-82.39728,40.36892],[-82.39729,40.36892],[-82.39734,40.36894],[-82.39751,40.36899],[-82.39796,40.36911],[-82.398,40.36912],[-82.39803,40.36913],[-82.39805,40.36913],[-82.39807,40.36913],[-82.39813,40.3691],[-82.39813,40.3691],[-82.39815,40.36908],[-82.39816,40.36907],[-82.39817,40.36907],[-82.39819,40.36908],[-82.39844,40.36922],[-82.39857,40.36932],[-82.39858,40.36932],[-82.3987,40.36938],[-82.39877,40.36941],[-82.39886,40.36945],[-82.39898,40.3695],[-82.399,40.36952],[-82.39917,40.3696],[-82.39924,40.36963],[-82.39937,40.3697],[-82.39938,40.36971],[-82.39956,40.36981],[-82.39957,40.36981],[-82.39974,40.36992],[-82.39976,40.36993],[-82.39992,40.37004],[-82.39999,40.37008],[-82.4001,40.37016],[-82.40012,40.37017],[-82.40027,40.37028],[-82.40037,40.37036],[-82.40044,40.37041],[-82.40045,40.37042],[-82.40056,40.37052],[-82.4006,40.37054],[-82.40067,40.3706],[-82.40074,40.37067],[-82.40081,40.37072],[-82.40092,40.37082],[-82.40101,40.3709],[-82.40106,40.37095],[-82.4011,40.37099],[-82.40121,40.37109],[-82.40122,40.37109],[-82.40136,40.37123],[-82.40137,40.37123],[-82.40151,40.37136],[-82.40151,40.37137],[-82.40157,40.37141],[-82.40169,40.37153],[-82.40191,40.37172],[-82.40197,40.37178],[-82.40212,40.37191],[-82.40228,40.37205],[-82.40228,40.37206],[-82.4024,40.37217],[-82.40253,40.37227],[-82.40265,40.37239],[-82.40277,40.3725],[-82.4029,40.37262],[-82.40303,40.37274],[-82.40309,40.3728],[-82.40331,40.37299],[-82.40342,40.37308],[-82.40353,40.37318],[-82.40362,40.37326],[-82.40374,40.37337],[-82.4038,40.37342],[-82.40384,40.37347],[-82.40395,40.37356],[-82.40396,40.37357],[-82.40406,40.37366],[-82.4041,40.3737],[-82.4042,40.37377],[-82.40427,40.37383],[-82.40434,40.37388],[-82.40443,40.37396],[-82.40448,40.374],[-82.40458,40.37407],[-82.40474,40.37419],[-82.40477,40.37421],[-82.40489,40.3743],[-82.40494,40.37433],[-82.40506,40.37441],[-82.40525,40.37454],[-82.40539,40.37465],[-82.40552,40.37474],[-82.40564,40.37481],[-82.40578,40.3749],[-82.406,40.37504],[-82.40627,40.3752],[-82.40654,40.37535],[-82.40657,40.37537],[-82.40676,40.37547],[-82.40693,40.37556],[-82.407,40.37559],[-82.40715,40.37567],[-82.40728,40.37573],[-82.40748,40.37583],[-82.40752,40.37585],[-82.40762,40.37591],[-82.40772,40.37595],[-82.40773,40.37595],[-82.40792,40.37604],[-82.40812,40.37612],[-82.40813,40.37613],[-82.40829,40.3762],[-82.40849,40.37628],[-82.40855,40.3763],[-82.40862,40.37633],[-82.40877,40.37639],[-82.40889,40.37643],[-82.40897,40.37646],[-82.40908,40.3765],[-82.40933,40.37659],[-82.40951,40.37665],[-82.40961,40.37669],[-82.40978,40.37674],[-82.40983,40.37676],[-82.41005,40.37683],[-82.41013,40.37685],[-82.41033,40.37691],[-82.41049,40.37695],[-82.4105,40.37696],[-82.41084,40.37705],[-82.41094,40.37707],[-82.41116,40.37713],[-82.41119,40.37713],[-82.41139,40.37718],[-82.4115,40.3772],[-82.41202,40.3773],[-82.41207,40.37731],[-82.41241,40.37736],[-82.41254,40.37738],[-82.41269,40.37741],[-82.413,40.37744],[-82.41301,40.37744],[-82.41306,40.37745],[-82.41315,40.37746],[-82.41344,40.37749],[-82.4137,40.37751],[-82.41372,40.37752],[-82.414,40.37753],[-82.41417,40.37755],[-82.41441,40.37756],[-82.41442,40.37756],[-82.41464,40.37757],[-82.41466,40.37757],[-82.41515,40.37758],[-82.41535,40.37759],[-82.41536,40.37759],[-82.41549,40.3776],[-82.41559,40.3776],[-82.41582,40.3776],[-82.41583,40.3776],[-82.41605,40.37761],[-82.41606,40.37761],[-82.41628,40.37761],[-82.4163,40.37761],[-82.41654,40.37762],[-82.41681,40.37763],[-82.41691,40.37764],[-82.417,40.37765],[-82.41701,40.37765],[-82.41724,40.37766],[-82.41726,40.37767],[-82.41742,40.37769],[-82.41755,40.37771],[-82.41767,40.37773],[-82.41787,40.37777],[-82.41793,40.37778],[-82.41802,40.3778],[-82.41815,40.37784],[-82.41826,40.37786],[-82.41838,40.37789],[-82.41856,40.37795],[-82.4186,40.37796],[-82.4187,40.378],[-82.41881,40.37804],[-82.41884,40.37805],[-82.41905,40.37813],[-82.41933,40.37824],[-82.41944,40.37828],[-82.41961,40.37835],[-82.41965,40.37837],[-82.41975,40.37841],[-82.41986,40.37845],[-82.42003,40.37852],[-82.42006,40.37854],[-82.42027,40.37863],[-82.42044,40.3787],[-82.42075,40.37883],[-82.42089,40.37889],[-82.42103,40.37895],[-82.4212,40.37902],[-82.42133,40.37907],[-82.42151,40.37915],[-82.42156,40.37916],[-82.4217,40.37923],[-82.42192,40.3793],[-82.42209,40.37936],[-82.42215,40.37938],[-82.42225,40.37942],[-82.42246,40.37949],[-82.42258,40.37952],[-82.42267,40.37955],[-82.42292,40.3796],[-82.42316,40.37965],[-82.42327,40.37966],[-82.42339,40.37968],[-82.4235,40.3797],[-82.42357,40.37971],[-82.42372,40.37973],[-82.42373,40.37973],[-82.42388,40.37975],[-82.42412,40.37977],[-82.42427,40.37977],[-82.42443,40.37978],[-82.42447,40.37978],[-82.42462,40.37978],[-82.42489,40.37978],[-82.42491,40.37978],[-82.42505,40.37977],[-82.42514,40.37976],[-82.42522,40.37975],[-82.42536,40.37975],[-82.42538,40.37975],[-82.42548,40.37973],[-82.42561,40.37971],[-82.42588,40.37967],[-82.42607,40.37963],[-82.42609,40.37963],[-82.42623,40.3796],[-82.42641,40.37956],[-82.42653,40.37954],[-82.42655,40.37954],[-82.4266,40.37952],[-82.4268,40.37947],[-82.42697,40.37942],[-82.42719,40.37937],[-82.4274,40.37931],[-82.42742,40.3793],[-82.42762,40.37924],[-82.42764,40.37924],[-82.42781,40.37919],[-82.42805,40.37912],[-82.42808,40.37911],[-82.42822,40.37907],[-82.42829,40.37904],[-82.42839,40.37901],[-82.42855,40.37895],[-82.42871,40.37889],[-82.42872,40.37889],[-82.4288,40.37886],[-82.42892,40.37881],[-82.42893,40.37881],[-82.42907,40.37875],[-82.42914,40.37872],[-82.42926,40.37868],[-82.42945,40.37859],[-82.42954,40.37856],[-82.42956,40.37855],[-82.42971,40.37849],[-82.42981,40.37844],[-82.42996,40.37837],[-82.42999,40.37835],[-82.43019,40.37826],[-82.43036,40.37817],[-82.43048,40.37812],[-82.43076,40.37798],[-82.43078,40.37797],[-82.43096,40.37789],[-82.431,40.37787],[-82.43116,40.37779],[-82.43124,40.37775],[-82.4314,40.37767],[-82.43156,40.3776],[-82.43159,40.37758],[-82.43179,40.37749],[-82.43196,40.37741],[-82.43202,40.37738],[-82.43216,40.37731],[-82.43236,40.37721],[-82.43255,40.37712],[-82.43274,40.37704],[-82.43276,40.37703],[-82.43287,40.37699],[-82.43297,40.37695],[-82.43302,40.37693],[-82.43313,40.37689],[-82.43337,40.37682],[-82.43341,40.37681],[-82.43348,40.37679],[-82.43359,40.37677],[-82.43363,40.37676],[-82.43386,40.37671],[-82.43396,40.3767],[-82.43415,40.37667],[-82.43428,40.37666],[-82.43442,40.37665],[-82.43456,40.37664],[-82.43458,40.37664],[-82.43475,40.37664],[-82.4348,40.37664],[-82.43497,40.37663],[-82.43504,40.37663],[-82.43514,40.37663],[-82.43538,40.37662],[-82.43567,40.37662],[-82.43584,40.37661],[-82.43598,40.37661],[-82.43606,40.37661],[-82.43629,40.3766],[-82.43651,40.3766],[-82.43678,40.3766],[-82.43696,40.37659],[-82.43714,40.37659],[-82.43716,40.37659],[-82.43733,40.37658],[-82.43752,40.37658],[-82.43763,40.37658],[-82.43773,40.37658],[-82.43787,40.37657],[-82.43796,40.37657],[-82.4381,40.37657],[-82.43827,40.37657],[-82.43863,40.37656],[-82.43881,40.37656],[-82.43882,40.37656],[-82.43905,40.37655],[-82.43907,40.37655],[-82.43952,40.37654],[-82.43954,40.37654],[-82.43969,40.37654],[-82.43996,40.37654],[-82.43999,40.37654],[-82.44023,40.37653],[-82.44025,40.37653],[-82.44055,40.37653],[-82.4407,40.37652],[-82.44087,40.37652],[-82.44115,40.37651],[-82.44117,40.37651],[-82.44134,40.37649],[-82.44141,40.37649],[-82.44152,40.37648],[-82.44176,40.37647],[-82.44188,40.37646],[-82.442,40.37644],[-82.44211,40.37643],[-82.44216,40.37643],[-82.4424,40.3764],[-82.44258,40.37638],[-82.44263,40.37638],[-82.44283,40.37636],[-82.44304,40.37633],[-82.44306,40.37633],[-82.44336,40.3763],[-82.44351,40.37629],[-82.44374,40.37626],[-82.44401,40.37623],[-82.4442,40.37621],[-82.44421,40.3762],[-82.44434,40.37619],[-82.44458,40.37616],[-82.44468,40.37615],[-82.44488,40.37613],[-82.44491,40.37613],[-82.44507,40.37611],[-82.44515,40.3761],[-82.44527,40.37609],[-82.44538,40.37608],[-82.44558,40.37605],[-82.44567,40.37604],[-82.44585,40.37602],[-82.44588,40.37602],[-82.44611,40.37599],[-82.44627,40.37597],[-82.44651,40.37595],[-82.44655,40.37594],[-82.44671,40.37592],[-82.44696,40.37589],[-82.44702,40.37589],[-82.44723,40.37587],[-82.44725,40.37587],[-82.44754,40.37584],[-82.44772,40.37582],[-82.44779,40.37581],[-82.44792,40.37579],[-82.44795,40.37579],[-82.44824,40.37576],[-82.44847,40.37573],[-82.44864,40.37571],[-82.44865,40.37571],[-82.44876,40.3757],[-82.44897,40.37567],[-82.44912,40.37565],[-82.44916,40.37565],[-82.44946,40.37562],[-82.44959,40.37561],[-82.44963,40.3756],[-82.44982,40.37558],[-82.44987,40.37557],[-82.45005,40.37555],[-82.4501,40.37555],[-82.45047,40.37551],[-82.45076,40.37549],[-82.45082,40.37549],[-82.4511,40.37547],[-82.45123,40.37546],[-82.4514,40.37545],[-82.45146,40.37545],[-82.45173,40.37543],[-82.45205,40.37541],[-82.45217,40.37541],[-82.45242,40.3754],[-82.45256,40.37539],[-82.45264,40.37539],[-82.4529,40.37537],[-82.45311,40.37537],[-82.45324,40.37537],[-82.45335,40.37536],[-82.45365,40.37535],[-82.45383,40.37534],[-82.45405,40.37533],[-82.45429,40.37532],[-82.45435,40.37531],[-82.45453,40.37531],[-82.45461,40.37531],[-82.45476,40.37531],[-82.45487,40.37531],[-82.455,40.37531],[-82.45507,40.37531],[-82.45525,40.37531],[-82.4555,40.37532],[-82.4557,40.37534],[-82.45594,40.37536],[-82.45599,40.37536],[-82.45617,40.37538],[-82.45628,40.37539],[-82.45641,40.3754],[-82.45659,40.37543],[-82.4568,40.37545],[-82.45709,40.37549],[-82.45711,40.37549],[-82.45737,40.37554],[-82.45754,40.37558],[-82.45756,40.37558],[-82.45779,40.37563],[-82.45793,40.37567],[-82.45801,40.37569],[-82.45823,40.37574],[-82.45845,40.37579],[-82.45866,40.37585],[-82.45868,40.37586],[-82.4589,40.37593],[-82.45892,40.37594],[-82.45905,40.37598],[-82.45912,40.37601],[-82.45924,40.37606],[-82.45933,40.37609],[-82.45954,40.37616],[-82.45956,40.37616],[-82.45974,40.37626],[-82.45976,40.37626],[-82.45984,40.3763],[-82.45995,40.37634],[-82.46002,40.37637],[-82.46011,40.37642],[-82.4603,40.3765],[-82.46055,40.37663],[-82.46072,40.37671],[-82.46096,40.37682],[-82.46113,40.37691],[-82.46115,40.37692],[-82.46136,40.37703],[-82.46154,40.37712],[-82.46166,40.37718],[-82.46195,40.37733],[-82.46215,40.37744],[-82.46238,40.37755],[-82.46251,40.37762],[-82.46268,40.37771],[-82.46286,40.3778],[-82.46291,40.37782],[-82.46299,40.37787],[-82.46314,40.37794],[-82.46331,40.37803],[-82.4636,40.37816],[-82.46389,40.37832],[-82.46407,40.37842],[-82.46428,40.37852],[-82.4643,40.37853],[-82.46445,40.37861],[-82.46454,40.37866],[-82.46467,40.37871],[-82.46481,40.37878],[-82.46488,40.37882],[-82.46492,40.37884],[-82.46502,40.37888],[-82.46528,40.37903],[-82.46545,40.37913],[-82.46549,40.37915],[-82.46557,40.37919],[-82.46568,40.37925],[-82.4658,40.37932],[-82.46592,40.3794],[-82.46601,40.37946],[-82.46614,40.37954],[-82.46619,40.37958],[-82.46622,40.3796],[-82.46632,40.37967],[-82.46637,40.3797],[-82.46639,40.37972],[-82.46647,40.37979],[-82.46657,40.37987],[-82.46669,40.37998],[-82.46683,40.38011],[-82.46684,40.38012],[-82.4669,40.38018],[-82.46695,40.38025],[-82.46696,40.38026],[-82.46722,40.38054],[-82.46723,40.38055],[-82.46741,40.38081],[-82.46753,40.38096],[-82.46765,40.38116],[-82.46766,40.38118],[-82.46767,40.38119],[-82.46778,40.38137],[-82.46785,40.3815],[-82.46786,40.38152],[-82.46789,40.38157],[-82.46803,40.38184],[-82.46803,40.38185],[-82.46809,40.38196],[-82.46817,40.38212],[-82.46826,40.3823],[-82.46838,40.38254],[-82.46845,40.38269],[-82.46869,40.38318],[-82.46873,40.38329],[-82.46873,40.38329],[-82.46881,40.38328],[-82.46885,40.38328],[-82.46891,40.3833],[-82.46901,40.38333],[-82.46912,40.38336],[-82.46941,40.38343],[-82.46944,40.38344],[-82.46963,40.38348],[-82.46992,40.38354],[-82.47008,40.38357],[-82.47017,40.3836],[-82.47026,40.38362],[-82.47028,40.38364],[-82.47028,40.38364],[-82.47029,40.38365],[-82.47034,40.3837],[-82.47059,40.38395],[-82.47076,40.38409],[-82.47099,40.38422],[-82.47106,40.38427],[-82.47111,40.38429],[-82.47131,40.38438],[-82.47157,40.38448],[-82.47219,40.38469],[-82.47247,40.38478],[-82.4726,40.38483],[-82.47268,40.38486],[-82.47272,40.38488],[-82.47296,40.38498],[-82.47316,40.38508],[-82.47335,40.38521],[-82.47364,40.38544],[-82.4737,40.3855],[-82.47375,40.38555],[-82.47399,40.38578],[-82.47401,40.38579],[-82.47417,40.38597],[-82.47444,40.38627],[-82.47454,40.38637],[-82.47456,40.38639],[-82.4746,40.38642],[-82.47472,40.38652],[-82.47476,40.38655],[-82.47487,40.38662],[-82.47499,40.38669],[-82.47514,40.38675],[-82.4753,40.3868],[-82.47536,40.38682],[-82.47571,40.38689],[-82.47647,40.387],[-82.47678,40.38704],[-82.47704,40.38707],[-82.47744,40.38714],[-82.47762,40.38716],[-82.47771,40.38717],[-82.47841,40.38727],[-82.4785,40.38729],[-82.47862,40.38731],[-82.47918,40.38734],[-82.47974,40.38737],[-82.48035,40.38738],[-82.48076,40.38742],[-82.48095,40.38743],[-82.48099,40.38743],[-82.48111,40.38744],[-82.48131,40.38747],[-82.48156,40.3875],[-82.48169,40.38752],[-82.48177,40.38752],[-82.48185,40.38753],[-82.48186,40.38753],[-82.48195,40.38754],[-82.48206,40.38754],[-82.48229,40.38755],[-82.48249,40.38756],[-82.48272,40.38757],[-82.48279,40.38757],[-82.48308,40.38756],[-82.48325,40.38756],[-82.48326,40.38756],[-82.48341,40.38755],[-82.48356,40.38755],[-82.4837,40.38755],[-82.48375,40.38756],[-82.48379,40.38757],[-82.48382,40.38757],[-82.48386,40.3876],[-82.48388,40.38763],[-82.48393,40.38769],[-82.48398,40.38776],[-82.48399,40.38778],[-82.4841,40.38792],[-82.48411,40.38794],[-82.48421,40.38803],[-82.48425,40.38808],[-82.48431,40.38814],[-82.48435,40.38818],[-82.48438,40.38821],[-82.48447,40.38827],[-82.48447,40.38827],[-82.48445,40.3883],[-82.48445,40.38831],[-82.48445,40.38833],[-82.48446,40.38836],[-82.48448,40.38839],[-82.4845,40.3884],[-82.48453,40.38843],[-82.48458,40.38846],[-82.48466,40.38851],[-82.48473,40.38855],[-82.48481,40.3886],[-82.48484,40.38862],[-82.48486,40.38862],[-82.48497,40.38866],[-82.48508,40.38869],[-82.4852,40.38873],[-82.48528,40.38876],[-82.48532,40.38877],[-82.48537,40.3888],[-82.48542,40.38882],[-82.48548,40.38885],[-82.48549,40.38885],[-82.48557,40.38888],[-82.48563,40.38889],[-82.4857,40.3889],[-82.48572,40.3889],[-82.48581,40.38891],[-82.48594,40.38892],[-82.48598,40.38892],[-82.48629,40.38901],[-82.48652,40.38908],[-82.4866,40.3891],[-82.48662,40.3891],[-82.48672,40.38912],[-82.48679,40.38912],[-82.48684,40.38912],[-82.4869,40.38911],[-82.48697,40.3891],[-82.48707,40.38908],[-82.48731,40.38902],[-82.48745,40.38898],[-82.48748,40.38896],[-82.48752,40.38895],[-82.48755,40.38893],[-82.48758,40.38891],[-82.48759,40.38889],[-82.48761,40.38886],[-82.48763,40.38883],[-82.48763,40.38881],[-82.48764,40.38878],[-82.48764,40.38873],[-82.48764,40.38863],[-82.48763,40.38861],[-82.48764,40.38856],[-82.48765,40.38849],[-82.48766,40.38843],[-82.48766,40.38838],[-82.48767,40.38835],[-82.48768,40.38833],[-82.48768,40.3883],[-82.48767,40.38826],[-82.48766,40.38823],[-82.48764,40.38818],[-82.48763,40.38815],[-82.48757,40.38807],[-82.4875,40.38799],[-82.4875,40.38799],[-82.48756,40.38796],[-82.48762,40.38792],[-82.48765,40.38789],[-82.48768,40.38788],[-82.48771,40.38787],[-82.48773,40.38786],[-82.48777,40.38784],[-82.48781,40.38782],[-82.4879,40.38777],[-82.48795,40.38774],[-82.48827,40.38755],[-82.48862,40.38732],[-82.48876,40.38722],[-82.48884,40.38716],[-82.4889,40.38711],[-82.48903,40.38702],[-82.48921,40.38688],[-82.48942,40.38672],[-82.48958,40.38658],[-82.48965,40.38651],[-82.48974,40.38642],[-82.48986,40.38632],[-82.48995,40.38623],[-82.49009,40.38609],[-82.49029,40.38591],[-82.49055,40.38567],[-82.49078,40.38546],[-82.49106,40.3852],[-82.49116,40.38513],[-82.49127,40.38501],[-82.49139,40.38489],[-82.49158,40.38471],[-82.49167,40.38463],[-82.49178,40.38452],[-82.49202,40.38432],[-82.49213,40.38422],[-82.49219,40.38418],[-82.49239,40.38405],[-82.49242,40.38403],[-82.49244,40.38402],[-82.4925,40.38397],[-82.49256,40.38391],[-82.49264,40.38383],[-82.49272,40.38376],[-82.49289,40.3836],[-82.49295,40.38355],[-82.49345,40.38311],[-82.49351,40.38305],[-82.49352,40.38305],[-82.49353,40.38304],[-82.49355,40.38304],[-82.49356,40.38304],[-82.49359,40.38304],[-82.49359,40.38304],[-82.49435,40.38236],[-82.49442,40.3823],[-82.49465,40.38208],[-82.49479,40.38194],[-82.49494,40.38179],[-82.49503,40.3817],[-82.49503,40.3817],[-82.49492,40.38162],[-82.49492,40.38162],[-82.49497,40.38158],[-82.49533,40.38126],[-82.49549,40.38113],[-82.49649,40.38024],[-82.49657,40.38018],[-82.49662,40.38013],[-82.49726,40.37953],[-82.49771,40.37912],[-82.49786,40.37898],[-82.49801,40.37884],[-82.49848,40.37841],[-82.49852,40.37838],[-82.49855,40.37835],[-82.49861,40.37828],[-82.49864,40.37824],[-82.4992,40.37772],[-82.49941,40.37751],[-82.49942,40.3775],[-82.49957,40.37739],[-82.49967,40.37731],[-82.49971,40.37728],[-82.49981,40.37718],[-82.50024,40.37674],[-82.5003,40.37668],[-82.50039,40.3766],[-82.501,40.37605],[-82.50139,40.3757],[-82.5016,40.3755],[-82.50175,40.37536],[-82.5019,40.37522],[-82.50233,40.37483],[-82.5025,40.37467],[-82.5028,40.37439],[-82.5034,40.37384],[-82.5037,40.37356],[-82.50415,40.37314],[-82.50445,40.37286],[-82.50475,40.37259],[-82.50505,40.37231],[-82.5052,40.37217],[-82.50565,40.37175],[-82.5058,40.37161],[-82.50625,40.3712],[-82.50655,40.37092],[-82.50668,40.3708],[-82.50731,40.37023],[-82.50761,40.36995],[-82.50806,40.36954],[-82.50821,40.3694],[-82.50927,40.36843],[-82.50942,40.36829],[-82.50957,40.36815],[-82.50972,40.36801],[-82.51017,40.3676],[-82.51032,40.36746],[-82.51088,40.36694],[-82.51113,40.36668],[-82.51129,40.36649],[-82.51156,40.36619],[-82.51158,40.36618],[-82.51169,40.36605],[-82.51183,40.3659],[-82.51236,40.3653],[-82.5129,40.36471],[-82.51297,40.36464],[-82.51303,40.36456],[-82.51329,40.36426],[-82.51332,40.36422],[-82.51351,40.36399],[-82.5139,40.36349],[-82.51392,40.36347],[-82.51429,40.36304],[-82.51468,40.3626],[-82.51522,40.362],[-82.51538,40.36183],[-82.5155,40.36167],[-82.51571,40.36138],[-82.51597,40.36109],[-82.51606,40.36098],[-82.5161,40.36094],[-82.51638,40.36062],[-82.51685,40.36011],[-82.5169,40.36005],[-82.51716,40.35975],[-82.51727,40.35963],[-82.5173,40.3596],[-82.51757,40.35932],[-82.51795,40.35891],[-82.51814,40.35873],[-82.51839,40.35852],[-82.5185,40.35842],[-82.51914,40.35773],[-82.51933,40.35754],[-82.51994,40.35687],[-82.52009,40.3567],[-82.52025,40.35654],[-82.52035,40.3564],[-82.52042,40.35631],[-82.5207,40.35603],[-82.52092,40.35583],[-82.521,40.35575],[-82.52107,40.35569],[-82.52122,40.35557],[-82.52123,40.35556],[-82.52183,40.35517],[-82.52196,40.3551],[-82.52215,40.35499],[-82.52245,40.35483],[-82.52254,40.35479],[-82.52296,40.35464],[-82.52313,40.35457],[-82.52339,40.35448],[-82.5236,40.3544],[-82.5237,40.35437],[-82.52401,40.35429],[-82.52405,40.35429],[-82.52423,40.35425],[-82.52427,40.35424],[-82.52442,40.35421],[-82.5249,40.35414],[-82.52543,40.35407],[-82.52683,40.35388],[-82.52714,40.35384],[-82.52799,40.35371],[-82.52877,40.35358],[-82.52961,40.35346],[-82.52984,40.35343],[-82.53007,40.35339],[-82.53093,40.35327],[-82.531,40.35326],[-82.53123,40.35322],[-82.53146,40.35319],[-82.53239,40.35305],[-82.53378,40.35284],[-82.53401,40.35282],[-82.53424,40.3528],[-82.53448,40.35277],[-82.53471,40.35275],[-82.53494,40.35273],[-82.53495,40.35272],[-82.53518,40.35269],[-82.53541,40.35266],[-82.53587,40.35259],[-82.5361,40.35255],[-82.53634,40.35252],[-82.53679,40.35245],[-82.5368,40.35245],[-82.53749,40.35234],[-82.53858,40.35216],[-82.53865,40.35215],[-82.53911,40.35209],[-82.53934,40.35205],[-82.53981,40.35199],[-82.54072,40.35186],[-82.54166,40.35172],[-82.54206,40.35167],[-82.54213,40.35166],[-82.54305,40.35152],[-82.54352,40.35145],[-82.54467,40.35127],[-82.54487,40.35124],[-82.5449,40.35123],[-82.54653,40.351],[-82.54691,40.35095],[-82.54699,40.35094],[-82.54769,40.35084],[-82.54815,40.35077],[-82.54862,40.35071],[-82.54908,40.35064],[-82.54926,40.35061],[-82.54977,40.35054],[-82.55024,40.35046],[-82.55047,40.35043],[-82.5507,40.35039],[-82.55116,40.35032],[-82.55144,40.35028],[-82.55163,40.35025],[-82.55186,40.35022],[-82.55209,40.35018],[-82.5523,40.35015],[-82.55231,40.35015],[-82.5529,40.35007],[-82.55313,40.35004],[-82.55383,40.34994],[-82.55406,40.34991],[-82.55453,40.34984],[-82.55545,40.34971],[-82.55546,40.34971],[-82.55718,40.3494],[-82.5574,40.34938],[-82.5581,40.34929],[-82.55903,40.34917],[-82.55924,40.34914],[-82.55973,40.34907],[-82.56043,40.34898],[-82.56082,40.34893],[-82.56135,40.34885],[-82.56211,40.34874],[-82.56251,40.34867],[-82.56352,40.34851],[-82.5639,40.34846],[-82.56473,40.34833],[-82.56602,40.34815],[-82.56691,40.34801],[-82.56737,40.34794],[-82.56763,40.3479],[-82.569,40.34772],[-82.56915,40.3477],[-82.56993,40.34759],[-82.57039,40.34753],[-82.57085,40.34747],[-82.57086,40.34747],[-82.57086,40.34747],[-82.57085,40.3476],[-82.57085,40.3476],[-82.57024,40.34767],[-82.57024,40.34767],[-82.57026,40.34805],[-82.57028,40.34839],[-82.57029,40.34852],[-82.57031,40.34875],[-82.57032,40.34876],[-82.57032,40.34893],[-82.57033,40.34911],[-82.57033,40.34918],[-82.57046,40.34977],[-82.57046,40.34982],[-82.57049,40.35],[-82.57058,40.35053],[-82.57064,40.35093],[-82.57069,40.35106],[-82.57071,40.3511],[-82.57086,40.35133],[-82.57103,40.35154],[-82.57114,40.35166],[-82.5713,40.35182],[-82.57131,40.35182],[-82.5716,40.35199],[-82.57198,40.35216],[-82.5722,40.35225],[-82.57249,40.35227],[-82.5729,40.35227],[-82.57302,40.35227],[-82.57314,40.35227],[-82.57394,40.35226],[-82.57408,40.35228],[-82.5743,40.3523],[-82.57444,40.35233],[-82.57453,40.35237],[-82.57454,40.35238],[-82.57464,40.35245],[-82.57474,40.35256],[-82.57513,40.35306],[-82.57518,40.35312],[-82.5753,40.35327],[-82.57578,40.3539],[-82.57601,40.35421],[-82.57658,40.35497],[-82.5766,40.35499],[-82.57697,40.35545],[-82.57709,40.3556],[-82.57725,40.35579],[-82.57742,40.35608],[-82.5775,40.3562],[-82.57753,40.35623],[-82.57767,40.35635],[-82.57821,40.35671],[-82.57822,40.35672],[-82.5784,40.35684],[-82.57863,40.35699],[-82.57886,40.35714],[-82.57908,40.35731],[-82.5792,40.35749],[-82.57923,40.35752],[-82.57933,40.35776],[-82.57943,40.35807],[-82.57946,40.35818],[-82.57951,40.35839],[-82.57958,40.35871],[-82.57967,40.35915],[-82.57975,40.35942],[-82.57978,40.35955],[-82.57999,40.36024],[-82.57999,40.36024],[-82.57993,40.3607],[-82.57983,40.36106],[-82.5798,40.36129],[-82.57976,40.36161],[-82.57973,40.362],[-82.57972,40.36218],[-82.57968,40.36303],[-82.57968,40.36308],[-82.57968,40.36344],[-82.57968,40.36345],[-82.57967,40.36358]]}}]}