{"type":"FeatureCollection","features":[{"type":"Feature","properties":{"_gpxType":"trk","name":"The Bike Smith, North Carson Street, Carson City, NV - Sprouts Café, Harrison Avenue, South Lake Tahoe, CA - 1438 Matheson Drive, South Lake Tahoe, CA","coordinateProperties":{},"id":100},"geometry":{"type":"LineString","coordinates":[[-119.76696,39.16945],[-119.76696,39.16913],[-119.76697,39.16881],[-119.76697,39.16846],[-119.76697,39.16846],[-119.76656,39.16845],[-119.76639,39.16845],[-119.76611,39.16845],[-119.76521,39.16844],[-119.76445,39.16843],[-119.76445,39.16843],[-119.76445,39.16779],[-119.76445,39.16736],[-119.76445,39.16714],[-119.76446,39.16649],[-119.76446,39.16584],[-119.76446,39.16519],[-119.76446,39.16454],[-119.76446,39.16388],[-119.76447,39.16325],[-119.76447,39.16321],[-119.76447,39.1629],[-119.76447,39.16256],[-119.76448,39.16243],[-119.76449,39.16196],[-119.76449,39.16175],[-119.7645,39.16129],[-119.76451,39.16063],[-119.76452,39.15996],[-119.76451,39.15933],[-119.7645,39.15868],[-119.76449,39.15817],[-119.76449,39.15802],[-119.7645,39.15737],[-119.7645,39.15728],[-119.76452,39.15702],[-119.76453,39.15687],[-119.76453,39.15686],[-119.76456,39.1567],[-119.7646,39.15648],[-119.7647,39.15613],[-119.76488,39.15562],[-119.76496,39.15539],[-119.76504,39.15513],[-119.76516,39.155],[-119.76532,39.1546],[-119.76541,39.1544],[-119.76546,39.15432],[-119.76547,39.1543],[-119.76554,39.1542],[-119.76562,39.1541],[-119.7657,39.15402],[-119.7658,39.15393],[-119.76592,39.15384],[-119.76603,39.15378],[-119.76616,39.15372],[-119.76625,39.15367],[-119.76634,39.15362],[-119.76647,39.15357],[-119.7666,39.15357],[-119.76665,39.15358],[-119.76673,39.15359],[-119.76673,39.15359],[-119.76675,39.1536],[-119.76676,39.15361],[-119.76677,39.15361],[-119.76678,39.15361],[-119.76679,39.15362],[-119.76681,39.15363],[-119.76683,39.15363],[-119.76685,39.15363],[-119.76686,39.15364],[-119.76688,39.15364],[-119.7669,39.15364],[-119.76692,39.15364],[-119.76694,39.15364],[-119.76696,39.15364],[-119.76697,39.15363],[-119.76699,39.15363],[-119.76701,39.15363],[-119.76703,39.15362],[-119.76704,39.15361],[-119.76706,39.15361],[-119.76707,39.1536],[-119.76709,39.15359],[-119.7671,39.15358],[-119.76711,39.15357],[-119.76712,39.15356],[-119.76712,39.15355],[-119.76713,39.15355],[-119.76714,39.15354],[-119.76714,39.15352],[-119.76714,39.15351],[-119.76715,39.1535],[-119.76715,39.15349],[-119.76715,39.15348],[-119.76715,39.15346],[-119.76715,39.15345],[-119.76715,39.15344],[-119.76714,39.15343],[-119.76714,39.15342],[-119.76713,39.1534],[-119.76712,39.15339],[-119.76712,39.15338],[-119.76711,39.15337],[-119.7671,39.15336],[-119.76709,39.15335],[-119.76708,39.15326],[-119.76711,39.15308],[-119.76714,39.15292],[-119.76714,39.1525],[-119.76714,39.15226],[-119.76715,39.15204],[-119.76714,39.15187],[-119.76714,39.15176],[-119.76714,39.1513],[-119.76715,39.15083],[-119.76716,39.15068],[-119.76716,39.1504],[-119.76716,39.14996],[-119.76716,39.14988],[-119.76717,39.14922],[-119.76721,39.14879],[-119.76726,39.14829],[-119.76744,39.14722],[-119.76759,39.14653],[-119.76776,39.14558],[-119.76784,39.14512],[-119.76793,39.14459],[-119.76794,39.14453],[-119.76796,39.14437],[-119.768,39.14415],[-119.76809,39.14374],[-119.76822,39.14292],[-119.76827,39.14263],[-119.76833,39.14225],[-119.76841,39.14189],[-119.76853,39.14113],[-119.76853,39.14112],[-119.76862,39.14062],[-119.76867,39.14022],[-119.76868,39.14016],[-119.76876,39.13966],[-119.76884,39.13926],[-119.76885,39.13913],[-119.76891,39.13881],[-119.76905,39.13806],[-119.76915,39.13748],[-119.76938,39.1362],[-119.7695,39.13562],[-119.76957,39.13504],[-119.76965,39.13461],[-119.76979,39.13385],[-119.76983,39.13364],[-119.76986,39.13347],[-119.76995,39.13296],[-119.76998,39.13274],[-119.77018,39.13169],[-119.77019,39.13158],[-119.77027,39.13113],[-119.77038,39.13052],[-119.7705,39.12984],[-119.77053,39.12966],[-119.77059,39.1293],[-119.77065,39.12899],[-119.77076,39.12838],[-119.77079,39.12818],[-119.77091,39.1275],[-119.77098,39.12705],[-119.77107,39.12663],[-119.77127,39.12548],[-119.77133,39.12505],[-119.77135,39.12481],[-119.77138,39.12463],[-119.77142,39.12442],[-119.77156,39.12352],[-119.77159,39.12335],[-119.77173,39.12247],[-119.77177,39.12223],[-119.77194,39.12126],[-119.77194,39.12126],[-119.772,39.12121],[-119.77203,39.12117],[-119.77206,39.12112],[-119.77209,39.12108],[-119.77213,39.12102],[-119.77218,39.12097],[-119.77222,39.12095],[-119.77225,39.12093],[-119.77239,39.12086],[-119.77259,39.12077],[-119.7727,39.12076],[-119.7728,39.12075],[-119.77291,39.12073],[-119.77304,39.1207],[-119.77305,39.1207],[-119.77322,39.12066],[-119.77326,39.12064],[-119.77336,39.12061],[-119.7735,39.12056],[-119.77364,39.12049],[-119.77367,39.12048],[-119.77377,39.12042],[-119.77386,39.12036],[-119.77427,39.1201],[-119.77532,39.11946],[-119.77586,39.11913],[-119.77721,39.11833],[-119.77758,39.1181],[-119.77865,39.11752],[-119.77929,39.11716],[-119.78,39.11677],[-119.7807,39.11638],[-119.78145,39.11596],[-119.78164,39.11586],[-119.78202,39.11565],[-119.78277,39.11522],[-119.78295,39.11512],[-119.7831,39.11504],[-119.78314,39.11502],[-119.78314,39.11501],[-119.78347,39.11484],[-119.7837,39.11473],[-119.78372,39.11472],[-119.78392,39.11462],[-119.78407,39.11455],[-119.78458,39.11433],[-119.78518,39.11412],[-119.78555,39.114],[-119.7858,39.11393],[-119.78616,39.11384],[-119.78659,39.11374],[-119.7871,39.11364],[-119.78748,39.11359],[-119.78751,39.11358],[-119.78775,39.11355],[-119.78823,39.11351],[-119.78862,39.11348],[-119.78864,39.11348],[-119.78902,39.11346],[-119.78907,39.11346],[-119.78944,39.11344],[-119.78978,39.11342],[-119.79001,39.1134],[-119.79093,39.11335],[-119.79113,39.11334],[-119.79161,39.11332],[-119.79162,39.11332],[-119.7917,39.11331],[-119.79185,39.11331],[-119.79209,39.1133],[-119.79246,39.11328],[-119.79274,39.1133],[-119.79315,39.11333],[-119.79323,39.11334],[-119.79345,39.11338],[-119.79357,39.11339],[-119.79368,39.11341],[-119.79377,39.11343],[-119.79398,39.11348],[-119.79415,39.11352],[-119.79435,39.11358],[-119.79455,39.11363],[-119.79542,39.1139],[-119.79597,39.11408],[-119.79624,39.11417],[-119.79625,39.11417],[-119.79646,39.11424],[-119.79648,39.11425],[-119.7971,39.11445],[-119.79712,39.11445],[-119.79736,39.11455],[-119.79748,39.1146],[-119.79771,39.11472],[-119.79772,39.11472],[-119.79794,39.11484],[-119.79818,39.11498],[-119.79826,39.11504],[-119.79838,39.11512],[-119.79857,39.11526],[-119.7986,39.11528],[-119.79861,39.11528],[-119.79868,39.11534],[-119.79877,39.11541],[-119.79896,39.11559],[-119.79924,39.11584],[-119.79952,39.11607],[-119.7996,39.11613],[-119.79976,39.11624],[-119.80008,39.11642],[-119.80022,39.11648],[-119.80034,39.11653],[-119.80046,39.11657],[-119.80059,39.11661],[-119.80083,39.11667],[-119.8011,39.11672],[-119.80123,39.11673],[-119.8014,39.11675],[-119.80162,39.11676],[-119.80181,39.11676],[-119.80195,39.11675],[-119.80209,39.11673],[-119.80223,39.11672],[-119.80258,39.11664],[-119.80287,39.11655],[-119.80311,39.11645],[-119.8034,39.11633],[-119.80375,39.1161],[-119.80396,39.11593],[-119.80401,39.11588],[-119.80415,39.11574],[-119.80433,39.11554],[-119.80458,39.11525],[-119.80473,39.11509],[-119.80482,39.11501],[-119.80492,39.11493],[-119.80499,39.11489],[-119.80531,39.11469],[-119.80554,39.1146],[-119.80572,39.11453],[-119.80595,39.11447],[-119.80619,39.11443],[-119.80646,39.11441],[-119.80652,39.1144],[-119.80676,39.1144],[-119.80696,39.11442],[-119.80719,39.11445],[-119.80733,39.11447],[-119.80759,39.11452],[-119.80771,39.11455],[-119.80813,39.11465],[-119.80865,39.11479],[-119.80918,39.11492],[-119.80958,39.11502],[-119.80973,39.11505],[-119.8098,39.11507],[-119.81041,39.11523],[-119.81082,39.11533],[-119.81111,39.11542],[-119.8113,39.11549],[-119.81133,39.1155],[-119.81141,39.11554],[-119.81152,39.1156],[-119.81163,39.11566],[-119.81171,39.11571],[-119.81184,39.11578],[-119.81196,39.11588],[-119.81224,39.11613],[-119.81249,39.11639],[-119.81287,39.11682],[-119.81311,39.1171],[-119.81328,39.11727],[-119.81336,39.11735],[-119.81342,39.1174],[-119.81346,39.11743],[-119.81358,39.11752],[-119.81359,39.11752],[-119.81367,39.11759],[-119.81377,39.11765],[-119.8139,39.11772],[-119.81415,39.11784],[-119.81434,39.11792],[-119.81451,39.11798],[-119.81484,39.11812],[-119.81499,39.11819],[-119.81517,39.11828],[-119.81531,39.11837],[-119.81551,39.11853],[-119.81566,39.11865],[-119.81567,39.11866],[-119.81579,39.1188],[-119.81586,39.11888],[-119.81601,39.11911],[-119.81615,39.11938],[-119.81623,39.11959],[-119.81637,39.11989],[-119.81641,39.11996],[-119.81649,39.12007],[-119.81656,39.12016],[-119.81664,39.12024],[-119.81666,39.12026],[-119.81674,39.12034],[-119.81684,39.12041],[-119.81704,39.12056],[-119.81719,39.12065],[-119.81735,39.12073],[-119.81738,39.12075],[-119.81755,39.12082],[-119.81763,39.12085],[-119.81783,39.12092],[-119.81803,39.12097],[-119.81821,39.121],[-119.81829,39.12101],[-119.81857,39.12103],[-119.81867,39.12103],[-119.81885,39.12103],[-119.8189,39.12103],[-119.81913,39.121],[-119.81914,39.121],[-119.81935,39.12095],[-119.81957,39.1209],[-119.8198,39.12082],[-119.82003,39.12072],[-119.82019,39.12065],[-119.82043,39.12054],[-119.82066,39.12043],[-119.82079,39.12036],[-119.82099,39.12029],[-119.82102,39.12028],[-119.82121,39.12022],[-119.8214,39.12018],[-119.82143,39.12018],[-119.82153,39.12016],[-119.82168,39.12014],[-119.82181,39.12014],[-119.82194,39.12013],[-119.82208,39.12013],[-119.82234,39.12015],[-119.82253,39.12018],[-119.82274,39.12023],[-119.82301,39.12032],[-119.82325,39.12043],[-119.8234,39.12051],[-119.82347,39.12055],[-119.82367,39.1207],[-119.82384,39.12085],[-119.82401,39.12104],[-119.82415,39.12122],[-119.82431,39.12141],[-119.82446,39.12159],[-119.82451,39.12165],[-119.82452,39.12166],[-119.82463,39.12177],[-119.8248,39.12194],[-119.82498,39.1221],[-119.82519,39.12225],[-119.82541,39.12238],[-119.82565,39.1225],[-119.82589,39.12261],[-119.82615,39.1227],[-119.82643,39.12279],[-119.82668,39.12285],[-119.82698,39.1229],[-119.82725,39.12293],[-119.82754,39.12295],[-119.82771,39.12295],[-119.82795,39.12294],[-119.82816,39.12293],[-119.8283,39.12291],[-119.82834,39.12291],[-119.8285,39.12288],[-119.82878,39.12283],[-119.82891,39.1228],[-119.82912,39.12274],[-119.82936,39.12266],[-119.82947,39.12261],[-119.82962,39.12255],[-119.82986,39.12242],[-119.83042,39.12209],[-119.83062,39.12196],[-119.83078,39.12186],[-119.83096,39.12175],[-119.83116,39.12164],[-119.83127,39.12159],[-119.83143,39.12154],[-119.83157,39.12149],[-119.83173,39.12145],[-119.83196,39.1214],[-119.83206,39.12139],[-119.83217,39.12137],[-119.83243,39.12136],[-119.83255,39.12136],[-119.8328,39.12138],[-119.83301,39.12141],[-119.83321,39.12145],[-119.83335,39.12149],[-119.8335,39.12153],[-119.83363,39.12158],[-119.83384,39.12167],[-119.83396,39.12173],[-119.83418,39.12185],[-119.83443,39.122],[-119.83475,39.12219],[-119.83489,39.12226],[-119.83507,39.12235],[-119.83511,39.12237],[-119.83538,39.12247],[-119.83564,39.12254],[-119.8358,39.12257],[-119.83592,39.12259],[-119.83611,39.12261],[-119.83632,39.12261],[-119.83654,39.1226],[-119.83676,39.12258],[-119.83686,39.12257],[-119.837,39.12254],[-119.83725,39.12247],[-119.83741,39.12241],[-119.83753,39.12236],[-119.83763,39.12232],[-119.83774,39.12226],[-119.83787,39.12218],[-119.83808,39.12205],[-119.83837,39.12182],[-119.83908,39.12121],[-119.8391,39.12119],[-119.83926,39.12106],[-119.83945,39.1209],[-119.83985,39.12057],[-119.84005,39.12039],[-119.8404,39.12009],[-119.84086,39.1197],[-119.84142,39.11923],[-119.84169,39.119],[-119.84234,39.11844],[-119.84247,39.11834],[-119.84255,39.11828],[-119.8426,39.11825],[-119.84273,39.11817],[-119.84288,39.11808],[-119.84308,39.11797],[-119.84325,39.11791],[-119.8433,39.11788],[-119.84358,39.11778],[-119.84386,39.11771],[-119.84406,39.11768],[-119.84427,39.11766],[-119.84451,39.11765],[-119.8446,39.11765],[-119.84469,39.11765],[-119.84503,39.11766],[-119.84523,39.11767],[-119.84525,39.11767],[-119.84526,39.11767],[-119.84542,39.11768],[-119.84568,39.1177],[-119.8459,39.11771],[-119.84612,39.11772],[-119.84639,39.11771],[-119.84656,39.1177],[-119.84661,39.11769],[-119.84685,39.11766],[-119.84715,39.11759],[-119.84734,39.11751],[-119.84764,39.11737],[-119.84797,39.1172],[-119.84852,39.11689],[-119.84873,39.11679],[-119.84901,39.11666],[-119.84925,39.11656],[-119.84953,39.11647],[-119.8498,39.11641],[-119.85018,39.11634],[-119.85047,39.11631],[-119.85087,39.11629],[-119.8512,39.1163],[-119.85131,39.11631],[-119.85159,39.11634],[-119.85173,39.11637],[-119.85196,39.11641],[-119.85214,39.11644],[-119.85294,39.11662],[-119.85335,39.11672],[-119.85374,39.11681],[-119.85394,39.11684],[-119.85403,39.11686],[-119.85428,39.11688],[-119.85456,39.11689],[-119.85474,39.11687],[-119.85498,39.11685],[-119.85513,39.11682],[-119.85531,39.11678],[-119.85545,39.11673],[-119.85563,39.11667],[-119.85585,39.11657],[-119.85599,39.1165],[-119.85616,39.1164],[-119.85629,39.11631],[-119.8565,39.11616],[-119.8568,39.11595],[-119.85705,39.11579],[-119.85725,39.11567],[-119.85735,39.11562],[-119.85739,39.1156],[-119.8575,39.11555],[-119.85756,39.11553],[-119.85768,39.11548],[-119.85786,39.11542],[-119.85802,39.11537],[-119.85816,39.11534],[-119.85829,39.11531],[-119.8585,39.11527],[-119.85866,39.11525],[-119.85881,39.11523],[-119.85904,39.11521],[-119.85922,39.1152],[-119.85962,39.11517],[-119.86143,39.11509],[-119.86198,39.11505],[-119.86211,39.11503],[-119.86212,39.11503],[-119.86227,39.11501],[-119.86255,39.11496],[-119.86272,39.11491],[-119.86294,39.11486],[-119.86357,39.11468],[-119.86386,39.11459],[-119.86438,39.11444],[-119.86463,39.11438],[-119.86492,39.11431],[-119.86505,39.11429],[-119.86554,39.11424],[-119.8659,39.11422],[-119.86627,39.11421],[-119.86676,39.11425],[-119.86712,39.11429],[-119.86757,39.11438],[-119.86788,39.11445],[-119.86822,39.11457],[-119.86858,39.11471],[-119.86897,39.1149],[-119.86946,39.11516],[-119.86979,39.11536],[-119.86993,39.11548],[-119.87008,39.11561],[-119.87033,39.11586],[-119.87058,39.11612],[-119.87065,39.11619],[-119.87076,39.1163],[-119.8709,39.11645],[-119.87092,39.11646],[-119.87116,39.11673],[-119.87133,39.11691],[-119.87143,39.11704],[-119.87152,39.1172],[-119.87159,39.11732],[-119.87167,39.11749],[-119.87176,39.11779],[-119.87184,39.11803],[-119.87194,39.1183],[-119.87198,39.11839],[-119.87203,39.11848],[-119.87212,39.11863],[-119.87226,39.11886],[-119.87249,39.11909],[-119.87278,39.11934],[-119.87314,39.11956],[-119.87337,39.11966],[-119.87362,39.11975],[-119.87404,39.11986],[-119.87445,39.11991],[-119.8747,39.11993],[-119.87502,39.11992],[-119.87557,39.11984],[-119.87595,39.11973],[-119.87635,39.11956],[-119.87658,39.11945],[-119.87678,39.11931],[-119.87688,39.11923],[-119.87698,39.11914],[-119.87707,39.11905],[-119.87731,39.11881],[-119.87772,39.11833],[-119.87777,39.11827],[-119.87834,39.11757],[-119.87871,39.11723],[-119.87886,39.11712],[-119.87896,39.11705],[-119.87935,39.11686],[-119.87982,39.11672],[-119.88004,39.11669],[-119.88043,39.11666],[-119.88086,39.11668],[-119.88103,39.11669],[-119.88156,39.11674],[-119.88199,39.11678],[-119.88254,39.11684],[-119.88264,39.11685],[-119.88381,39.11696],[-119.88431,39.117],[-119.88455,39.117],[-119.88472,39.117],[-119.88477,39.117],[-119.88503,39.11697],[-119.88532,39.11691],[-119.88552,39.11686],[-119.88567,39.11681],[-119.88586,39.11673],[-119.88611,39.1166],[-119.88628,39.11648],[-119.8864,39.11639],[-119.88653,39.11627],[-119.88664,39.11614],[-119.8868,39.11593],[-119.88697,39.11563],[-119.88699,39.11555],[-119.88703,39.11545],[-119.88706,39.11531],[-119.88708,39.11514],[-119.88709,39.11509],[-119.88709,39.11501],[-119.88708,39.11493],[-119.88706,39.1148],[-119.88703,39.11464],[-119.88697,39.1145],[-119.88693,39.11439],[-119.88692,39.11437],[-119.88681,39.11417],[-119.88675,39.11407],[-119.88668,39.11397],[-119.88661,39.11388],[-119.88652,39.1138],[-119.8864,39.11371],[-119.88617,39.11355],[-119.88596,39.11342],[-119.88591,39.1134],[-119.88567,39.11328],[-119.88526,39.11313],[-119.88472,39.11295],[-119.88441,39.11285],[-119.88405,39.11273],[-119.88361,39.11256],[-119.88338,39.11246],[-119.88327,39.11241],[-119.88326,39.11241],[-119.88301,39.11229],[-119.88281,39.11217],[-119.88264,39.11205],[-119.88247,39.11189],[-119.88226,39.11166],[-119.88195,39.11132],[-119.8817,39.11113],[-119.88168,39.11111],[-119.88167,39.1111],[-119.88146,39.11097],[-119.88118,39.11082],[-119.88089,39.11068],[-119.8805,39.11052],[-119.88031,39.11044],[-119.8801,39.11035],[-119.87995,39.11027],[-119.87987,39.11022],[-119.87975,39.11013],[-119.87973,39.11012],[-119.87952,39.10998],[-119.87941,39.10985],[-119.87932,39.10976],[-119.87923,39.10961],[-119.87908,39.10933],[-119.87903,39.10921],[-119.87898,39.10903],[-119.87897,39.1089],[-119.87897,39.10882],[-119.87898,39.10869],[-119.87899,39.10859],[-119.87901,39.10843],[-119.87906,39.10827],[-119.87915,39.10808],[-119.87921,39.10797],[-119.87935,39.10777],[-119.87951,39.1076],[-119.87961,39.1075],[-119.8797,39.10744],[-119.87982,39.10735],[-119.87995,39.10727],[-119.88017,39.10716],[-119.88043,39.10706],[-119.88081,39.10696],[-119.88097,39.10694],[-119.88111,39.10692],[-119.8814,39.1069],[-119.88153,39.1069],[-119.88168,39.1069],[-119.88192,39.10691],[-119.88236,39.10693],[-119.88262,39.10693],[-119.8828,39.10692],[-119.88287,39.10691],[-119.88291,39.10691],[-119.88303,39.1069],[-119.88308,39.10689],[-119.88314,39.10689],[-119.88343,39.10684],[-119.88384,39.10675],[-119.88424,39.10665],[-119.88436,39.10662],[-119.88444,39.10659],[-119.88488,39.10647],[-119.88489,39.10647],[-119.88511,39.10641],[-119.88528,39.10637],[-119.88581,39.10622],[-119.88621,39.10612],[-119.88673,39.10597],[-119.88724,39.10585],[-119.88753,39.10581],[-119.88781,39.10576],[-119.88821,39.10573],[-119.88923,39.10566],[-119.88984,39.10562],[-119.89015,39.1056],[-119.89038,39.10559],[-119.89057,39.10558],[-119.89105,39.10553],[-119.89175,39.10543],[-119.89236,39.10531],[-119.8936,39.10504],[-119.89405,39.10494],[-119.89563,39.10459],[-119.8965,39.10439],[-119.89693,39.10429],[-119.89739,39.10419],[-119.89828,39.104],[-119.89909,39.10383],[-119.89918,39.10381],[-119.90013,39.10362],[-119.90053,39.10355],[-119.90165,39.10334],[-119.90221,39.10323],[-119.90233,39.1032],[-119.90255,39.10315],[-119.90273,39.10311],[-119.90288,39.10307],[-119.90314,39.10298],[-119.90341,39.10289],[-119.90352,39.10284],[-119.90393,39.1027],[-119.90422,39.10261],[-119.905,39.10232],[-119.90554,39.10218],[-119.90562,39.10215],[-119.90576,39.10213],[-119.90603,39.10207],[-119.90679,39.10198],[-119.90691,39.10196],[-119.90741,39.1019],[-119.90756,39.10187],[-119.90767,39.10185],[-119.9079,39.10179],[-119.90805,39.10175],[-119.90818,39.10171],[-119.90831,39.10166],[-119.90843,39.10161],[-119.90856,39.10156],[-119.90869,39.1015],[-119.90871,39.10149],[-119.90878,39.10145],[-119.90892,39.10138],[-119.90902,39.10131],[-119.90913,39.10124],[-119.90918,39.1012],[-119.90924,39.10116],[-119.90933,39.10109],[-119.90943,39.101],[-119.90951,39.10093],[-119.90962,39.10081],[-119.90967,39.10075],[-119.90974,39.10064],[-119.9098,39.10057],[-119.90981,39.10054],[-119.90988,39.10045],[-119.90994,39.10035],[-119.90997,39.1003],[-119.91,39.10025],[-119.91006,39.10011],[-119.91008,39.10006],[-119.9101,39.1],[-119.91012,39.09994],[-119.91013,39.09989],[-119.91016,39.09979],[-119.91017,39.09978],[-119.91019,39.09968],[-119.91021,39.09958],[-119.91023,39.09946],[-119.91024,39.09936],[-119.91026,39.09924],[-119.91027,39.09914],[-119.91026,39.09895],[-119.91035,39.09839],[-119.91038,39.09821],[-119.91049,39.0975],[-119.91052,39.09734],[-119.91062,39.09695],[-119.91064,39.09688],[-119.9108,39.09638],[-119.91085,39.09618],[-119.91092,39.09591],[-119.91098,39.09569],[-119.91099,39.09549],[-119.911,39.09529],[-119.91098,39.09512],[-119.91094,39.09498],[-119.91085,39.09472],[-119.91071,39.09442],[-119.91059,39.09419],[-119.91058,39.09417],[-119.9105,39.09404],[-119.91035,39.09376],[-119.91029,39.09359],[-119.91021,39.09325],[-119.91021,39.09314],[-119.91021,39.09296],[-119.91021,39.09284],[-119.91022,39.09278],[-119.91025,39.09265],[-119.91031,39.09244],[-119.91045,39.09217],[-119.91059,39.09197],[-119.91081,39.0917],[-119.91105,39.09141],[-119.91126,39.09114],[-119.91133,39.09099],[-119.91137,39.09084],[-119.91142,39.09068],[-119.91142,39.09067],[-119.91148,39.09023],[-119.91159,39.08956],[-119.9117,39.08929],[-119.91194,39.08891],[-119.91225,39.08858],[-119.91262,39.08823],[-119.91291,39.08797],[-119.91326,39.08769],[-119.9135,39.08751],[-119.91355,39.08746],[-119.91359,39.08744],[-119.91397,39.08715],[-119.91431,39.08695],[-119.91491,39.0866],[-119.91547,39.0863],[-119.91596,39.08604],[-119.91694,39.08549],[-119.91725,39.08534],[-119.91757,39.08521],[-119.91787,39.08512],[-119.91805,39.08508],[-119.91825,39.08504],[-119.91845,39.085],[-119.91872,39.08497],[-119.91896,39.08496],[-119.91923,39.08496],[-119.91943,39.08497],[-119.9196,39.08498],[-119.91989,39.08502],[-119.92011,39.08505],[-119.92041,39.08508],[-119.92061,39.08509],[-119.9208,39.08509],[-119.92098,39.08509],[-119.92106,39.08509],[-119.92143,39.08507],[-119.92144,39.08507],[-119.92185,39.08504],[-119.92236,39.085],[-119.9225,39.085],[-119.92259,39.08499],[-119.9226,39.08499],[-119.92282,39.08498],[-119.92287,39.08498],[-119.92355,39.08501],[-119.92406,39.08503],[-119.92447,39.08507],[-119.92481,39.08513],[-119.92534,39.08524],[-119.92557,39.08528],[-119.92568,39.08531],[-119.92625,39.08543],[-119.9265,39.08548],[-119.92679,39.08555],[-119.92708,39.08558],[-119.92716,39.08559],[-119.92722,39.08559],[-119.92746,39.08559],[-119.9276,39.08558],[-119.92762,39.08558],[-119.92782,39.08556],[-119.92798,39.08554],[-119.92815,39.08551],[-119.92846,39.08543],[-119.9285,39.08542],[-119.92853,39.08541],[-119.92866,39.08536],[-119.92883,39.0853],[-119.92909,39.08517],[-119.92932,39.08502],[-119.92938,39.08498],[-119.92954,39.08487],[-119.92984,39.08467],[-119.93001,39.08457],[-119.93004,39.08456],[-119.9303,39.08443],[-119.93043,39.08438],[-119.93065,39.0843],[-119.93084,39.08425],[-119.93086,39.08424],[-119.93087,39.08424],[-119.931,39.08422],[-119.93112,39.0842],[-119.93131,39.08417],[-119.93151,39.08416],[-119.93183,39.08412],[-119.93207,39.08409],[-119.93235,39.08404],[-119.93254,39.08399],[-119.93267,39.08395],[-119.93268,39.08394],[-119.93269,39.08394],[-119.9328,39.0839],[-119.93288,39.08386],[-119.93293,39.08384],[-119.93304,39.08379],[-119.9332,39.08371],[-119.93377,39.08339],[-119.93403,39.08326],[-119.93408,39.08324],[-119.93423,39.08317],[-119.93424,39.08317],[-119.93428,39.08315],[-119.93447,39.08307],[-119.93473,39.08298],[-119.93486,39.08294],[-119.93487,39.08294],[-119.93496,39.08291],[-119.93531,39.08281],[-119.93549,39.08276],[-119.93565,39.08273],[-119.93601,39.08265],[-119.93624,39.08261],[-119.93651,39.08258],[-119.93661,39.08257],[-119.93692,39.08254],[-119.93731,39.08252],[-119.93753,39.08251],[-119.93754,39.08251],[-119.93772,39.08251],[-119.93845,39.08253],[-119.93862,39.08253],[-119.93911,39.08254],[-119.93959,39.08255],[-119.9396,39.08255],[-119.93963,39.08255],[-119.94001,39.08255],[-119.94019,39.08253],[-119.94036,39.08251],[-119.94062,39.08245],[-119.94077,39.08242],[-119.94086,39.08242],[-119.94091,39.08241],[-119.94102,39.08238],[-119.94116,39.08234],[-119.94143,39.08222],[-119.94168,39.08209],[-119.94183,39.082],[-119.9419,39.08194],[-119.942,39.08187],[-119.94219,39.0817],[-119.9424,39.08148],[-119.94266,39.08104],[-119.9427,39.08091],[-119.94277,39.08065],[-119.9428,39.08037],[-119.94281,39.08013],[-119.94279,39.07985],[-119.94278,39.07966],[-119.94277,39.07961],[-119.94276,39.07959],[-119.94272,39.07953],[-119.94272,39.07942],[-119.94268,39.07888],[-119.94266,39.07858],[-119.94261,39.07793],[-119.94259,39.0777],[-119.94258,39.07759],[-119.9425,39.07726],[-119.94241,39.07696],[-119.94238,39.07688],[-119.94231,39.07675],[-119.94222,39.07658],[-119.94211,39.07635],[-119.94196,39.07609],[-119.94181,39.07581],[-119.9417,39.07562],[-119.94169,39.07554],[-119.94169,39.07553],[-119.94165,39.07547],[-119.94138,39.07498],[-119.94125,39.07475],[-119.94095,39.07416],[-119.94089,39.07402],[-119.94086,39.0739],[-119.94083,39.07376],[-119.94078,39.07341],[-119.94074,39.07284],[-119.94067,39.07239],[-119.94061,39.07227],[-119.94049,39.07143],[-119.94047,39.07102],[-119.94046,39.07083],[-119.94048,39.07069],[-119.94049,39.07054],[-119.94051,39.07047],[-119.94052,39.07039],[-119.94056,39.07029],[-119.94058,39.07023],[-119.94062,39.07012],[-119.94066,39.07004],[-119.94075,39.06989],[-119.94081,39.06979],[-119.94096,39.06957],[-119.94108,39.06939],[-119.94111,39.06934],[-119.94116,39.06923],[-119.94121,39.06908],[-119.94125,39.06891],[-119.94127,39.06883],[-119.94127,39.06882],[-119.94128,39.06877],[-119.9413,39.06858],[-119.9413,39.06828],[-119.94128,39.06798],[-119.94128,39.06788],[-119.94128,39.06786],[-119.94128,39.06769],[-119.9413,39.06756],[-119.94133,39.06746],[-119.94134,39.06739],[-119.94137,39.06732],[-119.94145,39.06715],[-119.94153,39.06701],[-119.94159,39.06694],[-119.9417,39.06681],[-119.94182,39.06668],[-119.94198,39.06654],[-119.94222,39.06636],[-119.94243,39.0662],[-119.94244,39.0662],[-119.94246,39.06618],[-119.94259,39.06606],[-119.94272,39.06592],[-119.94283,39.06576],[-119.94292,39.0656],[-119.94292,39.06559],[-119.94297,39.06544],[-119.94298,39.06542],[-119.94298,39.06541],[-119.94302,39.06525],[-119.94304,39.06511],[-119.94302,39.0649],[-119.94299,39.06473],[-119.94299,39.06471],[-119.94298,39.06469],[-119.94293,39.06453],[-119.94285,39.06436],[-119.94273,39.06415],[-119.94256,39.06391],[-119.94241,39.06368],[-119.94225,39.0634],[-119.94218,39.06318],[-119.94212,39.06297],[-119.9421,39.06278],[-119.94209,39.06268],[-119.94208,39.0625],[-119.94209,39.06236],[-119.94209,39.06232],[-119.94209,39.0623],[-119.9421,39.06225],[-119.94214,39.06207],[-119.9422,39.06188],[-119.94223,39.0618],[-119.94224,39.06177],[-119.94225,39.06173],[-119.94238,39.06145],[-119.94242,39.06136],[-119.94249,39.0612],[-119.94255,39.06106],[-119.94259,39.06091],[-119.94262,39.06078],[-119.94264,39.06066],[-119.94265,39.06051],[-119.94266,39.06042],[-119.94265,39.06033],[-119.94263,39.06016],[-119.9426,39.06001],[-119.94255,39.05976],[-119.94251,39.05955],[-119.94248,39.05935],[-119.94249,39.05918],[-119.94249,39.05915],[-119.94249,39.05896],[-119.94252,39.0588],[-119.94255,39.05864],[-119.94256,39.05861],[-119.94261,39.05844],[-119.94268,39.05819],[-119.9427,39.05809],[-119.94281,39.05767],[-119.94284,39.05755],[-119.94288,39.05735],[-119.94289,39.05732],[-119.94292,39.05717],[-119.94296,39.05695],[-119.94298,39.05678],[-119.94299,39.05661],[-119.943,39.05638],[-119.94301,39.05607],[-119.94303,39.05588],[-119.94305,39.05575],[-119.94306,39.05567],[-119.9431,39.05552],[-119.94316,39.0553],[-119.94322,39.05514],[-119.94329,39.055],[-119.94338,39.05485],[-119.9436,39.05448],[-119.94365,39.05439],[-119.94373,39.05424],[-119.94382,39.05405],[-119.9439,39.05382],[-119.94393,39.05371],[-119.94394,39.05369],[-119.94398,39.05354],[-119.94402,39.05333],[-119.94405,39.05314],[-119.94405,39.05308],[-119.94406,39.053],[-119.94416,39.05226],[-119.94417,39.05217],[-119.94418,39.05194],[-119.94418,39.05176],[-119.94418,39.05172],[-119.94418,39.05155],[-119.94417,39.05119],[-119.94417,39.05118],[-119.94416,39.05087],[-119.94414,39.05065],[-119.94413,39.05048],[-119.94411,39.05029],[-119.94411,39.05014],[-119.94413,39.05001],[-119.94414,39.04996],[-119.94416,39.04987],[-119.94425,39.04962],[-119.9443,39.0495],[-119.94433,39.04946],[-119.94441,39.04933],[-119.94464,39.0491],[-119.94478,39.04899],[-119.94487,39.04892],[-119.94494,39.04888],[-119.94514,39.04876],[-119.94529,39.04869],[-119.94558,39.04855],[-119.94677,39.04801],[-119.94688,39.04799],[-119.94694,39.04798],[-119.94699,39.04796],[-119.94716,39.04789],[-119.94735,39.04779],[-119.94759,39.04765],[-119.94785,39.04748],[-119.94796,39.04738],[-119.94811,39.04723],[-119.94812,39.04722],[-119.94826,39.04707],[-119.94833,39.04697],[-119.94836,39.04694],[-119.94842,39.04683],[-119.94848,39.04672],[-119.94851,39.0465],[-119.94854,39.04624],[-119.94852,39.04611],[-119.94844,39.04588],[-119.94841,39.0458],[-119.94839,39.04577],[-119.94832,39.04559],[-119.94822,39.04528],[-119.9482,39.04514],[-119.94818,39.04491],[-119.94814,39.04441],[-119.94812,39.04399],[-119.94812,39.04398],[-119.9481,39.0436],[-119.94808,39.04327],[-119.94806,39.04317],[-119.94799,39.04284],[-119.94792,39.04256],[-119.94787,39.04234],[-119.94783,39.04219],[-119.94779,39.04202],[-119.94772,39.04166],[-119.94771,39.04161],[-119.94767,39.0414],[-119.94766,39.04129],[-119.94765,39.04119],[-119.94761,39.0411],[-119.94762,39.04101],[-119.94763,39.04091],[-119.94764,39.04087],[-119.94767,39.04074],[-119.94771,39.04062],[-119.94778,39.04045],[-119.94787,39.04027],[-119.94795,39.04014],[-119.94804,39.03999],[-119.94816,39.0398],[-119.94825,39.03963],[-119.94839,39.03943],[-119.94843,39.03936],[-119.94847,39.03929],[-119.94854,39.03916],[-119.94857,39.03909],[-119.9486,39.03904],[-119.94862,39.03897],[-119.94864,39.03889],[-119.94867,39.03877],[-119.94868,39.03864],[-119.94872,39.0383],[-119.94875,39.03808],[-119.94879,39.03796],[-119.9488,39.03794],[-119.94886,39.03775],[-119.94896,39.0376],[-119.94905,39.03747],[-119.94911,39.03738],[-119.94913,39.03734],[-119.94916,39.03731],[-119.94927,39.03715],[-119.94928,39.03714],[-119.94932,39.03707],[-119.94936,39.037],[-119.94937,39.03699],[-119.9494,39.03692],[-119.94943,39.03682],[-119.94944,39.0368],[-119.94945,39.03673],[-119.94946,39.03669],[-119.94947,39.03664],[-119.94947,39.0366],[-119.94947,39.03651],[-119.94946,39.03646],[-119.94945,39.0364],[-119.94943,39.03628],[-119.94938,39.03618],[-119.94934,39.03611],[-119.94933,39.03609],[-119.94929,39.03601],[-119.94918,39.0359],[-119.94917,39.03589],[-119.94912,39.03585],[-119.94908,39.03582],[-119.94898,39.03574],[-119.94867,39.03553],[-119.9485,39.03541],[-119.94832,39.0353],[-119.948,39.03509],[-119.94774,39.0349],[-119.94755,39.03473],[-119.94744,39.03461],[-119.94742,39.03458],[-119.94729,39.0344],[-119.94723,39.03434],[-119.94715,39.03424],[-119.94709,39.03414],[-119.94706,39.03409],[-119.94701,39.03397],[-119.94697,39.03385],[-119.94695,39.03376],[-119.94692,39.03362],[-119.94691,39.03359],[-119.94691,39.03355],[-119.9469,39.03335],[-119.9469,39.03325],[-119.94691,39.03317],[-119.94691,39.0331],[-119.94691,39.03297],[-119.94692,39.03288],[-119.94698,39.03241],[-119.94699,39.03236],[-119.94701,39.03218],[-119.94702,39.03217],[-119.94702,39.03203],[-119.94701,39.03185],[-119.94698,39.03166],[-119.94696,39.03154],[-119.94692,39.03144],[-119.94682,39.03116],[-119.94664,39.03069],[-119.9466,39.03057],[-119.9465,39.03029],[-119.94649,39.03028],[-119.94643,39.02999],[-119.94641,39.02992],[-119.9464,39.02983],[-119.94638,39.02972],[-119.94637,39.02964],[-119.94635,39.02942],[-119.94631,39.02919],[-119.94624,39.02874],[-119.94615,39.02843],[-119.94609,39.02817],[-119.94598,39.02777],[-119.94596,39.02769],[-119.94592,39.02753],[-119.94577,39.02699],[-119.94575,39.02691],[-119.94562,39.02644],[-119.94552,39.02603],[-119.94533,39.02534],[-119.94532,39.02528],[-119.94529,39.02501],[-119.94525,39.02467],[-119.94524,39.02443],[-119.94523,39.02408],[-119.94523,39.02406],[-119.94524,39.02383],[-119.94525,39.02372],[-119.94528,39.02354],[-119.94533,39.02319],[-119.94538,39.02278],[-119.94546,39.02229],[-119.9455,39.0221],[-119.94558,39.02173],[-119.94565,39.02137],[-119.94574,39.02091],[-119.9458,39.0205],[-119.94582,39.0204],[-119.94583,39.02033],[-119.94584,39.02025],[-119.9459,39.02],[-119.94598,39.01968],[-119.94606,39.01944],[-119.9461,39.01931],[-119.9462,39.0191],[-119.94626,39.01897],[-119.94644,39.0186],[-119.94649,39.0185],[-119.94649,39.01849],[-119.9467,39.0181],[-119.94678,39.01793],[-119.9468,39.0179],[-119.94692,39.01766],[-119.94705,39.01741],[-119.94712,39.01726],[-119.94723,39.01704],[-119.94726,39.01699],[-119.94739,39.01667],[-119.94748,39.01637],[-119.94752,39.01623],[-119.94753,39.01617],[-119.94758,39.01587],[-119.9476,39.01575],[-119.94761,39.01569],[-119.94761,39.01563],[-119.94762,39.01556],[-119.94762,39.01548],[-119.94763,39.01533],[-119.94763,39.01521],[-119.94763,39.01515],[-119.94763,39.01502],[-119.94762,39.01497],[-119.9476,39.01467],[-119.9476,39.01466],[-119.94759,39.01446],[-119.94758,39.0143],[-119.94758,39.01429],[-119.94757,39.01412],[-119.94753,39.01361],[-119.94752,39.01341],[-119.94749,39.01293],[-119.94739,39.01161],[-119.94739,39.0116],[-119.94738,39.01142],[-119.94736,39.01124],[-119.94733,39.0107],[-119.94732,39.01052],[-119.94728,39.00998],[-119.94726,39.00962],[-119.94722,39.00903],[-119.94715,39.00799],[-119.94714,39.00782],[-119.94712,39.00765],[-119.94711,39.00747],[-119.9471,39.00729],[-119.94709,39.00711],[-119.94708,39.00693],[-119.94707,39.00683],[-119.94702,39.00621],[-119.94699,39.00573],[-119.94698,39.00562],[-119.94696,39.00511],[-119.94697,39.00501],[-119.94698,39.00487],[-119.94699,39.00478],[-119.94701,39.00468],[-119.94706,39.00448],[-119.9471,39.00437],[-119.94715,39.00427],[-119.94722,39.00414],[-119.94725,39.00409],[-119.94737,39.00391],[-119.94757,39.00368],[-119.94781,39.00344],[-119.94795,39.00329],[-119.94802,39.00322],[-119.94828,39.00295],[-119.94847,39.0028],[-119.94854,39.00274],[-119.9486,39.00271],[-119.94873,39.00263],[-119.94897,39.00253],[-119.94915,39.00248],[-119.94936,39.00243],[-119.94962,39.0024],[-119.94987,39.00239],[-119.95004,39.0024],[-119.95006,39.0024],[-119.95029,39.00242],[-119.95035,39.00242],[-119.95075,39.00245],[-119.95148,39.00249],[-119.95184,39.00252],[-119.9519,39.00253],[-119.95197,39.00253],[-119.95198,39.00253],[-119.95213,39.00256],[-119.95315,39.00271],[-119.95334,39.00273],[-119.95352,39.00276],[-119.95388,39.00282],[-119.95408,39.00283],[-119.95424,39.00284],[-119.95433,39.00283],[-119.95447,39.00282],[-119.95448,39.00282],[-119.95468,39.00278],[-119.95479,39.00276],[-119.95489,39.00272],[-119.95499,39.00269],[-119.9551,39.00265],[-119.9552,39.0026],[-119.95522,39.00258],[-119.9554,39.00247],[-119.95545,39.00242],[-119.95554,39.00235],[-119.95574,39.00214],[-119.95583,39.00198],[-119.95588,39.00187],[-119.95592,39.00174],[-119.95595,39.00163],[-119.95595,39.00162],[-119.95598,39.00136],[-119.95599,39.00113],[-119.95597,39.00093],[-119.95595,39.00076],[-119.95591,39.00057],[-119.95591,39.00056],[-119.9559,39.00054],[-119.95584,39.00031],[-119.95576,39.00009],[-119.95574,39.00004],[-119.95568,38.99989],[-119.95562,38.99976],[-119.95549,38.99952],[-119.95541,38.9994],[-119.95534,38.99928],[-119.95523,38.99913],[-119.95505,38.99893],[-119.9549,38.99877],[-119.95487,38.99874],[-119.95467,38.99855],[-119.9546,38.99849],[-119.95445,38.99836],[-119.95432,38.99827],[-119.95419,38.99818],[-119.95404,38.99808],[-119.95388,38.99798],[-119.95364,38.99783],[-119.95302,38.99745],[-119.9528,38.9973],[-119.95077,38.99608],[-119.95063,38.996],[-119.95022,38.99575],[-119.95004,38.99564],[-119.94977,38.99548],[-119.94949,38.99531],[-119.94932,38.99517],[-119.94915,38.99503],[-119.94903,38.99491],[-119.94894,38.99481],[-119.94882,38.99466],[-119.94871,38.9945],[-119.9486,38.9943],[-119.94859,38.99429],[-119.94851,38.99412],[-119.94845,38.99395],[-119.94842,38.99387],[-119.9484,38.99377],[-119.94837,38.99364],[-119.94835,38.99349],[-119.94834,38.99334],[-119.94834,38.9932],[-119.94835,38.99306],[-119.94837,38.99294],[-119.94842,38.9927],[-119.94844,38.99262],[-119.94848,38.99253],[-119.9485,38.99246],[-119.94858,38.99228],[-119.94881,38.99179],[-119.94882,38.99177],[-119.94882,38.99176],[-119.94904,38.99129],[-119.94906,38.99126],[-119.94912,38.99113],[-119.94918,38.99096],[-119.94923,38.99082],[-119.9493,38.99054],[-119.94932,38.99029],[-119.94934,38.99014],[-119.94933,38.99],[-119.9493,38.98973],[-119.94925,38.98944],[-119.94917,38.98917],[-119.94909,38.98897],[-119.94895,38.98871],[-119.9489,38.98864],[-119.94879,38.98846],[-119.94878,38.98845],[-119.94868,38.98831],[-119.94855,38.98817],[-119.94854,38.98815],[-119.9484,38.98801],[-119.9484,38.988],[-119.94824,38.98785],[-119.94816,38.98779],[-119.9481,38.98774],[-119.94809,38.98773],[-119.94807,38.98772],[-119.94784,38.98754],[-119.9478,38.98751],[-119.94777,38.98749],[-119.94775,38.98748],[-119.94752,38.98731],[-119.94743,38.98724],[-119.94698,38.98693],[-119.94694,38.9869],[-119.94687,38.98681],[-119.94685,38.9868],[-119.94676,38.98673],[-119.94623,38.98634],[-119.9456,38.9859],[-119.94525,38.98565],[-119.9449,38.98541],[-119.94445,38.9851],[-119.94324,38.98422],[-119.94281,38.98391],[-119.94235,38.98359],[-119.94187,38.98327],[-119.94187,38.98326],[-119.94174,38.98318],[-119.94171,38.98315],[-119.94149,38.98305],[-119.94093,38.98265],[-119.94092,38.98265],[-119.94059,38.98241],[-119.94058,38.98241],[-119.94025,38.98217],[-119.93991,38.98193],[-119.93968,38.98177],[-119.93956,38.98169],[-119.93916,38.98138],[-119.93907,38.98131],[-119.93891,38.98118],[-119.93871,38.98101],[-119.9386,38.98091],[-119.93844,38.98078],[-119.93828,38.98064],[-119.93798,38.98031],[-119.93789,38.9802],[-119.93764,38.9799],[-119.93759,38.97984],[-119.93751,38.97975],[-119.93727,38.97945],[-119.93704,38.97913],[-119.93698,38.97904],[-119.93685,38.9788],[-119.93678,38.97869],[-119.93675,38.97864],[-119.93669,38.97852],[-119.93668,38.97848],[-119.93667,38.97847],[-119.93652,38.97813],[-119.93651,38.97812],[-119.93645,38.97796],[-119.93639,38.97781],[-119.93638,38.97779],[-119.93623,38.97737],[-119.93623,38.97736],[-119.93621,38.97728],[-119.93621,38.97727],[-119.93605,38.97665],[-119.93606,38.97656],[-119.93606,38.9765],[-119.93603,38.97638],[-119.93585,38.97564],[-119.93572,38.97507],[-119.93564,38.9747],[-119.93549,38.97403],[-119.93545,38.97391],[-119.93543,38.97386],[-119.93537,38.97376],[-119.9352,38.97305],[-119.93506,38.97246],[-119.93502,38.97223],[-119.93501,38.97215],[-119.93499,38.97203],[-119.93497,38.97189],[-119.93495,38.97162],[-119.93495,38.97156],[-119.93495,38.97142],[-119.93496,38.9712],[-119.93496,38.97102],[-119.93498,38.9709],[-119.93501,38.97073],[-119.93507,38.9703],[-119.93514,38.97005],[-119.93519,38.96991],[-119.93522,38.9698],[-119.93525,38.96967],[-119.93531,38.9695],[-119.93536,38.96935],[-119.93547,38.96909],[-119.93554,38.96895],[-119.93561,38.96879],[-119.93562,38.96878],[-119.93569,38.96866],[-119.93577,38.96852],[-119.93587,38.96837],[-119.93596,38.96824],[-119.93604,38.96811],[-119.9361,38.96802],[-119.93632,38.96768],[-119.93687,38.96686],[-119.93695,38.96674],[-119.93734,38.96616],[-119.93735,38.96615],[-119.9374,38.96608],[-119.93759,38.9658],[-119.93779,38.96552],[-119.93789,38.96537],[-119.93822,38.9649],[-119.93847,38.96455],[-119.93879,38.96406],[-119.93893,38.96382],[-119.93932,38.96326],[-119.93974,38.96266],[-119.93985,38.9625],[-119.94003,38.96224],[-119.94028,38.96186],[-119.94061,38.96136],[-119.94078,38.96113],[-119.9408,38.96111],[-119.94096,38.96086],[-119.94117,38.96054],[-119.94135,38.96026],[-119.9414,38.96018],[-119.94162,38.95986],[-119.94173,38.9597],[-119.94183,38.95955],[-119.94211,38.95914],[-119.94231,38.95885],[-119.94268,38.9583],[-119.94313,38.95763],[-119.94356,38.95698],[-119.94363,38.95688],[-119.94377,38.95668],[-119.94388,38.95651],[-119.94404,38.95628],[-119.94437,38.95578],[-119.94445,38.95568],[-119.94467,38.95535],[-119.94497,38.95496],[-119.94504,38.95488],[-119.94506,38.95485],[-119.9452,38.9547],[-119.94526,38.95463],[-119.94533,38.95456],[-119.94539,38.9545],[-119.94548,38.9544],[-119.9455,38.95438],[-119.94557,38.95431],[-119.94561,38.95428],[-119.94565,38.95425],[-119.9457,38.9542],[-119.94581,38.95411],[-119.94611,38.95391],[-119.94625,38.95381],[-119.9463,38.95377],[-119.94635,38.95374],[-119.94652,38.95362],[-119.94669,38.95351],[-119.94682,38.95343],[-119.94698,38.95334],[-119.94724,38.9532],[-119.94739,38.95313],[-119.9475,38.95308],[-119.94789,38.9529],[-119.94823,38.95275],[-119.94826,38.95274],[-119.94847,38.95265],[-119.94861,38.95258],[-119.94871,38.95254],[-119.94905,38.95239],[-119.94944,38.95221],[-119.94959,38.95215],[-119.94975,38.95207],[-119.94996,38.95198],[-119.95017,38.95188],[-119.95029,38.95183],[-119.9508,38.95161],[-119.95111,38.95147],[-119.95138,38.95135],[-119.95171,38.95121],[-119.95182,38.95115],[-119.95251,38.95084],[-119.95308,38.95059],[-119.95356,38.95038],[-119.95457,38.94993],[-119.95539,38.94956],[-119.95553,38.94949],[-119.95619,38.9492],[-119.95689,38.94888],[-119.95701,38.94883],[-119.9576,38.94857],[-119.95803,38.94835],[-119.95823,38.94826],[-119.95832,38.94822],[-119.95859,38.94811],[-119.95876,38.94804],[-119.959,38.94793],[-119.9595,38.94772],[-119.95964,38.94765],[-119.95978,38.9476],[-119.96004,38.94748],[-119.96026,38.94739],[-119.96049,38.9473],[-119.96068,38.94724],[-119.96127,38.94706],[-119.96149,38.94699],[-119.96219,38.94679],[-119.96267,38.94664],[-119.96291,38.94658],[-119.96335,38.94645],[-119.96344,38.94642],[-119.96381,38.94633],[-119.96405,38.94626],[-119.96425,38.9462],[-119.96429,38.94619],[-119.96449,38.94614],[-119.9648,38.94605],[-119.96501,38.94599],[-119.96523,38.94592],[-119.9656,38.94581],[-119.96574,38.94577],[-119.96586,38.94574],[-119.96611,38.94568],[-119.96614,38.94568],[-119.96621,38.94566],[-119.96626,38.94566],[-119.96649,38.94561],[-119.9669,38.94556],[-119.96711,38.94554],[-119.96722,38.94553],[-119.96734,38.94552],[-119.96742,38.94552],[-119.9678,38.94553],[-119.96792,38.94554],[-119.96805,38.94555],[-119.96863,38.94562],[-119.96924,38.94572],[-119.96935,38.94574],[-119.96945,38.94575],[-119.96966,38.94578],[-119.96991,38.9458],[-119.97005,38.94581],[-119.97014,38.94581],[-119.97026,38.94581],[-119.97033,38.94582],[-119.97052,38.94582],[-119.97073,38.94581],[-119.97086,38.9458],[-119.97107,38.94577],[-119.97121,38.94576],[-119.97135,38.94574],[-119.97155,38.9457],[-119.97171,38.94567],[-119.97199,38.94561],[-119.97225,38.94554],[-119.97229,38.94553],[-119.97246,38.94549],[-119.97268,38.94544],[-119.97278,38.94544],[-119.97284,38.94543],[-119.97308,38.94539],[-119.97346,38.9453],[-119.97379,38.94522],[-119.97395,38.94519],[-119.97405,38.94516],[-119.97454,38.94505],[-119.97471,38.94501],[-119.97477,38.94499],[-119.97492,38.94494],[-119.97516,38.94486],[-119.97533,38.94479],[-119.97539,38.94476],[-119.97549,38.94471],[-119.9757,38.94461],[-119.97579,38.94455],[-119.97588,38.94449],[-119.97602,38.9444],[-119.97615,38.94431],[-119.97635,38.94417],[-119.97638,38.94405],[-119.97648,38.94396],[-119.97653,38.9439],[-119.97661,38.94381],[-119.97671,38.94369],[-119.97679,38.94359],[-119.97686,38.94348],[-119.97689,38.94344],[-119.97693,38.94336],[-119.977,38.94324],[-119.97707,38.9431],[-119.97712,38.94296],[-119.97714,38.94289],[-119.97717,38.94278],[-119.97719,38.94268],[-119.97721,38.94257],[-119.97722,38.94244],[-119.97723,38.94229],[-119.97723,38.94229],[-119.9775,38.94225],[-119.9775,38.94225],[-119.97749,38.94212]]}},{"type":"Feature","properties":{"_gpxType":"trk","name":"The Bike Smith, North Carson Street, Carson City, NV - Sprouts Café, Harrison Avenue, South Lake Tahoe, CA - 1438 Matheson Drive, South Lake Tahoe, CA","coordinateProperties":{},"id":100},"geometry":{"type":"LineString","coordinates":[[-119.97749,38.94212],[-119.97748,38.94169],[-119.97749,38.94163],[-119.97749,38.94163],[-119.97725,38.94163],[-119.97725,38.94163],[-119.97724,38.9413],[-119.97724,38.94085],[-119.97724,38.94005],[-119.97724,38.93982],[-119.97724,38.93901],[-119.97721,38.93821],[-119.9772,38.93787],[-119.97722,38.93775],[-119.97722,38.93741],[-119.97725,38.93665],[-119.97733,38.93613],[-119.97737,38.93588],[-119.97746,38.93546],[-119.97753,38.93511],[-119.97758,38.93493],[-119.97774,38.93436],[-119.97774,38.93436],[-119.97702,38.93434],[-119.97685,38.93434],[-119.97674,38.93435],[-119.97644,38.93435],[-119.97628,38.93435],[-119.97623,38.93435],[-119.9757,38.93435],[-119.97556,38.93435],[-119.9749,38.93436],[-119.97475,38.93436],[-119.97464,38.93436],[-119.9745,38.93435],[-119.97439,38.93434],[-119.97429,38.93432],[-119.97421,38.9343],[-119.97413,38.93428],[-119.97403,38.93425],[-119.97393,38.93421],[-119.97383,38.93417],[-119.97373,38.93413],[-119.97356,38.93403],[-119.97344,38.93396],[-119.97335,38.93388],[-119.97325,38.9338],[-119.97306,38.93358],[-119.97289,38.93339],[-119.97243,38.93287],[-119.97184,38.93218],[-119.97178,38.93212],[-119.97167,38.93201],[-119.97154,38.93185],[-119.9714,38.93169],[-119.97127,38.93154],[-119.97114,38.93139],[-119.97082,38.93105],[-119.97071,38.93093],[-119.97054,38.93074],[-119.97042,38.93061],[-119.97032,38.93049],[-119.97012,38.93027],[-119.9699,38.93001],[-119.9698,38.9299],[-119.96971,38.92979],[-119.96964,38.92971],[-119.96963,38.9297],[-119.96954,38.92962],[-119.96946,38.92953],[-119.96937,38.92945],[-119.9693,38.92938],[-119.969,38.92911],[-119.96865,38.9288],[-119.9686,38.92875],[-119.968,38.9282],[-119.96723,38.9275],[-119.96695,38.92724],[-119.96693,38.92723],[-119.96665,38.92697],[-119.96618,38.92654],[-119.96609,38.92646],[-119.96583,38.92623],[-119.9657,38.92613],[-119.96561,38.92603],[-119.96528,38.92573],[-119.96498,38.92545],[-119.96484,38.92532],[-119.96483,38.92531],[-119.96454,38.92504],[-119.96453,38.92504],[-119.96422,38.92476],[-119.96416,38.92471],[-119.96416,38.92471],[-119.96372,38.92501],[-119.96372,38.92501],[-119.96387,38.92514],[-119.96402,38.92528],[-119.96404,38.9253]]}}]}