{"type":"FeatureCollection","features":[{"type":"Feature","properties":{"_gpxType":"trk","name":"1438 Matheson Drive, South Lake Tahoe, CA - 2781 S Upper Truckee Rd - S Upper Truckee Rd - S Upper Truckee Rd - S Upper Truckee Rd - Caples Lake Resort, California 88, Kirkwood, CA","coordinateProperties":{},"id":101},"geometry":{"type":"LineString","coordinates":[[-119.96404,38.9253],[-119.96402,38.92528],[-119.96387,38.92514],[-119.96372,38.92501],[-119.96372,38.92501],[-119.96416,38.92471],[-119.96416,38.92471],[-119.96408,38.92463],[-119.9633,38.92393],[-119.96321,38.92384],[-119.96291,38.92357],[-119.96285,38.92352],[-119.96261,38.9233],[-119.96255,38.92324],[-119.96216,38.92289],[-119.9621,38.92283],[-119.96186,38.92261],[-119.9618,38.92256],[-119.96171,38.92248],[-119.96156,38.92234],[-119.9615,38.92229],[-119.96135,38.92215],[-119.96126,38.92207],[-119.9609,38.92174],[-119.96066,38.92152],[-119.96058,38.92145],[-119.96037,38.92128],[-119.96026,38.92119],[-119.96018,38.92113],[-119.96014,38.92111],[-119.96,38.92101],[-119.95993,38.92097],[-119.95982,38.9209],[-119.9597,38.92083],[-119.95963,38.9208],[-119.95956,38.92076],[-119.95941,38.92068],[-119.95911,38.92054],[-119.95894,38.92048],[-119.95883,38.92044],[-119.95878,38.92042],[-119.95875,38.92041],[-119.95862,38.92037],[-119.95857,38.92035],[-119.95836,38.92029],[-119.95811,38.92021],[-119.95791,38.92015],[-119.95779,38.9201],[-119.9577,38.92007],[-119.95759,38.92002],[-119.95739,38.91993],[-119.95739,38.91993],[-119.95747,38.91985],[-119.95801,38.91929],[-119.95825,38.91906],[-119.95877,38.91851],[-119.95891,38.91837],[-119.95918,38.91808],[-119.95946,38.91779],[-119.9595,38.91775],[-119.95962,38.91762],[-119.9599,38.91733],[-119.96005,38.91717],[-119.96015,38.91707],[-119.96019,38.91703],[-119.96033,38.91688],[-119.96047,38.91674],[-119.96074,38.91645],[-119.96086,38.91632],[-119.96093,38.91626],[-119.96116,38.91601],[-119.9612,38.91595],[-119.96124,38.91592],[-119.96132,38.91582],[-119.96138,38.91572],[-119.96143,38.91564],[-119.96155,38.91543],[-119.96162,38.9153],[-119.96165,38.9152],[-119.9617,38.91505],[-119.96172,38.915],[-119.96175,38.91488],[-119.96177,38.91475],[-119.96178,38.91461],[-119.96178,38.91437],[-119.96178,38.91433],[-119.96178,38.91383],[-119.96177,38.91362],[-119.96176,38.91306],[-119.96175,38.9127],[-119.96175,38.91253],[-119.96174,38.91217],[-119.96174,38.91216],[-119.96174,38.91212],[-119.96175,38.91182],[-119.96175,38.91166],[-119.96175,38.91163],[-119.96176,38.91149],[-119.96176,38.91145],[-119.96178,38.91132],[-119.96179,38.91127],[-119.96182,38.91109],[-119.96182,38.91107],[-119.96185,38.91091],[-119.96191,38.91055],[-119.96203,38.90986],[-119.96204,38.90984],[-119.96207,38.90967],[-119.96211,38.90944],[-119.96212,38.90941],[-119.96216,38.90926],[-119.96219,38.90915],[-119.9622,38.90913],[-119.96227,38.90893],[-119.96234,38.90879],[-119.96236,38.90873],[-119.96244,38.90861],[-119.96251,38.90849],[-119.96262,38.90834],[-119.96263,38.90833],[-119.96273,38.90821],[-119.96283,38.90811],[-119.96321,38.90777],[-119.96352,38.90751],[-119.96401,38.90713],[-119.96457,38.90664],[-119.96464,38.90659],[-119.96487,38.90639],[-119.96504,38.90626],[-119.96521,38.90616],[-119.96524,38.90614],[-119.9653,38.90611],[-119.96541,38.90605],[-119.96548,38.90602],[-119.96556,38.90599],[-119.96573,38.90592],[-119.96607,38.90581],[-119.96652,38.9057],[-119.96675,38.90564],[-119.96719,38.90553],[-119.96731,38.9055],[-119.96746,38.90547],[-119.96759,38.90543],[-119.96772,38.90539],[-119.96786,38.90534],[-119.968,38.90528],[-119.96813,38.90521],[-119.96824,38.90514],[-119.96834,38.90508],[-119.96834,38.90507],[-119.96839,38.90504],[-119.96847,38.90498],[-119.96851,38.90495],[-119.96854,38.90493],[-119.9686,38.90487],[-119.9687,38.90477],[-119.96876,38.90471],[-119.96881,38.90465],[-119.96887,38.90457],[-119.96894,38.90447],[-119.96897,38.90441],[-119.96901,38.90434],[-119.96909,38.9042],[-119.96926,38.90385],[-119.96932,38.90374],[-119.96951,38.90335],[-119.96956,38.90326],[-119.96962,38.90313],[-119.96967,38.90303],[-119.9697,38.90296],[-119.96972,38.90289],[-119.96974,38.90283],[-119.96975,38.90277],[-119.96977,38.9027],[-119.96977,38.90269],[-119.96977,38.90261],[-119.96978,38.9025],[-119.96977,38.90235],[-119.96975,38.90218],[-119.96973,38.90201],[-119.9697,38.90181],[-119.9697,38.9018],[-119.96967,38.90163],[-119.96963,38.90136],[-119.96962,38.9013],[-119.96962,38.90124],[-119.96962,38.90118],[-119.96962,38.90111],[-119.96962,38.90109],[-119.96963,38.90096],[-119.96964,38.90091],[-119.96965,38.90081],[-119.96969,38.90064],[-119.96971,38.90055],[-119.96977,38.90031],[-119.9698,38.9002],[-119.96987,38.89998],[-119.96997,38.89961],[-119.97009,38.89915],[-119.9701,38.8991],[-119.97022,38.89867],[-119.97026,38.8985],[-119.97028,38.89844],[-119.97031,38.89832],[-119.97033,38.89826],[-119.97034,38.8982],[-119.97043,38.89788],[-119.9705,38.89759],[-119.97056,38.89741],[-119.97062,38.89728],[-119.97072,38.89705],[-119.97079,38.89693],[-119.97082,38.89688],[-119.97085,38.89684],[-119.97089,38.89677],[-119.97092,38.89672],[-119.97095,38.89669],[-119.97122,38.8963],[-119.97125,38.89625],[-119.97133,38.89614],[-119.97136,38.89609],[-119.97144,38.89598],[-119.97158,38.89577],[-119.97159,38.89577],[-119.97169,38.89562],[-119.9718,38.89545],[-119.97187,38.89534],[-119.9719,38.89529],[-119.97194,38.89524],[-119.97225,38.89476],[-119.97245,38.89443],[-119.97266,38.89406],[-119.9727,38.894],[-119.97287,38.8937],[-119.9731,38.89326],[-119.97337,38.89271],[-119.97337,38.8927],[-119.97351,38.89242],[-119.97353,38.89238],[-119.9737,38.892],[-119.97373,38.89194],[-119.97386,38.89167],[-119.97393,38.89153],[-119.974,38.89141],[-119.97402,38.89137],[-119.97406,38.89131],[-119.97421,38.89113],[-119.97436,38.89097],[-119.97449,38.89084],[-119.97464,38.8907],[-119.9747,38.89064],[-119.97479,38.89056],[-119.97485,38.89051],[-119.9753,38.8901],[-119.97569,38.88977],[-119.97598,38.88952],[-119.97609,38.88945],[-119.97615,38.8894],[-119.97668,38.88905],[-119.97738,38.88867],[-119.97744,38.88864],[-119.97854,38.88808],[-119.97868,38.888],[-119.97893,38.88788],[-119.97926,38.8877],[-119.97931,38.88768],[-119.97989,38.88738],[-119.98058,38.88703],[-119.98174,38.88646],[-119.98228,38.8862],[-119.98261,38.88605],[-119.98281,38.88596],[-119.98297,38.88588],[-119.98316,38.88579],[-119.98321,38.88578],[-119.98355,38.88562],[-119.9838,38.8855],[-119.98428,38.88529],[-119.9844,38.88523],[-119.98511,38.88487],[-119.98538,38.88469],[-119.98563,38.8845],[-119.98597,38.8842],[-119.98627,38.8839],[-119.987,38.88299],[-119.98712,38.88283],[-119.98717,38.88277],[-119.98735,38.88257],[-119.98751,38.88239],[-119.98754,38.88235],[-119.98765,38.88224],[-119.98779,38.8821],[-119.98786,38.88203],[-119.98817,38.8817],[-119.98835,38.88153],[-119.98836,38.88152],[-119.98849,38.88138],[-119.9886,38.88127],[-119.98875,38.8811],[-119.98896,38.88083],[-119.9891,38.88056],[-119.98916,38.88041],[-119.98923,38.88021],[-119.98945,38.87954],[-119.9895,38.87929],[-119.98962,38.879],[-119.98993,38.87845],[-119.99014,38.87811],[-119.99039,38.87772],[-119.99058,38.87739],[-119.99059,38.87739],[-119.99074,38.87706],[-119.99108,38.87614],[-119.99126,38.87564],[-119.99126,38.87562],[-119.99131,38.87549],[-119.9914,38.87522],[-119.99155,38.87488],[-119.99171,38.87456],[-119.99196,38.87414],[-119.99202,38.87404],[-119.99218,38.87381],[-119.99246,38.87341],[-119.99262,38.87317],[-119.99265,38.87312],[-119.99288,38.87277],[-119.99299,38.87261],[-119.99304,38.87253],[-119.99309,38.87245],[-119.99326,38.87219],[-119.99347,38.87188],[-119.99409,38.87093],[-119.99421,38.87076],[-119.99447,38.87035],[-119.99522,38.86916],[-119.99544,38.86883],[-119.99546,38.8688],[-119.9958,38.86829],[-119.99587,38.86817],[-119.99605,38.86786],[-119.99624,38.86747],[-119.99636,38.86723],[-119.99644,38.86707],[-119.99659,38.86676],[-119.99668,38.86656],[-119.99675,38.86639],[-119.9971,38.86565],[-119.99717,38.86554],[-119.9972,38.86549],[-119.99724,38.86544],[-119.99727,38.8654],[-119.99732,38.86534],[-119.99733,38.86534],[-119.99739,38.86527],[-119.99747,38.8652],[-119.99748,38.86519],[-119.99764,38.86505],[-119.99767,38.86503],[-119.99781,38.86491],[-119.99804,38.8648],[-119.99834,38.86464],[-119.99867,38.86447],[-119.99876,38.86443],[-119.9991,38.8643],[-119.99945,38.86417],[-119.99965,38.86409],[-119.99979,38.86403],[-119.99988,38.86398],[-119.99995,38.86393],[-120.00003,38.86388],[-120.0002,38.86376],[-120.00068,38.86344],[-120.00071,38.86342],[-120.00119,38.8631],[-120.00139,38.86297],[-120.00154,38.8629],[-120.00178,38.8628],[-120.00195,38.86273],[-120.00197,38.86272],[-120.00205,38.8627],[-120.00215,38.86266],[-120.00227,38.86263],[-120.00234,38.86261],[-120.00243,38.86258],[-120.00255,38.86255],[-120.00262,38.86254],[-120.00266,38.86253],[-120.00278,38.86251],[-120.00289,38.86249],[-120.00302,38.86247],[-120.00307,38.86247],[-120.00317,38.86246],[-120.00333,38.86245],[-120.00356,38.86244],[-120.00376,38.86244],[-120.00387,38.86243],[-120.00404,38.86243],[-120.00423,38.86243],[-120.00462,38.86243],[-120.00519,38.86243],[-120.00541,38.86243],[-120.00562,38.86242],[-120.00571,38.86242],[-120.00583,38.8624],[-120.00597,38.86238],[-120.00612,38.86236],[-120.00625,38.86233],[-120.00628,38.86232],[-120.00634,38.86231],[-120.00647,38.86227],[-120.00658,38.86224],[-120.00667,38.8622],[-120.00677,38.86217],[-120.00681,38.86216],[-120.00685,38.86214],[-120.00692,38.86211],[-120.00698,38.86209],[-120.00728,38.86193],[-120.00749,38.86181],[-120.00759,38.86173],[-120.00769,38.86167],[-120.00774,38.86163],[-120.00786,38.86152],[-120.00809,38.86134],[-120.00838,38.86111],[-120.00911,38.86053],[-120.00951,38.86021],[-120.00966,38.86009],[-120.00978,38.86],[-120.00986,38.85995],[-120.00992,38.85992],[-120.00998,38.85989],[-120.01004,38.85986],[-120.01012,38.85983],[-120.0102,38.8598],[-120.01027,38.85978],[-120.01038,38.85976],[-120.01059,38.85973],[-120.01092,38.85968],[-120.0114,38.85962],[-120.01142,38.85962],[-120.01161,38.8596],[-120.01184,38.85957],[-120.01188,38.85956],[-120.01211,38.85954],[-120.01211,38.85954],[-120.01203,38.85884],[-120.01202,38.8588],[-120.012,38.85851],[-120.012,38.85837],[-120.012,38.85829],[-120.01201,38.85822],[-120.01202,38.8581],[-120.01203,38.85802],[-120.01204,38.85796],[-120.01206,38.85786],[-120.0121,38.85774],[-120.01215,38.85758],[-120.01225,38.85736],[-120.01236,38.85719],[-120.01241,38.85711],[-120.0126,38.85681],[-120.01273,38.85661],[-120.01281,38.85648],[-120.01287,38.85638],[-120.0129,38.85634],[-120.01302,38.85614],[-120.01309,38.85603],[-120.0132,38.85587],[-120.01323,38.85583],[-120.01327,38.85578],[-120.01334,38.85567],[-120.0134,38.85559],[-120.01347,38.85551],[-120.01349,38.85548],[-120.01352,38.85545],[-120.01356,38.85541],[-120.01365,38.85532],[-120.01365,38.85531],[-120.01374,38.85522],[-120.01382,38.85516],[-120.01385,38.85513],[-120.01392,38.85508],[-120.01399,38.85503],[-120.0141,38.85495],[-120.0142,38.85489],[-120.01431,38.85482],[-120.01448,38.85473],[-120.01462,38.85465],[-120.01529,38.85435],[-120.01617,38.85395],[-120.01625,38.85392],[-120.01661,38.85385],[-120.01692,38.85379],[-120.01726,38.85371],[-120.01741,38.85366],[-120.01755,38.85361],[-120.01764,38.85356],[-120.01772,38.85348],[-120.0178,38.85342],[-120.01798,38.85324],[-120.01811,38.85314],[-120.01827,38.85304],[-120.01832,38.85299],[-120.01834,38.85293],[-120.0186,38.85281],[-120.01872,38.85274],[-120.01886,38.85267],[-120.01898,38.85261],[-120.01922,38.85249],[-120.01929,38.85246],[-120.01982,38.8522],[-120.01984,38.85219],[-120.02016,38.85203],[-120.02032,38.85196],[-120.0206,38.85183],[-120.02103,38.85164],[-120.02138,38.85149],[-120.02153,38.85147],[-120.02171,38.85141],[-120.02197,38.8513],[-120.02197,38.8513],[-120.02214,38.85124],[-120.0222,38.85123],[-120.02228,38.85123],[-120.02241,38.85123],[-120.02247,38.85122],[-120.02252,38.85121],[-120.02257,38.8512],[-120.02262,38.85117],[-120.02265,38.85114],[-120.02273,38.85103],[-120.02276,38.85099],[-120.02279,38.85096],[-120.02283,38.85093],[-120.02287,38.8509],[-120.02316,38.85073],[-120.0235,38.85056],[-120.02353,38.85055],[-120.02355,38.85052],[-120.02363,38.85046],[-120.02363,38.85046],[-120.0239,38.8503],[-120.02412,38.8502],[-120.02424,38.85015],[-120.02443,38.85006],[-120.02476,38.8499],[-120.02483,38.84987],[-120.02514,38.84972],[-120.02546,38.84955],[-120.0256,38.84947],[-120.02586,38.84931],[-120.02612,38.84914],[-120.02637,38.84899],[-120.02651,38.8489],[-120.02672,38.84875],[-120.02682,38.84868],[-120.02684,38.84866],[-120.02713,38.84844],[-120.02721,38.84837],[-120.02743,38.84818],[-120.02753,38.84808],[-120.02773,38.8479],[-120.02808,38.84757],[-120.02808,38.84757],[-120.0279,38.84733],[-120.02788,38.84725],[-120.02788,38.84724],[-120.02786,38.84707],[-120.02785,38.84692],[-120.02783,38.84672],[-120.02778,38.846],[-120.02776,38.84577],[-120.02774,38.8456],[-120.02769,38.84539],[-120.0276,38.8451],[-120.02747,38.84478],[-120.02745,38.84476],[-120.02719,38.84434],[-120.02704,38.84412],[-120.02682,38.84391],[-120.02651,38.84363],[-120.02645,38.84354],[-120.02638,38.84343],[-120.02631,38.84321],[-120.02621,38.84286],[-120.02614,38.84262],[-120.02604,38.84234],[-120.02597,38.84217],[-120.0259,38.842],[-120.02587,38.84191],[-120.02578,38.84147],[-120.02573,38.84123],[-120.02553,38.84097],[-120.02532,38.84068],[-120.02517,38.84051],[-120.0249,38.84022],[-120.02427,38.83951],[-120.02382,38.83892],[-120.02346,38.83826],[-120.02337,38.8381],[-120.023,38.83744],[-120.02282,38.83711],[-120.02249,38.83651],[-120.02246,38.83643],[-120.02243,38.8363],[-120.02241,38.83604],[-120.02234,38.83562],[-120.02226,38.83508],[-120.02224,38.8349],[-120.02221,38.83471]]}},{"type":"Feature","properties":{"_gpxType":"trk","name":"1438 Matheson Drive, South Lake Tahoe, CA - 2781 S Upper Truckee Rd - S Upper Truckee Rd - S Upper Truckee Rd - S Upper Truckee Rd - Caples Lake Resort, California 88, Kirkwood, CA","coordinateProperties":{},"id":101},"geometry":{"type":"LineString","coordinates":[[-120.02221,38.83471],[-120.02218,38.83452],[-120.02212,38.83419],[-120.02212,38.83418],[-120.02209,38.83399],[-120.02208,38.83383],[-120.02207,38.83374],[-120.02207,38.83352],[-120.02207,38.83347],[-120.02211,38.83301],[-120.02217,38.8326],[-120.02223,38.83222],[-120.02226,38.83204],[-120.02235,38.83145],[-120.0224,38.83115],[-120.02247,38.83059],[-120.02251,38.83031],[-120.02257,38.82937],[-120.0226,38.82901],[-120.02282,38.82816],[-120.02286,38.82799],[-120.02291,38.82781],[-120.02292,38.82774],[-120.02299,38.82747],[-120.02303,38.82728],[-120.02307,38.82698],[-120.02307,38.82674],[-120.02308,38.82656],[-120.02308,38.82655],[-120.02307,38.82628],[-120.02306,38.82595],[-120.02302,38.82547],[-120.02298,38.82531],[-120.02297,38.82522],[-120.02293,38.82513],[-120.02291,38.82509],[-120.02281,38.82485],[-120.02278,38.82479],[-120.0227,38.82462],[-120.02267,38.82456],[-120.02259,38.8244],[-120.02255,38.82428],[-120.02253,38.82417],[-120.02252,38.8241],[-120.02238,38.82333],[-120.02232,38.82307],[-120.02231,38.82304],[-120.02228,38.82294],[-120.02223,38.82281],[-120.02211,38.82256],[-120.02209,38.82252],[-120.022,38.82236],[-120.02198,38.82233],[-120.0219,38.82222],[-120.02182,38.82212],[-120.02162,38.82191],[-120.02137,38.82161],[-120.02086,38.82101],[-120.0206,38.82041],[-120.02057,38.8203],[-120.02048,38.81969],[-120.02049,38.81947],[-120.02049,38.81929],[-120.0205,38.81913],[-120.02049,38.81911],[-120.02048,38.81893],[-120.02047,38.81875],[-120.02046,38.81857],[-120.02045,38.8184],[-120.02016,38.81679],[-120.02002,38.81612],[-120.01996,38.81563],[-120.01997,38.81504],[-120.02001,38.81451],[-120.02003,38.81433],[-120.02004,38.81425],[-120.02006,38.81415],[-120.02013,38.81371],[-120.02018,38.81354],[-120.02023,38.81336],[-120.02043,38.81266],[-120.02044,38.81262],[-120.02048,38.81248],[-120.02057,38.81213],[-120.02061,38.81195],[-120.02064,38.81186],[-120.02076,38.81124],[-120.02078,38.81116],[-120.02078,38.81107],[-120.02076,38.81097],[-120.02067,38.8108],[-120.02047,38.81045],[-120.02036,38.81024],[-120.02026,38.80997],[-120.01993,38.80931],[-120.01956,38.8086],[-120.01942,38.80827],[-120.01941,38.80826],[-120.01929,38.80791],[-120.01923,38.80774],[-120.01912,38.80739],[-120.01911,38.80736],[-120.01906,38.80722],[-120.01895,38.80696],[-120.01891,38.80688],[-120.01881,38.80663],[-120.01868,38.80629],[-120.0186,38.80603],[-120.01859,38.80601],[-120.01855,38.80584],[-120.01851,38.80566],[-120.01847,38.80545],[-120.01843,38.80515],[-120.01841,38.80477],[-120.01843,38.80454],[-120.01845,38.80441],[-120.01846,38.80423],[-120.01847,38.80418],[-120.0185,38.80392],[-120.01856,38.8037],[-120.0186,38.8036],[-120.01872,38.80341],[-120.01876,38.80311],[-120.01884,38.80264],[-120.01887,38.80244],[-120.01888,38.8023],[-120.0189,38.80217],[-120.01893,38.80202],[-120.01893,38.802],[-120.01895,38.80193],[-120.01899,38.80175],[-120.01901,38.80166],[-120.01902,38.80159],[-120.01902,38.80149],[-120.01901,38.8014],[-120.01898,38.80131],[-120.01897,38.80127],[-120.01894,38.80119],[-120.01891,38.80111],[-120.01888,38.80105],[-120.01883,38.80098],[-120.01876,38.80087],[-120.01862,38.80073],[-120.01856,38.80069],[-120.0185,38.80064],[-120.01839,38.80056],[-120.0183,38.80048],[-120.01825,38.80043],[-120.01819,38.80033],[-120.01816,38.80026],[-120.01815,38.80025],[-120.01813,38.80013],[-120.01812,38.80008],[-120.01812,38.80004],[-120.01812,38.79995],[-120.01815,38.79983],[-120.01821,38.79971],[-120.01837,38.79945],[-120.0184,38.7994],[-120.01848,38.79924],[-120.01856,38.7991],[-120.01862,38.79903],[-120.01872,38.79891],[-120.01879,38.79884],[-120.01897,38.79867],[-120.01915,38.79851],[-120.0192,38.79846],[-120.0193,38.79837],[-120.01944,38.79823],[-120.01957,38.7981],[-120.01958,38.79809],[-120.01966,38.798],[-120.01987,38.79777],[-120.01994,38.79768],[-120.01999,38.79763],[-120.02004,38.7975],[-120.02006,38.79743],[-120.02007,38.79735],[-120.02006,38.79725],[-120.02006,38.79724],[-120.02005,38.79717],[-120.02003,38.7971],[-120.02001,38.79703],[-120.01998,38.79696],[-120.01995,38.7969],[-120.01994,38.79688],[-120.01989,38.79682],[-120.01976,38.79671],[-120.01965,38.79663],[-120.01946,38.79654],[-120.01926,38.79645],[-120.01923,38.79644],[-120.01913,38.79638],[-120.01906,38.79635],[-120.01881,38.79625],[-120.01865,38.79619],[-120.01851,38.79613],[-120.01822,38.796],[-120.01805,38.79592],[-120.01784,38.79584],[-120.01764,38.79576],[-120.01747,38.79569],[-120.01743,38.79568],[-120.01733,38.79563],[-120.01715,38.79557],[-120.01701,38.79552],[-120.01693,38.79546],[-120.01686,38.7954],[-120.01685,38.7954],[-120.01678,38.79532],[-120.01674,38.79526],[-120.01672,38.79522],[-120.01671,38.79518],[-120.01671,38.79508],[-120.01675,38.79499],[-120.01678,38.79489],[-120.01679,38.79486],[-120.01681,38.79482],[-120.01684,38.79475],[-120.01686,38.79472],[-120.01687,38.7947],[-120.01693,38.79466],[-120.01698,38.79461],[-120.01701,38.79459],[-120.01706,38.79457],[-120.01709,38.79455],[-120.01713,38.79452],[-120.01715,38.7945],[-120.01716,38.79448],[-120.01716,38.79445],[-120.01714,38.7944],[-120.01712,38.79439],[-120.01709,38.79436],[-120.01701,38.79435],[-120.017,38.79435],[-120.0169,38.79437],[-120.0168,38.79441],[-120.01677,38.79443],[-120.01668,38.79446],[-120.01659,38.79449],[-120.01658,38.79449],[-120.01655,38.7945],[-120.01649,38.79452],[-120.01641,38.79455],[-120.01635,38.79458],[-120.01632,38.7946],[-120.01623,38.79466],[-120.0162,38.79468],[-120.01618,38.7947],[-120.01611,38.79477],[-120.01606,38.79482],[-120.01604,38.79485],[-120.01595,38.79493],[-120.01577,38.7951],[-120.01575,38.79512],[-120.0155,38.79539],[-120.01548,38.79541]]}},{"type":"Feature","properties":{"_gpxType":"trk","name":"1438 Matheson Drive, South Lake Tahoe, CA - 2781 S Upper Truckee Rd - S Upper Truckee Rd - S Upper Truckee Rd - S Upper Truckee Rd - Caples Lake Resort, California 88, Kirkwood, CA","coordinateProperties":{},"id":101},"geometry":{"type":"LineString","coordinates":[[-120.01548,38.79541],[-120.01541,38.79548],[-120.01535,38.79553],[-120.01533,38.79556],[-120.01499,38.79588],[-120.01491,38.79595],[-120.01489,38.79597],[-120.01481,38.79605],[-120.01477,38.79609],[-120.01464,38.79623],[-120.01452,38.79636],[-120.01446,38.79641],[-120.01436,38.79646],[-120.01427,38.79648],[-120.01424,38.79649],[-120.01412,38.79653],[-120.01406,38.79655],[-120.01393,38.7966],[-120.01388,38.79662],[-120.01384,38.79663],[-120.01375,38.7967],[-120.01357,38.79683],[-120.01354,38.79686],[-120.01351,38.79688],[-120.01345,38.79693],[-120.01335,38.79702],[-120.01323,38.79707],[-120.01299,38.79711],[-120.01284,38.79715],[-120.01252,38.79732],[-120.01238,38.7974],[-120.01219,38.7975],[-120.01211,38.79755],[-120.01199,38.79761],[-120.01191,38.79766],[-120.01174,38.79773],[-120.0116,38.79778],[-120.01143,38.79784],[-120.01131,38.79789],[-120.0112,38.79792],[-120.01106,38.79796],[-120.01092,38.79799],[-120.01083,38.798],[-120.01075,38.79803],[-120.01074,38.79803],[-120.01064,38.79807],[-120.01055,38.79813],[-120.01052,38.79814],[-120.01047,38.79817],[-120.01042,38.79818],[-120.01038,38.79817],[-120.01036,38.79817],[-120.01035,38.79816],[-120.01034,38.79816],[-120.01034,38.79815],[-120.01033,38.79814],[-120.01032,38.79812],[-120.01033,38.79809],[-120.01034,38.79806],[-120.01036,38.79799],[-120.01037,38.79797],[-120.01041,38.79788],[-120.01044,38.79783],[-120.01051,38.79772],[-120.01057,38.79767],[-120.01057,38.79766],[-120.01065,38.79758],[-120.01069,38.79753],[-120.01074,38.79746],[-120.01078,38.79736],[-120.01078,38.79735],[-120.01084,38.79718],[-120.01085,38.79714],[-120.01093,38.79692],[-120.01099,38.79674],[-120.011,38.79667],[-120.011,38.79661],[-120.01105,38.79649],[-120.01105,38.79648],[-120.01108,38.79643],[-120.01111,38.79637],[-120.01117,38.79627],[-120.0112,38.79619],[-120.01121,38.79614],[-120.01121,38.79612],[-120.01123,38.79592],[-120.01123,38.79579],[-120.01124,38.7957],[-120.01125,38.7956],[-120.01129,38.79553],[-120.01135,38.79545],[-120.01139,38.79541],[-120.01145,38.79535],[-120.01149,38.79528],[-120.01151,38.79524],[-120.01149,38.79519],[-120.01143,38.79517],[-120.01141,38.79517],[-120.01138,38.79516],[-120.01133,38.79517],[-120.01127,38.79521],[-120.01123,38.79524],[-120.01112,38.79534],[-120.01109,38.79538],[-120.01108,38.79539],[-120.01103,38.79545],[-120.01095,38.79553],[-120.01085,38.79559],[-120.01077,38.79564],[-120.01066,38.79568],[-120.0105,38.79574],[-120.01034,38.79577],[-120.01033,38.79578],[-120.01011,38.79584],[-120.00993,38.79589],[-120.00985,38.79592],[-120.00971,38.79595],[-120.00946,38.796],[-120.00914,38.79611],[-120.00869,38.7963],[-120.00833,38.79644],[-120.00825,38.79648],[-120.00816,38.79652],[-120.00796,38.79662],[-120.00782,38.7967],[-120.00757,38.7969],[-120.00742,38.79702],[-120.0072,38.79715],[-120.00718,38.79715],[-120.00698,38.79726],[-120.00685,38.79731],[-120.00678,38.79731],[-120.00677,38.79731]]}},{"type":"Feature","properties":{"_gpxType":"trk","name":"1438 Matheson Drive, South Lake Tahoe, CA - 2781 S Upper Truckee Rd - S Upper Truckee Rd - S Upper Truckee Rd - S Upper Truckee Rd - Caples Lake Resort, California 88, Kirkwood, CA","coordinateProperties":{},"id":101},"geometry":{"type":"LineString","coordinates":[[-120.00677,38.79731],[-120.00675,38.79732],[-120.0067,38.7973],[-120.00666,38.79729],[-120.00662,38.79727],[-120.00659,38.79724],[-120.00658,38.79723],[-120.00649,38.7971],[-120.00635,38.79692],[-120.00622,38.79681],[-120.00605,38.79665],[-120.00604,38.79665],[-120.00589,38.79652],[-120.00587,38.79651],[-120.00583,38.79647],[-120.00572,38.79638],[-120.00563,38.79629],[-120.00554,38.79618],[-120.00546,38.79609],[-120.00537,38.79602],[-120.00528,38.79599],[-120.00518,38.79594],[-120.0051,38.79588],[-120.00507,38.79586],[-120.00503,38.79583],[-120.005,38.79579],[-120.00496,38.7957],[-120.00494,38.79566],[-120.00489,38.79557],[-120.00488,38.79555],[-120.00479,38.79545],[-120.00468,38.79531],[-120.00464,38.79527],[-120.00457,38.79517],[-120.00449,38.7951],[-120.00439,38.79492],[-120.00429,38.7948],[-120.00428,38.79479],[-120.00422,38.79471],[-120.00418,38.79465],[-120.00418,38.79464],[-120.00415,38.79461],[-120.00412,38.79459],[-120.00404,38.79456],[-120.00398,38.79455],[-120.00391,38.79456],[-120.00381,38.79458],[-120.00373,38.79462],[-120.00366,38.79465],[-120.00362,38.79468],[-120.00361,38.79471],[-120.00361,38.79473],[-120.00362,38.79475],[-120.00366,38.7948],[-120.00376,38.7949],[-120.00386,38.795],[-120.0039,38.79509],[-120.00394,38.79518],[-120.00399,38.79531],[-120.00402,38.79541],[-120.00404,38.79549],[-120.00404,38.79553],[-120.00405,38.79554],[-120.00406,38.79559],[-120.00405,38.79562],[-120.00403,38.79566],[-120.00401,38.79568],[-120.00399,38.79569],[-120.00397,38.79569],[-120.00393,38.79568],[-120.0039,38.79567],[-120.00387,38.79564],[-120.00385,38.7956],[-120.00379,38.79549],[-120.00376,38.79545],[-120.00372,38.79542],[-120.00361,38.79534],[-120.00355,38.7953],[-120.00354,38.79529],[-120.00342,38.79523],[-120.00336,38.7952],[-120.00311,38.79508],[-120.00301,38.79505],[-120.00296,38.79503],[-120.00287,38.79499],[-120.00275,38.79495],[-120.00267,38.79492],[-120.00255,38.79487],[-120.00246,38.79483],[-120.00232,38.79476],[-120.00217,38.7947],[-120.00205,38.79465],[-120.00179,38.79455],[-120.00174,38.79452],[-120.0016,38.79447]]}},{"type":"Feature","properties":{"_gpxType":"trk","name":"1438 Matheson Drive, South Lake Tahoe, CA - 2781 S Upper Truckee Rd - S Upper Truckee Rd - S Upper Truckee Rd - S Upper Truckee Rd - Caples Lake Resort, California 88, Kirkwood, CA","coordinateProperties":{},"id":101},"geometry":{"type":"LineString","coordinates":[[-120.0016,38.79447],[-120.00153,38.79444],[-120.00149,38.79442],[-120.00141,38.79438],[-120.00134,38.79434],[-120.00133,38.79434],[-120.00123,38.79428],[-120.00117,38.79423],[-120.00111,38.79416],[-120.00101,38.79409],[-120.00098,38.79406],[-120.00092,38.79402],[-120.00085,38.79395],[-120.0008,38.7939],[-120.00076,38.79385],[-120.00075,38.7938],[-120.00074,38.79378],[-120.00073,38.79371],[-120.00073,38.79359],[-120.00069,38.79345],[-120.00068,38.79342],[-120.00064,38.7933],[-120.0006,38.79321],[-120.00058,38.79313],[-120.00054,38.79297],[-120.00053,38.79292],[-120.00051,38.79278],[-120.00048,38.79259],[-120.00049,38.79246],[-120.00048,38.79239],[-120.00047,38.79224],[-120.00047,38.79221],[-120.00046,38.79206],[-120.00041,38.79193],[-120.00037,38.79187],[-120.0003,38.79179],[-120.00014,38.79164],[-120.00008,38.79158],[-120.00004,38.79156],[-119.99999,38.79149],[-119.99994,38.79143],[-119.99988,38.79133],[-119.99983,38.79117],[-119.9998,38.7911],[-119.9998,38.79108],[-119.99977,38.79099],[-119.99976,38.79095],[-119.99975,38.79091],[-119.99975,38.79087],[-119.99976,38.79085],[-119.9998,38.79079],[-119.99982,38.79075],[-119.9999,38.79066],[-119.99999,38.79056],[-120.00005,38.7905],[-120.00019,38.79034],[-120.00023,38.79028],[-120.00026,38.79021],[-120.00024,38.79011],[-120.0002,38.79001],[-120.00011,38.78997],[-120.00009,38.78996],[-120.00006,38.78994],[-119.99995,38.78982],[-119.99986,38.78974],[-119.99974,38.78969],[-119.99963,38.78965],[-119.99957,38.78963],[-119.99953,38.78962],[-119.99947,38.7896],[-119.99936,38.78956],[-119.99936,38.78956],[-119.99915,38.78994],[-119.99894,38.7903],[-119.99873,38.79067],[-119.99863,38.79087],[-119.99852,38.79109],[-119.99835,38.7914],[-119.99827,38.79152],[-119.99819,38.79165],[-119.9981,38.79179],[-119.99802,38.79189],[-119.99791,38.79202],[-119.99782,38.79213],[-119.9977,38.79226],[-119.99758,38.79238],[-119.99744,38.79251],[-119.99737,38.79258],[-119.9973,38.79265],[-119.99718,38.79276],[-119.997,38.79291],[-119.99684,38.79303],[-119.99668,38.79314],[-119.99655,38.79323],[-119.99639,38.79334],[-119.99623,38.79343],[-119.99605,38.79354],[-119.99589,38.79362],[-119.9957,38.79371],[-119.99546,38.79382],[-119.99525,38.79392],[-119.99505,38.79399],[-119.99486,38.79406],[-119.99467,38.79412],[-119.99451,38.79417],[-119.99432,38.79422],[-119.99405,38.79429],[-119.99376,38.79436],[-119.99345,38.79442],[-119.99303,38.79451],[-119.99284,38.79455],[-119.99265,38.7946],[-119.99247,38.79465],[-119.9923,38.7947],[-119.99216,38.79475],[-119.99202,38.7948],[-119.99184,38.79487],[-119.99166,38.79494],[-119.99154,38.79498],[-119.99088,38.79522],[-119.99066,38.7953],[-119.9905,38.79535],[-119.99037,38.79539],[-119.99022,38.79543],[-119.99005,38.79547],[-119.99003,38.79547],[-119.98985,38.79551],[-119.98967,38.79554],[-119.98949,38.79557],[-119.98932,38.79559],[-119.98914,38.79561],[-119.98892,38.79562],[-119.98877,38.79562],[-119.98861,38.79562],[-119.98838,38.79562],[-119.98822,38.79563],[-119.98815,38.79563],[-119.98796,38.79562],[-119.98779,38.79563],[-119.98761,38.79563],[-119.98745,38.79565],[-119.98729,38.79566],[-119.98715,38.79568],[-119.987,38.79571],[-119.98686,38.79574],[-119.98672,38.79578],[-119.98659,38.79582],[-119.98645,38.79586],[-119.9863,38.79592],[-119.98617,38.79599],[-119.98603,38.79607],[-119.98587,38.79616],[-119.98585,38.79617],[-119.98564,38.79629],[-119.9855,38.79636],[-119.98539,38.79642],[-119.98527,38.79647],[-119.98515,38.79652],[-119.98503,38.79657],[-119.98488,38.79662],[-119.98475,38.79666],[-119.98463,38.79669],[-119.9845,38.79672],[-119.98437,38.79673],[-119.98422,38.79675],[-119.9841,38.79675],[-119.98396,38.79676],[-119.98382,38.79676],[-119.98367,38.79675],[-119.98351,38.79674],[-119.98331,38.79672],[-119.98307,38.7967],[-119.98292,38.79668],[-119.98277,38.79667],[-119.98261,38.79665],[-119.98247,38.79665],[-119.98235,38.79666],[-119.98224,38.79666],[-119.98211,38.79667],[-119.98196,38.79668],[-119.9818,38.7967],[-119.98109,38.79679],[-119.98061,38.79685],[-119.98036,38.79688],[-119.98022,38.79689],[-119.98005,38.79691],[-119.97987,38.79692],[-119.97984,38.79692],[-119.9797,38.79693],[-119.97953,38.79694],[-119.97939,38.79693],[-119.97925,38.79693],[-119.97912,38.79692],[-119.97898,38.79691],[-119.97884,38.79689],[-119.97858,38.79686],[-119.97843,38.79683],[-119.97833,38.79681],[-119.97819,38.79678],[-119.97806,38.79675],[-119.97792,38.79671],[-119.9779,38.79671],[-119.97776,38.79667],[-119.97754,38.79661],[-119.97727,38.79653],[-119.97711,38.79649],[-119.97701,38.79646],[-119.97687,38.79643],[-119.97683,38.79643],[-119.97675,38.79641],[-119.97661,38.79639],[-119.9766,38.79639],[-119.97649,38.79637],[-119.97638,38.79635],[-119.97629,38.79635],[-119.97617,38.79634],[-119.97614,38.79634],[-119.97601,38.79633],[-119.97583,38.79634],[-119.97564,38.79634],[-119.97553,38.79635],[-119.97543,38.79636],[-119.97529,38.79638],[-119.97479,38.79646],[-119.97453,38.79651],[-119.97411,38.79658],[-119.97317,38.79676],[-119.97073,38.79721],[-119.97038,38.79727],[-119.97013,38.79731],[-119.96995,38.79734],[-119.96979,38.79735],[-119.96972,38.79736],[-119.96965,38.79737],[-119.96958,38.79737],[-119.96948,38.79737],[-119.9694,38.79737],[-119.96931,38.79737],[-119.96917,38.79737],[-119.96905,38.79736],[-119.96891,38.79735],[-119.96881,38.79734],[-119.96862,38.79732],[-119.9684,38.79729],[-119.96832,38.79728],[-119.96814,38.79724],[-119.96798,38.79721],[-119.96782,38.79718],[-119.96766,38.79714],[-119.96735,38.79706],[-119.96713,38.797],[-119.9669,38.79694],[-119.96667,38.79687],[-119.96654,38.79683],[-119.96637,38.79678],[-119.96614,38.7967],[-119.966,38.79665],[-119.96586,38.79659],[-119.9658,38.79656],[-119.96574,38.79654],[-119.96535,38.79638],[-119.96473,38.79611],[-119.96447,38.796],[-119.96426,38.79591],[-119.96414,38.79586],[-119.96402,38.79582],[-119.96383,38.79575],[-119.96374,38.79571],[-119.96361,38.79567],[-119.96348,38.79562],[-119.96337,38.79559],[-119.96328,38.79556],[-119.96313,38.79552],[-119.96293,38.79546],[-119.96272,38.7954],[-119.9625,38.79534],[-119.96159,38.79511],[-119.96153,38.7951],[-119.96131,38.79504],[-119.96073,38.79489],[-119.95896,38.79444],[-119.95803,38.79419],[-119.95781,38.79414],[-119.95765,38.7941],[-119.95584,38.79363],[-119.95547,38.79353],[-119.95514,38.79345],[-119.95501,38.79341],[-119.95487,38.79336],[-119.95475,38.79332],[-119.95473,38.79332],[-119.95457,38.79326],[-119.95443,38.79321],[-119.95433,38.79317],[-119.9543,38.79316],[-119.95402,38.79304],[-119.95393,38.79299],[-119.95388,38.79297],[-119.95382,38.79295],[-119.95375,38.79291],[-119.95369,38.79288],[-119.95361,38.79284],[-119.95352,38.79279],[-119.9534,38.79273],[-119.9533,38.79268],[-119.95321,38.79263],[-119.95309,38.79256],[-119.95297,38.79249],[-119.95257,38.79226],[-119.95168,38.79174],[-119.95154,38.79166],[-119.95082,38.79124],[-119.95026,38.79093],[-119.94985,38.79069],[-119.94964,38.79056],[-119.94958,38.79052],[-119.94949,38.79046],[-119.94947,38.79044],[-119.94935,38.79036],[-119.94926,38.7903],[-119.94917,38.79024],[-119.9491,38.79018],[-119.94903,38.79012],[-119.949,38.79011],[-119.94896,38.79007],[-119.94848,38.78969],[-119.94803,38.78934],[-119.94771,38.78908],[-119.94767,38.78905],[-119.9475,38.78892],[-119.94739,38.78883],[-119.94734,38.78879],[-119.94702,38.78853],[-119.94686,38.78841],[-119.94679,38.78835],[-119.94666,38.78825],[-119.94649,38.78811],[-119.94637,38.78802],[-119.94622,38.78793],[-119.94615,38.78788],[-119.94608,38.78784],[-119.946,38.78779],[-119.94593,38.78776],[-119.94591,38.78774],[-119.94588,38.78773],[-119.9458,38.78769],[-119.94571,38.78765],[-119.94564,38.78762],[-119.94551,38.78756],[-119.94543,38.78753],[-119.94534,38.78749],[-119.94531,38.78748],[-119.94525,38.78746],[-119.94517,38.78743],[-119.94508,38.7874],[-119.94498,38.78736],[-119.9449,38.78734],[-119.94481,38.78731],[-119.94472,38.78729],[-119.94464,38.78727],[-119.94457,38.78725],[-119.9445,38.78724],[-119.94441,38.78722],[-119.94427,38.78719],[-119.94422,38.78718],[-119.94415,38.78717],[-119.94408,38.78716],[-119.94398,38.78714],[-119.94391,38.78714],[-119.94384,38.78713],[-119.94374,38.78712],[-119.94363,38.78711],[-119.94353,38.7871],[-119.94342,38.7871],[-119.94334,38.78709],[-119.94327,38.78709],[-119.94313,38.78709],[-119.94302,38.78709],[-119.94294,38.78709],[-119.94285,38.7871],[-119.94279,38.7871],[-119.94267,38.78711],[-119.94262,38.78711],[-119.94256,38.78712],[-119.94246,38.78713],[-119.9424,38.78714],[-119.94232,38.78715],[-119.94225,38.78716],[-119.94217,38.78717],[-119.9421,38.78718],[-119.94202,38.7872],[-119.94188,38.78723],[-119.94172,38.78726],[-119.94162,38.78729],[-119.94152,38.78731],[-119.94136,38.78736],[-119.94117,38.78742],[-119.94088,38.78752],[-119.94086,38.78752],[-119.94057,38.78762],[-119.94023,38.78774],[-119.93988,38.78786],[-119.93955,38.78797],[-119.93916,38.7881],[-119.93909,38.78812],[-119.93874,38.78824],[-119.93848,38.78833],[-119.93832,38.78839],[-119.93818,38.78843],[-119.93777,38.78858],[-119.93769,38.78861],[-119.93759,38.78864],[-119.9374,38.78871],[-119.93728,38.78876],[-119.93727,38.78876],[-119.93714,38.78881],[-119.93701,38.78886],[-119.93689,38.78891],[-119.93675,38.78898],[-119.93666,38.78902],[-119.93654,38.78907],[-119.93644,38.78912],[-119.93636,38.78916],[-119.93626,38.78921],[-119.93616,38.78926],[-119.93606,38.78932],[-119.93597,38.78937],[-119.93589,38.78941],[-119.93576,38.78949],[-119.93558,38.78959],[-119.93526,38.78978],[-119.93515,38.78984],[-119.93485,38.79001],[-119.9344,38.79028],[-119.93411,38.79045],[-119.93396,38.79054],[-119.93364,38.79072],[-119.93274,38.79123],[-119.93252,38.79136],[-119.93235,38.79146],[-119.93191,38.79172],[-119.93113,38.79219],[-119.93047,38.79256],[-119.93037,38.79262],[-119.93023,38.7927],[-119.93011,38.79276],[-119.93004,38.7928],[-119.92995,38.79284],[-119.92987,38.79288],[-119.92978,38.79293],[-119.92968,38.79297],[-119.92966,38.79297],[-119.92958,38.79301],[-119.92947,38.79305],[-119.92946,38.79306],[-119.9294,38.79308],[-119.92929,38.79312],[-119.92913,38.79318],[-119.92895,38.79324],[-119.92877,38.79329],[-119.92862,38.79333],[-119.92844,38.79337],[-119.92832,38.7934],[-119.9283,38.7934],[-119.92822,38.79342],[-119.92807,38.79345],[-119.92796,38.79347],[-119.92785,38.79348],[-119.92775,38.7935],[-119.9276,38.79352],[-119.92748,38.79353],[-119.92736,38.79355],[-119.92722,38.79356],[-119.92706,38.79357],[-119.92691,38.79358],[-119.92678,38.79358],[-119.92665,38.79358],[-119.92649,38.79357],[-119.92629,38.79356],[-119.92576,38.79353],[-119.92509,38.79349],[-119.92496,38.79348],[-119.92454,38.79346],[-119.9244,38.79345],[-119.92415,38.79343],[-119.92387,38.79341],[-119.92376,38.7934],[-119.92365,38.79339],[-119.92354,38.79338],[-119.92348,38.79337],[-119.9234,38.79336],[-119.92334,38.79335],[-119.92325,38.79333],[-119.92317,38.79331],[-119.9231,38.7933],[-119.92304,38.79328],[-119.923,38.79327],[-119.92293,38.79325],[-119.92284,38.79322],[-119.92277,38.7932],[-119.9227,38.79318],[-119.92259,38.79314],[-119.92245,38.79309],[-119.9224,38.79307],[-119.92233,38.79305],[-119.92224,38.79301],[-119.92213,38.79295],[-119.92206,38.79292],[-119.92196,38.79287],[-119.92188,38.79283],[-119.92183,38.7928],[-119.92171,38.79273],[-119.92163,38.79268],[-119.92159,38.79265],[-119.92153,38.79262],[-119.92147,38.79257],[-119.92146,38.79256],[-119.92138,38.79251],[-119.92132,38.79246],[-119.92127,38.79242],[-119.92121,38.79237],[-119.92111,38.79228],[-119.92101,38.79218],[-119.92091,38.79209],[-119.92083,38.792],[-119.92078,38.79194],[-119.92073,38.79187],[-119.92067,38.7918],[-119.92062,38.79173],[-119.92057,38.79166],[-119.92054,38.79162],[-119.92051,38.79157],[-119.92048,38.79152],[-119.92044,38.79146],[-119.92039,38.79136],[-119.92035,38.79128],[-119.92032,38.79121],[-119.92028,38.79113],[-119.92024,38.79103],[-119.92021,38.79094],[-119.92018,38.79084],[-119.92016,38.79076],[-119.92015,38.79071],[-119.92012,38.79061],[-119.92011,38.79055],[-119.9201,38.7905],[-119.92009,38.79044],[-119.92008,38.79034],[-119.92008,38.79028],[-119.92007,38.79021],[-119.92005,38.78994],[-119.92001,38.78941],[-119.91997,38.78891],[-119.91995,38.78876],[-119.91995,38.78873],[-119.91989,38.78801],[-119.91989,38.788],[-119.91979,38.78694],[-119.91973,38.78611],[-119.91968,38.78558],[-119.91965,38.78529],[-119.91964,38.78517],[-119.9196,38.78467],[-119.91949,38.78356],[-119.91945,38.78302],[-119.91941,38.78266],[-119.9194,38.78248],[-119.91939,38.7824],[-119.91934,38.78188],[-119.91929,38.78122],[-119.91925,38.78084],[-119.91924,38.78068],[-119.91919,38.78015],[-119.91919,38.78014],[-119.91908,38.77884],[-119.91899,38.77774],[-119.91891,38.77682],[-119.91887,38.77637],[-119.91887,38.77637],[-119.91931,38.77646],[-119.91946,38.77649],[-119.91982,38.77656],[-119.92005,38.7766],[-119.92025,38.77664],[-119.92044,38.77666],[-119.92067,38.77669],[-119.92087,38.77671],[-119.92102,38.77672],[-119.9212,38.77673],[-119.92141,38.77674],[-119.92153,38.77675],[-119.92157,38.77675],[-119.92165,38.77675],[-119.92173,38.77675],[-119.92181,38.77675],[-119.92194,38.77675],[-119.92203,38.77675],[-119.92211,38.77675],[-119.92224,38.77675],[-119.92232,38.77674],[-119.92247,38.77674],[-119.92268,38.77672],[-119.92306,38.77669],[-119.92318,38.77667],[-119.92319,38.77667],[-119.92323,38.77667],[-119.92335,38.77665],[-119.92345,38.77664],[-119.92354,38.77663],[-119.9237,38.7766],[-119.92382,38.77659],[-119.92389,38.77657],[-119.92403,38.77655],[-119.92414,38.77653],[-119.92433,38.77649],[-119.92446,38.77646],[-119.92457,38.77643],[-119.92481,38.77638],[-119.92491,38.77635],[-119.92506,38.7763],[-119.92518,38.77627],[-119.92538,38.7762],[-119.92609,38.77597],[-119.92695,38.77568],[-119.92825,38.77524],[-119.92859,38.77512],[-119.92887,38.77503],[-119.9291,38.77495],[-119.92932,38.77487],[-119.9294,38.77484],[-119.92957,38.77478],[-119.92972,38.77472],[-119.92987,38.77466],[-119.93006,38.77458],[-119.93034,38.77446],[-119.93051,38.77438],[-119.93065,38.77432],[-119.93084,38.77423],[-119.93097,38.77416],[-119.93108,38.7741],[-119.93123,38.77402],[-119.93141,38.77393],[-119.93142,38.77392],[-119.93164,38.7738],[-119.93184,38.77369],[-119.93197,38.77361],[-119.93224,38.77345],[-119.93235,38.77338],[-119.93249,38.77329],[-119.9327,38.77315],[-119.93277,38.7731],[-119.93291,38.77301],[-119.93302,38.77293],[-119.9331,38.77287],[-119.93319,38.7728],[-119.93348,38.77257],[-119.93394,38.7722],[-119.93446,38.77178],[-119.93475,38.77154],[-119.93496,38.77138],[-119.93511,38.77126],[-119.93531,38.77108],[-119.93547,38.77094],[-119.93554,38.77088],[-119.93563,38.7708],[-119.93572,38.77071],[-119.9358,38.77064],[-119.93593,38.77051],[-119.93601,38.77042],[-119.93613,38.7703],[-119.93623,38.7702],[-119.93632,38.77009],[-119.93644,38.76996],[-119.9365,38.76989],[-119.93659,38.76979],[-119.9367,38.76965],[-119.93678,38.76955],[-119.93678,38.76954],[-119.9369,38.7694],[-119.93692,38.76937],[-119.93736,38.76881],[-119.9378,38.76822],[-119.93806,38.76789],[-119.93841,38.76744],[-119.93892,38.76678],[-119.93904,38.76662],[-119.93923,38.76638],[-119.93968,38.76579],[-119.93997,38.76543],[-119.94017,38.76516],[-119.9404,38.76487],[-119.94054,38.76468],[-119.94071,38.76446],[-119.94086,38.76424],[-119.94093,38.76413],[-119.94096,38.76408],[-119.941,38.76403],[-119.94105,38.76394],[-119.94109,38.76388],[-119.94113,38.76381],[-119.94118,38.76373],[-119.94123,38.76364],[-119.9413,38.76351],[-119.94134,38.76343],[-119.94135,38.76341],[-119.94137,38.76338],[-119.94141,38.76329],[-119.94145,38.76321],[-119.9415,38.76309],[-119.94156,38.76295],[-119.9416,38.76285],[-119.94165,38.76274],[-119.94169,38.76263],[-119.94171,38.76256],[-119.94178,38.76238],[-119.9418,38.76231],[-119.94194,38.7619],[-119.94213,38.76132],[-119.94217,38.76119],[-119.94222,38.76104],[-119.94225,38.76095],[-119.94227,38.76086],[-119.9423,38.76077],[-119.94232,38.76066],[-119.94235,38.76055],[-119.94238,38.7604],[-119.9424,38.7603],[-119.94242,38.76018],[-119.94245,38.76007],[-119.94246,38.75998],[-119.94247,38.75989],[-119.94249,38.75981],[-119.9425,38.75972],[-119.94251,38.75965],[-119.94252,38.75955],[-119.94253,38.75944],[-119.94254,38.75926],[-119.94256,38.75908],[-119.94257,38.75887],[-119.94257,38.75873],[-119.94257,38.75856],[-119.94257,38.75813],[-119.94258,38.75647],[-119.9426,38.75458],[-119.94261,38.75407],[-119.94261,38.7538],[-119.9426,38.75374],[-119.9426,38.75367],[-119.9426,38.75361],[-119.9426,38.75352],[-119.94259,38.75343],[-119.94258,38.75337],[-119.94258,38.75331],[-119.94257,38.75324],[-119.94256,38.75317],[-119.94255,38.75312],[-119.94254,38.75305],[-119.94253,38.75298],[-119.94251,38.75293],[-119.9425,38.75285],[-119.94248,38.75278],[-119.94246,38.7527],[-119.94244,38.75263],[-119.94243,38.75261],[-119.94238,38.75245],[-119.94234,38.75231],[-119.94226,38.75209],[-119.94225,38.75205],[-119.94211,38.75163],[-119.942,38.75132],[-119.94195,38.75115],[-119.9419,38.75101],[-119.94188,38.75094],[-119.94188,38.75093],[-119.94186,38.75082],[-119.94184,38.75073],[-119.94182,38.75061],[-119.94182,38.75058],[-119.94181,38.75052],[-119.9418,38.75043],[-119.94179,38.7504],[-119.94179,38.75033],[-119.94177,38.75015],[-119.94177,38.75007],[-119.94177,38.74999],[-119.94177,38.74994],[-119.94177,38.74989],[-119.94177,38.74984],[-119.94178,38.7498],[-119.94178,38.74973],[-119.9418,38.74965],[-119.94182,38.74954],[-119.94182,38.7495],[-119.94184,38.74944],[-119.94187,38.74931],[-119.94189,38.74921],[-119.94192,38.74913],[-119.94194,38.74907],[-119.94197,38.74897],[-119.942,38.7489],[-119.94203,38.74882],[-119.94209,38.74866],[-119.94217,38.74849],[-119.94221,38.7484],[-119.94225,38.74834],[-119.94229,38.74827],[-119.94237,38.74814],[-119.94245,38.74802],[-119.94253,38.74791],[-119.94257,38.74785],[-119.9426,38.74781],[-119.94267,38.74773],[-119.94272,38.74768],[-119.94275,38.74764],[-119.94295,38.74743],[-119.94303,38.74735],[-119.94306,38.74731],[-119.94311,38.74726],[-119.9434,38.74694],[-119.9435,38.74683],[-119.94353,38.7468],[-119.94367,38.74665],[-119.94443,38.74582],[-119.94568,38.74445],[-119.94595,38.74416],[-119.94608,38.74402],[-119.94622,38.74387],[-119.94639,38.74369],[-119.94676,38.74329],[-119.94683,38.74321],[-119.94733,38.74268],[-119.94796,38.74199],[-119.94797,38.74197],[-119.94909,38.74076],[-119.94979,38.73999],[-119.95033,38.73939],[-119.95049,38.73922],[-119.95065,38.73905],[-119.95076,38.73893],[-119.95079,38.7389],[-119.95114,38.73852],[-119.95133,38.73832],[-119.95149,38.73814],[-119.95184,38.73777],[-119.95187,38.73773],[-119.95214,38.73744],[-119.95235,38.73721],[-119.95246,38.73709],[-119.95258,38.73694],[-119.95263,38.73689],[-119.95271,38.73678],[-119.9528,38.73667],[-119.95284,38.73662],[-119.9529,38.73654],[-119.95293,38.7365],[-119.95296,38.73646],[-119.953,38.73641],[-119.95301,38.73639],[-119.9531,38.73625],[-119.95323,38.73606],[-119.95327,38.73601],[-119.95338,38.73582],[-119.95343,38.73574],[-119.95344,38.73572],[-119.95347,38.73566],[-119.95351,38.73559],[-119.95356,38.7355],[-119.95359,38.73545],[-119.95361,38.73541],[-119.95363,38.73538],[-119.95367,38.73529],[-119.95371,38.7352],[-119.95377,38.73507],[-119.95377,38.73506],[-119.95383,38.73492],[-119.95388,38.73481],[-119.95392,38.73471],[-119.95396,38.7346],[-119.95401,38.73447],[-119.95404,38.73438],[-119.95406,38.73429],[-119.95409,38.73422],[-119.95409,38.73421],[-119.95411,38.73412],[-119.95414,38.73404],[-119.95415,38.73398],[-119.95418,38.73386],[-119.95419,38.73382],[-119.95422,38.73369],[-119.95425,38.73351],[-119.95428,38.73333],[-119.9543,38.73321],[-119.95431,38.73315],[-119.95432,38.73311],[-119.95433,38.73293],[-119.95437,38.73263],[-119.95438,38.73243],[-119.95445,38.73175],[-119.95447,38.73147],[-119.95449,38.73125],[-119.9545,38.73117],[-119.9545,38.73115],[-119.95451,38.73103],[-119.95452,38.73086],[-119.95453,38.73072],[-119.95453,38.73059],[-119.95453,38.73053],[-119.95453,38.73047],[-119.95453,38.73037],[-119.95453,38.73028],[-119.95452,38.73024],[-119.95452,38.73017],[-119.95451,38.73002],[-119.9545,38.72991],[-119.95449,38.72981],[-119.95448,38.72973],[-119.95447,38.72968],[-119.95446,38.72957],[-119.95445,38.72949],[-119.95443,38.72938],[-119.95441,38.72926],[-119.95437,38.72909],[-119.95435,38.72895],[-119.95433,38.72885],[-119.95425,38.72839],[-119.95422,38.72827],[-119.95419,38.72807],[-119.95414,38.72775],[-119.9541,38.72752],[-119.95408,38.72735],[-119.95405,38.72714],[-119.95403,38.72691],[-119.954,38.72656],[-119.95398,38.72616],[-119.95396,38.72562],[-119.95395,38.72514],[-119.95392,38.72437],[-119.95391,38.72386],[-119.9539,38.72368],[-119.95389,38.72342],[-119.95388,38.7226],[-119.95388,38.72247],[-119.95385,38.7217],[-119.95383,38.72098],[-119.95381,38.72026],[-119.95379,38.71943],[-119.95378,38.71878],[-119.95377,38.71846],[-119.95378,38.71835],[-119.95378,38.71823],[-119.95381,38.71789],[-119.95384,38.71764],[-119.95388,38.71741],[-119.95393,38.71719],[-119.95401,38.71686],[-119.9541,38.71658],[-119.95428,38.71607],[-119.95436,38.71586],[-119.9545,38.71551],[-119.95458,38.71529],[-119.95467,38.71505],[-119.95468,38.71502],[-119.95475,38.71484],[-119.95482,38.71465],[-119.95494,38.71436],[-119.95503,38.7141],[-119.95508,38.71398],[-119.95516,38.71377],[-119.95529,38.71344],[-119.95538,38.71319],[-119.95555,38.71275],[-119.95568,38.71241],[-119.95575,38.71223],[-119.95579,38.71211],[-119.95594,38.71172],[-119.95614,38.7112],[-119.95627,38.71085],[-119.95634,38.71068],[-119.95653,38.71016],[-119.9566,38.70999],[-119.9566,38.70998],[-119.95693,38.70913],[-119.9571,38.70869],[-119.95719,38.70844],[-119.95726,38.70827],[-119.95755,38.70749],[-119.9577,38.7071],[-119.95771,38.70706],[-119.95784,38.70673],[-119.95793,38.70652],[-119.95798,38.7064],[-119.95804,38.70628],[-119.95813,38.7061],[-119.95819,38.70598],[-119.95826,38.70584],[-119.95838,38.70564],[-119.95848,38.70549],[-119.95858,38.70533],[-119.95869,38.70517],[-119.95894,38.70482],[-119.95937,38.70423],[-119.95971,38.70376],[-119.96007,38.70328],[-119.96047,38.70271],[-119.96094,38.70207],[-119.96109,38.70186],[-119.96127,38.70162],[-119.96177,38.70092],[-119.96191,38.70073],[-119.96223,38.70029],[-119.96234,38.70014],[-119.96241,38.70003],[-119.96254,38.69987],[-119.96273,38.69962],[-119.96284,38.69949],[-119.9629,38.69943],[-119.96296,38.69937],[-119.96302,38.69932],[-119.9631,38.69926],[-119.96316,38.69922],[-119.96325,38.69916],[-119.96329,38.69914],[-119.96333,38.69911],[-119.96345,38.69905],[-119.96353,38.69901],[-119.96364,38.69897],[-119.96372,38.69894],[-119.96382,38.6989],[-119.96392,38.69888],[-119.96406,38.69884],[-119.96416,38.69882],[-119.96433,38.6988],[-119.96445,38.69879],[-119.96454,38.69878],[-119.96468,38.69878],[-119.96477,38.69879],[-119.96485,38.69879],[-119.96495,38.69881],[-119.96507,38.69882],[-119.96523,38.69886],[-119.96532,38.69888],[-119.96543,38.69891],[-119.96555,38.69895],[-119.96567,38.699],[-119.96572,38.69903],[-119.96582,38.69908],[-119.96605,38.69922],[-119.96612,38.69928],[-119.96618,38.69933],[-119.96627,38.69941],[-119.96635,38.69949],[-119.96641,38.69957],[-119.96646,38.69964],[-119.96647,38.69965],[-119.96653,38.69974],[-119.96656,38.6998],[-119.96658,38.69984],[-119.96662,38.69993],[-119.96665,38.70002],[-119.96668,38.70009],[-119.96669,38.70015],[-119.96669,38.70016],[-119.9667,38.70021],[-119.96672,38.70035],[-119.96672,38.70047],[-119.96672,38.70066],[-119.96672,38.70069],[-119.96672,38.70087],[-119.96671,38.70117],[-119.9667,38.70162],[-119.96669,38.70211],[-119.96668,38.70237],[-119.96669,38.70242],[-119.96669,38.70254],[-119.96671,38.70271],[-119.96672,38.70278],[-119.96672,38.70281],[-119.96674,38.7029],[-119.96677,38.703],[-119.96682,38.70314],[-119.96686,38.70325],[-119.96688,38.70331],[-119.96689,38.70331],[-119.96693,38.70341],[-119.96697,38.70347],[-119.96699,38.70351],[-119.96706,38.70362],[-119.96715,38.70375],[-119.96721,38.70383],[-119.9673,38.70394],[-119.96742,38.70407],[-119.96747,38.70412],[-119.96753,38.70418],[-119.96761,38.70425],[-119.96769,38.70432],[-119.96774,38.70436],[-119.96777,38.70439],[-119.9679,38.70447],[-119.96797,38.70452],[-119.96805,38.70456],[-119.96819,38.70465],[-119.96833,38.70472],[-119.96842,38.70476],[-119.96851,38.7048],[-119.96861,38.70484],[-119.96883,38.70492],[-119.96893,38.70495],[-119.96913,38.70501],[-119.96927,38.70504],[-119.96939,38.70506],[-119.96951,38.70509],[-119.9696,38.7051],[-119.96975,38.70511],[-119.9699,38.70513],[-119.97006,38.70513],[-119.97022,38.70514],[-119.9704,38.70513],[-119.97055,38.70512],[-119.97074,38.7051],[-119.97095,38.70507],[-119.97132,38.70502],[-119.97186,38.70496],[-119.97245,38.70487],[-119.97259,38.70485],[-119.97276,38.70482],[-119.97372,38.70467],[-119.9741,38.70461],[-119.97449,38.70454],[-119.97466,38.70451],[-119.97476,38.70449],[-119.97491,38.70445],[-119.97531,38.70431],[-119.97581,38.70416],[-119.97601,38.7041],[-119.97673,38.70383],[-119.97775,38.70339],[-119.97823,38.70319],[-119.9787,38.70302],[-119.97897,38.70294],[-119.979,38.70293],[-119.97921,38.70288],[-119.97947,38.70283],[-119.97971,38.70281],[-119.97993,38.70279],[-119.98009,38.70278],[-119.98057,38.70278],[-119.98135,38.70279],[-119.98196,38.7028],[-119.98218,38.70281],[-119.98233,38.7028],[-119.98259,38.70279],[-119.98296,38.70275],[-119.98324,38.7027],[-119.98338,38.70267],[-119.98362,38.70261],[-119.98387,38.70253],[-119.98411,38.70243],[-119.98442,38.70231],[-119.98491,38.70213],[-119.98536,38.70197],[-119.9855,38.70193],[-119.98558,38.70189],[-119.98586,38.70175],[-119.98609,38.7016],[-119.98621,38.7015],[-119.98631,38.70141],[-119.98643,38.7013],[-119.98659,38.70106],[-119.98665,38.70095],[-119.98669,38.70084],[-119.98672,38.70074],[-119.98674,38.70061],[-119.98675,38.70048],[-119.98674,38.70037],[-119.98673,38.70026],[-119.9867,38.7001],[-119.98665,38.69993],[-119.98659,38.69979],[-119.98653,38.69967],[-119.98635,38.69944],[-119.98619,38.69926],[-119.98608,38.69914],[-119.98563,38.69871],[-119.98533,38.69839],[-119.98524,38.69829],[-119.9852,38.69823],[-119.98514,38.6981],[-119.98511,38.69803],[-119.98509,38.69792],[-119.98507,38.69782],[-119.98505,38.6977],[-119.98504,38.69758],[-119.98504,38.69743],[-119.98503,38.69614],[-119.98503,38.69612],[-119.98504,38.69556],[-119.98504,38.69524],[-119.98505,38.69508],[-119.98505,38.69497],[-119.98507,38.69489],[-119.9851,38.69478],[-119.98517,38.69464],[-119.98527,38.69446],[-119.98533,38.6944],[-119.98536,38.69435],[-119.98541,38.69431],[-119.98547,38.69425],[-119.98552,38.69421],[-119.98559,38.69416],[-119.9857,38.69408],[-119.98585,38.69399],[-119.98599,38.69391],[-119.98613,38.69384],[-119.98626,38.69379],[-119.9864,38.69375],[-119.9865,38.69373],[-119.98661,38.6937],[-119.98675,38.69368],[-119.9869,38.69366],[-119.98694,38.69366],[-119.98703,38.69366],[-119.98715,38.69366],[-119.98727,38.69366],[-119.98742,38.69368],[-119.9875,38.69369],[-119.98762,38.69371],[-119.98769,38.69373],[-119.98784,38.69376],[-119.98802,38.69383],[-119.98819,38.69391],[-119.98841,38.69406],[-119.98861,38.69422],[-119.98868,38.69429],[-119.9887,38.69432],[-119.9888,38.69444],[-119.98891,38.6946],[-119.98911,38.69489],[-119.98919,38.69502],[-119.98931,38.69521],[-119.98953,38.69556],[-119.98958,38.69564],[-119.98967,38.69575],[-119.98969,38.69577],[-119.98977,38.69586],[-119.98989,38.69596],[-119.98999,38.69603],[-119.99009,38.6961],[-119.99024,38.69618],[-119.99032,38.69621],[-119.99037,38.69623],[-119.9904,38.69624],[-119.99046,38.69626],[-119.9905,38.69627],[-119.99057,38.69629],[-119.99061,38.6963],[-119.99066,38.69631],[-119.99073,38.69632],[-119.99082,38.69634],[-119.99086,38.69634],[-119.99092,38.69634],[-119.99094,38.69634],[-119.99097,38.69634],[-119.99104,38.69634],[-119.9911,38.69634],[-119.99115,38.69634],[-119.99127,38.69632],[-119.99137,38.69631],[-119.99147,38.69629],[-119.99164,38.69623],[-119.99165,38.69623],[-119.99184,38.69614],[-119.99216,38.69597],[-119.99327,38.69537],[-119.99342,38.69529],[-119.99351,38.69525],[-119.99371,38.69516],[-119.99397,38.69507],[-119.99399,38.69506],[-119.99414,38.69501],[-119.99431,38.69496],[-119.99464,38.69487],[-119.99466,38.69487],[-119.99498,38.69478],[-119.99664,38.6943],[-119.99715,38.69414],[-119.99723,38.69412],[-119.99737,38.69409],[-119.99747,38.69407],[-119.99757,38.69406],[-119.99768,38.69405],[-119.99776,38.69405],[-119.99795,38.69405],[-119.99805,38.69406],[-119.99814,38.69408],[-119.99826,38.6941],[-119.99839,38.69414],[-119.99856,38.69419],[-119.99871,38.69426],[-119.99882,38.69431],[-119.99891,38.69437],[-119.99902,38.69445],[-119.99913,38.69454],[-119.99922,38.69462],[-119.99936,38.69479],[-119.99955,38.69505],[-119.99967,38.69522],[-119.99977,38.69534],[-119.99991,38.69549],[-120.00008,38.69563],[-120.00022,38.69573],[-120.00036,38.69583],[-120.00049,38.6959],[-120.00056,38.69595],[-120.0006,38.69597],[-120.00149,38.69641],[-120.00215,38.69673],[-120.00275,38.69702],[-120.00295,38.69711],[-120.00303,38.69714],[-120.00334,38.69723],[-120.0035,38.69726],[-120.00364,38.69728],[-120.00378,38.6973],[-120.00387,38.69731],[-120.00399,38.69731],[-120.0042,38.6973],[-120.00438,38.69729],[-120.00455,38.69726],[-120.00471,38.69723],[-120.00488,38.69719],[-120.00503,38.69714],[-120.0052,38.69707],[-120.00532,38.69702],[-120.0055,38.69694],[-120.00601,38.69671],[-120.0062,38.69664],[-120.00635,38.69658],[-120.0066,38.69652],[-120.00675,38.69649],[-120.00683,38.69648],[-120.00695,38.69647],[-120.00707,38.69646],[-120.00727,38.69644],[-120.00739,38.69644],[-120.00753,38.69645],[-120.00766,38.69646],[-120.00777,38.69647],[-120.00795,38.6965],[-120.00809,38.69653],[-120.00822,38.69656],[-120.00837,38.6966],[-120.00848,38.69663],[-120.00858,38.69668],[-120.00869,38.69672],[-120.00876,38.69676],[-120.00887,38.69681],[-120.00903,38.69689],[-120.00923,38.69701],[-120.00929,38.69705],[-120.00977,38.69734],[-120.01001,38.69749],[-120.01086,38.698],[-120.01093,38.69804],[-120.01109,38.69813],[-120.01122,38.6982],[-120.01137,38.69826],[-120.01149,38.6983],[-120.01171,38.69836],[-120.01191,38.6984],[-120.01206,38.69842],[-120.01224,38.69844],[-120.01245,38.69846],[-120.0128,38.69848],[-120.01295,38.69849],[-120.01304,38.6985],[-120.01319,38.69852],[-120.01333,38.69855],[-120.01339,38.69855],[-120.0136,38.69861],[-120.01381,38.69867],[-120.01399,38.69874],[-120.01421,38.69885],[-120.01437,38.69894],[-120.01455,38.69904],[-120.01461,38.69907],[-120.01479,38.69917],[-120.01492,38.69923],[-120.01514,38.69931],[-120.01528,38.69936],[-120.01536,38.69938],[-120.01543,38.6994],[-120.01556,38.69943],[-120.01558,38.69944],[-120.01568,38.69946],[-120.01583,38.69948],[-120.01597,38.6995],[-120.01608,38.69951],[-120.01621,38.69951],[-120.01637,38.69952],[-120.01666,38.69952],[-120.01721,38.69951],[-120.01758,38.6995],[-120.01785,38.69949],[-120.01806,38.6995],[-120.01819,38.69952],[-120.0183,38.69953],[-120.01855,38.69958],[-120.01872,38.69963],[-120.01887,38.69968],[-120.01915,38.69978],[-120.0195,38.69992],[-120.0198,38.70005],[-120.01981,38.70005],[-120.02005,38.70015],[-120.02042,38.70029],[-120.02066,38.70036],[-120.02088,38.70041],[-120.02108,38.70044],[-120.0211,38.70044],[-120.02121,38.70046],[-120.02131,38.70046],[-120.02138,38.70047],[-120.02149,38.70047],[-120.02162,38.70046],[-120.02176,38.70045],[-120.02188,38.70044],[-120.02199,38.70042],[-120.02202,38.70042],[-120.02214,38.70039],[-120.02237,38.70034],[-120.02243,38.70032],[-120.02265,38.70026],[-120.02267,38.70025],[-120.02283,38.70021],[-120.023,38.70016],[-120.02318,38.70013],[-120.0233,38.70012],[-120.02414,38.70005],[-120.02428,38.70003],[-120.02442,38.70001],[-120.02476,38.69991],[-120.02508,38.69981],[-120.02529,38.69974],[-120.0256,38.69964],[-120.02615,38.69947],[-120.02622,38.69945],[-120.02654,38.69936],[-120.0267,38.69933],[-120.02681,38.69932],[-120.02687,38.69931],[-120.02703,38.6993],[-120.02704,38.6993],[-120.02708,38.6993],[-120.02721,38.6993],[-120.02732,38.6993],[-120.02745,38.69931],[-120.02749,38.69932],[-120.02761,38.69933],[-120.02783,38.69937],[-120.028,38.69941],[-120.02832,38.6995],[-120.02837,38.69951],[-120.02838,38.69951],[-120.02848,38.69954],[-120.02863,38.69956],[-120.02873,38.69957],[-120.0288,38.69957],[-120.02918,38.6996],[-120.02924,38.69961],[-120.02936,38.69963],[-120.02945,38.69964],[-120.02958,38.69967],[-120.02984,38.69973],[-120.02989,38.69975],[-120.03015,38.69983],[-120.03042,38.69991],[-120.03064,38.69997],[-120.03122,38.70011],[-120.03168,38.70022],[-120.03198,38.70028],[-120.03218,38.70033],[-120.03237,38.70039],[-120.03253,38.70044],[-120.03286,38.70058],[-120.03321,38.70075],[-120.0333,38.70079],[-120.03341,38.70085],[-120.0338,38.70104],[-120.03399,38.70114],[-120.03418,38.70124],[-120.0344,38.70135],[-120.03459,38.70146],[-120.03475,38.70156],[-120.03492,38.70167],[-120.03493,38.70167],[-120.03509,38.70179],[-120.03518,38.70185],[-120.03526,38.70191],[-120.03533,38.70196],[-120.03542,38.70204],[-120.03548,38.7021],[-120.03557,38.70218],[-120.03568,38.70228],[-120.03571,38.70232],[-120.03586,38.70246],[-120.036,38.7026],[-120.03602,38.70261],[-120.03616,38.70273],[-120.03625,38.70282],[-120.03636,38.7029],[-120.03658,38.70304],[-120.03669,38.70312],[-120.03679,38.7032],[-120.03688,38.70327],[-120.03697,38.70334],[-120.03717,38.70346],[-120.03778,38.70376],[-120.0378,38.70379],[-120.03781,38.70379],[-120.03788,38.70383],[-120.03811,38.70395],[-120.03826,38.70404],[-120.03841,38.70414],[-120.03849,38.7042],[-120.03854,38.70425],[-120.03862,38.70436],[-120.03876,38.7045],[-120.03883,38.70457],[-120.03909,38.70491],[-120.03919,38.70502],[-120.03937,38.70524],[-120.03945,38.70532],[-120.03954,38.70543],[-120.03979,38.70564],[-120.04006,38.70584],[-120.04017,38.70593],[-120.04033,38.70602],[-120.04057,38.70615],[-120.04073,38.70621],[-120.04088,38.70626],[-120.04104,38.70629],[-120.04118,38.70633],[-120.04147,38.70638],[-120.04157,38.70639],[-120.04188,38.7064],[-120.04239,38.70644],[-120.04276,38.70646],[-120.04304,38.70649],[-120.04327,38.70654],[-120.04344,38.70659],[-120.04354,38.70664],[-120.0437,38.70672],[-120.04382,38.7068],[-120.04399,38.70691],[-120.04408,38.70698],[-120.04412,38.70701],[-120.04429,38.70715],[-120.04453,38.70739],[-120.04462,38.70746],[-120.04463,38.70747],[-120.04467,38.70748],[-120.04486,38.70765],[-120.04505,38.70779],[-120.04521,38.70789],[-120.04538,38.708],[-120.04564,38.70812],[-120.04586,38.70821],[-120.04587,38.70821],[-120.04606,38.70827],[-120.04607,38.70828],[-120.04618,38.70831],[-120.04716,38.70857],[-120.04738,38.70863],[-120.0476,38.70869],[-120.04769,38.70871],[-120.04781,38.70873],[-120.04793,38.70875],[-120.048,38.70875],[-120.04805,38.70875],[-120.04806,38.70875],[-120.04817,38.70875],[-120.04828,38.70874],[-120.04829,38.70874],[-120.04836,38.70872],[-120.04841,38.70871],[-120.04848,38.70869],[-120.04852,38.70867],[-120.04858,38.70865],[-120.04866,38.7086],[-120.0487,38.70858],[-120.04875,38.70854],[-120.04879,38.70851],[-120.04883,38.70848],[-120.04892,38.70838],[-120.04898,38.70831],[-120.04899,38.7083],[-120.0491,38.70815],[-120.04921,38.708],[-120.04948,38.70761],[-120.04951,38.70756],[-120.04957,38.70745],[-120.04965,38.70731],[-120.04976,38.70712],[-120.04992,38.7068],[-120.05028,38.70612],[-120.05028,38.70611],[-120.05042,38.70585],[-120.05045,38.70578],[-120.05046,38.70578],[-120.05072,38.7053],[-120.0508,38.70517],[-120.05091,38.70503],[-120.05091,38.70503],[-120.05084,38.70492],[-120.05081,38.70477],[-120.05081,38.70474],[-120.05081,38.70462],[-120.05082,38.70456],[-120.05083,38.70444],[-120.05089,38.70417],[-120.05093,38.70402],[-120.05097,38.70392],[-120.05098,38.70385],[-120.05098,38.70384],[-120.05098,38.70377],[-120.05096,38.70371],[-120.05096,38.70366],[-120.05098,38.70363],[-120.05098,38.70362],[-120.05099,38.70361],[-120.051,38.70361],[-120.05104,38.7036]]}}]}