{"type":"FeatureCollection","features":[{"type":"Feature","properties":{"_gpxType":"trk","name":"2500 El Vita Way, Carmichael, CA - Putah Creek Cafe, East Main Street, Winters, CA - 4127 Putah Creek Rd","coordinateProperties":{},"id":105},"geometry":{"type":"LineString","coordinates":[[-121.33392,38.6101],[-121.33392,38.60988],[-121.33392,38.60988],[-121.33449,38.60988],[-121.33519,38.60989],[-121.33524,38.60989],[-121.3358,38.60989],[-121.33593,38.6099],[-121.33613,38.6099],[-121.33679,38.60991],[-121.3373,38.60992],[-121.33762,38.60992],[-121.33784,38.60992],[-121.3379,38.60993],[-121.33846,38.60993],[-121.33865,38.60994],[-121.33897,38.60994],[-121.33965,38.60995],[-121.34014,38.60995],[-121.34031,38.60995],[-121.34055,38.60996],[-121.34141,38.60998],[-121.34263,38.60999],[-121.34305,38.60997],[-121.34363,38.61],[-121.34422,38.61001],[-121.34457,38.61002],[-121.34468,38.61002],[-121.34489,38.61],[-121.34514,38.61002],[-121.34541,38.61003],[-121.34555,38.61003],[-121.34564,38.61003],[-121.34573,38.61003],[-121.34604,38.61003],[-121.3464,38.61003],[-121.34668,38.61003],[-121.34696,38.61003],[-121.34716,38.61004],[-121.34722,38.61004],[-121.34749,38.61004],[-121.34822,38.61005],[-121.3486,38.61006],[-121.34892,38.61007],[-121.35001,38.61008],[-121.35116,38.61009],[-121.35189,38.6101],[-121.35216,38.6101],[-121.35319,38.61012],[-121.35356,38.61012],[-121.35371,38.61012],[-121.35385,38.61012],[-121.3542,38.61012],[-121.35454,38.61013],[-121.35469,38.61013],[-121.35527,38.61013],[-121.35605,38.61014],[-121.35622,38.61015],[-121.35669,38.61016],[-121.35792,38.61017],[-121.35815,38.61017],[-121.35838,38.61018],[-121.35846,38.61018],[-121.3593,38.61019],[-121.3599,38.61019],[-121.35999,38.6102],[-121.36119,38.61021],[-121.36232,38.61023],[-121.36329,38.61023],[-121.36335,38.61028],[-121.36336,38.61028],[-121.36367,38.61029],[-121.36398,38.61029],[-121.36453,38.6103],[-121.36538,38.61031],[-121.36585,38.61031],[-121.36605,38.61026],[-121.36684,38.61028],[-121.36744,38.61028],[-121.36752,38.61028],[-121.36788,38.61028],[-121.36846,38.6103],[-121.36906,38.61031],[-121.36964,38.61031],[-121.36998,38.61031],[-121.37097,38.61033],[-121.37201,38.61034],[-121.37306,38.61035],[-121.37411,38.61037],[-121.37418,38.61037],[-121.37517,38.61037],[-121.37612,38.61039],[-121.3766,38.6104],[-121.3767,38.6104],[-121.37723,38.6104],[-121.37785,38.61041],[-121.37798,38.61046],[-121.37807,38.61046],[-121.37824,38.61047],[-121.37855,38.61047],[-121.37934,38.61048],[-121.37996,38.61049],[-121.38018,38.61049],[-121.3802,38.61049],[-121.38077,38.6105],[-121.38102,38.6105],[-121.38149,38.6105],[-121.38174,38.61051],[-121.3821,38.61051],[-121.38228,38.61051],[-121.38286,38.61051],[-121.38306,38.61051],[-121.38338,38.61052],[-121.38383,38.61053],[-121.38397,38.61053],[-121.38413,38.61053],[-121.38433,38.61053],[-121.38461,38.61054],[-121.3849,38.61054],[-121.38512,38.61054],[-121.38544,38.61055],[-121.38611,38.61055],[-121.3862,38.61055],[-121.38631,38.61051],[-121.38676,38.61052],[-121.38712,38.61053],[-121.38746,38.61053],[-121.38784,38.61053],[-121.38802,38.61053],[-121.3889,38.61055],[-121.38945,38.61055],[-121.38992,38.61056],[-121.39154,38.61058],[-121.39157,38.61058],[-121.39177,38.61058],[-121.39185,38.61058],[-121.39192,38.61058],[-121.39223,38.61059],[-121.3925,38.61059],[-121.3928,38.61059],[-121.39318,38.6106],[-121.39329,38.6106],[-121.39342,38.6106],[-121.39367,38.6106],[-121.39409,38.61061],[-121.39434,38.61061],[-121.39458,38.61061],[-121.39495,38.61062],[-121.39515,38.61062],[-121.39559,38.61062],[-121.39585,38.61063],[-121.39592,38.61063],[-121.39661,38.61063],[-121.39737,38.61064],[-121.39756,38.61064],[-121.39766,38.61065],[-121.39794,38.61065],[-121.39839,38.61065],[-121.39868,38.61065],[-121.39896,38.61066],[-121.39932,38.61067],[-121.39955,38.61067],[-121.39972,38.61067],[-121.40023,38.61068],[-121.40033,38.61068],[-121.4007,38.61068],[-121.40088,38.61068],[-121.40118,38.61068],[-121.40142,38.61068],[-121.40158,38.61069],[-121.402,38.61069],[-121.40221,38.61069],[-121.40239,38.6107],[-121.40259,38.6107],[-121.40276,38.6107],[-121.40293,38.6107],[-121.40307,38.6107],[-121.40354,38.61071],[-121.40421,38.61072],[-121.40444,38.61072],[-121.40521,38.61073],[-121.40549,38.61073],[-121.40561,38.61073],[-121.40608,38.61074],[-121.40623,38.61074],[-121.40681,38.61075],[-121.40693,38.61075],[-121.40706,38.61076],[-121.40723,38.61075],[-121.4074,38.61076],[-121.40749,38.61076],[-121.40795,38.61077],[-121.40808,38.61076],[-121.40827,38.61077],[-121.40862,38.61077],[-121.40895,38.61077],[-121.40939,38.61078],[-121.40958,38.61078],[-121.40968,38.61078],[-121.40978,38.61079],[-121.40993,38.61078],[-121.41019,38.61079],[-121.41041,38.61079],[-121.41072,38.61079],[-121.41083,38.61079],[-121.41094,38.61079],[-121.41118,38.6108],[-121.41126,38.6108],[-121.41142,38.6108],[-121.41145,38.6108],[-121.41163,38.6108],[-121.41245,38.61081],[-121.41313,38.61082],[-121.41327,38.61082],[-121.41344,38.61082],[-121.41354,38.61082],[-121.4141,38.61083],[-121.41444,38.61083],[-121.41475,38.61083],[-121.41528,38.61084],[-121.41541,38.61084],[-121.41564,38.61085],[-121.41571,38.61085],[-121.41589,38.61085],[-121.41596,38.61085],[-121.41612,38.61085],[-121.41644,38.61085],[-121.41653,38.61085],[-121.41665,38.61085],[-121.41702,38.61086],[-121.41763,38.61088],[-121.41793,38.61088],[-121.41858,38.61088],[-121.41906,38.61089],[-121.41949,38.6109],[-121.41961,38.6109],[-121.41997,38.61092],[-121.42005,38.61093],[-121.42006,38.61093],[-121.42015,38.61095],[-121.42022,38.61096],[-121.42032,38.61098],[-121.42044,38.611],[-121.42053,38.61102],[-121.42066,38.61104],[-121.4207,38.61105],[-121.42074,38.61105],[-121.42078,38.61105],[-121.42091,38.61107],[-121.42099,38.61107],[-121.42104,38.61108],[-121.42108,38.61108],[-121.42111,38.61108],[-121.42117,38.61108],[-121.4213,38.61108],[-121.42137,38.61108],[-121.42177,38.61109],[-121.42194,38.61109],[-121.42208,38.61109],[-121.42213,38.61109],[-121.42224,38.61109],[-121.42244,38.61109],[-121.42261,38.61109],[-121.42281,38.61109],[-121.42288,38.61109],[-121.42308,38.6111],[-121.42344,38.61109],[-121.42368,38.6111],[-121.42392,38.6111],[-121.42415,38.61111],[-121.42444,38.61112],[-121.42459,38.61112],[-121.42522,38.61117],[-121.42546,38.61119],[-121.42548,38.61119],[-121.42561,38.61119],[-121.42577,38.6112],[-121.4258,38.6112],[-121.42598,38.6112],[-121.42609,38.6112],[-121.42617,38.6112],[-121.42644,38.6112],[-121.42665,38.6112],[-121.42678,38.6112],[-121.42683,38.6112],[-121.42688,38.6112],[-121.4269,38.6112],[-121.42691,38.6112],[-121.42693,38.6112],[-121.42709,38.61121],[-121.42713,38.61121],[-121.42717,38.61121],[-121.42734,38.61121],[-121.42737,38.61121],[-121.42769,38.6112],[-121.42815,38.61116],[-121.42861,38.61114],[-121.42916,38.61111],[-121.42999,38.6111],[-121.43037,38.61111],[-121.43152,38.6111],[-121.43195,38.6111],[-121.4324,38.61109],[-121.43287,38.61104],[-121.43357,38.61094],[-121.43393,38.6109],[-121.43403,38.61089],[-121.43408,38.61089],[-121.43426,38.61088],[-121.43451,38.61086],[-121.43469,38.61085],[-121.43474,38.61085],[-121.43477,38.61085],[-121.4348,38.61085],[-121.43506,38.61084],[-121.43527,38.61083],[-121.43537,38.61083],[-121.43542,38.61083],[-121.43552,38.61083],[-121.43575,38.61084],[-121.43591,38.61084],[-121.43598,38.61084],[-121.43621,38.61085],[-121.43632,38.61086],[-121.43654,38.61087],[-121.43664,38.61088],[-121.43678,38.61089],[-121.43696,38.61091],[-121.43709,38.61092],[-121.43733,38.61095],[-121.43747,38.61097],[-121.43755,38.61098],[-121.43758,38.61098],[-121.43769,38.611],[-121.43778,38.61101],[-121.43811,38.61105],[-121.43834,38.61108],[-121.43841,38.61109],[-121.4388,38.61111],[-121.43924,38.61112],[-121.44113,38.61112],[-121.44159,38.61114],[-121.44197,38.61114],[-121.44263,38.61113],[-121.44274,38.61113],[-121.4429,38.61113],[-121.44316,38.61113],[-121.44328,38.61113],[-121.44344,38.61113],[-121.44389,38.61114],[-121.44426,38.61114],[-121.44434,38.61114],[-121.4446,38.61113],[-121.44491,38.61113],[-121.44503,38.61113],[-121.44564,38.61113],[-121.44565,38.61113],[-121.44575,38.61113],[-121.44619,38.61112],[-121.44642,38.61112],[-121.4467,38.61112],[-121.44685,38.61112],[-121.447,38.61112],[-121.44737,38.61111],[-121.44756,38.61112],[-121.44758,38.61112],[-121.44762,38.61111],[-121.44779,38.61111],[-121.44785,38.61111],[-121.44792,38.61111],[-121.44796,38.61111],[-121.44818,38.61111],[-121.44849,38.61111],[-121.44861,38.61112],[-121.44882,38.61113],[-121.44941,38.61112],[-121.44951,38.61113],[-121.44958,38.61113],[-121.44975,38.61113],[-121.44986,38.61113],[-121.44999,38.61113],[-121.45017,38.61113],[-121.45039,38.61112],[-121.45083,38.61112],[-121.45122,38.61113],[-121.45217,38.61113],[-121.45307,38.61113],[-121.45317,38.61113],[-121.45619,38.61113],[-121.45646,38.61113],[-121.45688,38.61114],[-121.45706,38.61114],[-121.45725,38.61114],[-121.45739,38.61114],[-121.4576,38.61113],[-121.45776,38.61113],[-121.45776,38.61113],[-121.45777,38.61105],[-121.45781,38.61101],[-121.45784,38.61099],[-121.45788,38.61098],[-121.45793,38.61097],[-121.45803,38.61097],[-121.45808,38.61097],[-121.45814,38.61095],[-121.45817,38.61094],[-121.45849,38.61076],[-121.4587,38.61065],[-121.45896,38.6105],[-121.45936,38.61028],[-121.45951,38.6102],[-121.46008,38.60991],[-121.46032,38.60978],[-121.46048,38.60969],[-121.46089,38.60948],[-121.46112,38.60935],[-121.46172,38.60902],[-121.46229,38.60872],[-121.46246,38.60863],[-121.46248,38.60862],[-121.46305,38.60832],[-121.46322,38.60822],[-121.46323,38.60822],[-121.46341,38.60812],[-121.46342,38.60812],[-121.4636,38.60802],[-121.46379,38.60792],[-121.4638,38.60792],[-121.46401,38.60781],[-121.46417,38.60772],[-121.46428,38.60766],[-121.46431,38.60764],[-121.46438,38.6076],[-121.46486,38.60735],[-121.46505,38.60724],[-121.46524,38.60714],[-121.46543,38.60704],[-121.46562,38.60694],[-121.46619,38.60663],[-121.46641,38.60651],[-121.46656,38.60643],[-121.46658,38.60642],[-121.46662,38.6064],[-121.46666,38.60638],[-121.46666,38.60637],[-121.46668,38.60637],[-121.46675,38.60633],[-121.46675,38.60632],[-121.46677,38.60631],[-121.46685,38.60627],[-121.46712,38.60612],[-121.46724,38.60605],[-121.46753,38.60588],[-121.46772,38.60575],[-121.46782,38.60568],[-121.46786,38.60566],[-121.46788,38.60566],[-121.46793,38.60567],[-121.46798,38.60567],[-121.46801,38.60567],[-121.46805,38.60566],[-121.46841,38.60552],[-121.4685,38.60548],[-121.46852,38.60547],[-121.46867,38.60539],[-121.46869,38.60538],[-121.46887,38.60528],[-121.46905,38.60518],[-121.46906,38.60517],[-121.46982,38.60476],[-121.4702,38.60456],[-121.47085,38.60421],[-121.47186,38.60367],[-121.4719,38.60364],[-121.47206,38.60356],[-121.47226,38.60344],[-121.47236,38.60335],[-121.47245,38.60326],[-121.47253,38.60316],[-121.47261,38.60302],[-121.47263,38.60297],[-121.47267,38.60288],[-121.47268,38.6028],[-121.4727,38.60274],[-121.47271,38.60261],[-121.47269,38.60245],[-121.47269,38.60244],[-121.47264,38.60229],[-121.47256,38.60211],[-121.4724,38.60191],[-121.47222,38.60166],[-121.4722,38.60163],[-121.47215,38.60154],[-121.47211,38.60147],[-121.47207,38.60136],[-121.47204,38.6013],[-121.47197,38.60113],[-121.47191,38.60097],[-121.47179,38.60069],[-121.47175,38.60057],[-121.47173,38.60046],[-121.47174,38.60043],[-121.47175,38.60036],[-121.47178,38.60026],[-121.47185,38.59999],[-121.47188,38.59991],[-121.47188,38.59991],[-121.47201,38.60005],[-121.47207,38.60012],[-121.47211,38.60019],[-121.47214,38.60024],[-121.47217,38.60028],[-121.4722,38.60032],[-121.47223,38.60036],[-121.47227,38.6004],[-121.4723,38.60043],[-121.47234,38.60046],[-121.47239,38.60052],[-121.47245,38.60059],[-121.4725,38.60066],[-121.47254,38.60072],[-121.47257,38.60076],[-121.4726,38.6008],[-121.47263,38.60085],[-121.47266,38.60088],[-121.47269,38.60093],[-121.47272,38.60097],[-121.47274,38.60101],[-121.47277,38.60106],[-121.47279,38.60108],[-121.47281,38.60112],[-121.47283,38.60116],[-121.47286,38.6012],[-121.47289,38.60124],[-121.47291,38.60127],[-121.47293,38.6013],[-121.47295,38.60132],[-121.47298,38.60135],[-121.47301,38.60139],[-121.47303,38.6014],[-121.47305,38.60143],[-121.47308,38.60146],[-121.47312,38.6015],[-121.47315,38.60154],[-121.47318,38.60159],[-121.47322,38.60164],[-121.47325,38.60167],[-121.47327,38.6017],[-121.47329,38.60175],[-121.47333,38.6018],[-121.47336,38.60186],[-121.47341,38.60194],[-121.47344,38.60199],[-121.47346,38.60202],[-121.47348,38.60207],[-121.4735,38.60211],[-121.47352,38.60216],[-121.47355,38.60221],[-121.47356,38.60223],[-121.47357,38.60227],[-121.47358,38.60231],[-121.47358,38.60235],[-121.47358,38.60239],[-121.47358,38.60244],[-121.47357,38.60249],[-121.47356,38.60253],[-121.47355,38.60261],[-121.47354,38.60266],[-121.47354,38.6027],[-121.47352,38.60278],[-121.47351,38.60286],[-121.4735,38.60293],[-121.47348,38.60301],[-121.47347,38.60306],[-121.47346,38.60311],[-121.47345,38.60317],[-121.47343,38.60322],[-121.47341,38.60326],[-121.47339,38.6033],[-121.47337,38.60334],[-121.47335,38.60338],[-121.47333,38.60341],[-121.47329,38.60347],[-121.47327,38.6035],[-121.47327,38.60351],[-121.47323,38.60358],[-121.47318,38.60363],[-121.4731,38.60373],[-121.47302,38.60383],[-121.47296,38.6039],[-121.47293,38.60395],[-121.47291,38.60397],[-121.4729,38.60399],[-121.47289,38.60402],[-121.47289,38.60405],[-121.47289,38.60408],[-121.47289,38.6041],[-121.4729,38.60412],[-121.47291,38.60414],[-121.47291,38.60415],[-121.47292,38.60418],[-121.47293,38.6042],[-121.47294,38.6042],[-121.47294,38.60421],[-121.47295,38.60422],[-121.47296,38.60423],[-121.47298,38.60423],[-121.473,38.60424],[-121.47301,38.60424],[-121.47304,38.60424],[-121.47306,38.60423],[-121.47307,38.60423],[-121.47312,38.60422],[-121.47316,38.60421],[-121.47318,38.6042],[-121.47322,38.6042],[-121.47325,38.60419],[-121.47328,38.60419],[-121.47331,38.60418],[-121.47336,38.60418],[-121.47342,38.60418],[-121.47349,38.60418],[-121.47355,38.60419],[-121.47361,38.60419],[-121.47366,38.6042],[-121.47373,38.60422],[-121.47379,38.60423],[-121.47386,38.60424],[-121.4739,38.60425],[-121.47396,38.60425],[-121.47402,38.60425],[-121.47408,38.60423],[-121.47415,38.60422],[-121.47424,38.60421],[-121.47432,38.60422],[-121.47441,38.60422],[-121.47447,38.60422],[-121.47452,38.60422],[-121.47459,38.60422],[-121.47465,38.60422],[-121.4747,38.60422],[-121.47476,38.60421],[-121.47483,38.6042],[-121.47487,38.60419],[-121.47492,38.60419],[-121.47498,38.60418],[-121.47503,38.60417],[-121.47503,38.60417],[-121.47508,38.60419],[-121.47513,38.6042],[-121.47515,38.6042],[-121.47518,38.60422],[-121.47522,38.60424],[-121.47525,38.60426],[-121.47526,38.60428],[-121.47529,38.60431],[-121.47531,38.60432],[-121.47533,38.60433],[-121.47535,38.60435],[-121.47537,38.60436],[-121.4754,38.60437],[-121.47543,38.60438],[-121.47548,38.60439],[-121.47551,38.6044],[-121.47554,38.60441],[-121.47557,38.60441],[-121.4756,38.60442],[-121.47562,38.60442],[-121.47564,38.60442],[-121.47568,38.60441],[-121.47571,38.6044],[-121.47573,38.60439],[-121.47574,38.60438],[-121.47576,38.60436],[-121.47578,38.60434],[-121.4758,38.60432],[-121.47583,38.60428],[-121.47585,38.60425],[-121.47588,38.60423],[-121.47591,38.60421],[-121.47595,38.60419],[-121.47595,38.60419],[-121.47605,38.6042],[-121.47608,38.60421],[-121.47618,38.60423],[-121.47633,38.60427],[-121.47661,38.60434],[-121.47683,38.60439],[-121.4769,38.60441],[-121.47695,38.60442],[-121.47705,38.60444],[-121.47722,38.60447],[-121.47742,38.60452],[-121.47756,38.60457],[-121.4776,38.6046],[-121.47762,38.60462],[-121.47765,38.60467],[-121.47769,38.60476],[-121.4777,38.60479],[-121.47771,38.60484],[-121.47774,38.60495],[-121.47776,38.60506],[-121.4778,38.60512],[-121.47784,38.60515],[-121.47787,38.60516],[-121.47787,38.60517],[-121.47796,38.60521],[-121.47803,38.60523],[-121.47814,38.60525],[-121.47843,38.60528],[-121.47854,38.6053],[-121.47868,38.60534],[-121.47874,38.60537],[-121.47921,38.60555],[-121.47945,38.60565],[-121.47988,38.60584],[-121.48035,38.60606],[-121.48036,38.60607],[-121.48044,38.6061],[-121.48057,38.60615],[-121.48078,38.60622],[-121.48094,38.60628],[-121.48114,38.60635],[-121.48118,38.60637],[-121.4812,38.60637],[-121.48148,38.60647],[-121.48162,38.60652],[-121.48181,38.60658],[-121.48198,38.60667],[-121.48215,38.60673],[-121.48249,38.60684],[-121.48288,38.60698],[-121.48315,38.60703],[-121.48342,38.60707],[-121.48379,38.60713],[-121.48425,38.60716],[-121.48439,38.60717],[-121.48461,38.60718],[-121.48475,38.60719],[-121.48499,38.60722],[-121.48536,38.60729],[-121.48557,38.60732],[-121.48569,38.60734],[-121.4859,38.60736],[-121.48614,38.60737],[-121.48626,38.60737],[-121.48644,38.60737],[-121.48667,38.60739],[-121.48687,38.60742],[-121.48703,38.60744],[-121.48716,38.60747],[-121.48717,38.60747],[-121.48718,38.60747],[-121.48733,38.60749],[-121.48753,38.60752],[-121.48767,38.60753],[-121.48785,38.60752],[-121.48786,38.60752],[-121.48832,38.60754],[-121.48845,38.60755],[-121.48875,38.60755],[-121.48876,38.60755],[-121.48894,38.60756],[-121.48913,38.60759],[-121.48934,38.60761],[-121.48951,38.60762],[-121.48967,38.60764],[-121.48986,38.60766],[-121.48991,38.60766],[-121.49015,38.60768],[-121.4902,38.60769],[-121.4903,38.60769],[-121.49038,38.6077],[-121.4905,38.60773],[-121.49062,38.60777],[-121.4908,38.60779],[-121.49099,38.6078],[-121.491,38.6078],[-121.49107,38.60779],[-121.49112,38.60778],[-121.49112,38.60778],[-121.49112,38.60777],[-121.49121,38.60775],[-121.49129,38.60772],[-121.49137,38.60767],[-121.4914,38.60765],[-121.49162,38.6075],[-121.49174,38.6074],[-121.49201,38.60719],[-121.4923,38.60693],[-121.49243,38.60675],[-121.49253,38.60652],[-121.49259,38.60631],[-121.49259,38.60629],[-121.49262,38.60614],[-121.49262,38.60611],[-121.49264,38.60599],[-121.49265,38.60589],[-121.49265,38.6058],[-121.49264,38.60568],[-121.49262,38.60551],[-121.49257,38.60526],[-121.49256,38.60525],[-121.49255,38.60522],[-121.49251,38.60504],[-121.49245,38.60483],[-121.49245,38.60453],[-121.49245,38.60448],[-121.49245,38.60444],[-121.49247,38.6044],[-121.49248,38.60437],[-121.49249,38.60435],[-121.49252,38.60433],[-121.49255,38.6043],[-121.49259,38.60428],[-121.49264,38.60426],[-121.49267,38.60425],[-121.4927,38.60425],[-121.49278,38.60424],[-121.4929,38.60424],[-121.49293,38.60424],[-121.49313,38.60423],[-121.4933,38.60422],[-121.49382,38.60419],[-121.49391,38.60418],[-121.49405,38.60416],[-121.49414,38.60415],[-121.49427,38.60413],[-121.49449,38.60409],[-121.49453,38.60408],[-121.49472,38.60405],[-121.49538,38.60393],[-121.49539,38.60392],[-121.49558,38.60389],[-121.49562,38.60388],[-121.49568,38.60385],[-121.49575,38.60378],[-121.49587,38.60365],[-121.49593,38.60359],[-121.49598,38.60355],[-121.49601,38.60353],[-121.49605,38.6035],[-121.49609,38.60349],[-121.49611,38.60348],[-121.49614,38.60348],[-121.4962,38.60349],[-121.49626,38.6035],[-121.49631,38.60352],[-121.49645,38.60359],[-121.49667,38.6037],[-121.49681,38.60378],[-121.49695,38.60388],[-121.49712,38.60405],[-121.49731,38.60428],[-121.49746,38.60448],[-121.49753,38.60458],[-121.49759,38.60465],[-121.49768,38.60472],[-121.49778,38.60477],[-121.49785,38.6048],[-121.49788,38.60481],[-121.49796,38.60482],[-121.49806,38.60483],[-121.4981,38.60483],[-121.49829,38.60481],[-121.49833,38.60481],[-121.49869,38.60477],[-121.49895,38.60475],[-121.49928,38.60475],[-121.49972,38.60475],[-121.49994,38.60477],[-121.50017,38.60479],[-121.50036,38.60481],[-121.5004,38.60481],[-121.50051,38.6048],[-121.50059,38.60479],[-121.50062,38.60478],[-121.50067,38.60477],[-121.5008,38.60472],[-121.50109,38.60455],[-121.5012,38.60449],[-121.50145,38.60433],[-121.50202,38.60395],[-121.50232,38.60371],[-121.50249,38.60358],[-121.50258,38.60353],[-121.50265,38.6035],[-121.50271,38.60348],[-121.50281,38.60345],[-121.50296,38.60342],[-121.50304,38.60341],[-121.50313,38.6034],[-121.50326,38.6034],[-121.50342,38.60338],[-121.50358,38.60338],[-121.50372,38.60337],[-121.50373,38.60337],[-121.50384,38.60336],[-121.5039,38.60336],[-121.50399,38.60336],[-121.5041,38.60335],[-121.50429,38.60332],[-121.50441,38.60328],[-121.50466,38.60318],[-121.50473,38.60314],[-121.50479,38.6031],[-121.5048,38.60309],[-121.50482,38.60308],[-121.50486,38.60304],[-121.50489,38.60302],[-121.50491,38.603],[-121.50495,38.60297],[-121.50499,38.60293],[-121.50504,38.60287],[-121.50509,38.60282],[-121.50511,38.60281],[-121.50515,38.60276],[-121.50519,38.6027],[-121.50524,38.60264],[-121.50526,38.60261],[-121.50527,38.60257],[-121.50528,38.60254],[-121.50528,38.60251],[-121.50528,38.60246],[-121.50526,38.60242],[-121.50514,38.6022],[-121.5051,38.60211],[-121.50502,38.60191],[-121.50499,38.60183],[-121.50499,38.60182],[-121.50498,38.60175],[-121.50499,38.60168],[-121.505,38.60165],[-121.505,38.60162],[-121.50503,38.60154],[-121.50506,38.60147],[-121.50511,38.60138],[-121.50515,38.60132],[-121.50516,38.60131],[-121.50518,38.60129],[-121.50521,38.60126],[-121.50525,38.60124],[-121.50526,38.60123],[-121.50534,38.6012],[-121.50536,38.6012],[-121.50544,38.60118],[-121.50545,38.60118],[-121.50546,38.60118],[-121.50547,38.60117],[-121.50548,38.60117],[-121.50554,38.60117],[-121.50561,38.60118],[-121.5057,38.6012],[-121.50583,38.60122],[-121.50596,38.60122],[-121.50602,38.60122],[-121.50604,38.60122],[-121.50617,38.60122],[-121.50625,38.60121],[-121.50633,38.6012],[-121.50638,38.60119],[-121.50643,38.60117],[-121.50648,38.60114],[-121.50655,38.6011],[-121.50662,38.60103],[-121.50663,38.60101],[-121.50702,38.60059],[-121.50704,38.60058],[-121.50706,38.60056],[-121.50711,38.60052],[-121.50715,38.6005],[-121.50718,38.60047],[-121.50722,38.60045],[-121.50725,38.60043],[-121.5073,38.60041],[-121.50732,38.6004],[-121.50735,38.6004],[-121.50739,38.6004],[-121.50742,38.60041],[-121.50745,38.60041],[-121.50749,38.60043],[-121.50751,38.60044],[-121.50755,38.60046],[-121.50759,38.60048],[-121.5076,38.60048],[-121.50764,38.60051],[-121.50766,38.60053],[-121.50769,38.60054],[-121.50773,38.60057],[-121.50777,38.6006],[-121.50779,38.60061],[-121.50782,38.60064],[-121.50784,38.60066],[-121.50786,38.60068],[-121.50788,38.6007],[-121.50789,38.60072],[-121.50789,38.60074],[-121.5079,38.60076],[-121.5079,38.60077],[-121.50789,38.60081],[-121.50787,38.60084],[-121.50785,38.60087],[-121.50783,38.60089],[-121.5078,38.6009],[-121.50778,38.60091],[-121.50776,38.60092],[-121.50774,38.60093],[-121.50771,38.60094],[-121.50764,38.60096],[-121.5076,38.60098],[-121.5076,38.60098],[-121.50744,38.60083],[-121.50716,38.60059],[-121.50709,38.60052],[-121.50701,38.60045],[-121.50683,38.60029],[-121.50678,38.60024],[-121.50663,38.6001],[-121.50654,38.60002],[-121.50648,38.59997],[-121.50638,38.59988],[-121.50633,38.59983],[-121.50626,38.59977],[-121.50618,38.5997],[-121.50608,38.59961],[-121.50603,38.59956],[-121.50593,38.59947],[-121.50588,38.59942],[-121.50581,38.59936],[-121.50578,38.59933],[-121.50558,38.59915],[-121.50546,38.59904],[-121.50537,38.59896],[-121.50531,38.5989],[-121.50516,38.59876],[-121.50516,38.59876],[-121.50526,38.59869],[-121.50538,38.59857],[-121.50552,38.59844],[-121.50569,38.5983],[-121.50577,38.59822],[-121.50577,38.59821],[-121.50584,38.59814],[-121.50595,38.59802],[-121.50606,38.59786],[-121.50624,38.59761],[-121.50636,38.59745],[-121.50639,38.59741],[-121.50654,38.5972],[-121.50684,38.59676],[-121.50687,38.59669],[-121.5069,38.59661],[-121.50692,38.59653],[-121.50692,38.59647],[-121.50692,38.59641],[-121.5069,38.5963],[-121.5069,38.59629],[-121.50687,38.59618],[-121.50684,38.59608],[-121.50677,38.59588],[-121.50669,38.59566],[-121.50663,38.59546],[-121.50658,38.59526],[-121.50658,38.59525],[-121.50653,38.5951],[-121.50653,38.59508],[-121.50648,38.59492],[-121.50648,38.5949],[-121.50646,38.59479],[-121.50643,38.59465],[-121.50641,38.59452],[-121.5064,38.59426],[-121.50639,38.59397],[-121.50638,38.59389],[-121.50636,38.59382],[-121.50635,38.59377],[-121.50633,38.59371],[-121.50632,38.59364],[-121.5063,38.59353],[-121.50627,38.59344],[-121.50624,38.59334],[-121.50617,38.59319],[-121.50611,38.59307],[-121.506,38.59282],[-121.50595,38.59272],[-121.50593,38.59264],[-121.5059,38.59253],[-121.50586,38.59241],[-121.50576,38.59207],[-121.50576,38.59205],[-121.50572,38.59191],[-121.5057,38.59188],[-121.50565,38.5918],[-121.50553,38.59157],[-121.50545,38.59138],[-121.50543,38.59135],[-121.50542,38.59131],[-121.50538,38.59121],[-121.50536,38.59117],[-121.50534,38.59103],[-121.50531,38.59085],[-121.50529,38.59075],[-121.50525,38.59032],[-121.50525,38.5903],[-121.5052,38.59],[-121.50511,38.58971],[-121.50506,38.58952],[-121.50506,38.58952],[-121.50488,38.58955],[-121.50488,38.58955],[-121.50484,38.58947],[-121.50483,38.58944],[-121.5048,38.58938],[-121.5048,38.58936],[-121.50475,38.5892],[-121.50474,38.58909],[-121.50474,38.58901],[-121.50474,38.58883],[-121.50477,38.58842],[-121.50478,38.58824],[-121.50478,38.58818],[-121.50479,38.588],[-121.5048,38.58781],[-121.50481,38.58764],[-121.50482,38.58746],[-121.50482,38.58743],[-121.50483,38.5871],[-121.50483,38.58703],[-121.50484,38.58692],[-121.50485,38.58656],[-121.50486,38.58623],[-121.50487,38.58611],[-121.50487,38.58606],[-121.50488,38.58602],[-121.50489,38.58598],[-121.5049,38.58593],[-121.50491,38.58589],[-121.50493,38.58585],[-121.50493,38.58585],[-121.50506,38.58589],[-121.50515,38.58592],[-121.50523,38.58595],[-121.5053,38.58597],[-121.50539,38.586],[-121.5055,38.58604],[-121.50574,38.5861],[-121.50575,38.5861],[-121.50597,38.58616],[-121.50618,38.58621],[-121.50619,38.58621],[-121.50639,38.58626],[-121.5064,38.58626],[-121.50641,38.58626],[-121.50662,38.58632],[-121.50663,38.58632],[-121.50684,38.58638],[-121.50703,38.58643],[-121.50706,38.58644],[-121.50727,38.5865],[-121.50763,38.58659],[-121.50771,38.58662],[-121.50799,38.58669],[-121.50813,38.58673],[-121.50815,38.58674],[-121.50827,38.58677],[-121.50838,38.58682],[-121.50847,38.58686],[-121.50857,38.5869],[-121.50863,38.58695],[-121.50868,38.58698],[-121.50873,38.58703],[-121.50875,38.58704],[-121.50884,38.58713],[-121.5089,38.58723],[-121.50896,38.58734],[-121.50898,38.58746],[-121.50901,38.58762],[-121.50903,38.58784],[-121.50906,38.58798],[-121.50911,38.58808],[-121.50916,38.58816],[-121.5092,38.5882],[-121.50925,38.58825],[-121.50931,38.5883],[-121.50933,38.58832],[-121.50939,38.58836],[-121.50949,38.5884],[-121.50949,38.5884],[-121.50959,38.58841],[-121.51003,38.58846],[-121.51055,38.58852],[-121.51105,38.58858],[-121.51142,38.58863],[-121.51194,38.5887],[-121.51268,38.5888],[-121.51282,38.58881],[-121.51342,38.58888],[-121.51347,38.58889],[-121.5135,38.58888],[-121.51356,38.58888],[-121.51365,38.58886],[-121.51372,38.58885],[-121.5138,38.58883],[-121.51384,38.58881],[-121.51399,38.58875],[-121.51399,38.58875],[-121.51409,38.58868],[-121.51416,38.58862],[-121.51425,38.5885],[-121.51431,38.58832],[-121.51434,38.58825],[-121.51435,38.58822],[-121.51437,38.58819],[-121.51438,38.58816],[-121.51441,38.58814],[-121.51446,38.58807],[-121.51447,38.58807],[-121.51452,38.58802],[-121.5146,38.58795],[-121.51467,38.58791],[-121.51475,38.58787],[-121.51491,38.58782],[-121.51491,38.58782],[-121.51573,38.58787],[-121.51617,38.58792],[-121.51656,38.58797],[-121.51687,38.588],[-121.51709,38.58803],[-121.51728,38.58807],[-121.51743,38.58811],[-121.51759,38.58817],[-121.51766,38.5882],[-121.51776,38.58825],[-121.51807,38.58838],[-121.5182,38.58841],[-121.51835,38.58845],[-121.51846,38.58848],[-121.51866,38.58852],[-121.51903,38.58858],[-121.51983,38.58872],[-121.52008,38.58876],[-121.52026,38.5888],[-121.5207,38.58885],[-121.52123,38.58889],[-121.52162,38.58893],[-121.52245,38.58903],[-121.52297,38.5891],[-121.52461,38.5893],[-121.52485,38.58931],[-121.52505,38.58933],[-121.52531,38.58937],[-121.52596,38.58946],[-121.52625,38.5895],[-121.52645,38.58953],[-121.52683,38.58958],[-121.5272,38.58962],[-121.52749,38.58967],[-121.52758,38.58967],[-121.52763,38.58967],[-121.52779,38.58963],[-121.52788,38.58964],[-121.52796,38.58966],[-121.5282,38.58969],[-121.52835,38.58971],[-121.52923,38.58983],[-121.53026,38.58997],[-121.53113,38.59006],[-121.53161,38.59013],[-121.53204,38.59016],[-121.53256,38.5902],[-121.53269,38.59021],[-121.53345,38.59022],[-121.53405,38.59025],[-121.53438,38.59026],[-121.53615,38.5905],[-121.53675,38.59058],[-121.53709,38.59062],[-121.5374,38.59066],[-121.5375,38.59067],[-121.53764,38.59068],[-121.53771,38.59069],[-121.53794,38.59072],[-121.53801,38.59072],[-121.53872,38.59081],[-121.53912,38.59087],[-121.53928,38.59089],[-121.53981,38.59095],[-121.54007,38.59099],[-121.5402,38.591],[-121.54042,38.59103],[-121.54216,38.59126],[-121.54237,38.59129],[-121.54239,38.59129],[-121.54285,38.59134],[-121.54297,38.59136],[-121.54343,38.59142],[-121.54382,38.59146],[-121.54382,38.59146],[-121.54405,38.59148],[-121.54421,38.59149],[-121.54441,38.59151],[-121.54497,38.59155],[-121.54503,38.59159],[-121.54513,38.59163],[-121.5453,38.59164],[-121.5453,38.59164],[-121.54531,38.59152],[-121.54534,38.59127],[-121.54536,38.59114],[-121.54537,38.59103],[-121.54539,38.59091],[-121.54542,38.59075],[-121.54545,38.59064],[-121.54551,38.59042],[-121.54565,38.58995],[-121.54566,38.58994],[-121.54571,38.58977],[-121.54582,38.58943],[-121.54592,38.58916],[-121.54595,38.58905],[-121.5463,38.58801],[-121.54636,38.58784],[-121.54642,38.58766],[-121.5466,38.58704],[-121.54669,38.58669],[-121.54684,38.58617],[-121.54693,38.58584],[-121.54693,38.58581],[-121.54692,38.58563],[-121.54701,38.58534],[-121.54712,38.58499],[-121.54725,38.58464],[-121.54735,38.58432],[-121.54737,38.58426],[-121.54749,38.58389],[-121.54751,38.58383],[-121.54757,38.58364],[-121.54767,38.58336],[-121.54771,38.58324],[-121.54785,38.58281],[-121.54795,38.5825],[-121.54805,38.58219],[-121.54806,38.58217],[-121.54824,38.58162],[-121.54828,38.58151],[-121.54836,38.58125],[-121.54839,38.58116],[-121.54848,38.58091],[-121.54854,38.58072],[-121.54864,38.58042],[-121.54866,38.58031],[-121.54867,38.58026],[-121.5487,38.5801],[-121.5487,38.58002],[-121.54867,38.57931],[-121.54868,38.5792],[-121.54869,38.57886],[-121.54869,38.57862],[-121.54869,38.57859],[-121.5487,38.57812],[-121.5487,38.57802],[-121.5487,38.57796],[-121.54871,38.57782],[-121.54873,38.5778],[-121.54874,38.5778],[-121.54875,38.57779],[-121.54875,38.57778],[-121.54876,38.57776],[-121.54878,38.57754],[-121.54878,38.57743],[-121.54879,38.57726],[-121.54879,38.57713],[-121.5488,38.57692],[-121.5488,38.57657],[-121.54877,38.57631],[-121.54877,38.57621],[-121.54876,38.57584],[-121.54876,38.57548],[-121.54875,38.57525],[-121.54875,38.57523],[-121.54875,38.57514],[-121.54874,38.57496],[-121.54874,38.57493],[-121.54874,38.57476],[-121.54874,38.57475],[-121.54874,38.57474],[-121.54874,38.57468],[-121.54874,38.57432],[-121.54874,38.57414],[-121.54873,38.57399],[-121.54873,38.57375],[-121.54874,38.57366],[-121.54872,38.57306],[-121.54872,38.57257],[-121.54873,38.57243],[-121.54872,38.57196],[-121.54872,38.57196],[-121.54889,38.57196],[-121.54929,38.57196],[-121.54966,38.57196],[-121.55011,38.57196],[-121.55041,38.57196],[-121.55054,38.57197],[-121.55065,38.57198],[-121.55086,38.57203],[-121.55095,38.57206],[-121.55106,38.5721],[-121.55117,38.57216],[-121.55133,38.57228],[-121.55136,38.5723],[-121.55232,38.57306],[-121.55258,38.57319],[-121.55266,38.57323],[-121.55278,38.57327],[-121.55288,38.5733],[-121.5529,38.5733],[-121.55299,38.57332],[-121.55308,38.57334],[-121.55321,38.57335],[-121.55333,38.57335],[-121.55344,38.57334],[-121.55346,38.57334],[-121.55352,38.57334],[-121.55366,38.57331],[-121.55394,38.57322],[-121.55394,38.57321],[-121.55408,38.57315],[-121.55417,38.5731],[-121.55427,38.57303],[-121.55459,38.57275],[-121.55459,38.57275],[-121.55479,38.57287],[-121.55488,38.57293],[-121.55496,38.57297],[-121.55505,38.57301],[-121.55516,38.57307],[-121.5553,38.57313],[-121.55536,38.57316],[-121.55555,38.57324],[-121.55556,38.57324],[-121.55568,38.57329],[-121.55582,38.57334],[-121.55589,38.57336],[-121.55603,38.57341],[-121.55615,38.57345],[-121.55627,38.57348],[-121.55629,38.57348],[-121.5564,38.57351],[-121.55643,38.57351],[-121.55659,38.57355],[-121.55663,38.57356],[-121.55681,38.57359],[-121.55701,38.57362],[-121.55719,38.57364],[-121.55725,38.57365],[-121.5574,38.57366],[-121.55756,38.57367],[-121.5578,38.57368],[-121.55793,38.57368],[-121.55816,38.57368],[-121.55843,38.57368],[-121.55849,38.57368],[-121.55896,38.57368],[-121.5595,38.57368],[-121.55972,38.57367],[-121.56023,38.57367],[-121.56032,38.57367],[-121.56151,38.57366],[-121.56157,38.57366],[-121.56266,38.57366],[-121.56324,38.57364],[-121.5633,38.57364],[-121.56346,38.57364],[-121.56366,38.57363],[-121.5638,38.57362],[-121.56404,38.57361],[-121.56424,38.57359],[-121.56446,38.57356],[-121.56454,38.57355],[-121.5646,38.57354],[-121.56484,38.57351],[-121.56504,38.57347],[-121.56559,38.57336],[-121.56601,38.57326],[-121.5661,38.57324],[-121.56618,38.57321],[-121.56632,38.57317],[-121.56633,38.57317],[-121.56658,38.57309],[-121.56665,38.57306],[-121.56697,38.57296],[-121.5672,38.57289],[-121.56774,38.57269],[-121.56789,38.57264],[-121.56801,38.57265],[-121.56839,38.57253],[-121.5687,38.57243],[-121.56945,38.57217],[-121.57148,38.57149],[-121.57215,38.57126],[-121.57223,38.57123],[-121.57234,38.5712],[-121.57295,38.571],[-121.57327,38.5709],[-121.57347,38.57084],[-121.57366,38.57079],[-121.57388,38.57073],[-121.57408,38.57068],[-121.57417,38.57066],[-121.57473,38.57054],[-121.57518,38.57046],[-121.57527,38.57044],[-121.57581,38.57036],[-121.57614,38.57032],[-121.5763,38.5703],[-121.57634,38.57029],[-121.57657,38.57027],[-121.57697,38.57024],[-121.57735,38.57022],[-121.57744,38.57022],[-121.57769,38.57021],[-121.57771,38.57021],[-121.57837,38.5702],[-121.57837,38.5702],[-121.57839,38.57091],[-121.57841,38.57115],[-121.57842,38.57124],[-121.57842,38.57133],[-121.57841,38.57143],[-121.5784,38.57153],[-121.57838,38.57168],[-121.57835,38.57179],[-121.57825,38.57219],[-121.57793,38.57291],[-121.57787,38.57304],[-121.57782,38.57314],[-121.57782,38.57314],[-121.57774,38.57331],[-121.57751,38.57386],[-121.57737,38.57417],[-121.57736,38.5742],[-121.57724,38.57445],[-121.57723,38.57447],[-121.57723,38.57449],[-121.57718,38.57458],[-121.57717,38.5746],[-121.57715,38.57466],[-121.57714,38.57468],[-121.5771,38.57476],[-121.57708,38.57479],[-121.57705,38.57483],[-121.57701,38.57487],[-121.57698,38.5749],[-121.57695,38.57492],[-121.57688,38.57498],[-121.57679,38.57504],[-121.57672,38.57508],[-121.57664,38.57512],[-121.57654,38.57516],[-121.57642,38.5752],[-121.57611,38.5753],[-121.57611,38.5753],[-121.57595,38.57536],[-121.57546,38.57552],[-121.57546,38.57552],[-121.5755,38.57561],[-121.57559,38.57579],[-121.57559,38.57579],[-121.5757,38.57576],[-121.57583,38.5757],[-121.57585,38.57569],[-121.57586,38.57568],[-121.57587,38.57566],[-121.57588,38.57564],[-121.57591,38.57548],[-121.57591,38.57548],[-121.57602,38.57545],[-121.57613,38.57541],[-121.57634,38.57534],[-121.5765,38.57529],[-121.57667,38.57523],[-121.57671,38.57521],[-121.57674,38.57519],[-121.57674,38.57519],[-121.57676,38.57519],[-121.57683,38.57519],[-121.57686,38.57518],[-121.57689,38.57518],[-121.57692,38.57517],[-121.57698,38.57514],[-121.57718,38.57505],[-121.57718,38.57505],[-121.57723,38.57511],[-121.57725,38.57513],[-121.57726,38.57515],[-121.57729,38.57516],[-121.57731,38.57518],[-121.57732,38.57519],[-121.57734,38.57519],[-121.57737,38.5752],[-121.57739,38.57521],[-121.57742,38.57521],[-121.57744,38.57522],[-121.57745,38.57522],[-121.57747,38.57522],[-121.5775,38.57522],[-121.57752,38.57522],[-121.57756,38.57521],[-121.57759,38.57521],[-121.57761,38.5752],[-121.57765,38.57519],[-121.57766,38.57519],[-121.57768,38.57518],[-121.57786,38.57509],[-121.57813,38.57493],[-121.57844,38.57473],[-121.5785,38.57469],[-121.57853,38.57467],[-121.57858,38.57464],[-121.57861,38.57463],[-121.57868,38.5746],[-121.57882,38.57454],[-121.579,38.57449],[-121.57905,38.57448],[-121.57919,38.57444],[-121.57935,38.57441],[-121.57973,38.57432],[-121.58038,38.57419],[-121.58039,38.57419],[-121.58046,38.57418],[-121.58057,38.57415],[-121.58087,38.57409],[-121.58149,38.57396],[-121.58153,38.57395],[-121.58157,38.57394],[-121.5817,38.57391],[-121.58174,38.5739],[-121.5818,38.57389],[-121.58186,38.57388],[-121.58189,38.57388],[-121.58191,38.57387],[-121.58193,38.57386],[-121.58196,38.57385],[-121.58204,38.57382],[-121.58216,38.57378],[-121.58222,38.57376],[-121.58223,38.57375],[-121.58234,38.57372],[-121.58235,38.57372],[-121.58245,38.57369],[-121.58279,38.57362],[-121.58288,38.5736],[-121.58313,38.57354],[-121.58323,38.57352],[-121.58332,38.57351],[-121.58363,38.57345],[-121.58368,38.57344],[-121.58377,38.57343],[-121.58422,38.57335],[-121.58444,38.57331],[-121.58458,38.57328],[-121.58467,38.57327],[-121.58548,38.57312],[-121.58693,38.57286],[-121.58803,38.57266],[-121.58842,38.57259],[-121.5896,38.57239],[-121.58974,38.57236],[-121.59052,38.57222],[-121.59121,38.5721],[-121.59131,38.57208],[-121.59213,38.57193],[-121.59288,38.57179],[-121.59635,38.57118],[-121.59723,38.57103],[-121.60045,38.57045],[-121.60167,38.57022],[-121.60194,38.57017],[-121.60328,38.56994],[-121.60342,38.56991],[-121.60401,38.56981],[-121.60499,38.56964],[-121.60521,38.56959],[-121.6053,38.56958],[-121.6057,38.56951],[-121.60575,38.5695],[-121.6064,38.56938],[-121.60715,38.56925],[-121.60723,38.56923],[-121.60732,38.56922],[-121.60864,38.56898],[-121.60889,38.56894],[-121.60902,38.56891],[-121.60911,38.5689],[-121.60988,38.56876],[-121.61068,38.56862],[-121.61095,38.56857],[-121.61136,38.5685],[-121.61149,38.56847],[-121.61158,38.56846],[-121.61173,38.56843],[-121.6118,38.56842],[-121.61194,38.56839],[-121.61203,38.56838],[-121.61243,38.56831],[-121.61253,38.56829],[-121.6127,38.56826],[-121.61284,38.56824],[-121.61293,38.56822],[-121.61315,38.56818],[-121.61329,38.56816],[-121.61338,38.56814],[-121.61405,38.56803],[-121.61472,38.56791],[-121.61531,38.56781],[-121.61532,38.56781],[-121.6154,38.56779],[-121.61598,38.56769],[-121.61607,38.56768],[-121.6163,38.56764],[-121.61674,38.56756],[-121.61697,38.56752],[-121.61756,38.56742],[-121.61832,38.56729],[-121.61845,38.56726],[-121.61911,38.56714],[-121.6192,38.56713],[-121.61921,38.56713],[-121.61924,38.56712],[-121.61936,38.5671],[-121.61966,38.56704],[-121.62008,38.56695],[-121.62011,38.56695],[-121.62033,38.56691],[-121.62035,38.5669],[-121.62078,38.56683],[-121.62113,38.56676],[-121.62162,38.56668],[-121.62268,38.56648],[-121.62335,38.56636],[-121.62416,38.56622],[-121.62478,38.56613],[-121.62572,38.56595],[-121.62683,38.56574],[-121.62706,38.5657],[-121.6275,38.56562],[-121.62764,38.56559],[-121.62773,38.56558],[-121.62795,38.56553],[-121.62809,38.56551],[-121.62827,38.56547],[-121.62885,38.56537],[-121.62898,38.56534],[-121.62907,38.56532],[-121.62929,38.56528],[-121.62943,38.56526],[-121.62952,38.56524],[-121.6296,38.56522],[-121.62974,38.5652],[-121.62997,38.56516],[-121.63033,38.5651],[-121.63086,38.56501],[-121.63108,38.56497],[-121.63148,38.56489],[-121.63182,38.56483],[-121.63243,38.56472],[-121.63286,38.56465],[-121.63311,38.5646],[-121.63316,38.56459],[-121.63355,38.56452],[-121.63369,38.5645],[-121.63378,38.56448],[-121.63396,38.56445],[-121.63468,38.56432],[-121.6349,38.56428],[-121.63512,38.56424],[-121.6353,38.56421],[-121.63535,38.5642],[-121.63557,38.56417],[-121.6358,38.56413],[-121.63602,38.56409],[-121.63638,38.56403],[-121.63638,38.56402],[-121.63647,38.56401],[-121.63653,38.564],[-121.6366,38.56398],[-121.63684,38.56394],[-121.63687,38.56394],[-121.63704,38.5639],[-121.63707,38.5639],[-121.6371,38.56389],[-121.63713,38.56389],[-121.63726,38.56386],[-121.63731,38.56386],[-121.63732,38.56385],[-121.63749,38.56382],[-121.63754,38.56382],[-121.63754,38.56381],[-121.63759,38.56381],[-121.63777,38.56377],[-121.63778,38.56377],[-121.63794,38.56374],[-121.63802,38.56373],[-121.63809,38.56372],[-121.63816,38.5637],[-121.63836,38.56366],[-121.63837,38.56366],[-121.63837,38.56367],[-121.63838,38.56367],[-121.63838,38.56368],[-121.63838,38.56369],[-121.63838,38.56373],[-121.63838,38.56384],[-121.63838,38.5639],[-121.63838,38.56391],[-121.63837,38.56402],[-121.63837,38.5642],[-121.63835,38.56492],[-121.63835,38.56507],[-121.63839,38.56527],[-121.63847,38.56544],[-121.63858,38.5656],[-121.63858,38.5656],[-121.6385,38.56557],[-121.63843,38.56551],[-121.63841,38.56549],[-121.63835,38.56544],[-121.63829,38.56539],[-121.63823,38.56534],[-121.63815,38.56529],[-121.63799,38.56524],[-121.63799,38.56524],[-121.638,38.56521],[-121.63802,38.56513],[-121.63802,38.56498],[-121.63801,38.56481],[-121.63801,38.56466],[-121.63802,38.56435],[-121.63803,38.56435],[-121.63804,38.56428],[-121.63804,38.56423],[-121.63806,38.56404],[-121.63807,38.56394],[-121.63807,38.56387],[-121.63806,38.56382],[-121.63806,38.56381],[-121.63804,38.56378],[-121.638,38.56369],[-121.63799,38.56364],[-121.63797,38.56357],[-121.63795,38.56339],[-121.63795,38.56337],[-121.63795,38.56332],[-121.63797,38.56326],[-121.63798,38.56318],[-121.638,38.56311],[-121.63799,38.56303],[-121.63803,38.56299],[-121.63811,38.56285],[-121.63819,38.56253],[-121.6382,38.56252],[-121.63822,38.56244],[-121.63823,38.56228],[-121.63823,38.56216],[-121.63823,38.56185],[-121.63828,38.56164],[-121.63828,38.56164],[-121.63838,38.56168],[-121.63886,38.56193],[-121.63905,38.56203],[-121.63921,38.56211],[-121.63921,38.56211],[-121.63907,38.56221],[-121.639,38.56226],[-121.63891,38.56235],[-121.63889,38.56237],[-121.63888,38.56238],[-121.63885,38.56242],[-121.63882,38.56246],[-121.63878,38.56251],[-121.63876,38.56254],[-121.63872,38.56262],[-121.6387,38.56267],[-121.63866,38.56277],[-121.63865,38.56284],[-121.63863,38.56291],[-121.63862,38.56305],[-121.63862,38.56319],[-121.63862,38.56327],[-121.63862,38.56336],[-121.63862,38.56347],[-121.63862,38.56356],[-121.63862,38.56371],[-121.63862,38.56371],[-121.63862,38.56393],[-121.63862,38.56409],[-121.63863,38.56414],[-121.63863,38.5642],[-121.63865,38.56427],[-121.63866,38.56433],[-121.63868,38.56439],[-121.6387,38.56444],[-121.63872,38.56448],[-121.63876,38.56455],[-121.63881,38.56463],[-121.63882,38.56464],[-121.63887,38.56471],[-121.63896,38.56479],[-121.63902,38.56484],[-121.63908,38.56488],[-121.63913,38.56491],[-121.63917,38.56494],[-121.63925,38.56498],[-121.63936,38.56503],[-121.63943,38.56506],[-121.63952,38.56509],[-121.63962,38.56512],[-121.63971,38.56513],[-121.63978,38.56514],[-121.63986,38.56515],[-121.63996,38.56515],[-121.64004,38.56515],[-121.64012,38.56514],[-121.64018,38.56513],[-121.64024,38.56512],[-121.64029,38.56511],[-121.64044,38.56508],[-121.64091,38.56499],[-121.6411,38.56495],[-121.64192,38.56478],[-121.64246,38.56466],[-121.64882,38.56328],[-121.65192,38.5626],[-121.65214,38.56255],[-121.65458,38.56202],[-121.65562,38.56179],[-121.663,38.56017],[-121.66516,38.55969],[-121.66565,38.55958],[-121.66664,38.55936],[-121.66738,38.55922],[-121.66899,38.55898],[-121.66899,38.55897],[-121.66978,38.55885],[-121.67201,38.55835],[-121.673,38.55813],[-121.67364,38.55798],[-121.67468,38.55775],[-121.67477,38.55773],[-121.67506,38.55767],[-121.67524,38.55764],[-121.67534,38.55764],[-121.67545,38.55766],[-121.6756,38.55756],[-121.67577,38.5575],[-121.67624,38.55739],[-121.67713,38.55719],[-121.67735,38.55715],[-121.68,38.55655],[-121.68996,38.55434],[-121.69195,38.55389],[-121.69357,38.55352],[-121.69413,38.55339],[-121.69422,38.55337],[-121.69425,38.55336],[-121.69435,38.55334],[-121.69441,38.55333],[-121.69445,38.55332],[-121.6946,38.55329],[-121.69548,38.55309],[-121.69549,38.55309],[-121.6957,38.55304],[-121.69704,38.55273],[-121.70344,38.55126],[-121.70631,38.5506],[-121.70653,38.55055],[-121.70675,38.5505],[-121.70697,38.55045],[-121.70719,38.5504],[-121.70763,38.5503],[-121.70784,38.55025],[-121.70786,38.55025],[-121.70808,38.5502],[-121.70852,38.5501],[-121.70874,38.55005],[-121.70896,38.55],[-121.70918,38.54995],[-121.7094,38.5499],[-121.71876,38.54775],[-121.7245,38.54645],[-121.72568,38.54619],[-121.72568,38.54619],[-121.72574,38.54617],[-121.72583,38.54615],[-121.7259,38.54613],[-121.72602,38.5461],[-121.7261,38.54608],[-121.72614,38.54607],[-121.72623,38.54606],[-121.72632,38.54604],[-121.72639,38.54602],[-121.72648,38.54601],[-121.72655,38.54599],[-121.72659,38.54599],[-121.72661,38.54599],[-121.72705,38.54589],[-121.72728,38.54585],[-121.72769,38.54576],[-121.72827,38.54565],[-121.72835,38.54562],[-121.72841,38.5456],[-121.72843,38.5456],[-121.72882,38.54554],[-121.72899,38.54552],[-121.72915,38.54548],[-121.72929,38.54545],[-121.72931,38.54544],[-121.72934,38.54544],[-121.72934,38.54543],[-121.72935,38.54543],[-121.72935,38.54542],[-121.72935,38.54541],[-121.72935,38.5454],[-121.72935,38.54539],[-121.72935,38.54539],[-121.73091,38.54504],[-121.7315,38.54491],[-121.73186,38.54484],[-121.73204,38.5448],[-121.73217,38.54477],[-121.73263,38.54467],[-121.73295,38.54459],[-121.73316,38.54449],[-121.73327,38.54444],[-121.7334,38.54437],[-121.73395,38.544],[-121.73461,38.54355],[-121.73562,38.54287],[-121.73588,38.54269],[-121.73607,38.54255],[-121.73679,38.54206],[-121.73696,38.54194],[-121.73723,38.54175],[-121.73741,38.54163],[-121.73768,38.54144],[-121.73784,38.54132],[-121.73805,38.54116],[-121.73822,38.54105],[-121.73834,38.54097],[-121.73863,38.54081],[-121.73874,38.54072],[-121.73881,38.54064],[-121.73888,38.54056],[-121.73892,38.54052],[-121.73895,38.54049],[-121.73904,38.54039],[-121.73907,38.54036],[-121.73932,38.54013],[-121.73936,38.54009],[-121.73938,38.54003],[-121.73939,38.54001],[-121.73939,38.53999],[-121.73939,38.53996],[-121.73938,38.53994],[-121.73934,38.53986],[-121.73926,38.5398],[-121.73926,38.5398],[-121.7396,38.53956],[-121.7396,38.53956],[-121.73965,38.5396],[-121.73974,38.53964],[-121.73978,38.53965],[-121.74002,38.53968],[-121.74012,38.53969],[-121.7402,38.53971],[-121.74025,38.53972],[-121.74035,38.53978],[-121.7404,38.53979],[-121.74044,38.5398],[-121.74045,38.5398],[-121.74052,38.5398],[-121.74066,38.53977],[-121.74067,38.53977],[-121.74072,38.53978],[-121.74079,38.5398],[-121.74085,38.53983],[-121.74087,38.53985],[-121.74105,38.53996],[-121.74106,38.53996],[-121.74114,38.54],[-121.74119,38.54003],[-121.74122,38.54005],[-121.74125,38.54006],[-121.74129,38.54008],[-121.74135,38.54009],[-121.74142,38.54011],[-121.74143,38.54012],[-121.74149,38.54013],[-121.74152,38.54014],[-121.74155,38.54015],[-121.74157,38.54016],[-121.74162,38.54019],[-121.74165,38.54023],[-121.74172,38.54027],[-121.74176,38.54028],[-121.74199,38.54034],[-121.74214,38.54036],[-121.74214,38.54036],[-121.74211,38.54028],[-121.7421,38.5401],[-121.7421,38.54006],[-121.74212,38.53996],[-121.74215,38.53994],[-121.74216,38.53992],[-121.74218,38.53992],[-121.7422,38.53991],[-121.74222,38.5399],[-121.74222,38.5399],[-121.74232,38.53995],[-121.74242,38.54],[-121.74243,38.54],[-121.74254,38.54005],[-121.74266,38.54008],[-121.74271,38.54009],[-121.74276,38.5401],[-121.74279,38.5401],[-121.74283,38.5401],[-121.74285,38.5401],[-121.74289,38.5401],[-121.74293,38.5401],[-121.74298,38.54009],[-121.74304,38.54009],[-121.74307,38.54009],[-121.74308,38.54009],[-121.74314,38.54009],[-121.74322,38.54009],[-121.74332,38.54009],[-121.7434,38.54009],[-121.74346,38.54009],[-121.74354,38.54008],[-121.74366,38.54006],[-121.74377,38.54004],[-121.74388,38.54003],[-121.744,38.54002],[-121.74422,38.53999],[-121.74431,38.53998],[-121.74445,38.53996],[-121.74459,38.53994],[-121.74464,38.53993],[-121.74467,38.53992],[-121.74469,38.53992],[-121.74471,38.53991],[-121.74474,38.53989],[-121.74478,38.53987],[-121.74486,38.53981],[-121.74487,38.53981],[-121.74492,38.53977],[-121.745,38.53973],[-121.74504,38.53971],[-121.74508,38.53969],[-121.74516,38.53965],[-121.74522,38.53962],[-121.74524,38.53961],[-121.74531,38.53957],[-121.74535,38.53954],[-121.7454,38.53955],[-121.74546,38.53955],[-121.74546,38.53955],[-121.74551,38.53954],[-121.74557,38.53953],[-121.74565,38.53949],[-121.74571,38.53947],[-121.74576,38.53945],[-121.74582,38.53942],[-121.74585,38.5394],[-121.74586,38.53938],[-121.74589,38.53936],[-121.74591,38.53932],[-121.74597,38.53925],[-121.74599,38.53924],[-121.74603,38.53923],[-121.74606,38.53922],[-121.7461,38.5392],[-121.74615,38.53918],[-121.74622,38.53913],[-121.74632,38.53908],[-121.7464,38.53902],[-121.74657,38.5389],[-121.74665,38.53884],[-121.74674,38.53878],[-121.74678,38.53875],[-121.74685,38.53869],[-121.7469,38.53864],[-121.74691,38.53862],[-121.74702,38.5385],[-121.74702,38.5385],[-121.74708,38.53851],[-121.74722,38.53856],[-121.74723,38.53856],[-121.74725,38.53856],[-121.74727,38.53857],[-121.74729,38.53857],[-121.74731,38.53858],[-121.74734,38.53858],[-121.74737,38.5386],[-121.7474,38.53861],[-121.74743,38.53863],[-121.74747,38.53865],[-121.74751,38.53867],[-121.74752,38.5387],[-121.74752,38.53872],[-121.74753,38.53875],[-121.74755,38.5388],[-121.74757,38.53888],[-121.74758,38.53889],[-121.74759,38.53896],[-121.74761,38.53902],[-121.74762,38.53903],[-121.74762,38.53905],[-121.74763,38.53906],[-121.74763,38.53907],[-121.74764,38.53908],[-121.74765,38.53908],[-121.74766,38.53908],[-121.74766,38.53909],[-121.74768,38.5391],[-121.74771,38.53911],[-121.74775,38.53912],[-121.74783,38.53916],[-121.74783,38.53916],[-121.74784,38.53915],[-121.74785,38.53914],[-121.74786,38.53913],[-121.74787,38.53913],[-121.74788,38.53912],[-121.74789,38.53912],[-121.74791,38.53912],[-121.74793,38.53911],[-121.74794,38.53911],[-121.74796,38.53911],[-121.74797,38.53911],[-121.74798,38.53911],[-121.748,38.53911],[-121.74801,38.53912],[-121.74802,38.53912],[-121.74803,38.53913],[-121.74805,38.53913],[-121.74807,38.53914],[-121.74808,38.53915],[-121.74809,38.53916],[-121.7481,38.53917],[-121.7481,38.53918],[-121.74811,38.5392],[-121.74811,38.53921],[-121.74812,38.53922],[-121.74813,38.53923],[-121.74814,38.53924],[-121.74815,38.53924],[-121.74816,38.53925],[-121.74817,38.53925],[-121.74818,38.53926],[-121.7482,38.53926],[-121.74821,38.53927],[-121.74822,38.53927],[-121.74823,38.53928],[-121.74824,38.53929],[-121.74825,38.53932],[-121.74825,38.53932],[-121.74895,38.5392],[-121.7494,38.53912],[-121.7497,38.53907],[-121.74972,38.53906],[-121.74978,38.53906],[-121.75007,38.53906],[-121.7509,38.53907],[-121.75191,38.53909],[-121.75192,38.53909],[-121.75192,38.53909],[-121.75192,38.5391],[-121.75193,38.5391],[-121.75193,38.53911],[-121.75193,38.53912],[-121.75194,38.53912],[-121.75194,38.53913],[-121.75195,38.53913],[-121.75195,38.53914],[-121.75196,38.53914],[-121.75196,38.53915],[-121.75197,38.53915],[-121.75198,38.53915],[-121.75198,38.53916],[-121.75199,38.53916],[-121.752,38.53916],[-121.75201,38.53916],[-121.75202,38.53917],[-121.75203,38.53917],[-121.75204,38.53917],[-121.75205,38.53917],[-121.75205,38.53916],[-121.75205,38.53916],[-121.75206,38.53916],[-121.75207,38.53916],[-121.75208,38.53916],[-121.75209,38.53916],[-121.75209,38.53915],[-121.7521,38.53915],[-121.75211,38.53915],[-121.75211,38.53914],[-121.75212,38.53914],[-121.75212,38.53913],[-121.75213,38.53913],[-121.75213,38.53912],[-121.75214,38.53911],[-121.75214,38.5391],[-121.75214,38.53909],[-121.75215,38.53908],[-121.75215,38.53908],[-121.75218,38.53909],[-121.7522,38.53909],[-121.7528,38.53908],[-121.75283,38.53909],[-121.75339,38.53908],[-121.75343,38.53908],[-121.75383,38.53909],[-121.75397,38.53909],[-121.75402,38.53909],[-121.75418,38.53909],[-121.75436,38.53909],[-121.75447,38.5391],[-121.75483,38.5391],[-121.75483,38.5391],[-121.75484,38.53913],[-121.75485,38.53915],[-121.75486,38.53918],[-121.75487,38.53919],[-121.75488,38.53921],[-121.75489,38.53922],[-121.75491,38.53924],[-121.75492,38.53925],[-121.75495,38.53926],[-121.75496,38.53927],[-121.75496,38.53927],[-121.75497,38.53927],[-121.75498,38.53927],[-121.755,38.53927],[-121.75502,38.53927],[-121.75504,38.53927],[-121.75506,38.53927],[-121.75509,38.53927],[-121.75509,38.53927],[-121.7551,38.5393],[-121.75511,38.53931],[-121.75513,38.53934],[-121.75516,38.53936],[-121.7552,38.53937],[-121.75525,38.53939],[-121.7554,38.53949],[-121.75544,38.53951],[-121.75547,38.53954],[-121.75549,38.53956],[-121.75549,38.53957],[-121.75551,38.53959],[-121.75552,38.5396],[-121.75554,38.53963],[-121.75557,38.5397],[-121.75559,38.53975],[-121.7556,38.53977],[-121.7556,38.53978],[-121.7556,38.5398],[-121.75561,38.53982],[-121.75561,38.53984],[-121.75561,38.53985],[-121.7556,38.53989],[-121.7556,38.53992],[-121.75559,38.53995],[-121.75558,38.54],[-121.75556,38.54005],[-121.75555,38.54008],[-121.75553,38.54013],[-121.75549,38.54018],[-121.75547,38.54019],[-121.75544,38.54022],[-121.75536,38.54028],[-121.75536,38.54028],[-121.75539,38.54036],[-121.75539,38.54037],[-121.75543,38.54053],[-121.75546,38.54063],[-121.7555,38.54072],[-121.75552,38.54077],[-121.75553,38.54079],[-121.75555,38.5408],[-121.75556,38.54081],[-121.75561,38.54082],[-121.75565,38.54083],[-121.75566,38.54083],[-121.75569,38.54084],[-121.75571,38.54086],[-121.75573,38.54087],[-121.75574,38.54089],[-121.75575,38.54091],[-121.75576,38.54092],[-121.75577,38.54094],[-121.75595,38.54127],[-121.75597,38.54131],[-121.75601,38.54144],[-121.75603,38.54148],[-121.75607,38.5417],[-121.75607,38.5418],[-121.75608,38.54182],[-121.75607,38.54198],[-121.75607,38.54207],[-121.75605,38.54222],[-121.75604,38.54233],[-121.75603,38.54238],[-121.75603,38.54245],[-121.75603,38.54245],[-121.75605,38.54245],[-121.75608,38.54245],[-121.7561,38.54244],[-121.75613,38.54244],[-121.75615,38.54244],[-121.75619,38.54244],[-121.75622,38.54245],[-121.75625,38.54246],[-121.75627,38.54246],[-121.7563,38.54247],[-121.75633,38.54248],[-121.75634,38.54247],[-121.75637,38.54246],[-121.75638,38.54246],[-121.7564,38.54245],[-121.75642,38.54244],[-121.75643,38.54244],[-121.75645,38.54244],[-121.75648,38.54243],[-121.75651,38.54243],[-121.75655,38.54243],[-121.75661,38.54242],[-121.75672,38.54242],[-121.75683,38.54242],[-121.75689,38.54242],[-121.75702,38.54242],[-121.75712,38.54242],[-121.75735,38.54242],[-121.75735,38.54242],[-121.75735,38.54245],[-121.75736,38.54245],[-121.75736,38.54246],[-121.75737,38.54247],[-121.75738,38.54247],[-121.75739,38.54247],[-121.75741,38.54248],[-121.75742,38.54248],[-121.75742,38.54248],[-121.75748,38.54248],[-121.75759,38.54248],[-121.75789,38.54248],[-121.75814,38.54248],[-121.7582,38.54247],[-121.75831,38.54248],[-121.75852,38.54249],[-121.75868,38.54253],[-121.75868,38.54253],[-121.75868,38.54254],[-121.75867,38.54254],[-121.75867,38.54255],[-121.75867,38.54256],[-121.75867,38.54257],[-121.75867,38.54258],[-121.75867,38.54259],[-121.75868,38.54259],[-121.75868,38.5426],[-121.75869,38.5426],[-121.75869,38.54261],[-121.7587,38.54261],[-121.75871,38.54261],[-121.75871,38.54262],[-121.75872,38.54262],[-121.75873,38.54262],[-121.75874,38.54262],[-121.75874,38.54262],[-121.75874,38.54273],[-121.75873,38.54288],[-121.75872,38.54313],[-121.75872,38.54336],[-121.75873,38.54341],[-121.75874,38.54343],[-121.75875,38.54344],[-121.75876,38.54345],[-121.75879,38.54349],[-121.75883,38.54351],[-121.75889,38.54353],[-121.759,38.54356],[-121.75919,38.5436],[-121.75936,38.54363],[-121.75941,38.54364],[-121.75947,38.54364],[-121.75953,38.54364],[-121.75955,38.54364],[-121.75955,38.54364],[-121.75954,38.54374],[-121.75954,38.54374],[-121.75961,38.54375],[-121.7597,38.54376],[-121.75978,38.54376],[-121.75985,38.54376],[-121.75994,38.54376],[-121.76005,38.54376],[-121.76015,38.54376],[-121.76031,38.54376],[-121.76031,38.54376],[-121.76043,38.54376],[-121.76069,38.54376],[-121.76094,38.54376],[-121.76128,38.54377],[-121.7617,38.54377],[-121.76199,38.54378],[-121.76216,38.54378],[-121.76263,38.54379],[-121.76339,38.5438],[-121.76408,38.5438],[-121.76497,38.54381],[-121.76526,38.54381],[-121.76538,38.54381],[-121.76541,38.54381],[-121.76567,38.54381],[-121.76581,38.54381],[-121.76672,38.54376],[-121.76674,38.54376],[-121.76674,38.54376],[-121.76675,38.54375],[-121.76676,38.54374],[-121.76678,38.54373],[-121.7668,38.54373],[-121.76681,38.54372],[-121.76683,38.54373],[-121.76696,38.54372],[-121.76712,38.54373],[-121.76741,38.54374],[-121.76762,38.54375],[-121.76775,38.54377],[-121.76789,38.54377],[-121.76804,38.54378],[-121.76817,38.54378],[-121.76833,38.54379],[-121.7684,38.54379],[-121.76845,38.5438],[-121.76847,38.5438],[-121.76865,38.54381],[-121.76886,38.54382],[-121.76886,38.54383],[-121.76886,38.54384],[-121.76887,38.54384],[-121.76887,38.54385],[-121.76888,38.54385],[-121.76888,38.54386],[-121.76889,38.54386],[-121.76889,38.54387],[-121.7689,38.54387],[-121.7689,38.54388],[-121.76891,38.54388],[-121.76892,38.54388],[-121.76892,38.54389],[-121.76893,38.54389],[-121.76893,38.54389],[-121.76889,38.54402],[-121.76887,38.54406],[-121.76886,38.54409],[-121.76885,38.54413],[-121.76885,38.54416],[-121.76884,38.5442],[-121.76884,38.54425],[-121.76884,38.54449],[-121.76884,38.54471],[-121.76884,38.5448],[-121.76885,38.54488],[-121.76886,38.54496],[-121.76887,38.54502],[-121.7689,38.54512],[-121.76891,38.54513],[-121.76893,38.5452],[-121.76895,38.54525],[-121.76898,38.5453],[-121.76899,38.54531],[-121.76905,38.5454],[-121.76908,38.54546],[-121.76913,38.54553],[-121.76922,38.54562],[-121.76926,38.54566],[-121.76933,38.54573],[-121.7694,38.54578],[-121.76946,38.54583],[-121.76955,38.54588],[-121.76963,38.54593],[-121.76977,38.546],[-121.76987,38.54604],[-121.76993,38.54606],[-121.76997,38.54607],[-121.77001,38.54608],[-121.77009,38.54611],[-121.77017,38.54613],[-121.77026,38.54614],[-121.77037,38.54615],[-121.77049,38.54616],[-121.77052,38.54616],[-121.77052,38.54616],[-121.77061,38.54618],[-121.7707,38.54618],[-121.77073,38.54618],[-121.77083,38.54618],[-121.77095,38.54619],[-121.77103,38.54619],[-121.77106,38.54619],[-121.77108,38.54621],[-121.7711,38.54623],[-121.77112,38.54626],[-121.77115,38.54628],[-121.77117,38.5463],[-121.77123,38.54631],[-121.7725,38.54633],[-121.77388,38.54634],[-121.77431,38.54635],[-121.77506,38.54636],[-121.77526,38.54636],[-121.77611,38.54637],[-121.77677,38.54638],[-121.77957,38.54643],[-121.78026,38.54644],[-121.78168,38.54647],[-121.78195,38.54647],[-121.78402,38.54651],[-121.78542,38.54653],[-121.78749,38.54657],[-121.78772,38.54657],[-121.7888,38.54659],[-121.78903,38.54659],[-121.78949,38.5466],[-121.79043,38.54662],[-121.79066,38.54662],[-121.79227,38.54665],[-121.7925,38.54665],[-121.79268,38.54666],[-121.79457,38.54669],[-121.79545,38.5467],[-121.79733,38.54675],[-121.79858,38.54679],[-121.79859,38.54679],[-121.79944,38.54679],[-121.79977,38.5468],[-121.80069,38.54681],[-121.80129,38.54682],[-121.80215,38.54684],[-121.80261,38.54684],[-121.80325,38.54685],[-121.80354,38.54683],[-121.80365,38.54682],[-121.80375,38.5468],[-121.80387,38.5468],[-121.80442,38.54681],[-121.80465,38.54681],[-121.80488,38.54681],[-121.80551,38.54681],[-121.8058,38.54681],[-121.80603,38.54681],[-121.80626,38.54681],[-121.80649,38.54681],[-121.80741,38.54681],[-121.80743,38.54681],[-121.8081,38.54681],[-121.80882,38.5468],[-121.80887,38.5468],[-121.80933,38.5468],[-121.81069,38.5468],[-121.8114,38.54681],[-121.81183,38.54681],[-121.81196,38.5468],[-121.81215,38.54679],[-121.81227,38.54677],[-121.81235,38.54676],[-121.8125,38.54677],[-121.81269,38.54681],[-121.81286,38.54684],[-121.813,38.54686],[-121.81303,38.54686],[-121.81318,38.54687],[-121.81414,38.54688],[-121.81511,38.54688],[-121.81529,38.54688],[-121.81552,38.54688],[-121.8169,38.54689],[-121.81759,38.54689],[-121.81782,38.54689],[-121.81805,38.54689],[-121.8192,38.5469],[-121.82012,38.5469],[-121.82091,38.5469],[-121.82159,38.54689],[-121.82167,38.5469],[-121.8217,38.5469],[-121.82173,38.5469],[-121.82174,38.54692],[-121.82175,38.54695],[-121.82175,38.54698],[-121.82175,38.54698],[-121.82184,38.54706],[-121.82186,38.54707],[-121.82189,38.54708],[-121.82238,38.54707],[-121.82333,38.54707],[-121.82428,38.54707],[-121.82445,38.54707],[-121.82536,38.54707],[-121.82537,38.54707],[-121.8263,38.54708],[-121.82698,38.54708],[-121.82743,38.54708],[-121.82836,38.54709],[-121.82875,38.54709],[-121.83007,38.5471],[-121.83142,38.54711],[-121.83204,38.54712],[-121.83266,38.54712],[-121.8332,38.54712],[-121.83322,38.5471],[-121.83323,38.54703],[-121.83323,38.54703],[-121.83325,38.54695],[-121.83329,38.54693],[-121.83334,38.54693],[-121.8339,38.54693],[-121.83482,38.54694],[-121.83505,38.54694],[-121.83528,38.54694],[-121.8362,38.54696],[-121.83643,38.54696],[-121.83646,38.54696],[-121.83661,38.54696],[-121.83666,38.54697],[-121.83689,38.54699],[-121.83708,38.547],[-121.83712,38.54701],[-121.83801,38.54707],[-121.83803,38.54707],[-121.8383,38.54708],[-121.83843,38.54708],[-121.83849,38.54708],[-121.83895,38.54708],[-121.83926,38.54708],[-121.83963,38.54705],[-121.83987,38.54704],[-121.84044,38.547],[-121.84048,38.547],[-121.84159,38.54692],[-121.8416,38.54692],[-121.84171,38.54692],[-121.84185,38.5469],[-121.842,38.54688],[-121.84213,38.54686],[-121.84225,38.54684],[-121.8424,38.54683],[-121.8425,38.54682],[-121.84252,38.54682],[-121.84258,38.54682],[-121.84272,38.54681],[-121.8428,38.54681],[-121.84295,38.5468],[-121.84298,38.5468],[-121.84309,38.54679],[-121.84318,38.54679],[-121.84341,38.54677],[-121.84344,38.54677],[-121.84369,38.54675],[-121.84403,38.54672],[-121.84433,38.54672],[-121.8447,38.54671],[-121.84586,38.54671],[-121.84639,38.54671],[-121.84662,38.54672],[-121.84691,38.54672],[-121.84754,38.54672],[-121.84799,38.54672],[-121.84818,38.54672],[-121.84924,38.54672],[-121.84961,38.54672],[-121.85061,38.54672],[-121.85074,38.54672],[-121.85076,38.54672],[-121.85162,38.54673],[-121.85285,38.54672],[-121.85395,38.54673],[-121.85398,38.54673],[-121.85418,38.54674],[-121.85422,38.54674],[-121.85479,38.54674],[-121.85489,38.54675],[-121.855,38.5468],[-121.85528,38.547],[-121.85586,38.54746],[-121.85586,38.54746],[-121.85591,38.54746],[-121.85595,38.54744],[-121.85599,38.54742],[-121.85604,38.54739],[-121.85608,38.54737],[-121.85611,38.54734],[-121.85619,38.5473],[-121.85619,38.5473],[-121.8562,38.54711],[-121.8562,38.54706],[-121.85619,38.54697],[-121.85619,38.5469],[-121.85617,38.5468],[-121.85614,38.54662],[-121.85613,38.54655],[-121.8561,38.54641],[-121.85608,38.54636],[-121.85605,38.54626],[-121.85602,38.5462],[-121.85599,38.54614],[-121.85596,38.5461],[-121.85594,38.54606],[-121.85592,38.54603],[-121.85589,38.54599],[-121.85587,38.54597],[-121.85585,38.54595],[-121.8558,38.5459],[-121.85576,38.54587],[-121.85572,38.54583],[-121.85564,38.54577],[-121.85563,38.54576],[-121.85562,38.54576],[-121.85561,38.54575],[-121.85558,38.54573],[-121.85551,38.54569],[-121.85544,38.54565],[-121.85527,38.54556],[-121.85525,38.54555],[-121.85518,38.54551],[-121.85511,38.54546],[-121.85506,38.54543],[-121.85501,38.54539],[-121.85494,38.54532],[-121.85486,38.54523],[-121.85479,38.54514],[-121.85473,38.54504],[-121.85464,38.54487],[-121.85456,38.54468],[-121.85437,38.54421],[-121.8541,38.54357],[-121.85372,38.54267],[-121.85369,38.5426],[-121.85362,38.54243],[-121.85341,38.54191],[-121.85333,38.54174],[-121.85326,38.54157],[-121.85302,38.541],[-121.8529,38.54072],[-121.85283,38.54055],[-121.85283,38.54054],[-121.85233,38.53935],[-121.85209,38.53878],[-121.85204,38.53866],[-121.85198,38.53853],[-121.8519,38.53833],[-121.85182,38.53811],[-121.85161,38.53765],[-121.85151,38.53743],[-121.85141,38.53721],[-121.85139,38.53716],[-121.85137,38.53712],[-121.85129,38.53695],[-121.85122,38.53678],[-121.85114,38.53661],[-121.8511,38.53651],[-121.85107,38.53646],[-121.85104,38.53643],[-121.85101,38.5364],[-121.85098,38.5364],[-121.85096,38.53639],[-121.85094,38.53638],[-121.85092,38.53638],[-121.85086,38.53637],[-121.85072,38.53636],[-121.85067,38.53635],[-121.85049,38.53635],[-121.85011,38.53633],[-121.84988,38.53632],[-121.8498,38.53631],[-121.84974,38.5363],[-121.8497,38.53629],[-121.84969,38.53628],[-121.84967,38.53628],[-121.84964,38.53626],[-121.8496,38.53625],[-121.84958,38.53623],[-121.84956,38.53622],[-121.84953,38.5362],[-121.84951,38.53617],[-121.84949,38.53615],[-121.84948,38.53612],[-121.84946,38.53609],[-121.84945,38.53607],[-121.84945,38.53605],[-121.84944,38.53602],[-121.84945,38.53594],[-121.84959,38.53518],[-121.8497,38.53455],[-121.84978,38.53415],[-121.84978,38.53415],[-121.84991,38.53343],[-121.84999,38.53297],[-121.85002,38.53282],[-121.85018,38.53196],[-121.85032,38.53126],[-121.85036,38.53103],[-121.85045,38.53055],[-121.85048,38.53031],[-121.85048,38.53031],[-121.8512,38.53031],[-121.85345,38.53032],[-121.85378,38.53032],[-121.85414,38.53033],[-121.85485,38.53034],[-121.85513,38.53034],[-121.85575,38.53034],[-121.85598,38.53034],[-121.85612,38.53034],[-121.85828,38.53035],[-121.85847,38.53036],[-121.85989,38.53037],[-121.8615,38.53038],[-121.86334,38.53039],[-121.86425,38.53039],[-121.86448,38.53039],[-121.86679,38.53041],[-121.86793,38.53042],[-121.86816,38.53042],[-121.86862,38.53042],[-121.86885,38.53042],[-121.86954,38.53043],[-121.87002,38.53043],[-121.87207,38.53045],[-121.87307,38.53045],[-121.87409,38.53046],[-121.87438,38.53046],[-121.87574,38.53047],[-121.87662,38.53047],[-121.87773,38.53048],[-121.87892,38.53049],[-121.87894,38.53049],[-121.87963,38.53049],[-121.88042,38.5305],[-121.88142,38.5305],[-121.88216,38.53051],[-121.88248,38.53051],[-121.88297,38.53051],[-121.88434,38.53052],[-121.88453,38.53053],[-121.88514,38.53053],[-121.88539,38.53053],[-121.88555,38.53053],[-121.88568,38.53053],[-121.88581,38.53052],[-121.88591,38.53051],[-121.88599,38.5305],[-121.88607,38.53049],[-121.88614,38.53047],[-121.88624,38.53046],[-121.88656,38.53041],[-121.88771,38.53022],[-121.88788,38.53019],[-121.88877,38.53004],[-121.88956,38.52992],[-121.89045,38.52977],[-121.8909,38.52969],[-121.89152,38.52959],[-121.89179,38.52955],[-121.892,38.52951],[-121.89301,38.52934],[-121.89341,38.52928],[-121.89368,38.52923],[-121.89413,38.52916],[-121.89445,38.52911],[-121.89509,38.529],[-121.89547,38.52894],[-121.89643,38.52879],[-121.89687,38.52871],[-121.89748,38.52861],[-121.898,38.52853],[-121.8982,38.5285],[-121.89849,38.52845],[-121.89914,38.52835],[-121.8995,38.52829],[-121.89959,38.52827],[-121.89969,38.52826],[-121.8998,38.52823],[-121.9002,38.52809],[-121.90076,38.52789],[-121.90143,38.52767],[-121.90242,38.52732],[-121.90261,38.52725],[-121.90325,38.52703],[-121.90368,38.52688],[-121.90389,38.52681],[-121.9041,38.52674],[-121.9045,38.5266],[-121.90543,38.52627],[-121.90753,38.52554],[-121.90879,38.5251],[-121.90962,38.52482],[-121.91106,38.52431],[-121.9123,38.52388],[-121.91356,38.52344],[-121.91482,38.52301],[-121.91587,38.52264],[-121.91692,38.52227],[-121.91713,38.5222],[-121.91982,38.52126],[-121.91991,38.52123],[-121.91997,38.52122],[-121.92001,38.52121],[-121.92006,38.52121],[-121.92011,38.52121],[-121.92015,38.52123],[-121.9202,38.52125],[-121.92025,38.5213],[-121.92029,38.52138],[-121.92037,38.52152],[-121.92045,38.52165],[-121.92054,38.52183],[-121.92069,38.52212],[-121.92079,38.52229],[-121.92089,38.52248],[-121.92097,38.52263],[-121.92112,38.5229],[-121.92118,38.52302],[-121.92172,38.52401],[-121.92199,38.52448],[-121.92209,38.52464],[-121.92224,38.5249],[-121.92228,38.52497],[-121.92266,38.52567],[-121.923,38.52629],[-121.92319,38.52662],[-121.92454,38.52905],[-121.92458,38.52913],[-121.92463,38.5292],[-121.92468,38.52925],[-121.92472,38.52928],[-121.92476,38.5293],[-121.92482,38.52933],[-121.92491,38.52935],[-121.92502,38.52938],[-121.92525,38.5294],[-121.92543,38.52941],[-121.92564,38.52943],[-121.92588,38.52945],[-121.92608,38.52949],[-121.92626,38.52953],[-121.92655,38.5296],[-121.92681,38.52967],[-121.92715,38.52977],[-121.92736,38.52982],[-121.92757,38.52987],[-121.92773,38.52989],[-121.92798,38.52992],[-121.92813,38.52994],[-121.92852,38.52997],[-121.92877,38.53],[-121.92894,38.53002],[-121.9291,38.53004],[-121.92911,38.53004],[-121.92921,38.53006],[-121.92932,38.53008],[-121.92935,38.53009],[-121.92948,38.53012],[-121.92964,38.53016],[-121.92989,38.53023],[-121.92997,38.53025],[-121.93019,38.53031],[-121.93034,38.53035],[-121.93041,38.53037],[-121.93049,38.53039],[-121.93063,38.53041],[-121.93081,38.53045],[-121.93108,38.5305],[-121.9313,38.53056],[-121.93137,38.53058],[-121.93146,38.53061],[-121.93157,38.53064],[-121.93168,38.53068],[-121.9319,38.53077],[-121.93192,38.53078],[-121.93202,38.53082],[-121.93207,38.53084],[-121.93211,38.53085],[-121.93213,38.53085],[-121.93215,38.53086],[-121.9322,38.53087],[-121.93225,38.53088],[-121.93231,38.53089],[-121.93235,38.53089],[-121.93236,38.53089],[-121.9324,38.53089],[-121.93246,38.53089],[-121.9325,38.53088],[-121.93256,38.53088],[-121.93258,38.53087],[-121.93266,38.53086],[-121.93281,38.53084],[-121.93299,38.53081],[-121.93304,38.5308],[-121.93322,38.53078],[-121.93361,38.53071],[-121.93371,38.5307],[-121.93396,38.53066],[-121.93408,38.53064],[-121.93431,38.53061],[-121.93462,38.53056],[-121.93562,38.53041],[-121.93611,38.53034],[-121.9362,38.53033],[-121.93695,38.53021],[-121.93846,38.52999],[-121.93882,38.52993],[-121.93891,38.52992],[-121.93973,38.5298],[-121.93981,38.52979],[-121.93995,38.52977],[-121.94004,38.52975],[-121.94071,38.52965],[-121.94085,38.52963],[-121.94094,38.52962],[-121.94222,38.52943],[-121.94264,38.52937],[-121.94296,38.52933],[-121.94313,38.5293],[-121.94323,38.52928],[-121.94332,38.52926],[-121.9434,38.52924],[-121.94347,38.52922],[-121.94353,38.5292],[-121.94356,38.52919],[-121.94359,38.52917],[-121.94363,38.52915],[-121.94368,38.52913],[-121.94371,38.52911],[-121.94379,38.52905],[-121.9439,38.52897],[-121.94391,38.52896],[-121.94404,38.52885],[-121.94406,38.52883],[-121.94415,38.52875],[-121.94425,38.52866],[-121.94444,38.5285],[-121.94462,38.52835],[-121.94469,38.5283],[-121.94473,38.52827],[-121.94483,38.52819],[-121.94485,38.52817],[-121.94494,38.5281],[-121.94509,38.528],[-121.94524,38.52789],[-121.94536,38.52781],[-121.94543,38.52777],[-121.94551,38.52772],[-121.94561,38.52765],[-121.94572,38.52759],[-121.94575,38.52757],[-121.94591,38.52748],[-121.94603,38.5274],[-121.94609,38.52737],[-121.94633,38.52722],[-121.94649,38.52715],[-121.94654,38.52712],[-121.94662,38.5271],[-121.94673,38.52705],[-121.94674,38.52705],[-121.94711,38.52692],[-121.94716,38.5269],[-121.94733,38.52683],[-121.94736,38.52682],[-121.94758,38.52674],[-121.94803,38.52655],[-121.94818,38.52649],[-121.94843,38.52639],[-121.94859,38.52633],[-121.94863,38.52632],[-121.94875,38.52628],[-121.9488,38.52626],[-121.94888,38.52624],[-121.94898,38.52621],[-121.94923,38.52613],[-121.94949,38.52606],[-121.94966,38.52601],[-121.94979,38.52597],[-121.94988,38.52595],[-121.9501,38.52589],[-121.95017,38.52587],[-121.95027,38.52584],[-121.95031,38.52582],[-121.95038,38.5258],[-121.95059,38.52573],[-121.95087,38.52564],[-121.95094,38.52561],[-121.95112,38.52555],[-121.95116,38.52554],[-121.95133,38.52548],[-121.95137,38.52547],[-121.95151,38.52542],[-121.95175,38.52536],[-121.95196,38.52532],[-121.95232,38.52524],[-121.9525,38.52521],[-121.95252,38.5252],[-121.95255,38.5252],[-121.95265,38.52517],[-121.95274,38.52515],[-121.95276,38.52514],[-121.95278,38.52514],[-121.95289,38.52511],[-121.95295,38.52509],[-121.95298,38.52508],[-121.95299,38.52508],[-121.9531,38.52505],[-121.95314,38.52504],[-121.9532,38.52502],[-121.95332,38.52499],[-121.95339,38.52497],[-121.95361,38.5249],[-121.95388,38.52482],[-121.95425,38.5247],[-121.95429,38.52469],[-121.95446,38.52463],[-121.95453,38.52461],[-121.95467,38.52456],[-121.95498,38.52446],[-121.95543,38.52431],[-121.95615,38.52406],[-121.95669,38.52385],[-121.95696,38.52375],[-121.9571,38.52369],[-121.95731,38.52361],[-121.95738,38.52358],[-121.95754,38.52352],[-121.95769,38.52346],[-121.95783,38.52342],[-121.95805,38.52335],[-121.95837,38.52327],[-121.95847,38.52324],[-121.95919,38.52304],[-121.95924,38.52303],[-121.95944,38.52298],[-121.95946,38.52297],[-121.95955,38.52295],[-121.95984,38.52286],[-121.96008,38.52279],[-121.9601,38.52278],[-121.96016,38.52276],[-121.96022,38.52274],[-121.9604,38.52268],[-121.96071,38.52255],[-121.96091,38.52247],[-121.96092,38.52246],[-121.96107,38.52241],[-121.96134,38.52231],[-121.96154,38.52225],[-121.96165,38.52222],[-121.96177,38.52219],[-121.96196,38.52215],[-121.96214,38.52212],[-121.96242,38.52206],[-121.96252,38.52204],[-121.96282,38.52198],[-121.96319,38.52191],[-121.96335,38.52188],[-121.96348,38.52186],[-121.96359,38.52184],[-121.96368,38.52182],[-121.96374,38.5218],[-121.96381,38.52178],[-121.96386,38.52177],[-121.96393,38.52174],[-121.96404,38.52169],[-121.9642,38.52161],[-121.96464,38.5214],[-121.9649,38.52127],[-121.96505,38.5212],[-121.96517,38.52114],[-121.96531,38.52105],[-121.96546,38.52095],[-121.96553,38.52091],[-121.96557,38.52088],[-121.96598,38.52061],[-121.96606,38.52056],[-121.96659,38.52021],[-121.96686,38.52004],[-121.96692,38.51999],[-121.96694,38.51998],[-121.96696,38.51996],[-121.96698,38.51994],[-121.96701,38.51992],[-121.96703,38.51989],[-121.96706,38.51985],[-121.96707,38.51983],[-121.96708,38.51982],[-121.96711,38.51975],[-121.96716,38.51964],[-121.96717,38.5196],[-121.96718,38.51958],[-121.96719,38.51956],[-121.96721,38.51953],[-121.96723,38.51951],[-121.96724,38.51949],[-121.96726,38.51947],[-121.96728,38.51946],[-121.9673,38.51944],[-121.96733,38.51942],[-121.96738,38.5194],[-121.96745,38.51937],[-121.96745,38.51937],[-121.96748,38.51945],[-121.96751,38.5195],[-121.96756,38.51959],[-121.96757,38.51961],[-121.96767,38.5198],[-121.96774,38.51992],[-121.96784,38.52009],[-121.96786,38.52012],[-121.96793,38.52025],[-121.96803,38.52041],[-121.96807,38.52048],[-121.96813,38.52059],[-121.96822,38.52074],[-121.96837,38.52098],[-121.9684,38.52104],[-121.96852,38.52124],[-121.96863,38.52143],[-121.96887,38.52185],[-121.96894,38.52197]]}},{"type":"Feature","properties":{"_gpxType":"trk","name":"2500 El Vita Way, Carmichael, CA - Putah Creek Cafe, East Main Street, Winters, CA - 4127 Putah Creek Rd","coordinateProperties":{},"id":105},"geometry":{"type":"LineString","coordinates":[[-121.96894,38.52197],[-121.96887,38.52185],[-121.96863,38.52143],[-121.96852,38.52124],[-121.9684,38.52104],[-121.96837,38.52098],[-121.96822,38.52074],[-121.96813,38.52059],[-121.96807,38.52048],[-121.96803,38.52041],[-121.96793,38.52025],[-121.96786,38.52012],[-121.96784,38.52009],[-121.96774,38.51992],[-121.96767,38.5198],[-121.96757,38.51961],[-121.96756,38.51959],[-121.96751,38.5195],[-121.96748,38.51945],[-121.96745,38.51937],[-121.96745,38.51937],[-121.96743,38.5193],[-121.96742,38.51925],[-121.96742,38.5192],[-121.96741,38.51914],[-121.96742,38.51907],[-121.96743,38.51901],[-121.96743,38.51899],[-121.96744,38.51892],[-121.96746,38.51882],[-121.9675,38.51868],[-121.96754,38.51854],[-121.96757,38.51844],[-121.96758,38.51839],[-121.96759,38.51839],[-121.9676,38.51834],[-121.96762,38.51828],[-121.96769,38.51817],[-121.9677,38.51814],[-121.96774,38.51806],[-121.96788,38.51781],[-121.96792,38.51773],[-121.96796,38.51765],[-121.96812,38.51736],[-121.96824,38.51714],[-121.9684,38.51687],[-121.96857,38.51662],[-121.96869,38.51643],[-121.96875,38.51631],[-121.96882,38.51617],[-121.96884,38.51613],[-121.96886,38.51611],[-121.96888,38.51608],[-121.9689,38.51606],[-121.96894,38.51604],[-121.96915,38.51592],[-121.96938,38.5158],[-121.96964,38.51565],[-121.96986,38.51553],[-121.9699,38.51551],[-121.96993,38.51549],[-121.97026,38.5153],[-121.97046,38.5152],[-121.97062,38.51512],[-121.97096,38.51495],[-121.97128,38.51479],[-121.97143,38.51471],[-121.97166,38.5146],[-121.97197,38.51445],[-121.97224,38.51431],[-121.97233,38.51426],[-121.97241,38.51421],[-121.97247,38.51417],[-121.97256,38.5141],[-121.97261,38.51406],[-121.97264,38.51403],[-121.97271,38.51394],[-121.97278,38.51385],[-121.97284,38.51374],[-121.9729,38.51363],[-121.97293,38.51355],[-121.97297,38.51346],[-121.97298,38.51337],[-121.97299,38.5133],[-121.973,38.51323],[-121.973,38.51319],[-121.97299,38.51316],[-121.97299,38.51312],[-121.97298,38.51308],[-121.97296,38.51302],[-121.97293,38.51297],[-121.97289,38.51291],[-121.97284,38.51284],[-121.97271,38.51268],[-121.9722,38.51205],[-121.97207,38.51189],[-121.9719,38.51168],[-121.97172,38.51146],[-121.97157,38.51128],[-121.97146,38.51114],[-121.97145,38.51112],[-121.97129,38.51094],[-121.97116,38.51078],[-121.97105,38.51064],[-121.97098,38.51055],[-121.97096,38.51053],[-121.97087,38.51042],[-121.97085,38.51038],[-121.9708,38.51031],[-121.97075,38.51022],[-121.97073,38.51018],[-121.97072,38.51014],[-121.97071,38.51007],[-121.9707,38.51004],[-121.9707,38.51001],[-121.9707,38.50996],[-121.9707,38.50991],[-121.9707,38.50986],[-121.97071,38.50982],[-121.97072,38.50978],[-121.97073,38.50974],[-121.97076,38.50968],[-121.97078,38.50962],[-121.97082,38.50956],[-121.97085,38.50952],[-121.97088,38.50948],[-121.97091,38.50945],[-121.97095,38.50941],[-121.971,38.50937],[-121.97106,38.50933],[-121.97112,38.50929],[-121.97119,38.50925],[-121.97126,38.50921],[-121.97149,38.5091],[-121.97155,38.50907],[-121.972,38.50885],[-121.97525,38.50724],[-121.97584,38.50695],[-121.97595,38.50689],[-121.97603,38.50686],[-121.97637,38.50669],[-121.97642,38.50667],[-121.97648,38.50663],[-121.97653,38.5066],[-121.97658,38.50656],[-121.97661,38.50653],[-121.97665,38.50649],[-121.97668,38.50644],[-121.97671,38.50639],[-121.97676,38.50632],[-121.97682,38.50619],[-121.97685,38.50614],[-121.97687,38.50611],[-121.9769,38.50607],[-121.97694,38.50602],[-121.97698,38.50599],[-121.97703,38.50595],[-121.97709,38.50591],[-121.97715,38.50588],[-121.97721,38.50585],[-121.97729,38.50582],[-121.97736,38.50579],[-121.97743,38.50577],[-121.97754,38.50575],[-121.97789,38.50566],[-121.97823,38.50558],[-121.97854,38.50552],[-121.97867,38.5055],[-121.97871,38.50549],[-121.97883,38.50547],[-121.97894,38.50545],[-121.97902,38.50543],[-121.97916,38.50538],[-121.97933,38.50532],[-121.97953,38.50524],[-121.97991,38.50506],[-121.97992,38.50506],[-121.98035,38.50484],[-121.98069,38.50466],[-121.98118,38.50438],[-121.98142,38.50424],[-121.98159,38.50415],[-121.98177,38.50406],[-121.98194,38.50397],[-121.98205,38.50391],[-121.98211,38.50387],[-121.98217,38.50383],[-121.98221,38.50379],[-121.98225,38.50375],[-121.98228,38.50371],[-121.98231,38.50368],[-121.98234,38.50364],[-121.98236,38.5036],[-121.98238,38.50358],[-121.98238,38.50357],[-121.9824,38.50352],[-121.98242,38.50347],[-121.98244,38.50341],[-121.98245,38.50336],[-121.98246,38.5033],[-121.98246,38.50322],[-121.98245,38.50316],[-121.98244,38.50309],[-121.98242,38.50304],[-121.98239,38.50298],[-121.98236,38.50293],[-121.98234,38.50288],[-121.98222,38.50267],[-121.98215,38.50255],[-121.98206,38.50239],[-121.98196,38.50222],[-121.98187,38.50205],[-121.98152,38.50146],[-121.98141,38.50125],[-121.98134,38.50114],[-121.98121,38.50092],[-121.98111,38.50074],[-121.981,38.50056],[-121.98089,38.50037],[-121.98083,38.50026],[-121.9808,38.5002],[-121.98078,38.50016],[-121.98076,38.50012],[-121.98075,38.50009],[-121.98074,38.50005],[-121.98073,38.50001],[-121.98073,38.49997],[-121.98072,38.49993],[-121.98072,38.49989],[-121.98072,38.49985],[-121.98072,38.49981],[-121.98073,38.49977],[-121.98074,38.49972],[-121.98076,38.49967],[-121.98078,38.49961],[-121.98081,38.49957],[-121.98084,38.49951],[-121.98089,38.49945],[-121.98092,38.49941],[-121.98096,38.49937],[-121.98102,38.49932],[-121.98106,38.49928],[-121.98107,38.49928],[-121.9811,38.49926],[-121.98115,38.49923],[-121.9812,38.4992],[-121.98125,38.49917],[-121.98132,38.49914],[-121.98137,38.49912],[-121.98142,38.4991],[-121.98146,38.49909],[-121.98159,38.49905],[-121.98185,38.49899],[-121.98197,38.49895],[-121.98207,38.49893],[-121.98255,38.4988],[-121.98298,38.49869],[-121.98397,38.49843],[-121.98404,38.49841],[-121.98438,38.49832],[-121.98664,38.49773],[-121.98709,38.49761],[-121.9884,38.49727],[-121.98906,38.49709],[-121.99116,38.49654],[-121.99181,38.49637]]}}]}