{"type":"FeatureCollection","features":[{"type":"Feature","properties":{"_gpxType":"trk","name":"Lake Solano County Park, Pleasants Valley Road, Winters, CA - Larry's Produce, Suisun Valley Road, Fairfield, CA - 600 Lopes Rd - 655 Columbus Pkwy - Columbus Pkwy & Georgia St - Vallejo, 289 Mare Island Way, Vallejo, CA 94590","coordinateProperties":{},"id":106},"geometry":{"type":"LineString","coordinates":[[-122.02958,38.49303],[-122.02958,38.49297],[-122.02959,38.49283],[-122.02959,38.4928],[-122.0296,38.49262],[-122.0296,38.49262],[-122.02925,38.49245],[-122.02925,38.49245],[-122.0294,38.49225],[-122.02945,38.49213],[-122.02948,38.49208],[-122.02956,38.4919],[-122.02965,38.49172],[-122.02973,38.49147],[-122.02993,38.49097],[-122.02996,38.49088],[-122.03006,38.49063],[-122.03022,38.49021],[-122.03022,38.4902],[-122.03026,38.49011],[-122.03028,38.49003],[-122.03038,38.48976],[-122.03047,38.48952],[-122.03048,38.48951],[-122.03051,38.48942],[-122.03068,38.48896],[-122.03073,38.48884],[-122.03081,38.48865],[-122.03084,38.48856],[-122.03089,38.48845],[-122.03091,38.48838],[-122.03095,38.48828],[-122.03099,38.48813],[-122.031,38.4881],[-122.03102,38.48804],[-122.03103,38.48802],[-122.03104,38.48795],[-122.03105,38.48793],[-122.03106,38.48786],[-122.03108,38.4878],[-122.0311,38.48768],[-122.03111,38.48757],[-122.03111,38.48756],[-122.03111,38.48742],[-122.03111,38.4874],[-122.03111,38.48724],[-122.03111,38.48719],[-122.0311,38.48709],[-122.03108,38.48696],[-122.03106,38.48682],[-122.03103,38.4867],[-122.03097,38.48649],[-122.03089,38.48628],[-122.03082,38.48612],[-122.03071,38.48584],[-122.03064,38.48567],[-122.03054,38.48543],[-122.03051,38.48535],[-122.03037,38.48501],[-122.03016,38.48449],[-122.03009,38.48433],[-122.03001,38.48413],[-122.02995,38.48394],[-122.0299,38.48373],[-122.02987,38.4836],[-122.02987,38.48359],[-122.02986,38.48346],[-122.02984,38.48324],[-122.02984,38.48307],[-122.02986,38.48287],[-122.02986,38.48283],[-122.02989,38.48262],[-122.02993,38.48229],[-122.02996,38.48207],[-122.03005,38.48138],[-122.0301,38.48097],[-122.03014,38.4806],[-122.0302,38.48007],[-122.03024,38.47982],[-122.03026,38.47965],[-122.03026,38.47964],[-122.03026,38.4796],[-122.03031,38.47929],[-122.03036,38.47907],[-122.03039,38.47895],[-122.03039,38.47894],[-122.03039,38.47893],[-122.03042,38.47883],[-122.03045,38.47876],[-122.03048,38.47871],[-122.03052,38.4786],[-122.03052,38.47859],[-122.03054,38.47855],[-122.03055,38.4785],[-122.03056,38.47844],[-122.03056,38.47842],[-122.03056,38.47838],[-122.03056,38.47834],[-122.03056,38.47828],[-122.03053,38.47815],[-122.03048,38.47807],[-122.03048,38.47806],[-122.03044,38.47798],[-122.03038,38.47785],[-122.0303,38.47771],[-122.03024,38.47766],[-122.03019,38.47763],[-122.03011,38.47759],[-122.03005,38.47755],[-122.02993,38.47751],[-122.0299,38.4775],[-122.02979,38.47744],[-122.02969,38.47738],[-122.0296,38.47732],[-122.02957,38.47729],[-122.0295,38.47722],[-122.02947,38.47717],[-122.02944,38.47712],[-122.02941,38.47697],[-122.02941,38.47689],[-122.02942,38.47672],[-122.02942,38.47663],[-122.02941,38.47654],[-122.0294,38.47645],[-122.02939,38.4764],[-122.02937,38.47632],[-122.02927,38.47602],[-122.02923,38.47588],[-122.02921,38.47581],[-122.02918,38.47573],[-122.02916,38.47561],[-122.02915,38.47551],[-122.02915,38.47541],[-122.02915,38.47528],[-122.02915,38.47519],[-122.02917,38.4751],[-122.02917,38.47507],[-122.02919,38.47499],[-122.02922,38.47489],[-122.02926,38.47477],[-122.02929,38.4747],[-122.02931,38.47466],[-122.02935,38.47458],[-122.02968,38.47402],[-122.02983,38.47378],[-122.02992,38.47362],[-122.02999,38.47351],[-122.03,38.47349],[-122.03012,38.47327],[-122.03016,38.47319],[-122.03018,38.47314],[-122.03019,38.47308],[-122.0302,38.47303],[-122.0302,38.47293],[-122.0302,38.47282],[-122.0302,38.4727],[-122.0302,38.47261],[-122.0302,38.47252],[-122.03022,38.47244],[-122.03024,38.47236],[-122.03027,38.4723],[-122.03027,38.47229],[-122.03033,38.47218],[-122.03038,38.47212],[-122.03041,38.47208],[-122.03044,38.47205],[-122.03049,38.47201],[-122.03056,38.47197],[-122.03062,38.47194],[-122.03067,38.47192],[-122.03072,38.4719],[-122.03076,38.47189],[-122.03085,38.47187],[-122.03094,38.47185],[-122.03097,38.47185],[-122.03103,38.47183],[-122.0311,38.47182],[-122.03114,38.4718],[-122.03121,38.47177],[-122.03127,38.47172],[-122.03132,38.47168],[-122.03133,38.47167],[-122.03137,38.47163],[-122.0314,38.47158],[-122.03143,38.47152],[-122.03143,38.47151],[-122.03145,38.47146],[-122.03146,38.47138],[-122.03146,38.47131],[-122.03147,38.47122],[-122.03147,38.47116],[-122.03147,38.47099],[-122.03148,38.47085],[-122.03148,38.4708],[-122.03149,38.47072],[-122.03151,38.47062],[-122.03152,38.47054],[-122.03154,38.47044],[-122.03157,38.47029],[-122.03157,38.47026],[-122.03159,38.47011],[-122.03162,38.46991],[-122.03163,38.46985],[-122.03165,38.46981],[-122.03166,38.46978],[-122.03168,38.46975],[-122.03169,38.46973],[-122.0317,38.46972],[-122.03174,38.46969],[-122.03177,38.46966],[-122.03182,38.46964],[-122.03185,38.46963],[-122.03186,38.46962],[-122.03189,38.46962],[-122.03195,38.46961],[-122.03208,38.46961],[-122.03221,38.46962],[-122.03255,38.46964],[-122.03314,38.46967],[-122.03321,38.46968],[-122.03367,38.46971],[-122.03435,38.46976],[-122.03459,38.46977],[-122.03482,38.46979],[-122.03497,38.4698],[-122.03522,38.46981],[-122.03548,38.46982],[-122.03596,38.46983],[-122.03654,38.46984],[-122.03746,38.46987],[-122.03822,38.46989],[-122.03838,38.46989],[-122.03904,38.4699],[-122.03907,38.4699],[-122.03922,38.4699],[-122.03929,38.46991],[-122.03935,38.46991],[-122.03942,38.46992],[-122.03948,38.46992],[-122.03954,38.46993],[-122.03975,38.46997],[-122.03989,38.46999],[-122.04012,38.47003],[-122.0402,38.47004],[-122.04021,38.47004],[-122.04038,38.47007],[-122.04044,38.47008],[-122.0405,38.47009],[-122.04058,38.47009],[-122.04062,38.4701],[-122.04068,38.4701],[-122.04082,38.47011],[-122.04095,38.47012],[-122.04111,38.47013],[-122.04125,38.47014],[-122.0414,38.47015],[-122.04157,38.47016],[-122.04164,38.47016],[-122.0417,38.47015],[-122.04181,38.47015],[-122.04195,38.47014],[-122.04221,38.47011],[-122.04242,38.47009],[-122.04262,38.47007],[-122.04292,38.47005],[-122.0433,38.47002],[-122.04353,38.47],[-122.04362,38.46999],[-122.04371,38.46998],[-122.04379,38.46997],[-122.04389,38.46995],[-122.04397,38.46993],[-122.04398,38.46992],[-122.04404,38.46991],[-122.0441,38.46988],[-122.04418,38.46984],[-122.04433,38.46976],[-122.04444,38.46969],[-122.04454,38.46962],[-122.04457,38.46959],[-122.0446,38.46957],[-122.04463,38.46954],[-122.04466,38.46951],[-122.04469,38.46948],[-122.04471,38.46945],[-122.04473,38.46943],[-122.04477,38.46936],[-122.04481,38.46931],[-122.04487,38.46922],[-122.0449,38.46917],[-122.04493,38.46912],[-122.04502,38.469],[-122.04504,38.46897],[-122.04506,38.46894],[-122.04509,38.46891],[-122.04512,38.46888],[-122.04515,38.46886],[-122.04528,38.46875],[-122.04535,38.4687],[-122.04546,38.46861],[-122.04565,38.46847],[-122.04582,38.46832],[-122.04595,38.46819],[-122.04602,38.46813],[-122.04613,38.46801],[-122.04616,38.46797],[-122.0462,38.46793],[-122.04624,38.46787],[-122.04632,38.46778],[-122.04632,38.46777],[-122.04637,38.46771],[-122.04642,38.46765],[-122.04646,38.46762],[-122.04649,38.46759],[-122.04652,38.46756],[-122.04655,38.46754],[-122.0466,38.46751],[-122.04666,38.46748],[-122.04671,38.46746],[-122.04677,38.46744],[-122.04685,38.46742],[-122.04691,38.46741],[-122.04696,38.46741],[-122.04703,38.4674],[-122.04709,38.4674],[-122.04727,38.4674],[-122.04747,38.4674],[-122.04754,38.4674],[-122.04777,38.4674],[-122.048,38.4674],[-122.04823,38.4674],[-122.04849,38.4674],[-122.0494,38.46741],[-122.04947,38.46741],[-122.0495,38.4674],[-122.04952,38.4674],[-122.04954,38.4674],[-122.04956,38.46739],[-122.04958,38.46739],[-122.0496,38.46738],[-122.04962,38.46738],[-122.04965,38.46737],[-122.04968,38.46736],[-122.0497,38.46734],[-122.04973,38.46732],[-122.04977,38.46729],[-122.04978,38.46727],[-122.0498,38.46725],[-122.04981,38.46722],[-122.04982,38.4672],[-122.04983,38.46718],[-122.04984,38.46716],[-122.04984,38.46713],[-122.04985,38.46711],[-122.04986,38.46697],[-122.04987,38.46674],[-122.04987,38.46658],[-122.04987,38.46644],[-122.04987,38.46635],[-122.04987,38.46626],[-122.04987,38.46618],[-122.04987,38.46613],[-122.04988,38.46609],[-122.04989,38.46605],[-122.0499,38.46602],[-122.04991,38.46598],[-122.04993,38.46595],[-122.04995,38.4659],[-122.04998,38.46585],[-122.05001,38.4658],[-122.05005,38.46576],[-122.05005,38.46575],[-122.05009,38.46571],[-122.05026,38.46553],[-122.0506,38.46518],[-122.051,38.46477],[-122.05135,38.46442],[-122.05152,38.46425],[-122.0517,38.46407],[-122.05196,38.46379],[-122.05221,38.46353],[-122.05236,38.46338],[-122.05302,38.4627],[-122.05333,38.46239],[-122.05334,38.46238],[-122.05361,38.4621],[-122.05375,38.46196],[-122.05394,38.46177],[-122.05416,38.46153],[-122.0543,38.46139],[-122.05447,38.46121],[-122.05465,38.46103],[-122.05484,38.46083],[-122.05486,38.46081],[-122.05495,38.46072],[-122.055,38.46067],[-122.05523,38.46042],[-122.05526,38.46038],[-122.05535,38.46027],[-122.05543,38.46018],[-122.05556,38.46002],[-122.05563,38.45991],[-122.05569,38.45982],[-122.05575,38.4597],[-122.05579,38.45964],[-122.05581,38.45959],[-122.05584,38.45953],[-122.05586,38.45948],[-122.05588,38.45944],[-122.05592,38.45935],[-122.05605,38.45902],[-122.05607,38.45897],[-122.05612,38.45885],[-122.05616,38.45875],[-122.05626,38.45848],[-122.05629,38.45842],[-122.05639,38.45816],[-122.05641,38.45812],[-122.05646,38.45799],[-122.05652,38.45783],[-122.05653,38.45782],[-122.05655,38.45776],[-122.05661,38.45761],[-122.05663,38.45755],[-122.05665,38.45748],[-122.05665,38.45747],[-122.05667,38.45742],[-122.05668,38.45737],[-122.05668,38.45732],[-122.05669,38.45729],[-122.05669,38.45726],[-122.0567,38.45722],[-122.0567,38.45717],[-122.0567,38.45708],[-122.0567,38.45692],[-122.05668,38.45658],[-122.05664,38.45547],[-122.05662,38.45496],[-122.05662,38.4549],[-122.05659,38.45388],[-122.05659,38.4537],[-122.05658,38.4536],[-122.05657,38.45303],[-122.05656,38.45291],[-122.05655,38.45271],[-122.05654,38.45259],[-122.05653,38.45249],[-122.05651,38.45233],[-122.05651,38.45231],[-122.05649,38.45214],[-122.05647,38.45198],[-122.05646,38.45196],[-122.05644,38.45178],[-122.05643,38.45166],[-122.05642,38.4516],[-122.05639,38.45139],[-122.05637,38.45131],[-122.05637,38.45128],[-122.05636,38.45126],[-122.05635,38.45124],[-122.05635,38.45122],[-122.05632,38.45118],[-122.05629,38.45113],[-122.05624,38.45109],[-122.05623,38.45107],[-122.05614,38.45098],[-122.05611,38.45094],[-122.05604,38.45087],[-122.05598,38.45081],[-122.05594,38.45076],[-122.05591,38.45073],[-122.05586,38.45066],[-122.05582,38.45059],[-122.05579,38.45051],[-122.05574,38.4504],[-122.0557,38.4503],[-122.05568,38.45026],[-122.05566,38.45023],[-122.05561,38.45015],[-122.05556,38.4501],[-122.0555,38.45004],[-122.05543,38.45],[-122.0554,38.44998],[-122.05535,38.44995],[-122.05529,38.44993],[-122.0552,38.44989],[-122.05512,38.44986],[-122.05505,38.44983],[-122.05501,38.4498],[-122.05498,38.44979],[-122.05493,38.44976],[-122.05487,38.44971],[-122.05482,38.44966],[-122.0548,38.44963],[-122.05476,38.44958],[-122.05474,38.44954],[-122.0547,38.44946],[-122.05468,38.44942],[-122.05467,38.44937],[-122.05466,38.44931],[-122.05467,38.44925],[-122.05467,38.44917],[-122.05469,38.4491],[-122.0547,38.44902],[-122.05471,38.44899],[-122.05475,38.44882],[-122.05479,38.44866],[-122.05484,38.44846],[-122.05487,38.44828],[-122.05491,38.44811],[-122.05496,38.44793],[-122.05499,38.44781],[-122.05501,38.44769],[-122.05502,38.44761],[-122.05503,38.44753],[-122.05503,38.44744],[-122.05503,38.44734],[-122.05502,38.44718],[-122.05502,38.44696],[-122.05501,38.44685],[-122.05499,38.44676],[-122.05497,38.44667],[-122.05495,38.44659],[-122.05493,38.44653],[-122.05486,38.44637],[-122.05479,38.4462],[-122.05462,38.44578],[-122.05457,38.44565],[-122.05455,38.44558],[-122.05452,38.44547],[-122.05449,38.44538],[-122.05445,38.4452],[-122.05442,38.44505],[-122.05441,38.44499],[-122.05433,38.44465],[-122.05432,38.44463],[-122.0543,38.44452],[-122.05427,38.44441],[-122.05425,38.44432],[-122.05415,38.44397],[-122.05411,38.44379],[-122.05409,38.44372],[-122.05407,38.44361],[-122.05403,38.44343],[-122.05402,38.44337],[-122.05398,38.44319],[-122.05391,38.4429],[-122.05388,38.44279],[-122.05386,38.44272],[-122.05384,38.44265],[-122.0538,38.44251],[-122.05376,38.4424],[-122.05373,38.44231],[-122.05369,38.4422],[-122.05359,38.44198],[-122.05354,38.44187],[-122.05352,38.44182],[-122.05348,38.44175],[-122.05346,38.44169],[-122.05344,38.44164],[-122.05344,38.44163],[-122.05338,38.44148],[-122.05338,38.44147],[-122.05335,38.44138],[-122.05333,38.44132],[-122.05333,38.44129],[-122.05331,38.44123],[-122.05329,38.44115],[-122.05327,38.44104],[-122.05326,38.44094],[-122.05323,38.44076],[-122.05322,38.44067],[-122.0532,38.44054],[-122.05319,38.44046],[-122.05316,38.44028],[-122.05315,38.44022],[-122.05313,38.44005],[-122.05313,38.44004],[-122.0531,38.43986],[-122.05308,38.4397],[-122.05308,38.43969],[-122.05305,38.43951],[-122.05304,38.43944],[-122.05298,38.43897],[-122.05293,38.43861],[-122.05288,38.43826],[-122.05287,38.43816],[-122.05285,38.43803],[-122.05284,38.43799],[-122.05282,38.43781],[-122.05282,38.4378],[-122.0528,38.4377],[-122.05279,38.43763],[-122.05277,38.43749],[-122.05277,38.43745],[-122.05276,38.4374],[-122.05274,38.43725],[-122.05273,38.43722],[-122.05269,38.43693],[-122.05265,38.43676],[-122.05265,38.43674],[-122.05264,38.43669],[-122.05263,38.43668],[-122.05261,38.4366],[-122.05258,38.43653],[-122.05254,38.43645],[-122.0525,38.43635],[-122.05245,38.43628],[-122.05239,38.43619],[-122.05235,38.43613],[-122.05229,38.43606],[-122.0522,38.43596],[-122.05216,38.43592],[-122.05211,38.43587],[-122.05202,38.43578],[-122.05194,38.43571],[-122.05185,38.43564],[-122.05176,38.43558],[-122.05169,38.43553],[-122.05164,38.43549],[-122.05149,38.43539],[-122.05139,38.43532],[-122.05126,38.43521],[-122.05118,38.43514],[-122.05112,38.43509],[-122.05108,38.43504],[-122.05106,38.43501],[-122.05103,38.43497],[-122.05097,38.43489],[-122.05085,38.43464],[-122.05073,38.4344],[-122.05067,38.43429],[-122.05058,38.43413],[-122.05052,38.43402],[-122.05044,38.43388],[-122.05031,38.43366],[-122.05019,38.43343],[-122.05015,38.43336],[-122.05014,38.43334],[-122.05011,38.43327],[-122.05009,38.43323],[-122.05007,38.43318],[-122.05006,38.43311],[-122.05005,38.43305],[-122.05004,38.43301],[-122.05004,38.43294],[-122.05003,38.43283],[-122.05003,38.43276],[-122.05002,38.43258],[-122.05002,38.43247],[-122.05001,38.43238],[-122.05,38.43215],[-122.04999,38.43193],[-122.04998,38.43191],[-122.04998,38.43181],[-122.04998,38.43175],[-122.04997,38.43169],[-122.04998,38.43157],[-122.04998,38.43156],[-122.04998,38.4314],[-122.04998,38.43139],[-122.04998,38.43136],[-122.04997,38.43131],[-122.04997,38.43127],[-122.04996,38.43122],[-122.04994,38.43118],[-122.04991,38.43108],[-122.04984,38.43096],[-122.04976,38.43079],[-122.04971,38.43071],[-122.04964,38.43058],[-122.04956,38.43043],[-122.04948,38.4303],[-122.04942,38.43019],[-122.04935,38.43005],[-122.04933,38.43002],[-122.04901,38.42942],[-122.04874,38.4289],[-122.04848,38.4284],[-122.0484,38.42826],[-122.04832,38.42809],[-122.04813,38.42775],[-122.04775,38.42701],[-122.04761,38.42674],[-122.04744,38.42639],[-122.04732,38.42616],[-122.04706,38.42566],[-122.04694,38.42542],[-122.04681,38.42515],[-122.04668,38.4249],[-122.04666,38.42486],[-122.04663,38.42481],[-122.04658,38.42469],[-122.04655,38.42464],[-122.04645,38.42444],[-122.04639,38.42429],[-122.04634,38.42419],[-122.04628,38.42404],[-122.04622,38.4239],[-122.04614,38.42374],[-122.04604,38.42351],[-122.04601,38.42344],[-122.04592,38.42324],[-122.04585,38.42307],[-122.04577,38.4229],[-122.04573,38.42281],[-122.04561,38.42257],[-122.04557,38.42249],[-122.04553,38.42242],[-122.0455,38.42237],[-122.04548,38.42234],[-122.04544,38.42227],[-122.04538,38.42219],[-122.04534,38.42212],[-122.04531,38.42205],[-122.0452,38.42182],[-122.04509,38.42161],[-122.045,38.42144],[-122.04498,38.42141],[-122.04488,38.42124],[-122.04478,38.42108],[-122.04476,38.42104],[-122.04469,38.42092],[-122.04468,38.42092],[-122.04461,38.42079],[-122.04459,38.42076],[-122.04459,38.42075],[-122.04448,38.42057],[-122.04436,38.42033],[-122.04429,38.4202],[-122.04421,38.42004],[-122.04388,38.41937],[-122.0438,38.41921],[-122.0438,38.4192],[-122.04372,38.41903],[-122.04342,38.41843],[-122.04338,38.41836],[-122.0433,38.4182],[-122.04329,38.4182],[-122.04321,38.41803],[-122.04309,38.41781],[-122.04298,38.41759],[-122.04295,38.41753],[-122.04284,38.41732],[-122.04266,38.41694],[-122.04262,38.41684],[-122.0426,38.41679],[-122.04259,38.41672],[-122.04256,38.41643],[-122.04257,38.41622],[-122.04257,38.41605],[-122.04258,38.41565],[-122.04258,38.41542],[-122.04258,38.41532],[-122.04259,38.41524],[-122.0426,38.41516],[-122.04264,38.41503],[-122.04268,38.41495],[-122.04272,38.4149],[-122.04278,38.41481],[-122.04286,38.4147],[-122.04309,38.41446],[-122.04316,38.41438],[-122.04321,38.41429],[-122.04325,38.4142],[-122.04328,38.41412],[-122.0433,38.41404],[-122.04332,38.41388],[-122.04332,38.41377],[-122.0433,38.41369],[-122.04326,38.41353],[-122.04308,38.41301],[-122.04301,38.41283],[-122.04292,38.41257],[-122.04289,38.41249],[-122.04283,38.41231],[-122.04282,38.4123],[-122.04261,38.41172],[-122.04255,38.41156],[-122.04251,38.41142],[-122.04249,38.41138],[-122.04244,38.41125],[-122.04241,38.41114],[-122.04239,38.41108],[-122.04237,38.41104],[-122.04233,38.4109],[-122.0423,38.41072],[-122.04229,38.4106],[-122.04229,38.41054],[-122.04229,38.41049],[-122.04229,38.41024],[-122.04232,38.40983],[-122.04233,38.4096],[-122.04234,38.40947],[-122.04235,38.40923],[-122.04237,38.40893],[-122.0424,38.40836],[-122.04241,38.40819],[-122.04243,38.40787],[-122.04244,38.40778],[-122.04245,38.40769],[-122.0425,38.40716],[-122.04251,38.40704],[-122.04252,38.40698],[-122.04261,38.40608],[-122.04264,38.40577],[-122.04265,38.40572],[-122.04266,38.40541],[-122.04266,38.40539],[-122.04266,38.40522],[-122.04265,38.40485],[-122.04259,38.40452],[-122.04247,38.4039],[-122.0424,38.40352],[-122.04233,38.40316],[-122.04229,38.40298],[-122.04228,38.4029],[-122.04226,38.4028],[-122.04226,38.40279],[-122.04224,38.40267],[-122.04222,38.40245],[-122.04222,38.40244],[-122.04219,38.4022],[-122.04217,38.40208],[-122.04217,38.40206],[-122.04213,38.40193],[-122.04207,38.40173],[-122.04206,38.40171],[-122.04196,38.4014],[-122.04183,38.40108],[-122.0417,38.40088],[-122.04159,38.40074],[-122.04156,38.40072],[-122.0415,38.40065],[-122.04136,38.4005],[-122.0412,38.40035],[-122.04104,38.4002],[-122.04093,38.40009],[-122.04089,38.40005],[-122.04086,38.4],[-122.04079,38.39989],[-122.04075,38.39981],[-122.04073,38.39975],[-122.04068,38.39962],[-122.04065,38.39953],[-122.04064,38.39948],[-122.04062,38.39942],[-122.04054,38.39918],[-122.04053,38.39916],[-122.04037,38.39867],[-122.04021,38.39817],[-122.04021,38.39816],[-122.04003,38.39769],[-122.03986,38.39728],[-122.03975,38.39701],[-122.03926,38.39578],[-122.0391,38.39537],[-122.03904,38.39527],[-122.03898,38.39519],[-122.03889,38.3951],[-122.03884,38.39504],[-122.03871,38.39493],[-122.03854,38.39479],[-122.03839,38.39467],[-122.03838,38.39467],[-122.03826,38.39457],[-122.03819,38.39451],[-122.03813,38.39446],[-122.03802,38.39435],[-122.03799,38.39433],[-122.03796,38.3943],[-122.03793,38.39426],[-122.03789,38.39421],[-122.03784,38.39413],[-122.03782,38.39408],[-122.03777,38.39398],[-122.03774,38.3939],[-122.03766,38.39368],[-122.03764,38.39361],[-122.03757,38.39339],[-122.0375,38.39315],[-122.03745,38.39303],[-122.03741,38.39291],[-122.03723,38.3926],[-122.03716,38.39248],[-122.03702,38.39222],[-122.03697,38.39211],[-122.03688,38.39188],[-122.03684,38.39175],[-122.03684,38.39174],[-122.03675,38.39148],[-122.03665,38.39123],[-122.03643,38.39077],[-122.03628,38.39043],[-122.03623,38.39032],[-122.03617,38.39019],[-122.0361,38.39004],[-122.03602,38.38992],[-122.03598,38.38986],[-122.03589,38.38976],[-122.03579,38.38968],[-122.03572,38.38963],[-122.03564,38.38958],[-122.03518,38.38935],[-122.03491,38.38921],[-122.03473,38.38912],[-122.03468,38.3891],[-122.03461,38.38905],[-122.03454,38.389],[-122.0345,38.38897],[-122.03442,38.38889],[-122.03436,38.3888],[-122.03432,38.38874],[-122.03431,38.38873],[-122.03422,38.38858],[-122.03414,38.38844],[-122.03401,38.38823],[-122.03395,38.38811],[-122.0339,38.38799],[-122.03386,38.3879],[-122.03381,38.38776],[-122.03372,38.38748],[-122.03363,38.38721],[-122.03359,38.38708],[-122.03354,38.38696],[-122.03344,38.38676],[-122.03339,38.38665],[-122.03329,38.38646],[-122.03322,38.38636],[-122.03318,38.38629],[-122.03312,38.3862],[-122.03309,38.38616],[-122.03303,38.38608],[-122.03295,38.38598],[-122.03281,38.38581],[-122.03251,38.38547],[-122.03231,38.38523],[-122.03227,38.38518],[-122.03215,38.38503],[-122.03197,38.38481],[-122.03178,38.38457],[-122.03158,38.38436],[-122.03123,38.38399],[-122.03114,38.38389],[-122.03073,38.38343],[-122.03032,38.38294],[-122.03016,38.38276],[-122.0299,38.38244],[-122.02975,38.38224],[-122.0297,38.38218],[-122.02957,38.382],[-122.02918,38.38148],[-122.02893,38.38115],[-122.02882,38.38101],[-122.0285,38.38057],[-122.02827,38.38024],[-122.02805,38.37992],[-122.02792,38.37972],[-122.02761,38.37929],[-122.0275,38.37913],[-122.02717,38.37866],[-122.02697,38.37838],[-122.02684,38.37819],[-122.02675,38.37804],[-122.02674,38.37802],[-122.02655,38.37772],[-122.02643,38.37754],[-122.02613,38.37705],[-122.02559,38.37621],[-122.02538,38.37587],[-122.02524,38.37565],[-122.02511,38.37543],[-122.025,38.37525],[-122.02492,38.3751],[-122.02485,38.37497],[-122.02481,38.37488],[-122.02478,38.37478],[-122.02473,38.37465],[-122.0247,38.37456],[-122.02465,38.37438],[-122.02464,38.37432],[-122.02461,38.37421],[-122.02452,38.37385],[-122.02451,38.37378],[-122.02451,38.37372],[-122.02451,38.37364],[-122.02452,38.37358],[-122.02452,38.37356],[-122.02453,38.37351],[-122.02455,38.37343],[-122.02459,38.37331],[-122.02465,38.37314],[-122.02471,38.37295],[-122.02476,38.37282],[-122.02479,38.37269],[-122.02481,38.37253],[-122.02481,38.37247],[-122.0248,38.37242],[-122.02478,38.37232],[-122.02476,38.3722],[-122.0247,38.37207],[-122.0247,38.37206],[-122.02461,38.37188],[-122.02452,38.37172],[-122.02431,38.37136],[-122.02426,38.37127],[-122.02419,38.37114],[-122.02414,38.37103],[-122.0241,38.3709],[-122.02409,38.37086],[-122.02408,38.3708],[-122.02406,38.37068],[-122.02406,38.37064],[-122.02404,38.3705],[-122.02403,38.37032],[-122.02402,38.37025],[-122.02401,38.37014],[-122.02398,38.36997],[-122.02397,38.36987],[-122.02397,38.36979],[-122.02397,38.36978],[-122.02395,38.36961],[-122.02392,38.36928],[-122.02391,38.36924],[-122.02389,38.36907],[-122.02388,38.36899],[-122.02387,38.36889],[-122.02384,38.36871],[-122.02383,38.36863],[-122.02381,38.36853],[-122.02379,38.36835],[-122.02377,38.36818],[-122.02374,38.36799],[-122.02374,38.36798],[-122.0237,38.36764],[-122.02368,38.36746],[-122.02368,38.36745],[-122.02366,38.36728],[-122.02366,38.36727],[-122.02364,38.3671],[-122.02363,38.36709],[-122.02359,38.36673],[-122.02355,38.36638],[-122.02355,38.36637],[-122.02349,38.36592],[-122.02348,38.36583],[-122.02346,38.36566],[-122.02344,38.36549],[-122.02344,38.36548],[-122.02339,38.36513],[-122.02339,38.36512],[-122.02338,38.365],[-122.02337,38.36495],[-122.02337,38.36494],[-122.02333,38.36459],[-122.02333,38.36458],[-122.02331,38.36442],[-122.0233,38.3644],[-122.02328,38.36424],[-122.02328,38.36422],[-122.02326,38.36406],[-122.02326,38.36404],[-122.02324,38.36388],[-122.02324,38.36386],[-122.02324,38.36385],[-122.02316,38.36316],[-122.02313,38.36296],[-122.02312,38.36283],[-122.02308,38.36252],[-122.02306,38.36237],[-122.02302,38.36222],[-122.02299,38.36209],[-122.02297,38.36197],[-122.02297,38.36179],[-122.02297,38.36171],[-122.02298,38.36165],[-122.023,38.36157],[-122.02304,38.36147],[-122.02307,38.36139],[-122.02309,38.36134],[-122.02313,38.36126],[-122.02317,38.3612],[-122.02321,38.36114],[-122.02326,38.36108],[-122.02331,38.36102],[-122.02344,38.3609],[-122.02387,38.36048],[-122.02423,38.36011],[-122.02431,38.36001],[-122.02438,38.35991],[-122.02443,38.35982],[-122.02447,38.35973],[-122.0245,38.35964],[-122.02452,38.35956],[-122.02454,38.35943],[-122.02455,38.35928],[-122.02456,38.35888],[-122.02456,38.35874],[-122.02456,38.35838],[-122.02456,38.35734],[-122.02457,38.35589],[-122.02457,38.35541],[-122.02458,38.35473],[-122.02459,38.35289],[-122.0246,38.35145],[-122.0246,38.35109],[-122.0246,38.35092],[-122.02461,38.34941],[-122.02461,38.34917],[-122.02461,38.34909],[-122.02462,38.34751],[-122.02462,38.34681],[-122.02463,38.34626],[-122.02463,38.34618],[-122.02463,38.34606],[-122.02463,38.34552],[-122.02463,38.34546],[-122.02464,38.34456],[-122.02464,38.34395],[-122.02464,38.34366],[-122.02465,38.3434],[-122.02465,38.34313],[-122.02465,38.34306],[-122.02465,38.34299],[-122.02465,38.34272],[-122.02466,38.34159],[-122.02466,38.3414],[-122.02466,38.34086],[-122.02467,38.34006],[-122.02467,38.33973],[-122.02467,38.3396],[-122.02468,38.33816],[-122.02468,38.33793],[-122.02469,38.33757],[-122.02469,38.33745],[-122.02469,38.33724],[-122.0247,38.33654],[-122.0247,38.33643],[-122.0247,38.3363],[-122.02471,38.33622],[-122.02471,38.33622],[-122.02481,38.33619],[-122.02532,38.33603],[-122.02627,38.33573],[-122.02668,38.33559],[-122.02683,38.33555],[-122.02689,38.33553],[-122.02704,38.33548],[-122.02713,38.33545],[-122.02727,38.3354],[-122.02731,38.33539],[-122.02734,38.33538],[-122.02742,38.33535],[-122.02746,38.33533],[-122.0275,38.33531],[-122.02755,38.33529],[-122.02758,38.33527],[-122.02763,38.33523],[-122.02769,38.33519],[-122.02775,38.33514],[-122.02779,38.3351],[-122.02781,38.33508],[-122.02783,38.33506],[-122.02783,38.33505],[-122.02786,38.33501],[-122.0279,38.33496],[-122.02793,38.33489],[-122.02796,38.33483],[-122.02797,38.33477],[-122.02799,38.33471],[-122.02799,38.33467],[-122.02799,38.33463],[-122.02799,38.33458],[-122.02798,38.33445],[-122.02793,38.33432],[-122.02776,38.33396],[-122.02766,38.33377],[-122.0276,38.33366],[-122.02758,38.33361],[-122.02741,38.33327],[-122.02739,38.33322],[-122.02725,38.33295],[-122.02662,38.33167],[-122.02627,38.33097],[-122.0262,38.33083],[-122.02613,38.33069],[-122.02598,38.33037],[-122.02595,38.33031],[-122.02593,38.33025],[-122.02591,38.33019],[-122.02589,38.33013],[-122.02588,38.33008],[-122.02587,38.33001],[-122.02586,38.32994],[-122.02586,38.32987],[-122.02588,38.32977],[-122.0259,38.3295],[-122.02591,38.3293],[-122.02592,38.32907],[-122.02596,38.32838],[-122.02598,38.32785],[-122.02599,38.32775],[-122.026,38.32759],[-122.02599,38.32746],[-122.02598,38.32733],[-122.02597,38.32726],[-122.02594,38.32715],[-122.0259,38.327],[-122.02586,38.32689],[-122.0258,38.32674],[-122.02565,38.3265],[-122.02538,38.32619],[-122.02528,38.32608],[-122.02528,38.32608],[-122.02527,38.32602],[-122.02526,38.32601],[-122.02524,38.32598],[-122.02521,38.32594],[-122.02513,38.32587],[-122.02509,38.32581],[-122.02506,38.32577],[-122.02504,38.32575],[-122.02493,38.32555],[-122.02492,38.32549],[-122.0249,38.32541],[-122.02488,38.32532],[-122.02488,38.32525],[-122.02487,38.32523],[-122.02487,38.32517],[-122.02486,38.32508],[-122.02486,38.32487],[-122.02487,38.32474],[-122.0249,38.32459],[-122.02491,38.32458],[-122.02495,38.32445],[-122.02497,38.3244],[-122.02509,38.32406],[-122.02515,38.32387],[-122.0251,38.32374],[-122.0252,38.32359],[-122.02526,38.3235],[-122.02546,38.32323],[-122.02559,38.32305],[-122.0258,38.32279],[-122.02597,38.32259],[-122.02623,38.32229],[-122.02649,38.322],[-122.0268,38.32167],[-122.02695,38.32149],[-122.02702,38.32141],[-122.0273,38.3211],[-122.02748,38.3209],[-122.02755,38.32082],[-122.02757,38.3208],[-122.02773,38.32062],[-122.0278,38.32054],[-122.02788,38.32046],[-122.02799,38.32034],[-122.02801,38.32032],[-122.02808,38.32024],[-122.02818,38.32014],[-122.02839,38.31991],[-122.02853,38.31977],[-122.02869,38.31959],[-122.02914,38.31908],[-122.02954,38.31863],[-122.02976,38.31838],[-122.02999,38.31811],[-122.0302,38.31786],[-122.03045,38.31758],[-122.03064,38.31737],[-122.03077,38.31723],[-122.03091,38.31708],[-122.031,38.31698],[-122.03111,38.31685],[-122.03114,38.31681],[-122.03116,38.31678],[-122.03123,38.31669],[-122.03142,38.31646],[-122.03153,38.31632],[-122.03154,38.3163],[-122.03159,38.31624],[-122.03167,38.31612],[-122.03174,38.31602],[-122.03185,38.31585],[-122.03196,38.31569],[-122.03204,38.31555],[-122.03213,38.31541],[-122.03219,38.3153],[-122.03225,38.31519],[-122.03231,38.31508],[-122.03237,38.31497],[-122.0324,38.31491],[-122.0325,38.31468],[-122.03256,38.31456],[-122.0326,38.31445],[-122.03271,38.31419],[-122.03276,38.31406],[-122.03278,38.31398],[-122.03282,38.31388],[-122.03283,38.31383],[-122.03285,38.31376],[-122.03287,38.31371],[-122.03288,38.31369],[-122.03292,38.31353],[-122.03297,38.31334],[-122.03302,38.31316],[-122.03303,38.31309],[-122.03304,38.31303],[-122.03308,38.31283],[-122.03312,38.31264],[-122.03315,38.31247],[-122.03317,38.31233],[-122.03319,38.31225],[-122.03321,38.31212],[-122.03323,38.31199],[-122.03326,38.31176],[-122.03329,38.3116],[-122.03335,38.31123],[-122.0334,38.31092],[-122.03348,38.31043],[-122.03352,38.31015],[-122.03353,38.3101],[-122.03355,38.31002],[-122.03356,38.30994],[-122.0336,38.30973],[-122.03362,38.30958],[-122.03363,38.30946],[-122.03368,38.30908],[-122.03369,38.30905],[-122.03373,38.30875],[-122.03378,38.30846],[-122.0338,38.30835],[-122.03382,38.30822],[-122.03383,38.30815],[-122.03384,38.30808],[-122.03385,38.30796],[-122.03387,38.30783],[-122.03388,38.3077],[-122.03389,38.30763],[-122.03391,38.30744],[-122.03398,38.30678],[-122.03398,38.30677],[-122.03399,38.30661],[-122.03399,38.3065],[-122.03399,38.30643],[-122.034,38.30621],[-122.03401,38.30611],[-122.03402,38.30589],[-122.03402,38.30562],[-122.03403,38.30545],[-122.03402,38.30529],[-122.03402,38.30506],[-122.03402,38.30483],[-122.03402,38.30468],[-122.03402,38.30454],[-122.03402,38.30441],[-122.03402,38.30427],[-122.03402,38.30413],[-122.03402,38.30401],[-122.03403,38.30388],[-122.03403,38.30382],[-122.03403,38.30374],[-122.03403,38.30363],[-122.03404,38.30346],[-122.03404,38.30334],[-122.03404,38.30322],[-122.03404,38.30308],[-122.03404,38.30295],[-122.03405,38.30283],[-122.03405,38.30269],[-122.03405,38.30255],[-122.03405,38.30241],[-122.03406,38.30231],[-122.03406,38.30217],[-122.03406,38.30204],[-122.03406,38.30197],[-122.03406,38.3019],[-122.03407,38.30179],[-122.03407,38.30159],[-122.03407,38.30137],[-122.03408,38.30123],[-122.03408,38.3011],[-122.03408,38.30097],[-122.03408,38.30092],[-122.03408,38.3009],[-122.03409,38.30069],[-122.03409,38.30057],[-122.0341,38.30031],[-122.0341,38.30017],[-122.03411,38.29992],[-122.03412,38.29954],[-122.03412,38.29947],[-122.03412,38.2994],[-122.03412,38.29925],[-122.03413,38.29914],[-122.03413,38.29897],[-122.03413,38.29885],[-122.03413,38.2987],[-122.03414,38.29848],[-122.03414,38.29835],[-122.03415,38.29809],[-122.03415,38.29795],[-122.03416,38.29782],[-122.03416,38.29768],[-122.03417,38.29753],[-122.03417,38.29731],[-122.03417,38.2973],[-122.03417,38.29722],[-122.03417,38.29716],[-122.03417,38.29704],[-122.03419,38.29659],[-122.03418,38.29652],[-122.03419,38.29639],[-122.03419,38.2963],[-122.03419,38.29607],[-122.03419,38.29598],[-122.03419,38.29589],[-122.03419,38.2956],[-122.0342,38.29545],[-122.0342,38.2953],[-122.03421,38.29513],[-122.03421,38.29494],[-122.03422,38.29466],[-122.03422,38.29454],[-122.03423,38.29441],[-122.03423,38.29428],[-122.03423,38.29416],[-122.03424,38.29402],[-122.03424,38.2939],[-122.03425,38.29381],[-122.03425,38.29373],[-122.03426,38.2936],[-122.03426,38.29348],[-122.03426,38.29343],[-122.03427,38.29337],[-122.03428,38.29329],[-122.03429,38.29319],[-122.0343,38.29312],[-122.03433,38.29296],[-122.03434,38.29289],[-122.03435,38.29284],[-122.03438,38.29273],[-122.03441,38.29259],[-122.03443,38.29253],[-122.03444,38.29248],[-122.03445,38.29247],[-122.03448,38.29235],[-122.0345,38.29228],[-122.03452,38.29222],[-122.03455,38.29215],[-122.03459,38.29202],[-122.03462,38.29195],[-122.03465,38.29186],[-122.03467,38.29181],[-122.03471,38.2917],[-122.03474,38.29164],[-122.03477,38.29157],[-122.03481,38.2915],[-122.03486,38.2914],[-122.03489,38.29133],[-122.03493,38.29126],[-122.03495,38.29122],[-122.03503,38.29109],[-122.03507,38.29103],[-122.0351,38.29097],[-122.03518,38.29084],[-122.03522,38.29079],[-122.03525,38.29073],[-122.03534,38.29061],[-122.03538,38.29055],[-122.03542,38.29049],[-122.03554,38.29032],[-122.03558,38.29027],[-122.03564,38.2902],[-122.03567,38.29016],[-122.03572,38.2901],[-122.03576,38.29005],[-122.03581,38.29],[-122.03586,38.28994],[-122.03597,38.2898],[-122.03606,38.2897],[-122.03616,38.28958],[-122.03631,38.28941],[-122.03647,38.28921],[-122.03654,38.28913],[-122.03662,38.28904],[-122.03676,38.28887],[-122.03679,38.28885],[-122.03689,38.28872],[-122.03696,38.28864],[-122.03703,38.28856],[-122.03713,38.28844],[-122.03729,38.28826],[-122.03737,38.28816],[-122.03771,38.28777],[-122.03779,38.28768],[-122.03801,38.28742],[-122.0381,38.28731],[-122.03818,38.28721],[-122.0383,38.28706],[-122.03842,38.28692],[-122.03847,38.28686],[-122.03852,38.28679],[-122.03876,38.28648],[-122.03889,38.28633],[-122.03898,38.28623],[-122.03907,38.28612],[-122.03911,38.28608],[-122.03916,38.28601],[-122.03925,38.28591],[-122.03929,38.28586],[-122.03938,38.28576],[-122.03948,38.28565],[-122.03989,38.28517],[-122.03991,38.28514],[-122.03996,38.28508],[-122.04005,38.28497],[-122.04019,38.28482],[-122.04026,38.28474],[-122.0403,38.28469],[-122.04037,38.2846],[-122.0404,38.28457],[-122.04043,38.28454],[-122.04052,38.28444],[-122.04058,38.28436],[-122.04106,38.28378],[-122.04122,38.28359],[-122.04141,38.28336],[-122.0415,38.28326],[-122.04167,38.28306],[-122.04173,38.28299],[-122.04185,38.28284],[-122.04188,38.2828],[-122.04189,38.28279],[-122.04191,38.28277],[-122.04199,38.28267],[-122.04205,38.28261],[-122.04214,38.2825],[-122.04246,38.28213],[-122.04259,38.28198],[-122.04268,38.28186],[-122.04284,38.28168],[-122.04298,38.28151],[-122.04322,38.28123],[-122.04335,38.28108],[-122.04375,38.2806],[-122.04409,38.28021],[-122.04441,38.27983],[-122.04454,38.27968],[-122.04473,38.27945],[-122.04492,38.27922],[-122.04506,38.27907],[-122.04518,38.27892],[-122.04531,38.27877],[-122.04559,38.27844],[-122.04568,38.27833],[-122.04586,38.27812],[-122.04614,38.27779],[-122.04622,38.27769],[-122.04635,38.27754],[-122.04652,38.27734],[-122.04675,38.27707],[-122.04686,38.27694],[-122.04688,38.27692],[-122.04723,38.2765],[-122.04744,38.27625],[-122.04752,38.27616],[-122.04757,38.2761],[-122.0476,38.27606],[-122.04766,38.276],[-122.04766,38.276],[-122.04781,38.27597],[-122.04782,38.27597],[-122.04783,38.27596],[-122.04797,38.27585],[-122.04803,38.27579],[-122.04813,38.27569],[-122.04827,38.27554],[-122.04841,38.2754],[-122.0485,38.27532],[-122.04859,38.27523],[-122.04865,38.27517],[-122.04866,38.27516],[-122.04876,38.27504],[-122.04878,38.27502],[-122.04888,38.27489],[-122.04894,38.27482],[-122.04896,38.2748],[-122.04897,38.27478],[-122.04899,38.27476],[-122.04905,38.27469],[-122.0491,38.27463],[-122.04911,38.27463],[-122.0492,38.27452],[-122.04922,38.2745],[-122.0494,38.27432],[-122.04958,38.27414],[-122.04962,38.2741],[-122.04966,38.27406],[-122.04971,38.27401],[-122.04986,38.27387],[-122.04993,38.27381],[-122.04996,38.2738],[-122.05003,38.27375],[-122.05012,38.27371],[-122.05015,38.2737],[-122.05024,38.27367],[-122.05035,38.27364],[-122.05037,38.27364],[-122.05047,38.27362],[-122.05059,38.27362],[-122.05064,38.27362],[-122.05079,38.27361],[-122.05102,38.2736],[-122.05111,38.2736],[-122.05111,38.27359],[-122.05122,38.27355],[-122.05131,38.27355],[-122.05146,38.27354],[-122.05164,38.27352],[-122.05172,38.27351],[-122.05181,38.2735],[-122.05188,38.27349],[-122.05189,38.27349],[-122.05196,38.27348],[-122.05205,38.27346],[-122.05213,38.27345],[-122.0523,38.27342],[-122.05255,38.27337],[-122.05297,38.27321],[-122.05314,38.27315],[-122.05327,38.27309],[-122.05341,38.27303],[-122.05349,38.27299],[-122.05362,38.27293],[-122.05369,38.27289],[-122.05375,38.27285],[-122.05383,38.27281],[-122.0539,38.27276],[-122.0541,38.27264],[-122.05442,38.27241],[-122.05445,38.27239],[-122.05461,38.27226],[-122.05471,38.27217],[-122.05485,38.27204],[-122.0549,38.27198],[-122.05497,38.27191],[-122.0552,38.27164],[-122.05527,38.27156],[-122.05534,38.27148],[-122.05546,38.27135],[-122.05551,38.27124],[-122.05553,38.27123],[-122.05563,38.27116],[-122.05587,38.271],[-122.05616,38.27082],[-122.05621,38.27079],[-122.05631,38.27074],[-122.05647,38.27067],[-122.05662,38.27061],[-122.05675,38.27056],[-122.05689,38.27052],[-122.05703,38.27047],[-122.05711,38.27045],[-122.0573,38.27041],[-122.05781,38.27032],[-122.05836,38.27023],[-122.05909,38.27009],[-122.05981,38.26996],[-122.06011,38.2699],[-122.06025,38.26987],[-122.06054,38.26979],[-122.06079,38.26971],[-122.06089,38.26968],[-122.06095,38.26966],[-122.06104,38.26964],[-122.06122,38.26959],[-122.06131,38.26957],[-122.06141,38.26955],[-122.06149,38.26953],[-122.06176,38.26949],[-122.06203,38.26947],[-122.06221,38.26947],[-122.06278,38.26947],[-122.06289,38.26947],[-122.06336,38.26947],[-122.0642,38.26948],[-122.06459,38.26949],[-122.06487,38.26949],[-122.06553,38.2695],[-122.06564,38.2695],[-122.06639,38.2695],[-122.06684,38.2695],[-122.06742,38.2695],[-122.06775,38.2695],[-122.06794,38.2695],[-122.06893,38.26949],[-122.06918,38.26948],[-122.06919,38.26948],[-122.06942,38.26948],[-122.06965,38.26948],[-122.0701,38.26947],[-122.07073,38.26945],[-122.07119,38.26944],[-122.07176,38.26943],[-122.07205,38.26942],[-122.07227,38.26941],[-122.07299,38.26939],[-122.07383,38.26936],[-122.0746,38.26934],[-122.07497,38.26933],[-122.07554,38.26931],[-122.07558,38.26931],[-122.07591,38.2693],[-122.07626,38.26929],[-122.07626,38.26929],[-122.07642,38.26935],[-122.07654,38.26936],[-122.07658,38.26936],[-122.0767,38.26937],[-122.07693,38.2694],[-122.07738,38.26946],[-122.07752,38.26949],[-122.07886,38.26975],[-122.07974,38.26993],[-122.08002,38.26999],[-122.08021,38.27002],[-122.08034,38.27003],[-122.08041,38.27003],[-122.08054,38.27001],[-122.08093,38.27009],[-122.08151,38.27018],[-122.08199,38.27025],[-122.08209,38.27027],[-122.08219,38.27028],[-122.0824,38.27032],[-122.08253,38.27034],[-122.08264,38.27035],[-122.08281,38.27037],[-122.08307,38.27039],[-122.08316,38.2704],[-122.08336,38.27043],[-122.08351,38.27045],[-122.08373,38.27048],[-122.08382,38.2705],[-122.08449,38.27063],[-122.08472,38.27067],[-122.08783,38.27127],[-122.08802,38.2713],[-122.08846,38.27138],[-122.08899,38.27148],[-122.089,38.27149],[-122.09077,38.27182],[-122.09122,38.27191],[-122.09167,38.27199],[-122.09233,38.27212],[-122.09259,38.27217],[-122.09259,38.27217],[-122.09259,38.27233],[-122.09259,38.27246],[-122.09258,38.27263],[-122.0926,38.27373],[-122.09261,38.2742],[-122.09261,38.27467],[-122.09262,38.27517],[-122.09262,38.27522],[-122.09263,38.27533],[-122.09263,38.27538],[-122.09263,38.27541],[-122.09264,38.27555],[-122.09264,38.27556],[-122.09265,38.27564],[-122.09266,38.27573],[-122.09268,38.27582],[-122.09271,38.27588],[-122.09273,38.27596],[-122.09279,38.27605],[-122.09282,38.2761],[-122.09287,38.27616],[-122.09292,38.27621],[-122.09295,38.27625],[-122.09296,38.27626],[-122.09301,38.2763],[-122.09305,38.27634],[-122.09312,38.27639],[-122.09319,38.27643],[-122.09325,38.27647],[-122.09332,38.27651],[-122.09339,38.27654],[-122.09348,38.27658],[-122.0936,38.27662],[-122.09376,38.27666],[-122.09529,38.27708],[-122.09581,38.27722],[-122.096,38.27728],[-122.0968,38.2775],[-122.09718,38.2776],[-122.09857,38.27798],[-122.09951,38.27824],[-122.10067,38.27855],[-122.10074,38.27857],[-122.10098,38.27864],[-122.10112,38.27868],[-122.10132,38.27873],[-122.10161,38.27879],[-122.10161,38.27879],[-122.10183,38.27873],[-122.10189,38.27871],[-122.10195,38.27867],[-122.10208,38.27858],[-122.10212,38.27853],[-122.10236,38.27803],[-122.10244,38.27785],[-122.10252,38.27768],[-122.1026,38.27752],[-122.10262,38.27747],[-122.10297,38.27674],[-122.103,38.27667],[-122.10303,38.27661],[-122.10356,38.27549],[-122.10364,38.27533],[-122.10384,38.2749],[-122.10398,38.2746],[-122.104,38.27454],[-122.10403,38.27447],[-122.10408,38.27438],[-122.10413,38.27431],[-122.10416,38.27428],[-122.10419,38.27426],[-122.10424,38.27422],[-122.1043,38.27419],[-122.10441,38.27414],[-122.10449,38.27411],[-122.1046,38.27408],[-122.10501,38.27399],[-122.10535,38.27391],[-122.10552,38.27385],[-122.10562,38.27381],[-122.10573,38.27377],[-122.10586,38.27371],[-122.10628,38.27348],[-122.10662,38.27331],[-122.10673,38.27326],[-122.10683,38.27322],[-122.10697,38.27316],[-122.10714,38.27311],[-122.1078,38.27292],[-122.10921,38.27251],[-122.10988,38.27232],[-122.11012,38.27224],[-122.11027,38.27219],[-122.11039,38.27214],[-122.11063,38.27201],[-122.11108,38.27175],[-122.11109,38.27174],[-122.11137,38.27158],[-122.11148,38.27151],[-122.11154,38.27149],[-122.11161,38.27146],[-122.11167,38.27145],[-122.11173,38.27145],[-122.1119,38.27144],[-122.1119,38.27144],[-122.11199,38.2711],[-122.11209,38.27072],[-122.11209,38.27072],[-122.11183,38.27071],[-122.11157,38.27075],[-122.11147,38.27075]]}},{"type":"Feature","properties":{"_gpxType":"trk","name":"Lake Solano County Park, Pleasants Valley Road, Winters, CA - Larry's Produce, Suisun Valley Road, Fairfield, CA - 600 Lopes Rd - 655 Columbus Pkwy - Columbus Pkwy & Georgia St - Vallejo, 289 Mare Island Way, Vallejo, CA 94590","coordinateProperties":{},"id":106},"geometry":{"type":"LineString","coordinates":[[-122.11147,38.27075],[-122.11157,38.27075],[-122.11183,38.27071],[-122.11209,38.27072],[-122.11209,38.27072],[-122.11223,38.27021],[-122.11237,38.26971],[-122.11253,38.26914],[-122.11264,38.26874],[-122.11273,38.26842],[-122.11281,38.26811],[-122.11289,38.26777],[-122.11296,38.26741],[-122.11304,38.26702],[-122.11309,38.26679],[-122.1132,38.26621],[-122.11322,38.26614],[-122.11338,38.26527],[-122.11346,38.26489],[-122.11373,38.26336],[-122.1138,38.26296],[-122.11382,38.26291],[-122.11384,38.26285],[-122.11386,38.26281],[-122.11391,38.26271],[-122.11399,38.26264],[-122.11431,38.26228],[-122.11451,38.26206],[-122.11464,38.26192],[-122.11464,38.26191],[-122.11477,38.26177],[-122.11489,38.26163],[-122.11516,38.26133],[-122.11553,38.26086],[-122.11583,38.26041],[-122.11615,38.25993],[-122.11652,38.25938],[-122.11655,38.25929],[-122.11785,38.2573],[-122.11862,38.2561],[-122.11876,38.25588],[-122.11909,38.25536],[-122.11935,38.25496],[-122.11938,38.25491],[-122.11948,38.25475],[-122.11954,38.25466],[-122.11969,38.25443],[-122.11974,38.25435],[-122.11979,38.25427],[-122.11984,38.25419],[-122.11989,38.25409],[-122.11992,38.25401],[-122.11994,38.25397],[-122.11995,38.25393],[-122.11997,38.25382],[-122.11998,38.25373],[-122.12004,38.25296],[-122.12008,38.2525],[-122.12009,38.25241],[-122.12013,38.25192],[-122.12014,38.25179],[-122.12016,38.25156],[-122.1202,38.25108],[-122.1202,38.25099],[-122.12025,38.25036],[-122.12036,38.24908],[-122.12037,38.24905],[-122.1204,38.24888],[-122.12042,38.2488],[-122.12045,38.24871],[-122.1205,38.24857],[-122.1206,38.24832],[-122.1208,38.24779],[-122.12088,38.24757],[-122.12096,38.24736],[-122.12102,38.24719],[-122.12107,38.24706],[-122.12155,38.24579],[-122.12163,38.24558],[-122.12173,38.2453],[-122.12176,38.24523],[-122.12184,38.245],[-122.12197,38.24467],[-122.122,38.24457],[-122.12217,38.24416],[-122.12229,38.24388],[-122.12238,38.24367],[-122.12251,38.24338],[-122.12256,38.24327],[-122.1226,38.24316],[-122.12268,38.24299],[-122.12268,38.24298],[-122.12275,38.24282],[-122.12289,38.2425],[-122.1232,38.2418],[-122.12345,38.24121],[-122.12363,38.24079],[-122.12364,38.24077],[-122.12379,38.24044],[-122.12397,38.24003],[-122.12409,38.23976],[-122.12431,38.23924],[-122.12436,38.23915],[-122.12438,38.23913],[-122.12458,38.23853],[-122.12487,38.23788],[-122.12491,38.23778],[-122.12507,38.23743],[-122.12513,38.23731],[-122.12543,38.23667],[-122.12561,38.2363],[-122.12578,38.23595],[-122.126,38.23549],[-122.12604,38.23541],[-122.1262,38.23507],[-122.12624,38.23499],[-122.12684,38.23372],[-122.12688,38.23364],[-122.12694,38.23351],[-122.12698,38.23342],[-122.1272,38.23298],[-122.12726,38.23288],[-122.12742,38.23257],[-122.12761,38.23221],[-122.12762,38.23218],[-122.12776,38.23188],[-122.12801,38.23138],[-122.1281,38.23121],[-122.12831,38.23079],[-122.12843,38.23054],[-122.12868,38.23004],[-122.12878,38.22985],[-122.12883,38.22975],[-122.12895,38.22952],[-122.12911,38.2292],[-122.12928,38.22888],[-122.12934,38.22873],[-122.12941,38.22853],[-122.12948,38.22828],[-122.12954,38.22806],[-122.1296,38.2278],[-122.12963,38.22754],[-122.12967,38.22721],[-122.1297,38.22701],[-122.12972,38.22674],[-122.12977,38.22619],[-122.12977,38.22594],[-122.12977,38.22594],[-122.12984,38.22588],[-122.12985,38.22586],[-122.12987,38.22584],[-122.12988,38.22576],[-122.1299,38.2257],[-122.12994,38.22559],[-122.12996,38.22555],[-122.13,38.22549],[-122.13007,38.22541],[-122.13018,38.2253],[-122.13026,38.22522],[-122.13031,38.22517],[-122.13032,38.22514],[-122.13035,38.22504],[-122.13037,38.22499],[-122.13039,38.22493],[-122.1304,38.22488],[-122.1304,38.22485],[-122.1304,38.22483],[-122.13039,38.22482],[-122.13036,38.22464],[-122.13034,38.22456],[-122.1303,38.22435],[-122.13024,38.22398],[-122.13023,38.22389],[-122.13022,38.22376],[-122.13024,38.22351],[-122.13027,38.22335],[-122.1303,38.2231],[-122.13031,38.22295],[-122.13033,38.22276],[-122.13034,38.22274],[-122.13035,38.22268],[-122.13039,38.22257],[-122.13043,38.22249],[-122.13049,38.22239],[-122.13059,38.22226],[-122.13079,38.22207],[-122.13123,38.22175],[-122.13147,38.22159],[-122.13157,38.22153],[-122.13178,38.22139],[-122.13252,38.2209],[-122.1327,38.22078],[-122.13288,38.22067],[-122.13306,38.22056],[-122.13325,38.22043],[-122.1337,38.22014],[-122.13388,38.22003],[-122.13407,38.21991],[-122.13424,38.21983],[-122.13446,38.21973],[-122.13474,38.21962],[-122.13492,38.21955],[-122.13549,38.21934],[-122.13564,38.21928],[-122.1363,38.21903],[-122.13655,38.21894],[-122.13671,38.21887],[-122.13681,38.21881],[-122.13691,38.21876],[-122.13716,38.2186],[-122.13724,38.21856],[-122.13736,38.21849],[-122.13738,38.21848],[-122.13751,38.21843],[-122.13758,38.21839],[-122.1377,38.21836],[-122.13785,38.21832],[-122.13798,38.2183],[-122.1381,38.21829],[-122.1383,38.21828],[-122.1384,38.21829],[-122.13855,38.21831],[-122.13867,38.21833],[-122.13876,38.21835],[-122.13884,38.21837],[-122.139,38.21842],[-122.13917,38.21848],[-122.13939,38.21857],[-122.13954,38.21863],[-122.13965,38.21868],[-122.13967,38.21869],[-122.13972,38.21871],[-122.1398,38.21876],[-122.13996,38.21887],[-122.14011,38.21899],[-122.14033,38.21913],[-122.14033,38.21913],[-122.14044,38.21921],[-122.14085,38.21887],[-122.14134,38.21846],[-122.14134,38.21846],[-122.14143,38.21839],[-122.14152,38.21832],[-122.14145,38.21827],[-122.1414,38.21823],[-122.14094,38.21789],[-122.14061,38.21764],[-122.14029,38.2174],[-122.14023,38.21734],[-122.14001,38.21717],[-122.13993,38.21713],[-122.1395,38.21679],[-122.13934,38.21666],[-122.13918,38.21661],[-122.13913,38.21659],[-122.13902,38.2165],[-122.13901,38.21649],[-122.13886,38.21637],[-122.13885,38.21637],[-122.13883,38.21635],[-122.13872,38.21623],[-122.13862,38.21612],[-122.13859,38.21608],[-122.13855,38.21602],[-122.13854,38.21601],[-122.13848,38.21591],[-122.13845,38.21586],[-122.13844,38.21584],[-122.13842,38.21579],[-122.1384,38.21574],[-122.13838,38.21566],[-122.13837,38.21561],[-122.13834,38.21549],[-122.13834,38.21547],[-122.13833,38.21544],[-122.13831,38.21528],[-122.1383,38.21526],[-122.13828,38.21509],[-122.13827,38.21508],[-122.13825,38.2149],[-122.13825,38.2149],[-122.13826,38.21473],[-122.13828,38.21455],[-122.13828,38.21454],[-122.13832,38.21419],[-122.13834,38.21401],[-122.13836,38.21379],[-122.13841,38.2134],[-122.13843,38.2133],[-122.13845,38.21307],[-122.13846,38.21289],[-122.13849,38.21255],[-122.13847,38.21209],[-122.13846,38.21055],[-122.13846,38.21047],[-122.13846,38.21036],[-122.13846,38.21002],[-122.13846,38.2099],[-122.13846,38.20981],[-122.13846,38.2096],[-122.13847,38.20945],[-122.13848,38.20939],[-122.13848,38.20924],[-122.13848,38.20896],[-122.13848,38.2086],[-122.13848,38.2083],[-122.13848,38.20816],[-122.13848,38.20768],[-122.13848,38.20758],[-122.13848,38.20712],[-122.13848,38.20708],[-122.13848,38.20694],[-122.13848,38.20636],[-122.13848,38.20623],[-122.13848,38.20605],[-122.13848,38.20555],[-122.13848,38.20534],[-122.13848,38.20514],[-122.13849,38.20497],[-122.13848,38.20477],[-122.13847,38.20379],[-122.13844,38.20151],[-122.13843,38.20132],[-122.13844,38.2012],[-122.13844,38.20111],[-122.13845,38.20105],[-122.13845,38.20097],[-122.13847,38.20086],[-122.13849,38.20079],[-122.13851,38.20069],[-122.13853,38.20061],[-122.13857,38.20051],[-122.13861,38.2004],[-122.13866,38.20028],[-122.13872,38.20016],[-122.13879,38.20003],[-122.13885,38.19995],[-122.1389,38.19987],[-122.13896,38.1998],[-122.13902,38.19973],[-122.13907,38.19966],[-122.13915,38.19958],[-122.13925,38.19947],[-122.13939,38.19936],[-122.13951,38.19926],[-122.13963,38.19917],[-122.14003,38.19892],[-122.14015,38.19884],[-122.14024,38.19879],[-122.14032,38.19873],[-122.14041,38.19867],[-122.14046,38.19862],[-122.14052,38.19857],[-122.14061,38.19855],[-122.14064,38.19854],[-122.14066,38.19852],[-122.14082,38.19836],[-122.14094,38.19821],[-122.14104,38.19805],[-122.14108,38.19795],[-122.14112,38.19789]]}},{"type":"Feature","properties":{"_gpxType":"trk","name":"Lake Solano County Park, Pleasants Valley Road, Winters, CA - Larry's Produce, Suisun Valley Road, Fairfield, CA - 600 Lopes Rd - 655 Columbus Pkwy - Columbus Pkwy & Georgia St - Vallejo, 289 Mare Island Way, Vallejo, CA 94590","coordinateProperties":{},"id":106},"geometry":{"type":"LineString","coordinates":[[-122.14112,38.19789],[-122.14113,38.19787],[-122.14116,38.19779],[-122.14118,38.19773],[-122.1412,38.19767],[-122.14121,38.19762],[-122.14122,38.19757],[-122.14123,38.19747],[-122.14125,38.19736],[-122.14126,38.1972],[-122.14126,38.1972],[-122.14144,38.19721],[-122.1416,38.19721],[-122.14176,38.19722],[-122.14193,38.19724],[-122.14209,38.19725],[-122.14226,38.19727],[-122.14243,38.19728],[-122.14261,38.19731],[-122.14275,38.19733],[-122.14291,38.19735],[-122.14308,38.19738],[-122.14322,38.19741],[-122.14338,38.19744],[-122.14354,38.19747],[-122.14372,38.19751],[-122.14388,38.19754],[-122.14402,38.19758],[-122.14417,38.19762],[-122.14418,38.19763],[-122.14435,38.19767],[-122.1445,38.19772],[-122.14466,38.19776],[-122.14483,38.19782],[-122.14497,38.19787],[-122.14502,38.19789],[-122.14512,38.19792],[-122.14525,38.19797],[-122.14527,38.19798],[-122.14543,38.19804],[-122.14558,38.1981],[-122.14566,38.19813],[-122.14573,38.19816],[-122.14601,38.19828],[-122.14633,38.19841],[-122.14642,38.19845],[-122.14658,38.1985],[-122.14673,38.19855],[-122.1469,38.19859],[-122.14706,38.19863],[-122.14723,38.19866],[-122.14725,38.19867],[-122.14739,38.19869],[-122.14756,38.19871],[-122.14773,38.19872],[-122.14788,38.19872],[-122.14807,38.19872],[-122.14824,38.19871],[-122.14868,38.19868],[-122.14932,38.19865],[-122.14946,38.19864],[-122.14963,38.19863],[-122.14981,38.19862],[-122.15,38.19862],[-122.15014,38.19862],[-122.15032,38.19863],[-122.15056,38.19864],[-122.1506,38.19865],[-122.15077,38.19867],[-122.1509,38.19869],[-122.15098,38.1987],[-122.15112,38.19873],[-122.15131,38.19877],[-122.15141,38.19877],[-122.15164,38.19883],[-122.15184,38.19889],[-122.15187,38.1989],[-122.1521,38.19897],[-122.15233,38.19906],[-122.15248,38.19912],[-122.15263,38.19918],[-122.15276,38.19924],[-122.1529,38.19931],[-122.15303,38.19937],[-122.15316,38.19945],[-122.15328,38.19952],[-122.1534,38.19959],[-122.15351,38.19967],[-122.15357,38.19971],[-122.15362,38.19975],[-122.15364,38.19976],[-122.15372,38.19982],[-122.15375,38.19984],[-122.15406,38.20006],[-122.15456,38.20042],[-122.15457,38.20042],[-122.15508,38.20079],[-122.15542,38.20103],[-122.15545,38.20106],[-122.15559,38.20115],[-122.15563,38.20118],[-122.15576,38.20127],[-122.15581,38.20131],[-122.15587,38.20134],[-122.15599,38.20139],[-122.1561,38.20144],[-122.15621,38.2015],[-122.1563,38.20154],[-122.15637,38.20159],[-122.15643,38.20163],[-122.15664,38.20176],[-122.15681,38.20188],[-122.15698,38.202],[-122.15715,38.20213],[-122.15732,38.20225],[-122.15745,38.20233],[-122.15745,38.20233],[-122.1576,38.2022],[-122.15768,38.20214],[-122.15775,38.20208],[-122.15777,38.20207],[-122.1578,38.20204],[-122.15781,38.20203],[-122.15791,38.20194],[-122.15805,38.20181],[-122.15807,38.20179],[-122.15816,38.20171],[-122.15833,38.20156],[-122.15861,38.20131],[-122.15864,38.20128],[-122.15875,38.20116],[-122.15883,38.20108],[-122.1589,38.20101],[-122.15895,38.20096],[-122.15897,38.20094],[-122.15901,38.2009],[-122.15906,38.20085],[-122.1591,38.2008],[-122.15911,38.2008],[-122.15927,38.20063],[-122.15947,38.20042],[-122.15948,38.20042],[-122.15982,38.20006],[-122.15988,38.20001],[-122.16,38.19989],[-122.16022,38.19968],[-122.16043,38.19947],[-122.16044,38.19947],[-122.16044,38.19932],[-122.16058,38.1992],[-122.16066,38.19913],[-122.16075,38.19906],[-122.16087,38.19894],[-122.16093,38.1989],[-122.16099,38.19884],[-122.16122,38.19865],[-122.16143,38.19846],[-122.1615,38.1984],[-122.16166,38.19826],[-122.16188,38.19806],[-122.162,38.19796],[-122.1621,38.19787],[-122.16244,38.19758],[-122.16274,38.19731],[-122.16289,38.19718],[-122.1631,38.197],[-122.16322,38.1969],[-122.16333,38.1968],[-122.16344,38.1967],[-122.16366,38.19651],[-122.16375,38.19644],[-122.1639,38.19631],[-122.164,38.19621],[-122.16412,38.19611],[-122.16423,38.19601],[-122.16433,38.19592],[-122.16455,38.19572],[-122.16466,38.19562],[-122.16477,38.19552],[-122.16487,38.19542],[-122.16498,38.19531],[-122.16508,38.19521],[-122.16518,38.1951],[-122.16527,38.195],[-122.16537,38.19489],[-122.16547,38.19478],[-122.16556,38.19467],[-122.16567,38.19455],[-122.16575,38.19446],[-122.1658,38.1944],[-122.16584,38.19435],[-122.16594,38.19424],[-122.16623,38.1939],[-122.16641,38.1937],[-122.1665,38.19358],[-122.16659,38.19348],[-122.16668,38.19338],[-122.16675,38.1933],[-122.16683,38.19321],[-122.16697,38.19305],[-122.16706,38.19296],[-122.16716,38.19284],[-122.16728,38.19271],[-122.16736,38.19263],[-122.1674,38.19258],[-122.16745,38.19253],[-122.1675,38.19247],[-122.16765,38.19231],[-122.16775,38.19221],[-122.16785,38.1921],[-122.16807,38.19188],[-122.16826,38.19169],[-122.16846,38.19148],[-122.16856,38.19138],[-122.1686,38.19134],[-122.16866,38.19128],[-122.16876,38.19118],[-122.16908,38.19085],[-122.16914,38.19079],[-122.16918,38.19075],[-122.16929,38.19065],[-122.16937,38.19058],[-122.1695,38.19045],[-122.16955,38.19041],[-122.16961,38.19036],[-122.16972,38.19026],[-122.16984,38.19016],[-122.16988,38.19012],[-122.16994,38.19007],[-122.17004,38.18999],[-122.17008,38.18996],[-122.17016,38.18989],[-122.17022,38.18985],[-122.17032,38.18977],[-122.17042,38.18969],[-122.1706,38.18956],[-122.1708,38.18942],[-122.17085,38.18938],[-122.17092,38.18933],[-122.17099,38.18928],[-122.17104,38.18925],[-122.17118,38.18916],[-122.17128,38.1891],[-122.17143,38.189],[-122.17156,38.18892],[-122.17166,38.18886],[-122.17174,38.18882],[-122.17181,38.18877],[-122.17191,38.18872],[-122.17192,38.18871],[-122.17208,38.18863],[-122.17222,38.18855],[-122.17235,38.18848],[-122.17249,38.18841],[-122.17265,38.18833],[-122.17277,38.18827],[-122.17286,38.18822],[-122.17309,38.18813],[-122.17324,38.18806],[-122.17372,38.18787],[-122.1738,38.18784],[-122.1739,38.1878],[-122.17397,38.18777],[-122.17404,38.18775],[-122.17406,38.18774],[-122.17415,38.1877],[-122.17418,38.18769],[-122.1742,38.18768],[-122.17435,38.18762],[-122.1744,38.18761],[-122.17449,38.18758],[-122.17465,38.18752],[-122.17472,38.18749],[-122.17487,38.18744],[-122.17494,38.18741],[-122.17495,38.18741],[-122.17521,38.18733],[-122.17535,38.18729],[-122.17566,38.1872],[-122.17582,38.18715],[-122.17589,38.18713],[-122.17598,38.18711],[-122.17614,38.18707],[-122.17635,38.18701],[-122.1767,38.18692],[-122.17713,38.18681],[-122.17756,38.18667],[-122.1776,38.18665],[-122.17772,38.18661],[-122.17815,38.18647],[-122.17824,38.18644],[-122.17877,38.18626],[-122.17906,38.18616],[-122.17931,38.18607],[-122.17949,38.18601],[-122.17976,38.1859],[-122.1799,38.18584],[-122.18005,38.18577],[-122.18024,38.18568],[-122.18037,38.18562],[-122.1806,38.18551],[-122.18083,38.18539],[-122.18098,38.18531],[-122.18111,38.18524],[-122.18119,38.18519],[-122.18125,38.18516],[-122.18139,38.18508],[-122.1815,38.185],[-122.18164,38.18492],[-122.18168,38.18489],[-122.18177,38.18483],[-122.1819,38.18475],[-122.182,38.18468],[-122.18217,38.18456],[-122.18229,38.18448],[-122.18241,38.18438],[-122.18253,38.18429],[-122.18265,38.1842],[-122.18287,38.18402],[-122.18293,38.18397],[-122.18298,38.18393],[-122.18308,38.18384],[-122.18315,38.18378],[-122.1833,38.18364],[-122.18339,38.18356],[-122.18352,38.18343],[-122.18355,38.18339],[-122.18356,38.18339],[-122.18373,38.18322],[-122.18393,38.18302],[-122.1841,38.18284],[-122.18414,38.18281],[-122.18421,38.18274],[-122.18452,38.18243],[-122.18466,38.1823],[-122.18481,38.18215],[-122.18483,38.18213],[-122.18488,38.18209],[-122.18499,38.182],[-122.1851,38.1819],[-122.18519,38.18183],[-122.18533,38.18171],[-122.18545,38.18162],[-122.18566,38.18146],[-122.18579,38.18137],[-122.18591,38.18128],[-122.18603,38.1812],[-122.18607,38.18117],[-122.18617,38.18111],[-122.18619,38.1811],[-122.18631,38.18102],[-122.18643,38.18095],[-122.18658,38.18086],[-122.18674,38.18077],[-122.18684,38.18071],[-122.18699,38.18062],[-122.18715,38.18054],[-122.18755,38.18031],[-122.1878,38.18017],[-122.18819,38.17994],[-122.18845,38.17978],[-122.18861,38.17968],[-122.18871,38.17961],[-122.18889,38.17948],[-122.18911,38.17931],[-122.18922,38.17923],[-122.18931,38.17916],[-122.18945,38.17906],[-122.1896,38.17893],[-122.18974,38.17881],[-122.18984,38.17873],[-122.19001,38.17857],[-122.19013,38.17845],[-122.19022,38.17837],[-122.19034,38.17825],[-122.19041,38.17817],[-122.19049,38.17809],[-122.19053,38.17804],[-122.19061,38.17796],[-122.19072,38.17784],[-122.19081,38.17773],[-122.19091,38.17762],[-122.19108,38.17741],[-122.19113,38.17734],[-122.19118,38.17728],[-122.19125,38.17719],[-122.19144,38.17695],[-122.1916,38.17674],[-122.19161,38.17673],[-122.19176,38.17653],[-122.19179,38.17649],[-122.19197,38.17627],[-122.19205,38.17616],[-122.1922,38.17596],[-122.19222,38.17595],[-122.19231,38.17583],[-122.19242,38.17569],[-122.19248,38.1756],[-122.19266,38.17538],[-122.19274,38.17527],[-122.19283,38.17516],[-122.19292,38.17505],[-122.193,38.17495],[-122.1931,38.17484],[-122.19318,38.17474],[-122.19329,38.17462],[-122.19339,38.17452],[-122.19349,38.17441],[-122.19354,38.17436],[-122.19359,38.1743],[-122.19369,38.17421],[-122.19379,38.17411],[-122.19391,38.17399],[-122.19401,38.17391],[-122.19414,38.1738],[-122.19425,38.1737],[-122.19437,38.1736],[-122.19446,38.17353],[-122.1946,38.17341],[-122.19483,38.17324],[-122.19497,38.17314],[-122.19507,38.17307],[-122.19522,38.17297],[-122.19533,38.1729],[-122.19551,38.17277],[-122.19558,38.17272],[-122.19588,38.17252],[-122.19597,38.17246],[-122.19623,38.17228],[-122.19647,38.17211],[-122.1966,38.17202],[-122.19676,38.17191],[-122.19685,38.17185],[-122.1971,38.17168],[-122.19747,38.17143],[-122.19761,38.17133],[-122.19773,38.17125],[-122.19783,38.17118],[-122.19785,38.17117],[-122.1979,38.17113],[-122.19795,38.1711],[-122.19798,38.17108],[-122.19808,38.17101],[-122.1981,38.17099],[-122.19825,38.17089],[-122.19832,38.17083],[-122.19835,38.17081],[-122.19845,38.17075],[-122.19847,38.17073],[-122.19857,38.17066],[-122.19861,38.17063],[-122.19862,38.17063],[-122.1987,38.17057],[-122.19873,38.17055],[-122.19883,38.17048],[-122.19886,38.17046],[-122.19888,38.17045],[-122.19896,38.17039],[-122.19908,38.17031],[-122.19913,38.17027],[-122.19914,38.17027],[-122.19924,38.1702],[-122.19933,38.17013],[-122.19936,38.17011],[-122.19946,38.17004],[-122.19948,38.17002],[-122.19956,38.16996],[-122.19969,38.16987],[-122.19994,38.1697],[-122.20009,38.16959],[-122.20035,38.16941],[-122.20038,38.16939],[-122.20059,38.16923],[-122.2006,38.16923],[-122.20062,38.16921],[-122.20073,38.16914],[-122.20084,38.16906],[-122.20097,38.16897],[-122.20117,38.16882],[-122.20152,38.16858],[-122.20161,38.16851],[-122.20174,38.16842],[-122.2019,38.1683],[-122.202,38.16824],[-122.20214,38.16813],[-122.20223,38.16807],[-122.20229,38.16803],[-122.20231,38.16801],[-122.20236,38.16798],[-122.20246,38.16791],[-122.20248,38.16789],[-122.2025,38.16788],[-122.20258,38.16782],[-122.20273,38.16772],[-122.20285,38.16763],[-122.20288,38.16761],[-122.20289,38.16761],[-122.20296,38.16755],[-122.2032,38.16739],[-122.20346,38.1672],[-122.20347,38.1672],[-122.20357,38.16713],[-122.20363,38.16708],[-122.20364,38.16708],[-122.20371,38.16703],[-122.20381,38.16696],[-122.20383,38.16694],[-122.20393,38.16687],[-122.20398,38.16684],[-122.20405,38.16678],[-122.20418,38.16669],[-122.2043,38.16661],[-122.20434,38.16659],[-122.20446,38.1665],[-122.20456,38.16644],[-122.20459,38.16642],[-122.20469,38.16635],[-122.20472,38.16633],[-122.20474,38.16632],[-122.20482,38.16627],[-122.20484,38.16625],[-122.20494,38.16618],[-122.20507,38.1661],[-122.2051,38.16608],[-122.2052,38.16601],[-122.20523,38.16599],[-122.20534,38.16593],[-122.20546,38.16585],[-122.20549,38.16583],[-122.20555,38.16579],[-122.20559,38.16576],[-122.20562,38.16574],[-122.20572,38.16568],[-122.20573,38.16567],[-122.20585,38.16559],[-122.20598,38.1655],[-122.2061,38.16543],[-122.20613,38.16541],[-122.20625,38.16533],[-122.20626,38.16532],[-122.20635,38.16526],[-122.20638,38.16524],[-122.20648,38.16518],[-122.20651,38.16516],[-122.20662,38.1651],[-122.20688,38.16493],[-122.20701,38.16484],[-122.20714,38.16475],[-122.20725,38.16468],[-122.20728,38.16466],[-122.20739,38.16458],[-122.20752,38.16449],[-122.20758,38.16444],[-122.20765,38.16439],[-122.20775,38.16431],[-122.20798,38.16412],[-122.20808,38.16403],[-122.20818,38.16395],[-122.2082,38.16393],[-122.20829,38.16386],[-122.20843,38.16373],[-122.20847,38.16369],[-122.20855,38.16363],[-122.20876,38.16343],[-122.20885,38.16334],[-122.20887,38.16332],[-122.20895,38.16323],[-122.20896,38.16322],[-122.20906,38.16312],[-122.20916,38.16301],[-122.20917,38.163],[-122.20926,38.1629],[-122.20935,38.1628],[-122.20937,38.16277],[-122.20944,38.16269],[-122.20945,38.16268],[-122.20953,38.16258],[-122.20954,38.16257],[-122.20962,38.16246],[-122.20964,38.16244],[-122.20971,38.16234],[-122.20973,38.16232],[-122.20977,38.16226],[-122.20979,38.16223],[-122.20987,38.16212],[-122.20995,38.16201],[-122.20998,38.16198],[-122.21004,38.16188],[-122.2102,38.16166],[-122.21028,38.16155],[-122.21028,38.16154],[-122.21036,38.16144],[-122.21037,38.16143],[-122.21044,38.16132],[-122.21052,38.16121],[-122.21053,38.1612],[-122.21053,38.16119],[-122.21055,38.16116],[-122.2106,38.16109],[-122.21062,38.16108],[-122.21069,38.16098],[-122.21077,38.16086],[-122.21085,38.16075],[-122.21086,38.16073],[-122.21093,38.16064],[-122.21095,38.16061],[-122.21098,38.16056],[-122.211,38.16053],[-122.21102,38.16051],[-122.21109,38.16041],[-122.21109,38.1604],[-122.2111,38.16039],[-122.21111,38.16038],[-122.21118,38.16028],[-122.21125,38.16018],[-122.21127,38.16015],[-122.21133,38.16006],[-122.21135,38.16004],[-122.21142,38.15993],[-122.2115,38.15982],[-122.21153,38.15977],[-122.21159,38.1597],[-122.21166,38.1596],[-122.21168,38.15957],[-122.21175,38.15948],[-122.21183,38.15936],[-122.2119,38.15926],[-122.21198,38.15915],[-122.212,38.15913],[-122.21202,38.15909],[-122.21209,38.159],[-122.21217,38.15889],[-122.21225,38.15877],[-122.21233,38.15866],[-122.21241,38.15854],[-122.21247,38.15847],[-122.21248,38.15846],[-122.2125,38.15843],[-122.21256,38.15834],[-122.21258,38.15832],[-122.21264,38.15823],[-122.21266,38.1582],[-122.21269,38.15815],[-122.21274,38.15809],[-122.2128,38.158],[-122.21281,38.158],[-122.21282,38.15797],[-122.21291,38.15786],[-122.21297,38.15776],[-122.21298,38.15775],[-122.21298,38.15774],[-122.21305,38.15764],[-122.21314,38.15751],[-122.21322,38.15739],[-122.21328,38.15731],[-122.2133,38.15728],[-122.21338,38.15717],[-122.21346,38.15706],[-122.21349,38.15701],[-122.21353,38.15696],[-122.21358,38.15689],[-122.21361,38.15686],[-122.21362,38.15683],[-122.2137,38.15673],[-122.21379,38.15661],[-122.21387,38.15649],[-122.21387,38.15648],[-122.21406,38.15622],[-122.21425,38.15596],[-122.21436,38.1558],[-122.21439,38.15576],[-122.21448,38.15564],[-122.21452,38.15558],[-122.21459,38.15548],[-122.21461,38.15545],[-122.21475,38.15526],[-122.21486,38.1551],[-122.21493,38.155],[-122.21502,38.15488],[-122.21508,38.15479],[-122.21508,38.15478],[-122.21518,38.15466],[-122.21525,38.15455],[-122.21537,38.15438],[-122.21541,38.15433],[-122.2155,38.15419],[-122.21555,38.15411],[-122.21557,38.15408],[-122.21565,38.15396],[-122.21566,38.15393],[-122.2157,38.15388],[-122.21572,38.15384],[-122.21574,38.1538],[-122.21577,38.15376],[-122.21579,38.15372],[-122.21585,38.15362],[-122.21586,38.1536],[-122.2159,38.15352],[-122.21592,38.15348],[-122.21594,38.15344],[-122.21597,38.15339],[-122.21599,38.15336],[-122.21603,38.15327],[-122.21605,38.15324],[-122.2161,38.15315],[-122.21611,38.15312],[-122.21615,38.15303],[-122.21616,38.15301],[-122.21617,38.153],[-122.21619,38.15294],[-122.21622,38.15289],[-122.21623,38.15287],[-122.21626,38.15279],[-122.21633,38.15262],[-122.21637,38.15253],[-122.21638,38.1525],[-122.21642,38.1524],[-122.21643,38.15237],[-122.21645,38.15231],[-122.21646,38.15228],[-122.21651,38.15215],[-122.21652,38.15212],[-122.21655,38.15202],[-122.21656,38.15199],[-122.2166,38.15189],[-122.2166,38.15186],[-122.21663,38.15176],[-122.21664,38.15174],[-122.21664,38.15173],[-122.21668,38.15161],[-122.21669,38.15156],[-122.21671,38.1515],[-122.21671,38.15147],[-122.21674,38.15136],[-122.21678,38.15121],[-122.2168,38.15111],[-122.2168,38.1511],[-122.21683,38.15095],[-122.21685,38.15084],[-122.21687,38.15074],[-122.21688,38.15069],[-122.2169,38.15056],[-122.21691,38.15045],[-122.21693,38.1503],[-122.21694,38.15021],[-122.21696,38.15012],[-122.21698,38.14999],[-122.21699,38.14988],[-122.217,38.14975],[-122.217,38.14966],[-122.217,38.14952],[-122.217,38.14948],[-122.217,38.14935],[-122.217,38.14922],[-122.217,38.1491],[-122.21699,38.14899],[-122.21699,38.1489],[-122.21698,38.14887],[-122.21697,38.1487],[-122.21694,38.14834],[-122.21693,38.1482],[-122.21692,38.14805],[-122.21691,38.14792],[-122.2169,38.14783],[-122.21689,38.14764],[-122.21689,38.14754],[-122.21688,38.14742],[-122.21687,38.14738],[-122.21687,38.1473],[-122.21687,38.14718],[-122.21686,38.14699],[-122.21686,38.14697],[-122.21686,38.14687],[-122.21686,38.14677],[-122.21686,38.14674],[-122.21686,38.14664],[-122.21686,38.14656],[-122.21687,38.14653],[-122.21686,38.14638],[-122.21687,38.1462],[-122.21688,38.14609],[-122.21689,38.14597],[-122.2169,38.14583],[-122.21692,38.14573],[-122.21694,38.14557],[-122.21696,38.14547],[-122.21701,38.1452],[-122.21704,38.14507],[-122.21707,38.14494],[-122.2171,38.14482],[-122.21713,38.14469],[-122.21714,38.14466],[-122.21717,38.14456],[-122.21719,38.14449],[-122.21721,38.14443],[-122.21721,38.14442],[-122.21725,38.14432],[-122.21729,38.14418],[-122.2173,38.14416],[-122.2173,38.14415],[-122.21735,38.14402],[-122.21736,38.14397],[-122.21737,38.14395],[-122.21738,38.14392],[-122.21742,38.14381],[-122.21748,38.14368],[-122.2175,38.14363],[-122.21753,38.14356],[-122.21753,38.14355],[-122.21757,38.14346],[-122.21758,38.14343],[-122.2176,38.1434],[-122.21763,38.14334],[-122.21765,38.14329],[-122.2177,38.14319],[-122.21773,38.14312],[-122.21775,38.14309],[-122.21776,38.14307],[-122.21782,38.14296],[-122.21782,38.14296],[-122.21798,38.14286],[-122.21799,38.14286],[-122.21809,38.1427],[-122.21811,38.14268],[-122.21821,38.14253],[-122.21822,38.14252],[-122.21825,38.14249],[-122.21837,38.14231],[-122.21838,38.14231],[-122.21845,38.14223],[-122.21846,38.14223],[-122.21846,38.14222],[-122.21858,38.14207],[-122.21858,38.14206],[-122.2187,38.14193],[-122.2187,38.14192],[-122.21871,38.14192],[-122.21883,38.14177],[-122.21907,38.14149],[-122.21913,38.14142],[-122.21937,38.14112],[-122.21947,38.14099],[-122.21955,38.14088],[-122.21956,38.14088],[-122.21964,38.14077],[-122.21967,38.14073],[-122.21975,38.14064],[-122.21979,38.14058],[-122.21987,38.14047],[-122.21988,38.14046],[-122.21991,38.14042],[-122.22005,38.14022],[-122.22009,38.14014],[-122.22012,38.1401],[-122.22023,38.13994],[-122.22033,38.13978],[-122.22043,38.13963],[-122.22044,38.13962],[-122.22044,38.13961],[-122.2205,38.13951],[-122.22051,38.1395],[-122.22052,38.13946],[-122.22052,38.13945],[-122.22053,38.13943],[-122.22053,38.13939],[-122.22053,38.13936],[-122.22051,38.13932],[-122.22049,38.13928],[-122.22043,38.1392],[-122.22029,38.13906],[-122.22028,38.13905],[-122.22018,38.13895],[-122.2201,38.13887],[-122.22009,38.13886],[-122.22008,38.13885],[-122.21998,38.13875],[-122.2199,38.13867],[-122.21979,38.13857],[-122.21975,38.13853],[-122.21961,38.13839],[-122.2196,38.13839],[-122.21947,38.13826],[-122.21945,38.13825],[-122.21944,38.13824],[-122.21934,38.13816],[-122.21917,38.13805],[-122.21903,38.13797],[-122.2189,38.1379],[-122.21872,38.13783],[-122.21871,38.13782],[-122.21857,38.13778],[-122.2185,38.13776],[-122.21847,38.13775],[-122.21837,38.13772],[-122.21828,38.1377],[-122.21811,38.13767],[-122.21806,38.13766],[-122.21793,38.13765],[-122.21783,38.13764],[-122.21774,38.13763],[-122.2176,38.13763],[-122.21758,38.13763],[-122.2174,38.13763],[-122.21691,38.13763],[-122.21691,38.13763],[-122.21634,38.13762],[-122.21633,38.13762],[-122.2163,38.13762],[-122.2161,38.13762],[-122.21565,38.13762],[-122.21542,38.13762],[-122.21428,38.13761],[-122.21397,38.13761],[-122.21378,38.1376],[-122.21361,38.13759],[-122.21351,38.13759],[-122.21341,38.13758],[-122.21329,38.13757],[-122.21318,38.13756],[-122.21278,38.13751],[-122.21208,38.13744],[-122.21131,38.13735],[-122.21085,38.1373],[-122.21053,38.13726],[-122.20985,38.13718],[-122.20904,38.13709],[-122.20855,38.13704],[-122.20793,38.13697],[-122.20775,38.13695],[-122.2073,38.13689],[-122.20657,38.1368],[-122.20602,38.13674],[-122.20549,38.13667],[-122.20535,38.13666],[-122.20524,38.13664],[-122.20499,38.13661],[-122.20478,38.13657],[-122.20454,38.13652],[-122.20432,38.13646],[-122.20412,38.13641],[-122.20398,38.13636],[-122.20367,38.13627],[-122.20344,38.13617],[-122.20342,38.13617],[-122.2033,38.13612],[-122.20329,38.13611],[-122.20312,38.13604],[-122.20308,38.13602],[-122.20266,38.13582],[-122.20255,38.13576],[-122.2024,38.13567],[-122.20215,38.13551],[-122.20202,38.13543],[-122.20179,38.13529],[-122.2017,38.13523],[-122.20161,38.13517],[-122.20144,38.13506],[-122.20137,38.13502],[-122.2012,38.13491],[-122.201,38.13479],[-122.20097,38.13477],[-122.20058,38.13451],[-122.20044,38.13443],[-122.20015,38.13424],[-122.20007,38.13419],[-122.19978,38.13401],[-122.19965,38.13393],[-122.19953,38.13385],[-122.19952,38.13385],[-122.19931,38.13371],[-122.19917,38.13362],[-122.19913,38.1336],[-122.19899,38.13351],[-122.19888,38.13345],[-122.19849,38.13326],[-122.19829,38.13317],[-122.1981,38.13308],[-122.19806,38.13306],[-122.19794,38.13301],[-122.19761,38.13288],[-122.19739,38.13279],[-122.19723,38.13273],[-122.19701,38.13264],[-122.19686,38.13258],[-122.19671,38.13252],[-122.19656,38.13246],[-122.19641,38.13239],[-122.19628,38.13232],[-122.19613,38.13225],[-122.19599,38.13217],[-122.19587,38.1321],[-122.19573,38.132],[-122.19569,38.13198],[-122.19559,38.13191],[-122.1955,38.13185],[-122.19537,38.13174],[-122.19524,38.13163],[-122.19521,38.13161],[-122.19509,38.13149],[-122.19504,38.13144],[-122.19485,38.13124],[-122.19469,38.13105],[-122.19467,38.13103],[-122.19443,38.13074],[-122.1942,38.13044],[-122.19408,38.13029],[-122.194,38.13019],[-122.19373,38.12984],[-122.19359,38.12968],[-122.19358,38.12967],[-122.19307,38.12909],[-122.19262,38.12858],[-122.1925,38.12841],[-122.19241,38.12829],[-122.19232,38.12814],[-122.19223,38.12799],[-122.1922,38.12793],[-122.19215,38.12783],[-122.19208,38.12769],[-122.19201,38.12753],[-122.19198,38.12742],[-122.19194,38.12728],[-122.1919,38.12713],[-122.19173,38.1265],[-122.19163,38.12615],[-122.19161,38.12604],[-122.19156,38.12586],[-122.19156,38.12585],[-122.19153,38.12576],[-122.19149,38.12563],[-122.19146,38.12546],[-122.19145,38.12545],[-122.19145,38.12533],[-122.19145,38.12518],[-122.19146,38.12507],[-122.19147,38.12495],[-122.1915,38.12483],[-122.19155,38.12468],[-122.19161,38.12454],[-122.1917,38.12439],[-122.19173,38.12433],[-122.1918,38.12423],[-122.19182,38.12418],[-122.19213,38.12369],[-122.1923,38.12343],[-122.19231,38.12342],[-122.19234,38.12336],[-122.19239,38.12327],[-122.19242,38.12321],[-122.19246,38.12312],[-122.19249,38.12303],[-122.19252,38.12295],[-122.19253,38.12291],[-122.19255,38.12282],[-122.19257,38.12272],[-122.19257,38.12257],[-122.19257,38.12256],[-122.19258,38.1224],[-122.19257,38.12238],[-122.19257,38.1222],[-122.19257,38.12218],[-122.19257,38.12189],[-122.19258,38.1217],[-122.1926,38.12152],[-122.19261,38.12144],[-122.19262,38.12135],[-122.19263,38.1213],[-122.19264,38.1212],[-122.19264,38.12113],[-122.19266,38.12101],[-122.19268,38.12093],[-122.19272,38.12081],[-122.19277,38.12069],[-122.19285,38.12055],[-122.19288,38.1205]]}},{"type":"Feature","properties":{"_gpxType":"trk","name":"Lake Solano County Park, Pleasants Valley Road, Winters, CA - Larry's Produce, Suisun Valley Road, Fairfield, CA - 600 Lopes Rd - 655 Columbus Pkwy - Columbus Pkwy & Georgia St - Vallejo, 289 Mare Island Way, Vallejo, CA 94590","coordinateProperties":{},"id":106},"geometry":{"type":"LineString","coordinates":[[-122.19288,38.1205],[-122.19289,38.12048],[-122.19293,38.12042],[-122.19301,38.12032],[-122.19308,38.12023],[-122.1931,38.1202],[-122.19318,38.1201],[-122.19325,38.11999],[-122.19332,38.11987],[-122.19344,38.11964],[-122.19352,38.11953],[-122.19359,38.11941],[-122.19367,38.1193],[-122.19368,38.11929],[-122.19374,38.11917],[-122.19376,38.11912],[-122.19379,38.11905],[-122.19383,38.11892],[-122.19387,38.11879],[-122.19389,38.11866],[-122.19391,38.11853],[-122.19391,38.11841],[-122.19391,38.1184],[-122.1939,38.11827],[-122.19387,38.11814],[-122.19385,38.11806],[-122.19384,38.118],[-122.19381,38.11788],[-122.19378,38.11776],[-122.19372,38.11753],[-122.19368,38.11738],[-122.19365,38.11724],[-122.19364,38.11714],[-122.19364,38.11696],[-122.19364,38.11688],[-122.19365,38.11681],[-122.19365,38.11676],[-122.19367,38.11668],[-122.19369,38.11661],[-122.19371,38.11653],[-122.19376,38.11642],[-122.19379,38.11635],[-122.19382,38.11629],[-122.19385,38.11625],[-122.19392,38.11612],[-122.19402,38.11596],[-122.19411,38.11585],[-122.19424,38.11574],[-122.1943,38.11569],[-122.19431,38.11568],[-122.19448,38.11556],[-122.19465,38.11545],[-122.19465,38.11544],[-122.19475,38.11538],[-122.19482,38.11533],[-122.195,38.11521],[-122.19517,38.1151],[-122.19534,38.11498],[-122.19535,38.11498],[-122.19543,38.11492],[-122.19552,38.11486],[-122.19569,38.11475],[-122.19587,38.11463],[-122.1961,38.11447],[-122.19622,38.1144],[-122.19655,38.11417],[-122.19656,38.11416],[-122.19657,38.11416],[-122.1968,38.114],[-122.19693,38.11389],[-122.19705,38.11378],[-122.19706,38.11378],[-122.19719,38.11364],[-122.19726,38.11357],[-122.19744,38.11334],[-122.1977,38.113],[-122.19782,38.11284],[-122.19787,38.11275],[-122.198,38.1126],[-122.19806,38.11253],[-122.19817,38.11242],[-122.19817,38.11241],[-122.19823,38.11236],[-122.19833,38.11228],[-122.19835,38.11227],[-122.19841,38.11222],[-122.19846,38.11219],[-122.1985,38.11216],[-122.19854,38.11214],[-122.19861,38.1121],[-122.19869,38.11206],[-122.19872,38.11205],[-122.19882,38.112],[-122.19889,38.11197],[-122.1989,38.11197],[-122.199,38.11193],[-122.19907,38.11191],[-122.1991,38.1119],[-122.19919,38.11188],[-122.19929,38.11185],[-122.19939,38.11183],[-122.19947,38.11182],[-122.19963,38.1118],[-122.19977,38.11178],[-122.20029,38.11173],[-122.2004,38.11173],[-122.20085,38.11168],[-122.20094,38.11167],[-122.20108,38.11166],[-122.2011,38.11166],[-122.20127,38.11163],[-122.2013,38.11163],[-122.20139,38.11161],[-122.20152,38.11158],[-122.20153,38.11157],[-122.20169,38.11152],[-122.20173,38.1115],[-122.20182,38.11147],[-122.2019,38.11143],[-122.20193,38.11142],[-122.20205,38.11136],[-122.20212,38.11132],[-122.20213,38.11131],[-122.20223,38.11125],[-122.2023,38.1112],[-122.20232,38.11119],[-122.20244,38.11109],[-122.20246,38.11108],[-122.20255,38.111],[-122.20261,38.11094],[-122.20266,38.1109],[-122.20275,38.1108],[-122.20275,38.11079],[-122.20284,38.11068],[-122.20287,38.11064],[-122.20292,38.11057],[-122.20296,38.11048],[-122.20298,38.11044],[-122.20303,38.11032],[-122.20307,38.11019],[-122.20309,38.11007],[-122.20313,38.10981],[-122.20317,38.10938],[-122.20321,38.10902],[-122.20323,38.10885],[-122.20325,38.10873],[-122.20327,38.10855],[-122.20329,38.10837],[-122.20334,38.10801],[-122.20341,38.10746],[-122.20343,38.10729],[-122.20347,38.10701],[-122.20351,38.10674],[-122.20356,38.10638],[-122.20357,38.10624],[-122.20358,38.1062],[-122.20361,38.10597],[-122.20361,38.10583],[-122.2036,38.10568],[-122.2036,38.10565],[-122.2036,38.10561],[-122.20359,38.10549],[-122.20356,38.10535],[-122.20354,38.10524],[-122.20353,38.10522],[-122.2035,38.1051],[-122.20345,38.10495],[-122.2034,38.10485],[-122.20336,38.10476],[-122.20334,38.10471],[-122.20333,38.10469],[-122.2033,38.10463],[-122.2032,38.10448],[-122.20314,38.10438],[-122.20303,38.10422],[-122.20297,38.10413],[-122.20258,38.10355],[-122.20243,38.10338],[-122.20201,38.10277],[-122.20191,38.10261],[-122.20104,38.10135],[-122.20094,38.1012],[-122.20072,38.10088],[-122.20045,38.10049],[-122.20045,38.10049],[-122.20065,38.10041]]}},{"type":"Feature","properties":{"_gpxType":"trk","name":"Lake Solano County Park, Pleasants Valley Road, Winters, CA - Larry's Produce, Suisun Valley Road, Fairfield, CA - 600 Lopes Rd - 655 Columbus Pkwy - Columbus Pkwy & Georgia St - Vallejo, 289 Mare Island Way, Vallejo, CA 94590","coordinateProperties":{},"id":106},"geometry":{"type":"LineString","coordinates":[[-122.20065,38.10041],[-122.20068,38.10039],[-122.20082,38.10033],[-122.20097,38.10026],[-122.20117,38.10018],[-122.20178,38.09992],[-122.20196,38.09984],[-122.20205,38.09981],[-122.20213,38.09977],[-122.20216,38.09976],[-122.20226,38.09972],[-122.20234,38.0997],[-122.20243,38.09968],[-122.20249,38.09967],[-122.20259,38.09965],[-122.20271,38.09964],[-122.20277,38.09964],[-122.20284,38.09964],[-122.20291,38.09964],[-122.20296,38.09965],[-122.20301,38.09965],[-122.20305,38.09966],[-122.20319,38.09968],[-122.20326,38.0997],[-122.20348,38.09976],[-122.20362,38.09981],[-122.2037,38.09983],[-122.20384,38.09987],[-122.20405,38.09994],[-122.20408,38.09994],[-122.20418,38.09997],[-122.20427,38.1],[-122.20432,38.10001],[-122.2044,38.10003],[-122.20447,38.10005],[-122.20453,38.10006],[-122.20465,38.10008],[-122.20471,38.10009],[-122.20475,38.1001],[-122.20482,38.10011],[-122.20489,38.10011],[-122.20493,38.10012],[-122.20503,38.10013],[-122.20516,38.10013],[-122.20519,38.10014],[-122.20527,38.10014],[-122.20535,38.10014],[-122.20539,38.10014],[-122.20562,38.10014],[-122.20572,38.10014],[-122.20585,38.10014],[-122.2063,38.10015],[-122.20661,38.10015],[-122.20691,38.10015],[-122.20737,38.10015],[-122.20783,38.10016],[-122.20806,38.10016],[-122.20829,38.10016],[-122.20845,38.10016],[-122.20878,38.10016],[-122.20934,38.10017],[-122.20986,38.10017],[-122.21018,38.10017],[-122.211,38.10017],[-122.21152,38.10017],[-122.21199,38.10018],[-122.21222,38.10018],[-122.21245,38.10018],[-122.21286,38.10019],[-122.21321,38.10019],[-122.21332,38.10019],[-122.21372,38.1002],[-122.21456,38.1002],[-122.21538,38.10021],[-122.21594,38.10021],[-122.21611,38.10021],[-122.21622,38.10021],[-122.21638,38.1002],[-122.21644,38.1002],[-122.21651,38.10019],[-122.21661,38.10017],[-122.2167,38.10016],[-122.21698,38.1001],[-122.21724,38.10003],[-122.2176,38.09995],[-122.21782,38.09989],[-122.21792,38.09992],[-122.21802,38.0999],[-122.21813,38.09989],[-122.21826,38.09988],[-122.21838,38.09988],[-122.21855,38.09988],[-122.21861,38.09988],[-122.21874,38.09988],[-122.21899,38.0999],[-122.21925,38.09991],[-122.21939,38.09991],[-122.2197,38.09992],[-122.22022,38.09992],[-122.22029,38.09992],[-122.22074,38.09992],[-122.22234,38.09994],[-122.2228,38.09994],[-122.22326,38.09994],[-122.22389,38.09994],[-122.22421,38.09995],[-122.22445,38.09996],[-122.22456,38.09997],[-122.22458,38.09998],[-122.2247,38.09999],[-122.2248,38.09999],[-122.22489,38.10002],[-122.22506,38.10006],[-122.22513,38.10008],[-122.22529,38.10013],[-122.22558,38.10023],[-122.22592,38.10035],[-122.22618,38.10044],[-122.2265,38.10054],[-122.22652,38.10054],[-122.22672,38.10059],[-122.22682,38.10062],[-122.22705,38.10066],[-122.22733,38.10071],[-122.2276,38.10074],[-122.22761,38.10075],[-122.22784,38.10076],[-122.22786,38.10076],[-122.22807,38.10078],[-122.22851,38.1008],[-122.22863,38.10075],[-122.22886,38.10075],[-122.2291,38.10076],[-122.22917,38.10076],[-122.22932,38.10076],[-122.22955,38.10076],[-122.22978,38.10076],[-122.23001,38.10076],[-122.23024,38.10076],[-122.23062,38.10077],[-122.23086,38.10077],[-122.23109,38.10077],[-122.23139,38.10077],[-122.23152,38.10078],[-122.23198,38.10078],[-122.23286,38.1008],[-122.23371,38.10081],[-122.23457,38.10082],[-122.23545,38.10084],[-122.23632,38.10085],[-122.2372,38.10087],[-122.23805,38.10089],[-122.23868,38.1009],[-122.2389,38.1009],[-122.2394,38.10089],[-122.23979,38.10089],[-122.24007,38.10088],[-122.24025,38.10088],[-122.24054,38.10089],[-122.24109,38.10089],[-122.24151,38.1009],[-122.24165,38.1009],[-122.24202,38.10091],[-122.24253,38.10092],[-122.24314,38.10093],[-122.24323,38.10093],[-122.24343,38.10096],[-122.24487,38.10098],[-122.24538,38.10099],[-122.24629,38.10101],[-122.24664,38.10101],[-122.24664,38.10101],[-122.24689,38.10101],[-122.24695,38.10101],[-122.24713,38.10098],[-122.24736,38.10098],[-122.24804,38.10099],[-122.24828,38.10099],[-122.24858,38.101],[-122.2495,38.10101],[-122.24972,38.10102],[-122.24995,38.10102],[-122.25049,38.10103],[-122.25117,38.10104],[-122.2514,38.10104],[-122.25163,38.10105],[-122.25186,38.10105],[-122.25277,38.10107],[-122.253,38.10107],[-122.25328,38.10107],[-122.25351,38.10108],[-122.25374,38.10108],[-122.25419,38.10108],[-122.25472,38.10109],[-122.25495,38.10109],[-122.25518,38.1011],[-122.25571,38.10111],[-122.25594,38.10111],[-122.25664,38.10112],[-122.25731,38.10113],[-122.25755,38.10113],[-122.25797,38.10114],[-122.2583,38.10114],[-122.25922,38.10116],[-122.25997,38.10117],[-122.26078,38.10118],[-122.26081,38.10118],[-122.26127,38.10119],[-122.26183,38.1012],[-122.26185,38.1012],[-122.26195,38.1012],[-122.26201,38.10119],[-122.26205,38.10119],[-122.26212,38.10118],[-122.26215,38.10117],[-122.26219,38.10116],[-122.26225,38.10114],[-122.26231,38.10112],[-122.26236,38.1011],[-122.26242,38.10108],[-122.26273,38.10092],[-122.26273,38.10092],[-122.26284,38.10087],[-122.26256,38.10052],[-122.26246,38.1004],[-122.26235,38.10025]]}}]}