{"type":"FeatureCollection","features":[{"type":"Feature","properties":{"_gpxType":"trk","name":"8480 Fairview Road, Mount Vernon, OH - 1779 Leonard Ave - 1225 Hamlet St, Columbus, OH 43201","coordinateProperties":{},"id":11},"geometry":{"type":"LineString","coordinates":[[-82.57967,40.36358],[-82.57968,40.36345],[-82.57968,40.36344],[-82.57968,40.36308],[-82.57968,40.36303],[-82.57972,40.36218],[-82.57973,40.362],[-82.57976,40.36161],[-82.5798,40.36129],[-82.57983,40.36106],[-82.57993,40.3607],[-82.57999,40.36024],[-82.57978,40.35955],[-82.57975,40.35942],[-82.57967,40.35915],[-82.57958,40.35871],[-82.57951,40.35839],[-82.57946,40.35818],[-82.57943,40.35807],[-82.57933,40.35776],[-82.57923,40.35752],[-82.5792,40.35749],[-82.57908,40.35731],[-82.57886,40.35714],[-82.57863,40.35699],[-82.5784,40.35684],[-82.57822,40.35672],[-82.57821,40.35671],[-82.57767,40.35635],[-82.57753,40.35623],[-82.5775,40.3562],[-82.57742,40.35608],[-82.57725,40.35579],[-82.57709,40.3556],[-82.57697,40.35545],[-82.5766,40.35499],[-82.57658,40.35497],[-82.57601,40.35421],[-82.57578,40.3539],[-82.5753,40.35327],[-82.57518,40.35312],[-82.57513,40.35306],[-82.57474,40.35256],[-82.57464,40.35245],[-82.57454,40.35238],[-82.57453,40.35237],[-82.57444,40.35233],[-82.5743,40.3523],[-82.57408,40.35228],[-82.57394,40.35226],[-82.57314,40.35227],[-82.57302,40.35227],[-82.5729,40.35227],[-82.57249,40.35227],[-82.5722,40.35225],[-82.57198,40.35216],[-82.5716,40.35199],[-82.57131,40.35182],[-82.5713,40.35182],[-82.57114,40.35166],[-82.57103,40.35154],[-82.57086,40.35133],[-82.57071,40.3511],[-82.57069,40.35106],[-82.57064,40.35093],[-82.57058,40.35053],[-82.57049,40.35],[-82.57046,40.34982],[-82.57046,40.34977],[-82.57033,40.34918],[-82.57033,40.34911],[-82.57032,40.34893],[-82.57032,40.34876],[-82.57031,40.34875],[-82.57029,40.34852],[-82.57028,40.34839],[-82.57026,40.34805],[-82.57024,40.34767],[-82.57024,40.34767],[-82.57085,40.3476],[-82.57122,40.34757],[-82.5718,40.34752],[-82.57236,40.34748],[-82.57293,40.34744],[-82.57301,40.34744],[-82.57365,40.34742],[-82.57415,40.3474],[-82.57462,40.34739],[-82.57514,40.34739],[-82.57545,40.34739],[-82.57572,40.3474],[-82.57608,40.3474],[-82.57633,40.34742],[-82.57659,40.34744],[-82.57677,40.34746],[-82.57702,40.34749],[-82.57726,40.34752],[-82.57746,40.34755],[-82.57765,40.34758],[-82.57806,40.34767],[-82.57834,40.34774],[-82.57858,40.34781],[-82.57875,40.34786],[-82.57939,40.34805],[-82.58035,40.34832],[-82.58077,40.34842],[-82.58119,40.3485],[-82.58142,40.34855],[-82.58168,40.34859],[-82.58172,40.34859],[-82.58252,40.34869],[-82.58353,40.34881],[-82.58411,40.34887],[-82.58471,40.34894],[-82.58569,40.34904],[-82.58597,40.34907],[-82.58628,40.3491],[-82.58668,40.34914],[-82.58669,40.34914],[-82.587,40.34916],[-82.5876,40.34921],[-82.58798,40.34924],[-82.58833,40.34928],[-82.58856,40.3493],[-82.58861,40.34931],[-82.58946,40.34939],[-82.5895,40.3494],[-82.59001,40.34946],[-82.59013,40.34947],[-82.59088,40.34956],[-82.59113,40.34959],[-82.59158,40.34965],[-82.59183,40.34968],[-82.59299,40.34982],[-82.593,40.34982],[-82.59439,40.34999],[-82.59462,40.35002],[-82.59486,40.35005],[-82.59514,40.35008],[-82.59583,40.35017],[-82.59649,40.35025],[-82.59659,40.35027],[-82.59694,40.35031],[-82.59756,40.3504],[-82.59765,40.35041],[-82.59832,40.35051],[-82.59872,40.35057],[-82.59879,40.35058],[-82.59912,40.35062],[-82.59958,40.35068],[-82.59995,40.35073],[-82.60024,40.35077],[-82.60042,40.35079],[-82.60067,40.35082],[-82.60088,40.35085],[-82.60109,40.35087],[-82.60165,40.35094],[-82.60237,40.35102],[-82.60319,40.35111],[-82.60334,40.35112],[-82.60406,40.35121],[-82.60462,40.35127],[-82.60518,40.35133],[-82.60561,40.35137],[-82.60604,40.35141],[-82.60633,40.35142],[-82.60661,40.35144],[-82.60696,40.35145],[-82.6072,40.35144],[-82.6075,40.35144],[-82.60791,40.35143],[-82.60834,40.35142],[-82.60864,40.3514],[-82.60904,40.35138],[-82.60934,40.35137],[-82.60956,40.35136],[-82.61024,40.35133],[-82.61064,40.35132],[-82.61074,40.35131],[-82.61096,40.3513],[-82.61134,40.35129],[-82.61144,40.35128],[-82.61167,40.35127],[-82.61168,40.35127],[-82.61238,40.35124],[-82.61247,40.35124],[-82.61262,40.35123],[-82.61286,40.35122],[-82.61319,40.35121],[-82.61427,40.35116],[-82.61451,40.35115],[-82.61463,40.35115],[-82.61497,40.35113],[-82.61529,40.35111],[-82.61556,40.35109],[-82.61579,40.35107],[-82.61608,40.35103],[-82.61624,40.35102],[-82.61638,40.351],[-82.61665,40.35096],[-82.61698,40.35091],[-82.61766,40.35077],[-82.61851,40.35061],[-82.61958,40.35039],[-82.62026,40.35024],[-82.62095,40.3501],[-82.62159,40.34996],[-82.62183,40.34991],[-82.62206,40.34986],[-82.62207,40.34986],[-82.62229,40.34982],[-82.62262,40.34974],[-82.62275,40.34971],[-82.62319,40.34962],[-82.6233,40.3496],[-82.62365,40.34952],[-82.62387,40.34949],[-82.62411,40.34945],[-82.62419,40.34943],[-82.62472,40.34935],[-82.6248,40.34934],[-82.62503,40.3493],[-82.62527,40.34926],[-82.6255,40.34923],[-82.62563,40.34921],[-82.62591,40.34916],[-82.62605,40.34913],[-82.62618,40.34909],[-82.62637,40.34902],[-82.62645,40.34899],[-82.62655,40.34895],[-82.62664,40.3489],[-82.62679,40.34883],[-82.62695,40.34875],[-82.62744,40.34846],[-82.62785,40.34823],[-82.62895,40.34758],[-82.62921,40.34743],[-82.62932,40.34737],[-82.62959,40.34721],[-82.63034,40.34678],[-82.63125,40.34625],[-82.63181,40.34593],[-82.63218,40.34572],[-82.63235,40.34561],[-82.63281,40.34535],[-82.63289,40.3453],[-82.63301,40.34523],[-82.6331,40.34517],[-82.63321,40.34511],[-82.63354,40.34492],[-82.6336,40.34488],[-82.63371,40.34482],[-82.63394,40.34469],[-82.63418,40.34458],[-82.63431,40.34452],[-82.6344,40.34449],[-82.63451,40.34444],[-82.63459,40.34441],[-82.63469,40.34438],[-82.63481,40.34434],[-82.63488,40.34432],[-82.635,40.34428],[-82.63532,40.34418],[-82.63541,40.34415],[-82.63543,40.34415],[-82.63551,40.34412],[-82.63577,40.34404],[-82.63615,40.34392],[-82.63618,40.34391],[-82.63657,40.34379],[-82.63717,40.34359],[-82.63758,40.34346],[-82.63856,40.34315],[-82.63897,40.34302],[-82.63945,40.34285],[-82.63961,40.34279],[-82.6405,40.34246],[-82.64149,40.34206],[-82.64175,40.34195],[-82.64248,40.34166],[-82.64316,40.3414],[-82.64322,40.34138],[-82.64343,40.3413],[-82.64385,40.34114],[-82.64403,40.34107],[-82.64411,40.34104],[-82.64428,40.34097],[-82.64437,40.34093],[-82.64447,40.34089],[-82.64459,40.34084],[-82.64477,40.34076],[-82.64493,40.34069],[-82.64509,40.34061],[-82.64513,40.34059],[-82.64527,40.34052],[-82.64535,40.34048],[-82.64544,40.34043],[-82.64547,40.3404],[-82.64551,40.34039],[-82.6456,40.34033],[-82.64569,40.34027],[-82.64579,40.34021],[-82.64588,40.34015],[-82.64597,40.34008],[-82.64606,40.34002],[-82.64616,40.33994],[-82.64625,40.33986],[-82.64635,40.33978],[-82.64646,40.33969],[-82.64656,40.3396],[-82.64665,40.33951],[-82.64676,40.33938],[-82.64698,40.33914],[-82.64727,40.33883],[-82.64742,40.33869],[-82.64749,40.33862],[-82.64757,40.33855],[-82.64763,40.3385],[-82.64779,40.33839],[-82.64789,40.33832],[-82.64808,40.33818],[-82.6483,40.33804],[-82.64859,40.33786],[-82.64866,40.33782],[-82.64892,40.33767],[-82.64933,40.33743],[-82.64958,40.33729],[-82.6496,40.33727],[-82.64968,40.33722],[-82.64979,40.33716],[-82.64994,40.33708],[-82.64997,40.33705],[-82.65016,40.33694],[-82.65034,40.33683],[-82.65035,40.33683],[-82.65069,40.33661],[-82.65104,40.33638],[-82.65145,40.33612],[-82.65191,40.33581],[-82.65224,40.33558],[-82.65285,40.33515],[-82.65287,40.33513],[-82.65311,40.33495],[-82.65358,40.33461],[-82.65384,40.33441],[-82.65396,40.33432],[-82.65406,40.33424],[-82.65421,40.33411],[-82.65424,40.33409],[-82.6543,40.33404],[-82.65437,40.33397],[-82.65444,40.33391],[-82.6545,40.33385],[-82.65463,40.33372],[-82.65481,40.33353],[-82.65538,40.33292],[-82.65554,40.33275],[-82.65582,40.33246],[-82.65623,40.33202],[-82.65664,40.33158],[-82.65699,40.33121],[-82.65707,40.33113],[-82.65719,40.33101],[-82.65727,40.33094],[-82.65735,40.33086],[-82.65746,40.33076],[-82.65754,40.33069],[-82.65767,40.33059],[-82.65779,40.3305],[-82.65793,40.3304],[-82.65818,40.33023],[-82.65847,40.33004],[-82.65865,40.32993],[-82.6589,40.32976],[-82.65945,40.3294],[-82.65961,40.32929],[-82.66021,40.32889],[-82.66068,40.32857],[-82.66104,40.32832],[-82.66257,40.3273],[-82.66344,40.32671],[-82.66396,40.32636],[-82.66403,40.32631],[-82.66483,40.32577],[-82.66634,40.32476],[-82.66744,40.324],[-82.66849,40.32328],[-82.66887,40.32303],[-82.66938,40.32269],[-82.66984,40.32236],[-82.67077,40.32173],[-82.67182,40.32101],[-82.67235,40.32065],[-82.67297,40.32022],[-82.67378,40.31967],[-82.67433,40.31929],[-82.67468,40.31905],[-82.67519,40.3187],[-82.67554,40.31846],[-82.67586,40.31824],[-82.67657,40.31777],[-82.6771,40.31741],[-82.67721,40.31734],[-82.67771,40.317],[-82.678,40.3168],[-82.67855,40.31643],[-82.67872,40.31632],[-82.67973,40.31565],[-82.67985,40.31558],[-82.68021,40.31533],[-82.68042,40.31519],[-82.68094,40.31484],[-82.68148,40.31449],[-82.68198,40.31415],[-82.6832,40.31333],[-82.68383,40.3129],[-82.68406,40.31275],[-82.68504,40.31209],[-82.68523,40.31197],[-82.68577,40.3116],[-82.68602,40.31144],[-82.68641,40.31118],[-82.68675,40.31095],[-82.68795,40.31014],[-82.68824,40.30994],[-82.6883,40.3099],[-82.68883,40.30954],[-82.68953,40.30905],[-82.69014,40.30863],[-82.69066,40.30826],[-82.69108,40.30798],[-82.69143,40.30773],[-82.69161,40.30761],[-82.69163,40.30759],[-82.69202,40.30733],[-82.69214,40.30724],[-82.69254,40.30697],[-82.69262,40.30692],[-82.69271,40.30685],[-82.69279,40.3068],[-82.69288,40.30674],[-82.69299,40.30666],[-82.69341,40.30638],[-82.69344,40.30635],[-82.69362,40.30623],[-82.69398,40.30599],[-82.69415,40.30587],[-82.6945,40.30562],[-82.69503,40.30526],[-82.69537,40.30503],[-82.69589,40.30466],[-82.69627,40.3044],[-82.69662,40.30416],[-82.69714,40.3038],[-82.69749,40.30356],[-82.69766,40.30344],[-82.69784,40.30332],[-82.69803,40.30318],[-82.69836,40.30296],[-82.69839,40.30294],[-82.6985,40.30286],[-82.69873,40.3027],[-82.69908,40.30245],[-82.69926,40.30233],[-82.69985,40.30192],[-82.7001,40.30176],[-82.70062,40.3014],[-82.70094,40.30117],[-82.7012,40.30098],[-82.70157,40.30074],[-82.70198,40.30046],[-82.70241,40.30016],[-82.7025,40.3001],[-82.70285,40.29987],[-82.70319,40.29962],[-82.70342,40.29945],[-82.7037,40.29926],[-82.70385,40.29915],[-82.70422,40.2989],[-82.7044,40.29878],[-82.70454,40.29868],[-82.70475,40.29853],[-82.7049,40.29843],[-82.70504,40.29832],[-82.70525,40.29817],[-82.70538,40.29806],[-82.70546,40.29802],[-82.70564,40.29786],[-82.70576,40.29774],[-82.70588,40.29762],[-82.7059,40.2976],[-82.70615,40.29731],[-82.70631,40.29713],[-82.70653,40.29686],[-82.707,40.2963],[-82.70713,40.29616],[-82.70728,40.29598],[-82.70748,40.29575],[-82.70774,40.29546],[-82.70793,40.29521],[-82.70835,40.29477],[-82.70845,40.29467],[-82.70849,40.29463],[-82.70901,40.29409],[-82.70938,40.29372],[-82.70961,40.29353],[-82.7097,40.29347],[-82.70978,40.29342],[-82.70979,40.29341],[-82.70987,40.29336],[-82.71,40.29329],[-82.71007,40.29325],[-82.71012,40.29323],[-82.71032,40.29315],[-82.71053,40.29308],[-82.71075,40.29301],[-82.71085,40.29299],[-82.71098,40.29296],[-82.71128,40.29293],[-82.71155,40.29291],[-82.71164,40.29291],[-82.71184,40.29291],[-82.71238,40.29293],[-82.71255,40.29293],[-82.71266,40.29294],[-82.71298,40.29295],[-82.71323,40.29296],[-82.71465,40.29301],[-82.71653,40.29309],[-82.71739,40.29312],[-82.71779,40.29313],[-82.71895,40.29317],[-82.7197,40.2932],[-82.72022,40.29321],[-82.72135,40.29326],[-82.72172,40.29328],[-82.72232,40.29331],[-82.72434,40.29339],[-82.72514,40.29341],[-82.72581,40.29343],[-82.7261,40.29344],[-82.72642,40.29345],[-82.72681,40.29345],[-82.72695,40.29345],[-82.72714,40.29343],[-82.72726,40.29342],[-82.7274,40.29341],[-82.72793,40.29333],[-82.72897,40.29317],[-82.7293,40.29311],[-82.72948,40.29309],[-82.72986,40.29304],[-82.73091,40.29292],[-82.73147,40.29287],[-82.73187,40.29283],[-82.73242,40.29278],[-82.73311,40.29272],[-82.73342,40.2927],[-82.73372,40.29268],[-82.73403,40.29267],[-82.73458,40.29265],[-82.73505,40.29263],[-82.73526,40.29263],[-82.7356,40.29262],[-82.73584,40.29261],[-82.73618,40.29259],[-82.7363,40.29259],[-82.73645,40.29257],[-82.73663,40.29255],[-82.73676,40.29253],[-82.73683,40.29252],[-82.73698,40.29249],[-82.73719,40.29244],[-82.73741,40.29238],[-82.73752,40.29234],[-82.7376,40.29231],[-82.73771,40.29227],[-82.73793,40.29219],[-82.73818,40.29207],[-82.73831,40.292],[-82.73846,40.29191],[-82.73866,40.29179],[-82.73973,40.29111],[-82.74012,40.29085],[-82.74074,40.29046],[-82.74353,40.28862],[-82.74442,40.28802],[-82.74547,40.2873],[-82.74565,40.28718],[-82.74641,40.28666],[-82.74653,40.28658],[-82.7467,40.28646],[-82.74705,40.28622],[-82.74733,40.28604],[-82.74887,40.28497],[-82.74898,40.2849],[-82.74899,40.28489],[-82.7499,40.28429],[-82.75031,40.28403],[-82.75031,40.28403],[-82.75026,40.28393],[-82.75025,40.2839],[-82.75024,40.28387],[-82.75025,40.28382],[-82.75025,40.28378],[-82.75027,40.28336],[-82.75028,40.28322],[-82.75029,40.28318],[-82.75033,40.2825],[-82.75034,40.28246],[-82.75036,40.2821],[-82.75039,40.28178],[-82.75039,40.28175],[-82.75045,40.28106],[-82.75045,40.28103],[-82.75048,40.2807],[-82.75048,40.28067],[-82.75049,40.28054],[-82.75051,40.28024],[-82.75052,40.28017],[-82.75052,40.28014],[-82.75053,40.27996],[-82.75054,40.27981],[-82.75054,40.27978],[-82.75058,40.27921],[-82.75074,40.2771],[-82.75075,40.27703],[-82.75075,40.27693],[-82.75079,40.27642],[-82.7508,40.27639],[-82.75082,40.27604],[-82.75085,40.27574],[-82.75085,40.27567],[-82.75087,40.2755],[-82.75092,40.27488],[-82.75093,40.27465],[-82.75094,40.2746],[-82.75097,40.27414],[-82.75097,40.2741],[-82.75098,40.27407],[-82.75099,40.27391],[-82.751,40.27379],[-82.75103,40.27335],[-82.75105,40.2731],[-82.75105,40.27306],[-82.75106,40.27292],[-82.75108,40.27274],[-82.75113,40.27194],[-82.75114,40.27184],[-82.75116,40.27166],[-82.75119,40.27114],[-82.7512,40.27112],[-82.75125,40.2704],[-82.75126,40.27022],[-82.75127,40.27014],[-82.75128,40.27005],[-82.75134,40.26922],[-82.75136,40.26897],[-82.75138,40.26879],[-82.75139,40.26861],[-82.75141,40.26841],[-82.75146,40.26771],[-82.75148,40.26753],[-82.75149,40.26734],[-82.75152,40.26699],[-82.75155,40.26662],[-82.75158,40.26627],[-82.7516,40.26593],[-82.75168,40.26502],[-82.75169,40.26484],[-82.75174,40.2643],[-82.75178,40.26376],[-82.75179,40.26358],[-82.75181,40.26335],[-82.75188,40.2625],[-82.75194,40.26177],[-82.75198,40.26125],[-82.752,40.26106],[-82.75201,40.26098],[-82.75202,40.26072],[-82.75206,40.26026],[-82.7521,40.25966],[-82.75218,40.25865],[-82.7522,40.25847],[-82.75226,40.25757],[-82.75228,40.25739],[-82.7523,40.25714],[-82.75231,40.25703],[-82.75235,40.25649],[-82.75236,40.25631],[-82.7524,40.25577],[-82.75247,40.25488],[-82.75248,40.2547],[-82.75249,40.25458],[-82.75259,40.25328],[-82.75265,40.25254],[-82.75274,40.25125],[-82.75283,40.25013],[-82.75287,40.24958],[-82.75294,40.24869],[-82.75298,40.2482],[-82.75304,40.24749],[-82.75311,40.24681],[-82.75313,40.24662],[-82.75314,40.24636],[-82.75318,40.24609],[-82.75321,40.24571],[-82.75327,40.24504],[-82.75327,40.24497],[-82.75329,40.24481],[-82.75329,40.24479],[-82.7533,40.24461],[-82.75333,40.24428],[-82.75333,40.24425],[-82.75335,40.2441],[-82.75335,40.24408],[-82.75335,40.24407],[-82.75336,40.24392],[-82.75338,40.24374],[-82.7534,40.24356],[-82.7534,40.24353],[-82.75341,40.24336],[-82.75342,40.24335],[-82.75345,40.24302],[-82.75348,40.24266],[-82.75349,40.24255],[-82.7535,40.24245],[-82.75353,40.24209],[-82.75354,40.24191],[-82.75355,40.24174],[-82.75356,40.24156],[-82.75356,40.24149],[-82.75357,40.24138],[-82.75358,40.2412],[-82.75358,40.24102],[-82.75359,40.24087],[-82.75365,40.24019],[-82.75365,40.24012],[-82.75367,40.23994],[-82.75368,40.23976],[-82.7537,40.23947],[-82.7537,40.2394],[-82.75374,40.23886],[-82.75376,40.2385],[-82.7538,40.23778],[-82.75381,40.23761],[-82.75382,40.23742],[-82.75384,40.23707],[-82.75387,40.23653],[-82.75388,40.23642],[-82.75388,40.23635],[-82.75393,40.23545],[-82.75397,40.23473],[-82.75397,40.23455],[-82.75398,40.23438],[-82.75398,40.23437],[-82.75402,40.23367],[-82.75406,40.23293],[-82.75413,40.23181],[-82.75415,40.2315],[-82.75416,40.23132],[-82.75417,40.2312],[-82.7542,40.23078],[-82.75426,40.23006],[-82.75428,40.2297],[-82.75429,40.22955],[-82.75432,40.22916],[-82.75433,40.22898],[-82.75434,40.2288],[-82.75435,40.22869],[-82.75436,40.22862],[-82.75438,40.22844],[-82.75439,40.22826],[-82.75441,40.22808],[-82.75442,40.2279],[-82.75443,40.22782],[-82.75444,40.22773],[-82.75446,40.22755],[-82.75448,40.22737],[-82.7545,40.22719],[-82.7545,40.2271],[-82.75451,40.22701],[-82.75454,40.22665],[-82.75456,40.22647],[-82.75457,40.22629],[-82.75459,40.22617],[-82.7546,40.22593],[-82.75462,40.22579],[-82.75462,40.22571],[-82.75464,40.22553],[-82.75469,40.22481],[-82.7547,40.22463],[-82.75474,40.22409],[-82.75476,40.22391],[-82.75477,40.22373],[-82.75478,40.22355],[-82.7548,40.22337],[-82.75484,40.22283],[-82.75485,40.22265],[-82.75493,40.22158],[-82.75494,40.2214],[-82.75496,40.22122],[-82.755,40.22068],[-82.75501,40.2205],[-82.75508,40.2196],[-82.75516,40.21852],[-82.75517,40.21834],[-82.75521,40.2178],[-82.75524,40.2174],[-82.75528,40.21691],[-82.75533,40.21624],[-82.75535,40.21601],[-82.7554,40.2154],[-82.75542,40.21511],[-82.75543,40.21493],[-82.75544,40.21475],[-82.75547,40.21435],[-82.75547,40.21421],[-82.75548,40.21403],[-82.75549,40.21385],[-82.75553,40.21323],[-82.75556,40.21278],[-82.75557,40.2126],[-82.75561,40.21204],[-82.75565,40.21134],[-82.75567,40.21098],[-82.75568,40.2108],[-82.7557,40.2106],[-82.75575,40.20962],[-82.75578,40.20918],[-82.75579,40.209],[-82.75585,40.2081],[-82.75588,40.20757],[-82.75592,40.20702],[-82.75594,40.20681],[-82.75603,40.20568],[-82.75623,40.20299],[-82.75624,40.20286],[-82.75627,40.2025],[-82.7563,40.20219],[-82.75634,40.2016],[-82.75634,40.20157],[-82.75635,40.20148],[-82.75639,40.20088],[-82.7564,40.20083],[-82.75642,40.20046],[-82.75645,40.19993],[-82.75646,40.1998],[-82.75647,40.19957],[-82.75648,40.19948],[-82.75649,40.19945],[-82.7565,40.19921],[-82.75651,40.19902],[-82.75653,40.19885],[-82.75653,40.19879],[-82.75655,40.19861],[-82.75656,40.19843],[-82.75658,40.19825],[-82.75659,40.19813],[-82.75662,40.19772],[-82.75663,40.19759],[-82.75665,40.19725],[-82.75673,40.19634],[-82.75673,40.19627],[-82.75673,40.19623],[-82.75678,40.19555],[-82.7568,40.19526],[-82.7568,40.19519],[-82.75681,40.19509],[-82.75685,40.19454],[-82.75685,40.19447],[-82.75689,40.194],[-82.75691,40.19375],[-82.75691,40.19364],[-82.75693,40.19344],[-82.75703,40.19185],[-82.75716,40.19005],[-82.75721,40.18933],[-82.75722,40.18911],[-82.75727,40.18839],[-82.75733,40.18731],[-82.75734,40.18713],[-82.75743,40.18569],[-82.75744,40.18551],[-82.75747,40.18497],[-82.75749,40.18458],[-82.75751,40.18445],[-82.75755,40.18372],[-82.75757,40.1834],[-82.75759,40.18324],[-82.75759,40.1832],[-82.75765,40.18246],[-82.75766,40.18233],[-82.75773,40.18143],[-82.75773,40.18138],[-82.75783,40.17996],[-82.75783,40.17992],[-82.75785,40.17974],[-82.75788,40.17939],[-82.7579,40.17902],[-82.75792,40.17871],[-82.75792,40.17866],[-82.75794,40.17848],[-82.75799,40.17776],[-82.758,40.17774],[-82.75808,40.17632],[-82.75814,40.17551],[-82.75817,40.17513],[-82.75822,40.17441],[-82.75828,40.17333],[-82.75829,40.17315],[-82.75831,40.17297],[-82.75832,40.17279],[-82.75833,40.17261],[-82.75838,40.1718],[-82.75839,40.17153],[-82.75846,40.1705],[-82.75847,40.17036],[-82.7586,40.16892],[-82.75861,40.16884],[-82.75861,40.16874],[-82.75879,40.16649],[-82.75881,40.16623],[-82.75882,40.16605],[-82.75886,40.1656],[-82.75891,40.1645],[-82.75894,40.16402],[-82.75895,40.16389],[-82.75896,40.16343],[-82.75907,40.16206],[-82.7592,40.16044],[-82.75933,40.15865],[-82.75938,40.15811],[-82.7594,40.15775],[-82.75953,40.15613],[-82.75956,40.15568],[-82.75959,40.15536],[-82.75965,40.15482],[-82.75971,40.15428],[-82.75972,40.15418],[-82.75972,40.1541],[-82.75978,40.15339],[-82.7598,40.1531],[-82.75987,40.15232],[-82.7599,40.15195],[-82.75991,40.15187],[-82.7599,40.15177],[-82.75989,40.15149],[-82.75994,40.15087],[-82.75995,40.1507],[-82.75995,40.15069],[-82.76002,40.14979],[-82.76003,40.14964],[-82.76003,40.14962],[-82.76003,40.14959],[-82.7601,40.1489],[-82.76012,40.14874],[-82.76012,40.14872],[-82.76014,40.14851],[-82.76015,40.14833],[-82.76016,40.14818],[-82.76016,40.14815],[-82.76017,40.148],[-82.76023,40.1471],[-82.76024,40.14702],[-82.76025,40.14692],[-82.76028,40.14657],[-82.76031,40.14618],[-82.76035,40.14564],[-82.76037,40.14546],[-82.76043,40.14472],[-82.76048,40.14396],[-82.76052,40.14334],[-82.76056,40.14288],[-82.76058,40.1427],[-82.76059,40.14252],[-82.76061,40.14233],[-82.76065,40.14168],[-82.76069,40.14113],[-82.76073,40.14054],[-82.76074,40.14036],[-82.7608,40.13946],[-82.76084,40.13886],[-82.76086,40.13875],[-82.76087,40.13839],[-82.76088,40.13804],[-82.76092,40.1375],[-82.76093,40.13741],[-82.76095,40.13714],[-82.76096,40.13696],[-82.76097,40.13678],[-82.76098,40.13669],[-82.76099,40.1366],[-82.76102,40.13625],[-82.76102,40.13615],[-82.76103,40.13608],[-82.76103,40.13607],[-82.76105,40.13589],[-82.76105,40.13581],[-82.76107,40.13555],[-82.7611,40.13517],[-82.76111,40.13499],[-82.76112,40.1349],[-82.76116,40.13431],[-82.76118,40.13409],[-82.76118,40.134],[-82.76121,40.13364],[-82.76124,40.13319],[-82.76125,40.1331],[-82.76127,40.13283],[-82.76129,40.13256],[-82.76129,40.13247],[-82.76132,40.13204],[-82.76134,40.13185],[-82.76143,40.13095],[-82.76143,40.13081],[-82.76143,40.13075],[-82.76146,40.13049],[-82.7615,40.12992],[-82.76151,40.12974],[-82.76153,40.12957],[-82.76154,40.12939],[-82.76163,40.12813],[-82.7617,40.12731],[-82.76171,40.12713],[-82.76175,40.12659],[-82.76181,40.12585],[-82.76181,40.12585],[-82.76185,40.12531],[-82.76186,40.12513],[-82.7619,40.12471],[-82.76198,40.12356],[-82.76203,40.12302],[-82.76204,40.12284],[-82.76208,40.12241],[-82.76215,40.12147],[-82.76217,40.12111],[-82.7622,40.12075],[-82.7622,40.12075],[-82.76281,40.12055],[-82.76391,40.12016],[-82.76427,40.12003],[-82.76487,40.11983],[-82.76536,40.11966],[-82.76557,40.11959],[-82.76578,40.11952],[-82.76628,40.11935],[-82.76658,40.1192],[-82.76662,40.11918],[-82.7668,40.11907],[-82.76685,40.11903],[-82.76769,40.11848],[-82.76787,40.11836],[-82.76804,40.11824],[-82.76822,40.11813],[-82.76826,40.1181],[-82.76873,40.11777],[-82.76884,40.11769],[-82.76906,40.11752],[-82.76967,40.11706],[-82.76974,40.117],[-82.77056,40.11636],[-82.77073,40.11623],[-82.77154,40.11558],[-82.77176,40.1154],[-82.77187,40.11531],[-82.77202,40.11516],[-82.77214,40.115],[-82.77219,40.11491],[-82.77223,40.11482],[-82.77227,40.11472],[-82.77229,40.11462],[-82.7723,40.11455],[-82.77232,40.1144],[-82.77236,40.11382],[-82.77236,40.11378],[-82.77238,40.1136],[-82.77238,40.11356],[-82.77238,40.11351],[-82.7724,40.1132],[-82.77242,40.11298],[-82.77244,40.11277],[-82.77245,40.11266],[-82.77246,40.11257],[-82.77248,40.1125],[-82.77251,40.11241],[-82.77252,40.11236],[-82.77254,40.11231],[-82.77257,40.11225],[-82.77261,40.11217],[-82.77267,40.11206],[-82.7727,40.11203],[-82.77286,40.11177],[-82.77334,40.11107],[-82.77397,40.11018],[-82.77401,40.11012],[-82.77464,40.10922],[-82.77543,40.10812],[-82.77555,40.10795],[-82.77624,40.10697],[-82.77631,40.10686],[-82.77675,40.10622],[-82.77705,40.10579],[-82.77729,40.10545],[-82.77795,40.10446],[-82.77829,40.10396],[-82.77835,40.10382],[-82.77848,40.1035],[-82.77863,40.10294],[-82.77873,40.10259],[-82.77888,40.10207],[-82.77893,40.10189],[-82.77896,40.10178],[-82.77922,40.10086],[-82.77932,40.10051],[-82.77942,40.10013],[-82.77946,40.09999],[-82.77947,40.09995],[-82.77991,40.09841],[-82.78001,40.09804],[-82.78008,40.09781],[-82.78022,40.09734],[-82.78022,40.09733],[-82.78027,40.09723],[-82.78033,40.09708],[-82.78043,40.0969],[-82.78058,40.09672],[-82.78088,40.09647],[-82.78119,40.09632],[-82.7818,40.09602],[-82.7819,40.09596],[-82.78197,40.09592],[-82.78208,40.09586],[-82.78233,40.09571],[-82.78268,40.09555],[-82.78308,40.09538],[-82.78309,40.09537],[-82.78367,40.0951],[-82.78409,40.09489],[-82.78429,40.09479],[-82.78445,40.09471],[-82.78492,40.09448],[-82.78515,40.09437],[-82.78575,40.09407],[-82.7867,40.0936],[-82.78711,40.09339],[-82.78755,40.09316],[-82.78796,40.09296],[-82.78817,40.09286],[-82.78861,40.09265],[-82.78929,40.09235],[-82.78947,40.09227],[-82.78951,40.09226],[-82.78999,40.09204],[-82.79039,40.09186],[-82.79043,40.09183],[-82.79109,40.09153],[-82.79178,40.09121],[-82.7919,40.09115],[-82.79209,40.09107],[-82.79268,40.09079],[-82.79335,40.09048],[-82.79345,40.09044],[-82.7936,40.09037],[-82.7944,40.09],[-82.7945,40.08995],[-82.79464,40.08988],[-82.79474,40.08982],[-82.79514,40.08973],[-82.79531,40.08965],[-82.79669,40.08899],[-82.79669,40.08899],[-82.79678,40.089],[-82.79694,40.08898],[-82.79707,40.08896],[-82.79727,40.08898],[-82.79738,40.08899],[-82.79752,40.08902],[-82.79763,40.08904],[-82.79773,40.08909],[-82.79786,40.08915],[-82.79797,40.08921],[-82.79806,40.08924],[-82.79819,40.08929],[-82.7983,40.08933],[-82.79842,40.08936],[-82.79854,40.08939],[-82.79871,40.08942],[-82.79879,40.08943],[-82.79887,40.08944],[-82.79897,40.08945],[-82.7991,40.08946],[-82.79923,40.08947],[-82.79943,40.08948],[-82.79962,40.08948],[-82.79968,40.08949],[-82.79985,40.0895],[-82.79995,40.0895],[-82.80008,40.08952],[-82.80026,40.08954],[-82.80041,40.08956],[-82.80047,40.08957],[-82.80061,40.0896],[-82.8008,40.08964],[-82.80092,40.08967],[-82.80104,40.08971],[-82.80151,40.08986],[-82.80168,40.08992],[-82.8019,40.08999],[-82.80197,40.09001],[-82.80241,40.09014],[-82.80242,40.09014],[-82.80243,40.09014],[-82.80256,40.0901],[-82.80294,40.09021],[-82.80311,40.09025],[-82.80346,40.09034],[-82.8036,40.09037],[-82.80386,40.09042],[-82.80405,40.09046],[-82.80432,40.09051],[-82.80484,40.0906],[-82.80517,40.09064],[-82.80524,40.09065],[-82.80546,40.09068],[-82.80557,40.09069],[-82.80583,40.09072],[-82.80611,40.09074],[-82.80626,40.09075],[-82.80643,40.09076],[-82.80671,40.09078],[-82.80713,40.0908],[-82.80784,40.09083],[-82.80808,40.09084],[-82.80858,40.09086],[-82.80939,40.0909],[-82.80941,40.0909],[-82.80998,40.09093],[-82.81059,40.09095],[-82.81294,40.09106],[-82.81299,40.09106],[-82.81379,40.0911],[-82.81454,40.09113],[-82.81645,40.09122],[-82.8167,40.09123],[-82.81762,40.09127],[-82.8181,40.09129],[-82.81858,40.09131],[-82.81877,40.09132],[-82.81898,40.09133],[-82.81997,40.09138],[-82.82052,40.0914],[-82.82097,40.09142],[-82.82142,40.09143],[-82.82154,40.09144],[-82.82214,40.09147],[-82.82255,40.09149],[-82.82302,40.09152],[-82.82341,40.09154],[-82.82355,40.09154],[-82.82399,40.09156],[-82.82403,40.09157],[-82.8242,40.09157],[-82.82442,40.09158],[-82.82457,40.09159],[-82.82504,40.09161],[-82.82515,40.09161],[-82.82538,40.09162],[-82.82587,40.09165],[-82.82603,40.09165],[-82.82662,40.09168],[-82.82824,40.09175],[-82.82858,40.09176],[-82.82899,40.09177],[-82.82912,40.09177],[-82.8293,40.09177],[-82.8296,40.09176],[-82.82961,40.09176],[-82.82973,40.09176],[-82.8299,40.09176],[-82.82997,40.09175],[-82.83021,40.09174],[-82.83034,40.09173],[-82.83054,40.09172],[-82.8307,40.09171],[-82.83088,40.0917],[-82.83113,40.09167],[-82.83142,40.09164],[-82.83167,40.0916],[-82.83182,40.09158],[-82.83211,40.09154],[-82.83223,40.09152],[-82.83238,40.09149],[-82.83245,40.09148],[-82.83269,40.09143],[-82.83289,40.09139],[-82.83318,40.09133],[-82.83327,40.09131],[-82.83349,40.09125],[-82.83372,40.09119],[-82.83383,40.09117],[-82.83431,40.09103],[-82.83454,40.09096],[-82.83455,40.09096],[-82.83482,40.09087],[-82.83496,40.09082],[-82.8351,40.09077],[-82.83511,40.09077],[-82.83527,40.09071],[-82.83544,40.09065],[-82.83545,40.09065],[-82.83562,40.09059],[-82.83588,40.09049],[-82.83639,40.09031],[-82.83713,40.09004],[-82.83734,40.08996],[-82.83736,40.08995],[-82.83757,40.08988],[-82.83765,40.08985],[-82.83796,40.08973],[-82.83821,40.08964],[-82.83852,40.08953],[-82.83885,40.08941],[-82.83924,40.08927],[-82.83965,40.08912],[-82.83978,40.08908],[-82.84029,40.08889],[-82.84088,40.08868],[-82.8412,40.08856],[-82.84146,40.08847],[-82.84197,40.08829],[-82.84226,40.08818],[-82.8424,40.08813],[-82.84252,40.08809],[-82.84301,40.08791],[-82.84325,40.08782],[-82.8435,40.08773],[-82.84376,40.08764],[-82.84402,40.08755],[-82.8443,40.08745],[-82.84455,40.08736],[-82.84481,40.08726],[-82.84507,40.08717],[-82.84532,40.08707],[-82.84559,40.08698],[-82.84565,40.08696],[-82.84584,40.08689],[-82.84592,40.08686],[-82.84598,40.08684],[-82.84608,40.0868],[-82.84634,40.08671],[-82.84645,40.08667],[-82.84673,40.08657],[-82.8468,40.08654],[-82.84699,40.08647],[-82.84716,40.08641],[-82.84738,40.08633],[-82.84751,40.08628],[-82.84789,40.08614],[-82.84815,40.08605],[-82.84817,40.08604],[-82.84841,40.08596],[-82.84867,40.08586],[-82.84893,40.08577],[-82.84902,40.08574],[-82.84919,40.08568],[-82.84942,40.08559],[-82.84996,40.0854],[-82.85014,40.08533],[-82.85035,40.08526],[-82.8506,40.08516],[-82.85086,40.08507],[-82.85112,40.08498],[-82.85138,40.08488],[-82.85164,40.08479],[-82.8519,40.08469],[-82.85205,40.08464],[-82.85215,40.0846],[-82.85241,40.08451],[-82.85267,40.08441],[-82.85293,40.08432],[-82.85319,40.08423],[-82.85348,40.08412],[-82.85373,40.08403],[-82.85402,40.08393],[-82.8541,40.0839],[-82.85439,40.08379],[-82.85453,40.08374],[-82.85478,40.08364],[-82.85503,40.08355],[-82.85529,40.08345],[-82.85555,40.08335],[-82.8556,40.08333],[-82.8558,40.08326],[-82.85601,40.08318],[-82.85605,40.08316],[-82.85631,40.08306],[-82.85656,40.08297],[-82.85682,40.08287],[-82.85689,40.08284],[-82.85707,40.08278],[-82.85733,40.08268],[-82.85758,40.08258],[-82.85784,40.08249],[-82.8581,40.0824],[-82.85836,40.08231],[-82.85855,40.08223],[-82.85864,40.0822],[-82.85874,40.08217],[-82.85887,40.08212],[-82.85905,40.08206],[-82.85925,40.08199],[-82.85951,40.08189],[-82.85954,40.08188],[-82.85961,40.08185],[-82.85976,40.0818],[-82.86002,40.08171],[-82.86027,40.08161],[-82.86053,40.08152],[-82.86079,40.08143],[-82.86082,40.08142],[-82.86085,40.08141],[-82.86104,40.08134],[-82.86128,40.08125],[-82.8613,40.08124],[-82.86155,40.08115],[-82.86182,40.08105],[-82.86208,40.08096],[-82.86233,40.08087],[-82.86236,40.08086],[-82.8624,40.08084],[-82.86259,40.08078],[-82.86284,40.08069],[-82.86297,40.08064],[-82.8631,40.0806],[-82.86314,40.08059],[-82.86323,40.08055],[-82.86336,40.08051],[-82.86362,40.08043],[-82.86369,40.08041],[-82.86372,40.0804],[-82.86374,40.08039],[-82.86376,40.08039],[-82.86389,40.08035],[-82.86403,40.08031],[-82.86415,40.08027],[-82.86429,40.08024],[-82.86442,40.0802],[-82.86456,40.08017],[-82.86469,40.08014],[-82.86484,40.0801],[-82.86496,40.08007],[-82.86509,40.08004],[-82.86523,40.08002],[-82.86537,40.07999],[-82.8655,40.07996],[-82.86559,40.07995],[-82.86564,40.07994],[-82.86578,40.07991],[-82.86592,40.07989],[-82.86605,40.07987],[-82.86606,40.07987],[-82.8662,40.07985],[-82.86633,40.07983],[-82.86636,40.07983],[-82.86647,40.07981],[-82.86653,40.07981],[-82.86661,40.0798],[-82.86675,40.07978],[-82.86717,40.07974],[-82.86731,40.07973],[-82.86748,40.07971],[-82.86775,40.07971],[-82.86794,40.0797],[-82.86818,40.07969],[-82.8684,40.07968],[-82.86872,40.07968],[-82.86897,40.07968],[-82.86925,40.07969],[-82.86957,40.0797],[-82.86967,40.0797],[-82.86978,40.07971],[-82.87012,40.07973],[-82.87022,40.07974],[-82.87033,40.07975],[-82.87074,40.07979],[-82.87081,40.07979],[-82.87088,40.0798],[-82.87112,40.07982],[-82.87136,40.07985],[-82.87186,40.0799],[-82.87215,40.07993],[-82.87248,40.07997],[-82.87288,40.08001],[-82.87316,40.08004],[-82.87341,40.08006],[-82.87365,40.08009],[-82.87374,40.0801],[-82.87382,40.08011],[-82.87393,40.08012],[-82.87406,40.08013],[-82.87429,40.08015],[-82.87457,40.08018],[-82.87461,40.08018],[-82.875,40.08022],[-82.87504,40.08022],[-82.87527,40.08024],[-82.8755,40.08026],[-82.87614,40.08031],[-82.87626,40.08032],[-82.87664,40.08035],[-82.87702,40.08038],[-82.87768,40.08043],[-82.87781,40.08044],[-82.87801,40.08045],[-82.87832,40.08048],[-82.87856,40.08049],[-82.87878,40.08051],[-82.87925,40.08055],[-82.87938,40.08055],[-82.87976,40.08058],[-82.87995,40.0806],[-82.88029,40.08062],[-82.88054,40.08064],[-82.88072,40.08066],[-82.8813,40.08071],[-82.88159,40.08074],[-82.88172,40.08075],[-82.88185,40.08076],[-82.88217,40.08078],[-82.88225,40.08078],[-82.88245,40.08078],[-82.88257,40.08077],[-82.8827,40.08077],[-82.88283,40.08077],[-82.88299,40.08077],[-82.88325,40.08076],[-82.88325,40.08076],[-82.88333,40.0808],[-82.88334,40.0808],[-82.88334,40.08081],[-82.88365,40.0808],[-82.88387,40.0808],[-82.8839,40.0808],[-82.88402,40.08079],[-82.88416,40.08079],[-82.88418,40.08079],[-82.8843,40.08078],[-82.88442,40.08078],[-82.88444,40.08078],[-82.88458,40.08077],[-82.88473,40.08077],[-82.88497,40.08075],[-82.88501,40.08075],[-82.88515,40.08074],[-82.88529,40.08073],[-82.88543,40.08072],[-82.88558,40.08071],[-82.88568,40.0807],[-82.88582,40.08069],[-82.88584,40.08069],[-82.88602,40.08067],[-82.88613,40.08066],[-82.88627,40.08065],[-82.88641,40.08064],[-82.88645,40.08064],[-82.88655,40.08063],[-82.88668,40.08061],[-82.88669,40.08061],[-82.88682,40.0806],[-82.88692,40.08059],[-82.887,40.08058],[-82.88713,40.08057],[-82.88727,40.08056],[-82.88745,40.08055],[-82.88754,40.08054],[-82.88769,40.08053],[-82.88776,40.08053],[-82.88783,40.08052],[-82.88797,40.08052],[-82.88812,40.08051],[-82.88825,40.08051],[-82.8884,40.08051],[-82.88847,40.08051],[-82.8886,40.08051],[-82.88868,40.08052],[-82.88882,40.08052],[-82.88897,40.08053],[-82.8891,40.08053],[-82.88918,40.08054],[-82.88924,40.08054],[-82.88939,40.08055],[-82.88953,40.08057],[-82.88967,40.08058],[-82.88981,40.0806],[-82.88995,40.08062],[-82.89009,40.08063],[-82.89029,40.08066],[-82.89036,40.08068],[-82.89051,40.0807],[-82.89065,40.08073],[-82.89079,40.08075],[-82.89081,40.08076],[-82.89092,40.08078],[-82.89106,40.08081],[-82.8912,40.08084],[-82.89126,40.08086],[-82.89134,40.08088],[-82.89153,40.08093],[-82.89167,40.08097],[-82.8918,40.08101],[-82.89193,40.08105],[-82.892,40.08107],[-82.89204,40.08108],[-82.89207,40.08109],[-82.8922,40.08113],[-82.89233,40.08118],[-82.89247,40.08122],[-82.8926,40.08127],[-82.89273,40.08131],[-82.89286,40.08136],[-82.89299,40.0814],[-82.89314,40.08145],[-82.89325,40.08149],[-82.89339,40.08154],[-82.89351,40.08158],[-82.89364,40.08163],[-82.89378,40.08167],[-82.89391,40.08172],[-82.89395,40.08173],[-82.89404,40.08176],[-82.89417,40.0818],[-82.8943,40.08184],[-82.89443,40.08189],[-82.89457,40.08193],[-82.89465,40.08195],[-82.89472,40.08197],[-82.89478,40.08199],[-82.89484,40.082],[-82.89498,40.08204],[-82.89511,40.08207],[-82.89526,40.0821],[-82.89539,40.08213],[-82.89546,40.08214],[-82.89554,40.08216],[-82.89568,40.08218],[-82.89593,40.08222],[-82.89599,40.08223],[-82.89607,40.08224],[-82.89628,40.08226],[-82.89646,40.08227],[-82.89651,40.08227],[-82.89666,40.08228],[-82.89671,40.08228],[-82.8968,40.08229],[-82.89704,40.08229],[-82.89709,40.08229],[-82.89723,40.08229],[-82.89737,40.08229],[-82.89745,40.08229],[-82.89769,40.08228],[-82.89779,40.08228],[-82.89794,40.08228],[-82.89809,40.08227],[-82.89816,40.08227],[-82.89823,40.08227],[-82.89838,40.08226],[-82.89851,40.08225],[-82.89865,40.08225],[-82.89883,40.08225],[-82.89895,40.08224],[-82.89924,40.08224],[-82.89931,40.08224],[-82.89938,40.08224],[-82.89953,40.08224],[-82.89967,40.08225],[-82.89979,40.08225],[-82.89997,40.08225],[-82.90009,40.08221],[-82.9002,40.0822],[-82.90024,40.0822],[-82.90094,40.08221],[-82.90132,40.08223],[-82.90179,40.08226],[-82.90222,40.08231],[-82.90309,40.0825],[-82.90358,40.08263],[-82.90368,40.08265],[-82.90372,40.08266],[-82.90382,40.08269],[-82.90396,40.08272],[-82.9041,40.08276],[-82.90423,40.08279],[-82.90437,40.08282],[-82.90448,40.08285],[-82.9045,40.08285],[-82.90461,40.08288],[-82.90465,40.08289],[-82.90469,40.08289],[-82.9048,40.08291],[-82.90482,40.08292],[-82.90491,40.08293],[-82.90495,40.08293],[-82.90499,40.08294],[-82.90506,40.08295],[-82.9051,40.08295],[-82.90514,40.08295],[-82.90518,40.08295],[-82.90521,40.08296],[-82.90534,40.08296],[-82.90542,40.08296],[-82.90547,40.08296],[-82.90549,40.08296],[-82.90553,40.08296],[-82.90555,40.08296],[-82.90557,40.08296],[-82.90567,40.08295],[-82.90574,40.08294],[-82.90576,40.08294],[-82.9058,40.08294],[-82.90583,40.08293],[-82.90593,40.08292],[-82.90605,40.0829],[-82.90606,40.0829],[-82.90628,40.08285],[-82.90634,40.08284],[-82.90639,40.08282],[-82.90647,40.0828],[-82.90657,40.08277],[-82.90664,40.08275],[-82.90669,40.08273],[-82.90678,40.0827],[-82.90688,40.08266],[-82.90692,40.08264],[-82.90698,40.08262],[-82.90711,40.08256],[-82.90715,40.08254],[-82.90723,40.08248],[-82.90727,40.08246],[-82.9073,40.08244],[-82.90734,40.08241],[-82.90737,40.08239],[-82.90742,40.08236],[-82.90745,40.08233],[-82.90748,40.08231],[-82.90749,40.0823],[-82.9075,40.08229],[-82.90757,40.08224],[-82.90759,40.08221],[-82.90762,40.08219],[-82.90765,40.08216],[-82.90769,40.08211],[-82.90775,40.08205],[-82.90778,40.08202],[-82.90785,40.08194],[-82.90787,40.08193],[-82.90791,40.08187],[-82.90798,40.08178],[-82.90799,40.08176],[-82.90805,40.08168],[-82.90811,40.08157],[-82.90813,40.08153],[-82.90816,40.08148],[-82.90821,40.08137],[-82.90825,40.08126],[-82.90828,40.08116],[-82.9083,40.08105],[-82.90832,40.08093],[-82.90833,40.08083],[-82.90834,40.08071],[-82.90834,40.08061],[-82.90833,40.0805],[-82.90831,40.08039],[-82.9083,40.08035],[-82.90829,40.08029],[-82.90826,40.08017],[-82.90822,40.08006],[-82.90819,40.07997],[-82.90818,40.07996],[-82.90814,40.07985],[-82.90811,40.07975],[-82.90807,40.07964],[-82.90803,40.07953],[-82.90799,40.07943],[-82.90799,40.07942],[-82.90795,40.07932],[-82.90792,40.07922],[-82.90791,40.07921],[-82.90789,40.07912],[-82.90788,40.07908],[-82.90785,40.07895],[-82.90785,40.0789],[-82.90785,40.07888],[-82.90784,40.07879],[-82.90783,40.07872],[-82.90784,40.07857],[-82.90785,40.07841],[-82.90786,40.07824],[-82.90789,40.0778],[-82.9079,40.07769],[-82.90791,40.07758],[-82.90792,40.07751],[-82.90793,40.07733],[-82.90794,40.07723],[-82.90795,40.07701],[-82.90796,40.0769],[-82.90796,40.07685],[-82.90795,40.0768],[-82.90794,40.07664],[-82.90795,40.07653],[-82.90796,40.07639],[-82.90797,40.0763],[-82.90797,40.07621],[-82.90798,40.07609],[-82.90799,40.07598],[-82.908,40.07586],[-82.90801,40.07575],[-82.90801,40.07564],[-82.90802,40.07553],[-82.90804,40.07531],[-82.90806,40.07509],[-82.90807,40.07488],[-82.90808,40.07474],[-82.9081,40.07454],[-82.90811,40.07443],[-82.90812,40.07432],[-82.90812,40.07421],[-82.90814,40.074],[-82.90815,40.07387],[-82.90816,40.07376],[-82.90817,40.07367],[-82.90817,40.07355],[-82.90818,40.07343],[-82.90819,40.07332],[-82.9082,40.0732],[-82.90821,40.07311],[-82.90821,40.073],[-82.90822,40.0729],[-82.90822,40.07284],[-82.90822,40.07277],[-82.90822,40.07266],[-82.90823,40.07255],[-82.90823,40.07243],[-82.90823,40.07233],[-82.90822,40.07222],[-82.90822,40.07213],[-82.90822,40.07212],[-82.90822,40.07204],[-82.90821,40.07194],[-82.90821,40.07187],[-82.9082,40.07185],[-82.9082,40.07171],[-82.90819,40.07159],[-82.90818,40.0715],[-82.90817,40.07138],[-82.90816,40.07127],[-82.90814,40.07115],[-82.90812,40.07099],[-82.90812,40.07094],[-82.9081,40.07079],[-82.90807,40.07061],[-82.90806,40.07051],[-82.90804,40.0704],[-82.90802,40.07029],[-82.90802,40.07028],[-82.908,40.07017],[-82.90796,40.06995],[-82.90792,40.06975],[-82.9079,40.06964],[-82.90785,40.06944],[-82.90779,40.06923],[-82.90773,40.06901],[-82.90768,40.06886],[-82.90766,40.06879],[-82.90763,40.06867],[-82.90757,40.06847],[-82.90754,40.06836],[-82.90744,40.06804],[-82.90736,40.06778],[-82.90734,40.06773],[-82.90731,40.06763],[-82.90721,40.06729],[-82.90716,40.06713],[-82.90715,40.0671],[-82.90703,40.06664],[-82.90702,40.06662],[-82.90694,40.06637],[-82.90685,40.06609],[-82.90684,40.06608],[-82.90669,40.06563],[-82.90665,40.0655],[-82.90655,40.06518],[-82.90641,40.06476],[-82.90629,40.0644],[-82.90615,40.06397],[-82.90612,40.0639],[-82.90595,40.06339],[-82.90576,40.0628],[-82.9057,40.06262],[-82.90559,40.06229],[-82.90554,40.06212],[-82.9055,40.062],[-82.90547,40.06192],[-82.90546,40.06189],[-82.9054,40.0617],[-82.90537,40.06157],[-82.90536,40.06153],[-82.90533,40.06143],[-82.90531,40.06136],[-82.90528,40.06124],[-82.90525,40.06112],[-82.90521,40.06093],[-82.90519,40.06082],[-82.90516,40.06071],[-82.90515,40.06065],[-82.90512,40.06049],[-82.90509,40.06035],[-82.90508,40.06028],[-82.90505,40.06015],[-82.90502,40.05998],[-82.90501,40.05996],[-82.905,40.05986],[-82.90497,40.05974],[-82.90495,40.05962],[-82.90493,40.05952],[-82.9049,40.0594],[-82.90488,40.05929],[-82.90487,40.05926],[-82.90483,40.05911],[-82.90481,40.05899],[-82.90478,40.05887],[-82.90475,40.05877],[-82.90472,40.05866],[-82.90469,40.05855],[-82.90466,40.05846],[-82.90464,40.05838],[-82.90462,40.0583],[-82.90455,40.0581],[-82.90443,40.05772],[-82.90435,40.05749],[-82.90425,40.05717],[-82.90421,40.05707],[-82.9042,40.05704],[-82.90415,40.05686],[-82.90411,40.05675],[-82.90404,40.05654],[-82.90393,40.05622],[-82.9039,40.05612],[-82.90386,40.05602],[-82.90382,40.05588],[-82.90374,40.05562],[-82.90368,40.05544],[-82.90365,40.05536],[-82.90355,40.05505],[-82.90348,40.05484],[-82.90344,40.05473],[-82.90341,40.05463],[-82.90337,40.05451],[-82.90331,40.05431],[-82.9033,40.05431],[-82.90324,40.05409],[-82.9032,40.05398],[-82.90317,40.05388],[-82.90316,40.05383],[-82.90315,40.05377],[-82.90309,40.05354],[-82.90305,40.05339],[-82.90302,40.05324],[-82.90301,40.05322],[-82.90297,40.053],[-82.90294,40.05287],[-82.90292,40.05273],[-82.9029,40.05263],[-82.90288,40.05253],[-82.90286,40.05237],[-82.90285,40.05229],[-82.90283,40.05218],[-82.90282,40.05208],[-82.9028,40.05191],[-82.90275,40.05143],[-82.90272,40.05103],[-82.9027,40.05086],[-82.90269,40.0506],[-82.90267,40.05029],[-82.90266,40.0501],[-82.90265,40.04995],[-82.90265,40.04985],[-82.90264,40.04953],[-82.90264,40.04938],[-82.90264,40.04922],[-82.90264,40.04901],[-82.90264,40.04889],[-82.90264,40.04873],[-82.90265,40.04847],[-82.90265,40.04828],[-82.90265,40.04821],[-82.90266,40.04802],[-82.90267,40.04787],[-82.90267,40.04781],[-82.90268,40.04775],[-82.9027,40.04723],[-82.90272,40.04683],[-82.90273,40.04661],[-82.90274,40.04637],[-82.90276,40.04605],[-82.90277,40.04588],[-82.90277,40.04582],[-82.90277,40.04579],[-82.90287,40.04442],[-82.90288,40.04431],[-82.90289,40.04409],[-82.90291,40.04393],[-82.90291,40.04378],[-82.90292,40.04366],[-82.90294,40.04342],[-82.90296,40.04319],[-82.90298,40.04292],[-82.90298,40.04287],[-82.903,40.04262],[-82.90302,40.04245],[-82.90303,40.04224],[-82.90304,40.04214],[-82.90305,40.042],[-82.90307,40.04178],[-82.90308,40.04158],[-82.90309,40.0414],[-82.9031,40.04134],[-82.90311,40.04115],[-82.90312,40.04107],[-82.90315,40.04056],[-82.90317,40.04018],[-82.9032,40.03978],[-82.90321,40.03953],[-82.90323,40.03931],[-82.90325,40.03895],[-82.90327,40.03843],[-82.90327,40.03836],[-82.90328,40.03829],[-82.90332,40.03754],[-82.90332,40.03743],[-82.90336,40.03685],[-82.90337,40.03665],[-82.9034,40.03599],[-82.90344,40.03521],[-82.90346,40.03495],[-82.90348,40.03464],[-82.90349,40.03442],[-82.9035,40.03422],[-82.90351,40.03397],[-82.90351,40.0339],[-82.90352,40.03375],[-82.90346,40.03367],[-82.90347,40.03351],[-82.90349,40.03315],[-82.9035,40.0331],[-82.90351,40.03289],[-82.90353,40.03268],[-82.90353,40.03263],[-82.90354,40.03246],[-82.90356,40.03224],[-82.90358,40.03202],[-82.90358,40.03191],[-82.90359,40.03181],[-82.90361,40.03159],[-82.90363,40.03137],[-82.90364,40.03115],[-82.90365,40.03112],[-82.90367,40.03082],[-82.90368,40.03061],[-82.9037,40.03046],[-82.9037,40.03029],[-82.90372,40.03007],[-82.90374,40.02984],[-82.90375,40.02962],[-82.90376,40.02951],[-82.90377,40.0294],[-82.90378,40.0293],[-82.90379,40.02919],[-82.9038,40.02905],[-82.9038,40.02896],[-82.90381,40.02886],[-82.90382,40.02875],[-82.90383,40.02864],[-82.90384,40.02853],[-82.90385,40.02842],[-82.90385,40.02831],[-82.90386,40.02821],[-82.90387,40.02809],[-82.90388,40.02798],[-82.90388,40.02797],[-82.90389,40.02788],[-82.90389,40.02777],[-82.9039,40.02765],[-82.9039,40.02762],[-82.90391,40.02755],[-82.90392,40.02744],[-82.90393,40.02734],[-82.90394,40.02711],[-82.90395,40.027],[-82.90396,40.02689],[-82.90397,40.02679],[-82.90397,40.02668],[-82.90398,40.02657],[-82.90399,40.02651],[-82.90399,40.02646],[-82.90399,40.02642],[-82.904,40.02635],[-82.90401,40.02624],[-82.90402,40.02614],[-82.90403,40.02592],[-82.90403,40.0259],[-82.90404,40.0258],[-82.90405,40.0257],[-82.90407,40.02549],[-82.90408,40.02527],[-82.90412,40.02482],[-82.90413,40.02461],[-82.90413,40.02456],[-82.90414,40.0245],[-82.90415,40.02439],[-82.90416,40.02428],[-82.90416,40.02417],[-82.90417,40.02406],[-82.90418,40.02395],[-82.90419,40.02384],[-82.9042,40.02363],[-82.90421,40.02356],[-82.90421,40.02352],[-82.90422,40.0233],[-82.90423,40.02319],[-82.90424,40.02297],[-82.90425,40.02286],[-82.90426,40.02264],[-82.90427,40.02254],[-82.90428,40.02232],[-82.90429,40.02221],[-82.90429,40.0221],[-82.9043,40.02188],[-82.90431,40.02181],[-82.90431,40.02177],[-82.90432,40.02166],[-82.90432,40.02155],[-82.90433,40.02144],[-82.90434,40.02135],[-82.90434,40.02133],[-82.90435,40.02122],[-82.90436,40.02112],[-82.90437,40.02091],[-82.90438,40.02079],[-82.90439,40.02068],[-82.9044,40.02057],[-82.9044,40.02046],[-82.90441,40.02035],[-82.90442,40.02024],[-82.90443,40.02013],[-82.90444,40.01991],[-82.90444,40.01959],[-82.90444,40.01959],[-82.90453,40.01943],[-82.90453,40.01942],[-82.90454,40.01941],[-82.90456,40.01928],[-82.90457,40.01917],[-82.90459,40.01906],[-82.90459,40.01902],[-82.9046,40.01895],[-82.90462,40.01884],[-82.90464,40.01873],[-82.90465,40.01868],[-82.90467,40.01862],[-82.90469,40.01852],[-82.90472,40.01841],[-82.90473,40.0184],[-82.90476,40.0183],[-82.90479,40.01819],[-82.9048,40.01818],[-82.90484,40.01809],[-82.90489,40.01799],[-82.90493,40.01788],[-82.90499,40.01777],[-82.905,40.01774],[-82.90507,40.01763],[-82.9051,40.01758],[-82.90514,40.01751],[-82.90516,40.01748],[-82.90522,40.01738],[-82.90529,40.01729],[-82.90531,40.01726],[-82.90536,40.0172],[-82.90543,40.01711],[-82.9055,40.01701],[-82.90551,40.017],[-82.90557,40.01691],[-82.90563,40.01682],[-82.90569,40.01672],[-82.90575,40.01661],[-82.90576,40.01659],[-82.9058,40.01651],[-82.90585,40.01641],[-82.90588,40.0163],[-82.90592,40.0162],[-82.90594,40.01608],[-82.90596,40.01598],[-82.90598,40.01587],[-82.90598,40.01576],[-82.90598,40.01571],[-82.90599,40.01565],[-82.90598,40.01554],[-82.90598,40.01548],[-82.90598,40.01546],[-82.90597,40.01543],[-82.90596,40.01532],[-82.90594,40.01522],[-82.90592,40.01512],[-82.90591,40.01511],[-82.90588,40.015],[-82.90586,40.01489],[-82.90583,40.01479],[-82.90581,40.01468],[-82.90581,40.01463],[-82.9058,40.01459],[-82.90579,40.01448],[-82.90579,40.01437],[-82.9058,40.01426],[-82.90581,40.01415],[-82.90583,40.01407],[-82.90584,40.01404],[-82.90585,40.01398],[-82.90587,40.01393],[-82.90591,40.01382],[-82.90596,40.01372],[-82.90597,40.01371],[-82.90599,40.01367],[-82.90602,40.01362],[-82.90608,40.01352],[-82.90611,40.01348],[-82.90613,40.01345],[-82.90622,40.01333],[-82.9063,40.01323],[-82.90639,40.01313],[-82.90655,40.01296],[-82.90663,40.01287],[-82.90671,40.01278],[-82.90673,40.01277],[-82.90679,40.0127],[-82.90687,40.01261],[-82.90696,40.01251],[-82.9073,40.01215],[-82.90736,40.01209],[-82.90744,40.012],[-82.90753,40.01191],[-82.90765,40.01179],[-82.90765,40.01178],[-82.90763,40.0117],[-82.90773,40.01158],[-82.90782,40.01149],[-82.90792,40.01139],[-82.9081,40.0112],[-82.90818,40.01112],[-82.90827,40.01103],[-82.90836,40.01094],[-82.90841,40.01089],[-82.90853,40.01076],[-82.90863,40.01066],[-82.90871,40.01058],[-82.9089,40.01038],[-82.90928,40.01003],[-82.90931,40.01],[-82.90956,40.00976],[-82.90974,40.00959],[-82.90983,40.0095],[-82.90983,40.0095],[-82.90987,40.00945],[-82.91002,40.00933],[-82.91019,40.00919],[-82.91022,40.00917],[-82.91039,40.00903],[-82.9108,40.0087],[-82.91108,40.00849],[-82.91124,40.00839],[-82.91134,40.00832],[-82.91136,40.00831],[-82.91156,40.00819],[-82.91181,40.00805],[-82.91199,40.00795],[-82.91208,40.0079],[-82.91221,40.00783],[-82.91223,40.00782],[-82.91231,40.00778],[-82.91239,40.00773],[-82.91264,40.00759],[-82.91296,40.00741],[-82.91325,40.00725],[-82.91354,40.00709],[-82.91388,40.00689],[-82.91409,40.00677],[-82.91428,40.00667],[-82.91454,40.00653],[-82.91473,40.00643],[-82.91499,40.00629],[-82.91511,40.00622],[-82.91543,40.00604],[-82.9159,40.00578],[-82.916,40.00573],[-82.91603,40.00571],[-82.91663,40.00539],[-82.91683,40.00528],[-82.91701,40.00519],[-82.91738,40.00498],[-82.91786,40.00472],[-82.91809,40.00459],[-82.91843,40.00441],[-82.91864,40.0043],[-82.91977,40.00367],[-82.92004,40.00352],[-82.92044,40.0033],[-82.92078,40.00311],[-82.921,40.00299],[-82.92168,40.00261],[-82.92182,40.00253],[-82.92224,40.0023],[-82.92226,40.00229],[-82.92227,40.00228],[-82.92237,40.00223],[-82.92305,40.00183],[-82.9235,40.00151],[-82.92414,40.0011],[-82.92448,40.00088],[-82.92474,40.00072],[-82.92483,40.00066],[-82.92525,40.00039],[-82.92535,40.00033],[-82.9255,40.00023],[-82.9256,40.00017],[-82.92696,39.9993],[-82.92744,39.99899],[-82.92786,39.99872],[-82.92835,39.99841],[-82.92856,39.99827],[-82.92868,39.99819],[-82.92889,39.99806],[-82.92912,39.99791],[-82.92937,39.99775],[-82.92946,39.99768],[-82.92956,39.99762],[-82.92969,39.99754],[-82.92981,39.99746],[-82.93002,39.99732],[-82.93017,39.99723],[-82.93042,39.99707],[-82.93062,39.99694],[-82.9308,39.99682],[-82.93096,39.99672],[-82.93143,39.99642],[-82.9317,39.99624],[-82.93201,39.99605],[-82.93214,39.99597],[-82.93261,39.99566],[-82.93292,39.99545],[-82.93311,39.99532],[-82.93334,39.99515],[-82.9334,39.9951],[-82.93345,39.99507],[-82.93355,39.99498],[-82.93365,39.9949],[-82.93374,39.99481],[-82.93383,39.99473],[-82.934,39.99457],[-82.93401,39.99456],[-82.93418,39.99437],[-82.93436,39.99417],[-82.93455,39.99396],[-82.93462,39.99388],[-82.9347,39.99378],[-82.93478,39.99369],[-82.93484,39.99362],[-82.93501,39.99343],[-82.93512,39.9933],[-82.93528,39.99312],[-82.93531,39.99309],[-82.9354,39.99298],[-82.93553,39.99282],[-82.93562,39.99272],[-82.93573,39.9926],[-82.93594,39.99236],[-82.936,39.99229],[-82.93606,39.99222],[-82.93636,39.99187],[-82.93649,39.99172],[-82.93656,39.99163],[-82.93669,39.99148],[-82.93678,39.99136],[-82.93682,39.99132],[-82.93689,39.99122],[-82.93701,39.99106],[-82.9371,39.99094],[-82.93718,39.99082],[-82.93721,39.99077],[-82.93727,39.99069],[-82.93735,39.99056],[-82.93745,39.99041],[-82.93754,39.99026],[-82.93773,39.98991],[-82.93778,39.98982],[-82.93779,39.9898],[-82.93785,39.98969],[-82.93789,39.98961],[-82.93792,39.98954],[-82.93803,39.98931],[-82.93813,39.98909],[-82.93822,39.98888],[-82.93827,39.98874],[-82.93828,39.98872],[-82.93837,39.98846],[-82.93841,39.98835],[-82.93842,39.98831],[-82.93844,39.98825],[-82.93853,39.98793],[-82.93859,39.98774],[-82.93864,39.98757],[-82.93871,39.98734],[-82.93874,39.9872],[-82.9388,39.98702],[-82.93884,39.98687],[-82.93889,39.98673],[-82.93895,39.98653],[-82.93899,39.98637],[-82.93902,39.98629],[-82.93906,39.98616],[-82.93913,39.98596],[-82.93919,39.98579],[-82.93931,39.98544],[-82.93933,39.98536],[-82.93946,39.98502],[-82.93954,39.98478],[-82.93962,39.98457],[-82.93965,39.98447],[-82.93966,39.98445],[-82.93973,39.98424],[-82.9398,39.98406],[-82.93984,39.98397],[-82.93989,39.98383],[-82.93995,39.98369],[-82.94,39.98358],[-82.94003,39.98351],[-82.94005,39.98347],[-82.94009,39.98339],[-82.94015,39.98329],[-82.9402,39.9832],[-82.94024,39.98312],[-82.9403,39.98304],[-82.94036,39.98295],[-82.94042,39.98287],[-82.94048,39.98278],[-82.94054,39.98271],[-82.94062,39.98263],[-82.94074,39.9825],[-82.94081,39.98242],[-82.94088,39.98236],[-82.94089,39.98235],[-82.94098,39.98227],[-82.94108,39.98219],[-82.94119,39.9821],[-82.94127,39.98204],[-82.94139,39.98196],[-82.94145,39.98192],[-82.94153,39.98188],[-82.94164,39.98181],[-82.94167,39.98179],[-82.94181,39.98172],[-82.94194,39.98165],[-82.94201,39.98162],[-82.94209,39.98158],[-82.94218,39.98155],[-82.94228,39.98151],[-82.94241,39.98146],[-82.94253,39.98142],[-82.94267,39.98138],[-82.94282,39.98134],[-82.94294,39.98131],[-82.94303,39.98129],[-82.94304,39.98129],[-82.94323,39.98125],[-82.94331,39.98124],[-82.9434,39.98122],[-82.94359,39.98119],[-82.94377,39.98117],[-82.94395,39.98115],[-82.94411,39.98114],[-82.94425,39.98112],[-82.94442,39.98111],[-82.94443,39.98111],[-82.9446,39.9811],[-82.94477,39.98109],[-82.94515,39.98108],[-82.94518,39.98108],[-82.94542,39.98107],[-82.9456,39.98106],[-82.94606,39.98104],[-82.94623,39.98104],[-82.94654,39.98102],[-82.9468,39.98101],[-82.94697,39.98101],[-82.94716,39.981],[-82.94742,39.981],[-82.94766,39.98099],[-82.94802,39.98099],[-82.94819,39.98098],[-82.94846,39.98098],[-82.9486,39.98098],[-82.94887,39.98098],[-82.94911,39.98098],[-82.9493,39.98098],[-82.94949,39.98097],[-82.94967,39.98096],[-82.95019,39.98095],[-82.95047,39.98094],[-82.95076,39.98093],[-82.95103,39.98092],[-82.95103,39.98092],[-82.9511,39.981],[-82.95111,39.981],[-82.95129,39.981],[-82.95138,39.981],[-82.95144,39.981],[-82.95169,39.98101],[-82.95196,39.98101],[-82.95205,39.98102],[-82.95254,39.98103],[-82.95257,39.98103],[-82.9527,39.98104],[-82.95279,39.98104],[-82.95304,39.98105],[-82.95328,39.98106],[-82.95353,39.98107],[-82.95393,39.98108],[-82.95425,39.9811],[-82.95468,39.98111],[-82.95491,39.98112],[-82.95492,39.98112],[-82.95501,39.98112],[-82.95531,39.98114],[-82.95557,39.98115],[-82.95561,39.98115],[-82.95583,39.98116]]}},{"type":"Feature","properties":{"_gpxType":"trk","name":"8480 Fairview Road, Mount Vernon, OH - 1779 Leonard Ave - 1225 Hamlet St, Columbus, OH 43201","coordinateProperties":{},"id":11},"geometry":{"type":"LineString","coordinates":[[-82.95583,39.98116],[-82.95605,39.98116],[-82.95616,39.98117],[-82.95625,39.98116],[-82.95633,39.98116],[-82.95645,39.98115],[-82.95654,39.98115],[-82.95667,39.98115],[-82.95684,39.98114],[-82.95727,39.98114],[-82.95747,39.98113],[-82.95749,39.98113],[-82.95773,39.98112],[-82.95796,39.98111],[-82.9584,39.98107],[-82.95843,39.98107],[-82.95866,39.98104],[-82.95867,39.98104],[-82.95882,39.98102],[-82.9589,39.98101],[-82.95913,39.98097],[-82.9592,39.98096],[-82.95956,39.9809],[-82.95987,39.98085],[-82.96079,39.98071],[-82.96114,39.98065],[-82.96115,39.98065],[-82.9612,39.98055],[-82.9612,39.98055],[-82.96153,39.9805],[-82.96165,39.98049],[-82.96181,39.98046],[-82.96237,39.98037],[-82.96279,39.9803],[-82.96301,39.98027],[-82.96318,39.98024],[-82.96319,39.98024],[-82.96359,39.98017],[-82.9638,39.98014],[-82.964,39.98011],[-82.96475,39.97999],[-82.96517,39.97992],[-82.96538,39.97989],[-82.96557,39.97985],[-82.96612,39.97977],[-82.9664,39.97972],[-82.96657,39.97969],[-82.96682,39.97965],[-82.96697,39.97963],[-82.96712,39.97961],[-82.96725,39.97958],[-82.96739,39.97956],[-82.96777,39.9795],[-82.96786,39.97949],[-82.96836,39.9794],[-82.9686,39.97937],[-82.96901,39.9793],[-82.96921,39.97927],[-82.96933,39.97925],[-82.96935,39.97924],[-82.96956,39.97921],[-82.96983,39.97917],[-82.97006,39.97913],[-82.97017,39.97911],[-82.97047,39.97906],[-82.97094,39.97899],[-82.97117,39.97895],[-82.9715,39.97891],[-82.97162,39.97889],[-82.97193,39.97885],[-82.9721,39.97883],[-82.97219,39.97881],[-82.97235,39.9788],[-82.97251,39.97878],[-82.97274,39.97875],[-82.97286,39.97874],[-82.97301,39.97873],[-82.97316,39.97871],[-82.9733,39.9787],[-82.97344,39.97869],[-82.97354,39.97868],[-82.97371,39.97867],[-82.97386,39.97866],[-82.974,39.97865],[-82.97428,39.97863],[-82.97454,39.97861],[-82.97467,39.97861],[-82.97482,39.9786],[-82.97488,39.9786],[-82.97499,39.97859],[-82.97521,39.97858],[-82.97534,39.97858],[-82.9755,39.97858],[-82.97573,39.97857],[-82.97595,39.97857],[-82.97648,39.97856],[-82.97652,39.97856],[-82.97664,39.97856],[-82.97688,39.97857],[-82.97701,39.97857],[-82.9772,39.97857],[-82.97764,39.97859],[-82.97778,39.97859],[-82.97794,39.9786],[-82.97803,39.9786],[-82.97807,39.9786],[-82.97818,39.97861],[-82.97831,39.97862],[-82.97862,39.97863],[-82.97875,39.97864],[-82.97891,39.97865],[-82.97919,39.97867],[-82.97958,39.97871],[-82.97975,39.97872],[-82.97982,39.97873],[-82.98017,39.97876],[-82.98041,39.97879],[-82.98054,39.9788],[-82.98069,39.97882],[-82.98084,39.97884],[-82.98099,39.97886],[-82.98124,39.97888],[-82.98127,39.97889],[-82.98147,39.97891],[-82.98166,39.97894],[-82.98179,39.97896],[-82.9821,39.979],[-82.98235,39.97904],[-82.98239,39.97905],[-82.98279,39.97912],[-82.98294,39.97915],[-82.98334,39.97922],[-82.98344,39.97924],[-82.98376,39.9793],[-82.98404,39.97935],[-82.98426,39.97938],[-82.98443,39.9794],[-82.98449,39.97941],[-82.98462,39.97942],[-82.9847,39.97943],[-82.98472,39.97943],[-82.98488,39.97945],[-82.98504,39.97946],[-82.98518,39.97947],[-82.98534,39.97948],[-82.98545,39.97948],[-82.98558,39.97948],[-82.98576,39.97948],[-82.98588,39.97948],[-82.98601,39.97948],[-82.98617,39.97948],[-82.98632,39.97947],[-82.98645,39.97947],[-82.98647,39.97946],[-82.9866,39.97946],[-82.98673,39.97944],[-82.9869,39.97943],[-82.98707,39.97941],[-82.98719,39.9794],[-82.98729,39.97938],[-82.98746,39.97936],[-82.98759,39.97934],[-82.98773,39.97932],[-82.98786,39.97929],[-82.98799,39.97927],[-82.98813,39.97924],[-82.98826,39.97921],[-82.98841,39.97917],[-82.98868,39.9791],[-82.98882,39.97906],[-82.98895,39.97902],[-82.9892,39.97894],[-82.98939,39.97887],[-82.98981,39.97871],[-82.98998,39.97869],[-82.99012,39.97862],[-82.99025,39.97857],[-82.99038,39.97851],[-82.99051,39.97844],[-82.99063,39.97838],[-82.99075,39.97831],[-82.99098,39.97819],[-82.99106,39.97815],[-82.99121,39.97807],[-82.99143,39.97795],[-82.99168,39.97781],[-82.99178,39.97776],[-82.99202,39.97763],[-82.99236,39.97744],[-82.99251,39.97736],[-82.99263,39.9773],[-82.99273,39.97724],[-82.9934,39.97686],[-82.99349,39.97682],[-82.99365,39.97674],[-82.9938,39.97666],[-82.99389,39.97661],[-82.99402,39.97654],[-82.99413,39.97649],[-82.99424,39.97643],[-82.99436,39.97638],[-82.99449,39.97633],[-82.99462,39.97628],[-82.99475,39.97623],[-82.99489,39.97618],[-82.99508,39.97613],[-82.99517,39.9761],[-82.99526,39.97608],[-82.99537,39.97605],[-82.99549,39.97603],[-82.99559,39.97601],[-82.99573,39.97599],[-82.99587,39.97597],[-82.99602,39.97596],[-82.99616,39.97595],[-82.99622,39.97595],[-82.99622,39.97595],[-82.99635,39.97599],[-82.99644,39.97599],[-82.99651,39.976],[-82.99658,39.976],[-82.99665,39.97601],[-82.99673,39.97603],[-82.99682,39.97605],[-82.9969,39.97608],[-82.99699,39.97612],[-82.99705,39.97615],[-82.99711,39.97617],[-82.99716,39.9762],[-82.99721,39.97624],[-82.99727,39.97629],[-82.99738,39.97638],[-82.99738,39.97639],[-82.99739,39.9764],[-82.99749,39.97649],[-82.99758,39.97661],[-82.99763,39.97667],[-82.99764,39.97668],[-82.99768,39.97675],[-82.99773,39.97683],[-82.99774,39.97685],[-82.99779,39.97697],[-82.9978,39.977],[-82.99783,39.97708],[-82.99786,39.97718],[-82.99788,39.97725],[-82.99789,39.97731],[-82.99789,39.97736],[-82.99789,39.97739],[-82.9979,39.97745],[-82.9979,39.97754],[-82.99791,39.97767],[-82.99795,39.9778],[-82.99795,39.9778],[-82.99792,39.9782],[-82.99792,39.97837],[-82.99792,39.97844],[-82.99794,39.97851],[-82.99796,39.97858],[-82.99797,39.97865],[-82.99801,39.97884],[-82.99803,39.97895],[-82.99807,39.97914],[-82.99817,39.97963],[-82.99821,39.97984],[-82.99828,39.98017],[-82.99837,39.98064],[-82.99847,39.98115],[-82.99854,39.98155],[-82.9986,39.98185],[-82.9987,39.9824],[-82.99874,39.9826],[-82.99883,39.98302],[-82.99887,39.98321],[-82.99895,39.98362],[-82.99902,39.98399],[-82.99904,39.98409],[-82.99916,39.98472],[-82.99922,39.98503],[-82.99925,39.98517],[-82.99926,39.98524],[-82.99934,39.98564],[-82.99946,39.98628],[-82.9995,39.98651],[-82.99957,39.98687],[-82.99957,39.98687],[-83.00023,39.9869],[-83.00038,39.9869],[-83.0005,39.98691],[-83.00054,39.98691],[-83.00083,39.98692],[-83.00083,39.98692],[-83.00084,39.98697],[-83.00085,39.98704],[-83.00085,39.98711],[-83.00084,39.98725],[-83.00084,39.98731],[-83.00081,39.9879]]}}]}