{"type":"FeatureCollection","features":[{"type":"Feature","properties":{"_gpxType":"trk","name":"1225 Hamlet Street, Columbus, OH - 194 Progress Dr","coordinateProperties":{},"id":18},"geometry":{"type":"LineString","coordinates":[[-83.00081,39.9879],[-83.00084,39.98731],[-83.00084,39.98725],[-83.00085,39.98711],[-83.00085,39.98704],[-83.00084,39.98697],[-83.00083,39.98692],[-83.00083,39.98692],[-83.00106,39.98693],[-83.00158,39.98696],[-83.00168,39.98696],[-83.00187,39.98697],[-83.00204,39.98698],[-83.0023,39.98698],[-83.00278,39.987],[-83.00341,39.98705],[-83.0041,39.98708],[-83.00428,39.98709],[-83.00481,39.98711],[-83.00487,39.98712],[-83.00553,39.98714],[-83.00629,39.98713],[-83.00664,39.98715],[-83.00828,39.98724],[-83.00828,39.98724],[-83.00832,39.98678],[-83.00834,39.98646],[-83.00835,39.98644],[-83.00834,39.98642],[-83.00834,39.9864],[-83.00832,39.98638],[-83.00831,39.98637],[-83.0083,39.98637],[-83.00825,39.98634],[-83.0083,39.98543],[-83.00831,39.98529],[-83.00831,39.98529],[-83.00963,39.98533],[-83.00963,39.98533],[-83.00965,39.98507],[-83.00971,39.98434],[-83.00976,39.98359],[-83.00976,39.98359],[-83.01043,39.98365],[-83.01112,39.98368],[-83.01161,39.9837],[-83.01176,39.98371],[-83.01235,39.98373],[-83.01302,39.98376],[-83.01318,39.98377],[-83.01411,39.98381],[-83.0146,39.98384],[-83.01481,39.98385],[-83.01516,39.98387],[-83.01548,39.98387],[-83.01585,39.98389],[-83.01617,39.9839],[-83.01683,39.98393],[-83.01733,39.98395],[-83.01745,39.98395],[-83.01791,39.98397],[-83.01849,39.98398],[-83.01883,39.984],[-83.01905,39.984],[-83.01939,39.98402],[-83.01977,39.98404],[-83.01979,39.98404],[-83.01983,39.98404],[-83.0199,39.98406],[-83.02011,39.98407],[-83.02029,39.98408],[-83.02038,39.98408],[-83.02061,39.9841],[-83.02085,39.98411],[-83.02115,39.98412],[-83.02121,39.98412],[-83.02145,39.98413],[-83.02157,39.98414],[-83.02158,39.98414],[-83.02172,39.98414],[-83.02228,39.98417],[-83.02259,39.98418],[-83.02259,39.98418],[-83.0226,39.9841],[-83.02261,39.98401],[-83.02265,39.98359],[-83.02266,39.98345],[-83.02269,39.98313],[-83.02273,39.98287],[-83.02277,39.98255],[-83.02278,39.98246],[-83.02287,39.98202],[-83.02288,39.98192],[-83.0229,39.98182],[-83.02291,39.98172],[-83.02291,39.98161],[-83.02292,39.98142],[-83.02292,39.98131],[-83.02284,39.98079],[-83.02273,39.98018],[-83.0226,39.97948],[-83.02259,39.97946],[-83.02254,39.97918],[-83.02252,39.97903],[-83.0225,39.9789],[-83.02247,39.97866],[-83.02244,39.97831],[-83.02243,39.97796],[-83.02243,39.97764],[-83.02244,39.97759],[-83.02247,39.97722],[-83.02251,39.97688],[-83.0226,39.97594],[-83.02262,39.97576],[-83.02262,39.9755],[-83.02262,39.97546],[-83.0226,39.97509],[-83.02258,39.9748],[-83.02258,39.97479],[-83.02257,39.9747],[-83.02257,39.97467],[-83.02253,39.97441],[-83.02252,39.97436],[-83.0225,39.97423],[-83.0225,39.97423],[-83.02232,39.97381],[-83.02222,39.97363],[-83.02217,39.97355],[-83.02211,39.97342],[-83.02206,39.97329],[-83.02203,39.97318],[-83.02202,39.97303],[-83.02202,39.97294],[-83.02204,39.97282],[-83.02205,39.97278],[-83.02206,39.9727],[-83.02208,39.97265],[-83.02212,39.97247],[-83.02213,39.97243],[-83.02217,39.97229],[-83.02218,39.97225],[-83.02221,39.97211],[-83.02223,39.97207],[-83.02228,39.9719],[-83.0223,39.97182],[-83.02239,39.97149],[-83.02241,39.97141],[-83.02246,39.97124],[-83.02246,39.97122],[-83.02247,39.9712],[-83.02253,39.97102],[-83.02255,39.97097],[-83.0226,39.97085],[-83.02264,39.97075],[-83.02265,39.97072],[-83.0227,39.97061],[-83.02278,39.9704],[-83.02282,39.97027],[-83.02292,39.96998],[-83.02295,39.96992],[-83.02301,39.96977],[-83.02302,39.96974],[-83.02305,39.96968],[-83.02311,39.96957],[-83.0232,39.96944],[-83.02322,39.96941],[-83.02336,39.96924],[-83.02356,39.96904],[-83.02374,39.96889],[-83.02376,39.96887],[-83.02391,39.96876],[-83.02406,39.96865],[-83.02422,39.96855],[-83.02432,39.96849],[-83.02442,39.96843],[-83.02455,39.96835],[-83.0248,39.96821],[-83.02489,39.96817],[-83.02505,39.96809],[-83.02509,39.96808],[-83.02511,39.96807],[-83.02527,39.96801],[-83.02539,39.96797],[-83.02554,39.96793],[-83.02566,39.9679],[-83.02569,39.96789],[-83.02576,39.96788],[-83.02605,39.96783],[-83.02619,39.96781],[-83.02647,39.96779],[-83.02662,39.96779],[-83.02675,39.96778],[-83.02691,39.96779],[-83.02707,39.96779],[-83.0272,39.9678],[-83.02733,39.96781],[-83.02768,39.96785],[-83.02769,39.96785],[-83.02802,39.9679],[-83.02821,39.96792],[-83.02838,39.96794],[-83.02838,39.96794],[-83.02845,39.96767],[-83.02857,39.96714],[-83.02857,39.96714],[-83.0283,39.96715],[-83.0283,39.96715],[-83.02829,39.9671],[-83.02828,39.96707],[-83.02828,39.96706],[-83.02827,39.96705],[-83.02824,39.96704],[-83.02817,39.96704],[-83.0281,39.96704],[-83.02804,39.96704],[-83.02801,39.96704],[-83.028,39.96704],[-83.02799,39.96703],[-83.02799,39.967],[-83.02799,39.967],[-83.02811,39.96701],[-83.02812,39.96701],[-83.02824,39.967],[-83.02835,39.96701],[-83.02836,39.96701],[-83.02859,39.96702],[-83.02861,39.96702],[-83.02874,39.96702],[-83.02882,39.96702],[-83.02883,39.96702],[-83.02906,39.96703],[-83.02914,39.96703],[-83.02944,39.96705],[-83.02953,39.96706],[-83.02979,39.96709],[-83.02999,39.96711],[-83.03006,39.96711],[-83.03022,39.96714],[-83.03039,39.96716],[-83.03069,39.9672],[-83.03092,39.96724],[-83.03094,39.96724],[-83.03115,39.96727],[-83.03137,39.96731],[-83.0314,39.96732],[-83.03161,39.96733],[-83.03165,39.96734],[-83.03195,39.96734],[-83.03208,39.96734],[-83.03227,39.96735],[-83.03231,39.96735],[-83.03249,39.96734],[-83.03255,39.96734],[-83.03257,39.96734],[-83.03259,39.96733],[-83.03262,39.96731],[-83.03268,39.96729],[-83.03278,39.96726],[-83.03287,39.96724],[-83.03292,39.96723],[-83.03299,39.96721],[-83.03308,39.96721],[-83.03321,39.96723],[-83.03333,39.96726],[-83.03335,39.96725],[-83.03339,39.96725],[-83.03349,39.96724],[-83.03359,39.96721],[-83.03362,39.96721],[-83.03381,39.96716],[-83.03382,39.96716],[-83.03427,39.96709],[-83.03449,39.96705],[-83.0345,39.96705],[-83.03471,39.96702],[-83.03473,39.96701],[-83.03496,39.96698],[-83.03511,39.96696],[-83.03519,39.96695],[-83.03527,39.96694],[-83.03544,39.96693],[-83.03551,39.96694],[-83.03561,39.96696],[-83.03565,39.96698],[-83.03572,39.96702],[-83.03581,39.96706],[-83.03588,39.96708],[-83.03594,39.96709],[-83.03602,39.9671],[-83.03631,39.96713],[-83.03643,39.96714],[-83.03655,39.96716],[-83.03678,39.96719],[-83.03724,39.96726],[-83.03747,39.96729],[-83.03763,39.96731],[-83.0377,39.96732],[-83.03816,39.96739],[-83.0387,39.96747],[-83.03908,39.96752],[-83.03914,39.96752],[-83.03927,39.96755],[-83.03931,39.96757],[-83.03935,39.96758],[-83.03942,39.96761],[-83.03948,39.96761],[-83.03953,39.96759],[-83.03962,39.96758],[-83.03983,39.96762],[-83.04021,39.9677],[-83.04041,39.96773],[-83.04044,39.96774],[-83.04066,39.9678],[-83.04066,39.96781],[-83.04085,39.96789],[-83.04086,39.96789],[-83.04106,39.968],[-83.04128,39.96812],[-83.04143,39.96822],[-83.04176,39.96843],[-83.04179,39.96845],[-83.04196,39.96857],[-83.04198,39.96858],[-83.04207,39.96862],[-83.04208,39.96863],[-83.04216,39.96866],[-83.04229,39.96871],[-83.0424,39.96875],[-83.04251,39.96879],[-83.04262,39.96883],[-83.04272,39.96886],[-83.04294,39.96893],[-83.04315,39.969],[-83.04326,39.96903],[-83.04336,39.96907],[-83.04341,39.96908],[-83.04347,39.96911],[-83.04351,39.96913],[-83.04352,39.96914],[-83.04354,39.96916],[-83.04357,39.96918],[-83.0436,39.96923],[-83.04363,39.96929],[-83.04378,39.96947],[-83.0438,39.9695],[-83.04389,39.96959],[-83.04392,39.96961],[-83.04397,39.96966],[-83.04404,39.96973],[-83.04406,39.96975],[-83.04408,39.96977],[-83.04414,39.96982],[-83.04418,39.96984],[-83.04421,39.96987],[-83.04423,39.96987],[-83.04424,39.96988],[-83.04429,39.9699],[-83.04435,39.96992],[-83.0444,39.96994],[-83.04443,39.96997],[-83.04447,39.97002],[-83.04447,39.97005],[-83.04447,39.97007],[-83.04447,39.9701],[-83.04446,39.97011],[-83.04446,39.97011],[-83.0444,39.9701],[-83.04433,39.97007],[-83.04421,39.96998],[-83.04413,39.96991],[-83.04406,39.96985],[-83.04395,39.96975],[-83.04393,39.96973],[-83.04391,39.96971],[-83.04378,39.96959],[-83.04376,39.96957],[-83.04363,39.96945],[-83.04346,39.96929],[-83.04336,39.9692],[-83.04334,39.96917],[-83.04332,39.96915],[-83.04324,39.96905],[-83.04323,39.96904],[-83.04322,39.96903],[-83.04322,39.96902],[-83.04321,39.96901],[-83.04321,39.96899],[-83.04321,39.96897],[-83.04322,39.96894],[-83.04323,39.96892],[-83.04328,39.96887],[-83.04329,39.96885],[-83.04331,39.96883],[-83.04338,39.96877],[-83.04345,39.96869],[-83.04357,39.96858],[-83.04358,39.96857],[-83.04359,39.96855],[-83.04367,39.96845],[-83.04368,39.96841],[-83.04369,39.96839],[-83.04374,39.96827],[-83.04376,39.96825],[-83.04384,39.96814],[-83.0439,39.9681],[-83.04392,39.96808],[-83.04398,39.96802],[-83.04407,39.96794],[-83.04421,39.9678],[-83.04436,39.96765],[-83.04438,39.96763],[-83.04446,39.96753],[-83.04446,39.96752],[-83.04448,39.9675],[-83.04457,39.96735],[-83.04472,39.96719],[-83.04475,39.96716],[-83.04485,39.96708],[-83.04487,39.96706],[-83.04494,39.967],[-83.04503,39.96692],[-83.04508,39.96689],[-83.04519,39.96683],[-83.0453,39.96678],[-83.04538,39.96676],[-83.04543,39.96676],[-83.04549,39.96676],[-83.04563,39.96677],[-83.04567,39.96677],[-83.04568,39.96677],[-83.04573,39.96677],[-83.0459,39.96674],[-83.04618,39.9667],[-83.04636,39.96667],[-83.04639,39.96667],[-83.04655,39.96663],[-83.04669,39.96659],[-83.04681,39.9666],[-83.04682,39.9666],[-83.04686,39.9666],[-83.04695,39.9666],[-83.04701,39.96661],[-83.04703,39.96661],[-83.04705,39.96661],[-83.04728,39.96664],[-83.04779,39.9667],[-83.04797,39.96673],[-83.04817,39.96675],[-83.0482,39.96675],[-83.04844,39.96678],[-83.04867,39.96681],[-83.0489,39.96684],[-83.04893,39.96685],[-83.04933,39.9669],[-83.04936,39.96691],[-83.04959,39.96694],[-83.04982,39.96698],[-83.05002,39.96701],[-83.05028,39.96705],[-83.05051,39.96708],[-83.05058,39.96709],[-83.05097,39.96716],[-83.0512,39.9672],[-83.05137,39.96723],[-83.05139,39.96724],[-83.05208,39.96735],[-83.05211,39.96736],[-83.05231,39.96739],[-83.05234,39.9674],[-83.05254,39.96743],[-83.05257,39.96744],[-83.05277,39.96747],[-83.0528,39.96748],[-83.05281,39.96748],[-83.05303,39.96752],[-83.0531,39.96754],[-83.05322,39.96757],[-83.05325,39.96758],[-83.05344,39.96763],[-83.05347,39.96764],[-83.05366,39.9677],[-83.05369,39.96771],[-83.05388,39.96776],[-83.05397,39.96779],[-83.05413,39.96783],[-83.05432,39.96789],[-83.05432,39.96789],[-83.05431,39.96791],[-83.05432,39.96793],[-83.05432,39.96795],[-83.05433,39.96796],[-83.05434,39.96797],[-83.05435,39.96798],[-83.05438,39.96799],[-83.05446,39.96802],[-83.05454,39.96804],[-83.05457,39.96805],[-83.05463,39.96807],[-83.05469,39.96809],[-83.05475,39.96811],[-83.05479,39.96812],[-83.0548,39.96812],[-83.05487,39.96813],[-83.05492,39.96813],[-83.05498,39.96812],[-83.05502,39.96811],[-83.0551,39.96809],[-83.05515,39.96806],[-83.05527,39.96799],[-83.05565,39.96778],[-83.05591,39.96764],[-83.05603,39.96757],[-83.0561,39.96753],[-83.05622,39.96747],[-83.05628,39.96744],[-83.05629,39.96743],[-83.05648,39.96732],[-83.05666,39.96721],[-83.05675,39.96716],[-83.05682,39.96712],[-83.05686,39.9671],[-83.0569,39.96709],[-83.05699,39.96706],[-83.05705,39.96705],[-83.0571,39.96704],[-83.05715,39.96704],[-83.05724,39.96703],[-83.05729,39.96703],[-83.05737,39.96704],[-83.05746,39.96705],[-83.05751,39.96706],[-83.05757,39.96706],[-83.05765,39.96707],[-83.05775,39.96709],[-83.05778,39.96709],[-83.0578,39.96709],[-83.05788,39.9671],[-83.05796,39.96712],[-83.058,39.96712],[-83.05806,39.96713],[-83.05816,39.96714],[-83.05821,39.96714],[-83.05824,39.96714],[-83.05826,39.96714],[-83.05832,39.96714],[-83.0584,39.96713],[-83.05847,39.96712],[-83.05852,39.9671],[-83.05861,39.96708],[-83.05868,39.96705],[-83.05869,39.96705],[-83.05874,39.96702],[-83.05878,39.967],[-83.05881,39.96697],[-83.05887,39.96694],[-83.05887,39.96694],[-83.05873,39.96684],[-83.05873,39.96684],[-83.0589,39.96673],[-83.05891,39.96672],[-83.05902,39.96667],[-83.05904,39.96666],[-83.05925,39.96658],[-83.05925,39.96657],[-83.05926,39.96657],[-83.05931,39.96655],[-83.05932,39.96655],[-83.05935,39.96654],[-83.0595,39.96649],[-83.05953,39.96648],[-83.05954,39.96647],[-83.05969,39.96642],[-83.05975,39.9664],[-83.05978,39.96639],[-83.05994,39.96634],[-83.05996,39.96633],[-83.05997,39.96633],[-83.06018,39.96626],[-83.0604,39.96619],[-83.0605,39.96616],[-83.06062,39.96612],[-83.06069,39.9661],[-83.06081,39.96608],[-83.06083,39.96607],[-83.06084,39.96607],[-83.06094,39.96605],[-83.06111,39.96602],[-83.06122,39.96601],[-83.06129,39.966],[-83.0613,39.966],[-83.06135,39.96599],[-83.06154,39.96598],[-83.06184,39.96597],[-83.06192,39.96597],[-83.06224,39.96595],[-83.06242,39.9659],[-83.06263,39.96586],[-83.06271,39.96584],[-83.06289,39.96579],[-83.06303,39.96574],[-83.0633,39.96566],[-83.06337,39.96564],[-83.06344,39.96562],[-83.0637,39.96554],[-83.06374,39.96552],[-83.06374,39.96552],[-83.06379,39.96548],[-83.06382,39.96542],[-83.06381,39.96535],[-83.0637,39.9649],[-83.0637,39.96483],[-83.06372,39.96478],[-83.06373,39.96476],[-83.06381,39.96471],[-83.06391,39.96469],[-83.06425,39.96465],[-83.06427,39.96464],[-83.06427,39.96464],[-83.06485,39.96459],[-83.06487,39.96459],[-83.06546,39.96452],[-83.06604,39.9644],[-83.0661,39.96439],[-83.06669,39.96436],[-83.06669,39.96436],[-83.06664,39.96412],[-83.06659,39.9639],[-83.06652,39.96357],[-83.06651,39.96353],[-83.06651,39.96353],[-83.06669,39.96348],[-83.06673,39.96347],[-83.06683,39.96344],[-83.06765,39.96331],[-83.06768,39.9633],[-83.06788,39.96327],[-83.06856,39.96315],[-83.06858,39.96315],[-83.06902,39.96306],[-83.06925,39.96301],[-83.06968,39.96293],[-83.06992,39.96287],[-83.07073,39.96269],[-83.07162,39.96248],[-83.07195,39.9624],[-83.07217,39.96234],[-83.07234,39.9623],[-83.07261,39.96223],[-83.07284,39.96218],[-83.07314,39.9621],[-83.07328,39.96207],[-83.07351,39.96201],[-83.07373,39.96195],[-83.07395,39.9619],[-83.07404,39.96187],[-83.07417,39.96184],[-83.07418,39.96184],[-83.07462,39.96172],[-83.07484,39.96167],[-83.07487,39.96166],[-83.07529,39.96157],[-83.07552,39.96151],[-83.07575,39.96143],[-83.07589,39.96139],[-83.07598,39.96137],[-83.07651,39.96125],[-83.07717,39.96107],[-83.07754,39.96098],[-83.07769,39.96094],[-83.07798,39.96087],[-83.07799,39.96087],[-83.07829,39.96078],[-83.07853,39.9607],[-83.07892,39.96056],[-83.07912,39.96049],[-83.07927,39.96042],[-83.07947,39.96034],[-83.07967,39.96024],[-83.07992,39.96011],[-83.08,39.96007],[-83.08016,39.95999],[-83.08034,39.9599],[-83.08068,39.95971],[-83.08099,39.95953],[-83.08112,39.95946],[-83.0815,39.95925],[-83.08155,39.95922],[-83.08169,39.95914],[-83.08189,39.95904],[-83.08208,39.95894],[-83.08235,39.95879],[-83.08259,39.95864],[-83.08291,39.95847],[-83.08322,39.9583],[-83.08352,39.95812],[-83.08398,39.95788],[-83.08458,39.95755],[-83.08464,39.95752],[-83.08488,39.95739],[-83.08551,39.95704],[-83.08551,39.95703],[-83.08596,39.95679],[-83.08599,39.95677],[-83.08632,39.95658],[-83.08647,39.9565],[-83.08662,39.95641],[-83.08672,39.95636],[-83.08682,39.9563],[-83.08695,39.95622],[-83.087,39.95619],[-83.08705,39.95616],[-83.08712,39.95613],[-83.08732,39.95603],[-83.08786,39.95573],[-83.08852,39.95537],[-83.08884,39.95519],[-83.08899,39.95511],[-83.08921,39.95498],[-83.08925,39.95496],[-83.08941,39.95488],[-83.0896,39.95478],[-83.08979,39.95468],[-83.08992,39.95462],[-83.08999,39.95458],[-83.09009,39.95453],[-83.09019,39.95449],[-83.0903,39.95444],[-83.09039,39.9544],[-83.09046,39.95437],[-83.09059,39.9543],[-83.09078,39.9542],[-83.09097,39.95409],[-83.09107,39.95404],[-83.09117,39.95399],[-83.0912,39.95397],[-83.09122,39.95395],[-83.09125,39.95392],[-83.09127,39.95388],[-83.0913,39.95385],[-83.09134,39.95383],[-83.0914,39.95379],[-83.09141,39.95379],[-83.09147,39.95375],[-83.09168,39.95363],[-83.09175,39.95359],[-83.09206,39.95341],[-83.09225,39.9533],[-83.09271,39.95303],[-83.09281,39.95297],[-83.09326,39.95272],[-83.09333,39.95268],[-83.0934,39.95263],[-83.09349,39.95255],[-83.09357,39.95249],[-83.09368,39.95242],[-83.09433,39.95207],[-83.09449,39.95199],[-83.0947,39.95188],[-83.09485,39.95181],[-83.09508,39.95169],[-83.09526,39.95159],[-83.09527,39.95159],[-83.09546,39.95149],[-83.0956,39.95141],[-83.09564,39.95138],[-83.09581,39.95128],[-83.09582,39.95126],[-83.09588,39.95122],[-83.09595,39.95116],[-83.09603,39.95105],[-83.09609,39.95097],[-83.09614,39.9509],[-83.09618,39.9508],[-83.0962,39.95072],[-83.09619,39.95063],[-83.09619,39.95057],[-83.09617,39.95045],[-83.09616,39.95039],[-83.09615,39.9503],[-83.09615,39.95025],[-83.09615,39.95019],[-83.09617,39.95012],[-83.0962,39.95005],[-83.09627,39.94995],[-83.09632,39.94988],[-83.09638,39.94983],[-83.09645,39.94978],[-83.09652,39.94974],[-83.09662,39.9497],[-83.09674,39.94966],[-83.09686,39.94963],[-83.09704,39.94962],[-83.0971,39.94961],[-83.09716,39.94961],[-83.09721,39.9496],[-83.09725,39.94959],[-83.09729,39.94957],[-83.09738,39.94952],[-83.09744,39.94948],[-83.09749,39.94943],[-83.09756,39.94936],[-83.09763,39.94926],[-83.09768,39.94918],[-83.09774,39.94912],[-83.09778,39.94909],[-83.09784,39.94906],[-83.098,39.94901],[-83.09818,39.94897],[-83.09843,39.94891],[-83.09854,39.94888],[-83.09864,39.94885],[-83.09872,39.94882],[-83.09879,39.94879],[-83.09887,39.94874],[-83.09898,39.94868],[-83.09907,39.94862],[-83.09918,39.94854],[-83.09928,39.94845],[-83.09931,39.94843],[-83.0994,39.94836],[-83.09945,39.94833],[-83.0995,39.9483],[-83.09962,39.94823],[-83.09975,39.94817],[-83.09982,39.94814],[-83.09984,39.94813],[-83.09991,39.94811],[-83.10003,39.94807],[-83.10012,39.94806],[-83.10027,39.94803],[-83.10035,39.94801],[-83.10044,39.94798],[-83.1005,39.94796],[-83.10059,39.94791],[-83.10066,39.94787],[-83.10075,39.94781],[-83.10085,39.94774],[-83.10089,39.94772],[-83.10091,39.9477],[-83.10094,39.94768],[-83.10097,39.94767],[-83.10098,39.94766],[-83.10101,39.94766],[-83.10104,39.94765],[-83.10106,39.94765],[-83.10109,39.94765],[-83.10111,39.94766],[-83.10112,39.94766],[-83.10114,39.94766],[-83.10116,39.94766],[-83.10118,39.94767],[-83.10119,39.94767],[-83.10121,39.94768],[-83.10132,39.94774],[-83.10145,39.94782],[-83.10155,39.94788],[-83.10158,39.9479],[-83.10159,39.9479],[-83.10161,39.94791],[-83.10163,39.94791],[-83.10164,39.94791],[-83.10166,39.94792],[-83.1017,39.94791],[-83.10171,39.94791],[-83.10173,39.94791],[-83.10174,39.94791],[-83.10175,39.9479],[-83.10182,39.94787],[-83.10186,39.94785],[-83.10214,39.94771],[-83.10224,39.94765],[-83.10254,39.94749],[-83.10255,39.94749],[-83.10256,39.94749],[-83.10257,39.94748],[-83.10258,39.94748],[-83.10259,39.94748],[-83.10261,39.94748],[-83.10262,39.94748],[-83.10263,39.94748],[-83.10264,39.94749],[-83.10265,39.94749],[-83.10266,39.9475],[-83.10267,39.9475],[-83.10268,39.94751],[-83.10269,39.94753],[-83.10272,39.94756],[-83.10278,39.94763],[-83.10282,39.94768],[-83.10286,39.94772],[-83.10287,39.94774],[-83.10289,39.94775],[-83.10292,39.94777],[-83.10299,39.94779],[-83.10301,39.94779],[-83.10302,39.94779],[-83.10303,39.94779],[-83.10304,39.94779],[-83.10306,39.94779],[-83.10308,39.94778],[-83.10313,39.94776],[-83.10314,39.94776],[-83.10317,39.94774],[-83.10324,39.94771],[-83.10334,39.94766],[-83.10353,39.94755],[-83.10372,39.94745],[-83.10406,39.94727],[-83.1043,39.94714],[-83.10449,39.94704],[-83.10499,39.94676],[-83.10506,39.94672],[-83.10526,39.94661],[-83.1054,39.94653],[-83.10544,39.94651],[-83.10556,39.94644],[-83.10566,39.94638],[-83.1057,39.94635],[-83.10575,39.94631],[-83.10583,39.94625],[-83.10596,39.94615],[-83.10608,39.94606],[-83.10613,39.94602],[-83.1062,39.94597],[-83.10629,39.94589],[-83.10643,39.94578],[-83.10645,39.94576],[-83.1065,39.94573],[-83.10656,39.94566],[-83.10669,39.94553],[-83.10675,39.94548],[-83.10681,39.94543],[-83.10689,39.94538],[-83.10709,39.94527],[-83.10711,39.94526],[-83.1073,39.94516],[-83.10758,39.945],[-83.10796,39.94479],[-83.10799,39.94478],[-83.10815,39.94469],[-83.10818,39.94468],[-83.10852,39.94449],[-83.10873,39.94437],[-83.10897,39.94424],[-83.10911,39.94416],[-83.10941,39.944],[-83.1095,39.94395],[-83.10952,39.94394],[-83.10969,39.94385],[-83.10977,39.9438],[-83.10988,39.94374],[-83.11026,39.94353],[-83.1104,39.94346],[-83.11046,39.94343],[-83.11049,39.94342],[-83.11052,39.9434],[-83.11065,39.94333],[-83.11085,39.94322],[-83.11104,39.94312],[-83.11107,39.9431],[-83.11123,39.94301],[-83.11125,39.943],[-83.11128,39.94298],[-83.11138,39.94292],[-83.11143,39.94289],[-83.11146,39.94287],[-83.1115,39.94285],[-83.11155,39.94282],[-83.11163,39.94279],[-83.11165,39.94279],[-83.11178,39.94273],[-83.11184,39.94271],[-83.11184,39.94271],[-83.11184,39.94249],[-83.11188,39.94234],[-83.11192,39.94215],[-83.11198,39.9418],[-83.11206,39.94131],[-83.11207,39.94125],[-83.11209,39.94113],[-83.11213,39.94089],[-83.11218,39.9406],[-83.11222,39.94036],[-83.11222,39.94036],[-83.11241,39.94037],[-83.11253,39.94038],[-83.11258,39.94038],[-83.11264,39.94039],[-83.11275,39.9404],[-83.11277,39.94039],[-83.11277,39.94039],[-83.11278,39.94039],[-83.11279,39.94037],[-83.1128,39.94034],[-83.11283,39.94002],[-83.11284,39.9399],[-83.11286,39.93974],[-83.11287,39.93967],[-83.11288,39.93963],[-83.11288,39.93958],[-83.11288,39.93933],[-83.11287,39.93929],[-83.11286,39.93924],[-83.11286,39.93921],[-83.11287,39.93918],[-83.1129,39.93913],[-83.11291,39.93904],[-83.11293,39.93889],[-83.11295,39.93879],[-83.11297,39.93871],[-83.11303,39.93851],[-83.11303,39.93851],[-83.11363,39.93862],[-83.11367,39.93863],[-83.11425,39.93871],[-83.11461,39.93877],[-83.11463,39.93877],[-83.11485,39.93881],[-83.11535,39.93891],[-83.11643,39.93908],[-83.11711,39.9392],[-83.11743,39.93925],[-83.11756,39.93927],[-83.11756,39.93927],[-83.11761,39.93924],[-83.1178,39.93914],[-83.11819,39.93893],[-83.11838,39.93883],[-83.11857,39.93872],[-83.11895,39.93852],[-83.11915,39.93841],[-83.11953,39.93821],[-83.11972,39.9381],[-83.1201,39.9379],[-83.1203,39.93779],[-83.12068,39.93758],[-83.12145,39.93717],[-83.12161,39.93708],[-83.12183,39.93696],[-83.12202,39.93686],[-83.12221,39.93675],[-83.1224,39.93665],[-83.12255,39.93657],[-83.12259,39.93654],[-83.12296,39.93632],[-83.12317,39.93621],[-83.12335,39.93611],[-83.12336,39.9361],[-83.12355,39.93599],[-83.12374,39.93589],[-83.12386,39.93581],[-83.12392,39.93577],[-83.12428,39.93555],[-83.12446,39.93543],[-83.12453,39.93539],[-83.12465,39.93532],[-83.12484,39.93522],[-83.12503,39.93512],[-83.12542,39.93491],[-83.12619,39.93451],[-83.12639,39.9344],[-83.12696,39.9341],[-83.12707,39.93404],[-83.12735,39.93389],[-83.12773,39.93368],[-83.12792,39.93358],[-83.12831,39.93337],[-83.1285,39.93327],[-83.12869,39.93316],[-83.12946,39.93275],[-83.12965,39.93265],[-83.12973,39.9326],[-83.12984,39.93254],[-83.13003,39.93244],[-83.13022,39.93233],[-83.13041,39.93223],[-83.13137,39.93171],[-83.13156,39.93161],[-83.13204,39.93135],[-83.13213,39.93129],[-83.13264,39.93091],[-83.13281,39.93079],[-83.13298,39.93067],[-83.13304,39.93068],[-83.13308,39.9307],[-83.13311,39.9307],[-83.13313,39.93071],[-83.13317,39.93072],[-83.13318,39.93072],[-83.1332,39.93072],[-83.13322,39.93074],[-83.13324,39.93076],[-83.13327,39.93078],[-83.13329,39.9308],[-83.13331,39.93081],[-83.13333,39.93081],[-83.13335,39.9308],[-83.13338,39.93078],[-83.13342,39.93075],[-83.13346,39.93072],[-83.13351,39.93068],[-83.13354,39.93066],[-83.13357,39.93063],[-83.1336,39.93062],[-83.13364,39.93061],[-83.13369,39.93061],[-83.13373,39.93061],[-83.13375,39.93061],[-83.1338,39.93061],[-83.13383,39.93062],[-83.13384,39.93062],[-83.13385,39.93061],[-83.13386,39.93061],[-83.13386,39.9306],[-83.13387,39.93057],[-83.13387,39.93054],[-83.13387,39.93052],[-83.13387,39.93052],[-83.13387,39.93049],[-83.13388,39.93046],[-83.13389,39.93043],[-83.1339,39.93043],[-83.13391,39.93041],[-83.13392,39.9304],[-83.13396,39.93038],[-83.13434,39.93017],[-83.13491,39.92986],[-83.13504,39.92979],[-83.1351,39.92975],[-83.13567,39.92943],[-83.13586,39.92932],[-83.13605,39.92922],[-83.13624,39.92911],[-83.13651,39.92896],[-83.13662,39.9289],[-83.13681,39.92879],[-83.13719,39.92858],[-83.13794,39.92815],[-83.13807,39.92808],[-83.13813,39.92805],[-83.13872,39.92775],[-83.13891,39.92765],[-83.13929,39.92747],[-83.13931,39.92746],[-83.13988,39.92714],[-83.14,39.92707],[-83.14007,39.92704],[-83.14045,39.92683],[-83.14064,39.92672],[-83.14069,39.9267],[-83.14139,39.9263],[-83.1414,39.9263],[-83.14159,39.92619],[-83.14196,39.92598],[-83.14214,39.92589],[-83.14254,39.92566],[-83.14273,39.92556],[-83.14273,39.92555],[-83.14292,39.92545],[-83.14311,39.92535],[-83.14318,39.92531],[-83.1433,39.92525],[-83.14345,39.92516],[-83.14349,39.92514],[-83.14368,39.92504],[-83.14385,39.92494],[-83.14387,39.92493],[-83.14399,39.92487],[-83.144,39.92487],[-83.14401,39.92486],[-83.14409,39.92486],[-83.14417,39.92486],[-83.14418,39.92486],[-83.14419,39.92486],[-83.14421,39.92485],[-83.14422,39.92484],[-83.14423,39.92484],[-83.14423,39.92484],[-83.14424,39.92482],[-83.14424,39.92481],[-83.14425,39.9248],[-83.14426,39.92477],[-83.14426,39.92475],[-83.14425,39.92472],[-83.14425,39.92469],[-83.14424,39.92467],[-83.14424,39.92466],[-83.14422,39.92463],[-83.14422,39.92462],[-83.14422,39.92461],[-83.14422,39.9246],[-83.14422,39.92459],[-83.14422,39.92458],[-83.14422,39.92456],[-83.14423,39.92455],[-83.14424,39.92454],[-83.14425,39.92453],[-83.14427,39.92451],[-83.1443,39.9245],[-83.14436,39.92447],[-83.14448,39.9244],[-83.14455,39.92436],[-83.1449,39.92416],[-83.14491,39.92416],[-83.14643,39.92332],[-83.14662,39.92322],[-83.14777,39.92259],[-83.14817,39.92237],[-83.14988,39.92142],[-83.15007,39.92132],[-83.15078,39.92093],[-83.15102,39.92079],[-83.1514,39.92058],[-83.15241,39.92002],[-83.15292,39.91974],[-83.15349,39.91942],[-83.15368,39.91932],[-83.15406,39.91911],[-83.15444,39.9189],[-83.15483,39.91869],[-83.1554,39.91837],[-83.15578,39.91816],[-83.15597,39.91806],[-83.15635,39.91785],[-83.15749,39.91722],[-83.15768,39.91711],[-83.1592,39.91627],[-83.15988,39.9159],[-83.16053,39.91553],[-83.16072,39.91543],[-83.1611,39.91521],[-83.162,39.91471],[-83.16262,39.91437],[-83.16299,39.91417],[-83.1631,39.91413],[-83.16315,39.91413],[-83.16318,39.91413],[-83.16322,39.91414],[-83.16326,39.91416],[-83.16328,39.91417],[-83.1633,39.91417],[-83.16332,39.91417],[-83.16338,39.91414],[-83.16349,39.91408],[-83.16352,39.91407],[-83.16356,39.91404],[-83.16396,39.91382],[-83.16426,39.91366],[-83.16459,39.91347],[-83.16466,39.91344],[-83.16483,39.91334],[-83.16485,39.91333],[-83.16486,39.91333],[-83.16504,39.91323],[-83.16527,39.9131],[-83.16578,39.91282],[-83.1658,39.91281],[-83.16616,39.91261],[-83.16622,39.91258],[-83.16637,39.91249],[-83.16654,39.9124],[-83.16656,39.91239],[-83.16692,39.91219],[-83.16694,39.91218],[-83.16716,39.91205],[-83.16751,39.91186],[-83.16754,39.91185],[-83.16768,39.91177],[-83.16782,39.91169],[-83.1682,39.91148],[-83.16827,39.91144],[-83.16844,39.91135],[-83.16846,39.91133],[-83.16849,39.91132],[-83.16876,39.91117],[-83.16901,39.91104],[-83.16942,39.91081],[-83.16978,39.91061],[-83.1698,39.9106],[-83.16992,39.91053],[-83.17016,39.9104],[-83.17018,39.91039],[-83.17046,39.91023],[-83.17054,39.91019],[-83.17056,39.91018],[-83.17071,39.91009],[-83.17199,39.90939],[-83.17233,39.9092],[-83.17246,39.90913],[-83.17263,39.90904],[-83.17303,39.90881],[-83.17305,39.9088],[-83.1732,39.90872],[-83.17339,39.90862],[-83.17341,39.9086],[-83.17358,39.90851],[-83.174,39.90828],[-83.17436,39.90808],[-83.17441,39.90805],[-83.17491,39.90778],[-83.17529,39.90757],[-83.17531,39.90755],[-83.17548,39.90746],[-83.17568,39.90736],[-83.1757,39.90735],[-83.17584,39.90726],[-83.1762,39.90706],[-83.17626,39.90703],[-83.17643,39.90693],[-83.17645,39.90692],[-83.17649,39.90689],[-83.17667,39.90679],[-83.17702,39.9066],[-83.17722,39.90649],[-83.1774,39.90638],[-83.17741,39.90638],[-83.17741,39.90637],[-83.17741,39.90636],[-83.17741,39.90635],[-83.17741,39.90633],[-83.1774,39.90632],[-83.17738,39.9063],[-83.17736,39.90628],[-83.17735,39.90626],[-83.17734,39.90626],[-83.17734,39.90625],[-83.17734,39.90624],[-83.17734,39.90623],[-83.17735,39.90622],[-83.17735,39.90621],[-83.17736,39.9062],[-83.17738,39.90619],[-83.17804,39.90583],[-83.17823,39.90572],[-83.17899,39.9053],[-83.17918,39.9052],[-83.17929,39.90514],[-83.17956,39.90499],[-83.17994,39.90478],[-83.1807,39.90436],[-83.18089,39.90425],[-83.18108,39.90415],[-83.18127,39.90404],[-83.18184,39.90373],[-83.18213,39.90357],[-83.18222,39.90351],[-83.18298,39.90309],[-83.18336,39.90288],[-83.18356,39.90277],[-83.18469,39.90215],[-83.18564,39.90162],[-83.18582,39.90152],[-83.18622,39.90131],[-83.18641,39.9012],[-83.18649,39.90116],[-83.1866,39.9011],[-83.18679,39.90099],[-83.18714,39.9008],[-83.18831,39.90015],[-83.1885,39.90005],[-83.18887,39.89984],[-83.18916,39.89967],[-83.18945,39.89952],[-83.18983,39.89931],[-83.18984,39.8993],[-83.19021,39.8991],[-83.1904,39.89899],[-83.19049,39.89894],[-83.19111,39.8986],[-83.19116,39.89857],[-83.19118,39.89857],[-83.19123,39.89854],[-83.19127,39.89851],[-83.19129,39.89849],[-83.1913,39.89847],[-83.19131,39.89846],[-83.19131,39.89844],[-83.19131,39.89843],[-83.1913,39.89841],[-83.1913,39.89839],[-83.19128,39.89836],[-83.19128,39.89836],[-83.19126,39.89833],[-83.19125,39.89831],[-83.19125,39.8983],[-83.19126,39.89829],[-83.19126,39.89828],[-83.19128,39.89827],[-83.19168,39.89813],[-83.1918,39.89809],[-83.19209,39.89799],[-83.19222,39.89794],[-83.19223,39.89793],[-83.1924,39.89784],[-83.19242,39.89784],[-83.19261,39.89774],[-83.19282,39.89764],[-83.19342,39.89732],[-83.19358,39.89723],[-83.19377,39.89713],[-83.19407,39.89696],[-83.19491,39.8965],[-83.19546,39.89619],[-83.19548,39.89618],[-83.1961,39.89584],[-83.19655,39.8956],[-83.1969,39.8954],[-83.19719,39.89524],[-83.19739,39.89513],[-83.19744,39.8951],[-83.19749,39.89506],[-83.19754,39.89502],[-83.19758,39.895],[-83.19771,39.8949],[-83.19792,39.89478],[-83.19794,39.89477],[-83.1984,39.89452],[-83.19883,39.89428],[-83.19925,39.89404],[-83.19926,39.89404],[-83.19945,39.89394],[-83.19962,39.89386],[-83.19964,39.89384],[-83.20015,39.89359],[-83.20023,39.89355],[-83.2003,39.89352],[-83.20039,39.89347],[-83.20047,39.89344],[-83.20095,39.89322],[-83.20117,39.89313],[-83.20137,39.89304],[-83.20158,39.89296],[-83.20201,39.89278],[-83.20241,39.89262],[-83.20262,39.89254],[-83.20294,39.89241],[-83.20348,39.89227],[-83.20363,39.89223],[-83.20385,39.89216],[-83.20391,39.89213],[-83.20393,39.89212],[-83.204,39.89206],[-83.20407,39.892],[-83.2042,39.89187],[-83.20443,39.89173],[-83.20469,39.89162],[-83.20483,39.8916],[-83.20528,39.89152],[-83.20551,39.89148],[-83.20559,39.89147],[-83.20644,39.8914],[-83.20664,39.89138],[-83.20696,39.89137],[-83.20714,39.89137],[-83.20722,39.89137],[-83.20729,39.89139],[-83.2077,39.89152],[-83.20779,39.89154],[-83.20786,39.89154],[-83.20793,39.89153],[-83.20803,39.89149],[-83.20804,39.89149],[-83.20824,39.8914],[-83.20843,39.8913],[-83.20844,39.8913],[-83.20861,39.89126],[-83.20871,39.89125],[-83.20879,39.89126],[-83.20911,39.89132],[-83.20941,39.89138],[-83.20956,39.89143],[-83.20999,39.89158],[-83.21032,39.8917],[-83.2106,39.89184],[-83.21066,39.89186],[-83.21072,39.89188],[-83.21082,39.8919],[-83.2109,39.89191],[-83.21102,39.89191],[-83.21105,39.89191],[-83.21111,39.8919],[-83.21116,39.89188],[-83.21126,39.89182],[-83.2113,39.8918],[-83.21143,39.8917],[-83.21144,39.89169],[-83.21147,39.89168],[-83.21153,39.89166],[-83.21157,39.89165],[-83.21162,39.89165],[-83.21165,39.89166],[-83.21173,39.89167],[-83.21189,39.89172],[-83.21205,39.89182],[-83.21209,39.89185],[-83.21213,39.89187],[-83.21216,39.89188],[-83.21221,39.89189],[-83.21226,39.89189],[-83.21228,39.89189],[-83.21249,39.89186],[-83.21249,39.89186],[-83.21253,39.89188],[-83.2126,39.89189],[-83.21267,39.8919],[-83.21271,39.8919],[-83.21275,39.89191],[-83.21279,39.8919],[-83.21281,39.8919],[-83.21291,39.8919],[-83.21293,39.8919],[-83.213,39.8919],[-83.21311,39.89189],[-83.21316,39.89188],[-83.21317,39.89188],[-83.21325,39.89188],[-83.21334,39.89188],[-83.2134,39.89188],[-83.21348,39.89189],[-83.21361,39.89189],[-83.21363,39.89189],[-83.21379,39.89187],[-83.2139,39.89186],[-83.21396,39.89184],[-83.21407,39.89179],[-83.21427,39.89169],[-83.21432,39.89167],[-83.21447,39.8916],[-83.21452,39.89158],[-83.21466,39.89149],[-83.21475,39.89143],[-83.21482,39.8914],[-83.21485,39.89139],[-83.21487,39.89138],[-83.21492,39.89138],[-83.21496,39.89138],[-83.21502,39.89139],[-83.21505,39.89141],[-83.2151,39.89143],[-83.21523,39.89154],[-83.21528,39.89158],[-83.21536,39.89164],[-83.21541,39.89166],[-83.21542,39.89166],[-83.21551,39.89168],[-83.21563,39.8917],[-83.21564,39.8917],[-83.21587,39.89171],[-83.21588,39.89171],[-83.21616,39.89173],[-83.21624,39.89173],[-83.21631,39.89172],[-83.21637,39.8917],[-83.21642,39.89171],[-83.21645,39.89171],[-83.2166,39.89172],[-83.21671,39.89173],[-83.21675,39.89173],[-83.21686,39.89176],[-83.21691,39.89181],[-83.21695,39.89187],[-83.21698,39.89191],[-83.217,39.89198],[-83.21701,39.89201],[-83.21701,39.89209],[-83.21702,39.89214],[-83.21702,39.89215],[-83.21701,39.89224],[-83.21698,39.89233],[-83.21691,39.89247],[-83.2169,39.8925],[-83.21683,39.89267],[-83.21681,39.89271],[-83.21678,39.89278],[-83.21676,39.89283],[-83.21675,39.89284],[-83.21673,39.89287],[-83.21669,39.89292],[-83.21667,39.89295],[-83.21665,39.893],[-83.21664,39.89304],[-83.21664,39.89309],[-83.21666,39.89313],[-83.21666,39.89313],[-83.21673,39.89318],[-83.21677,39.89321],[-83.21684,39.89326],[-83.21689,39.89328],[-83.21694,39.89329],[-83.21698,39.8933],[-83.21702,39.89332],[-83.21706,39.89339],[-83.21707,39.8934],[-83.21707,39.8934],[-83.21717,39.89338],[-83.21734,39.89334],[-83.21746,39.89331],[-83.21756,39.89329],[-83.21778,39.89323],[-83.21801,39.89318],[-83.21823,39.89313],[-83.2184,39.89308],[-83.21846,39.89307],[-83.21868,39.89302],[-83.21871,39.89301],[-83.21887,39.89297],[-83.2189,39.89296],[-83.21903,39.89293],[-83.2191,39.89289],[-83.21911,39.89288],[-83.21917,39.89281],[-83.21919,39.89273],[-83.21919,39.89272],[-83.21916,39.89256],[-83.21916,39.89254],[-83.21914,39.89236],[-83.21915,39.89232],[-83.21917,39.89227],[-83.21921,39.89222],[-83.21926,39.89218],[-83.2193,39.89215],[-83.21935,39.89213],[-83.21938,39.89212],[-83.21942,39.89211],[-83.21948,39.89209],[-83.21961,39.89208],[-83.21967,39.89208],[-83.21984,39.89208],[-83.22008,39.89208],[-83.22009,39.89208],[-83.22076,39.89206],[-83.22078,39.89206],[-83.22101,39.89205],[-83.22152,39.89204],[-83.22172,39.89204],[-83.22178,39.89204],[-83.22195,39.89204],[-83.22195,39.89204],[-83.22199,39.89204],[-83.222,39.89203],[-83.22202,39.89199],[-83.22201,39.89194],[-83.22202,39.89189],[-83.22203,39.89188],[-83.22206,39.89187],[-83.22207,39.89186],[-83.22211,39.89186],[-83.22218,39.89185],[-83.2222,39.89185],[-83.22229,39.89185],[-83.22241,39.89185],[-83.22248,39.89185],[-83.22251,39.89184],[-83.22253,39.89183],[-83.22254,39.89183],[-83.22256,39.89181],[-83.22263,39.89181],[-83.22286,39.89181],[-83.2232,39.89181],[-83.22333,39.89181],[-83.22356,39.8918],[-83.2238,39.8918],[-83.22387,39.8918],[-83.22403,39.89179],[-83.22427,39.89179],[-83.2245,39.89179],[-83.22478,39.89179],[-83.22568,39.89177],[-83.22638,39.89176],[-83.22726,39.89174],[-83.22732,39.89173],[-83.22849,39.89171],[-83.22942,39.8917],[-83.22966,39.89169],[-83.22991,39.89169],[-83.23083,39.89167],[-83.2313,39.89166],[-83.23148,39.89165],[-83.23153,39.89165],[-83.23177,39.89165],[-83.23224,39.89163],[-83.23247,39.89163],[-83.23271,39.89162],[-83.23364,39.8916],[-83.23427,39.89158],[-83.23481,39.89157],[-83.23505,39.89157],[-83.23575,39.89155],[-83.2367,39.89153],[-83.23716,39.89152],[-83.23739,39.89151],[-83.23903,39.89148],[-83.23973,39.89146],[-83.24114,39.89143],[-83.24138,39.89142],[-83.24161,39.89142],[-83.24235,39.8914],[-83.2425,39.8914],[-83.24256,39.89141],[-83.24261,39.89141],[-83.24266,39.89142],[-83.24285,39.89143],[-83.24321,39.89142],[-83.24376,39.8914],[-83.24391,39.8914],[-83.24485,39.89138],[-83.24579,39.89137],[-83.24649,39.89135],[-83.24658,39.89135],[-83.24766,39.89133],[-83.24789,39.89132],[-83.24907,39.89129],[-83.24953,39.89128],[-83.25,39.89127],[-83.25024,39.89126],[-83.25029,39.89126],[-83.25141,39.89123],[-83.25211,39.89121],[-83.25236,39.8912],[-83.25258,39.89119],[-83.25299,39.89118],[-83.25352,39.89117],[-83.25354,39.89117],[-83.25357,39.89117],[-83.25361,39.89117],[-83.25368,39.89117],[-83.25373,39.89117],[-83.25375,39.89118],[-83.25377,39.8912],[-83.25379,39.89122],[-83.25379,39.89127],[-83.2538,39.89131],[-83.25383,39.89133],[-83.25387,39.89134],[-83.25431,39.89133],[-83.25454,39.89132],[-83.25594,39.89129],[-83.25665,39.89127],[-83.2581,39.89123],[-83.25923,39.89121],[-83.26049,39.89118],[-83.26087,39.89117],[-83.26157,39.89116],[-83.26327,39.89112],[-83.26579,39.89106],[-83.26702,39.89104],[-83.26815,39.89101],[-83.26837,39.89101],[-83.2686,39.891],[-83.26884,39.891],[-83.26907,39.89099],[-83.26931,39.89099],[-83.26954,39.89098],[-83.27024,39.89096],[-83.27032,39.89096],[-83.27071,39.89095],[-83.27118,39.89094],[-83.27141,39.89094],[-83.27165,39.89093],[-83.27188,39.89093],[-83.27306,39.8909],[-83.27355,39.89089],[-83.27423,39.89087],[-83.27446,39.89087],[-83.27516,39.89085],[-83.27571,39.89084],[-83.27634,39.89083],[-83.27721,39.89081],[-83.27821,39.89079],[-83.27923,39.89076],[-83.28032,39.89073],[-83.28102,39.89072],[-83.28149,39.89071],[-83.28164,39.8907],[-83.28219,39.89069],[-83.28265,39.89068],[-83.28265,39.89068],[-83.28261,39.89063],[-83.2826,39.89059],[-83.2826,39.89059],[-83.28267,39.89064],[-83.28271,39.89068],[-83.28274,39.89068],[-83.28288,39.89068],[-83.28311,39.89068],[-83.28331,39.89068],[-83.28382,39.89067],[-83.28498,39.89064],[-83.28499,39.89064],[-83.28534,39.89064],[-83.28629,39.89059],[-83.28663,39.89058],[-83.28686,39.89058],[-83.2871,39.89058],[-83.28725,39.89057],[-83.28913,39.89052],[-83.28944,39.89051],[-83.29005,39.8905],[-83.29038,39.89049],[-83.29099,39.89047],[-83.29202,39.89044],[-83.29225,39.89044],[-83.29282,39.89042],[-83.29369,39.8904],[-83.29389,39.89041],[-83.29411,39.89042],[-83.29443,39.89039],[-83.296,39.89034],[-83.29657,39.89033],[-83.29787,39.8903],[-83.29807,39.8903],[-83.29881,39.89028],[-83.29888,39.89027],[-83.29928,39.89027],[-83.30022,39.89024],[-83.30094,39.89022],[-83.30173,39.8902],[-83.30232,39.89019],[-83.30294,39.89017],[-83.30303,39.89017],[-83.30326,39.89017],[-83.3036,39.89017],[-83.30427,39.89014],[-83.30466,39.89012],[-83.3049,39.89011],[-83.30515,39.8901],[-83.3056,39.89009],[-83.30654,39.89007],[-83.30677,39.89006],[-83.30735,39.89005],[-83.30794,39.89004],[-83.30842,39.89003],[-83.30912,39.89002],[-83.30941,39.89001],[-83.30974,39.88995],[-83.30981,39.88994],[-83.31004,39.88994],[-83.31045,39.88992],[-83.31121,39.8899],[-83.31132,39.8899],[-83.31262,39.88987],[-83.31285,39.88987],[-83.31288,39.88987],[-83.31309,39.88986],[-83.31314,39.88986],[-83.31327,39.88984],[-83.31351,39.88981],[-83.31364,39.88982],[-83.31386,39.88982],[-83.3141,39.88982],[-83.31444,39.88981],[-83.31561,39.88978],[-83.31632,39.88977],[-83.317,39.88975],[-83.31819,39.88972],[-83.31866,39.88971],[-83.32007,39.88967],[-83.3203,39.88967],[-83.32053,39.88966],[-83.32072,39.88966],[-83.32124,39.88964],[-83.32241,39.88961],[-83.32358,39.88958],[-83.32405,39.88957],[-83.325,39.88955],[-83.32663,39.8895],[-83.32681,39.88949],[-83.32733,39.88948],[-83.32967,39.88942],[-83.33013,39.88941],[-83.33108,39.88939],[-83.33128,39.88938],[-83.33225,39.88936],[-83.33319,39.88933],[-83.33483,39.88929],[-83.33553,39.88927],[-83.33569,39.88926],[-83.3367,39.88924],[-83.33982,39.88916],[-83.34092,39.88912],[-83.34115,39.88912],[-83.34169,39.8891],[-83.34256,39.88908],[-83.34279,39.88907],[-83.34302,39.88907],[-83.34326,39.88906],[-83.3442,39.88904],[-83.34443,39.88903],[-83.34466,39.88902],[-83.34489,39.88902],[-83.3449,39.88902],[-83.34584,39.88899],[-83.34677,39.88897],[-83.34746,39.88895],[-83.34748,39.88895],[-83.34865,39.88891],[-83.34982,39.88888],[-83.35005,39.88887],[-83.35043,39.88886],[-83.35122,39.88883],[-83.35146,39.88883],[-83.35403,39.88875],[-83.35416,39.88875],[-83.35602,39.8887],[-83.35614,39.8887],[-83.35661,39.88868],[-83.35718,39.88867],[-83.35731,39.88868],[-83.3575,39.88868],[-83.35754,39.88868],[-83.35804,39.88866],[-83.35865,39.88865],[-83.35871,39.88864],[-83.35902,39.88864],[-83.35957,39.88862],[-83.36221,39.88855],[-83.36316,39.88853],[-83.36384,39.88851],[-83.36387,39.88851],[-83.3648,39.88848],[-83.36705,39.88841],[-83.36855,39.88837],[-83.36925,39.88835],[-83.37066,39.88832],[-83.37183,39.88829],[-83.37324,39.88825],[-83.3746,39.88821],[-83.375,39.88821],[-83.37511,39.8882],[-83.37534,39.8882],[-83.37558,39.88819],[-83.37628,39.88818],[-83.37699,39.88816],[-83.37722,39.88816],[-83.37729,39.88816],[-83.37745,39.88815],[-83.37839,39.88813],[-83.37863,39.88812],[-83.37909,39.88811],[-83.38003,39.88808],[-83.38073,39.88806],[-83.38254,39.88802],[-83.38261,39.88801],[-83.38381,39.88798],[-83.38401,39.88798],[-83.38448,39.88796],[-83.38472,39.88796],[-83.38495,39.88795],[-83.38518,39.88794],[-83.38589,39.88793],[-83.38636,39.88791],[-83.38706,39.88789],[-83.388,39.88787],[-83.38815,39.88786],[-83.38846,39.88786],[-83.3894,39.88784],[-83.38942,39.88784],[-83.3901,39.88782],[-83.39081,39.8878],[-83.39091,39.8878],[-83.39174,39.88778],[-83.39221,39.88776],[-83.39305,39.88774],[-83.39338,39.88774],[-83.39362,39.88773],[-83.39432,39.88771],[-83.39479,39.8877],[-83.39565,39.88768],[-83.39596,39.88767],[-83.39724,39.88764],[-83.3983,39.88761],[-83.39924,39.88759],[-83.39944,39.88758],[-83.39947,39.88758],[-83.39971,39.88757],[-83.40121,39.88753],[-83.40158,39.88752],[-83.40229,39.88751],[-83.40299,39.88749],[-83.40346,39.88748],[-83.40422,39.88746],[-83.40439,39.88745],[-83.40463,39.88745],[-83.40486,39.88744],[-83.40522,39.88743],[-83.40627,39.88741],[-83.40721,39.88738],[-83.40768,39.88737],[-83.40838,39.88736],[-83.40856,39.88735],[-83.40861,39.88735],[-83.40885,39.88734],[-83.40931,39.88733],[-83.41043,39.8873],[-83.41096,39.88729],[-83.41142,39.88728],[-83.41283,39.88725],[-83.41306,39.88724],[-83.41333,39.88723],[-83.41377,39.88722],[-83.41447,39.88721],[-83.4147,39.8872],[-83.41634,39.88716],[-83.41658,39.88716],[-83.41681,39.88715],[-83.41688,39.88715],[-83.41728,39.88714],[-83.41775,39.88713],[-83.41822,39.88712],[-83.41845,39.88711],[-83.41851,39.88711],[-83.42009,39.88708],[-83.42032,39.88707],[-83.42049,39.88707],[-83.42105,39.88705],[-83.42139,39.88704],[-83.42214,39.88699],[-83.4223,39.88698],[-83.4226,39.88695],[-83.42315,39.88689],[-83.42366,39.88684],[-83.42388,39.88681],[-83.42435,39.88676],[-83.42478,39.88671],[-83.42501,39.88668],[-83.42518,39.88666],[-83.42617,39.88654],[-83.42618,39.88654],[-83.42663,39.88649],[-83.42722,39.88641],[-83.42733,39.8864],[-83.42838,39.88628],[-83.42848,39.88627],[-83.42853,39.88626],[-83.42951,39.88615],[-83.4298,39.88612],[-83.43074,39.88599],[-83.43142,39.88591],[-83.43149,39.8859],[-83.43191,39.88586],[-83.43234,39.88582],[-83.43266,39.8858],[-83.43278,39.88579],[-83.4329,39.88578],[-83.43313,39.88575],[-83.43327,39.88574],[-83.43336,39.88573],[-83.43382,39.88567],[-83.4343,39.88561],[-83.43452,39.88558],[-83.43475,39.88555],[-83.43498,39.88552],[-83.43521,39.88549],[-83.43536,39.88546],[-83.43544,39.88546],[-83.4356,39.88544],[-83.43585,39.88541],[-83.43636,39.88534],[-83.43639,39.88534],[-83.43659,39.88532],[-83.43687,39.88528],[-83.43696,39.88527],[-83.437,39.88526],[-83.43705,39.88524],[-83.43714,39.88525],[-83.438,39.88515],[-83.43806,39.88514],[-83.43916,39.88502],[-83.44055,39.88486],[-83.4411,39.88479],[-83.4415,39.88474],[-83.44172,39.88471],[-83.44195,39.88466],[-83.44231,39.88455],[-83.44281,39.8844],[-83.44281,39.8844],[-83.44274,39.88434],[-83.44249,39.8841],[-83.44249,39.8841],[-83.4431,39.88383],[-83.44328,39.88375],[-83.44348,39.88365],[-83.4435,39.88364],[-83.44362,39.88358],[-83.4437,39.88354],[-83.44371,39.88353],[-83.44395,39.88337],[-83.44397,39.88336],[-83.44414,39.88324],[-83.44419,39.88321],[-83.44443,39.88304],[-83.44464,39.8829],[-83.44492,39.88272],[-83.44515,39.88257],[-83.4456,39.88226],[-83.44622,39.88183],[-83.44656,39.8816],[-83.44683,39.88145],[-83.44778,39.88097],[-83.44877,39.88049],[-83.44927,39.88024],[-83.44966,39.88005],[-83.44977,39.87999],[-83.45076,39.87949],[-83.45155,39.8791],[-83.45214,39.87881],[-83.45243,39.87867],[-83.45301,39.87838],[-83.45351,39.87813],[-83.45416,39.87781],[-83.45496,39.87741],[-83.45562,39.87709],[-83.45602,39.8769],[-83.45602,39.8769],[-83.45604,39.87737],[-83.45605,39.87795],[-83.45607,39.8781],[-83.45608,39.87813],[-83.45609,39.87819],[-83.45611,39.87829],[-83.45615,39.87839],[-83.45618,39.87846],[-83.45623,39.87859],[-83.45634,39.87882],[-83.4565,39.87914],[-83.45679,39.87976],[-83.45679,39.87976],[-83.45803,39.87934],[-83.45825,39.87927],[-83.45932,39.8789],[-83.45936,39.87889],[-83.46018,39.87861],[-83.46189,39.87803],[-83.46236,39.87787],[-83.46253,39.87781],[-83.46382,39.87738],[-83.46403,39.8773],[-83.46407,39.87729],[-83.46429,39.87722],[-83.46575,39.87672],[-83.46618,39.87658],[-83.46639,39.8765],[-83.46654,39.87645],[-83.46746,39.87614],[-83.46943,39.87546],[-83.47024,39.87518],[-83.47093,39.87495],[-83.47114,39.87488],[-83.47217,39.87453],[-83.47239,39.87445],[-83.47243,39.87444],[-83.47346,39.87409],[-83.47414,39.87385],[-83.47474,39.87365],[-83.475,39.87356],[-83.47585,39.87327],[-83.47689,39.87291],[-83.47692,39.8729],[-83.47709,39.87284],[-83.47842,39.87239],[-83.47863,39.87231],[-83.47881,39.87226],[-83.48009,39.87182],[-83.48073,39.8716],[-83.4818,39.87123],[-83.48184,39.87122],[-83.48223,39.87108],[-83.48266,39.87094],[-83.48373,39.87057],[-83.48459,39.87028],[-83.4848,39.8702],[-83.48484,39.87019],[-83.48501,39.87013],[-83.48506,39.87012],[-83.48527,39.87004],[-83.48608,39.86976],[-83.48634,39.86968],[-83.48673,39.86955],[-83.48675,39.86954],[-83.48801,39.8691],[-83.48933,39.86865],[-83.48951,39.86859],[-83.48972,39.86852],[-83.48976,39.8685],[-83.48994,39.86844],[-83.49019,39.86836],[-83.49165,39.86785],[-83.49173,39.86782],[-83.49271,39.86748],[-83.49361,39.86717],[-83.49554,39.86652],[-83.49621,39.8663],[-83.49683,39.86609],[-83.49729,39.86593],[-83.49833,39.86558],[-83.49876,39.86543],[-83.49947,39.86519],[-83.49961,39.86514],[-83.5009,39.8647],[-83.50197,39.86433],[-83.50261,39.86411],[-83.50411,39.8636],[-83.50432,39.86352],[-83.50453,39.86345],[-83.50582,39.86301],[-83.50703,39.8626],[-83.50753,39.86243],[-83.50849,39.86211],[-83.50882,39.862],[-83.50946,39.86177],[-83.50957,39.86173],[-83.51002,39.86154],[-83.51158,39.86101],[-83.51244,39.86072],[-83.51265,39.86065],[-83.51351,39.86035],[-83.51415,39.86014],[-83.51501,39.85985],[-83.51565,39.85963],[-83.51694,39.85919],[-83.51703,39.85916],[-83.51779,39.85889],[-83.51949,39.85828],[-83.5197,39.85821],[-83.51991,39.85813],[-83.52034,39.85798],[-83.5214,39.8576],[-83.52182,39.85745],[-83.52246,39.85722],[-83.52267,39.85715],[-83.52395,39.85669],[-83.52522,39.85624],[-83.52544,39.85616],[-83.52565,39.85609],[-83.52607,39.85593],[-83.52723,39.85552],[-83.53012,39.85451],[-83.53056,39.85435],[-83.53093,39.85422],[-83.53115,39.85414],[-83.53199,39.85383],[-83.5339,39.85314],[-83.53433,39.85299],[-83.53475,39.85283],[-83.53525,39.85265],[-83.53645,39.85223],[-83.53857,39.85147],[-83.53985,39.85101],[-83.53999,39.85096],[-83.54027,39.85086],[-83.54133,39.85048],[-83.5424,39.8501],[-83.54261,39.85003],[-83.54452,39.84935],[-83.54495,39.8492],[-83.54533,39.84906],[-83.54622,39.84874],[-83.54771,39.84821],[-83.54834,39.84798],[-83.54919,39.84767],[-83.54965,39.8475],[-83.55025,39.84728],[-83.5511,39.84698],[-83.55174,39.84675],[-83.55195,39.84668],[-83.55332,39.84619],[-83.55343,39.84615],[-83.55428,39.84584],[-83.55449,39.84576],[-83.55471,39.84569],[-83.55472,39.84568],[-83.55492,39.84561],[-83.55577,39.84531],[-83.55619,39.84516],[-83.55683,39.84493],[-83.55704,39.84485],[-83.55768,39.84463],[-83.55802,39.84451],[-83.55847,39.84434],[-83.55954,39.84397],[-83.5623,39.84298],[-83.56273,39.84283],[-83.56379,39.84245],[-83.56437,39.84224],[-83.56634,39.84154],[-83.56655,39.84146],[-83.56782,39.84101],[-83.56846,39.84078],[-83.56909,39.84055],[-83.57016,39.84017],[-83.57058,39.84002],[-83.571,39.83986],[-83.57122,39.83979],[-83.57185,39.83956],[-83.57228,39.83941],[-83.57301,39.83914],[-83.57323,39.83907],[-83.57344,39.83899],[-83.57365,39.83892],[-83.57408,39.83877],[-83.57425,39.83871],[-83.57429,39.83869],[-83.5745,39.83861],[-83.57471,39.83854],[-83.57492,39.83846],[-83.57577,39.83816],[-83.57726,39.83762],[-83.57874,39.83709],[-83.58002,39.83663],[-83.58044,39.83648],[-83.58235,39.83579],[-83.58415,39.83515],[-83.58426,39.83511],[-83.58447,39.83503],[-83.58511,39.8348],[-83.58596,39.8345],[-83.58702,39.83412],[-83.58744,39.83396],[-83.58871,39.83351],[-83.58893,39.83343],[-83.58914,39.83335],[-83.58935,39.83328],[-83.58956,39.8332],[-83.5902,39.83297],[-83.59062,39.83282],[-83.59083,39.83274],[-83.59093,39.8327],[-83.59126,39.83259],[-83.59147,39.83252],[-83.59233,39.83223],[-83.59254,39.83215],[-83.59276,39.83208],[-83.59297,39.83201],[-83.59319,39.83194],[-83.5934,39.83186],[-83.59362,39.83179],[-83.59383,39.83172],[-83.59391,39.83169],[-83.59425,39.83157],[-83.59489,39.83134],[-83.59659,39.83073],[-83.5968,39.83065],[-83.59722,39.8305],[-83.59892,39.82989],[-83.59913,39.82981],[-83.59935,39.82974],[-83.6002,39.82943],[-83.60041,39.82936],[-83.60104,39.82913],[-83.60232,39.82867],[-83.60253,39.82859],[-83.60387,39.82811],[-83.60444,39.82791],[-83.60465,39.82783],[-83.60486,39.82775],[-83.60529,39.8276],[-83.60592,39.82737],[-83.60613,39.8273],[-83.60635,39.82722],[-83.60656,39.82714],[-83.6072,39.82692],[-83.60783,39.82669],[-83.60826,39.82654],[-83.60828,39.82653],[-83.60996,39.82594],[-83.61012,39.82588],[-83.61017,39.82586],[-83.61061,39.82574],[-83.61127,39.82554],[-83.61168,39.82542],[-83.61216,39.82532],[-83.6125,39.82525],[-83.61397,39.82497],[-83.6142,39.82492],[-83.61465,39.82483],[-83.61488,39.82479],[-83.61738,39.82431],[-83.61784,39.82423],[-83.61849,39.8241],[-83.61852,39.8241],[-83.61885,39.82404],[-83.61892,39.82403],[-83.61893,39.82403],[-83.61903,39.82404],[-83.61913,39.82407],[-83.61929,39.82411],[-83.61934,39.82411],[-83.61983,39.82402],[-83.62006,39.82398],[-83.62029,39.82393],[-83.62074,39.82385],[-83.62097,39.8238],[-83.62143,39.82372],[-83.62165,39.82368],[-83.62206,39.8236],[-83.62233,39.82358],[-83.6228,39.82349],[-83.62303,39.82345],[-83.62416,39.82324],[-83.62551,39.82299],[-83.62553,39.82299],[-83.62576,39.82294],[-83.62667,39.82277],[-83.62712,39.82269],[-83.62745,39.82263],[-83.62758,39.8226],[-83.6278,39.82256],[-83.62848,39.82242],[-83.62871,39.82238],[-83.62894,39.82233],[-83.62895,39.82233],[-83.62905,39.82234],[-83.62914,39.82239],[-83.62933,39.82251],[-83.62937,39.82253],[-83.62948,39.82257],[-83.62954,39.82258],[-83.62959,39.82259],[-83.62975,39.82261],[-83.63023,39.82294],[-83.63098,39.82344],[-83.63116,39.82356],[-83.63146,39.82376],[-83.63146,39.82376],[-83.632,39.82359],[-83.63245,39.82343],[-83.63284,39.8233],[-83.63323,39.82316],[-83.63327,39.82314],[-83.63328,39.82314],[-83.6337,39.82299],[-83.63483,39.8226],[-83.63577,39.82228],[-83.63598,39.8222],[-83.63748,39.82169],[-83.63761,39.82164],[-83.63771,39.82161],[-83.63779,39.82159],[-83.63785,39.82156],[-83.63785,39.82156],[-83.63783,39.82151],[-83.63775,39.82134],[-83.63774,39.82134],[-83.63767,39.82119],[-83.63766,39.82117],[-83.63767,39.82095],[-83.63772,39.82084],[-83.63776,39.82075],[-83.63788,39.82058],[-83.63791,39.82051],[-83.63798,39.82034],[-83.63801,39.82028],[-83.63809,39.82021],[-83.63812,39.8202],[-83.63817,39.82017],[-83.63833,39.82012],[-83.63847,39.82008],[-83.63854,39.82005],[-83.63918,39.81981],[-83.6396,39.81966],[-83.64023,39.81942],[-83.64044,39.81934],[-83.64107,39.8191],[-83.64149,39.81894],[-83.64191,39.81879],[-83.64212,39.81871],[-83.64216,39.81869],[-83.64232,39.81862],[-83.64245,39.81855],[-83.64249,39.8185],[-83.6425,39.81849],[-83.64258,39.81843],[-83.64261,39.81843],[-83.64269,39.81844],[-83.64269,39.81844],[-83.64276,39.81845],[-83.64282,39.81844],[-83.64289,39.81841],[-83.64367,39.8181],[-83.64409,39.81794],[-83.64423,39.81788],[-83.6443,39.81786],[-83.64493,39.81762],[-83.64514,39.81754],[-83.64556,39.81738],[-83.64619,39.81714],[-83.64661,39.81698],[-83.64724,39.81674],[-83.64744,39.81666],[-83.64765,39.81658],[-83.64807,39.81642],[-83.64828,39.81634],[-83.64849,39.81626],[-83.6487,39.81618],[-83.64891,39.8161],[-83.64933,39.81594],[-83.64975,39.81578],[-83.65038,39.81554],[-83.65059,39.81546],[-83.6508,39.81538],[-83.65101,39.8153],[-83.65164,39.81505],[-83.65185,39.81497],[-83.65222,39.81483],[-83.65269,39.81465],[-83.6529,39.81457],[-83.6531,39.81449],[-83.65331,39.81441],[-83.65394,39.81417],[-83.65457,39.81393],[-83.65478,39.81385],[-83.65499,39.81377],[-83.65541,39.81361],[-83.65562,39.81353],[-83.65583,39.81345],[-83.65604,39.81337],[-83.65625,39.81329],[-83.65646,39.81321],[-83.65667,39.81313],[-83.65688,39.81305],[-83.65709,39.81297],[-83.6573,39.81289],[-83.65751,39.81281],[-83.65834,39.81249],[-83.65855,39.81241],[-83.65876,39.81233],[-83.65939,39.81208],[-83.65981,39.81192],[-83.66002,39.81184],[-83.66042,39.81169],[-83.66107,39.81144],[-83.66128,39.81136],[-83.66149,39.81128],[-83.66191,39.81112],[-83.66232,39.81096],[-83.66316,39.81064],[-83.66442,39.81016],[-83.66463,39.81008],[-83.66484,39.81],[-83.66547,39.80976],[-83.66568,39.80968],[-83.66589,39.8096],[-83.66631,39.80944],[-83.66652,39.80936],[-83.66672,39.80927],[-83.66714,39.80911],[-83.66777,39.80887],[-83.66798,39.80879],[-83.66819,39.80871],[-83.6684,39.80863],[-83.66917,39.80834],[-83.66966,39.80815],[-83.67028,39.80791],[-83.67133,39.8075],[-83.67175,39.80734],[-83.67259,39.80702],[-83.67489,39.80614],[-83.6751,39.80606],[-83.67552,39.8059],[-83.6772,39.80526],[-83.67762,39.8051],[-83.67795,39.80497],[-83.67867,39.8047],[-83.67992,39.80422],[-83.68181,39.80349],[-83.68224,39.80333],[-83.68287,39.80309],[-83.68412,39.80261],[-83.68475,39.80237],[-83.68517,39.80221],[-83.68622,39.80181],[-83.68643,39.80173],[-83.68672,39.80162],[-83.68685,39.80157],[-83.68765,39.80127],[-83.6885,39.80089],[-83.6887,39.8008],[-83.68988,39.80021],[-83.69086,39.79972],[-83.69145,39.79942],[-83.69184,39.79923],[-83.69204,39.79913],[-83.69223,39.79903],[-83.69243,39.79893],[-83.69263,39.79883],[-83.69302,39.79864],[-83.69361,39.79834],[-83.6938,39.79824],[-83.69481,39.79774],[-83.69482,39.79773],[-83.6964,39.79696],[-83.6966,39.79686],[-83.69699,39.79667],[-83.69798,39.79618],[-83.69817,39.79608],[-83.69837,39.79599],[-83.69896,39.7957],[-83.69955,39.7954],[-83.69995,39.79521],[-83.70014,39.79511],[-83.70054,39.79492],[-83.70093,39.79472],[-83.70113,39.79463],[-83.70172,39.79434],[-83.70208,39.79416],[-83.70365,39.79336],[-83.70387,39.79325],[-83.70427,39.79306],[-83.70486,39.79276],[-83.70545,39.79247],[-83.70564,39.79237],[-83.70584,39.79228],[-83.70604,39.79218],[-83.70623,39.79208],[-83.70663,39.79189],[-83.70722,39.79159],[-83.70781,39.7913],[-83.7082,39.79111],[-83.7084,39.79101],[-83.7086,39.79091],[-83.70879,39.79082],[-83.70899,39.79072],[-83.70938,39.79052],[-83.70958,39.79043],[-83.70978,39.79033],[-83.70997,39.79023],[-83.71017,39.79013],[-83.71052,39.78996],[-83.71056,39.78994],[-83.71076,39.78984],[-83.71134,39.78954],[-83.71173,39.78933],[-83.71192,39.78923],[-83.71231,39.78903],[-83.7125,39.78893],[-83.7127,39.78883],[-83.71289,39.78873],[-83.71306,39.78864],[-83.71313,39.78861],[-83.71333,39.78851],[-83.71352,39.78841],[-83.71372,39.78831],[-83.71381,39.78827],[-83.71432,39.78803],[-83.71472,39.78784],[-83.7148,39.7878],[-83.71491,39.78775],[-83.71531,39.78755],[-83.7155,39.78745],[-83.7159,39.78726],[-83.71609,39.78716],[-83.71668,39.78687],[-83.71688,39.78677],[-83.71747,39.78647],[-83.71786,39.78628],[-83.71806,39.78618],[-83.71884,39.78579],[-83.71904,39.78569],[-83.71924,39.78559],[-83.71941,39.7855],[-83.71982,39.7853],[-83.72041,39.785],[-83.72119,39.78461],[-83.72197,39.78421],[-83.72217,39.78411],[-83.72276,39.78382],[-83.72315,39.78362],[-83.72334,39.78352],[-83.72354,39.78342],[-83.72393,39.78322],[-83.72432,39.78303],[-83.72569,39.78233],[-83.72589,39.78223],[-83.72647,39.78194],[-83.72746,39.78145],[-83.72785,39.78126],[-83.72805,39.78116],[-83.72824,39.78107],[-83.72825,39.78107],[-83.72902,39.78066],[-83.7296,39.78035],[-83.72979,39.78025],[-83.73037,39.77995],[-83.73056,39.77984],[-83.73114,39.77954],[-83.73249,39.77883],[-83.73269,39.77873],[-83.73346,39.77832],[-83.73365,39.77822],[-83.73404,39.77801],[-83.73423,39.77791],[-83.73462,39.77771],[-83.73539,39.7773],[-83.73577,39.7771],[-83.73597,39.777],[-83.73616,39.77689],[-83.73674,39.77659],[-83.73693,39.77649],[-83.73694,39.77648],[-83.7377,39.77608],[-83.73808,39.77587],[-83.73847,39.77567],[-83.74058,39.77454],[-83.74116,39.77423],[-83.74154,39.77402],[-83.74231,39.77361],[-83.74317,39.77315],[-83.74361,39.77292],[-83.74399,39.77271],[-83.74418,39.7726],[-83.74437,39.7725],[-83.74571,39.77177],[-83.74574,39.77175],[-83.7459,39.77167],[-83.74609,39.77157],[-83.74648,39.77136],[-83.74686,39.77116],[-83.74725,39.77096],[-83.74802,39.77055],[-83.74821,39.77045],[-83.74899,39.77004],[-83.75014,39.76943],[-83.75053,39.76922],[-83.75091,39.76902],[-83.75265,39.7681],[-83.75284,39.768],[-83.75342,39.76769],[-83.75361,39.76759],[-83.7538,39.76749],[-83.75458,39.76708],[-83.75477,39.76698],[-83.75496,39.76688],[-83.75554,39.76657],[-83.75573,39.76647],[-83.75612,39.76626],[-83.7565,39.76606],[-83.75758,39.76549],[-83.75785,39.76535],[-83.75824,39.76514],[-83.7592,39.76463],[-83.75939,39.76453],[-83.75958,39.76442],[-83.76016,39.76412],[-83.76054,39.76391],[-83.76189,39.76319],[-83.76208,39.76309],[-83.76227,39.76299],[-83.76285,39.76268],[-83.76304,39.76258],[-83.76324,39.76248],[-83.764,39.76207],[-83.7642,39.76196],[-83.76477,39.76166],[-83.7667,39.76063],[-83.76689,39.76053],[-83.76766,39.76012],[-83.769,39.7594],[-83.76958,39.7591],[-83.76996,39.75889],[-83.77112,39.75828],[-83.77137,39.75815],[-83.77285,39.75736],[-83.77304,39.75726],[-83.774,39.75674],[-83.77484,39.7563],[-83.77489,39.75627],[-83.7749,39.75627],[-83.77492,39.75626],[-83.77495,39.75625],[-83.77496,39.75624],[-83.77498,39.75624],[-83.77505,39.75624],[-83.77506,39.75624],[-83.77508,39.75624],[-83.77512,39.75624],[-83.77514,39.75623],[-83.77515,39.75622],[-83.77516,39.75621],[-83.77517,39.75619],[-83.77517,39.75617],[-83.77517,39.75616],[-83.77515,39.75612],[-83.77515,39.75612],[-83.77553,39.75592],[-83.77651,39.75542],[-83.7768,39.75527],[-83.77824,39.7545],[-83.77901,39.75409],[-83.77939,39.75388],[-83.77977,39.75369],[-83.78189,39.75255],[-83.78381,39.75152],[-83.78439,39.75122],[-83.78477,39.75101],[-83.78516,39.75081],[-83.78573,39.7505],[-83.78796,39.74931],[-83.789,39.74875],[-83.78996,39.74824],[-83.79015,39.74813],[-83.79053,39.74793],[-83.79149,39.74741],[-83.79211,39.74708],[-83.7927,39.74678],[-83.79308,39.74658],[-83.79367,39.74627],[-83.79373,39.74624],[-83.79386,39.74617],[-83.79482,39.74566],[-83.79535,39.74537],[-83.79592,39.74506],[-83.79612,39.74496],[-83.79765,39.74414],[-83.79804,39.74393],[-83.79922,39.7433],[-83.79985,39.74297],[-83.80081,39.74246],[-83.80139,39.74215],[-83.80158,39.74205],[-83.80195,39.74185],[-83.80196,39.74185],[-83.80331,39.74113],[-83.80404,39.74073],[-83.80423,39.74063],[-83.80442,39.74053],[-83.80519,39.74011],[-83.8054,39.74],[-83.80579,39.7398],[-83.80598,39.7397],[-83.80616,39.73962],[-83.80676,39.73931],[-83.80714,39.73911],[-83.80734,39.73899],[-83.80829,39.73849],[-83.80849,39.73839],[-83.80868,39.73829],[-83.80926,39.73798],[-83.80942,39.73789],[-83.80964,39.73778],[-83.80996,39.73761],[-83.81003,39.73758],[-83.81022,39.73747],[-83.81041,39.73737],[-83.81049,39.73733],[-83.81095,39.73712],[-83.81101,39.73709],[-83.81141,39.7369],[-83.81143,39.73689],[-83.81159,39.73679],[-83.81168,39.73673],[-83.81178,39.73668],[-83.81273,39.73616],[-83.81277,39.73614],[-83.81292,39.73605],[-83.8133,39.73584],[-83.81349,39.73574],[-83.81387,39.73553],[-83.81406,39.73542],[-83.81425,39.73532],[-83.81463,39.73511],[-83.81497,39.73492],[-83.81597,39.73439],[-83.81616,39.73428],[-83.81674,39.73398],[-83.81693,39.73387],[-83.81712,39.73377],[-83.81791,39.73335],[-83.81808,39.73326],[-83.81924,39.73264],[-83.82003,39.73222],[-83.82058,39.73192],[-83.82077,39.73182],[-83.82135,39.73152],[-83.82174,39.73131],[-83.82193,39.73121],[-83.82212,39.73111],[-83.82231,39.731],[-83.82251,39.7309],[-83.8227,39.7308],[-83.82328,39.73049],[-83.82347,39.73039],[-83.82385,39.73019],[-83.82501,39.72957],[-83.82559,39.72927],[-83.82577,39.72917],[-83.82597,39.72906],[-83.82616,39.72896],[-83.82642,39.72883],[-83.82694,39.72856],[-83.82713,39.72846],[-83.82733,39.72836],[-83.82752,39.72826],[-83.82782,39.7281],[-83.82829,39.72785],[-83.82944,39.72723],[-83.83008,39.7269],[-83.8304,39.72672],[-83.83079,39.72652],[-83.83136,39.72621],[-83.83175,39.726],[-83.83194,39.7259],[-83.83213,39.72579],[-83.83291,39.72537],[-83.8335,39.72506],[-83.83407,39.72476],[-83.8341,39.72474],[-83.83446,39.72455],[-83.83484,39.72435],[-83.83501,39.72426],[-83.83504,39.72425],[-83.83638,39.72353],[-83.83641,39.72351],[-83.83676,39.72332],[-83.83734,39.72301],[-83.83811,39.7226],[-83.8383,39.7225],[-83.83868,39.7223],[-83.83926,39.72199],[-83.83965,39.72178],[-83.84061,39.72127],[-83.84118,39.72096],[-83.84138,39.72086],[-83.84195,39.72055],[-83.84246,39.72028],[-83.84364,39.71967],[-83.84426,39.71933],[-83.84465,39.71912],[-83.84484,39.71902],[-83.84497,39.71895],[-83.84561,39.71861],[-83.84618,39.7183],[-83.84676,39.71799],[-83.84695,39.71789],[-83.84733,39.71769],[-83.84753,39.71758],[-83.84849,39.71707],[-83.84925,39.71666],[-83.84945,39.71656],[-83.85021,39.71615],[-83.85041,39.71604],[-83.85068,39.7159],[-83.85079,39.71584],[-83.85117,39.71563],[-83.85136,39.71552],[-83.85155,39.71541],[-83.85174,39.71531],[-83.85251,39.71491],[-83.85271,39.71481],[-83.8529,39.71471],[-83.85329,39.7145],[-83.85348,39.7144],[-83.85387,39.7142],[-83.85417,39.71404],[-83.85617,39.71297],[-83.85655,39.71276],[-83.85694,39.71256],[-83.85924,39.71132],[-83.85937,39.71126],[-83.85943,39.71122],[-83.85962,39.71112],[-83.8602,39.71081],[-83.86058,39.7106],[-83.86106,39.71035],[-83.86116,39.71028],[-83.86141,39.71015],[-83.86161,39.71005],[-83.8618,39.70995],[-83.86238,39.70965],[-83.86258,39.70955],[-83.86265,39.70951],[-83.86296,39.70934],[-83.86334,39.70914],[-83.86373,39.70893],[-83.86411,39.70872],[-83.86449,39.70852],[-83.86507,39.70821],[-83.86564,39.7079],[-83.86583,39.7078],[-83.86641,39.70749],[-83.86737,39.70697],[-83.86756,39.70687],[-83.86791,39.70668],[-83.86833,39.70646],[-83.86871,39.70626],[-83.86891,39.70615],[-83.8696,39.70579],[-83.86968,39.70575],[-83.86987,39.70564],[-83.87006,39.70554],[-83.87044,39.70534],[-83.87121,39.70492],[-83.8716,39.70472],[-83.87198,39.70451],[-83.87217,39.70441],[-83.87351,39.70369],[-83.87409,39.70338],[-83.87428,39.70328],[-83.87467,39.70308],[-83.87543,39.70266],[-83.87601,39.70236],[-83.8762,39.70225],[-83.87621,39.70225],[-83.87639,39.70215],[-83.87697,39.70185],[-83.87717,39.70174],[-83.87724,39.70171],[-83.87736,39.70164],[-83.87755,39.70154],[-83.87774,39.70143],[-83.8781,39.70124],[-83.87812,39.70123],[-83.87831,39.70112],[-83.8785,39.70102],[-83.87869,39.70091],[-83.87888,39.70081],[-83.87907,39.70071],[-83.87927,39.7006],[-83.87954,39.70045],[-83.87964,39.70039],[-83.87983,39.70028],[-83.88019,39.70008],[-83.88021,39.70007],[-83.88031,39.70001],[-83.8804,39.69997],[-83.88043,39.69995],[-83.88063,39.69995],[-83.88068,39.69994],[-83.88071,39.69993],[-83.88074,39.69992],[-83.88076,39.69991],[-83.88078,39.69989],[-83.88079,39.69988],[-83.88085,39.69982],[-83.88103,39.69967],[-83.8811,39.69963],[-83.88129,39.69953],[-83.88148,39.69942],[-83.88168,39.69932],[-83.88187,39.69921],[-83.88206,39.69911],[-83.88225,39.699],[-83.88244,39.6989],[-83.88263,39.69879],[-83.8827,39.69875],[-83.88282,39.69869],[-83.88321,39.69849],[-83.8834,39.69839],[-83.88359,39.69829],[-83.88379,39.69819],[-83.88417,39.69799],[-83.88438,39.69788],[-83.88456,39.69778],[-83.88475,39.69767],[-83.88494,39.69757],[-83.88512,39.69746],[-83.88531,39.69736],[-83.8855,39.69725],[-83.88569,39.69714],[-83.88588,39.69704],[-83.88594,39.69701],[-83.88607,39.69694],[-83.88627,39.69684],[-83.88634,39.69681],[-83.88666,39.69664],[-83.88705,39.69645],[-83.88714,39.6964],[-83.88725,39.69635],[-83.8882,39.69583],[-83.88827,39.6958],[-83.8884,39.69573],[-83.88859,39.69563],[-83.88878,39.69553],[-83.88884,39.69549],[-83.88917,39.69532],[-83.88949,39.69516],[-83.88994,39.69492],[-83.89013,39.69482],[-83.89033,39.69471],[-83.8909,39.69441],[-83.89109,39.6943],[-83.89129,39.6942],[-83.89167,39.694],[-83.89206,39.69379],[-83.89225,39.69369],[-83.89276,39.69342],[-83.89302,39.69329],[-83.89371,39.69292],[-83.89418,39.69268],[-83.89451,39.6925],[-83.89456,39.69247],[-83.89495,39.69227],[-83.89514,39.69217],[-83.8954,39.69203],[-83.89626,39.69157],[-83.8963,39.69156],[-83.89668,39.69135],[-83.89687,39.69125],[-83.89726,39.69104],[-83.89764,39.69084],[-83.89783,39.69073],[-83.89789,39.6907],[-83.89802,39.69063],[-83.89859,39.69032],[-83.89878,39.69021],[-83.89884,39.69018],[-83.89935,39.68989],[-83.89947,39.68983],[-83.89955,39.6898],[-83.89971,39.68973],[-83.89982,39.68969],[-83.89983,39.68968],[-83.89984,39.68967],[-83.89985,39.68966],[-83.89986,39.68965],[-83.89986,39.68964],[-83.89985,39.68958],[-83.89985,39.68958],[-83.89988,39.68951],[-83.89988,39.6895],[-83.89989,39.68949],[-83.8999,39.68948],[-83.89993,39.68947],[-83.90036,39.68934],[-83.90062,39.68922],[-83.90075,39.68916],[-83.90105,39.68901],[-83.9016,39.68872],[-83.90198,39.68852],[-83.90216,39.68842],[-83.90217,39.68841],[-83.90235,39.6883],[-83.90255,39.68818],[-83.90272,39.68809],[-83.90292,39.68798],[-83.9033,39.68778],[-83.90349,39.68767],[-83.90387,39.68747],[-83.90406,39.68736],[-83.90425,39.68726],[-83.90444,39.68715],[-83.90464,39.68705],[-83.90483,39.68695],[-83.9054,39.68664],[-83.90559,39.68653],[-83.90578,39.68643],[-83.90597,39.68633],[-83.90608,39.68627],[-83.90616,39.68622],[-83.90636,39.68612],[-83.90655,39.68602],[-83.90675,39.68592],[-83.90742,39.68557],[-83.90747,39.68554],[-83.90751,39.68553],[-83.90759,39.68553],[-83.90764,39.68552],[-83.90767,39.68549],[-83.90772,39.68544],[-83.90775,39.6854],[-83.90781,39.68538],[-83.90798,39.6853],[-83.90801,39.68529],[-83.90821,39.6852],[-83.90841,39.6851],[-83.90845,39.68508],[-83.90861,39.68501],[-83.90882,39.68492],[-83.90902,39.68483],[-83.90917,39.68477],[-83.90922,39.68475],[-83.90944,39.68467],[-83.90965,39.68459],[-83.90981,39.68454],[-83.90986,39.68452],[-83.9103,39.68439],[-83.91051,39.68432],[-83.91059,39.6843],[-83.91073,39.68426],[-83.91095,39.6842],[-83.91117,39.68413],[-83.91139,39.68407],[-83.91161,39.684],[-83.91182,39.68394],[-83.91193,39.68391],[-83.91204,39.68388],[-83.91226,39.68381],[-83.91248,39.68375],[-83.9126,39.68371],[-83.9127,39.68369],[-83.91292,39.68364],[-83.91341,39.68354],[-83.91363,39.6835],[-83.91368,39.68349],[-83.91386,39.68346],[-83.91409,39.68342],[-83.91432,39.68338],[-83.91455,39.68335],[-83.91478,39.68331],[-83.91523,39.68324],[-83.91569,39.68316],[-83.91571,39.68316],[-83.91592,39.68312],[-83.91615,39.68308],[-83.91638,39.68304],[-83.9166,39.68301],[-83.91678,39.68297],[-83.91683,39.68296],[-83.91706,39.68292],[-83.91728,39.68288],[-83.91751,39.68283],[-83.91774,39.68279],[-83.91819,39.6827],[-83.91864,39.68261],[-83.91887,39.68257],[-83.9191,39.68254],[-83.91933,39.6825],[-83.91956,39.68247],[-83.91971,39.68244],[-83.91994,39.68241],[-83.9204,39.68233],[-83.92063,39.6823],[-83.92064,39.6823],[-83.92085,39.68226],[-83.92108,39.68222],[-83.92154,39.68215],[-83.92177,39.68211],[-83.92223,39.68204],[-83.92246,39.682],[-83.92268,39.68197],[-83.92337,39.68184],[-83.92405,39.68172],[-83.92428,39.68168],[-83.92446,39.68165],[-83.92563,39.68142],[-83.92608,39.68131],[-83.92691,39.68111],[-83.92719,39.68102],[-83.92741,39.68095],[-83.92806,39.68076],[-83.92828,39.68069],[-83.92871,39.68056],[-83.92879,39.68053],[-83.92884,39.68051],[-83.92887,39.6805],[-83.92889,39.68049],[-83.92891,39.68047],[-83.92892,39.68044],[-83.92893,39.68038],[-83.92892,39.68023],[-83.92892,39.68023],[-83.92902,39.68023],[-83.92915,39.68024],[-83.9292,39.68025],[-83.92927,39.68026],[-83.92929,39.68022],[-83.92929,39.68022],[-83.92929,39.68021],[-83.92931,39.68011],[-83.92939,39.67988],[-83.9294,39.6798],[-83.92949,39.67981],[-83.92949,39.67981],[-83.92964,39.67983],[-83.92966,39.67983],[-83.92968,39.67983],[-83.9299,39.67989],[-83.93035,39.67998],[-83.93039,39.67999],[-83.93068,39.68001],[-83.93084,39.68001],[-83.93105,39.68],[-83.93121,39.67998],[-83.93124,39.67997],[-83.93135,39.67995],[-83.93143,39.67993],[-83.93152,39.67991],[-83.93165,39.67987],[-83.93192,39.67979],[-83.93246,39.67961],[-83.93252,39.67959],[-83.93293,39.67948],[-83.93309,39.67945],[-83.93309,39.67945],[-83.93316,39.67962],[-83.93323,39.67976],[-83.93326,39.67983],[-83.93327,39.67988],[-83.93327,39.67991],[-83.93326,39.67995],[-83.93326,39.68001],[-83.93324,39.68005],[-83.93322,39.68013],[-83.93317,39.68025],[-83.93317,39.68025],[-83.93324,39.68027],[-83.93334,39.68029],[-83.93346,39.68033],[-83.93356,39.68036],[-83.93367,39.6804],[-83.93399,39.68051],[-83.93428,39.68064],[-83.93449,39.68075],[-83.9345,39.68075],[-83.93472,39.68087],[-83.93487,39.68096],[-83.93498,39.68103],[-83.93515,39.68115],[-83.93531,39.68128],[-83.93544,39.68141],[-83.93554,39.68151],[-83.93564,39.68162],[-83.93572,39.6817],[-83.93576,39.68177],[-83.93585,39.68193],[-83.93589,39.682],[-83.93594,39.6821],[-83.93617,39.68261],[-83.93625,39.68279],[-83.93632,39.68295],[-83.93633,39.68299],[-83.93637,39.68313],[-83.93637,39.68313],[-83.93654,39.68311],[-83.9368,39.68308],[-83.93705,39.68306],[-83.93727,39.68304],[-83.9375,39.68302],[-83.93784,39.68299],[-83.93795,39.68298],[-83.93835,39.68294],[-83.9385,39.68292],[-83.93899,39.68287],[-83.93924,39.68285],[-83.9397,39.6828],[-83.9399,39.68279],[-83.94027,39.68278],[-83.94044,39.68277],[-83.94056,39.68277],[-83.94078,39.68275],[-83.94089,39.68274],[-83.94135,39.6827],[-83.9414,39.6827],[-83.94182,39.68266],[-83.94203,39.68263],[-83.94224,39.68261],[-83.94253,39.68258],[-83.94304,39.68253],[-83.94365,39.68247],[-83.94379,39.68245],[-83.94479,39.68235],[-83.94552,39.68227],[-83.94711,39.68211],[-83.94766,39.68206],[-83.94781,39.68204],[-83.94825,39.682],[-83.95004,39.68182],[-83.95088,39.68174],[-83.9512,39.68171],[-83.9512,39.68171],[-83.95138,39.68279],[-83.95145,39.68327],[-83.95151,39.68355],[-83.95151,39.68355],[-83.95223,39.68349],[-83.95339,39.68339],[-83.95512,39.68325],[-83.95541,39.68322],[-83.95572,39.68321],[-83.95626,39.6832],[-83.95727,39.68322],[-83.95891,39.68323],[-83.95907,39.68323],[-83.96008,39.68322],[-83.96032,39.68323],[-83.96045,39.68324],[-83.96059,39.68327],[-83.96074,39.68331],[-83.96085,39.68335],[-83.96097,39.68342],[-83.96108,39.68349],[-83.96118,39.68358],[-83.96148,39.68393],[-83.96196,39.68446],[-83.96208,39.68462],[-83.96212,39.68468],[-83.96215,39.68475],[-83.96218,39.68483],[-83.9622,39.68491],[-83.96221,39.68499],[-83.96221,39.68509],[-83.96217,39.68535],[-83.96217,39.68535],[-83.96288,39.68545],[-83.96313,39.68549],[-83.96363,39.68556],[-83.96369,39.68558],[-83.9639,39.68563],[-83.96404,39.68568],[-83.96413,39.68571],[-83.96417,39.68573],[-83.96426,39.68577],[-83.96428,39.68578],[-83.96438,39.68583],[-83.96459,39.68599],[-83.96459,39.68599],[-83.96479,39.68583],[-83.96492,39.68603]]}}]}