{"type":"FeatureCollection","features":[{"type":"Feature","properties":{"_gpxType":"trk","name":"5905 NY-5 - 633 E 7th St","coordinateProperties":{},"id":2},"geometry":{"type":"LineString","coordinates":[[-79.43495,42.42272],[-79.43492,42.42278],[-79.4347,42.42317],[-79.43451,42.42331],[-79.4345,42.42335],[-79.43446,42.4234],[-79.43437,42.42346],[-79.43435,42.42346],[-79.43424,42.42348],[-79.43412,42.42347],[-79.43402,42.42345],[-79.43315,42.42317],[-79.43303,42.42314],[-79.43275,42.42305],[-79.43244,42.42298],[-79.43223,42.42295],[-79.43203,42.42295],[-79.432,42.42294],[-79.43185,42.42293],[-79.43172,42.4229],[-79.43156,42.42285],[-79.43153,42.42284],[-79.43145,42.42281],[-79.43129,42.42272],[-79.43085,42.42244],[-79.43078,42.42239],[-79.43026,42.42202],[-79.43017,42.42193],[-79.43011,42.42187],[-79.43011,42.42187],[-79.43014,42.42183],[-79.43015,42.4218],[-79.43015,42.42175],[-79.43016,42.42169],[-79.43015,42.42162],[-79.43014,42.42158],[-79.43012,42.42154],[-79.43008,42.42149],[-79.43031,42.42129],[-79.43043,42.42115],[-79.43053,42.42099],[-79.43059,42.42083],[-79.4306,42.42071],[-79.43056,42.42057],[-79.43053,42.42053],[-79.43041,42.42041],[-79.43031,42.4203],[-79.43026,42.42024],[-79.43026,42.42024],[-79.43024,42.42002],[-79.43024,42.41991],[-79.43038,42.41983],[-79.43052,42.41977],[-79.43069,42.4197],[-79.43099,42.41958],[-79.43127,42.41949],[-79.43149,42.41943],[-79.43184,42.41935],[-79.43202,42.41931],[-79.4322,42.41928],[-79.43241,42.41925],[-79.43274,42.41922],[-79.43304,42.41921],[-79.4333,42.4192],[-79.4336,42.4192],[-79.43412,42.4192],[-79.43448,42.4192],[-79.4345,42.4192],[-79.4348,42.4192],[-79.43529,42.4192],[-79.43571,42.4192],[-79.43617,42.41919],[-79.4362,42.41919],[-79.4366,42.41919],[-79.43721,42.41919],[-79.43798,42.41918],[-79.43815,42.41919],[-79.43848,42.41918],[-79.43867,42.41918],[-79.43879,42.41918],[-79.43893,42.41917],[-79.43913,42.41915],[-79.43925,42.41914],[-79.43941,42.41912],[-79.43947,42.41911],[-79.43959,42.4191],[-79.43971,42.41908],[-79.43998,42.41902],[-79.44013,42.41899],[-79.44026,42.41896],[-79.44044,42.41891],[-79.4406,42.41887],[-79.44068,42.41884],[-79.44079,42.4188],[-79.44088,42.41877],[-79.44101,42.41872],[-79.44114,42.41867],[-79.44128,42.41861],[-79.44152,42.41849],[-79.44161,42.41844],[-79.44176,42.41836],[-79.44187,42.4183],[-79.44193,42.41826],[-79.442,42.41822],[-79.44211,42.41815],[-79.44225,42.41805],[-79.4424,42.41794],[-79.44282,42.41765],[-79.44335,42.41726],[-79.44375,42.41697],[-79.44381,42.41692],[-79.44399,42.4168],[-79.44416,42.41667],[-79.44433,42.41654],[-79.44441,42.41649],[-79.4449,42.41613],[-79.44502,42.41604],[-79.44508,42.41599],[-79.44519,42.4159],[-79.44521,42.41589],[-79.44534,42.41579],[-79.44536,42.41578],[-79.44541,42.41574],[-79.44553,42.41565],[-79.44558,42.41562],[-79.44573,42.41552],[-79.44596,42.41535],[-79.44621,42.41517],[-79.44639,42.41503],[-79.44666,42.41483],[-79.44691,42.41464],[-79.44724,42.41441],[-79.44785,42.41396],[-79.44796,42.41388],[-79.4481,42.41378],[-79.44843,42.41353],[-79.44846,42.41351],[-79.44896,42.41314],[-79.44913,42.41302],[-79.4493,42.41289],[-79.44992,42.41244],[-79.45041,42.41209],[-79.45073,42.41187],[-79.451,42.41169],[-79.45112,42.41161],[-79.45122,42.41156],[-79.45137,42.41147],[-79.45147,42.41142],[-79.4518,42.41125],[-79.45243,42.41095],[-79.45246,42.41094],[-79.45261,42.41087],[-79.45287,42.41074],[-79.45301,42.41067],[-79.45307,42.41064],[-79.45328,42.41054],[-79.45355,42.4104],[-79.45376,42.4103],[-79.45398,42.41018],[-79.45427,42.41002],[-79.4544,42.40995],[-79.45447,42.40991],[-79.45467,42.4098],[-79.45485,42.40969],[-79.45488,42.40967],[-79.45504,42.40958],[-79.45543,42.40933],[-79.45577,42.4091],[-79.45595,42.40898],[-79.45613,42.40886],[-79.45627,42.40878],[-79.45649,42.40862],[-79.45668,42.4085],[-79.45684,42.40839],[-79.45686,42.40838],[-79.45704,42.40826],[-79.45707,42.40824],[-79.45723,42.40815],[-79.45731,42.40809],[-79.45762,42.40791],[-79.4578,42.40781],[-79.45803,42.40767],[-79.45832,42.40751],[-79.45873,42.40729],[-79.45899,42.40718],[-79.45915,42.40711],[-79.45938,42.40703],[-79.45942,42.40701],[-79.4596,42.40695],[-79.45963,42.40694],[-79.45983,42.40688],[-79.45988,42.40687],[-79.46012,42.40681],[-79.46029,42.40677],[-79.46048,42.40674],[-79.46057,42.40672],[-79.46078,42.40669],[-79.4608,42.40669],[-79.46102,42.40667],[-79.46103,42.40667],[-79.46116,42.40665],[-79.46129,42.40664],[-79.4614,42.40663],[-79.46148,42.40662],[-79.46151,42.40662],[-79.46158,42.40661],[-79.4617,42.40659],[-79.46174,42.40658],[-79.46189,42.40656],[-79.46198,42.40654],[-79.46201,42.40654],[-79.46215,42.40651],[-79.46222,42.40649],[-79.4623,42.40647],[-79.46244,42.40643],[-79.46266,42.40637],[-79.46275,42.40634],[-79.46282,42.40631],[-79.4629,42.40628],[-79.46298,42.40625],[-79.46311,42.4062],[-79.46325,42.40615],[-79.46353,42.40603],[-79.46406,42.40581],[-79.46416,42.40576],[-79.46418,42.40575],[-79.46474,42.40551],[-79.46541,42.40522],[-79.46542,42.40521],[-79.46557,42.40515],[-79.46577,42.40506],[-79.46584,42.40503],[-79.46596,42.40498],[-79.46625,42.40486],[-79.46635,42.40482],[-79.46656,42.40472],[-79.46668,42.40467],[-79.46683,42.40461],[-79.46707,42.4045],[-79.46718,42.40445],[-79.4673,42.4044],[-79.46731,42.4044],[-79.46752,42.4043],[-79.46786,42.40414],[-79.46847,42.40387],[-79.46915,42.40356],[-79.46978,42.40327],[-79.47042,42.40298],[-79.47068,42.40286],[-79.47085,42.40279],[-79.47171,42.40238],[-79.47174,42.40237],[-79.47277,42.4019],[-79.47316,42.40172],[-79.47337,42.40162],[-79.47342,42.4016],[-79.47357,42.40153],[-79.47373,42.40145],[-79.47401,42.4013],[-79.47424,42.40115],[-79.47434,42.40108],[-79.47444,42.40101],[-79.47451,42.40096],[-79.47473,42.40079],[-79.47484,42.40069],[-79.475,42.40056],[-79.47503,42.40053],[-79.47515,42.40041],[-79.4753,42.40027],[-79.47546,42.40013],[-79.47599,42.39964],[-79.47607,42.39957],[-79.47622,42.39944],[-79.47634,42.39933],[-79.47638,42.3993],[-79.47655,42.39917],[-79.47676,42.39903],[-79.47682,42.399],[-79.47694,42.39893],[-79.47701,42.39889],[-79.47709,42.39885],[-79.47722,42.39879],[-79.47741,42.39872],[-79.47761,42.39865],[-79.47785,42.39857],[-79.47787,42.39856],[-79.47803,42.39851],[-79.4781,42.39849],[-79.47824,42.39846],[-79.47879,42.39832],[-79.47902,42.39827],[-79.47948,42.39815],[-79.47955,42.39813],[-79.47991,42.39803],[-79.48018,42.39795],[-79.48047,42.39785],[-79.48072,42.39775],[-79.48102,42.39761],[-79.48106,42.39759],[-79.48133,42.39745],[-79.48175,42.3972],[-79.48199,42.39706],[-79.48217,42.39696],[-79.48218,42.39695],[-79.48295,42.39651],[-79.48353,42.39619],[-79.48361,42.39614],[-79.48478,42.39548],[-79.48539,42.39514],[-79.48597,42.39482],[-79.48742,42.39401],[-79.48765,42.39388],[-79.48881,42.39322],[-79.48964,42.39275],[-79.49033,42.39233],[-79.49037,42.3923],[-79.49149,42.39166],[-79.4916,42.3916],[-79.49168,42.39156],[-79.49187,42.39145],[-79.49207,42.39134],[-79.49312,42.39076],[-79.49342,42.39059],[-79.49383,42.39034],[-79.49424,42.39009],[-79.49471,42.38981],[-79.4949,42.3897],[-79.49493,42.38968],[-79.49509,42.38959],[-79.49549,42.38936],[-79.49624,42.38893],[-79.49625,42.38892],[-79.49643,42.38882],[-79.49662,42.38871],[-79.49701,42.38848],[-79.49709,42.38844],[-79.4974,42.38827],[-79.49759,42.38816],[-79.49778,42.38805],[-79.49821,42.3878],[-79.49888,42.38743],[-79.49914,42.38728],[-79.49979,42.38692],[-79.5003,42.38663],[-79.50038,42.38658],[-79.50049,42.38652],[-79.50101,42.38623],[-79.50172,42.38583],[-79.50185,42.38576],[-79.50244,42.38543],[-79.50263,42.38533],[-79.50287,42.3852],[-79.50302,42.38511],[-79.50321,42.385],[-79.50333,42.38494],[-79.5036,42.38479],[-79.50399,42.38457],[-79.50458,42.38425],[-79.50484,42.3841],[-79.50516,42.38392],[-79.50535,42.38382],[-79.50593,42.38349],[-79.507,42.38289],[-79.50758,42.38257],[-79.50801,42.38233],[-79.50836,42.38213],[-79.50894,42.38181],[-79.50895,42.3818],[-79.50914,42.3817],[-79.50933,42.38159],[-79.50952,42.38148],[-79.50991,42.38126],[-79.51011,42.38115],[-79.51018,42.38111],[-79.51101,42.38066],[-79.51128,42.38051],[-79.51187,42.38017],[-79.51224,42.37996],[-79.51244,42.37986],[-79.51263,42.37975],[-79.51266,42.37973],[-79.51283,42.37964],[-79.51302,42.37953],[-79.51373,42.37913],[-79.51399,42.37899],[-79.51419,42.37888],[-79.51504,42.3784],[-79.5153,42.37825],[-79.51541,42.37818],[-79.51546,42.37814],[-79.51561,42.37803],[-79.51569,42.37797],[-79.5158,42.37787],[-79.51586,42.37782],[-79.51592,42.37776],[-79.51598,42.37771],[-79.51601,42.37767],[-79.51609,42.37759],[-79.51615,42.37751],[-79.51621,42.37743],[-79.51628,42.37733],[-79.51638,42.37718],[-79.51644,42.37707],[-79.51645,42.37705],[-79.5165,42.37696],[-79.51653,42.37691],[-79.51661,42.37674],[-79.51662,42.37673],[-79.51685,42.37626],[-79.51695,42.3761],[-79.51701,42.376],[-79.51707,42.37589],[-79.51714,42.37577],[-79.51726,42.37561],[-79.51742,42.37541],[-79.51753,42.37528],[-79.51771,42.37508],[-79.51798,42.37479],[-79.51823,42.37453],[-79.51834,42.37441],[-79.51859,42.37417],[-79.51866,42.3741],[-79.5188,42.37396],[-79.51901,42.37376],[-79.51926,42.37354],[-79.51941,42.37339],[-79.51946,42.37335],[-79.51966,42.37318],[-79.51974,42.37313],[-79.5199,42.373],[-79.51991,42.37299],[-79.52007,42.37287],[-79.52016,42.3728],[-79.52037,42.37265],[-79.52068,42.37244],[-79.52078,42.37237],[-79.52102,42.37221],[-79.52114,42.37213],[-79.52123,42.37207],[-79.52132,42.37201],[-79.5215,42.37188],[-79.52183,42.37165],[-79.52201,42.37154],[-79.52233,42.3713],[-79.5227,42.37106],[-79.52297,42.37087],[-79.52333,42.37063],[-79.52365,42.37043],[-79.52395,42.37027],[-79.52432,42.37007],[-79.52465,42.36991],[-79.52485,42.36981],[-79.52487,42.3698],[-79.52546,42.36953],[-79.52587,42.36932],[-79.5262,42.36917],[-79.5271,42.36874],[-79.5273,42.36865],[-79.52731,42.36864],[-79.52833,42.36816],[-79.52862,42.36802],[-79.52956,42.36757],[-79.52976,42.36747],[-79.52997,42.36738],[-79.53004,42.36734],[-79.53037,42.36718],[-79.53058,42.36708],[-79.53153,42.36662],[-79.53198,42.3664],[-79.53215,42.36632],[-79.53218,42.36631],[-79.53269,42.36606],[-79.5328,42.36601],[-79.53362,42.36563],[-79.53399,42.36545],[-79.53426,42.36532],[-79.53449,42.36521],[-79.53472,42.3651],[-79.53503,42.36495],[-79.53542,42.36477],[-79.53555,42.3647],[-79.53575,42.3646],[-79.53582,42.36457],[-79.53596,42.3645],[-79.53616,42.3644],[-79.53633,42.36432],[-79.53682,42.36409],[-79.53738,42.36381],[-79.53783,42.3636],[-79.53957,42.36277],[-79.53986,42.36263],[-79.54017,42.36248],[-79.54025,42.36244],[-79.54071,42.36222],[-79.54133,42.36193],[-79.5416,42.3618],[-79.54181,42.3617],[-79.54201,42.3616],[-79.54262,42.36131],[-79.54274,42.36125],[-79.54283,42.36121],[-79.54303,42.36111],[-79.54324,42.36101],[-79.54412,42.36059],[-79.54466,42.36033],[-79.54473,42.36029],[-79.54589,42.35974],[-79.54629,42.35954],[-79.54699,42.35921],[-79.54731,42.35905],[-79.54752,42.35895],[-79.54772,42.35885],[-79.54792,42.35875],[-79.54812,42.35865],[-79.54828,42.35857],[-79.55004,42.35773],[-79.55077,42.35737],[-79.5513,42.35711],[-79.5515,42.35701],[-79.55211,42.35671],[-79.55244,42.35654],[-79.55261,42.35646],[-79.55429,42.35561],[-79.55458,42.35547],[-79.55587,42.35481],[-79.55589,42.3548],[-79.5561,42.3547],[-79.55674,42.35438],[-79.55721,42.35414],[-79.5575,42.35399],[-79.55777,42.35386],[-79.55811,42.35369],[-79.55871,42.35338],[-79.55877,42.35335],[-79.55891,42.35328],[-79.55915,42.35316],[-79.55948,42.35299],[-79.55952,42.35298],[-79.55981,42.35283],[-79.56003,42.35272],[-79.56034,42.35259],[-79.5604,42.35256],[-79.56055,42.3525],[-79.56076,42.35241],[-79.56093,42.35233],[-79.56097,42.35232],[-79.56118,42.35223],[-79.56139,42.35214],[-79.56267,42.35162],[-79.56288,42.35153],[-79.56372,42.35118],[-79.56415,42.351],[-79.56489,42.3507],[-79.56531,42.35053],[-79.56552,42.35044],[-79.56573,42.35035],[-79.56648,42.35003],[-79.56673,42.34993],[-79.56694,42.34983],[-79.56715,42.34974],[-79.56732,42.34967],[-79.56736,42.34965],[-79.56757,42.34956],[-79.56794,42.34941],[-79.56799,42.34938],[-79.56841,42.3492],[-79.56856,42.34914],[-79.56912,42.3489],[-79.56925,42.34884],[-79.56946,42.34875],[-79.56954,42.34871],[-79.5703,42.34838],[-79.57064,42.34823],[-79.57106,42.34805],[-79.57191,42.34768],[-79.57253,42.34741],[-79.57262,42.34737],[-79.57319,42.34712],[-79.57379,42.34687],[-79.57438,42.34661],[-79.57477,42.34644],[-79.57568,42.34605],[-79.576,42.34591],[-79.5763,42.34577],[-79.5767,42.3456],[-79.57722,42.34538],[-79.57737,42.34531],[-79.57773,42.34516],[-79.57799,42.34504],[-79.57846,42.34482],[-79.57887,42.34463],[-79.57897,42.34458],[-79.57906,42.34454],[-79.57908,42.34453],[-79.57945,42.34436],[-79.57968,42.34425],[-79.5799,42.34414],[-79.58016,42.34402],[-79.5804,42.34392],[-79.58043,42.34391],[-79.58063,42.34383],[-79.58103,42.34365],[-79.58125,42.34358],[-79.58138,42.34354],[-79.58158,42.34348],[-79.5818,42.34343],[-79.58202,42.34339],[-79.58224,42.34335],[-79.58264,42.34324],[-79.58321,42.34309],[-79.58387,42.34297],[-79.58443,42.34287],[-79.58548,42.34268],[-79.58634,42.34252],[-79.58723,42.34236],[-79.58747,42.34232],[-79.58757,42.3423],[-79.58816,42.34219],[-79.58845,42.34214],[-79.58922,42.342],[-79.58936,42.34197],[-79.58944,42.34195],[-79.58983,42.34188],[-79.58998,42.34185],[-79.59006,42.34184],[-79.59011,42.34183],[-79.59065,42.34173],[-79.59092,42.34168],[-79.59101,42.34166],[-79.59139,42.3416],[-79.59139,42.34159],[-79.59148,42.34158],[-79.5918,42.34152],[-79.59187,42.34151],[-79.59195,42.34149],[-79.59219,42.34145],[-79.59258,42.34138],[-79.59304,42.34129],[-79.59353,42.34121],[-79.59382,42.34119],[-79.59406,42.34117],[-79.5942,42.34115],[-79.5944,42.34111],[-79.59456,42.34107],[-79.5947,42.34103],[-79.59482,42.34099],[-79.5951,42.3409],[-79.59533,42.3408],[-79.59549,42.34073],[-79.59558,42.34068],[-79.59566,42.34064],[-79.59579,42.34058],[-79.59582,42.34056],[-79.59598,42.34047],[-79.59612,42.3404],[-79.5965,42.3402],[-79.59689,42.33999],[-79.59738,42.33973],[-79.59774,42.33953],[-79.59784,42.33948],[-79.59889,42.3389],[-79.59909,42.33878],[-79.59928,42.33867],[-79.5994,42.33859],[-79.59975,42.33838],[-79.59989,42.33828],[-79.6,42.3382],[-79.6001,42.33813],[-79.60022,42.33804],[-79.6003,42.33798],[-79.60049,42.33783],[-79.6006,42.33774],[-79.60081,42.33758],[-79.60095,42.33748],[-79.60115,42.3373],[-79.60143,42.33707],[-79.6016,42.33694],[-79.60164,42.3369],[-79.60177,42.3368],[-79.6021,42.33653],[-79.6025,42.3362],[-79.60274,42.33601],[-79.60288,42.3359],[-79.6034,42.33548],[-79.60345,42.33544],[-79.60366,42.33526],[-79.60379,42.33516],[-79.60403,42.33496],[-79.60428,42.33476],[-79.60457,42.33452],[-79.6047,42.33442],[-79.60487,42.33427],[-79.60502,42.33416],[-79.60517,42.33403],[-79.60573,42.33358],[-79.60661,42.33287],[-79.60734,42.33226],[-79.60814,42.33161],[-79.60822,42.33155],[-79.60866,42.3312],[-79.60913,42.33084],[-79.60984,42.33035],[-79.61002,42.33022],[-79.61036,42.32999],[-79.6109,42.32965],[-79.61091,42.32964],[-79.61129,42.3294],[-79.61147,42.32928],[-79.61163,42.32918],[-79.61184,42.32906],[-79.61185,42.32905],[-79.61229,42.32879],[-79.61285,42.32847],[-79.61325,42.32823],[-79.61376,42.32794],[-79.61489,42.32729],[-79.61535,42.32704],[-79.61554,42.32693],[-79.61588,42.32673],[-79.61635,42.32639],[-79.61658,42.32625],[-79.61686,42.32609],[-79.61755,42.3257],[-79.61788,42.32553],[-79.61809,42.32544],[-79.61874,42.32519],[-79.61924,42.325],[-79.61948,42.32491],[-79.61969,42.32482],[-79.61971,42.32481],[-79.62033,42.32451],[-79.62105,42.32413],[-79.62168,42.3238],[-79.62222,42.32351],[-79.62259,42.32332],[-79.62293,42.32314],[-79.62295,42.32313],[-79.62313,42.32304],[-79.62353,42.32283],[-79.62431,42.32242],[-79.62494,42.32208],[-79.6253,42.32189],[-79.62576,42.32173],[-79.62667,42.32124],[-79.62706,42.32103],[-79.62746,42.32082],[-79.62803,42.32052],[-79.62823,42.32041],[-79.62965,42.31967],[-79.63061,42.31917],[-79.63081,42.31907],[-79.63101,42.31897],[-79.63106,42.31894],[-79.63189,42.31852],[-79.63221,42.31835],[-79.63282,42.31803],[-79.63302,42.31793],[-79.63322,42.31783],[-79.63331,42.31778],[-79.63342,42.31772],[-79.6339,42.31748],[-79.63417,42.31735],[-79.63429,42.31729],[-79.63443,42.31722],[-79.63464,42.31713],[-79.63471,42.3171],[-79.63487,42.31702],[-79.63509,42.31694],[-79.63521,42.31689],[-79.63533,42.31684],[-79.63543,42.31681],[-79.63571,42.31671],[-79.63594,42.31664],[-79.63672,42.31638],[-79.63721,42.31622],[-79.63723,42.31621],[-79.63812,42.31592],[-79.63869,42.31574],[-79.63879,42.3157],[-79.63901,42.31562],[-79.63911,42.31558],[-79.63923,42.31553],[-79.63935,42.31547],[-79.63945,42.31542],[-79.63958,42.31534],[-79.63971,42.31526],[-79.6398,42.31521],[-79.63986,42.31517],[-79.64037,42.31482],[-79.64103,42.31438],[-79.6416,42.31398],[-79.64255,42.31333],[-79.64297,42.31303],[-79.64335,42.31277],[-79.64362,42.31258],[-79.64382,42.31244],[-79.64388,42.31239],[-79.64404,42.31228],[-79.64405,42.31227],[-79.64464,42.31184],[-79.64481,42.31171],[-79.645,42.31158],[-79.64517,42.31146],[-79.64527,42.3114],[-79.64542,42.31131],[-79.64554,42.31125],[-79.6457,42.31117],[-79.64585,42.3111],[-79.64609,42.31101],[-79.64638,42.31089],[-79.64713,42.3106],[-79.64799,42.31026],[-79.64928,42.30976],[-79.6498,42.30955],[-79.65029,42.30936],[-79.6505,42.30927],[-79.65068,42.30919],[-79.65087,42.30911],[-79.65104,42.30903],[-79.65116,42.30897],[-79.65119,42.30895],[-79.65131,42.30888],[-79.65148,42.30879],[-79.65162,42.30871],[-79.65177,42.30863],[-79.65194,42.30852],[-79.65196,42.30851],[-79.65235,42.30827],[-79.6528,42.30799],[-79.65307,42.30782],[-79.65327,42.30769],[-79.65405,42.3072],[-79.6543,42.30703],[-79.65453,42.30689],[-79.65486,42.30668],[-79.65522,42.30645],[-79.65523,42.30645],[-79.65568,42.30617],[-79.65589,42.30605],[-79.65598,42.30599],[-79.65607,42.30594],[-79.65617,42.30588],[-79.65626,42.30583],[-79.65635,42.30579],[-79.65649,42.30572],[-79.65661,42.30566],[-79.65671,42.30562],[-79.65687,42.30555],[-79.65721,42.30542],[-79.65742,42.30533],[-79.65755,42.30528],[-79.6585,42.3049],[-79.6587,42.30482],[-79.65915,42.30464],[-79.65962,42.30445],[-79.66024,42.30419],[-79.66048,42.30408],[-79.66069,42.30399],[-79.66085,42.30393],[-79.66111,42.30381],[-79.66132,42.30372],[-79.66153,42.30363],[-79.66204,42.30341],[-79.66247,42.30323],[-79.66293,42.30304],[-79.66343,42.30283],[-79.66345,42.30283],[-79.66365,42.30275],[-79.66386,42.30266],[-79.66398,42.30261],[-79.66471,42.30232],[-79.665,42.3022],[-79.66535,42.30206],[-79.66542,42.30203],[-79.66556,42.30197],[-79.66562,42.30194],[-79.66577,42.30188],[-79.66589,42.30182],[-79.66602,42.30176],[-79.66619,42.30167],[-79.66638,42.30157],[-79.66659,42.30146],[-79.66674,42.30137],[-79.66701,42.30121],[-79.66729,42.30105],[-79.66802,42.30065],[-79.66867,42.30029],[-79.66923,42.29997],[-79.66944,42.29986],[-79.66979,42.29966],[-79.6702,42.29943],[-79.67039,42.29932],[-79.67073,42.29913],[-79.67097,42.29899],[-79.67109,42.29893],[-79.67145,42.29873],[-79.67156,42.29867],[-79.67175,42.29856],[-79.67192,42.29846],[-79.67194,42.29845],[-79.67209,42.29837],[-79.67251,42.29814],[-79.67253,42.29813],[-79.67278,42.29801],[-79.67305,42.29788],[-79.67317,42.29782],[-79.67327,42.29778],[-79.67356,42.29765],[-79.67378,42.29755],[-79.67401,42.29745],[-79.67422,42.29736],[-79.67435,42.2973],[-79.67484,42.2971],[-79.67485,42.29709],[-79.67524,42.29693],[-79.67549,42.29683],[-79.67612,42.29656],[-79.67633,42.29647],[-79.67739,42.29603],[-79.67771,42.29589],[-79.67799,42.29578],[-79.67823,42.29567],[-79.6786,42.29551],[-79.6793,42.29522],[-79.67951,42.29513],[-79.67962,42.29508],[-79.68057,42.29468],[-79.68165,42.29424],[-79.68186,42.29415],[-79.68214,42.29403],[-79.68266,42.29381],[-79.68271,42.2938],[-79.68292,42.29371],[-79.68306,42.29365],[-79.68313,42.29362],[-79.68344,42.2935],[-79.68356,42.29345],[-79.68393,42.2933],[-79.68399,42.29328],[-79.68435,42.29314],[-79.68457,42.29306],[-79.68476,42.29298],[-79.68507,42.29287],[-79.6852,42.29282],[-79.68553,42.2927],[-79.68579,42.29262],[-79.68595,42.29257],[-79.68599,42.29256],[-79.68618,42.29251],[-79.68642,42.29244],[-79.68664,42.29239],[-79.68724,42.29224],[-79.6878,42.29211],[-79.68785,42.29209],[-79.68838,42.29197],[-79.68882,42.29187],[-79.68896,42.29184],[-79.68918,42.29178],[-79.68942,42.29173],[-79.6896,42.29169],[-79.68965,42.29168],[-79.68981,42.29165],[-79.69002,42.29161],[-79.69044,42.29153],[-79.69106,42.29141],[-79.69166,42.2913],[-79.69201,42.29124],[-79.69243,42.29116],[-79.69282,42.29109],[-79.69317,42.29103],[-79.69349,42.29097],[-79.69377,42.29091],[-79.6939,42.29089],[-79.69408,42.29086],[-79.69413,42.29085],[-79.69437,42.2908],[-79.69438,42.2908],[-79.69457,42.29077],[-79.69461,42.29076],[-79.69481,42.29072],[-79.69503,42.29068],[-79.69512,42.29066],[-79.69522,42.29063],[-79.69529,42.29062],[-79.69537,42.2906],[-79.69552,42.29055],[-79.69573,42.29049],[-79.69576,42.29048],[-79.6959,42.29043],[-79.69607,42.29037],[-79.69626,42.2903],[-79.69653,42.2902],[-79.69676,42.29011],[-79.69704,42.29],[-79.69751,42.28982],[-79.6981,42.28959],[-79.69878,42.28932],[-79.69899,42.28924],[-79.69921,42.28915],[-79.69942,42.28907],[-79.69945,42.28906],[-79.69985,42.2889],[-79.69986,42.2889],[-79.70007,42.28882],[-79.70024,42.28875],[-79.7005,42.28865],[-79.70059,42.28862],[-79.70072,42.28857],[-79.70086,42.28852],[-79.70137,42.28833],[-79.70159,42.28825],[-79.70178,42.28818],[-79.70181,42.28817],[-79.70203,42.28809],[-79.70224,42.28801],[-79.70225,42.28801],[-79.70246,42.28793],[-79.70268,42.28785],[-79.70285,42.28779],[-79.70355,42.28753],[-79.70398,42.28737],[-79.7041,42.28732],[-79.7042,42.28729],[-79.70464,42.28713],[-79.70476,42.28708],[-79.70545,42.28683],[-79.70573,42.28673],[-79.70594,42.28665],[-79.70616,42.28657],[-79.70626,42.28654],[-79.70638,42.28649],[-79.70682,42.28634],[-79.70694,42.2863],[-79.70759,42.28607],[-79.7077,42.28603],[-79.70792,42.28595],[-79.70814,42.28587],[-79.70822,42.28584],[-79.70836,42.28579],[-79.70858,42.28572],[-79.7088,42.28564],[-79.70928,42.28547],[-79.70989,42.28526],[-79.71021,42.28514],[-79.71088,42.28491],[-79.7111,42.28483],[-79.71148,42.28469],[-79.71198,42.28452],[-79.71232,42.28439],[-79.71298,42.28415],[-79.71319,42.28407],[-79.71363,42.2839],[-79.71388,42.28381],[-79.71414,42.28372],[-79.71459,42.28354],[-79.71505,42.28335],[-79.71514,42.28332],[-79.71535,42.28323],[-79.71543,42.2832],[-79.71581,42.28305],[-79.71604,42.28295],[-79.71625,42.28287],[-79.71642,42.2828],[-79.71663,42.28272],[-79.71668,42.2827],[-79.71685,42.28264],[-79.71707,42.28255],[-79.71728,42.28247],[-79.71744,42.2824],[-79.71771,42.2823],[-79.71778,42.28227],[-79.71792,42.28222],[-79.718,42.28219],[-79.71822,42.28211],[-79.71848,42.28202],[-79.71876,42.28191],[-79.71914,42.28178],[-79.71958,42.28162],[-79.71994,42.28149],[-79.72027,42.28137],[-79.72057,42.28126],[-79.72079,42.28119],[-79.72102,42.28111],[-79.72137,42.281],[-79.7217,42.2809],[-79.722,42.28082],[-79.72224,42.28077],[-79.72248,42.28072],[-79.72296,42.28061],[-79.72329,42.28054],[-79.72368,42.28047],[-79.72379,42.28045],[-79.7241,42.28038],[-79.7248,42.28024],[-79.72513,42.28016],[-79.72568,42.28003],[-79.72588,42.27999],[-79.72603,42.27994],[-79.72605,42.27994],[-79.72617,42.27991],[-79.72636,42.27986],[-79.72667,42.27978],[-79.72685,42.27972],[-79.72704,42.27966],[-79.72714,42.27963],[-79.72717,42.27962],[-79.72724,42.27959],[-79.72735,42.27955],[-79.72739,42.27954],[-79.72745,42.27952],[-79.72757,42.27947],[-79.72775,42.27941],[-79.72797,42.27932],[-79.72819,42.27923],[-79.72865,42.27905],[-79.72889,42.27895],[-79.72898,42.27892],[-79.72924,42.27881],[-79.72932,42.27878],[-79.72945,42.27873],[-79.72957,42.27867],[-79.72969,42.27861],[-79.72977,42.27858],[-79.72986,42.27853],[-79.72998,42.27846],[-79.73012,42.27838],[-79.73035,42.27823],[-79.73055,42.27811],[-79.73066,42.27805],[-79.73075,42.27798],[-79.73095,42.27784],[-79.73115,42.27771],[-79.73147,42.27748],[-79.73168,42.27734],[-79.73211,42.27704],[-79.73224,42.27696],[-79.73237,42.27688],[-79.73238,42.27687],[-79.73253,42.27679],[-79.73268,42.2767],[-79.73275,42.27666],[-79.73295,42.27655],[-79.73315,42.27645],[-79.73334,42.27634],[-79.73355,42.27623],[-79.73402,42.27599],[-79.73453,42.27573],[-79.73454,42.27572],[-79.73474,42.27562],[-79.73515,42.27542],[-79.73519,42.2754],[-79.73574,42.27513],[-79.73589,42.27506],[-79.73596,42.27503],[-79.73606,42.27498],[-79.73627,42.27489],[-79.73645,42.27482],[-79.7366,42.27476],[-79.73682,42.27468],[-79.73711,42.27458],[-79.73725,42.27453],[-79.73747,42.27446],[-79.73754,42.27444],[-79.7377,42.27439],[-79.73779,42.27436],[-79.73805,42.27428],[-79.73845,42.27416],[-79.73889,42.27403],[-79.73936,42.27389],[-79.73973,42.27378],[-79.73984,42.27375],[-79.74,42.2737],[-79.74017,42.27365],[-79.74057,42.27354],[-79.74132,42.27333],[-79.74216,42.27309],[-79.74226,42.27307],[-79.74249,42.273],[-79.74272,42.27294],[-79.74365,42.27272],[-79.74388,42.27267],[-79.7448,42.27244],[-79.74535,42.27231],[-79.74565,42.27223],[-79.74591,42.27215],[-79.74614,42.27208],[-79.74617,42.27207],[-79.74636,42.27201],[-79.74647,42.27198],[-79.74658,42.27194],[-79.74672,42.2719],[-79.74701,42.2718],[-79.74727,42.2717],[-79.74754,42.2716],[-79.74811,42.27138],[-79.74912,42.271],[-79.74976,42.27076],[-79.75033,42.27054],[-79.75096,42.2703],[-79.75168,42.27002],[-79.75174,42.27],[-79.75195,42.26992],[-79.75223,42.2698],[-79.75303,42.26949],[-79.75328,42.2694],[-79.75344,42.26934],[-79.75358,42.26929],[-79.75385,42.2692],[-79.75399,42.26916],[-79.75409,42.26914],[-79.75429,42.26909],[-79.7545,42.26904],[-79.75465,42.26901],[-79.75516,42.26891],[-79.75563,42.26882],[-79.75575,42.26879],[-79.75625,42.2687],[-79.75657,42.26864],[-79.75681,42.26859],[-79.75684,42.26858],[-79.75728,42.2685],[-79.75763,42.26843],[-79.75775,42.26841],[-79.75798,42.26836],[-79.75814,42.26833],[-79.75822,42.26831],[-79.75845,42.26827],[-79.75864,42.26823],[-79.75903,42.26815],[-79.75919,42.26812],[-79.75977,42.26801],[-79.7601,42.26795],[-79.76081,42.26781],[-79.76154,42.26766],[-79.7619,42.26757],[-79.7619,42.26757],[-79.76224,42.26747],[-79.76275,42.26731],[-79.76276,42.2673],[-79.76399,42.26688],[-79.76412,42.26683],[-79.76482,42.26659],[-79.76519,42.26646],[-79.76541,42.26639],[-79.76563,42.26631],[-79.76805,42.26548],[-79.76917,42.26509],[-79.76937,42.26503],[-79.7696,42.26495],[-79.77101,42.26447],[-79.77164,42.26424],[-79.77237,42.26395],[-79.77272,42.2638],[-79.77297,42.26368],[-79.77414,42.26313],[-79.77435,42.26303],[-79.77688,42.26182],[-79.77783,42.2614],[-79.77927,42.26072],[-79.78032,42.26021],[-79.78134,42.25972],[-79.78287,42.25902],[-79.78451,42.25825],[-79.78544,42.25782],[-79.78728,42.25692],[-79.78836,42.25643],[-79.79066,42.25535],[-79.79204,42.25469],[-79.79211,42.25466],[-79.79307,42.25423],[-79.7964,42.25278],[-79.79658,42.2527],[-79.7969,42.25256],[-79.79824,42.25199],[-79.79893,42.25168],[-79.80075,42.25091],[-79.80173,42.25048],[-79.80258,42.2501],[-79.80299,42.24993],[-79.8032,42.24984],[-79.80341,42.24975],[-79.80397,42.24951],[-79.80488,42.24911],[-79.80516,42.24899],[-79.80655,42.24838],[-79.80718,42.24811],[-79.8076,42.24793],[-79.80781,42.24783],[-79.80906,42.24729],[-79.80997,42.24689],[-79.81091,42.24649],[-79.81101,42.24645],[-79.8118,42.24611],[-79.81344,42.24541],[-79.81388,42.24522],[-79.81544,42.24454],[-79.81574,42.24441],[-79.81593,42.24433],[-79.81864,42.24315],[-79.8193,42.24286],[-79.81991,42.2426],[-79.8204,42.24238],[-79.82076,42.24223],[-79.82089,42.24217],[-79.82124,42.24202],[-79.82185,42.24175],[-79.82226,42.24158],[-79.82268,42.24144],[-79.82306,42.24128],[-79.82344,42.24112],[-79.82354,42.24107],[-79.82375,42.24098],[-79.82435,42.24072],[-79.82498,42.24045],[-79.82518,42.24035],[-79.82623,42.2399],[-79.82659,42.23974],[-79.82678,42.23965],[-79.82716,42.23947],[-79.82744,42.23933],[-79.82777,42.23917],[-79.828,42.23906],[-79.8283,42.23892],[-79.82882,42.23866],[-79.82911,42.23852],[-79.82962,42.23827],[-79.82963,42.23827],[-79.82972,42.23822],[-79.83032,42.23792],[-79.83052,42.23782],[-79.8307,42.23777],[-79.83077,42.23775],[-79.83092,42.23768],[-79.83234,42.237],[-79.83258,42.23688],[-79.83278,42.23679],[-79.83295,42.23671],[-79.83316,42.23662],[-79.83364,42.23642],[-79.8342,42.23622],[-79.83463,42.23605],[-79.83485,42.23597],[-79.83486,42.23597],[-79.83551,42.23574],[-79.83573,42.23567],[-79.83683,42.23529],[-79.83731,42.23513],[-79.83741,42.2351],[-79.83778,42.23499],[-79.83795,42.23494],[-79.83823,42.23485],[-79.83919,42.23458],[-79.83954,42.23449],[-79.84014,42.23433],[-79.84042,42.23425],[-79.84068,42.2342],[-79.84103,42.23412],[-79.84104,42.23412],[-79.84142,42.23405],[-79.84198,42.23395],[-79.84286,42.23378],[-79.84402,42.2336],[-79.84487,42.2334],[-79.84494,42.23338],[-79.845,42.23336],[-79.8451,42.23332],[-79.84537,42.23326],[-79.84596,42.23314],[-79.84646,42.23306],[-79.8466,42.23303],[-79.84708,42.23295],[-79.84726,42.23291],[-79.84796,42.23276],[-79.84816,42.23273],[-79.84868,42.23263],[-79.84871,42.23263],[-79.84894,42.23258],[-79.8492,42.23253],[-79.84941,42.23249],[-79.84965,42.23245],[-79.8499,42.23241],[-79.85036,42.23233],[-79.85086,42.23224],[-79.85149,42.23214],[-79.85155,42.23213],[-79.85178,42.23209],[-79.85202,42.23204],[-79.85276,42.23193],[-79.85317,42.23185],[-79.85374,42.23176],[-79.85419,42.23168],[-79.85446,42.23164],[-79.8549,42.23156],[-79.85527,42.23149],[-79.85579,42.23141],[-79.8562,42.23134],[-79.8566,42.23128],[-79.85704,42.2312],[-79.85707,42.2312],[-79.85727,42.23116],[-79.85738,42.23114],[-79.85755,42.23111],[-79.85769,42.23108],[-79.85813,42.23098],[-79.85865,42.23088],[-79.85882,42.23083],[-79.85928,42.23073],[-79.85983,42.2306],[-79.8599,42.23059],[-79.86072,42.23038],[-79.86126,42.23026],[-79.86196,42.23008],[-79.86226,42.23],[-79.86277,42.22987],[-79.86302,42.2298],[-79.86321,42.22975],[-79.86368,42.22963],[-79.86383,42.2296],[-79.86477,42.22936],[-79.86522,42.22925],[-79.86542,42.2292],[-79.86595,42.22906],[-79.86598,42.22905],[-79.86655,42.2289],[-79.86721,42.22875],[-79.86776,42.22861],[-79.86828,42.22847],[-79.86838,42.22845],[-79.86851,42.22841],[-79.86904,42.22828],[-79.86967,42.22813],[-79.87035,42.22796],[-79.87104,42.22778],[-79.87181,42.22755],[-79.87228,42.22741],[-79.87261,42.22731],[-79.87263,42.2273],[-79.87275,42.22726],[-79.87297,42.2272],[-79.87349,42.22704],[-79.87423,42.22678],[-79.87497,42.22652],[-79.87549,42.22633],[-79.87625,42.22606],[-79.8765,42.22597],[-79.87699,42.2258],[-79.877,42.22579],[-79.87768,42.22555],[-79.87834,42.22532],[-79.8787,42.22519],[-79.879,42.22508],[-79.87922,42.225],[-79.87972,42.22482],[-79.88011,42.22468],[-79.88083,42.22443],[-79.88113,42.22433],[-79.88149,42.2242],[-79.88195,42.22402],[-79.882,42.224],[-79.88242,42.22384],[-79.88266,42.22372],[-79.88352,42.22334],[-79.88372,42.22325],[-79.88386,42.22318],[-79.88407,42.22307],[-79.88427,42.22296],[-79.88433,42.22293],[-79.88453,42.22282],[-79.88482,42.22266],[-79.88508,42.22251],[-79.88541,42.22233],[-79.88563,42.2222],[-79.88618,42.22187],[-79.88657,42.22164],[-79.88711,42.22132],[-79.88807,42.22077],[-79.88828,42.22064],[-79.88931,42.22004],[-79.88933,42.22003],[-79.88967,42.21984],[-79.89024,42.2195],[-79.89048,42.21936],[-79.89124,42.21892],[-79.89129,42.21888],[-79.89143,42.2188],[-79.89153,42.21874],[-79.89169,42.21864],[-79.89186,42.21854],[-79.8922,42.21832],[-79.89254,42.21811],[-79.8927,42.218],[-79.89287,42.21789],[-79.8932,42.21767],[-79.89352,42.21744],[-79.89379,42.21726],[-79.89397,42.21713],[-79.89405,42.21707],[-79.89427,42.21692],[-79.89432,42.21688],[-79.89449,42.21677],[-79.89485,42.21651],[-79.89502,42.21639],[-79.8952,42.21626],[-79.89538,42.21614],[-79.89545,42.21609],[-79.89587,42.21579],[-79.89641,42.21541],[-79.89704,42.21496],[-79.89769,42.2145],[-79.89812,42.21419],[-79.8985,42.21393],[-79.89853,42.2139],[-79.89906,42.21353],[-79.89932,42.21335],[-79.89941,42.21328],[-79.89959,42.21316],[-79.8996,42.21315],[-79.90009,42.2128],[-79.90012,42.21279],[-79.90029,42.21266],[-79.90064,42.21241],[-79.90076,42.21233],[-79.90082,42.21229],[-79.90133,42.21192],[-79.90152,42.21179],[-79.90171,42.21166],[-79.90199,42.21147],[-79.90221,42.21133],[-79.90224,42.21131],[-79.90248,42.21117],[-79.90261,42.21109],[-79.90281,42.21097],[-79.90312,42.21081],[-79.90333,42.2107],[-79.90356,42.21059],[-79.90377,42.21049],[-79.9039,42.21044],[-79.90404,42.21038],[-79.90415,42.21033],[-79.90429,42.21027],[-79.90451,42.21019],[-79.90475,42.2101],[-79.90491,42.21004],[-79.90519,42.20995],[-79.9055,42.20986],[-79.90578,42.20978],[-79.90611,42.20968],[-79.90649,42.20957],[-79.90728,42.20935],[-79.90755,42.20928],[-79.90778,42.20922],[-79.908,42.20916],[-79.90821,42.20912],[-79.90845,42.20907],[-79.90871,42.20903],[-79.90897,42.209],[-79.90915,42.20898],[-79.90919,42.20897],[-79.90939,42.20896],[-79.90965,42.20895],[-79.9099,42.20894],[-79.91004,42.20895],[-79.91018,42.20895],[-79.91036,42.20896],[-79.91048,42.20897],[-79.91076,42.20899],[-79.91084,42.209],[-79.91108,42.20902],[-79.91133,42.20904],[-79.91149,42.20905],[-79.91157,42.20906],[-79.9116,42.20906],[-79.91176,42.20907],[-79.91189,42.20908],[-79.91198,42.20908],[-79.91205,42.20908],[-79.91207,42.20908],[-79.91219,42.20907],[-79.91232,42.20907],[-79.91247,42.20906],[-79.91254,42.20906],[-79.91265,42.20905],[-79.91281,42.20903],[-79.91296,42.20901],[-79.91312,42.20899],[-79.91326,42.20896],[-79.91343,42.20892],[-79.9136,42.20889],[-79.91372,42.20886],[-79.91386,42.20882],[-79.91395,42.2088],[-79.91399,42.20879],[-79.91414,42.20874],[-79.91425,42.2087],[-79.91437,42.20866],[-79.91439,42.20865],[-79.91455,42.20859],[-79.91461,42.20857],[-79.91482,42.20848],[-79.91521,42.20833],[-79.91554,42.2082],[-79.9156,42.20818],[-79.91576,42.20812],[-79.91596,42.20805],[-79.91598,42.20804],[-79.91625,42.20795],[-79.91648,42.20787],[-79.9168,42.20777],[-79.91686,42.20775],[-79.91729,42.20761],[-79.91758,42.20752],[-79.91776,42.20747],[-79.91817,42.20735],[-79.91821,42.20733],[-79.91857,42.20722],[-79.91901,42.20708],[-79.9191,42.20706],[-79.91944,42.20695],[-79.91963,42.20691],[-79.9199,42.20683],[-79.92035,42.2067],[-79.92057,42.20663],[-79.92101,42.20649],[-79.92141,42.20638],[-79.92173,42.20628],[-79.92211,42.20616],[-79.92259,42.20602],[-79.92349,42.20575],[-79.9235,42.20575],[-79.92372,42.20568],[-79.92384,42.20565],[-79.92442,42.20549],[-79.92463,42.20543],[-79.92479,42.20539],[-79.92486,42.20538],[-79.92517,42.2053],[-79.92533,42.20527],[-79.92591,42.20512],[-79.92647,42.20501],[-79.92686,42.20492],[-79.92737,42.20478],[-79.92756,42.20473],[-79.92799,42.20461],[-79.92862,42.20441],[-79.92902,42.20428],[-79.92929,42.20418],[-79.9305,42.20374],[-79.9306,42.2037],[-79.93082,42.20361],[-79.93116,42.20346],[-79.93194,42.20318],[-79.93202,42.20315],[-79.93213,42.20311],[-79.93237,42.20301],[-79.93257,42.20294],[-79.93304,42.20276],[-79.93307,42.20274],[-79.93315,42.20271],[-79.93393,42.20241],[-79.93408,42.20236],[-79.93422,42.2023],[-79.93502,42.20199],[-79.93518,42.20193],[-79.93529,42.20188],[-79.9362,42.20153],[-79.93635,42.20148],[-79.93642,42.20144],[-79.93699,42.20123],[-79.93752,42.20101],[-79.93793,42.20083],[-79.9382,42.20071],[-79.9387,42.20047],[-79.93919,42.20022],[-79.93938,42.20012],[-79.93981,42.19989],[-79.93993,42.19982],[-79.94012,42.1997],[-79.94058,42.19943],[-79.94073,42.19933],[-79.94079,42.19929],[-79.94106,42.19913],[-79.94108,42.19912],[-79.94116,42.19907],[-79.94158,42.19881],[-79.94165,42.19876],[-79.94182,42.19866],[-79.94209,42.19849],[-79.9422,42.19843],[-79.9435,42.19761],[-79.94368,42.19751],[-79.94377,42.19745],[-79.94415,42.19721],[-79.94425,42.19714],[-79.94513,42.19659],[-79.94545,42.19639],[-79.94578,42.19619],[-79.94583,42.19616],[-79.94616,42.19595],[-79.94625,42.19589],[-79.94632,42.19585],[-79.94656,42.1957],[-79.94669,42.19562],[-79.94677,42.19557],[-79.94707,42.19538],[-79.94714,42.19533],[-79.94774,42.19496],[-79.94793,42.19484],[-79.94831,42.19458],[-79.9485,42.19444],[-79.94866,42.19433],[-79.94872,42.19428],[-79.94882,42.19421],[-79.94898,42.19408],[-79.949,42.19405],[-79.94905,42.19402],[-79.94914,42.19392],[-79.94916,42.19391],[-79.9492,42.19388],[-79.94949,42.1936],[-79.94952,42.19357],[-79.94954,42.19355],[-79.94974,42.19335],[-79.95004,42.19303],[-79.95077,42.19228],[-79.95085,42.1922],[-79.95094,42.19211],[-79.95099,42.19206],[-79.95136,42.19167],[-79.95164,42.19138],[-79.9519,42.19109],[-79.95217,42.19082],[-79.95235,42.19068],[-79.95271,42.19041],[-79.95288,42.19028],[-79.95291,42.19026],[-79.95306,42.19016],[-79.95325,42.19004],[-79.95329,42.19001],[-79.95344,42.18993],[-79.95347,42.18991],[-79.95357,42.18985],[-79.95383,42.18972],[-79.95418,42.18953],[-79.95422,42.1895],[-79.95442,42.1894],[-79.95482,42.18919],[-79.95521,42.18898],[-79.9557,42.18873],[-79.9565,42.18831],[-79.95734,42.18786],[-79.95809,42.18747],[-79.95827,42.18738],[-79.95853,42.18724],[-79.95955,42.1867],[-79.96073,42.18607],[-79.96083,42.18602],[-79.96099,42.18594],[-79.96134,42.18575],[-79.96159,42.18563],[-79.96162,42.18561],[-79.96201,42.18542],[-79.96233,42.18528],[-79.96264,42.18515],[-79.9628,42.18509],[-79.96294,42.18504],[-79.96306,42.185],[-79.96339,42.18489],[-79.96351,42.18486],[-79.96361,42.18482],[-79.96386,42.18474],[-79.96422,42.18462],[-79.96517,42.18432],[-79.96539,42.18425],[-79.96605,42.18404],[-79.96673,42.18382],[-79.96709,42.18369],[-79.96741,42.18357],[-79.96744,42.18355],[-79.96762,42.18348],[-79.96782,42.18339],[-79.96839,42.18312],[-79.96864,42.183],[-79.96984,42.18238],[-79.97043,42.18207],[-79.97144,42.18156],[-79.97158,42.18149],[-79.97173,42.18141],[-79.97184,42.18135],[-79.97193,42.18131],[-79.97213,42.1812],[-79.97224,42.18115],[-79.97253,42.181],[-79.97255,42.18099],[-79.97273,42.1809],[-79.97284,42.18084],[-79.97411,42.18019],[-79.97452,42.17998],[-79.97472,42.17987],[-79.97563,42.17941],[-79.97612,42.17915],[-79.97659,42.1789],[-79.97711,42.17863],[-79.97831,42.17802],[-79.97849,42.17793],[-79.9793,42.17751],[-79.97979,42.17727],[-79.97997,42.17717],[-79.98026,42.17705],[-79.98053,42.17695],[-79.9806,42.17692],[-79.98088,42.17682],[-79.98188,42.17646],[-79.98257,42.17621],[-79.98279,42.17614],[-79.9852,42.17528],[-79.98581,42.17504],[-79.98598,42.17497],[-79.98602,42.17496],[-79.98622,42.17487],[-79.98644,42.17479],[-79.98663,42.17472],[-79.98668,42.1747],[-79.98851,42.17403],[-79.98871,42.17396],[-79.98975,42.17358],[-79.99082,42.1732],[-79.99192,42.17284],[-79.99264,42.17258],[-79.99314,42.17239],[-79.99355,42.17225],[-79.99358,42.17223],[-79.99382,42.17215],[-79.99432,42.17196],[-79.99468,42.17184],[-79.99489,42.17176],[-79.99532,42.1716],[-79.99545,42.17155],[-79.99554,42.17152],[-79.99685,42.17104],[-79.99729,42.17088],[-79.9976,42.17077],[-79.99856,42.17042],[-79.99897,42.17027],[-79.99899,42.17026],[-79.9993,42.17015],[-79.99956,42.17005],[-79.99982,42.16993],[-80.00002,42.16984],[-80.00008,42.1698],[-80.00024,42.16972],[-80.00035,42.16965],[-80.00043,42.1696],[-80.00048,42.16956],[-80.00054,42.16952],[-80.00072,42.1694],[-80.00092,42.16926],[-80.0015,42.16884],[-80.00177,42.16864],[-80.00204,42.16844],[-80.00231,42.16825],[-80.00248,42.16812],[-80.00291,42.16781],[-80.003,42.16774],[-80.00322,42.16759],[-80.00335,42.1675],[-80.00395,42.16707],[-80.00405,42.16699],[-80.00453,42.16665],[-80.00512,42.16622],[-80.00533,42.16606],[-80.00601,42.16557],[-80.00634,42.16533],[-80.00671,42.16506],[-80.00718,42.16472],[-80.00747,42.16451],[-80.00784,42.16424],[-80.00787,42.16422],[-80.00872,42.1636],[-80.00873,42.16359],[-80.00894,42.16344],[-80.00908,42.16333],[-80.00996,42.16271],[-80.01,42.16268],[-80.01034,42.16243],[-80.0106,42.16225],[-80.01086,42.16206],[-80.01107,42.16192],[-80.01123,42.1618],[-80.01137,42.1617],[-80.01201,42.1612],[-80.01254,42.16082],[-80.01272,42.1607],[-80.01282,42.16063],[-80.01288,42.16058],[-80.01306,42.16044],[-80.01319,42.16035],[-80.0134,42.1602],[-80.01358,42.16007],[-80.01366,42.16002],[-80.01381,42.1599],[-80.01393,42.15982],[-80.01408,42.15971],[-80.01416,42.15965],[-80.01457,42.15936],[-80.01464,42.15931],[-80.01476,42.15922],[-80.01485,42.15915],[-80.01496,42.15908],[-80.01552,42.15869],[-80.01563,42.15861],[-80.01582,42.15847],[-80.01619,42.15821],[-80.01655,42.15796],[-80.01684,42.15776],[-80.01704,42.15759],[-80.01718,42.15749],[-80.01738,42.15735],[-80.01755,42.15722],[-80.01771,42.15712],[-80.01791,42.15698],[-80.01799,42.15691],[-80.01881,42.15634],[-80.01966,42.15572],[-80.02071,42.15497],[-80.0216,42.15433],[-80.02229,42.15383],[-80.02252,42.15365],[-80.02267,42.15354],[-80.02278,42.15346],[-80.02312,42.1533],[-80.02337,42.15326],[-80.02473,42.15266],[-80.02493,42.15257],[-80.02522,42.15244],[-80.02578,42.15221],[-80.0262,42.15203],[-80.02725,42.15159],[-80.02767,42.1514],[-80.02812,42.15122],[-80.02875,42.15095],[-80.02932,42.15072],[-80.02994,42.15045],[-80.03077,42.15009],[-80.03117,42.14993],[-80.03156,42.14977],[-80.03316,42.14909],[-80.03339,42.149],[-80.03369,42.14887],[-80.0347,42.14844],[-80.03528,42.14821],[-80.03564,42.14809],[-80.03653,42.14776],[-80.03708,42.14756],[-80.03732,42.14748],[-80.03746,42.14743],[-80.03746,42.14743],[-80.03815,42.14718],[-80.03858,42.14703],[-80.03945,42.14671],[-80.03989,42.14656],[-80.0404,42.14637],[-80.04104,42.14614],[-80.04193,42.14581],[-80.04214,42.14573],[-80.04235,42.14565],[-80.04322,42.14535],[-80.04358,42.14522],[-80.04393,42.14509],[-80.04418,42.14499],[-80.04456,42.14486],[-80.04472,42.1448],[-80.04585,42.14439],[-80.0459,42.14438],[-80.04612,42.14431],[-80.0463,42.14424],[-80.04686,42.14403],[-80.04773,42.14371],[-80.04844,42.14346],[-80.04882,42.14332],[-80.04895,42.14328],[-80.04917,42.1432],[-80.04932,42.14314],[-80.05046,42.14271],[-80.05168,42.14227],[-80.05194,42.14218],[-80.05261,42.14194],[-80.05336,42.14165],[-80.05476,42.14114],[-80.0548,42.14112],[-80.05488,42.14109],[-80.05518,42.14097],[-80.05551,42.14085],[-80.05576,42.14074],[-80.05634,42.14053],[-80.057,42.14029],[-80.05781,42.14],[-80.05869,42.13968],[-80.05883,42.13963],[-80.05946,42.13938],[-80.05953,42.13936],[-80.06028,42.13911],[-80.06116,42.13881],[-80.06218,42.13844],[-80.06248,42.13833],[-80.06272,42.13823],[-80.06327,42.13803],[-80.06327,42.13803],[-80.06331,42.13795],[-80.06336,42.13789],[-80.06341,42.13781],[-80.06348,42.13772],[-80.06357,42.13763],[-80.06365,42.13756],[-80.06374,42.13748],[-80.06383,42.13741],[-80.0639,42.13736],[-80.06402,42.1373],[-80.06411,42.13726],[-80.06421,42.13722],[-80.06444,42.13714],[-80.06452,42.13712],[-80.06463,42.13709],[-80.06471,42.13706],[-80.06488,42.13699],[-80.06536,42.13681],[-80.06584,42.13665],[-80.0664,42.13646],[-80.0666,42.13639],[-80.06671,42.13635],[-80.06691,42.13627],[-80.06702,42.13624],[-80.06713,42.13619],[-80.06726,42.13614],[-80.06766,42.13599],[-80.06846,42.13569],[-80.06932,42.13534],[-80.06939,42.13531],[-80.06983,42.13513],[-80.06983,42.13513],[-80.06916,42.13415],[-80.06916,42.13415],[-80.07012,42.1338]]}}]}