{"type":"FeatureCollection","features":[{"type":"Feature","properties":{"_gpxType":"trk","name":"2110 Kemper Lane, Cincinnati, OH - Purple People Bridge - Deeper Roots Coffee, West 4th Street, Cincinnati, OH - Randolph Township, IN 47040","coordinateProperties":{},"id":21},"geometry":{"type":"LineString","coordinates":[[-84.48772,39.12007],[-84.48779,39.12011],[-84.48785,39.12015],[-84.48801,39.12025],[-84.48803,39.12026],[-84.48813,39.12029],[-84.48823,39.12031],[-84.48836,39.12032],[-84.48836,39.12032],[-84.48826,39.12016],[-84.48826,39.12015],[-84.48818,39.11999],[-84.48816,39.11995],[-84.48812,39.11982],[-84.48809,39.11974],[-84.48804,39.11952],[-84.48803,39.11946],[-84.48801,39.11931],[-84.48801,39.1191],[-84.48801,39.11909],[-84.48802,39.11887],[-84.48804,39.11879],[-84.48805,39.11874],[-84.48808,39.11862],[-84.4881,39.11852],[-84.48813,39.11842],[-84.48818,39.11828],[-84.4882,39.11823],[-84.48821,39.11819],[-84.48821,39.11816],[-84.48818,39.11807],[-84.48818,39.11807],[-84.48831,39.11794],[-84.48842,39.11783],[-84.48854,39.11772],[-84.48886,39.11746],[-84.48897,39.11738],[-84.48902,39.11733],[-84.48906,39.11728],[-84.48912,39.1172],[-84.48916,39.11715],[-84.48916,39.11714],[-84.48919,39.11711],[-84.48939,39.11678],[-84.48951,39.11659],[-84.4896,39.11646],[-84.48961,39.11645],[-84.48971,39.11633],[-84.48974,39.1163],[-84.48984,39.11621],[-84.49012,39.11594],[-84.49028,39.1158],[-84.49044,39.11566],[-84.49064,39.11548],[-84.49079,39.11534],[-84.4908,39.11533],[-84.49093,39.1152],[-84.49096,39.11518],[-84.49104,39.11509],[-84.4911,39.11503],[-84.49115,39.11497],[-84.49121,39.11488],[-84.49123,39.11485],[-84.49129,39.11474],[-84.49134,39.11467],[-84.49139,39.11459],[-84.49142,39.11449],[-84.49144,39.11444],[-84.49146,39.11437],[-84.49147,39.11429],[-84.49148,39.11421],[-84.49149,39.11411],[-84.4915,39.11399],[-84.4915,39.11388],[-84.4915,39.11386],[-84.4915,39.11379],[-84.49151,39.11371],[-84.49151,39.1137],[-84.49151,39.11364],[-84.49152,39.11358],[-84.49154,39.11352],[-84.49155,39.11347],[-84.49158,39.11341],[-84.49162,39.11336],[-84.49165,39.11332],[-84.49168,39.11329],[-84.49175,39.11323],[-84.49179,39.1132],[-84.49188,39.11315],[-84.49202,39.11307],[-84.49214,39.11301],[-84.49215,39.113],[-84.4923,39.11293],[-84.49234,39.11292],[-84.49237,39.11291],[-84.49244,39.1129],[-84.49248,39.11289],[-84.49254,39.11289],[-84.4926,39.11289],[-84.49265,39.1129],[-84.49272,39.11292],[-84.49279,39.11295],[-84.49286,39.113],[-84.49295,39.11305],[-84.49296,39.11307],[-84.49308,39.11316],[-84.49312,39.11319],[-84.49318,39.11324],[-84.49323,39.11329],[-84.49329,39.11336],[-84.49337,39.11347],[-84.49338,39.11349],[-84.49343,39.11357],[-84.49348,39.11368],[-84.49349,39.11373],[-84.49349,39.1138],[-84.4935,39.11385],[-84.49349,39.11394],[-84.49348,39.11401],[-84.49348,39.11404],[-84.49345,39.11417],[-84.49342,39.11426],[-84.49339,39.11437],[-84.49341,39.11455],[-84.49341,39.11455],[-84.4934,39.11455],[-84.49339,39.11456],[-84.49337,39.11456],[-84.49336,39.11456],[-84.49335,39.11457],[-84.49334,39.11458],[-84.49333,39.11458],[-84.49332,39.11459],[-84.49331,39.1146],[-84.4933,39.1146],[-84.49329,39.11461],[-84.49328,39.11462],[-84.49328,39.11463],[-84.49327,39.11464],[-84.49326,39.11465],[-84.49326,39.11466],[-84.49326,39.11467],[-84.49325,39.11468],[-84.49325,39.11469],[-84.49325,39.1147],[-84.49325,39.11471],[-84.49325,39.11472],[-84.49326,39.11473],[-84.49326,39.11474],[-84.49326,39.11475],[-84.49327,39.11476],[-84.49327,39.11477],[-84.49328,39.11478],[-84.49329,39.11479],[-84.49329,39.1148],[-84.4933,39.1148],[-84.49331,39.11481],[-84.49332,39.11482],[-84.49333,39.11483],[-84.49334,39.11483],[-84.49336,39.11484],[-84.49337,39.11484],[-84.49338,39.11485],[-84.4934,39.11485],[-84.49341,39.11485],[-84.49342,39.11485],[-84.49344,39.11485],[-84.49345,39.11486],[-84.49346,39.11485],[-84.49348,39.11485],[-84.49349,39.11485],[-84.4935,39.11485],[-84.49352,39.11485],[-84.49353,39.11484],[-84.49354,39.11484],[-84.49355,39.11483],[-84.49356,39.11483],[-84.49357,39.11482],[-84.49358,39.11481],[-84.49359,39.11481],[-84.4936,39.1148],[-84.49361,39.11479],[-84.49362,39.11478],[-84.49362,39.11477],[-84.49363,39.11476],[-84.49364,39.11475],[-84.49364,39.11474],[-84.49364,39.11473],[-84.49365,39.11472],[-84.49365,39.11471],[-84.49365,39.1147],[-84.49365,39.11469],[-84.49371,39.11467],[-84.49377,39.11465],[-84.49387,39.11461],[-84.494,39.11455],[-84.49405,39.11453],[-84.49412,39.1145],[-84.49419,39.11448],[-84.49426,39.11446],[-84.49432,39.11444],[-84.4944,39.11443],[-84.49445,39.11443],[-84.49451,39.11442],[-84.4946,39.11443],[-84.49466,39.11443],[-84.49473,39.11444],[-84.49478,39.11445],[-84.49484,39.11447],[-84.49492,39.1145],[-84.495,39.11453],[-84.49509,39.11457],[-84.49516,39.11461],[-84.49538,39.11474],[-84.49538,39.11474],[-84.49543,39.1147],[-84.49545,39.11468],[-84.49547,39.11465],[-84.49556,39.11453],[-84.49542,39.114],[-84.49536,39.11376],[-84.49528,39.11338],[-84.49528,39.11333],[-84.49529,39.1133],[-84.4953,39.11324],[-84.49531,39.11321],[-84.49533,39.11318],[-84.49535,39.11315],[-84.49537,39.11313],[-84.49539,39.11312],[-84.49541,39.11311],[-84.49544,39.11309],[-84.49549,39.11308],[-84.49553,39.11307],[-84.49559,39.11306],[-84.49616,39.11309],[-84.49625,39.1131],[-84.49638,39.1131],[-84.49652,39.1131],[-84.49655,39.11309],[-84.49676,39.11309],[-84.49689,39.11307],[-84.49695,39.11306],[-84.49698,39.11306],[-84.49701,39.11305],[-84.49706,39.11304],[-84.49712,39.11303],[-84.49716,39.11301],[-84.49721,39.11299],[-84.49726,39.11296],[-84.4973,39.11293],[-84.49732,39.11291],[-84.49735,39.11288],[-84.49739,39.11282],[-84.49741,39.11276],[-84.49743,39.11266],[-84.49743,39.11265],[-84.49747,39.11238],[-84.49752,39.11224],[-84.49753,39.11222],[-84.49755,39.11219],[-84.49757,39.11217],[-84.49759,39.11215],[-84.4976,39.11214],[-84.49763,39.11212],[-84.49768,39.11209],[-84.49773,39.11207],[-84.49785,39.11202],[-84.49804,39.11195],[-84.49822,39.1119],[-84.49843,39.11183],[-84.49848,39.11182],[-84.49866,39.1118],[-84.49866,39.1118],[-84.49877,39.11178],[-84.49879,39.11178],[-84.4988,39.11177],[-84.49882,39.11176],[-84.49883,39.11175],[-84.49884,39.11175],[-84.49885,39.11174],[-84.49885,39.11172],[-84.49895,39.11083],[-84.49901,39.11028],[-84.49902,39.11025],[-84.49902,39.11025],[-84.49855,39.11022],[-84.49812,39.1102],[-84.49812,39.1102],[-84.49814,39.11001],[-84.49818,39.10969],[-84.4982,39.10951],[-84.49823,39.10933],[-84.49824,39.10924],[-84.49825,39.10922],[-84.49826,39.1092],[-84.49828,39.10918],[-84.4983,39.10917],[-84.49832,39.10915],[-84.49851,39.10909],[-84.49872,39.10902],[-84.49907,39.1089],[-84.49914,39.10888],[-84.49918,39.10887],[-84.4995,39.10876],[-84.49971,39.10869],[-84.49993,39.10861],[-84.50009,39.10856],[-84.50028,39.10845],[-84.50032,39.10843],[-84.50041,39.10837],[-84.50047,39.10835],[-84.50053,39.10831],[-84.50067,39.10825],[-84.50082,39.10819],[-84.50087,39.10818],[-84.50125,39.10806],[-84.5013,39.10804],[-84.50156,39.10793],[-84.5017,39.10785],[-84.50176,39.10782],[-84.50185,39.10772],[-84.50193,39.10765],[-84.502,39.10758],[-84.50202,39.10757],[-84.50215,39.10745],[-84.50216,39.10744],[-84.50224,39.10736],[-84.5023,39.10731],[-84.50231,39.1073],[-84.50239,39.10722],[-84.50243,39.10718],[-84.50244,39.10717],[-84.50246,39.10715],[-84.50247,39.10714],[-84.50249,39.10714],[-84.5025,39.10713],[-84.50252,39.10712],[-84.50255,39.10712],[-84.50257,39.10712],[-84.50258,39.10712],[-84.50259,39.10713],[-84.50263,39.10714],[-84.50268,39.10716],[-84.50274,39.10718],[-84.50291,39.10726],[-84.50291,39.10726],[-84.50298,39.10715],[-84.503,39.1071],[-84.50305,39.10699],[-84.50307,39.10693],[-84.50309,39.10688],[-84.5031,39.10684],[-84.50313,39.1067],[-84.50313,39.10668],[-84.50313,39.10659],[-84.50313,39.10652],[-84.50314,39.10651],[-84.50313,39.10646],[-84.50312,39.1064],[-84.50311,39.10634],[-84.50309,39.10629],[-84.50307,39.10625],[-84.50304,39.10619],[-84.50303,39.10617],[-84.50301,39.10614],[-84.50297,39.10609],[-84.50293,39.10605],[-84.5029,39.10602],[-84.50289,39.106],[-84.50284,39.10597],[-84.50279,39.10592],[-84.50275,39.10589],[-84.50268,39.10586],[-84.50245,39.10578],[-84.50224,39.10573],[-84.50203,39.1057],[-84.50203,39.1057],[-84.502,39.10565],[-84.50191,39.10548],[-84.50184,39.10537],[-84.50181,39.10532],[-84.5018,39.10531],[-84.50171,39.10521],[-84.50169,39.10519],[-84.50148,39.10502],[-84.50135,39.10495],[-84.50119,39.10483],[-84.50114,39.1048],[-84.50101,39.10472],[-84.50065,39.10449],[-84.5003,39.10425],[-84.5003,39.10424],[-84.50018,39.10415],[-84.50014,39.10412],[-84.50012,39.1041],[-84.49999,39.104],[-84.49986,39.10387],[-84.49982,39.10382],[-84.4997,39.1037],[-84.49968,39.10368],[-84.49968,39.10368],[-84.49969,39.10363],[-84.49969,39.10362],[-84.49971,39.1035],[-84.49973,39.10347],[-84.49977,39.10342],[-84.49983,39.10337],[-84.49987,39.10333],[-84.49995,39.10326],[-84.50001,39.10319],[-84.50002,39.10319],[-84.50002,39.10318],[-84.50009,39.10311],[-84.5003,39.10289],[-84.5004,39.1028],[-84.50055,39.10269],[-84.5007,39.10257],[-84.50084,39.10246],[-84.5009,39.10243],[-84.50107,39.10234],[-84.50136,39.10219],[-84.50136,39.10219],[-84.50131,39.10213],[-84.50115,39.10197],[-84.50114,39.10194],[-84.50112,39.10189],[-84.50106,39.10182],[-84.50101,39.10176],[-84.50066,39.10136],[-84.50058,39.10127],[-84.50054,39.10115],[-84.50054,39.10115],[-84.5008,39.101],[-84.5011,39.10082],[-84.50136,39.10065],[-84.50152,39.10055],[-84.50167,39.10045],[-84.5018,39.10037],[-84.5021,39.10017],[-84.5023,39.10004],[-84.5024,39.09998],[-84.50256,39.09988],[-84.50258,39.09986],[-84.50262,39.09984],[-84.50276,39.09975],[-84.50297,39.09961],[-84.50318,39.09947],[-84.50333,39.09938],[-84.50353,39.09926],[-84.50384,39.09909],[-84.50419,39.09889],[-84.50427,39.09884],[-84.50427,39.09884],[-84.5042,39.09877],[-84.50405,39.09863],[-84.5039,39.0985],[-84.50361,39.09822],[-84.50345,39.09809],[-84.50336,39.098],[-84.50335,39.098],[-84.50334,39.09799],[-84.50333,39.09798],[-84.5033,39.09795],[-84.50322,39.09789],[-84.50322,39.09788],[-84.50317,39.09784],[-84.50303,39.0977],[-84.50268,39.09735],[-84.50239,39.09707],[-84.50224,39.09692],[-84.5021,39.09678],[-84.50196,39.09664],[-84.50167,39.09636],[-84.50152,39.09622],[-84.50138,39.09608],[-84.50123,39.09594],[-84.50109,39.0958],[-84.50094,39.09566],[-84.5008,39.09552],[-84.50065,39.09538],[-84.50051,39.09524],[-84.50036,39.0951],[-84.50022,39.09496],[-84.50007,39.09482],[-84.49993,39.09468],[-84.49966,39.09442],[-84.49953,39.09429],[-84.49953,39.09429],[-84.49963,39.09423],[-84.49964,39.09422],[-84.49965,39.09422],[-84.49965,39.09421],[-84.49965,39.0942],[-84.49962,39.09417],[-84.49958,39.09413],[-84.49958,39.09413],[-84.49947,39.09418],[-84.49942,39.09421],[-84.49938,39.09423],[-84.49933,39.09425],[-84.49909,39.09438],[-84.49839,39.09474],[-84.4982,39.09484],[-84.49808,39.0949],[-84.49801,39.09494],[-84.49791,39.095],[-84.49782,39.09505],[-84.49755,39.09524],[-84.4972,39.09548],[-84.49713,39.09553],[-84.49668,39.09583],[-84.49654,39.09593],[-84.49595,39.09628],[-84.49567,39.09643],[-84.49541,39.09657],[-84.49533,39.09661],[-84.49531,39.09662],[-84.49523,39.09668],[-84.49515,39.09672],[-84.49507,39.09681],[-84.49504,39.09684],[-84.49501,39.09689],[-84.49496,39.09696],[-84.49495,39.09697],[-84.49495,39.09698],[-84.4949,39.09706],[-84.49488,39.09713],[-84.49488,39.09713],[-84.4949,39.09713],[-84.49493,39.09714],[-84.49496,39.09713],[-84.49498,39.09712],[-84.49501,39.09711],[-84.49509,39.09708],[-84.49521,39.09696],[-84.49524,39.09693],[-84.49568,39.09655]]}},{"type":"Feature","properties":{"_gpxType":"trk","name":"2110 Kemper Lane, Cincinnati, OH - Purple People Bridge - Deeper Roots Coffee, West 4th Street, Cincinnati, OH - Randolph Township, IN 47040","coordinateProperties":{},"id":21},"geometry":{"type":"LineString","coordinates":[[-84.49568,39.09655],[-84.49524,39.09693],[-84.49521,39.09696],[-84.49509,39.09708],[-84.49501,39.09711],[-84.49498,39.09712],[-84.49496,39.09713],[-84.49493,39.09714],[-84.4949,39.09713],[-84.49488,39.09713],[-84.49488,39.09713],[-84.4949,39.09706],[-84.49495,39.09698],[-84.49495,39.09697],[-84.49496,39.09696],[-84.49501,39.09689],[-84.49504,39.09684],[-84.49507,39.09681],[-84.49515,39.09672],[-84.49523,39.09668],[-84.49531,39.09662],[-84.49533,39.09661],[-84.49541,39.09657],[-84.49567,39.09643],[-84.49595,39.09628],[-84.49654,39.09593],[-84.49668,39.09583],[-84.49713,39.09553],[-84.4972,39.09548],[-84.49755,39.09524],[-84.49782,39.09505],[-84.49791,39.095],[-84.49801,39.09494],[-84.49808,39.0949],[-84.4982,39.09484],[-84.49839,39.09474],[-84.49909,39.09438],[-84.49909,39.09438],[-84.49907,39.09437],[-84.49904,39.09436],[-84.499,39.09435],[-84.49897,39.09434],[-84.49894,39.09432],[-84.49893,39.09433],[-84.49892,39.09434],[-84.49889,39.09436],[-84.49886,39.09437],[-84.49882,39.09439],[-84.49879,39.09441],[-84.49876,39.09442],[-84.49873,39.09444],[-84.49871,39.09445],[-84.49869,39.09446],[-84.49868,39.09446],[-84.49865,39.09447],[-84.49862,39.09448],[-84.4986,39.09449],[-84.49855,39.0945],[-84.49852,39.09451],[-84.49849,39.09452],[-84.49848,39.09453],[-84.49845,39.09453],[-84.49834,39.09457],[-84.49827,39.0946],[-84.49824,39.09461],[-84.49816,39.09464],[-84.49806,39.09468],[-84.49805,39.09468],[-84.49794,39.09472],[-84.49786,39.09474],[-84.49785,39.09475],[-84.49781,39.09476],[-84.49775,39.09478],[-84.49772,39.09479],[-84.49771,39.0948],[-84.4977,39.0948],[-84.49769,39.0948],[-84.49768,39.0948],[-84.49767,39.09479],[-84.49765,39.09478],[-84.49765,39.09477],[-84.49765,39.09477],[-84.49784,39.09467],[-84.49803,39.09457],[-84.49822,39.09447],[-84.49831,39.09442],[-84.49842,39.09437],[-84.49851,39.09432],[-84.49861,39.09426],[-84.49867,39.09423],[-84.49891,39.0941],[-84.4991,39.094],[-84.4991,39.094],[-84.49914,39.09403],[-84.49927,39.09415],[-84.49931,39.09419],[-84.49938,39.09426],[-84.49945,39.09433],[-84.49959,39.09446],[-84.49971,39.09459],[-84.49976,39.09465],[-84.49985,39.09474],[-84.49999,39.09488],[-84.50013,39.09502],[-84.50027,39.09516],[-84.50028,39.09516],[-84.50042,39.0953],[-84.50044,39.09533],[-84.50056,39.09544],[-84.5007,39.09558],[-84.5007,39.09559],[-84.50085,39.09573],[-84.5011,39.09597],[-84.50113,39.09601],[-84.50128,39.09615],[-84.50143,39.09629],[-84.50169,39.09654],[-84.50186,39.09671],[-84.50215,39.09699],[-84.5023,39.09713],[-84.50259,39.09741],[-84.50288,39.09769],[-84.50304,39.09784],[-84.50319,39.09797],[-84.50328,39.09805],[-84.50334,39.09811],[-84.50352,39.09827],[-84.5036,39.09836],[-84.50389,39.09862],[-84.50419,39.09889],[-84.50419,39.09889],[-84.50432,39.09891],[-84.50447,39.09893],[-84.50464,39.09896],[-84.50478,39.09899],[-84.50486,39.099],[-84.50487,39.09901],[-84.50506,39.09905],[-84.50507,39.09905],[-84.50508,39.09906],[-84.50522,39.09909],[-84.50528,39.09911],[-84.50533,39.09914],[-84.50542,39.09919],[-84.50547,39.09922],[-84.5055,39.09924],[-84.50551,39.09925],[-84.50554,39.09927],[-84.50559,39.09931],[-84.50561,39.09933],[-84.50562,39.09935],[-84.50563,39.09936],[-84.50564,39.09937],[-84.50565,39.09939],[-84.50569,39.09946],[-84.5057,39.09948],[-84.50574,39.09953],[-84.50574,39.09953],[-84.5059,39.0996],[-84.50642,39.09954],[-84.50647,39.09953],[-84.50662,39.09951],[-84.50675,39.09949],[-84.5075,39.0994],[-84.50795,39.09932],[-84.5083,39.09927],[-84.50835,39.09926],[-84.50911,39.09912],[-84.50911,39.09912],[-84.50915,39.09929],[-84.50921,39.09949],[-84.50926,39.09968],[-84.50928,39.09974],[-84.50938,39.10013],[-84.50945,39.10041],[-84.50945,39.10041],[-84.51024,39.1003],[-84.51068,39.10023],[-84.51104,39.10018],[-84.51159,39.10012],[-84.51189,39.10007],[-84.51228,39.10001],[-84.51266,39.09994],[-84.5136,39.09982],[-84.51428,39.09972],[-84.51513,39.0996],[-84.51561,39.09952],[-84.5159,39.09948],[-84.51617,39.09941],[-84.5165,39.09938],[-84.51669,39.09934],[-84.51684,39.09931],[-84.51702,39.0993],[-84.51714,39.09927],[-84.51724,39.09927],[-84.5175,39.09923],[-84.51775,39.09918],[-84.51785,39.09918],[-84.51808,39.09914],[-84.51853,39.09907],[-84.51853,39.09907],[-84.51857,39.0992]]}},{"type":"Feature","properties":{"_gpxType":"trk","name":"2110 Kemper Lane, Cincinnati, OH - Purple People Bridge - Deeper Roots Coffee, West 4th Street, Cincinnati, OH - Randolph Township, IN 47040","coordinateProperties":{},"id":21},"geometry":{"type":"LineString","coordinates":[[-84.51857,39.0992],[-84.51853,39.09907],[-84.51853,39.09907],[-84.51908,39.09898],[-84.51908,39.09898],[-84.51905,39.09889],[-84.51894,39.09854],[-84.51889,39.09837],[-84.51887,39.09828],[-84.51885,39.09821],[-84.51884,39.09819],[-84.51882,39.0981],[-84.5188,39.09801],[-84.5188,39.098],[-84.51878,39.09792],[-84.51873,39.09775],[-84.51873,39.09775],[-84.51877,39.09774],[-84.51911,39.09769],[-84.51923,39.09767],[-84.51956,39.09762],[-84.52013,39.09755],[-84.52059,39.09748],[-84.52081,39.09744],[-84.52098,39.09742],[-84.52099,39.09741],[-84.52126,39.09737],[-84.52154,39.09733],[-84.5216,39.09732],[-84.52168,39.09731],[-84.52169,39.09731],[-84.52203,39.09725],[-84.52224,39.09723],[-84.5224,39.09721],[-84.52249,39.0972],[-84.52255,39.09719],[-84.52282,39.09719],[-84.52315,39.09718],[-84.52408,39.09717],[-84.52431,39.09717],[-84.52501,39.09715],[-84.52505,39.09715],[-84.52517,39.09715],[-84.52529,39.09716],[-84.52538,39.09717],[-84.52547,39.09718],[-84.52559,39.0972],[-84.52563,39.09721],[-84.5257,39.09723],[-84.52575,39.09725],[-84.5258,39.09728],[-84.52586,39.09731],[-84.52591,39.09735],[-84.52597,39.0974],[-84.52603,39.09746],[-84.52612,39.09755],[-84.52628,39.09771],[-84.52628,39.09771],[-84.5264,39.09777],[-84.52647,39.0978],[-84.52652,39.09782],[-84.52665,39.09786],[-84.5267,39.09787],[-84.52677,39.09789],[-84.52689,39.09788],[-84.52695,39.09788],[-84.52702,39.09787],[-84.52706,39.09787],[-84.52712,39.09784],[-84.52784,39.09777],[-84.52794,39.09776],[-84.52809,39.09775],[-84.52817,39.09775],[-84.52827,39.09775],[-84.52845,39.09777],[-84.52863,39.09781],[-84.52866,39.09781],[-84.52886,39.09787],[-84.52896,39.09791],[-84.52905,39.09795],[-84.52917,39.098],[-84.52918,39.098],[-84.52923,39.09802],[-84.52928,39.09805],[-84.52932,39.09808],[-84.52937,39.09812],[-84.52944,39.09817],[-84.5295,39.09821],[-84.52953,39.09824],[-84.52957,39.09828],[-84.52964,39.09837],[-84.52968,39.09841],[-84.52971,39.09846],[-84.52974,39.09851],[-84.52978,39.09857],[-84.52983,39.09865],[-84.52997,39.099],[-84.53,39.09908],[-84.53007,39.09925],[-84.53008,39.09926],[-84.53014,39.09942],[-84.53021,39.0996],[-84.53027,39.09975],[-84.53029,39.09983],[-84.5303,39.09986],[-84.53031,39.09991],[-84.53032,39.09996],[-84.53033,39.10003],[-84.53034,39.10012],[-84.53034,39.10026],[-84.53031,39.1005],[-84.53031,39.10058],[-84.5303,39.10063],[-84.5303,39.10064],[-84.53029,39.10078],[-84.53023,39.1011],[-84.53019,39.10118],[-84.53014,39.10129],[-84.53008,39.10141],[-84.53006,39.1015],[-84.53001,39.10179],[-84.52995,39.102],[-84.52995,39.10203],[-84.52987,39.10226],[-84.52984,39.10235],[-84.52979,39.1025],[-84.52973,39.10264],[-84.52969,39.10273],[-84.52967,39.10277],[-84.52958,39.10297],[-84.52953,39.10309],[-84.52942,39.10327],[-84.52935,39.10341],[-84.52935,39.10341],[-84.5295,39.10342],[-84.52984,39.10346],[-84.53019,39.10349],[-84.53028,39.1035],[-84.53064,39.10352],[-84.53081,39.10353],[-84.53115,39.10357],[-84.53155,39.1036],[-84.53165,39.10362],[-84.53176,39.10363],[-84.53194,39.10365],[-84.53216,39.10369],[-84.53258,39.10374],[-84.53298,39.10379],[-84.53318,39.10382],[-84.5335,39.10387],[-84.53389,39.10393],[-84.53407,39.10395],[-84.53432,39.10399],[-84.53434,39.10399],[-84.53464,39.10403],[-84.53517,39.10409],[-84.53555,39.1041],[-84.53599,39.10414],[-84.53635,39.10417],[-84.53654,39.10411],[-84.53692,39.10412],[-84.53718,39.10411],[-84.53753,39.10411],[-84.53768,39.10412],[-84.53794,39.10415],[-84.53848,39.10415],[-84.53871,39.10415],[-84.53888,39.10417],[-84.53894,39.10417],[-84.53907,39.10418],[-84.5393,39.10419],[-84.53944,39.10421],[-84.53953,39.10421],[-84.53967,39.10422],[-84.5399,39.10424],[-84.53997,39.10425],[-84.54073,39.10431],[-84.54094,39.10432],[-84.54095,39.10432],[-84.54118,39.10434],[-84.54164,39.10438],[-84.54256,39.10445],[-84.54325,39.10451],[-84.54348,39.10452],[-84.54408,39.10457],[-84.54424,39.10458],[-84.545,39.10463],[-84.54543,39.10467],[-84.54551,39.10468],[-84.54589,39.10471],[-84.54612,39.10473],[-84.54635,39.10475],[-84.54649,39.10476],[-84.54658,39.10476],[-84.54681,39.10478],[-84.54727,39.10482],[-84.54796,39.10488],[-84.54802,39.10488],[-84.54834,39.10491],[-84.54843,39.10491],[-84.54871,39.10494],[-84.54943,39.10499],[-84.54989,39.10503],[-84.55023,39.10505],[-84.55043,39.10507],[-84.55063,39.10509],[-84.55081,39.1051],[-84.55099,39.10512],[-84.55178,39.10519],[-84.55321,39.1053],[-84.55337,39.10531],[-84.55339,39.10531],[-84.55346,39.10532],[-84.55353,39.10534],[-84.55361,39.10536],[-84.55368,39.10539],[-84.55373,39.10542],[-84.55379,39.10547],[-84.55379,39.10547],[-84.55382,39.10553],[-84.55385,39.10559],[-84.55388,39.10566],[-84.55389,39.10573],[-84.5539,39.10578],[-84.55392,39.10599],[-84.55395,39.10639],[-84.55397,39.10653],[-84.55401,39.10707],[-84.55402,39.1071],[-84.55404,39.10744],[-84.55404,39.10744],[-84.55412,39.10741],[-84.55417,39.10739],[-84.55421,39.10738],[-84.55425,39.10737],[-84.55429,39.10735],[-84.55431,39.10733],[-84.55432,39.1073],[-84.55433,39.10727],[-84.55433,39.10722],[-84.55433,39.10721],[-84.55433,39.10717],[-84.55431,39.10712],[-84.55428,39.10704],[-84.55426,39.107],[-84.55423,39.10691],[-84.55422,39.10686],[-84.55421,39.10685],[-84.55426,39.10669],[-84.55429,39.10659],[-84.55431,39.10651],[-84.55438,39.10634],[-84.55443,39.1062],[-84.55444,39.10618],[-84.55447,39.10615],[-84.55453,39.10613],[-84.55459,39.10612],[-84.55468,39.10612],[-84.55482,39.10614],[-84.55482,39.10614],[-84.55482,39.1063],[-84.55482,39.10631],[-84.55481,39.10649],[-84.5548,39.10651],[-84.5548,39.10657],[-84.55481,39.10665],[-84.55482,39.10671],[-84.55483,39.10677],[-84.55485,39.10684],[-84.55491,39.10702],[-84.55496,39.10719],[-84.55499,39.10726],[-84.55501,39.10735],[-84.55506,39.1075],[-84.55509,39.10764],[-84.5551,39.10772],[-84.55516,39.10801],[-84.55521,39.10825],[-84.55524,39.10839],[-84.55525,39.10844],[-84.55527,39.10849],[-84.5553,39.10855],[-84.55538,39.10865],[-84.55549,39.10878],[-84.55552,39.10882],[-84.55556,39.10887],[-84.5556,39.1089],[-84.55564,39.10893],[-84.55567,39.10896],[-84.55572,39.10899],[-84.55579,39.10902],[-84.55582,39.10904],[-84.55597,39.10912],[-84.55655,39.10944],[-84.55662,39.10948],[-84.55667,39.10951],[-84.55673,39.10953],[-84.55681,39.10956],[-84.55687,39.10958],[-84.55692,39.10959],[-84.55698,39.10959],[-84.55706,39.1096],[-84.55723,39.10961],[-84.55731,39.10961],[-84.55746,39.10962],[-84.55781,39.10965],[-84.55806,39.10966],[-84.55852,39.10969],[-84.55875,39.10971],[-84.55904,39.10973],[-84.5595,39.10976],[-84.55973,39.10977],[-84.56048,39.10981],[-84.56071,39.10983],[-84.56104,39.10983],[-84.56174,39.10985],[-84.56197,39.10986],[-84.56304,39.1099],[-84.56397,39.10997],[-84.5642,39.10998],[-84.56458,39.11002],[-84.56518,39.11007],[-84.56535,39.11009],[-84.56622,39.11017],[-84.56651,39.11019],[-84.56717,39.11025],[-84.56775,39.1103],[-84.56814,39.11033],[-84.56829,39.11034],[-84.56867,39.11037],[-84.56924,39.11039],[-84.56945,39.1104],[-84.56981,39.11042],[-84.57048,39.11046],[-84.57067,39.11048],[-84.57071,39.11048],[-84.57152,39.11053],[-84.57188,39.11055],[-84.57211,39.11057],[-84.57249,39.11059],[-84.5726,39.11061],[-84.57267,39.11062],[-84.57274,39.11069],[-84.57301,39.11096],[-84.57309,39.11105],[-84.57366,39.1116],[-84.57408,39.11201],[-84.57426,39.11219],[-84.57433,39.11227],[-84.57444,39.11238],[-84.5745,39.11243],[-84.57461,39.11255],[-84.57477,39.1127],[-84.57485,39.11278],[-84.57494,39.11287],[-84.57503,39.11296],[-84.57552,39.11341],[-84.5758,39.11366],[-84.57582,39.11368],[-84.57589,39.11374],[-84.57592,39.11376],[-84.57617,39.11391],[-84.5763,39.11397],[-84.5763,39.11397],[-84.57696,39.11401],[-84.57726,39.11402],[-84.57817,39.11408],[-84.57873,39.11411],[-84.57919,39.11414],[-84.57963,39.11416],[-84.58022,39.1142],[-84.58032,39.11421],[-84.58051,39.11423],[-84.58122,39.11427],[-84.58149,39.11429],[-84.58214,39.11433],[-84.58303,39.11437],[-84.58353,39.11438],[-84.58365,39.11438],[-84.58405,39.11438],[-84.58432,39.11433],[-84.58459,39.11429],[-84.58481,39.11425],[-84.58512,39.11416],[-84.58529,39.1141],[-84.58541,39.11405],[-84.5855,39.114],[-84.58562,39.11393],[-84.58643,39.1135],[-84.58649,39.11347],[-84.58658,39.11343],[-84.58664,39.1134],[-84.58666,39.1134],[-84.58675,39.11338],[-84.58744,39.11331],[-84.58757,39.1133],[-84.58771,39.11328],[-84.5887,39.11319],[-84.58911,39.11319],[-84.5899,39.11323],[-84.58996,39.11323],[-84.59002,39.11325],[-84.59008,39.11326],[-84.59014,39.11328],[-84.59036,39.11336],[-84.59076,39.11351],[-84.591,39.1136],[-84.59125,39.11373],[-84.59139,39.11382],[-84.59158,39.11397],[-84.5916,39.11399],[-84.59181,39.11419],[-84.59213,39.11458],[-84.59254,39.11506],[-84.59275,39.11532],[-84.59292,39.11547],[-84.5931,39.11561],[-84.59328,39.11574],[-84.59343,39.11583],[-84.59361,39.11592],[-84.59391,39.11606],[-84.59404,39.11611],[-84.59421,39.11616],[-84.59511,39.11638],[-84.59539,39.11646],[-84.5956,39.11649],[-84.59683,39.1166],[-84.59703,39.11662],[-84.59713,39.11663],[-84.5972,39.11665],[-84.59727,39.11666],[-84.59729,39.11667],[-84.59734,39.11668],[-84.59739,39.1167],[-84.59742,39.11672],[-84.59747,39.11675],[-84.59751,39.11678],[-84.59758,39.11684],[-84.59804,39.11731],[-84.59858,39.11787],[-84.5987,39.118],[-84.59873,39.11803],[-84.5989,39.11821],[-84.59914,39.11844],[-84.59914,39.11844],[-84.59968,39.11846],[-84.60011,39.11847],[-84.60083,39.11849],[-84.60176,39.11852],[-84.60242,39.11853],[-84.60388,39.11857],[-84.60475,39.11859],[-84.60486,39.11859],[-84.60498,39.1186],[-84.60578,39.11862],[-84.60685,39.11864],[-84.60708,39.11865],[-84.60734,39.11865],[-84.60805,39.11866],[-84.60827,39.11867],[-84.6085,39.11867],[-84.60867,39.11867],[-84.60897,39.11868],[-84.60914,39.11868],[-84.60943,39.11869],[-84.6096,39.11869],[-84.6103,39.1187],[-84.61036,39.1187],[-84.61099,39.11871],[-84.61212,39.11873],[-84.61282,39.11874],[-84.6132,39.11875],[-84.61367,39.11876],[-84.61437,39.11878],[-84.61483,39.11878],[-84.61506,39.11879],[-84.61525,39.11879],[-84.61542,39.11879],[-84.61573,39.1188],[-84.61595,39.11881],[-84.61612,39.11882],[-84.61658,39.11885],[-84.61716,39.11889],[-84.61725,39.1189],[-84.61774,39.11893],[-84.61785,39.11894],[-84.61797,39.11895],[-84.61843,39.11898],[-84.61932,39.11904],[-84.61978,39.11907],[-84.62024,39.1191],[-84.62039,39.11911],[-84.62093,39.11915],[-84.62116,39.11917],[-84.62139,39.11918],[-84.62163,39.1192],[-84.62186,39.11922],[-84.62209,39.11923],[-84.62301,39.1193],[-84.62326,39.11931],[-84.62486,39.11942],[-84.62534,39.11946],[-84.62585,39.11949],[-84.62655,39.11953],[-84.62701,39.11956],[-84.62715,39.11957],[-84.6277,39.11961],[-84.62826,39.11964],[-84.62916,39.1197],[-84.62939,39.11972],[-84.62986,39.11975],[-84.63032,39.11978],[-84.63055,39.11979],[-84.63099,39.11982],[-84.63136,39.11984],[-84.63206,39.11988],[-84.63229,39.1199],[-84.63275,39.11992],[-84.63412,39.12],[-84.63485,39.12005],[-84.6356,39.1201],[-84.63588,39.12012],[-84.63634,39.12015],[-84.63637,39.12015],[-84.63657,39.12017],[-84.63726,39.12021],[-84.63729,39.12022],[-84.63749,39.12023],[-84.63752,39.12023],[-84.63775,39.12025],[-84.63783,39.12025],[-84.63795,39.12026],[-84.63798,39.12026],[-84.63844,39.1203],[-84.63865,39.12031],[-84.63891,39.12033],[-84.63934,39.12036],[-84.64049,39.12045],[-84.64096,39.12048],[-84.64188,39.12055],[-84.64222,39.12057],[-84.64277,39.12061],[-84.6428,39.12061],[-84.64329,39.12066],[-84.64375,39.1207],[-84.64415,39.12074],[-84.64436,39.12076],[-84.64459,39.12077],[-84.64484,39.12075],[-84.6453,39.12068],[-84.64553,39.12064],[-84.64571,39.12061],[-84.64687,39.12039],[-84.64698,39.12036],[-84.64707,39.12034],[-84.64719,39.12032],[-84.6473,39.12028],[-84.64743,39.12024],[-84.64752,39.1202],[-84.64764,39.12015],[-84.64777,39.12009],[-84.64793,39.12002],[-84.64812,39.11992],[-84.64832,39.11983],[-84.64841,39.1198],[-84.6485,39.11977],[-84.64865,39.11972],[-84.64889,39.11964],[-84.64912,39.11957],[-84.64917,39.11955],[-84.6493,39.11952],[-84.64937,39.1195],[-84.64944,39.11948],[-84.64962,39.11944],[-84.64974,39.11941],[-84.6499,39.11939],[-84.65005,39.11937],[-84.6503,39.11935],[-84.65076,39.11931],[-84.65081,39.11931],[-84.65101,39.11929],[-84.6512,39.11927],[-84.65123,39.11927],[-84.65139,39.11926],[-84.65149,39.11926],[-84.65163,39.11926],[-84.65172,39.11926],[-84.65181,39.11926],[-84.65186,39.11926],[-84.65197,39.11926],[-84.65236,39.11929],[-84.65271,39.11932],[-84.65285,39.11933],[-84.65317,39.11937],[-84.65359,39.1194],[-84.65372,39.11941],[-84.65418,39.11945],[-84.65449,39.11947],[-84.65452,39.11947],[-84.65455,39.11948],[-84.65467,39.11949],[-84.65482,39.1195],[-84.65494,39.11952],[-84.65498,39.11952],[-84.65505,39.11953],[-84.65517,39.11955],[-84.65531,39.11958],[-84.65544,39.11961],[-84.65558,39.11964],[-84.65578,39.11969],[-84.65589,39.11972],[-84.656,39.11975],[-84.65608,39.11978],[-84.65613,39.1198],[-84.65626,39.11985],[-84.65629,39.11986],[-84.65638,39.1199],[-84.65653,39.11996],[-84.65669,39.12004],[-84.65681,39.12009],[-84.65692,39.12012],[-84.65704,39.12016],[-84.65713,39.12019],[-84.65722,39.12021],[-84.65731,39.12022],[-84.65742,39.12024],[-84.65747,39.12024],[-84.65763,39.12026],[-84.6577,39.12026],[-84.65796,39.12028],[-84.65817,39.12028],[-84.65845,39.12029],[-84.65855,39.12028],[-84.65865,39.12028],[-84.65871,39.12027],[-84.65886,39.12025],[-84.65912,39.12021],[-84.65923,39.1202],[-84.65936,39.12018],[-84.65945,39.12017],[-84.65961,39.12016],[-84.65967,39.12015],[-84.65977,39.12014],[-84.65987,39.12014],[-84.65988,39.12014],[-84.65998,39.12013],[-84.6601,39.12011],[-84.66017,39.1201],[-84.66021,39.12009],[-84.66027,39.12008],[-84.66033,39.12006],[-84.66041,39.12004],[-84.66048,39.12001],[-84.66057,39.11997],[-84.66068,39.11991],[-84.66076,39.11988],[-84.66082,39.11985],[-84.66094,39.11978],[-84.66108,39.1197],[-84.66115,39.11965],[-84.66121,39.11961],[-84.66128,39.11955],[-84.66144,39.11942],[-84.66162,39.11928],[-84.66165,39.11925],[-84.6617,39.11922],[-84.66176,39.11917],[-84.6618,39.11915],[-84.66184,39.11913],[-84.66188,39.11911],[-84.66193,39.11909],[-84.66199,39.11907],[-84.66207,39.11905],[-84.66212,39.11905],[-84.66216,39.11904],[-84.66221,39.11904],[-84.66226,39.11904],[-84.66232,39.11905],[-84.66236,39.11905],[-84.66241,39.11906],[-84.66244,39.11907],[-84.66246,39.11908],[-84.6625,39.11909],[-84.66255,39.11911],[-84.66261,39.11914],[-84.66271,39.11921],[-84.66277,39.11926],[-84.66283,39.11931],[-84.66289,39.11937],[-84.66295,39.11945],[-84.66301,39.11952],[-84.66306,39.11956],[-84.6631,39.1196],[-84.66315,39.11965],[-84.66321,39.11969],[-84.66328,39.11973],[-84.66339,39.11978],[-84.6635,39.11983],[-84.66364,39.11989],[-84.66372,39.11993],[-84.66384,39.11997],[-84.66392,39.12001],[-84.66402,39.12004],[-84.66417,39.12009],[-84.66432,39.12013],[-84.66447,39.12016],[-84.66464,39.12019],[-84.66472,39.12019],[-84.66482,39.1202],[-84.66496,39.1202],[-84.66509,39.12019],[-84.66518,39.12018],[-84.6652,39.12018],[-84.66534,39.12014],[-84.6654,39.12012],[-84.66548,39.1201],[-84.66561,39.12004],[-84.66563,39.12003],[-84.66581,39.11995],[-84.66602,39.11988],[-84.66607,39.11987],[-84.66617,39.11985],[-84.66628,39.11984],[-84.66636,39.11983],[-84.66644,39.11983],[-84.66652,39.11984],[-84.66662,39.11985],[-84.66669,39.11986],[-84.66674,39.11987],[-84.66687,39.1199],[-84.66701,39.11995],[-84.66709,39.11997],[-84.66718,39.12001],[-84.6673,39.12007],[-84.66736,39.1201],[-84.66745,39.12015],[-84.66762,39.12025],[-84.66778,39.12034],[-84.6679,39.12041],[-84.66802,39.1205],[-84.66805,39.12051],[-84.66816,39.12058],[-84.66845,39.12079],[-84.66856,39.12087],[-84.66862,39.12093],[-84.66869,39.12099],[-84.66878,39.12108],[-84.66885,39.12116],[-84.66889,39.12121],[-84.66892,39.12126],[-84.66899,39.12134],[-84.669,39.12137],[-84.66904,39.12143],[-84.66909,39.12153],[-84.6691,39.12154],[-84.66917,39.12168],[-84.66927,39.12191],[-84.66949,39.12236],[-84.66962,39.12264],[-84.66974,39.12288],[-84.66974,39.12289],[-84.66979,39.12298],[-84.66982,39.12305],[-84.66983,39.12305],[-84.66986,39.12311],[-84.6699,39.12318],[-84.66992,39.1232],[-84.66995,39.12324],[-84.67,39.1233],[-84.67003,39.12333],[-84.67005,39.12334],[-84.6701,39.12339],[-84.67015,39.12343],[-84.67021,39.12348],[-84.67028,39.12353],[-84.6703,39.12354],[-84.67038,39.12359],[-84.67051,39.12368],[-84.67064,39.12377],[-84.67071,39.12381],[-84.67076,39.12385],[-84.67084,39.1239],[-84.67089,39.12393],[-84.6709,39.12394],[-84.67098,39.12398],[-84.67108,39.12403],[-84.67114,39.12406],[-84.67123,39.12409],[-84.67132,39.12412],[-84.67139,39.12413],[-84.67145,39.12415],[-84.67153,39.12416],[-84.67167,39.12417],[-84.67177,39.12418],[-84.67184,39.12418],[-84.67188,39.12418],[-84.672,39.12419],[-84.67207,39.12419],[-84.67217,39.12419],[-84.67223,39.12419],[-84.67232,39.12419],[-84.67262,39.12419],[-84.673,39.12418],[-84.67313,39.12418],[-84.67323,39.12418],[-84.67351,39.12416],[-84.6738,39.12415],[-84.67396,39.12414],[-84.67408,39.12412],[-84.67415,39.12412],[-84.67417,39.12411],[-84.67427,39.1241],[-84.67438,39.12408],[-84.6744,39.12408],[-84.67453,39.12406],[-84.67455,39.12405],[-84.67478,39.12401],[-84.67483,39.124],[-84.67573,39.12381],[-84.67584,39.12379],[-84.67588,39.12378],[-84.67595,39.12376],[-84.6761,39.12373],[-84.67618,39.12372],[-84.6763,39.12369],[-84.67638,39.12368],[-84.67647,39.12367],[-84.67654,39.12366],[-84.67664,39.12365],[-84.67677,39.12364],[-84.677,39.12365],[-84.67709,39.12365],[-84.67723,39.12365],[-84.67738,39.12365],[-84.67747,39.12365],[-84.67774,39.12365],[-84.67789,39.12366],[-84.67803,39.12366],[-84.67821,39.12367],[-84.67826,39.12367],[-84.67844,39.12368],[-84.67847,39.12368],[-84.67883,39.12369],[-84.6789,39.1237],[-84.67936,39.12372],[-84.67949,39.12373],[-84.6796,39.12373],[-84.67983,39.12375],[-84.68006,39.12376],[-84.68025,39.12378],[-84.68029,39.12378],[-84.68052,39.12379],[-84.68098,39.12382],[-84.68145,39.12384],[-84.68168,39.12385],[-84.68182,39.12386],[-84.68256,39.12389],[-84.6826,39.12389],[-84.68283,39.1239],[-84.68307,39.12391],[-84.68323,39.12391],[-84.6833,39.12392],[-84.68353,39.12392],[-84.68384,39.12394],[-84.68434,39.12396],[-84.68527,39.124],[-84.68538,39.124],[-84.6855,39.12401],[-84.68573,39.12401],[-84.68592,39.12402],[-84.68596,39.12402],[-84.68647,39.12404],[-84.68677,39.12405],[-84.68738,39.12408],[-84.68787,39.1241],[-84.68813,39.12412],[-84.68816,39.12412],[-84.68844,39.12414],[-84.68883,39.12417],[-84.68894,39.12418],[-84.68906,39.12419],[-84.68919,39.12421],[-84.68928,39.12422],[-84.68938,39.12424],[-84.68946,39.12425],[-84.68957,39.12427],[-84.68962,39.12428],[-84.68967,39.1243],[-84.6897,39.1243],[-84.68975,39.12432],[-84.68983,39.12435],[-84.69,39.12441],[-84.69016,39.12446],[-84.69028,39.1245],[-84.69032,39.12451],[-84.69046,39.12456],[-84.6905,39.12457],[-84.69095,39.12471],[-84.69107,39.12475],[-84.69122,39.1248],[-84.69127,39.12482],[-84.6913,39.12482],[-84.69135,39.12485],[-84.69141,39.12487],[-84.69156,39.12493],[-84.69163,39.12496],[-84.69169,39.12498],[-84.69177,39.12502],[-84.69181,39.12504],[-84.69186,39.12506],[-84.69189,39.12508],[-84.69197,39.12512],[-84.69203,39.12515],[-84.69213,39.12522],[-84.69218,39.12526],[-84.69225,39.12531],[-84.69239,39.12542],[-84.69259,39.12556],[-84.69276,39.12568],[-84.69296,39.12582],[-84.69321,39.12599],[-84.69331,39.12606],[-84.69338,39.12611],[-84.69347,39.12619],[-84.69352,39.12623],[-84.69362,39.12633],[-84.69364,39.12635],[-84.69377,39.12646],[-84.69377,39.12646],[-84.69396,39.12665],[-84.69421,39.12688],[-84.69425,39.12693],[-84.69435,39.12702],[-84.6945,39.12716],[-84.69455,39.1272],[-84.69472,39.12733],[-84.69476,39.12736],[-84.69483,39.12741],[-84.69489,39.12745],[-84.69507,39.12756],[-84.69519,39.12764],[-84.69525,39.12768],[-84.69643,39.12845],[-84.69649,39.12849],[-84.69653,39.12852],[-84.69732,39.12903],[-84.69738,39.12906],[-84.69767,39.12925],[-84.69792,39.12943],[-84.69802,39.1295],[-84.69807,39.12954],[-84.69809,39.12956],[-84.69814,39.1296],[-84.69817,39.12963],[-84.69821,39.12967],[-84.69822,39.12968],[-84.69825,39.12971],[-84.6983,39.12976],[-84.69833,39.1298],[-84.6984,39.12989],[-84.69846,39.12996],[-84.6986,39.13013],[-84.69868,39.13024],[-84.69872,39.13029],[-84.69897,39.1306],[-84.69909,39.13075],[-84.69915,39.13082],[-84.69938,39.13107],[-84.69975,39.1315],[-84.69976,39.13151],[-84.69981,39.13156],[-84.69994,39.13171],[-84.7,39.13179],[-84.70002,39.1318],[-84.70007,39.13186],[-84.70026,39.13208],[-84.70041,39.13224],[-84.70048,39.13232],[-84.70062,39.13245],[-84.70067,39.1325],[-84.7007,39.13253],[-84.70077,39.13258],[-84.70107,39.13285],[-84.70131,39.13307],[-84.70138,39.13312],[-84.70161,39.13333],[-84.7017,39.1334],[-84.70179,39.13347],[-84.70191,39.13355],[-84.70205,39.13363],[-84.7025,39.1339],[-84.70255,39.13393],[-84.7028,39.13406],[-84.70288,39.13411],[-84.70423,39.13484],[-84.70435,39.1349],[-84.7044,39.13493],[-84.70454,39.13501],[-84.70475,39.13512],[-84.70499,39.13524],[-84.70524,39.13537],[-84.70551,39.1355],[-84.70558,39.13554],[-84.70571,39.1356],[-84.70607,39.13576],[-84.70748,39.13639],[-84.70768,39.13648],[-84.70773,39.1365],[-84.70827,39.13675],[-84.70887,39.13701],[-84.70919,39.13715],[-84.7097,39.13717],[-84.70986,39.13718],[-84.70996,39.13717],[-84.71011,39.13717],[-84.71022,39.13718],[-84.71036,39.13722],[-84.71046,39.13725],[-84.71048,39.13726],[-84.71055,39.1373],[-84.71066,39.13737],[-84.7107,39.13742],[-84.71083,39.13749],[-84.7109,39.13754],[-84.71108,39.13764],[-84.7113,39.13774],[-84.71156,39.13785],[-84.71166,39.13788],[-84.71265,39.13828],[-84.71323,39.13851],[-84.714,39.13883],[-84.71405,39.13885],[-84.71445,39.13901],[-84.71503,39.13925],[-84.71503,39.13925],[-84.71509,39.13914],[-84.71527,39.13881],[-84.71527,39.13881],[-84.71598,39.13909],[-84.71676,39.13943],[-84.7169,39.13945],[-84.71742,39.1397],[-84.71753,39.13976],[-84.71766,39.13983],[-84.71788,39.13994],[-84.718,39.14001],[-84.71806,39.14005],[-84.71879,39.14045],[-84.72,39.14114],[-84.72035,39.14133],[-84.72069,39.14152],[-84.72094,39.14165],[-84.72105,39.1417],[-84.72116,39.14175],[-84.7213,39.14181],[-84.72149,39.14189],[-84.72161,39.14194],[-84.72174,39.14198],[-84.72198,39.14207],[-84.72212,39.14212],[-84.72233,39.14219],[-84.72276,39.14234],[-84.72297,39.14241],[-84.72305,39.14244],[-84.72357,39.14262],[-84.72398,39.14278],[-84.7244,39.14294],[-84.72596,39.14358],[-84.72656,39.14381],[-84.72677,39.14389],[-84.72679,39.1439],[-84.72698,39.14398],[-84.72706,39.144],[-84.72745,39.14417],[-84.72768,39.14427],[-84.728,39.1444],[-84.72861,39.14467],[-84.72876,39.14474],[-84.729,39.14485],[-84.7295,39.14509],[-84.72976,39.1452],[-84.73014,39.14537],[-84.7303,39.14544],[-84.73043,39.14549],[-84.73069,39.1456],[-84.73096,39.1457],[-84.73108,39.14578],[-84.7311,39.14579],[-84.73195,39.14609],[-84.73376,39.14662],[-84.7339,39.14663],[-84.73412,39.14671],[-84.73425,39.14675],[-84.73439,39.1468],[-84.73452,39.14685],[-84.73464,39.14689],[-84.7348,39.14696],[-84.73515,39.1471],[-84.73542,39.14722],[-84.73657,39.14772],[-84.73677,39.14781],[-84.73737,39.14808],[-84.73757,39.14817],[-84.73785,39.14829],[-84.73818,39.14843],[-84.73838,39.14852],[-84.73853,39.14859],[-84.7387,39.14866],[-84.73885,39.14873],[-84.73905,39.1488],[-84.73919,39.14886],[-84.73936,39.14891],[-84.73944,39.14894],[-84.73956,39.14897],[-84.73972,39.14901],[-84.73988,39.14904],[-84.74012,39.14909],[-84.74014,39.14909],[-84.74033,39.14914],[-84.74049,39.14916],[-84.7409,39.1492],[-84.74102,39.1492],[-84.74183,39.14924],[-84.74242,39.14927],[-84.74395,39.14933],[-84.74418,39.14934],[-84.74557,39.1494],[-84.74571,39.14941],[-84.74595,39.14943],[-84.74614,39.14945],[-84.74631,39.14947],[-84.74651,39.1495],[-84.74657,39.14951],[-84.74663,39.14953],[-84.74675,39.14954],[-84.74675,39.14954],[-84.74689,39.14957],[-84.74703,39.14961],[-84.74715,39.14964],[-84.74728,39.14968],[-84.74741,39.14972],[-84.74751,39.14976],[-84.74765,39.14981],[-84.74778,39.14987],[-84.748,39.14998],[-84.74812,39.15005],[-84.74824,39.15011],[-84.74834,39.15017],[-84.74842,39.15022],[-84.74848,39.15026],[-84.74854,39.15029],[-84.74868,39.1504],[-84.74876,39.15046],[-84.74883,39.15052],[-84.74888,39.15056],[-84.74896,39.15063],[-84.74898,39.15065],[-84.74909,39.15075],[-84.74917,39.15084],[-84.74929,39.15098],[-84.74938,39.15109],[-84.74951,39.15126],[-84.74956,39.15133],[-84.74963,39.15144],[-84.74974,39.15164],[-84.74979,39.15173],[-84.74985,39.15184],[-84.74996,39.15205],[-84.75003,39.1522],[-84.75011,39.15235],[-84.75014,39.1524],[-84.75016,39.15246],[-84.75034,39.15279],[-84.75039,39.1529],[-84.75045,39.15303],[-84.75056,39.15326],[-84.75065,39.15349],[-84.75067,39.15352],[-84.75072,39.15369],[-84.75078,39.15393],[-84.7508,39.15401],[-84.75082,39.15413],[-84.75084,39.15429],[-84.75086,39.15447],[-84.75087,39.15473],[-84.75087,39.15491],[-84.75086,39.1551],[-84.75085,39.15531],[-84.75077,39.15655],[-84.75075,39.15714],[-84.75075,39.15714],[-84.75087,39.15712],[-84.75094,39.1571],[-84.75099,39.15709],[-84.75103,39.15708],[-84.75107,39.15707],[-84.75117,39.15705],[-84.75124,39.15704],[-84.75161,39.15692],[-84.75183,39.15683],[-84.75208,39.15673],[-84.75261,39.15652],[-84.7527,39.1565],[-84.75281,39.15646],[-84.75398,39.15643],[-84.75398,39.15643],[-84.75404,39.15656],[-84.75436,39.15709],[-84.75445,39.15721],[-84.75459,39.15734],[-84.75459,39.15734],[-84.75477,39.15734],[-84.75497,39.15735],[-84.75514,39.15738],[-84.75528,39.1574],[-84.75534,39.15742],[-84.75622,39.15763],[-84.75711,39.15784],[-84.75733,39.15789],[-84.75756,39.15795],[-84.75772,39.15799],[-84.75772,39.15799],[-84.75789,39.15803],[-84.75809,39.15807],[-84.75853,39.15818],[-84.7587,39.15822],[-84.75898,39.15827],[-84.7592,39.15832],[-84.75932,39.15834],[-84.75973,39.15842],[-84.76101,39.15866],[-84.76102,39.15866],[-84.76124,39.15869],[-84.7613,39.15869],[-84.76165,39.15872],[-84.76262,39.15877],[-84.76286,39.15878],[-84.76303,39.15878],[-84.76309,39.15879],[-84.76332,39.1588],[-84.76401,39.15884],[-84.76424,39.15885],[-84.76446,39.15887],[-84.76467,39.15889],[-84.7647,39.1589],[-84.76491,39.15894],[-84.76512,39.15898],[-84.76522,39.15902],[-84.76535,39.15905],[-84.76537,39.15906],[-84.76558,39.15914],[-84.76567,39.15918],[-84.76604,39.15936],[-84.76617,39.15942],[-84.76636,39.15952],[-84.76644,39.15955],[-84.76678,39.1597],[-84.76697,39.15977],[-84.7671,39.15982],[-84.76739,39.15992],[-84.76747,39.15995],[-84.76761,39.15999],[-84.76805,39.16012],[-84.76812,39.16014],[-84.76818,39.16016],[-84.76826,39.16018],[-84.76849,39.16023],[-84.76881,39.16029],[-84.76912,39.16033],[-84.76927,39.16034],[-84.7701,39.16035],[-84.77017,39.16035],[-84.77033,39.16036],[-84.77051,39.16036],[-84.77076,39.16035],[-84.771,39.16036],[-84.77129,39.16038],[-84.77143,39.1604],[-84.77148,39.16041],[-84.77156,39.16042],[-84.77179,39.16044],[-84.77194,39.16046],[-84.77201,39.16047],[-84.77202,39.16047],[-84.77225,39.16048],[-84.77246,39.16048],[-84.77287,39.16049],[-84.77295,39.16049],[-84.77344,39.16047],[-84.77383,39.16045],[-84.77389,39.16044],[-84.77433,39.1604],[-84.77449,39.16039],[-84.77462,39.16038],[-84.77479,39.16036],[-84.77495,39.16035],[-84.77508,39.16033],[-84.77525,39.16032],[-84.77548,39.16029],[-84.77624,39.16022],[-84.77642,39.1602],[-84.7766,39.16018],[-84.77678,39.16018],[-84.77687,39.16019],[-84.777,39.1602],[-84.77758,39.16027],[-84.77779,39.16028],[-84.77787,39.16028],[-84.77794,39.16028],[-84.77802,39.16028],[-84.77808,39.16028],[-84.77813,39.16028],[-84.77817,39.16028],[-84.77825,39.16028],[-84.7784,39.16027],[-84.77845,39.16027],[-84.77848,39.16026],[-84.7787,39.16024],[-84.77888,39.16021],[-84.77976,39.16004],[-84.77984,39.16002],[-84.77999,39.15999],[-84.78012,39.15996],[-84.78021,39.15995],[-84.78029,39.15993],[-84.78044,39.1599],[-84.78119,39.15975],[-84.7814,39.15969],[-84.78143,39.15969],[-84.78146,39.15968],[-84.78155,39.15965],[-84.78162,39.15962],[-84.78165,39.15961],[-84.78181,39.15954],[-84.78208,39.15944],[-84.7834,39.1589],[-84.78346,39.15887],[-84.7836,39.15881],[-84.78381,39.15873],[-84.78387,39.1587],[-84.78401,39.15865],[-84.78414,39.15859],[-84.78453,39.15839],[-84.78465,39.15831],[-84.78476,39.15823],[-84.78482,39.15818],[-84.78493,39.1581],[-84.78499,39.15806],[-84.7851,39.15798],[-84.78516,39.15794],[-84.78529,39.15785],[-84.78661,39.15695],[-84.78685,39.1568],[-84.7869,39.15676],[-84.78702,39.15668],[-84.78703,39.15667],[-84.78708,39.15664],[-84.78798,39.15617],[-84.78817,39.15607],[-84.78823,39.15603],[-84.78836,39.15596],[-84.78842,39.15593],[-84.78855,39.15586],[-84.78857,39.15585],[-84.78914,39.15561],[-84.78937,39.15552],[-84.79068,39.15501],[-84.79093,39.15491],[-84.79109,39.15483],[-84.79131,39.15467],[-84.7917,39.15438],[-84.79203,39.15413],[-84.79219,39.154],[-84.79225,39.15396],[-84.79241,39.15383],[-84.79269,39.15362],[-84.79274,39.15358],[-84.79285,39.15349],[-84.79302,39.15337],[-84.79318,39.15324],[-84.79324,39.1532],[-84.79335,39.15312],[-84.79358,39.15294],[-84.79374,39.15281],[-84.79385,39.15274],[-84.79407,39.15256],[-84.79407,39.15256],[-84.79427,39.15265],[-84.79477,39.15297],[-84.7949,39.15304],[-84.79532,39.15328],[-84.79547,39.15337],[-84.79569,39.1535],[-84.79587,39.15361],[-84.79589,39.15362],[-84.79606,39.15372],[-84.79643,39.15393],[-84.79655,39.154],[-84.79679,39.15414],[-84.79681,39.15414],[-84.79698,39.15424],[-84.79703,39.15427],[-84.79719,39.15435],[-84.79737,39.15443],[-84.79757,39.15453],[-84.798,39.15467],[-84.79801,39.15468],[-84.79821,39.15474],[-84.79822,39.15475],[-84.79842,39.15482],[-84.79844,39.15482],[-84.79862,39.15488],[-84.79863,39.15489],[-84.79884,39.15496],[-84.79886,39.15497],[-84.79906,39.15504],[-84.79907,39.15504],[-84.79927,39.15511],[-84.79971,39.15526],[-84.80071,39.15561],[-84.80161,39.15594],[-84.8018,39.15601],[-84.80182,39.15601],[-84.80243,39.15623],[-84.80245,39.15624],[-84.80264,39.15631],[-84.80266,39.15632],[-84.80306,39.15646],[-84.80308,39.15647],[-84.80329,39.15654],[-84.80348,39.15661],[-84.8038,39.15672],[-84.8041,39.15686],[-84.80432,39.15706],[-84.80434,39.15708],[-84.80446,39.15719],[-84.8045,39.15723],[-84.80455,39.1573],[-84.80467,39.15757],[-84.80475,39.15782],[-84.8048,39.15799],[-84.80491,39.15834],[-84.80494,39.15852],[-84.80494,39.15853],[-84.80495,39.15866],[-84.80494,39.1589],[-84.80494,39.15914],[-84.80493,39.15944],[-84.80493,39.15957],[-84.80493,39.16007],[-84.80493,39.16054],[-84.80492,39.16103],[-84.80491,39.16148],[-84.80491,39.16148],[-84.80611,39.16147],[-84.80711,39.16146],[-84.80729,39.16144],[-84.80751,39.16141],[-84.80797,39.1613],[-84.80885,39.1611],[-84.80898,39.16108],[-84.80902,39.16107],[-84.80933,39.16101],[-84.80948,39.16099],[-84.80964,39.16098],[-84.80981,39.16099],[-84.80994,39.161],[-84.80997,39.161],[-84.81017,39.16104],[-84.81036,39.16109],[-84.81054,39.16115],[-84.81059,39.16118],[-84.81068,39.16122],[-84.81084,39.16132],[-84.81104,39.16144],[-84.81124,39.16158],[-84.81136,39.16166],[-84.81139,39.16168],[-84.81147,39.16175],[-84.81167,39.16189],[-84.81187,39.16204],[-84.81207,39.16211],[-84.81207,39.16211],[-84.81225,39.16194],[-84.81237,39.16182],[-84.81242,39.16177],[-84.81264,39.16152],[-84.81316,39.16092],[-84.81343,39.16061],[-84.81354,39.16048],[-84.81384,39.16017],[-84.8139,39.1601],[-84.81421,39.15991],[-84.81436,39.15982],[-84.81446,39.15978],[-84.81509,39.15961],[-84.81531,39.15955],[-84.81533,39.15954],[-84.81553,39.15949],[-84.81555,39.15948],[-84.81575,39.15943],[-84.81577,39.15942],[-84.81597,39.15937],[-84.81628,39.15928],[-84.81641,39.15925],[-84.81663,39.1592],[-84.81665,39.1592],[-84.81686,39.15915],[-84.81707,39.1591],[-84.81709,39.1591],[-84.8173,39.15905],[-84.81732,39.15905],[-84.81797,39.1589],[-84.81799,39.1589],[-84.81841,39.15881],[-84.81843,39.1588],[-84.81886,39.15871],[-84.81888,39.1587],[-84.81908,39.15866],[-84.81953,39.15856],[-84.8197,39.15851],[-84.81992,39.15845],[-84.82034,39.15832],[-84.82036,39.15831],[-84.82046,39.15829],[-84.82067,39.15823],[-84.82093,39.15815],[-84.821,39.15812],[-84.821,39.15812],[-84.82088,39.15792],[-84.82085,39.15788],[-84.82084,39.15785],[-84.82067,39.1576],[-84.82063,39.15755],[-84.82057,39.15744],[-84.82051,39.15732],[-84.82047,39.15722],[-84.82043,39.1571],[-84.82042,39.15706],[-84.8204,39.15696],[-84.82038,39.15686],[-84.82036,39.1567],[-84.82036,39.15664],[-84.82035,39.15637],[-84.82033,39.15602],[-84.82032,39.15586],[-84.82029,39.15551],[-84.82026,39.15544],[-84.82026,39.15525],[-84.82025,39.15425],[-84.82025,39.1539],[-84.82025,39.15378],[-84.82025,39.15353],[-84.82025,39.1534],[-84.82025,39.15281],[-84.82025,39.15278],[-84.82025,39.15224],[-84.82025,39.15134],[-84.82025,39.15117],[-84.82025,39.15098],[-84.82025,39.15063],[-84.82024,39.15006],[-84.82025,39.14951],[-84.82027,39.14912],[-84.82027,39.14912],[-84.82058,39.14907],[-84.82113,39.149],[-84.82147,39.14895],[-84.82173,39.14891],[-84.82193,39.14888],[-84.8221,39.14884],[-84.82254,39.14873],[-84.82275,39.14867],[-84.82286,39.14863],[-84.82302,39.14857],[-84.82309,39.14854],[-84.82321,39.1485],[-84.82339,39.14842],[-84.82355,39.14835],[-84.8237,39.14828],[-84.82382,39.14821],[-84.82395,39.14814],[-84.82414,39.14803],[-84.82439,39.14786],[-84.82452,39.14776],[-84.82469,39.14763],[-84.82486,39.14749],[-84.82501,39.14736],[-84.82511,39.14725],[-84.82528,39.14707],[-84.8257,39.1466],[-84.82574,39.14656],[-84.82605,39.14621],[-84.82618,39.14606],[-84.82633,39.1459],[-84.82647,39.14573],[-84.82648,39.14572],[-84.82665,39.14552],[-84.82702,39.14505],[-84.82715,39.14502],[-84.8272,39.145],[-84.82726,39.14497],[-84.82728,39.14496],[-84.82731,39.14493],[-84.82736,39.14488],[-84.82738,39.14484],[-84.82742,39.1448],[-84.82748,39.14472],[-84.82755,39.14463],[-84.82762,39.14456],[-84.82801,39.14418],[-84.82806,39.14413],[-84.82828,39.14392],[-84.82831,39.1439],[-84.82864,39.14357],[-84.8288,39.14342],[-84.82911,39.14312],[-84.82942,39.14283],[-84.82985,39.14246],[-84.82987,39.14244],[-84.82988,39.14243],[-84.83,39.14232],[-84.83016,39.14219],[-84.8302,39.14215],[-84.83036,39.14203],[-84.83054,39.14189],[-84.83078,39.14171],[-84.8308,39.1417],[-84.83085,39.14166],[-84.83099,39.14156],[-84.8312,39.14142],[-84.83146,39.14125],[-84.83197,39.14091],[-84.83225,39.14073],[-84.83244,39.14061],[-84.83266,39.14047],[-84.83308,39.14019],[-84.83347,39.13995],[-84.83359,39.13987],[-84.83371,39.13981],[-84.83383,39.13973],[-84.83398,39.13965],[-84.83415,39.13957],[-84.83428,39.13951],[-84.83441,39.13946],[-84.83455,39.13941],[-84.8346,39.13939],[-84.83483,39.1393],[-84.83528,39.13913],[-84.83568,39.13899],[-84.83602,39.13885],[-84.8364,39.13871],[-84.83681,39.13855],[-84.83707,39.13845],[-84.83767,39.13821],[-84.838,39.13809],[-84.8381,39.13804],[-84.83822,39.13799],[-84.83839,39.1379],[-84.83854,39.13782],[-84.83859,39.13779],[-84.83872,39.13771],[-84.83877,39.13767],[-84.83888,39.1376],[-84.83895,39.13754],[-84.83906,39.13746],[-84.83911,39.13739],[-84.83915,39.13734],[-84.83925,39.13723],[-84.83937,39.13703],[-84.8395,39.13685],[-84.83961,39.13667],[-84.83977,39.13642],[-84.83981,39.13635],[-84.83983,39.13629],[-84.83985,39.13623],[-84.83988,39.13616],[-84.83991,39.13607],[-84.83993,39.13596],[-84.83994,39.13581],[-84.83995,39.13571],[-84.83996,39.13563],[-84.83996,39.13552],[-84.83997,39.13545],[-84.83997,39.13539],[-84.83999,39.13529],[-84.84,39.13527],[-84.84002,39.13519],[-84.84004,39.13509],[-84.84005,39.13508],[-84.84009,39.13498],[-84.84011,39.13492],[-84.84013,39.13488],[-84.8402,39.13476],[-84.8403,39.1346],[-84.8403,39.13459],[-84.84035,39.13453],[-84.84046,39.13441],[-84.8406,39.13427],[-84.84075,39.13413],[-84.8409,39.13401],[-84.84114,39.13383],[-84.84141,39.13364],[-84.84151,39.13356],[-84.84163,39.13346],[-84.84168,39.1334],[-84.8417,39.13339],[-84.84171,39.13338],[-84.84182,39.13326],[-84.84188,39.13319],[-84.84195,39.13311],[-84.84196,39.1331],[-84.84208,39.13296],[-84.84212,39.13292],[-84.84221,39.13281],[-84.84222,39.1328],[-84.84225,39.13276],[-84.84231,39.13268],[-84.84237,39.13259],[-84.8424,39.13251],[-84.84243,39.13243],[-84.84245,39.13237],[-84.84246,39.13231],[-84.84247,39.1323],[-84.84247,39.13223],[-84.84249,39.13199],[-84.84249,39.13196],[-84.84248,39.13194],[-84.84248,39.13182],[-84.84248,39.13178],[-84.84248,39.13143],[-84.84249,39.13125],[-84.84252,39.13104],[-84.84253,39.13098],[-84.84255,39.13091],[-84.8426,39.13077],[-84.84265,39.13063],[-84.84269,39.13054],[-84.8427,39.13052],[-84.84273,39.13046],[-84.84285,39.1302],[-84.84286,39.13018],[-84.84287,39.13016],[-84.84294,39.13003],[-84.84303,39.12986],[-84.84312,39.12968],[-84.84315,39.12962],[-84.84347,39.12903],[-84.84352,39.12893],[-84.84365,39.1287],[-84.84374,39.12854],[-84.84375,39.12852],[-84.84381,39.12841],[-84.84383,39.12837],[-84.84384,39.12836],[-84.84392,39.12821],[-84.84402,39.12803],[-84.84412,39.12788],[-84.84413,39.12786],[-84.84423,39.12772],[-84.84426,39.12768],[-84.84436,39.12755],[-84.84449,39.12737],[-84.84459,39.12725],[-84.84474,39.12708],[-84.84483,39.12697],[-84.84484,39.12696],[-84.84502,39.12678],[-84.84518,39.12664],[-84.84553,39.12635],[-84.84573,39.12619],[-84.8459,39.12607],[-84.84594,39.12604],[-84.84596,39.12603],[-84.84612,39.12592],[-84.84613,39.12591],[-84.84624,39.12585],[-84.84637,39.12577],[-84.84653,39.12569],[-84.8467,39.12561],[-84.84689,39.12552],[-84.84693,39.12551],[-84.84709,39.12544],[-84.84719,39.12539],[-84.8473,39.12535],[-84.84732,39.12534],[-84.8475,39.12527],[-84.84767,39.1252],[-84.84777,39.12516],[-84.84789,39.12512],[-84.8481,39.12505],[-84.84813,39.12504],[-84.84815,39.12503],[-84.84835,39.12498],[-84.84854,39.12493],[-84.84867,39.1249],[-84.84875,39.12489],[-84.84883,39.12488],[-84.84892,39.12487],[-84.84902,39.12487],[-84.84905,39.12487],[-84.84916,39.12486],[-84.84926,39.12486],[-84.8493,39.12486],[-84.84949,39.12486],[-84.84973,39.12485],[-84.84975,39.12485],[-84.84995,39.12485],[-84.84996,39.12485],[-84.85019,39.12485],[-84.85042,39.12485],[-84.85112,39.12485],[-84.85114,39.12485],[-84.85135,39.12485],[-84.85142,39.12485],[-84.85158,39.12486],[-84.8516,39.12486],[-84.85167,39.12486],[-84.85181,39.12486],[-84.85194,39.12486],[-84.85201,39.12487],[-84.85204,39.12487],[-84.85215,39.12487],[-84.85224,39.12488],[-84.85227,39.12489],[-84.85234,39.12489],[-84.8525,39.12493],[-84.85267,39.12497],[-84.85289,39.12502],[-84.85289,39.12502],[-84.85292,39.12485],[-84.85294,39.12473],[-84.85296,39.12462],[-84.85298,39.12454],[-84.853,39.1244],[-84.85302,39.12429],[-84.85304,39.12418],[-84.85307,39.12396],[-84.85322,39.12348],[-84.85331,39.12329],[-84.85341,39.12306],[-84.85355,39.12281],[-84.85368,39.1226],[-84.8538,39.12244],[-84.85397,39.12223],[-84.85421,39.12193],[-84.85439,39.12171],[-84.85449,39.12157],[-84.8546,39.12141],[-84.85478,39.12112],[-84.85506,39.1206],[-84.85541,39.11993],[-84.85577,39.11928],[-84.85589,39.11908],[-84.85609,39.11878],[-84.85638,39.11837],[-84.85655,39.11815],[-84.85663,39.11804],[-84.85671,39.11789],[-84.85675,39.11779],[-84.85678,39.11769],[-84.85681,39.11751],[-84.8569,39.1167],[-84.85693,39.11624],[-84.85694,39.11603],[-84.85695,39.11586],[-84.85696,39.11576],[-84.85697,39.1154],[-84.85697,39.11483],[-84.85698,39.11471],[-84.85698,39.11466],[-84.857,39.11458],[-84.85701,39.11453],[-84.85704,39.11445],[-84.85708,39.11438],[-84.85718,39.11423],[-84.85725,39.11414],[-84.85751,39.11382],[-84.85806,39.11315],[-84.85811,39.11309],[-84.85876,39.11229],[-84.85928,39.1117],[-84.8598,39.1111],[-84.86011,39.11075],[-84.86046,39.11033],[-84.86058,39.11018],[-84.86064,39.11008],[-84.86066,39.11005],[-84.86074,39.10983],[-84.86081,39.10955],[-84.86092,39.10914],[-84.86101,39.10882],[-84.86111,39.10852],[-84.86112,39.10846],[-84.86123,39.10811],[-84.86161,39.10708],[-84.86183,39.10647],[-84.86198,39.10604],[-84.86218,39.10546],[-84.86229,39.10514],[-84.86242,39.10476],[-84.8625,39.10443],[-84.86254,39.10432],[-84.86259,39.10414],[-84.86272,39.10372],[-84.86284,39.10322],[-84.8629,39.10293],[-84.86291,39.10269],[-84.86292,39.10256],[-84.86292,39.10245],[-84.86292,39.10228],[-84.86292,39.10227],[-84.86292,39.10209],[-84.86292,39.10194],[-84.86292,39.10173],[-84.86292,39.10171],[-84.86293,39.10163],[-84.86291,39.10153],[-84.86288,39.10145],[-84.86285,39.10138],[-84.86284,39.10137],[-84.86279,39.1013],[-84.86274,39.10124],[-84.86263,39.10111],[-84.8625,39.10096],[-84.86246,39.10093],[-84.86232,39.10079],[-84.86221,39.10068],[-84.86217,39.10065],[-84.86205,39.10054],[-84.86202,39.10052],[-84.86189,39.1004],[-84.86186,39.10038],[-84.86162,39.10019],[-84.8614,39.10001],[-84.86121,39.09988],[-84.86119,39.09987],[-84.86112,39.09982],[-84.86106,39.09977],[-84.86103,39.09976],[-84.86095,39.09971],[-84.86087,39.09966],[-84.86064,39.09956],[-84.86014,39.09931],[-84.85997,39.09922],[-84.85985,39.09915],[-84.85979,39.09911],[-84.85974,39.09906],[-84.85941,39.09823],[-84.85918,39.09763],[-84.85903,39.09728],[-84.85895,39.09707],[-84.85895,39.09707],[-84.85825,39.09724],[-84.85755,39.09739],[-84.85755,39.09739],[-84.85739,39.09696],[-84.85734,39.09682],[-84.85716,39.09635],[-84.85697,39.09583],[-84.85677,39.09528],[-84.85667,39.09502],[-84.85659,39.09479],[-84.85638,39.09424],[-84.85623,39.09385],[-84.85603,39.09333],[-84.85596,39.09316],[-84.85593,39.09307],[-84.85584,39.09282],[-84.85568,39.09249],[-84.85564,39.09239],[-84.85557,39.09223],[-84.85551,39.09215],[-84.85548,39.09211],[-84.85546,39.09208],[-84.85532,39.09198],[-84.85488,39.09159],[-84.85435,39.09116],[-84.85427,39.09111],[-84.85391,39.09085],[-84.85355,39.09068],[-84.85328,39.09055],[-84.8531,39.09041],[-84.85295,39.09009],[-84.85294,39.09004],[-84.85292,39.08995],[-84.85291,39.08992],[-84.85289,39.08987],[-84.85279,39.08956],[-84.85279,39.08956],[-84.85302,39.08948],[-84.85318,39.08937],[-84.85335,39.08924],[-84.85352,39.08912],[-84.85415,39.08869],[-84.85443,39.08845],[-84.85443,39.08835],[-84.85443,39.08826],[-84.8544,39.08817],[-84.85434,39.088],[-84.85425,39.08783],[-84.85419,39.08773],[-84.85416,39.0875],[-84.85416,39.0875],[-84.85397,39.08739],[-84.85331,39.08699],[-84.85331,39.08699],[-84.8535,39.08688],[-84.85357,39.08685],[-84.85365,39.0868],[-84.85388,39.08664],[-84.85402,39.08654],[-84.85403,39.08654],[-84.85411,39.08648],[-84.85419,39.08642],[-84.8542,39.08642],[-84.85432,39.08633],[-84.8545,39.08615],[-84.85456,39.08609],[-84.85477,39.08586],[-84.85477,39.08585],[-84.85484,39.08578],[-84.85486,39.08576],[-84.85488,39.08574],[-84.85493,39.08572],[-84.85513,39.08566],[-84.85514,39.08565],[-84.85578,39.08545],[-84.85599,39.08538],[-84.85641,39.08523],[-84.85642,39.08523],[-84.85666,39.08514],[-84.85685,39.08508],[-84.85696,39.08505],[-84.85714,39.08502],[-84.85768,39.08502],[-84.85801,39.08499],[-84.85817,39.08496],[-84.85834,39.08493],[-84.85865,39.08485],[-84.85876,39.08482],[-84.85905,39.08476],[-84.85968,39.08461],[-84.86011,39.08452],[-84.8603,39.08446],[-84.86052,39.0844],[-84.86062,39.08436],[-84.86153,39.08399],[-84.86185,39.08384],[-84.86205,39.08375],[-84.86258,39.08351],[-84.86265,39.08348],[-84.86335,39.08316],[-84.86349,39.0831],[-84.86438,39.08274],[-84.8653,39.08237],[-84.8654,39.08232],[-84.8656,39.08223],[-84.866,39.08205],[-84.8666,39.08178],[-84.8668,39.08169],[-84.868,39.08114],[-84.8688,39.08078],[-84.8694,39.08051],[-84.8696,39.08042],[-84.87,39.08024],[-84.8702,39.08015],[-84.87068,39.07994],[-84.8708,39.07988],[-84.871,39.07978],[-84.87158,39.07952],[-84.87179,39.0794],[-84.87236,39.07909],[-84.87297,39.07876],[-84.87362,39.07831],[-84.87385,39.07815],[-84.87397,39.07807],[-84.8745,39.07772],[-84.87502,39.07737],[-84.87539,39.07712],[-84.87572,39.0769],[-84.87612,39.07663],[-84.87618,39.07658],[-84.87681,39.07615],[-84.87708,39.07597],[-84.87804,39.07533],[-84.87859,39.07497],[-84.87944,39.07438],[-84.88137,39.07304],[-84.88152,39.07295],[-84.88294,39.07203],[-84.88331,39.07179],[-84.88432,39.07107],[-84.88586,39.06999],[-84.88587,39.06998],[-84.88708,39.06912],[-84.88772,39.06863],[-84.88789,39.0685],[-84.88801,39.06841],[-84.88805,39.06837],[-84.8885,39.06796],[-84.88879,39.0677],[-84.8897,39.0669],[-84.89004,39.06662],[-84.89035,39.06635],[-84.89082,39.06595],[-84.89139,39.06547],[-84.89195,39.06506],[-84.89204,39.06506],[-84.89212,39.06505],[-84.89214,39.06504],[-84.89218,39.06501],[-84.89239,39.06484],[-84.89261,39.06466],[-84.89288,39.06446],[-84.89321,39.06421],[-84.89324,39.06419],[-84.89349,39.064],[-84.89356,39.06397],[-84.89373,39.06393],[-84.89395,39.06387],[-84.89399,39.06385],[-84.89417,39.06375],[-84.89443,39.06361],[-84.89494,39.06334],[-84.89538,39.06311],[-84.89576,39.0629],[-84.89595,39.0628],[-84.89633,39.06259],[-84.89656,39.06247],[-84.89734,39.06197],[-84.8974,39.06191],[-84.89753,39.06176],[-84.89766,39.06161],[-84.89771,39.06156],[-84.89776,39.06145],[-84.89794,39.06112],[-84.89803,39.06096],[-84.89817,39.0607],[-84.89846,39.06007],[-84.89848,39.06003],[-84.89856,39.05986],[-84.89877,39.05936],[-84.89894,39.05899],[-84.89918,39.05863],[-84.89918,39.05863],[-84.89914,39.05852],[-84.89915,39.05832],[-84.89915,39.0583],[-84.89921,39.05807],[-84.89925,39.05795],[-84.89927,39.05791],[-84.89936,39.05757],[-84.89941,39.05739],[-84.89957,39.05702],[-84.8997,39.05672],[-84.89989,39.05634],[-84.89989,39.05634],[-84.90007,39.05596],[-84.90011,39.05586],[-84.90019,39.05565],[-84.90035,39.05531],[-84.90038,39.05525],[-84.90038,39.05525],[-84.89983,39.05509],[-84.89962,39.05503],[-84.89942,39.05497],[-84.89923,39.05492],[-84.89901,39.05487],[-84.89845,39.05469],[-84.89845,39.05469],[-84.89831,39.05466],[-84.89828,39.05465],[-84.89819,39.05462],[-84.89818,39.05461],[-84.89816,39.0546],[-84.89813,39.05458],[-84.89809,39.05455],[-84.89807,39.05453],[-84.89805,39.0545],[-84.89804,39.05445],[-84.89802,39.05437],[-84.89797,39.05374],[-84.89793,39.05334],[-84.89789,39.05284],[-84.89787,39.05269],[-84.89782,39.05252],[-84.8978,39.05244],[-84.89777,39.05235],[-84.8977,39.0522],[-84.89762,39.05207],[-84.89759,39.05201],[-84.89751,39.05188],[-84.89748,39.05185],[-84.89741,39.05174],[-84.89726,39.05153],[-84.89717,39.05142],[-84.89704,39.05127],[-84.897,39.05123],[-84.89685,39.05107],[-84.89672,39.05095],[-84.89667,39.0509],[-84.89645,39.05069],[-84.89643,39.05067],[-84.89623,39.05048],[-84.89595,39.05021],[-84.89584,39.05011],[-84.89569,39.04998],[-84.89552,39.04981],[-84.89505,39.04938],[-84.8948,39.04914],[-84.8947,39.04903],[-84.89459,39.0489],[-84.89456,39.04887],[-84.89446,39.04875],[-84.89444,39.04871],[-84.89437,39.04862],[-84.89424,39.04839],[-84.89412,39.04819],[-84.89409,39.04813],[-84.89396,39.04788],[-84.89381,39.0476],[-84.8937,39.04739],[-84.89364,39.04727],[-84.89361,39.04722],[-84.89344,39.04689],[-84.89326,39.04654],[-84.89318,39.04639],[-84.8931,39.04622],[-84.89306,39.04615],[-84.89283,39.04574],[-84.89273,39.04556],[-84.8927,39.04551],[-84.89261,39.04536],[-84.89218,39.04469],[-84.89212,39.04459],[-84.89201,39.04443],[-84.89198,39.04438],[-84.89178,39.04408],[-84.89161,39.04381],[-84.89142,39.04346],[-84.89139,39.0434],[-84.89128,39.04321],[-84.89101,39.04272],[-84.89086,39.04247],[-84.89067,39.04214],[-84.89061,39.04203],[-84.89057,39.04196],[-84.89042,39.04167],[-84.89035,39.04153],[-84.89025,39.04133],[-84.89023,39.04128],[-84.89012,39.04105],[-84.89009,39.04099],[-84.89001,39.04082],[-84.88988,39.04054],[-84.88986,39.04049],[-84.88977,39.04031],[-84.88974,39.04026],[-84.88963,39.04004],[-84.88958,39.03994],[-84.88949,39.03977],[-84.88948,39.03974],[-84.88943,39.03964],[-84.8893,39.03941],[-84.88909,39.03904],[-84.88907,39.039],[-84.88898,39.03883],[-84.88873,39.0384],[-84.88846,39.03791],[-84.88843,39.03785],[-84.88836,39.03773],[-84.88831,39.03763],[-84.88825,39.03752],[-84.88817,39.03736],[-84.88817,39.03735],[-84.88809,39.03718],[-84.88808,39.03716],[-84.88801,39.03701],[-84.88799,39.03697],[-84.88793,39.03684],[-84.8879,39.03678],[-84.88786,39.03667],[-84.88784,39.03663],[-84.88778,39.03646],[-84.88773,39.03633],[-84.8876,39.03592],[-84.88753,39.03574],[-84.88737,39.03523],[-84.88731,39.03505],[-84.88725,39.03488],[-84.88719,39.0347],[-84.88714,39.03453],[-84.88708,39.03435],[-84.88704,39.03422],[-84.88702,39.03418],[-84.88697,39.034],[-84.88696,39.03396],[-84.88692,39.03383],[-84.88687,39.03366],[-84.88686,39.03365],[-84.88681,39.03348],[-84.88677,39.03333],[-84.88671,39.03313],[-84.88671,39.03312],[-84.88668,39.03303],[-84.88663,39.0329],[-84.88655,39.03269],[-84.88646,39.03244],[-84.88638,39.03223],[-84.88614,39.03139],[-84.88608,39.0312],[-84.88597,39.03086],[-84.88558,39.02963],[-84.88534,39.02896],[-84.88487,39.02769],[-84.88467,39.02716],[-84.88424,39.02605],[-84.88421,39.02598],[-84.88421,39.02596],[-84.88417,39.02588],[-84.88385,39.02504],[-84.88378,39.02484],[-84.88331,39.02363],[-84.88327,39.02353],[-84.88301,39.02284],[-84.88255,39.02163],[-84.88219,39.02069],[-84.88212,39.02051],[-84.88206,39.02034],[-84.88199,39.02017],[-84.88169,39.01939],[-84.88143,39.0187],[-84.88122,39.01816],[-84.88113,39.01793],[-84.88107,39.01776],[-84.881,39.01758],[-84.88097,39.01751],[-84.88084,39.01718],[-84.88067,39.01672],[-84.88041,39.01606],[-84.88026,39.01568],[-84.88011,39.01527],[-84.8799,39.01478],[-84.8796,39.01408],[-84.87934,39.01349],[-84.87908,39.01293],[-84.87895,39.01269],[-84.87881,39.01244],[-84.8786,39.01206],[-84.87849,39.01186],[-84.8784,39.01172],[-84.87838,39.01167],[-84.87829,39.01149],[-84.87809,39.0111],[-84.87803,39.01097],[-84.87787,39.01066],[-84.87785,39.01062],[-84.87779,39.0105],[-84.87766,39.01024],[-84.87762,39.01016],[-84.87752,39.00997],[-84.87744,39.00983],[-84.87737,39.00968],[-84.87728,39.00951],[-84.87719,39.00936],[-84.8771,39.00924],[-84.87706,39.00917],[-84.87704,39.00915],[-84.87694,39.00904],[-84.87688,39.00897],[-84.87672,39.00881],[-84.87651,39.00864],[-84.87634,39.00851],[-84.8762,39.0084],[-84.87613,39.00835],[-84.876,39.00827],[-84.87581,39.00817],[-84.8757,39.00811],[-84.8756,39.00807],[-84.8755,39.00803],[-84.87543,39.008],[-84.87542,39.008],[-84.87535,39.00797],[-84.87527,39.00794],[-84.87512,39.00789],[-84.87504,39.00786],[-84.87492,39.00783],[-84.87485,39.00781],[-84.87474,39.00777],[-84.87464,39.00774],[-84.8746,39.00773],[-84.87445,39.00769],[-84.87436,39.00766],[-84.87421,39.00761],[-84.87409,39.00758],[-84.87399,39.00755],[-84.87371,39.00747],[-84.87356,39.00742],[-84.87318,39.00731],[-84.87283,39.00721],[-84.87259,39.00713],[-84.87243,39.00707],[-84.87225,39.00699],[-84.87209,39.00691],[-84.87208,39.00691],[-84.87194,39.00683],[-84.8719,39.0068],[-84.87173,39.00669],[-84.87172,39.00668],[-84.87158,39.00658],[-84.87143,39.00647],[-84.87133,39.00639],[-84.87123,39.00632],[-84.87108,39.0062],[-84.87106,39.00618],[-84.87091,39.00607],[-84.87062,39.00585],[-84.87039,39.00568],[-84.87022,39.00556],[-84.87003,39.00542],[-84.8698,39.00525],[-84.86946,39.005],[-84.86921,39.00482],[-84.86915,39.00478],[-84.86887,39.00458],[-84.86881,39.00453],[-84.8687,39.00445],[-84.86844,39.00426],[-84.8682,39.00408],[-84.86803,39.00396],[-84.86753,39.0036],[-84.86711,39.00329],[-84.86701,39.00322],[-84.86685,39.0031],[-84.86659,39.0029],[-84.86635,39.00272],[-84.86602,39.00247],[-84.86601,39.00246],[-84.86585,39.00234],[-84.86572,39.00224],[-84.86537,39.00196],[-84.86494,39.00164],[-84.86462,39.00139],[-84.86454,39.00133],[-84.86438,39.0012],[-84.86422,39.00107],[-84.86408,39.00097],[-84.86375,39.00072],[-84.86346,39.00051],[-84.86316,39.00028],[-84.86304,39.0002],[-84.86291,39.00011],[-84.86287,39.00008],[-84.8627,38.99996],[-84.86266,38.99993],[-84.86253,38.99984],[-84.86239,38.99974],[-84.86219,38.9996],[-84.86212,38.99956],[-84.86119,38.99894],[-84.86095,38.99878],[-84.86078,38.99867],[-84.8606,38.99855],[-84.86042,38.99843],[-84.86027,38.99833],[-84.85977,38.99798],[-84.85957,38.99783],[-84.85955,38.99782],[-84.85942,38.9977],[-84.85898,38.99732],[-84.85888,38.99722],[-84.8585,38.99688],[-84.85824,38.99665],[-84.85786,38.99632],[-84.85771,38.99618],[-84.85728,38.99581],[-84.85687,38.99544],[-84.85665,38.99525],[-84.85655,38.99516],[-84.85623,38.99487],[-84.85605,38.99471],[-84.85579,38.99448],[-84.85564,38.99434],[-84.85555,38.99426],[-84.85503,38.99379],[-84.85471,38.99351],[-84.85428,38.99313],[-84.85408,38.99295],[-84.85398,38.99285],[-84.85387,38.99274],[-84.85384,38.99271],[-84.85375,38.99261],[-84.85365,38.9925],[-84.85356,38.99239],[-84.85347,38.99225],[-84.85345,38.99223],[-84.85327,38.99194],[-84.85306,38.9916],[-84.85303,38.99155],[-84.85296,38.99144],[-84.85271,38.99103],[-84.85257,38.99079],[-84.85246,38.99061],[-84.85223,38.99023],[-84.8521,38.99],[-84.85198,38.98982],[-84.85188,38.98965],[-84.85175,38.98944],[-84.85164,38.98923],[-84.85147,38.98893],[-84.85127,38.98855],[-84.85111,38.98823],[-84.85102,38.98807],[-84.85088,38.98783],[-84.85065,38.98745],[-84.85052,38.98722],[-84.85044,38.98709],[-84.85038,38.98696],[-84.85029,38.98679],[-84.85023,38.98667],[-84.85011,38.98639],[-84.85004,38.98624],[-84.84991,38.98591],[-84.84981,38.98562],[-84.84971,38.98529],[-84.84965,38.98509],[-84.8496,38.98492],[-84.84949,38.98455],[-84.84941,38.98428],[-84.84931,38.98395],[-84.84921,38.98363],[-84.84917,38.98351],[-84.84904,38.98309],[-84.84903,38.98305],[-84.84896,38.9827],[-84.84891,38.98247],[-84.84886,38.98213],[-84.84886,38.98211],[-84.8488,38.98176],[-84.84876,38.98154],[-84.84871,38.98121],[-84.84865,38.98087],[-84.84863,38.98074],[-84.84858,38.98049],[-84.84856,38.98036],[-84.84855,38.9802],[-84.84854,38.98005],[-84.84854,38.98004],[-84.84854,38.97993],[-84.84854,38.97983],[-84.84855,38.97952],[-84.84858,38.97897],[-84.8486,38.97857],[-84.84864,38.97807],[-84.84866,38.9779],[-84.84871,38.9776],[-84.84876,38.97724],[-84.84877,38.9772],[-84.8489,38.97643],[-84.84891,38.97635],[-84.84894,38.97617],[-84.84896,38.97608],[-84.84899,38.97585],[-84.84902,38.97563],[-84.84907,38.97549],[-84.84911,38.97525],[-84.8492,38.97476],[-84.84926,38.97437],[-84.84931,38.9741],[-84.84939,38.97363],[-84.84948,38.97314],[-84.84951,38.97294],[-84.84955,38.97266],[-84.84964,38.97216],[-84.84977,38.97132],[-84.84981,38.97113],[-84.84992,38.97038],[-84.84993,38.97022],[-84.84998,38.96965],[-84.85,38.96946],[-84.85003,38.96901],[-84.85004,38.96845],[-84.85004,38.9683],[-84.85002,38.96822],[-84.8501,38.96674],[-84.85013,38.96664],[-84.85014,38.96657],[-84.85019,38.96568],[-84.85021,38.96523],[-84.85023,38.96503],[-84.85025,38.96473],[-84.85027,38.96407],[-84.85028,38.96367],[-84.8503,38.96329],[-84.8503,38.96323],[-84.85032,38.96292],[-84.85036,38.96256],[-84.8504,38.96238],[-84.85046,38.96213],[-84.85051,38.96194],[-84.85052,38.9619],[-84.85056,38.96174],[-84.85059,38.96163],[-84.85062,38.96154],[-84.85065,38.96143],[-84.85069,38.96129],[-84.8507,38.96118],[-84.85071,38.96103],[-84.85071,38.96093],[-84.85071,38.96086],[-84.85072,38.9605],[-84.85073,38.96042],[-84.85073,38.96008],[-84.85074,38.95998],[-84.85073,38.95975],[-84.85073,38.95946],[-84.85074,38.95934],[-84.85072,38.95918],[-84.85073,38.95849],[-84.85073,38.95831],[-84.85073,38.95783],[-84.85073,38.95723],[-84.85074,38.95675],[-84.85074,38.95667],[-84.85074,38.95627],[-84.85074,38.95604],[-84.85074,38.95597],[-84.85074,38.95552],[-84.85074,38.95511],[-84.85074,38.95503],[-84.85075,38.95495],[-84.85076,38.95489],[-84.85081,38.95479],[-84.85089,38.95466],[-84.85097,38.95456],[-84.85108,38.95443],[-84.85109,38.95442],[-84.85143,38.95405],[-84.8515,38.95396],[-84.85184,38.95359],[-84.8523,38.95308],[-84.8523,38.95308],[-84.85216,38.953],[-84.85161,38.9527],[-84.85161,38.9527],[-84.85174,38.95254],[-84.85219,38.95205],[-84.85247,38.95174],[-84.85259,38.95161],[-84.85299,38.95116],[-84.85303,38.95112],[-84.85303,38.95112],[-84.85269,38.95094],[-84.85237,38.95077],[-84.85237,38.95077],[-84.85249,38.95064],[-84.8526,38.95051],[-84.8529,38.95017],[-84.85312,38.94994],[-84.85321,38.94984],[-84.85356,38.94947],[-84.85364,38.94939]]}}]}