{"type":"FeatureCollection","features":[{"type":"Feature","properties":{"_gpxType":"trk","name":"4341 IN-56 - Vault toilet, 1501 Green Rd, Madison, IN 47250","coordinateProperties":{},"id":22},"geometry":{"type":"LineString","coordinates":[[-84.86955,38.93431],[-84.87,38.93391],[-84.8708,38.93322],[-84.87106,38.93298],[-84.87121,38.93284],[-84.87132,38.93273],[-84.87153,38.9325],[-84.8722,38.93169],[-84.87334,38.93033],[-84.87335,38.93032],[-84.87374,38.92985],[-84.87389,38.92967],[-84.87405,38.92945],[-84.87416,38.92929],[-84.87431,38.92907],[-84.87471,38.92844],[-84.87472,38.92842],[-84.87528,38.92756],[-84.87576,38.92682],[-84.87586,38.92666],[-84.87597,38.92649],[-84.87607,38.92633],[-84.87618,38.92617],[-84.87661,38.92551],[-84.87689,38.92509],[-84.87708,38.9248],[-84.87767,38.92395],[-84.87796,38.92353],[-84.87834,38.92298],[-84.87849,38.92273],[-84.87872,38.92238],[-84.87903,38.92186],[-84.87914,38.92168],[-84.87921,38.92154],[-84.87945,38.92114],[-84.8796,38.92086],[-84.87998,38.92019],[-84.88009,38.91998],[-84.88018,38.9198],[-84.88025,38.91963],[-84.88032,38.91949],[-84.88037,38.91934],[-84.88044,38.91916],[-84.88055,38.91878],[-84.88064,38.91839],[-84.88064,38.91839],[-84.88111,38.91854],[-84.88136,38.91862],[-84.88172,38.91874],[-84.88247,38.919],[-84.88277,38.91911],[-84.8829,38.91915],[-84.88332,38.91929],[-84.88346,38.91934],[-84.88354,38.91936],[-84.88375,38.91943],[-84.88396,38.9195],[-84.88438,38.91965],[-84.8846,38.91972],[-84.88502,38.91986],[-84.88523,38.91993],[-84.88566,38.92007],[-84.88665,38.92041],[-84.88774,38.92078],[-84.88796,38.92085],[-84.88817,38.92092],[-84.88902,38.9212],[-84.88948,38.92135],[-84.88994,38.92149],[-84.89033,38.9216],[-84.89076,38.9217],[-84.89102,38.92176],[-84.89131,38.92182],[-84.89166,38.92189],[-84.8921,38.92196],[-84.89233,38.922],[-84.8924,38.92201],[-84.8927,38.92205],[-84.89278,38.92207],[-84.893,38.92209],[-84.89301,38.92209],[-84.8933,38.92213],[-84.89347,38.92214],[-84.89352,38.92215],[-84.8937,38.92216],[-84.8939,38.92218],[-84.89416,38.9222],[-84.89425,38.9222],[-84.89439,38.92221],[-84.89451,38.92222],[-84.89484,38.92223],[-84.89485,38.92223],[-84.89508,38.92224],[-84.89555,38.92226],[-84.89636,38.9223],[-84.89637,38.9223],[-84.89707,38.92233],[-84.89759,38.92235],[-84.89812,38.92237],[-84.89894,38.92241],[-84.899,38.92241],[-84.89935,38.92243],[-84.89944,38.92243],[-84.89957,38.92242],[-84.8997,38.92242],[-84.89986,38.92241],[-84.90004,38.92239],[-84.90019,38.92238],[-84.90038,38.92234],[-84.90061,38.9223],[-84.90096,38.92221],[-84.90127,38.92211],[-84.90144,38.92204],[-84.9016,38.92197],[-84.90166,38.92194],[-84.90186,38.92184],[-84.90199,38.92177],[-84.90212,38.92169],[-84.90234,38.92154],[-84.90251,38.92141],[-84.90257,38.92136],[-84.90267,38.92127],[-84.90281,38.92114],[-84.90302,38.92093],[-84.90323,38.92071],[-84.90331,38.92064],[-84.90338,38.92057],[-84.90345,38.9205],[-84.90352,38.92043],[-84.90357,38.92038],[-84.90373,38.92021],[-84.90374,38.9202],[-84.90416,38.91979],[-84.9045,38.91946],[-84.9047,38.91924],[-84.90502,38.91893],[-84.90522,38.91872],[-84.90527,38.91867],[-84.90538,38.91855],[-84.90552,38.91841],[-84.90552,38.9184],[-84.90579,38.91811],[-84.90607,38.91784],[-84.90646,38.91746],[-84.90656,38.91737],[-84.90663,38.91729],[-84.9067,38.91722],[-84.90689,38.91702],[-84.90702,38.91688],[-84.90724,38.91662],[-84.90735,38.91648],[-84.90737,38.91645],[-84.90748,38.91632],[-84.90754,38.91626],[-84.90758,38.91621],[-84.90766,38.91615],[-84.90772,38.91611],[-84.90778,38.91607],[-84.90788,38.91601],[-84.90797,38.91596],[-84.90806,38.91592],[-84.90822,38.91585],[-84.90838,38.91578],[-84.90848,38.91573],[-84.90857,38.91569],[-84.90863,38.91565],[-84.90868,38.91562],[-84.90874,38.91558],[-84.90877,38.91555],[-84.9088,38.91552],[-84.90883,38.91549],[-84.90886,38.91546],[-84.90889,38.91542],[-84.90893,38.91537],[-84.90897,38.9153],[-84.90902,38.9152],[-84.90907,38.91509],[-84.9092,38.91477],[-84.90925,38.91467],[-84.9093,38.91456],[-84.90934,38.91449],[-84.90939,38.91443],[-84.90941,38.9144],[-84.90944,38.91438],[-84.90946,38.91436],[-84.90948,38.91434],[-84.90953,38.91431],[-84.90958,38.91428],[-84.90963,38.91425],[-84.90967,38.91423],[-84.90972,38.91422],[-84.90978,38.9142],[-84.90983,38.9142],[-84.90994,38.91418],[-84.91005,38.91418],[-84.91034,38.91418],[-84.91056,38.91418],[-84.91072,38.91418],[-84.91081,38.91417],[-84.91088,38.91417],[-84.91097,38.91416],[-84.91103,38.91415],[-84.91111,38.91413],[-84.91118,38.91412],[-84.91124,38.9141],[-84.9113,38.91408],[-84.91136,38.91406],[-84.91143,38.91403],[-84.91145,38.91402],[-84.91155,38.91398],[-84.91166,38.91392],[-84.91194,38.91378],[-84.91224,38.91365],[-84.91228,38.91363],[-84.9126,38.91348],[-84.91296,38.91333],[-84.91304,38.91329],[-84.91316,38.91324],[-84.91368,38.91299],[-84.9138,38.91293],[-84.91396,38.91286],[-84.91403,38.91283],[-84.91405,38.91282],[-84.91412,38.9128],[-84.91421,38.91278],[-84.91425,38.91277],[-84.91429,38.91276],[-84.91438,38.91274],[-84.91448,38.91273],[-84.91457,38.91273],[-84.91494,38.91272],[-84.9154,38.91272],[-84.91581,38.91272],[-84.91666,38.91272],[-84.91718,38.91273],[-84.91727,38.91273],[-84.91741,38.91273],[-84.91766,38.91273],[-84.91779,38.91272],[-84.91791,38.91272],[-84.91803,38.91271],[-84.91815,38.9127],[-84.91871,38.91264],[-84.91879,38.91263],[-84.91971,38.91252],[-84.91977,38.91252],[-84.91993,38.9125],[-84.91994,38.9125],[-84.92009,38.91248],[-84.92027,38.91247],[-84.9204,38.91247],[-84.92041,38.91247],[-84.92057,38.91247],[-84.92063,38.91247],[-84.9207,38.91248],[-84.921,38.9125],[-84.92123,38.91252],[-84.92132,38.91253],[-84.92137,38.91254],[-84.9215,38.91256],[-84.92154,38.91257],[-84.92168,38.91259],[-84.92177,38.91261],[-84.92218,38.91272],[-84.9223,38.91274],[-84.92243,38.91276],[-84.92256,38.91278],[-84.92281,38.91283],[-84.92298,38.91286],[-84.92311,38.91289],[-84.92313,38.91289],[-84.92317,38.9129],[-84.9232,38.91291],[-84.92327,38.91294],[-84.92338,38.91298],[-84.92347,38.91304],[-84.9236,38.91312],[-84.92378,38.91325],[-84.92385,38.9133],[-84.9239,38.91334],[-84.92401,38.91341],[-84.92402,38.91342],[-84.92416,38.91352],[-84.92427,38.91359],[-84.92437,38.91364],[-84.92447,38.91369],[-84.92456,38.91373],[-84.92469,38.91377],[-84.9248,38.9138],[-84.92487,38.91382],[-84.92506,38.91387],[-84.92528,38.91392],[-84.9255,38.91397],[-84.92591,38.91405],[-84.92597,38.91406],[-84.9261,38.91408],[-84.92614,38.91409],[-84.9262,38.9141],[-84.92636,38.91412],[-84.92637,38.91412],[-84.92648,38.91415],[-84.92662,38.91418],[-84.92665,38.91419],[-84.92675,38.91421],[-84.9269,38.91426],[-84.92702,38.91432],[-84.92715,38.91439],[-84.92725,38.91445],[-84.92735,38.91451],[-84.92737,38.91453],[-84.92746,38.91461],[-84.92759,38.91471],[-84.92798,38.91509],[-84.92808,38.91518],[-84.92816,38.91525],[-84.92823,38.91529],[-84.92832,38.91535],[-84.92842,38.91539],[-84.92848,38.91541],[-84.92856,38.91543],[-84.92864,38.91544],[-84.92876,38.91545],[-84.92895,38.91546],[-84.92911,38.91547],[-84.92914,38.91547],[-84.92951,38.91548],[-84.92981,38.91549],[-84.92996,38.91549],[-84.93003,38.91549],[-84.9301,38.91548],[-84.93017,38.91545],[-84.93024,38.91542],[-84.9303,38.91539],[-84.93035,38.91534],[-84.93039,38.91528],[-84.93043,38.91522],[-84.93046,38.91515],[-84.93049,38.91508],[-84.93051,38.915],[-84.93052,38.91491],[-84.93053,38.91478],[-84.93053,38.91476],[-84.93055,38.91458],[-84.93055,38.91453],[-84.93056,38.91445],[-84.93057,38.9144],[-84.93058,38.91437],[-84.9306,38.9143],[-84.93064,38.91424],[-84.93064,38.91423],[-84.93067,38.91419],[-84.93074,38.91413],[-84.93078,38.91409],[-84.9308,38.91407],[-84.93089,38.91403],[-84.93098,38.914],[-84.93108,38.91397],[-84.93123,38.91394],[-84.93139,38.91392],[-84.93143,38.91391],[-84.93159,38.9139],[-84.93234,38.91381],[-84.93241,38.9138],[-84.93277,38.91375],[-84.93293,38.91372],[-84.93306,38.91369],[-84.93318,38.91365],[-84.93328,38.91361],[-84.93338,38.91356],[-84.93353,38.91348],[-84.93379,38.91332],[-84.93397,38.9132],[-84.93487,38.91263],[-84.93502,38.91253],[-84.93505,38.91252],[-84.93559,38.91218],[-84.93564,38.91215],[-84.93577,38.91207],[-84.93595,38.91196],[-84.93631,38.91174],[-84.93653,38.9116],[-84.9366,38.91156],[-84.93665,38.91152],[-84.93672,38.91147],[-84.93677,38.91142],[-84.93681,38.91138],[-84.93682,38.91137],[-84.93686,38.91132],[-84.9369,38.91126],[-84.93696,38.91118],[-84.93701,38.91112],[-84.93711,38.91096],[-84.93737,38.91057],[-84.93752,38.91034],[-84.93768,38.91009],[-84.9379,38.90977],[-84.93837,38.90907],[-84.93851,38.90885],[-84.93854,38.90881],[-84.93859,38.90874],[-84.93866,38.90866],[-84.93874,38.90858],[-84.9388,38.90852],[-84.93886,38.90848],[-84.93892,38.90843],[-84.93901,38.90839],[-84.93909,38.90834],[-84.93919,38.9083],[-84.93933,38.90824],[-84.93944,38.9082],[-84.93962,38.90813],[-84.94019,38.90791],[-84.9411,38.90756],[-84.94142,38.90742],[-84.94154,38.90736],[-84.94162,38.90732],[-84.94172,38.90727],[-84.94187,38.90719],[-84.94193,38.90716],[-84.94208,38.90707],[-84.94247,38.90683],[-84.94351,38.90619],[-84.94393,38.90594],[-84.94411,38.90583],[-84.94419,38.90579],[-84.94547,38.90502],[-84.94558,38.90495],[-84.94631,38.90452],[-84.94649,38.9044],[-84.94657,38.90436],[-84.94675,38.90425],[-84.947,38.90409],[-84.94778,38.90364],[-84.94785,38.90359],[-84.94836,38.90329],[-84.94869,38.90309],[-84.94877,38.90305],[-84.94906,38.90287],[-84.94934,38.9027],[-84.9498,38.90243],[-84.94993,38.90237],[-84.95007,38.90232],[-84.95012,38.90231],[-84.95021,38.90229],[-84.95036,38.90227],[-84.95051,38.90226],[-84.95066,38.90226],[-84.95114,38.90229],[-84.95137,38.9023],[-84.95224,38.90235],[-84.95298,38.90237],[-84.95339,38.90238],[-84.95355,38.9024],[-84.95371,38.90242],[-84.95386,38.90246],[-84.954,38.90251],[-84.9541,38.90255],[-84.95428,38.90264],[-84.9543,38.90264],[-84.95508,38.90302],[-84.9556,38.90327],[-84.95567,38.9033],[-84.95607,38.90349],[-84.95627,38.90358],[-84.95647,38.90367],[-84.95696,38.9039],[-84.95768,38.90422],[-84.95786,38.90431],[-84.95806,38.9044],[-84.95826,38.90449],[-84.95913,38.9049],[-84.95965,38.90513],[-84.95977,38.90519],[-84.95988,38.90523],[-84.95997,38.90528],[-84.96077,38.90564],[-84.96096,38.90574],[-84.96116,38.90583],[-84.96136,38.90592],[-84.96196,38.9062],[-84.96201,38.90622],[-84.96216,38.90629],[-84.96255,38.90647],[-84.96275,38.90656],[-84.96315,38.90675],[-84.96335,38.90684],[-84.96355,38.90694],[-84.96394,38.90712],[-84.96422,38.90724],[-84.96554,38.90784],[-84.96558,38.90786],[-84.96574,38.90793],[-84.96596,38.90803],[-84.96652,38.90829],[-84.96653,38.9083],[-84.96676,38.9084],[-84.96694,38.90847],[-84.96704,38.90851],[-84.96715,38.90855],[-84.96725,38.90857],[-84.96733,38.90859],[-84.96737,38.9086],[-84.96747,38.90861],[-84.9676,38.90862],[-84.96769,38.90863],[-84.96788,38.90864],[-84.96815,38.90864],[-84.96835,38.90864],[-84.96847,38.90864],[-84.96864,38.90862],[-84.96894,38.90858],[-84.96999,38.90841],[-84.9704,38.90835],[-84.97074,38.90828],[-84.97086,38.90826],[-84.97096,38.90824],[-84.97141,38.90815],[-84.97152,38.90812],[-84.97297,38.90783],[-84.97307,38.90781],[-84.9732,38.90778],[-84.9742,38.90756],[-84.97431,38.90754],[-84.97454,38.9075],[-84.97498,38.90742],[-84.97598,38.90724],[-84.97605,38.90723],[-84.97621,38.9072],[-84.97624,38.90719],[-84.97643,38.90715],[-84.97647,38.90714],[-84.97709,38.907],[-84.97732,38.90695],[-84.97738,38.90693],[-84.97754,38.9069],[-84.97776,38.90684],[-84.97808,38.90677],[-84.97842,38.9067],[-84.97849,38.90668],[-84.97872,38.90663],[-84.9798,38.9064],[-84.9802,38.9063],[-84.98027,38.90629],[-84.98042,38.90625],[-84.98045,38.90624],[-84.98074,38.90618],[-84.98107,38.90612],[-84.98132,38.90609],[-84.98155,38.90606],[-84.98162,38.90606],[-84.98178,38.90604],[-84.9821,38.906],[-84.9827,38.90593],[-84.9829,38.9059],[-84.98345,38.90584],[-84.98361,38.90582],[-84.98373,38.9058],[-84.98384,38.90579],[-84.98459,38.90571],[-84.98473,38.9057],[-84.98602,38.90554],[-84.98619,38.90553],[-84.98658,38.90548],[-84.98706,38.90543],[-84.98733,38.90539],[-84.98749,38.90536],[-84.98749,38.90536],[-84.98751,38.90448],[-84.98751,38.90448],[-84.98758,38.90446],[-84.98763,38.90445],[-84.98769,38.90442],[-84.98774,38.90439],[-84.98779,38.90435],[-84.98794,38.90425],[-84.98828,38.904],[-84.98914,38.90336],[-84.98968,38.90296],[-84.99035,38.90246],[-84.99048,38.90236],[-84.9907,38.90219],[-84.99081,38.9021],[-84.99114,38.90181],[-84.99151,38.9015],[-84.99158,38.90143],[-84.99169,38.90134],[-84.99189,38.90115],[-84.99198,38.90107],[-84.99217,38.90087],[-84.99219,38.90085],[-84.99227,38.90076],[-84.9923,38.90072],[-84.99233,38.90068],[-84.9924,38.90057],[-84.99251,38.9004],[-84.99261,38.90024],[-84.9927,38.90008],[-84.99277,38.89997],[-84.99285,38.89987],[-84.99294,38.89977],[-84.99295,38.89975],[-84.99312,38.89958],[-84.99322,38.89948],[-84.99332,38.89936],[-84.99334,38.89933],[-84.99346,38.89917],[-84.99357,38.89902],[-84.99369,38.89886],[-84.99374,38.89879],[-84.99381,38.89871],[-84.99406,38.89841],[-84.99419,38.89826],[-84.99431,38.89811],[-84.99437,38.89804],[-84.99444,38.89795],[-84.99463,38.89772],[-84.99468,38.89765],[-84.99479,38.89749],[-84.99491,38.89733],[-84.99513,38.89702],[-84.99514,38.897],[-84.99525,38.89686],[-84.99548,38.89655],[-84.99571,38.89624],[-84.99583,38.89609],[-84.99583,38.89608],[-84.99607,38.89577],[-84.9963,38.89547],[-84.99637,38.89537],[-84.99642,38.89531],[-84.99669,38.89493],[-84.99676,38.89484],[-84.99687,38.89469],[-84.99688,38.89468],[-84.99697,38.89457],[-84.997,38.89454],[-84.99706,38.89446],[-84.99713,38.8944],[-84.99718,38.89436],[-84.99738,38.89422],[-84.99749,38.89416],[-84.99764,38.89407],[-84.99767,38.89405],[-84.9978,38.89399],[-84.99796,38.89393],[-84.99819,38.89384],[-84.9985,38.89373],[-84.99855,38.89371],[-84.99865,38.89368],[-84.99881,38.89362],[-84.99893,38.89356],[-84.99904,38.89351],[-84.99914,38.89346],[-84.9992,38.89342],[-84.99925,38.89338],[-84.99937,38.8933],[-84.99945,38.89325],[-84.99951,38.89322],[-84.99956,38.89319],[-84.9997,38.89314],[-84.99974,38.89313],[-84.99982,38.89309],[-84.99994,38.89303],[-84.99997,38.89302],[-85.00007,38.89296],[-85.00012,38.89292],[-85.00017,38.89289],[-85.00029,38.8928],[-85.00037,38.89272],[-85.00046,38.89262],[-85.00053,38.89253],[-85.00055,38.8925],[-85.00073,38.89227],[-85.00079,38.8922],[-85.00082,38.89216],[-85.0009,38.89207],[-85.00093,38.89205],[-85.00099,38.89198],[-85.00107,38.89191],[-85.0011,38.89188],[-85.00137,38.89164],[-85.00146,38.89156],[-85.00197,38.89114],[-85.00231,38.89089],[-85.00265,38.89065],[-85.00282,38.89053],[-85.00299,38.89042],[-85.00343,38.89014],[-85.00353,38.89007],[-85.00362,38.89001],[-85.0037,38.88995],[-85.00378,38.8899],[-85.00405,38.88971],[-85.00422,38.8896],[-85.00431,38.88954],[-85.00439,38.88948],[-85.00457,38.88936],[-85.00471,38.88927],[-85.00474,38.88924],[-85.00543,38.88878],[-85.00562,38.88865],[-85.00623,38.88824],[-85.00632,38.88819],[-85.00647,38.8881],[-85.0065,38.88807],[-85.00686,38.88785],[-85.00704,38.88773],[-85.00709,38.8877],[-85.00741,38.8875],[-85.00758,38.8874],[-85.00795,38.88718],[-85.00813,38.88707],[-85.00845,38.88687],[-85.00849,38.88684],[-85.00884,38.88661],[-85.00898,38.88653],[-85.00902,38.8865],[-85.00937,38.88626],[-85.00955,38.88614],[-85.00966,38.88607],[-85.00991,38.88592],[-85.01009,38.8858],[-85.01026,38.88569],[-85.01027,38.88569],[-85.01049,38.88556],[-85.01099,38.88524],[-85.01116,38.88513],[-85.01122,38.88509],[-85.01152,38.8849],[-85.01205,38.88455],[-85.0121,38.88452],[-85.01258,38.8842],[-85.01276,38.88409],[-85.01293,38.88397],[-85.01318,38.88381],[-85.01345,38.88363],[-85.0138,38.8834],[-85.01382,38.88339],[-85.014,38.88328],[-85.01416,38.88317],[-85.01506,38.88259],[-85.01529,38.88244],[-85.0157,38.88218],[-85.01595,38.88201],[-85.01645,38.8817],[-85.01649,38.88168],[-85.01656,38.88164],[-85.01665,38.88157],[-85.01672,38.88153],[-85.01678,38.88148],[-85.01687,38.8814],[-85.01692,38.88134],[-85.01695,38.8813],[-85.017,38.88124],[-85.01706,38.88114],[-85.01715,38.881],[-85.01717,38.88096],[-85.01725,38.88081],[-85.01737,38.88055],[-85.01745,38.88034],[-85.0177,38.87966],[-85.01784,38.87929],[-85.0179,38.87912],[-85.01797,38.87894],[-85.01813,38.87848],[-85.01828,38.87808],[-85.01835,38.87791],[-85.01835,38.87789],[-85.01841,38.87774],[-85.01842,38.8777],[-85.01847,38.87756],[-85.01856,38.87733],[-85.01875,38.87688],[-85.01882,38.87671],[-85.01884,38.87668],[-85.01889,38.87654],[-85.01896,38.87636],[-85.01903,38.87619],[-85.01909,38.87602],[-85.01922,38.87567],[-85.01935,38.87533],[-85.01948,38.87498],[-85.01952,38.87487],[-85.01954,38.87481],[-85.01961,38.87464],[-85.01968,38.87446],[-85.01978,38.87422],[-85.01989,38.87392],[-85.01996,38.87375],[-85.01996,38.87374],[-85.01997,38.87371],[-85.0202,38.87305],[-85.0202,38.87305],[-85.02112,38.87305],[-85.02159,38.87305],[-85.02182,38.87305],[-85.02251,38.87305],[-85.02297,38.87305],[-85.02325,38.87305],[-85.0233,38.87305],[-85.02398,38.87306],[-85.02469,38.87306],[-85.02483,38.87306],[-85.02492,38.87306],[-85.02571,38.87307],[-85.02608,38.87307],[-85.02631,38.87307],[-85.02692,38.87308],[-85.027,38.87308],[-85.02746,38.87308],[-85.02839,38.87309],[-85.02854,38.87309],[-85.02906,38.87309],[-85.02953,38.87309],[-85.02977,38.87309],[-85.03011,38.87309],[-85.03066,38.8731],[-85.03093,38.8731],[-85.03116,38.8731],[-85.03301,38.87312],[-85.03324,38.87313],[-85.03337,38.87313],[-85.03408,38.87314],[-85.03428,38.87314],[-85.03455,38.87315],[-85.03547,38.87317],[-85.03662,38.87319],[-85.03674,38.87319],[-85.03686,38.87319],[-85.03709,38.87319],[-85.03717,38.87319],[-85.03755,38.87319],[-85.03778,38.8732],[-85.03801,38.8732],[-85.03824,38.8732],[-85.03863,38.8732],[-85.0387,38.8732],[-85.03893,38.8732],[-85.03933,38.87321],[-85.0397,38.87321],[-85.04016,38.87321],[-85.04039,38.87321],[-85.04062,38.87321],[-85.04091,38.87323],[-85.04094,38.87323],[-85.04108,38.87324],[-85.04128,38.87325],[-85.0416,38.87328],[-85.04162,38.87328],[-85.04185,38.87331],[-85.04201,38.87333],[-85.04208,38.87333],[-85.04231,38.87335],[-85.04251,38.87337],[-85.0428,38.87338],[-85.04298,38.87339],[-85.043,38.87339],[-85.04315,38.87339],[-85.04332,38.87338],[-85.04342,38.87337],[-85.04357,38.87335],[-85.04391,38.87332],[-85.04408,38.87329],[-85.04425,38.87326],[-85.04459,38.87317],[-85.04479,38.87309],[-85.04509,38.87298],[-85.0452,38.87295],[-85.04522,38.87295],[-85.04534,38.87292],[-85.04543,38.87291],[-85.04553,38.8729],[-85.04563,38.87289],[-85.04567,38.87289],[-85.04572,38.87289],[-85.04607,38.87288],[-85.04613,38.87288],[-85.04716,38.87289],[-85.04729,38.87289],[-85.04752,38.8729],[-85.04775,38.8729],[-85.04844,38.87291],[-85.04845,38.87291],[-85.04867,38.87291],[-85.04914,38.87292],[-85.04937,38.87292],[-85.04954,38.87292],[-85.05006,38.87292],[-85.05042,38.87293],[-85.05121,38.87293],[-85.05188,38.87294],[-85.05191,38.87294],[-85.05214,38.87295],[-85.05259,38.87295],[-85.05378,38.87296],[-85.05401,38.87296],[-85.05505,38.87297],[-85.05517,38.87297],[-85.05686,38.87299],[-85.05725,38.873],[-85.05775,38.873],[-85.05794,38.87301],[-85.05841,38.87301],[-85.05864,38.87302],[-85.05876,38.87302],[-85.05906,38.87302],[-85.05911,38.87302],[-85.05934,38.87303],[-85.05957,38.87303],[-85.0597,38.87304],[-85.0598,38.87304],[-85.06003,38.87304],[-85.06022,38.87305],[-85.06026,38.87305],[-85.06049,38.87305],[-85.06078,38.87305],[-85.06095,38.87305],[-85.06118,38.87305],[-85.06142,38.87305],[-85.06167,38.87305],[-85.06211,38.87306],[-85.06223,38.87306],[-85.06234,38.87306],[-85.06255,38.87306],[-85.06323,38.87307],[-85.06326,38.87307],[-85.06373,38.87307],[-85.06384,38.87307],[-85.06442,38.87308],[-85.06465,38.87308],[-85.06488,38.87308],[-85.065,38.87308],[-85.06511,38.87308],[-85.06604,38.87309],[-85.06627,38.8731],[-85.06722,38.8731],[-85.06773,38.8731],[-85.06796,38.8731],[-85.06814,38.8731],[-85.06842,38.87311],[-85.06865,38.87311],[-85.06887,38.87311],[-85.06888,38.87311],[-85.06912,38.87312],[-85.06935,38.87312],[-85.06956,38.87312],[-85.06958,38.87312],[-85.07004,38.87313],[-85.07027,38.87313],[-85.0705,38.87313],[-85.07073,38.87313],[-85.07096,38.87313],[-85.07119,38.87313],[-85.07147,38.87312],[-85.07193,38.87313],[-85.07205,38.87313],[-85.07224,38.87313],[-85.07236,38.87313],[-85.0727,38.87314],[-85.0731,38.87314],[-85.07333,38.87314],[-85.07379,38.87315],[-85.07402,38.87315],[-85.07444,38.87315],[-85.07448,38.87315],[-85.07464,38.87315],[-85.07472,38.87315],[-85.07482,38.87315],[-85.07564,38.87313],[-85.07579,38.87313],[-85.0761,38.87313],[-85.07633,38.87313],[-85.07656,38.87313],[-85.07663,38.87313],[-85.07701,38.87313],[-85.07703,38.87313],[-85.07724,38.87313],[-85.07739,38.87313],[-85.0777,38.87313],[-85.07772,38.87314],[-85.0782,38.87314],[-85.07841,38.87315],[-85.07863,38.87315],[-85.07864,38.87315],[-85.07886,38.87316],[-85.07887,38.87316],[-85.07896,38.87316],[-85.07909,38.87316],[-85.0791,38.87316],[-85.07934,38.87317],[-85.07955,38.87317],[-85.07978,38.87318],[-85.08008,38.87318],[-85.0803,38.87319],[-85.08075,38.8732],[-85.08186,38.8732],[-85.08201,38.8732],[-85.08375,38.87322],[-85.08454,38.87323],[-85.08541,38.87324],[-85.08592,38.87325],[-85.08713,38.87326],[-85.08823,38.87327],[-85.08947,38.87329],[-85.08997,38.8733],[-85.09135,38.87331],[-85.09158,38.87331],[-85.09426,38.87334],[-85.09526,38.87334],[-85.09573,38.87335],[-85.09596,38.87335],[-85.09642,38.87335],[-85.09658,38.87335],[-85.09688,38.87335],[-85.09711,38.87335],[-85.09734,38.87336],[-85.09757,38.87336],[-85.09773,38.87336],[-85.09781,38.87336],[-85.0982,38.87336],[-85.09936,38.87337],[-85.09959,38.87337],[-85.10054,38.87338],[-85.10123,38.87339],[-85.10139,38.87339],[-85.10229,38.8734],[-85.10239,38.8734],[-85.10262,38.87341],[-85.10318,38.87342],[-85.10331,38.87343],[-85.10354,38.87344],[-85.10377,38.87344],[-85.10409,38.87346],[-85.10493,38.87347],[-85.10516,38.87348],[-85.10524,38.87348],[-85.10562,38.87348],[-85.10563,38.87348],[-85.10585,38.87348],[-85.10631,38.87348],[-85.10663,38.87348],[-85.1067,38.87348],[-85.10768,38.87348],[-85.10859,38.87349],[-85.10998,38.8735],[-85.1101,38.8735],[-85.11026,38.8735],[-85.11096,38.87351],[-85.11217,38.87352],[-85.11325,38.87353],[-85.11444,38.87353],[-85.11465,38.87353],[-85.11488,38.87353],[-85.1158,38.87353],[-85.11582,38.87353],[-85.11717,38.87354],[-85.118,38.87354],[-85.11824,38.87354],[-85.11847,38.87354],[-85.1187,38.87354],[-85.11962,38.87355],[-85.12008,38.87355],[-85.12035,38.87355],[-85.12073,38.87355],[-85.12078,38.87355],[-85.12115,38.87356],[-85.12124,38.87356],[-85.12213,38.87358],[-85.12243,38.87358],[-85.12281,38.87359],[-85.12289,38.8736],[-85.12312,38.8736],[-85.12335,38.87361],[-85.12358,38.87362],[-85.12364,38.87362],[-85.12402,38.87364],[-85.12428,38.87365],[-85.12474,38.87367],[-85.12475,38.87368],[-85.12497,38.87368],[-85.1252,38.87369],[-85.12521,38.87369],[-85.12543,38.87369],[-85.12544,38.87369],[-85.12562,38.87368],[-85.12566,38.87368],[-85.12582,38.87366],[-85.12597,38.87365],[-85.12612,38.87363],[-85.12635,38.8736],[-85.12658,38.87358],[-85.12669,38.87357],[-85.12677,38.87356],[-85.12687,38.87355],[-85.12692,38.87355],[-85.12701,38.87355],[-85.12724,38.87354],[-85.1275,38.87354],[-85.12762,38.87354],[-85.12801,38.87355],[-85.12848,38.87356],[-85.12854,38.87356],[-85.12923,38.87358],[-85.12943,38.87358],[-85.12975,38.8736],[-85.13044,38.87362],[-85.13073,38.87363],[-85.1309,38.87364],[-85.13113,38.87365],[-85.13118,38.87365],[-85.13136,38.87366],[-85.13177,38.87368],[-85.13182,38.87369],[-85.13205,38.8737],[-85.13207,38.8737],[-85.13215,38.87369],[-85.13222,38.87369],[-85.13232,38.87368],[-85.13244,38.87367],[-85.13251,38.87365],[-85.13274,38.87361],[-85.13295,38.87357],[-85.13296,38.87357],[-85.13331,38.8735],[-85.13342,38.87347],[-85.13351,38.87344],[-85.13359,38.87341],[-85.13365,38.87337],[-85.13371,38.87333],[-85.13376,38.87329],[-85.1338,38.87324],[-85.13381,38.87324],[-85.13386,38.87318],[-85.1339,38.87312],[-85.13392,38.87309],[-85.13404,38.87287],[-85.13415,38.87268],[-85.13423,38.87258],[-85.13424,38.87256],[-85.13434,38.87245],[-85.13445,38.87234],[-85.1346,38.87222],[-85.13467,38.87217],[-85.13479,38.87209],[-85.13484,38.87205],[-85.135,38.87192],[-85.13506,38.87188],[-85.13518,38.8718],[-85.13555,38.87156],[-85.13568,38.87147],[-85.13572,38.87143],[-85.13588,38.8713],[-85.13608,38.87112],[-85.13634,38.87091],[-85.13634,38.8709],[-85.1365,38.87077],[-85.13658,38.87072],[-85.13663,38.87069],[-85.1367,38.87066],[-85.13676,38.87063],[-85.13678,38.87062],[-85.13684,38.87061],[-85.13691,38.87059],[-85.13698,38.87058],[-85.137,38.87058],[-85.13707,38.87057],[-85.13723,38.87057],[-85.13726,38.87057],[-85.13769,38.87057],[-85.13772,38.87057],[-85.13795,38.87057],[-85.13825,38.87058],[-85.13842,38.87058],[-85.13888,38.87059],[-85.13911,38.87059],[-85.13974,38.8706],[-85.1398,38.8706],[-85.14073,38.8706],[-85.14096,38.8706],[-85.14142,38.8706],[-85.14165,38.8706],[-85.14196,38.8706],[-85.14211,38.8706],[-85.14281,38.87061],[-85.14327,38.87061],[-85.14415,38.87062],[-85.14488,38.87063],[-85.14518,38.87064],[-85.14584,38.87066],[-85.14603,38.87066],[-85.14615,38.87066],[-85.1462,38.87065],[-85.14627,38.87064],[-85.14631,38.87063],[-85.14637,38.87061],[-85.14642,38.87058],[-85.14651,38.87051],[-85.14655,38.87045],[-85.14657,38.87042],[-85.14659,38.87036],[-85.14661,38.8703],[-85.14662,38.87024],[-85.14664,38.87016],[-85.14665,38.8701],[-85.14667,38.86999],[-85.14671,38.86981],[-85.14681,38.86933],[-85.14694,38.86872],[-85.14694,38.8687],[-85.14702,38.86834],[-85.14706,38.86817],[-85.14714,38.86781],[-85.14718,38.86761],[-85.1472,38.86753],[-85.14721,38.86748],[-85.14722,38.86745],[-85.14724,38.86742],[-85.14726,38.8674],[-85.14728,38.86738],[-85.1473,38.86737],[-85.14731,38.86736],[-85.14735,38.86735],[-85.14735,38.86735],[-85.14736,38.86734],[-85.14737,38.86734],[-85.14739,38.86735],[-85.14741,38.86735],[-85.14743,38.86736],[-85.14745,38.86737],[-85.14749,38.86739],[-85.14757,38.86742],[-85.14778,38.86755],[-85.14836,38.86789],[-85.14873,38.86811],[-85.14929,38.86843],[-85.14966,38.86864],[-85.15003,38.86886],[-85.15021,38.86896],[-85.15047,38.86911],[-85.15088,38.86935],[-85.15126,38.86957],[-85.15132,38.86961],[-85.1517,38.86984],[-85.15179,38.86989],[-85.15188,38.86995],[-85.15194,38.86999],[-85.15201,38.87004],[-85.15204,38.87006],[-85.1521,38.87011],[-85.15218,38.87018],[-85.15229,38.8703],[-85.15247,38.87049],[-85.15254,38.87057],[-85.15258,38.8706],[-85.15262,38.87062],[-85.15264,38.87063],[-85.15267,38.87065],[-85.15271,38.87066],[-85.15274,38.87067],[-85.15277,38.87067],[-85.1528,38.87068],[-85.15282,38.87068],[-85.15285,38.87068],[-85.15291,38.87068],[-85.15299,38.87068],[-85.15335,38.87067],[-85.15394,38.87066],[-85.15432,38.87066],[-85.15437,38.87066],[-85.15478,38.87066],[-85.15514,38.87066],[-85.15525,38.87065],[-85.15571,38.87065],[-85.15594,38.87065],[-85.1563,38.87065],[-85.15704,38.87064],[-85.15733,38.87064],[-85.15756,38.87064],[-85.15758,38.87064],[-85.15802,38.87065],[-85.15816,38.87065],[-85.15871,38.87066],[-85.15916,38.87065],[-85.15917,38.87065],[-85.1594,38.87065],[-85.15957,38.87064],[-85.15964,38.87064],[-85.1602,38.87062],[-85.16033,38.87062],[-85.16103,38.8706],[-85.16135,38.8706],[-85.16181,38.8706],[-85.16204,38.8706],[-85.1623,38.87059],[-85.16308,38.8706],[-85.16351,38.8706],[-85.1636,38.8706],[-85.16375,38.8706],[-85.16429,38.87059],[-85.16514,38.87058],[-85.16522,38.87058],[-85.16549,38.87058],[-85.16611,38.87057],[-85.16614,38.87057],[-85.16644,38.87057],[-85.1666,38.87057],[-85.16673,38.87058],[-85.16687,38.87059],[-85.16764,38.87065],[-85.16787,38.87067],[-85.168,38.87069],[-85.1681,38.8707],[-85.16856,38.87075],[-85.16864,38.87075],[-85.16879,38.87077],[-85.16902,38.87079],[-85.16924,38.87082],[-85.16925,38.87082],[-85.16946,38.87083],[-85.16948,38.87084],[-85.16971,38.87085],[-85.16989,38.87086],[-85.17004,38.87087],[-85.17021,38.87088],[-85.17051,38.87089],[-85.17104,38.87091],[-85.17128,38.87092],[-85.17151,38.87092],[-85.17211,38.87095],[-85.1722,38.87095],[-85.17243,38.87095],[-85.17266,38.87096],[-85.17312,38.87096],[-85.17325,38.87097],[-85.17352,38.87098],[-85.17371,38.87099],[-85.17385,38.871],[-85.17394,38.871],[-85.1744,38.87102],[-85.17498,38.87103],[-85.17509,38.87103],[-85.17556,38.87104],[-85.1757,38.87104],[-85.17579,38.87104],[-85.17602,38.87105],[-85.17615,38.87105],[-85.17625,38.87105],[-85.17648,38.87106],[-85.17669,38.87107],[-85.17715,38.87107],[-85.17717,38.87107],[-85.1774,38.87107],[-85.17753,38.87107],[-85.17764,38.87106],[-85.17793,38.87106],[-85.1781,38.87105],[-85.17853,38.87105],[-85.179,38.87104],[-85.17923,38.87104],[-85.17969,38.87104],[-85.18164,38.87103],[-85.18247,38.87102],[-85.18305,38.871],[-85.1833,38.871],[-85.18414,38.871],[-85.18455,38.871],[-85.18517,38.871],[-85.18539,38.871],[-85.18587,38.871],[-85.18597,38.871],[-85.18637,38.871],[-85.18656,38.871],[-85.18783,38.87099],[-85.18793,38.87099],[-85.18862,38.87099],[-85.18869,38.87099],[-85.18902,38.87099],[-85.18918,38.87099],[-85.18936,38.87099],[-85.18942,38.87099],[-85.18976,38.87098],[-85.18988,38.87097],[-85.19047,38.87097],[-85.19099,38.87096],[-85.19104,38.87096],[-85.19136,38.87096],[-85.19163,38.87096],[-85.19173,38.87096],[-85.19196,38.87096],[-85.19243,38.87096],[-85.19255,38.87095],[-85.19289,38.87095],[-85.19322,38.87094],[-85.19354,38.87094],[-85.19372,38.87093],[-85.19408,38.87092],[-85.19431,38.87091],[-85.1945,38.8709],[-85.19454,38.8709],[-85.19526,38.87089],[-85.19569,38.87088],[-85.19616,38.87087],[-85.19665,38.87086],[-85.19687,38.87086],[-85.19733,38.87085],[-85.19769,38.87084],[-85.19779,38.87084],[-85.19825,38.87083],[-85.19836,38.87083],[-85.19881,38.87081],[-85.19894,38.87081],[-85.19904,38.87081],[-85.19964,38.87079],[-85.20056,38.87077],[-85.20185,38.87074],[-85.20201,38.87073],[-85.20232,38.87071],[-85.20263,38.87069],[-85.20278,38.87068],[-85.20314,38.87063],[-85.20333,38.8706],[-85.20346,38.87058],[-85.20347,38.87058],[-85.20369,38.87053],[-85.20393,38.87048],[-85.20436,38.87037],[-85.20447,38.87035],[-85.20453,38.87034],[-85.20461,38.87033],[-85.20469,38.87033],[-85.20475,38.87032],[-85.20487,38.87032],[-85.20495,38.87032],[-85.20505,38.87033],[-85.20514,38.87033],[-85.20526,38.87034],[-85.20528,38.87035],[-85.20542,38.87036],[-85.20565,38.87039],[-85.20596,38.87043],[-85.20611,38.87045],[-85.20634,38.87048],[-85.20655,38.8705],[-85.20665,38.87051],[-85.20676,38.87052],[-85.20788,38.87066],[-85.20802,38.87068],[-85.20811,38.87069],[-85.20833,38.87072],[-85.20865,38.87078],[-85.20879,38.8708],[-85.20892,38.87082],[-85.20913,38.87084],[-85.20918,38.87085],[-85.20928,38.87086],[-85.20941,38.87087],[-85.20942,38.87087],[-85.20963,38.87088],[-85.20987,38.87089],[-85.21011,38.8709],[-85.21034,38.8709],[-85.21059,38.87091],[-85.21078,38.87092],[-85.2108,38.87092],[-85.21098,38.87092],[-85.21103,38.87091],[-85.2112,38.8709],[-85.2114,38.87087],[-85.21148,38.87086],[-85.21163,38.87083],[-85.21171,38.87082],[-85.21186,38.87078],[-85.21218,38.87071],[-85.21218,38.87071],[-85.21214,38.87059],[-85.21209,38.87048],[-85.21208,38.8702],[-85.21208,38.87002],[-85.21208,38.86998],[-85.21208,38.86984],[-85.21208,38.86966],[-85.21208,38.86948],[-85.21208,38.86901],[-85.21208,38.86876],[-85.21209,38.86858],[-85.21209,38.8684],[-85.21209,38.86822],[-85.21209,38.86804],[-85.2121,38.86732],[-85.2121,38.86628],[-85.2121,38.86588],[-85.21211,38.86568],[-85.21214,38.86556],[-85.21225,38.8653],[-85.21246,38.86511],[-85.21308,38.8645],[-85.21314,38.86444],[-85.21358,38.86401],[-85.21385,38.86374],[-85.21392,38.86366],[-85.21442,38.86311],[-85.21465,38.86286],[-85.21502,38.86246],[-85.21585,38.86153],[-85.216,38.86135],[-85.21611,38.86118],[-85.21611,38.86107],[-85.21606,38.86056],[-85.21605,38.86051],[-85.21591,38.85945],[-85.21587,38.85908],[-85.21587,38.85906],[-85.21585,38.8588],[-85.21586,38.85851],[-85.21591,38.85798],[-85.21595,38.85773],[-85.21598,38.85765],[-85.216,38.85757],[-85.21608,38.8574],[-85.21625,38.85716],[-85.21722,38.85593],[-85.21726,38.85587],[-85.21759,38.85538],[-85.21777,38.85513],[-85.21798,38.85487],[-85.21807,38.85479],[-85.21823,38.8547],[-85.21865,38.85459],[-85.2194,38.85441],[-85.22071,38.85409],[-85.22117,38.85398],[-85.22142,38.8539],[-85.22155,38.85391],[-85.22191,38.8539],[-85.22225,38.8539],[-85.22247,38.85391],[-85.22272,38.85391],[-85.22329,38.85392],[-85.22387,38.85392],[-85.22445,38.85393],[-85.22507,38.85393],[-85.22521,38.8539],[-85.22529,38.85386],[-85.22532,38.85382],[-85.22536,38.85378],[-85.22537,38.85369],[-85.22535,38.85354],[-85.22531,38.85341],[-85.22526,38.85329],[-85.22522,38.85318],[-85.22522,38.85294],[-85.22522,38.85288],[-85.22522,38.85256],[-85.22521,38.85231],[-85.22524,38.85218],[-85.22532,38.852],[-85.22541,38.8519],[-85.22554,38.85173],[-85.22574,38.85154],[-85.22588,38.85144],[-85.22597,38.85141],[-85.22612,38.85138],[-85.22627,38.85136],[-85.22654,38.85135],[-85.22664,38.85133],[-85.22677,38.85129],[-85.22682,38.85124],[-85.22682,38.85123],[-85.22685,38.85119],[-85.22693,38.85078],[-85.22703,38.85038],[-85.22703,38.85035],[-85.22711,38.84988],[-85.22715,38.84963],[-85.22725,38.8491],[-85.22729,38.84892],[-85.22735,38.84857],[-85.22738,38.84839],[-85.22741,38.84831],[-85.22748,38.84826],[-85.22757,38.84824],[-85.22774,38.84823],[-85.2282,38.84824],[-85.2283,38.84824],[-85.22897,38.84826],[-85.22921,38.84827],[-85.22944,38.84828],[-85.22973,38.84828],[-85.23082,38.84831],[-85.23301,38.84836],[-85.23336,38.84837],[-85.23423,38.84839],[-85.23423,38.84839],[-85.23565,38.84845],[-85.23654,38.84848],[-85.23726,38.8485],[-85.23746,38.84852],[-85.23777,38.84852],[-85.23795,38.84851],[-85.23798,38.8485],[-85.23807,38.84847],[-85.23815,38.84841],[-85.23825,38.84834],[-85.23853,38.84808],[-85.2389,38.84771],[-85.23891,38.84771],[-85.23933,38.84731],[-85.23934,38.8473],[-85.23971,38.84696],[-85.24005,38.84663],[-85.24037,38.84638],[-85.24073,38.84614],[-85.24094,38.84605],[-85.24097,38.84604],[-85.2411,38.84599],[-85.24135,38.84591],[-85.24152,38.84588],[-85.24169,38.84585],[-85.24189,38.84581],[-85.2421,38.84576],[-85.24229,38.8457],[-85.24246,38.84562],[-85.24267,38.8455],[-85.24293,38.84537],[-85.24317,38.84526],[-85.24343,38.84517],[-85.24367,38.84507],[-85.24383,38.84498],[-85.24386,38.84496],[-85.24399,38.84485],[-85.24411,38.84469],[-85.24424,38.84451],[-85.24425,38.84449],[-85.24452,38.84429],[-85.24481,38.8441],[-85.24499,38.84395],[-85.24502,38.84393],[-85.24513,38.84382],[-85.2452,38.84373],[-85.24541,38.84346],[-85.24553,38.84329],[-85.24562,38.8432],[-85.24566,38.84316],[-85.24579,38.84303],[-85.24602,38.84286],[-85.2462,38.84275],[-85.24666,38.8425],[-85.24695,38.84226],[-85.24697,38.84223],[-85.24709,38.84209],[-85.24716,38.84196],[-85.24735,38.84172],[-85.24747,38.84164],[-85.24762,38.84157],[-85.24776,38.84152],[-85.24795,38.84145],[-85.24818,38.84137],[-85.2483,38.84133],[-85.24836,38.84131],[-85.24864,38.84124],[-85.2488,38.84121],[-85.249,38.84121],[-85.24915,38.84121],[-85.24924,38.84121],[-85.24958,38.84122],[-85.24984,38.84123],[-85.2499,38.84123],[-85.25005,38.84122],[-85.25019,38.84119],[-85.25035,38.84112],[-85.25041,38.84107],[-85.2505,38.84102],[-85.25057,38.84094],[-85.25061,38.84086],[-85.25062,38.84085],[-85.25071,38.84065],[-85.25076,38.84051],[-85.25078,38.84044],[-85.25084,38.84019],[-85.25085,38.83993],[-85.25077,38.83973],[-85.25063,38.83941],[-85.25058,38.83933],[-85.25052,38.83923],[-85.25044,38.83919],[-85.25038,38.83917],[-85.25022,38.83909],[-85.2501,38.83902],[-85.25007,38.83899],[-85.25003,38.83895],[-85.24999,38.83889],[-85.24995,38.83882],[-85.24994,38.83871],[-85.24993,38.83865],[-85.24993,38.83848],[-85.24995,38.83832],[-85.24993,38.83811],[-85.24992,38.8381],[-85.2499,38.83786],[-85.24989,38.83776],[-85.24985,38.83751],[-85.24977,38.8372],[-85.24981,38.8371],[-85.24989,38.83702],[-85.24997,38.83694],[-85.25012,38.83686],[-85.25028,38.83679],[-85.25039,38.83674],[-85.25041,38.83673],[-85.25056,38.83667],[-85.2506,38.83665],[-85.25073,38.83661],[-85.25086,38.83658],[-85.25102,38.83657],[-85.25119,38.83658],[-85.25136,38.83654],[-85.25147,38.83648],[-85.25149,38.83647],[-85.25164,38.83635],[-85.25184,38.83619],[-85.25198,38.83612],[-85.25202,38.8361],[-85.25215,38.836],[-85.25216,38.83599],[-85.25235,38.83591],[-85.25246,38.83586],[-85.25253,38.83581],[-85.25261,38.83576],[-85.25273,38.83571],[-85.25278,38.83569],[-85.25293,38.83564],[-85.25294,38.83564],[-85.25308,38.83556],[-85.25323,38.83552],[-85.25336,38.8355],[-85.2534,38.8355],[-85.25358,38.83546],[-85.25372,38.83543],[-85.25395,38.83538],[-85.25403,38.83537],[-85.25416,38.83535],[-85.25426,38.83534],[-85.25444,38.83533],[-85.25449,38.83532],[-85.25464,38.8353],[-85.25486,38.83526],[-85.25494,38.83524],[-85.25511,38.8352],[-85.25516,38.83519],[-85.25535,38.83513],[-85.2556,38.83509],[-85.25563,38.83509],[-85.2559,38.83503],[-85.2559,38.83503],[-85.25609,38.83509],[-85.25636,38.8352],[-85.25655,38.8353],[-85.2567,38.8354],[-85.25737,38.836],[-85.25767,38.83628],[-85.25814,38.83667],[-85.25845,38.83693],[-85.25869,38.83712],[-85.25879,38.83721],[-85.25886,38.83733],[-85.25887,38.83735],[-85.25895,38.8376],[-85.25899,38.83781],[-85.25901,38.83788],[-85.25907,38.83822],[-85.25909,38.83836],[-85.25918,38.83894],[-85.2592,38.83923],[-85.25921,38.83979],[-85.25921,38.83979],[-85.26007,38.83966],[-85.26015,38.83964],[-85.26024,38.83963],[-85.26037,38.83961],[-85.26058,38.83957],[-85.26103,38.83949],[-85.26117,38.83947],[-85.26148,38.83942],[-85.26165,38.83939],[-85.26171,38.83938],[-85.26194,38.83935],[-85.26216,38.83933],[-85.2623,38.83931],[-85.26249,38.83931],[-85.26262,38.83932],[-85.26285,38.83934],[-85.26308,38.83937],[-85.2631,38.83937],[-85.26331,38.8394],[-85.26354,38.83943],[-85.26366,38.83944],[-85.26377,38.83945],[-85.264,38.83946],[-85.26413,38.83947],[-85.26422,38.83949],[-85.26432,38.83951],[-85.26445,38.83954],[-85.26462,38.83956],[-85.26467,38.83955],[-85.26474,38.83954],[-85.26489,38.83949],[-85.26497,38.83946],[-85.26511,38.83943],[-85.26512,38.83943],[-85.26523,38.83941],[-85.26534,38.8394],[-85.2654,38.83939],[-85.26557,38.83938],[-85.26575,38.83936],[-85.26594,38.83936],[-85.26603,38.83936],[-85.26625,38.83937],[-85.26626,38.83937],[-85.26649,38.83939],[-85.26665,38.8394],[-85.26683,38.83941],[-85.26695,38.83943],[-85.26709,38.83946],[-85.26717,38.83947],[-85.26724,38.83948],[-85.26731,38.83949],[-85.2674,38.83948],[-85.26741,38.83948],[-85.26764,38.83943],[-85.26789,38.83938],[-85.26807,38.83937],[-85.26846,38.83933],[-85.26853,38.83932],[-85.26876,38.83931],[-85.26878,38.8393],[-85.26903,38.83928],[-85.26921,38.83924],[-85.26932,38.83921],[-85.26942,38.83916],[-85.26944,38.83916],[-85.26957,38.83907],[-85.26978,38.83896],[-85.27005,38.83879],[-85.27017,38.83874],[-85.27025,38.8387],[-85.27042,38.83862],[-85.27047,38.83862],[-85.27054,38.83863],[-85.27058,38.83865],[-85.27062,38.83866],[-85.27067,38.83867],[-85.27082,38.83868],[-85.27091,38.83867],[-85.27101,38.83865],[-85.27106,38.83863],[-85.27111,38.83859],[-85.27115,38.83855],[-85.27119,38.83851],[-85.2713,38.83842],[-85.27136,38.83839],[-85.27145,38.83836],[-85.27157,38.83833],[-85.27158,38.83833],[-85.27177,38.83832],[-85.27185,38.83829],[-85.27198,38.83828],[-85.27208,38.83829],[-85.27213,38.83828],[-85.27219,38.83827],[-85.27229,38.83822],[-85.27246,38.83816],[-85.27267,38.83809],[-85.27274,38.83807],[-85.27288,38.83802],[-85.27298,38.83798],[-85.27311,38.83792],[-85.27325,38.83784],[-85.27335,38.83776],[-85.27339,38.83773],[-85.27351,38.8376],[-85.27366,38.83741],[-85.27377,38.83729],[-85.27389,38.83722],[-85.27393,38.83721],[-85.274,38.83719],[-85.27409,38.83718],[-85.27415,38.83718],[-85.27431,38.83717],[-85.27441,38.83717],[-85.27471,38.83717],[-85.27517,38.83717],[-85.27536,38.83716],[-85.27582,38.83716],[-85.27697,38.83716],[-85.2776,38.83716],[-85.27904,38.83716],[-85.27928,38.83716],[-85.28021,38.83716],[-85.28102,38.83715],[-85.28136,38.83715],[-85.28225,38.83714],[-85.28225,38.83714],[-85.28313,38.83714],[-85.28468,38.83712],[-85.28553,38.83711],[-85.28557,38.83711],[-85.28614,38.83708],[-85.28627,38.83707],[-85.2864,38.83703],[-85.28668,38.8369],[-85.28673,38.83689],[-85.28686,38.83689],[-85.28801,38.8369],[-85.28808,38.8369],[-85.28881,38.83691],[-85.28894,38.83691],[-85.28906,38.83692],[-85.28917,38.83693],[-85.28919,38.8369],[-85.28933,38.83683],[-85.28941,38.83677],[-85.28942,38.83676],[-85.2896,38.83647],[-85.28983,38.83615],[-85.28995,38.83606],[-85.29002,38.83602],[-85.29016,38.83596],[-85.29022,38.83595],[-85.29031,38.83596],[-85.29037,38.83597],[-85.29054,38.83605],[-85.29066,38.83607],[-85.29067,38.83607],[-85.29075,38.83607],[-85.2908,38.83607],[-85.29089,38.83605],[-85.29097,38.83602],[-85.29102,38.83596],[-85.29106,38.83591],[-85.29116,38.83577],[-85.2912,38.83571],[-85.29131,38.83556],[-85.29142,38.83548],[-85.29146,38.83545],[-85.2916,38.83536],[-85.29173,38.8353],[-85.2918,38.83528],[-85.29188,38.83524],[-85.29214,38.83515],[-85.29242,38.83504],[-85.29259,38.83498],[-85.2927,38.83494],[-85.2928,38.83493],[-85.29285,38.83493],[-85.29289,38.83493],[-85.29296,38.83495],[-85.29303,38.83497],[-85.29311,38.83502],[-85.29318,38.83511],[-85.29321,38.83514],[-85.29325,38.83517],[-85.29333,38.83524],[-85.29339,38.83529],[-85.29347,38.83533],[-85.29361,38.8354],[-85.29374,38.83547],[-85.29375,38.83547],[-85.29384,38.83551],[-85.29394,38.83557],[-85.29401,38.83561],[-85.29413,38.83567],[-85.29421,38.83572],[-85.29432,38.83577],[-85.29438,38.8358],[-85.29449,38.83586],[-85.29461,38.83594],[-85.29472,38.83602],[-85.29475,38.83604],[-85.29482,38.83608],[-85.29497,38.83611],[-85.29498,38.83612],[-85.29529,38.83614],[-85.29552,38.83615],[-85.29566,38.83614],[-85.29597,38.83611],[-85.29628,38.83606],[-85.29646,38.83602],[-85.29659,38.83599],[-85.29689,38.83589],[-85.29708,38.83583],[-85.29752,38.83567],[-85.29773,38.8356],[-85.298,38.83548],[-85.29814,38.83543],[-85.29821,38.8354],[-85.29848,38.83537],[-85.29882,38.83535],[-85.29887,38.83535],[-85.29905,38.83534],[-85.29919,38.83534],[-85.29951,38.83534],[-85.29964,38.83535],[-85.2999,38.83535],[-85.29997,38.83533],[-85.30005,38.83531],[-85.3003,38.83526],[-85.30067,38.83512],[-85.30082,38.83505],[-85.30102,38.83497],[-85.30111,38.83493],[-85.30123,38.83488],[-85.30164,38.83472],[-85.30166,38.83471],[-85.30183,38.83462],[-85.30199,38.83455],[-85.30203,38.83453],[-85.30207,38.83452],[-85.30228,38.83446],[-85.30265,38.83439],[-85.3027,38.83438],[-85.30289,38.83436],[-85.30305,38.83435],[-85.30315,38.83435],[-85.30362,38.83436],[-85.30371,38.83436],[-85.30389,38.83434],[-85.304,38.8343],[-85.30415,38.83427],[-85.3043,38.83417],[-85.30447,38.83407],[-85.30451,38.83405],[-85.30458,38.83401],[-85.30472,38.83397],[-85.30493,38.83389],[-85.30499,38.83387],[-85.30517,38.83377],[-85.30535,38.83365],[-85.30546,38.83356],[-85.30552,38.83351],[-85.30562,38.83339],[-85.30571,38.83326],[-85.30579,38.83308],[-85.30585,38.83291],[-85.30592,38.83265],[-85.30607,38.83229],[-85.3061,38.83222],[-85.30617,38.83205],[-85.30631,38.83173],[-85.30632,38.83171],[-85.30637,38.83153],[-85.30647,38.83121],[-85.30648,38.83118],[-85.30655,38.8309],[-85.30656,38.83083],[-85.30659,38.83065],[-85.30662,38.83047],[-85.30665,38.8303],[-85.30666,38.83025],[-85.3067,38.83012],[-85.30675,38.83],[-85.30677,38.82995],[-85.30682,38.82987],[-85.30688,38.82979],[-85.30692,38.82975],[-85.30714,38.82949],[-85.30727,38.82934],[-85.30729,38.82932],[-85.30741,38.8292],[-85.30756,38.82906],[-85.30758,38.82904],[-85.30787,38.8288],[-85.30818,38.82853],[-85.30859,38.82828],[-85.30896,38.82806],[-85.30965,38.82765],[-85.30978,38.82757],[-85.31028,38.82734],[-85.31044,38.82729],[-85.31126,38.82701],[-85.31147,38.82689],[-85.31164,38.82677],[-85.31176,38.82665],[-85.31196,38.8265],[-85.3122,38.82634],[-85.31246,38.82623],[-85.31252,38.82621],[-85.31274,38.82613],[-85.31294,38.82605],[-85.31311,38.82598],[-85.31334,38.8259],[-85.31354,38.82579],[-85.31357,38.82577],[-85.31402,38.8254],[-85.31403,38.82539],[-85.31461,38.82485],[-85.31521,38.82428],[-85.31536,38.82416],[-85.31538,38.82415],[-85.3155,38.82403],[-85.3158,38.82375],[-85.31581,38.82374],[-85.31603,38.82355],[-85.31612,38.8235],[-85.31627,38.82341],[-85.3165,38.82331],[-85.31651,38.8233],[-85.31671,38.82323],[-85.31693,38.82315],[-85.31701,38.82312],[-85.31733,38.82303],[-85.31736,38.82302],[-85.31753,38.82299],[-85.31781,38.82293],[-85.31785,38.82292],[-85.31818,38.82285],[-85.31844,38.82277],[-85.31847,38.82276],[-85.31874,38.82266],[-85.31886,38.82258],[-85.31901,38.82249],[-85.31903,38.82246],[-85.31929,38.82218],[-85.3193,38.82217],[-85.31937,38.82209],[-85.31942,38.82202],[-85.31948,38.82179],[-85.31952,38.82166],[-85.31957,38.82149],[-85.31966,38.82113],[-85.31973,38.82097],[-85.3198,38.82079],[-85.31994,38.82045],[-85.32023,38.81976],[-85.32024,38.81973],[-85.32032,38.81941],[-85.32037,38.81924],[-85.32041,38.81908],[-85.32049,38.8187],[-85.32056,38.81835],[-85.3206,38.81817],[-85.3207,38.81782],[-85.32083,38.81748],[-85.32095,38.81719],[-85.32109,38.81698],[-85.3211,38.81695],[-85.32125,38.81676],[-85.32144,38.81658],[-85.32147,38.81651],[-85.32169,38.81625],[-85.32175,38.81617],[-85.32197,38.81592],[-85.32208,38.8158],[-85.32208,38.8158],[-85.32221,38.81582],[-85.32238,38.81585],[-85.32253,38.81586],[-85.32254,38.81586],[-85.32271,38.81586],[-85.32276,38.81586],[-85.32298,38.81586],[-85.32312,38.81589],[-85.32326,38.81592],[-85.32344,38.816],[-85.32371,38.81616],[-85.32396,38.81633],[-85.32406,38.81638],[-85.32414,38.81644],[-85.32431,38.81656],[-85.32482,38.81693],[-85.32496,38.81703],[-85.32533,38.81729],[-85.3255,38.81741],[-85.32589,38.81769],[-85.32618,38.8179],[-85.32651,38.81814],[-85.3267,38.81826],[-85.32683,38.81836],[-85.32698,38.81846],[-85.3271,38.81858],[-85.32719,38.81871],[-85.3272,38.81871],[-85.32729,38.81885],[-85.3273,38.81888],[-85.32734,38.81893],[-85.32742,38.81903],[-85.32743,38.81904],[-85.32756,38.81917],[-85.32765,38.81925],[-85.32775,38.81934],[-85.32799,38.8196],[-85.32807,38.81969],[-85.32813,38.81974],[-85.32827,38.81987],[-85.32844,38.82002],[-85.32859,38.82014],[-85.32866,38.82019],[-85.32876,38.82026],[-85.32889,38.82034],[-85.32895,38.82037],[-85.32904,38.82042],[-85.32914,38.82046],[-85.32921,38.82049],[-85.32935,38.82055],[-85.32945,38.82059],[-85.32955,38.82062],[-85.32981,38.82071],[-85.33014,38.82085],[-85.33037,38.82097],[-85.3304,38.82098],[-85.33054,38.82109],[-85.3306,38.82113],[-85.33082,38.82132],[-85.33099,38.82152],[-85.3311,38.82166],[-85.33124,38.82184],[-85.33134,38.82196],[-85.33147,38.82211],[-85.33159,38.82226],[-85.33198,38.82271],[-85.33206,38.82281],[-85.33223,38.82301],[-85.33235,38.82316],[-85.3326,38.82347],[-85.3328,38.82369],[-85.33299,38.82391],[-85.33306,38.824],[-85.33312,38.82406],[-85.33344,38.82442],[-85.33359,38.82455],[-85.33365,38.82461],[-85.33373,38.82471],[-85.33381,38.82484],[-85.33383,38.82486],[-85.33389,38.82497],[-85.334,38.82517],[-85.33412,38.82539],[-85.33419,38.82548],[-85.33423,38.82553],[-85.33426,38.82556],[-85.33431,38.8256],[-85.33442,38.82567],[-85.33453,38.82574],[-85.33454,38.82574],[-85.33461,38.82577],[-85.33473,38.8258],[-85.33483,38.82582],[-85.3349,38.82583],[-85.33499,38.82583],[-85.3352,38.82583],[-85.33543,38.82582],[-85.33574,38.8258],[-85.33598,38.82578],[-85.33612,38.82577],[-85.33621,38.82577],[-85.33665,38.82574],[-85.3369,38.82573],[-85.33734,38.8257],[-85.33736,38.8257],[-85.33805,38.82565],[-85.33805,38.82565],[-85.33845,38.82563],[-85.33875,38.82561],[-85.33902,38.82559],[-85.3392,38.82558],[-85.33929,38.82557],[-85.33942,38.82555],[-85.33955,38.82554],[-85.34032,38.82546],[-85.34042,38.82544],[-85.34054,38.82543],[-85.34071,38.8254],[-85.34173,38.82521],[-85.34223,38.82511],[-85.34248,38.82505],[-85.34272,38.82499],[-85.34282,38.82497],[-85.34283,38.82496],[-85.34293,38.82493],[-85.34297,38.82491],[-85.34303,38.82489],[-85.34308,38.82487],[-85.34313,38.82484],[-85.34318,38.82481],[-85.34325,38.82478],[-85.3434,38.82468],[-85.34363,38.82455],[-85.34377,38.82445],[-85.3439,38.82435],[-85.3439,38.82435],[-85.34411,38.82438],[-85.34435,38.82439],[-85.34436,38.82439],[-85.34465,38.82439],[-85.34481,38.82438],[-85.34504,38.82435],[-85.34508,38.82435],[-85.34527,38.82431],[-85.34534,38.8243],[-85.34549,38.82427],[-85.34552,38.82426],[-85.34576,38.82418],[-85.34597,38.82408],[-85.34618,38.82397],[-85.3465,38.82375],[-85.34667,38.82364],[-85.34691,38.82347],[-85.34722,38.82328],[-85.34737,38.82318],[-85.3474,38.82316],[-85.34759,38.82305],[-85.34777,38.82296],[-85.34781,38.82294],[-85.34798,38.82287],[-85.34804,38.82285],[-85.34819,38.8228],[-85.34848,38.82271],[-85.34882,38.82259],[-85.34885,38.82258],[-85.34903,38.82251],[-85.34924,38.82243],[-85.34954,38.82231],[-85.34998,38.82216],[-85.35008,38.82213],[-85.35015,38.82211],[-85.3503,38.82208],[-85.35037,38.82206],[-85.35064,38.822],[-85.35081,38.82196],[-85.35103,38.82192],[-85.35126,38.82187],[-85.35132,38.82186],[-85.35147,38.82181],[-85.35151,38.8218],[-85.35161,38.82175],[-85.35172,38.82168],[-85.35186,38.8216],[-85.352,38.82149],[-85.35215,38.82139],[-85.35219,38.82136],[-85.35232,38.82128],[-85.35242,38.82119],[-85.35254,38.82106],[-85.35263,38.82095],[-85.35309,38.82098],[-85.35338,38.821],[-85.35355,38.82099],[-85.35368,38.82099],[-85.35392,38.82098],[-85.35401,38.82097],[-85.35431,38.82094],[-85.35475,38.82089],[-85.35488,38.82089],[-85.35502,38.82091],[-85.35515,38.82095],[-85.35533,38.82099],[-85.35548,38.82105],[-85.35561,38.82111],[-85.3557,38.82116],[-85.35596,38.82129],[-85.35599,38.8213],[-85.35614,38.82136],[-85.35639,38.82144],[-85.3567,38.82159],[-85.35688,38.82171],[-85.35706,38.82182],[-85.3572,38.82191],[-85.35732,38.82196],[-85.35739,38.82197],[-85.35746,38.82197],[-85.3575,38.82198],[-85.35765,38.82198],[-85.35791,38.82198],[-85.35792,38.82198],[-85.35824,38.82198],[-85.35844,38.82198],[-85.35909,38.82199],[-85.35993,38.82198],[-85.36066,38.82198],[-85.36127,38.82198],[-85.36158,38.82198],[-85.36256,38.82197],[-85.36274,38.82197],[-85.36412,38.82198],[-85.36581,38.82199],[-85.36639,38.82199],[-85.36696,38.82199],[-85.36842,38.82199],[-85.36879,38.82199],[-85.36879,38.82199],[-85.36879,38.8212],[-85.36879,38.82091],[-85.36879,38.82073],[-85.3688,38.82055],[-85.3688,38.81992],[-85.36881,38.81942],[-85.36881,38.81915],[-85.3688,38.81891],[-85.3688,38.81861],[-85.3688,38.81825],[-85.3688,38.81798],[-85.3688,38.81742],[-85.3688,38.81723],[-85.3688,38.81715],[-85.3688,38.81697],[-85.3688,38.81679],[-85.3688,38.81625],[-85.36882,38.8156],[-85.36884,38.81488],[-85.36884,38.81479],[-85.36883,38.81461],[-85.36883,38.81455],[-85.36884,38.81411],[-85.36884,38.81389],[-85.36884,38.81351],[-85.36884,38.81289],[-85.36884,38.81246],[-85.36883,38.81222],[-85.36884,38.81186],[-85.36884,38.8118],[-85.36883,38.81085],[-85.36884,38.81063],[-85.36884,38.81056],[-85.36883,38.81046],[-85.36883,38.81],[-85.36883,38.8097],[-85.36884,38.8088],[-85.36886,38.80797],[-85.36886,38.80784],[-85.36886,38.80769],[-85.36886,38.80743],[-85.36886,38.80666],[-85.36887,38.80627],[-85.36887,38.80609],[-85.36888,38.80591],[-85.36888,38.80578],[-85.36888,38.80537],[-85.3689,38.80446],[-85.3689,38.80435],[-85.3689,38.80433],[-85.3689,38.80424],[-85.36891,38.80402],[-85.36891,38.8037],[-85.3689,38.80288],[-85.3689,38.80281],[-85.36889,38.80176],[-85.36889,38.80144],[-85.36889,38.8014],[-85.3689,38.80104],[-85.3689,38.79996],[-85.36891,38.79958],[-85.36891,38.79937],[-85.36892,38.79901],[-85.36892,38.7987],[-85.36893,38.79798],[-85.36893,38.79744],[-85.36894,38.79716],[-85.36894,38.79708],[-85.36894,38.7969],[-85.36894,38.79672],[-85.36893,38.79618],[-85.36893,38.79603],[-85.36893,38.79603],[-85.3691,38.79603],[-85.36994,38.79608],[-85.36997,38.79608],[-85.3702,38.7961],[-85.3706,38.79613],[-85.37066,38.79613],[-85.37134,38.79618],[-85.37157,38.7962],[-85.37188,38.79622],[-85.37221,38.79624],[-85.37226,38.79624],[-85.37249,38.79626],[-85.37272,38.79628],[-85.37318,38.79632],[-85.37387,38.79637],[-85.37499,38.79645],[-85.37514,38.79646],[-85.37578,38.7965],[-85.37583,38.79651],[-85.37629,38.79654],[-85.37687,38.79659],[-85.37721,38.79661],[-85.37744,38.79662],[-85.37813,38.79666],[-85.37873,38.79671],[-85.37917,38.79674],[-85.37986,38.79678],[-85.38012,38.79679],[-85.38081,38.79684],[-85.38093,38.79685],[-85.38127,38.79687],[-85.38311,38.79698],[-85.38318,38.79698],[-85.3836,38.79698],[-85.38398,38.79694],[-85.38403,38.79693],[-85.38447,38.79681],[-85.38447,38.79681],[-85.3847,38.79674],[-85.38497,38.79665],[-85.38517,38.79652],[-85.38528,38.79645],[-85.38547,38.79627],[-85.38548,38.79626],[-85.3856,38.79609],[-85.38568,38.79587],[-85.38569,38.7958],[-85.38575,38.79545],[-85.38583,38.7947],[-85.38596,38.79363],[-85.38597,38.79357],[-85.38598,38.79345],[-85.38603,38.79309],[-85.38613,38.79235],[-85.38618,38.79195],[-85.38623,38.79155],[-85.38629,38.79112],[-85.38646,38.7898],[-85.38655,38.78903],[-85.3866,38.78864],[-85.38683,38.78687],[-85.38688,38.7865],[-85.38694,38.78604],[-85.38694,38.78598],[-85.38695,38.78587],[-85.38698,38.78565],[-85.38702,38.78536],[-85.38704,38.78522],[-85.38706,38.78503],[-85.38716,38.78415],[-85.38717,38.78404],[-85.38718,38.78392],[-85.3872,38.78379],[-85.38722,38.78368],[-85.38725,38.78326],[-85.38725,38.78315],[-85.38729,38.78268],[-85.3873,38.7826],[-85.3873,38.7825],[-85.3873,38.7821],[-85.3873,38.78193],[-85.38732,38.7813],[-85.38731,38.7809],[-85.3873,38.78044],[-85.38731,38.77971],[-85.38731,38.77929],[-85.38731,38.77909],[-85.38731,38.77895],[-85.38731,38.77879],[-85.38731,38.77848],[-85.38731,38.778],[-85.38731,38.77782],[-85.38732,38.77754],[-85.38731,38.77719],[-85.38731,38.77665],[-85.3873,38.77638],[-85.3873,38.77592],[-85.3873,38.7755],[-85.38729,38.77523],[-85.38729,38.77513],[-85.38731,38.77475],[-85.38731,38.77444],[-85.38732,38.77418],[-85.38732,38.77379],[-85.38732,38.77372],[-85.38734,38.77318],[-85.38734,38.77318],[-85.38798,38.77319],[-85.38803,38.77319],[-85.38843,38.77319],[-85.38872,38.77316],[-85.38905,38.77309],[-85.38936,38.77303],[-85.39004,38.77285],[-85.39011,38.77283],[-85.39048,38.77279],[-85.39049,38.77279],[-85.39326,38.77272],[-85.39534,38.77266],[-85.39534,38.77266],[-85.39537,38.77184],[-85.39537,38.77184],[-85.39668,38.77186],[-85.39668,38.77186],[-85.39667,38.77133],[-85.39668,38.77075],[-85.39669,38.7701],[-85.39669,38.77008],[-85.39668,38.76918],[-85.39668,38.76776],[-85.39668,38.76763],[-85.39667,38.76686],[-85.39668,38.76656],[-85.39668,38.76611],[-85.39667,38.7655],[-85.39667,38.76518],[-85.39665,38.76436],[-85.39664,38.76394],[-85.39663,38.76373],[-85.39662,38.76335],[-85.39662,38.76312],[-85.39661,38.7626],[-85.39661,38.7626],[-85.39734,38.76259],[-85.39779,38.76258],[-85.39779,38.76258],[-85.39776,38.76171],[-85.39776,38.76171],[-85.39841,38.7617],[-85.3985,38.7617],[-85.39858,38.7617],[-85.39872,38.76169],[-85.39918,38.76169],[-85.39941,38.76168],[-85.39987,38.76168],[-85.4001,38.76167],[-85.40035,38.76167],[-85.40103,38.76165],[-85.40123,38.76164],[-85.40132,38.76164],[-85.40139,38.76164],[-85.40146,38.76164],[-85.4016,38.76164],[-85.40175,38.76164],[-85.40184,38.76165],[-85.40192,38.76165],[-85.40204,38.76166],[-85.40226,38.7617],[-85.40226,38.7617],[-85.40236,38.76165],[-85.40239,38.76163],[-85.40246,38.76162],[-85.40256,38.76161],[-85.40302,38.76159],[-85.40321,38.76159],[-85.40377,38.76156],[-85.40407,38.76155],[-85.40452,38.76155],[-85.40498,38.76156],[-85.40503,38.76156],[-85.40535,38.76156],[-85.4059,38.76154],[-85.40674,38.76153],[-85.4072,38.76151],[-85.40739,38.76151],[-85.40748,38.76151],[-85.40792,38.7615],[-85.40893,38.76147],[-85.4093,38.76147],[-85.40944,38.76146],[-85.40953,38.76146],[-85.40987,38.76146],[-85.41039,38.76146],[-85.41149,38.76144],[-85.41257,38.76143],[-85.41326,38.76141],[-85.41405,38.7614],[-85.41456,38.76139],[-85.41468,38.76138],[-85.4158,38.76137],[-85.41626,38.76136],[-85.4165,38.76136],[-85.41703,38.76135],[-85.41827,38.76132],[-85.41859,38.76131],[-85.41888,38.7613],[-85.41931,38.76129],[-85.41997,38.76128],[-85.41997,38.76128],[-85.41982,38.76096],[-85.41978,38.76087],[-85.41969,38.76071],[-85.41961,38.76054],[-85.41952,38.76037],[-85.4195,38.76032],[-85.41937,38.76003],[-85.41937,38.76003],[-85.41974,38.75999],[-85.41974,38.75999],[-85.41976,38.75979],[-85.41979,38.75965],[-85.41984,38.75955],[-85.41992,38.75946],[-85.41999,38.75942],[-85.42011,38.75937],[-85.42018,38.75935],[-85.42054,38.75925],[-85.42105,38.7591],[-85.42121,38.75909],[-85.42143,38.75903],[-85.42151,38.75897],[-85.42167,38.75876],[-85.42173,38.75867],[-85.42179,38.7586],[-85.42183,38.75854],[-85.42191,38.75843],[-85.42205,38.75816],[-85.42213,38.75799],[-85.42213,38.75799],[-85.42147,38.75768]]}}]}