{"type":"FeatureCollection","features":[{"type":"Feature","properties":{"_gpxType":"trk","name":"1501 Green Rd - 6014 S 550 W - 5707 New Washington Bethlehem Rd - 10610 Charlestown New Market Rd - 7972 High Jackson Rd - 8th St - 602 Baxter Avenue, Louisville, KY","coordinateProperties":{},"id":23},"geometry":{"type":"LineString","coordinates":[[-85.42367,38.75812],[-85.4235,38.75821],[-85.42344,38.75823],[-85.42324,38.75832],[-85.42293,38.75844],[-85.42283,38.75849],[-85.42264,38.75858],[-85.42247,38.75872],[-85.42231,38.75884],[-85.42231,38.75885],[-85.42199,38.7591],[-85.42199,38.7591],[-85.42192,38.7591],[-85.42173,38.75906],[-85.42156,38.75899],[-85.42151,38.75897],[-85.42143,38.75895],[-85.42138,38.75896],[-85.42123,38.759],[-85.42116,38.75902],[-85.42109,38.75907],[-85.42105,38.7591],[-85.42054,38.75925],[-85.42018,38.75935],[-85.42011,38.75937],[-85.41999,38.75942],[-85.41992,38.75946],[-85.41984,38.75955],[-85.41979,38.75965],[-85.41976,38.75979],[-85.41974,38.75999],[-85.41974,38.75999],[-85.42069,38.75985],[-85.42087,38.75982],[-85.42188,38.75963],[-85.42216,38.75961],[-85.42227,38.7596],[-85.42256,38.75961],[-85.42283,38.75963],[-85.42284,38.75963],[-85.42307,38.75966],[-85.42313,38.75967],[-85.42396,38.75985],[-85.42406,38.75987],[-85.42418,38.7599],[-85.4244,38.75994],[-85.42463,38.75999],[-85.425,38.76006],[-85.42529,38.76013],[-85.42549,38.76017],[-85.4255,38.76017],[-85.42552,38.76017],[-85.42573,38.76023],[-85.42592,38.76028],[-85.42595,38.76029],[-85.42611,38.76039],[-85.42613,38.7604],[-85.42618,38.76043],[-85.42645,38.76073],[-85.42652,38.76082],[-85.42653,38.76084],[-85.42665,38.761],[-85.42665,38.761],[-85.42624,38.76117],[-85.42604,38.76125],[-85.42583,38.76133],[-85.42563,38.76142],[-85.42542,38.7615],[-85.42522,38.76159],[-85.42502,38.76167],[-85.42499,38.76168],[-85.4246,38.76183],[-85.4244,38.76191],[-85.42419,38.76199],[-85.42402,38.76205],[-85.42398,38.76207],[-85.42359,38.76226],[-85.42339,38.76236],[-85.42329,38.7624],[-85.42322,38.76247],[-85.42307,38.7626],[-85.42302,38.76264],[-85.42293,38.76275],[-85.4229,38.76287],[-85.4229,38.76293],[-85.42288,38.76308],[-85.42288,38.76311],[-85.42289,38.76319],[-85.42292,38.76327],[-85.42292,38.76328],[-85.42297,38.76337],[-85.42305,38.76343],[-85.42313,38.76349],[-85.42322,38.76354],[-85.42341,38.76365],[-85.42346,38.76368],[-85.42352,38.76369],[-85.42359,38.76369],[-85.42362,38.76368],[-85.42384,38.76361],[-85.42391,38.7636],[-85.42406,38.76355],[-85.42427,38.76348],[-85.42431,38.76347],[-85.42448,38.76341],[-85.42469,38.76334],[-85.42476,38.76332],[-85.4249,38.76326],[-85.42511,38.76318],[-85.42517,38.76315],[-85.4253,38.76309],[-85.4255,38.76299],[-85.42569,38.76289],[-85.42596,38.76276],[-85.42608,38.7627],[-85.42649,38.76253],[-85.42666,38.76245],[-85.42669,38.76244],[-85.4269,38.76237],[-85.42711,38.76229],[-85.42726,38.76223],[-85.42732,38.76221],[-85.42753,38.76215],[-85.42775,38.76208],[-85.42777,38.76207],[-85.42797,38.76203],[-85.42819,38.76199],[-85.42841,38.76194],[-85.42864,38.76189],[-85.42885,38.76185],[-85.42886,38.76185],[-85.42907,38.76178],[-85.42916,38.76176],[-85.42927,38.76169],[-85.42931,38.76166],[-85.42942,38.76155],[-85.42953,38.76143],[-85.42956,38.76142],[-85.42974,38.76135],[-85.42977,38.76134],[-85.42994,38.76131],[-85.43,38.7613],[-85.43018,38.76128],[-85.43023,38.76128],[-85.43033,38.76128],[-85.43045,38.76129],[-85.43053,38.76131],[-85.43068,38.76133],[-85.43087,38.76136],[-85.4309,38.76137],[-85.4311,38.76142],[-85.43112,38.76143],[-85.43128,38.7615],[-85.43131,38.76153],[-85.43145,38.76167],[-85.43147,38.76169],[-85.43156,38.76183],[-85.43157,38.76183],[-85.43165,38.76199],[-85.43174,38.76214],[-85.43175,38.76216],[-85.43184,38.76233],[-85.43193,38.76249],[-85.43202,38.76266],[-85.43211,38.76282],[-85.4322,38.76299],[-85.43235,38.76312],[-85.43251,38.76325],[-85.4327,38.76335],[-85.43292,38.76341],[-85.43302,38.76343],[-85.43313,38.76348],[-85.43319,38.76351],[-85.43332,38.76358],[-85.43351,38.76367],[-85.43352,38.76368],[-85.43369,38.76379],[-85.43387,38.76391],[-85.43395,38.76397],[-85.43412,38.76419],[-85.43412,38.7642],[-85.43412,38.76432],[-85.43411,38.76438],[-85.43409,38.76446],[-85.43401,38.76454],[-85.43388,38.76467],[-85.43386,38.76467],[-85.43365,38.76475],[-85.43361,38.76476],[-85.43343,38.76477],[-85.4332,38.76479],[-85.43297,38.7648],[-85.43296,38.7648],[-85.43274,38.76485],[-85.43261,38.76488],[-85.43253,38.76492],[-85.43249,38.76494],[-85.43236,38.76504],[-85.43228,38.76509],[-85.43221,38.76517],[-85.43218,38.7652],[-85.43212,38.76534],[-85.4321,38.76538],[-85.43208,38.76551],[-85.43207,38.76562],[-85.43209,38.76569],[-85.43211,38.76576],[-85.43216,38.76581],[-85.43221,38.76583],[-85.43228,38.76587],[-85.43243,38.76588],[-85.43248,38.76589],[-85.43265,38.76593],[-85.4327,38.76594],[-85.43284,38.76601],[-85.43285,38.76602],[-85.43295,38.7661],[-85.43298,38.76614],[-85.43298,38.76616],[-85.43303,38.7663],[-85.43303,38.76633],[-85.43303,38.76651],[-85.43304,38.76669],[-85.43304,38.76705],[-85.43304,38.76723],[-85.43304,38.76741],[-85.43304,38.76759],[-85.43304,38.76777],[-85.43304,38.76795],[-85.43305,38.76803],[-85.43305,38.76813],[-85.43306,38.76818],[-85.43308,38.76831],[-85.43312,38.76849],[-85.43316,38.76865],[-85.43317,38.76866],[-85.43326,38.76883],[-85.43335,38.76899],[-85.43344,38.76916],[-85.43353,38.76932],[-85.43362,38.76949],[-85.43366,38.76955],[-85.43373,38.76965],[-85.43383,38.76978],[-85.43398,38.76987],[-85.43405,38.76988],[-85.43419,38.76992],[-85.43427,38.76994],[-85.43437,38.76997],[-85.43449,38.76999],[-85.43464,38.77002],[-85.43503,38.77014],[-85.4351,38.77015],[-85.43519,38.77016],[-85.43532,38.77013],[-85.43555,38.77009],[-85.43564,38.77007],[-85.43565,38.77007],[-85.43578,38.77007],[-85.4358,38.77007],[-85.43593,38.77007],[-85.436,38.77009],[-85.43623,38.77012],[-85.43623,38.77012],[-85.43622,38.7703],[-85.4362,38.77048],[-85.43619,38.77066],[-85.43618,38.77084],[-85.43616,38.77099],[-85.43616,38.7711],[-85.43616,38.7711],[-85.43641,38.77112],[-85.43654,38.77112],[-85.43664,38.77112],[-85.43667,38.77112],[-85.43675,38.77113],[-85.43684,38.77113],[-85.43695,38.77113],[-85.43702,38.77113],[-85.4371,38.77113],[-85.43753,38.77113],[-85.43753,38.77113],[-85.43754,38.77103],[-85.43759,38.7709],[-85.43762,38.7708],[-85.43768,38.77073],[-85.43771,38.7707],[-85.43779,38.77063],[-85.43787,38.77057],[-85.43796,38.77051],[-85.43813,38.77041],[-85.43823,38.77035],[-85.4383,38.7703],[-85.43835,38.77024],[-85.43837,38.77021],[-85.4384,38.77016],[-85.43842,38.77005],[-85.43842,38.77004],[-85.43843,38.76986],[-85.43844,38.76968],[-85.43847,38.76932],[-85.43847,38.76916],[-85.43848,38.76905],[-85.43847,38.76892],[-85.43846,38.76856],[-85.43846,38.76843],[-85.43846,38.7684],[-85.43846,38.76824],[-85.43846,38.76807],[-85.4385,38.76788],[-85.43857,38.76771],[-85.43868,38.76757],[-85.43869,38.76755],[-85.43877,38.7675],[-85.43885,38.76747],[-85.43886,38.76747],[-85.43888,38.76746],[-85.43896,38.76744],[-85.43909,38.76743],[-85.43932,38.76744],[-85.43952,38.76744],[-85.43978,38.76743],[-85.43984,38.76743],[-85.44016,38.76741],[-85.44047,38.76736],[-85.44185,38.76736],[-85.44209,38.76736],[-85.44268,38.76736],[-85.44337,38.76736],[-85.4436,38.76736],[-85.44393,38.76736],[-85.44446,38.76737],[-85.44469,38.76737],[-85.44492,38.76737],[-85.44538,38.76737],[-85.44578,38.76737],[-85.44612,38.76738],[-85.44622,38.76738],[-85.44709,38.76739],[-85.44714,38.76739],[-85.44824,38.76739],[-85.4485,38.76739],[-85.44895,38.76739],[-85.44895,38.76739],[-85.4497,38.76739],[-85.44982,38.76739],[-85.45098,38.76739],[-85.45259,38.7674],[-85.45329,38.76739],[-85.45416,38.76738],[-85.45497,38.76738],[-85.45688,38.76739],[-85.45726,38.7674],[-85.45818,38.76739],[-85.45846,38.7674],[-85.45904,38.7674],[-85.46011,38.7674],[-85.46062,38.7674],[-85.46081,38.7674],[-85.46111,38.7674],[-85.46137,38.76738],[-85.46156,38.76736],[-85.46167,38.76734],[-85.46205,38.76727],[-85.46233,38.76723],[-85.46264,38.76721],[-85.46305,38.76718],[-85.46389,38.76717],[-85.46397,38.76717],[-85.46475,38.76717],[-85.46535,38.76717],[-85.46628,38.76718],[-85.4665,38.76718],[-85.46743,38.76718],[-85.46809,38.76717],[-85.46844,38.76719],[-85.46862,38.7672],[-85.46862,38.7672],[-85.46864,38.76703],[-85.46869,38.76675],[-85.46875,38.76645],[-85.46888,38.76586],[-85.46889,38.7658],[-85.46897,38.76557],[-85.469,38.76551],[-85.46914,38.76521],[-85.46918,38.76511],[-85.46922,38.76501],[-85.46926,38.7649],[-85.46928,38.76479],[-85.46929,38.76471],[-85.4693,38.76465],[-85.4693,38.76457],[-85.46931,38.76422],[-85.46931,38.764],[-85.46932,38.76376],[-85.46933,38.7636],[-85.46934,38.76333],[-85.46935,38.76321],[-85.46936,38.76279],[-85.46937,38.76265],[-85.46939,38.76232],[-85.4694,38.76205],[-85.46943,38.76173],[-85.46948,38.76118],[-85.46948,38.76115],[-85.4695,38.76092],[-85.46954,38.76052],[-85.46955,38.76043],[-85.46956,38.76018],[-85.4696,38.7601],[-85.46961,38.76008],[-85.46962,38.76007],[-85.46964,38.76005],[-85.46967,38.76002],[-85.46971,38.76],[-85.46976,38.75999],[-85.46984,38.75998],[-85.4701,38.75998],[-85.47038,38.75998],[-85.47064,38.75999],[-85.47072,38.75998],[-85.47079,38.75997],[-85.47082,38.75996],[-85.47085,38.75995],[-85.47088,38.75993],[-85.47091,38.75991],[-85.47094,38.75988],[-85.47095,38.75986],[-85.47096,38.75983],[-85.47097,38.75979],[-85.47097,38.75976],[-85.47098,38.75973],[-85.47097,38.7597],[-85.47097,38.75964],[-85.47096,38.75937],[-85.47095,38.75932],[-85.47094,38.75879],[-85.47094,38.75865],[-85.47094,38.75846],[-85.47093,38.75829],[-85.47092,38.75779],[-85.47092,38.75757],[-85.47091,38.75663],[-85.47091,38.75649],[-85.4709,38.75635],[-85.4709,38.75633],[-85.47089,38.75586],[-85.47087,38.75455],[-85.47087,38.75452],[-85.47086,38.75411],[-85.47087,38.754],[-85.47088,38.75393],[-85.47089,38.75386],[-85.47091,38.75379],[-85.47093,38.75374],[-85.47095,38.75367],[-85.47099,38.7536],[-85.47102,38.75354],[-85.47108,38.75344],[-85.47114,38.75337],[-85.47119,38.75331],[-85.47125,38.75325],[-85.4713,38.7532],[-85.47137,38.75313],[-85.47146,38.75305],[-85.47157,38.75295],[-85.47165,38.75287],[-85.47174,38.75279],[-85.47186,38.75263],[-85.47192,38.7525],[-85.47196,38.75239],[-85.47199,38.75229],[-85.47202,38.75219],[-85.47202,38.75213],[-85.47203,38.75203],[-85.47203,38.75199],[-85.47202,38.75192],[-85.47201,38.75183],[-85.47199,38.75175],[-85.47197,38.75166],[-85.47193,38.75158],[-85.47193,38.75157],[-85.47189,38.7515],[-85.47184,38.75141],[-85.4718,38.75135],[-85.47173,38.75127],[-85.47161,38.75113],[-85.47131,38.75079],[-85.47111,38.75056],[-85.47105,38.7505],[-85.47099,38.75043],[-85.47093,38.75036],[-85.47089,38.75026],[-85.47084,38.75013],[-85.4708,38.75001],[-85.47077,38.74988],[-85.47076,38.74962],[-85.47074,38.74921],[-85.47073,38.74856],[-85.47071,38.74766],[-85.4707,38.74677],[-85.47069,38.74633],[-85.47068,38.74572],[-85.47067,38.74518],[-85.47066,38.74464],[-85.47065,38.74393],[-85.47063,38.74323],[-85.47062,38.74227],[-85.47062,38.74191],[-85.47062,38.74186],[-85.47061,38.7415],[-85.4706,38.74111],[-85.4706,38.7408],[-85.47059,38.74049],[-85.47059,38.74029],[-85.47059,38.74014],[-85.47059,38.73952],[-85.47059,38.73939],[-85.47059,38.73921],[-85.47059,38.73916],[-85.47058,38.73885],[-85.47057,38.73818],[-85.47058,38.73738],[-85.47058,38.7372],[-85.47059,38.7369],[-85.47059,38.73666],[-85.4706,38.73638],[-85.4706,38.7363],[-85.4706,38.73555],[-85.47059,38.73508],[-85.47058,38.73482],[-85.47057,38.73437],[-85.47057,38.73385],[-85.47058,38.733],[-85.47058,38.73223],[-85.47058,38.73217],[-85.47057,38.73151],[-85.47057,38.73131],[-85.47057,38.73108],[-85.47057,38.73092],[-85.47056,38.73085],[-85.47057,38.73062],[-85.47057,38.7301],[-85.47056,38.72979],[-85.47055,38.72959],[-85.47054,38.72872],[-85.47054,38.72841],[-85.47054,38.72803],[-85.47054,38.72693],[-85.47054,38.7268],[-85.47053,38.7263],[-85.47052,38.72576],[-85.47052,38.72558],[-85.47051,38.72486],[-85.4705,38.72412],[-85.47048,38.72379],[-85.47048,38.7236],[-85.47048,38.7236],[-85.47112,38.7236],[-85.47277,38.72361],[-85.47317,38.72363],[-85.47317,38.72363],[-85.47323,38.72248],[-85.47324,38.72231],[-85.47326,38.72194],[-85.47331,38.72147],[-85.47334,38.72107],[-85.47336,38.7209],[-85.47337,38.72074],[-85.47339,38.72051],[-85.4734,38.72039],[-85.4734,38.72027],[-85.47341,38.7202],[-85.47341,38.72012],[-85.47344,38.71986],[-85.47344,38.7198],[-85.47345,38.71962],[-85.47347,38.71938],[-85.47348,38.7192],[-85.4735,38.71906],[-85.47352,38.71874],[-85.4736,38.71823],[-85.47367,38.71763],[-85.47367,38.71758],[-85.47369,38.71745],[-85.47374,38.71691],[-85.47375,38.71676],[-85.47376,38.7164],[-85.47376,38.71622],[-85.47376,38.71618],[-85.47373,38.71602],[-85.47373,38.71602],[-85.4737,38.71588],[-85.47366,38.71582],[-85.47356,38.71566],[-85.47351,38.71558],[-85.4735,38.71549],[-85.47349,38.7154],[-85.47351,38.7153],[-85.47353,38.71507],[-85.47354,38.71494],[-85.47357,38.71476],[-85.4736,38.71448],[-85.47362,38.71426],[-85.47363,38.71421],[-85.4737,38.71367],[-85.47374,38.71339],[-85.47381,38.71297],[-85.47382,38.71273],[-85.47383,38.71263],[-85.47386,38.71237],[-85.47393,38.71184],[-85.47393,38.71178],[-85.47397,38.71132],[-85.47399,38.71116],[-85.474,38.71106],[-85.47403,38.7108],[-85.47405,38.71063],[-85.47405,38.71039],[-85.47407,38.7103],[-85.4741,38.70993],[-85.47412,38.70973],[-85.47413,38.70959],[-85.47416,38.70942],[-85.4742,38.70929],[-85.47425,38.70917],[-85.47437,38.70898],[-85.47445,38.70888],[-85.47459,38.70872],[-85.47466,38.70864],[-85.47474,38.70853],[-85.47481,38.7084],[-85.47489,38.70821],[-85.4749,38.70817],[-85.47491,38.70785],[-85.47491,38.70722],[-85.4749,38.70697],[-85.47487,38.70629],[-85.47487,38.70624],[-85.47486,38.70617],[-85.47486,38.70598],[-85.47486,38.70588],[-85.47485,38.70562],[-85.47485,38.70554],[-85.47485,38.70537],[-85.47485,38.70537],[-85.47484,38.70511],[-85.47484,38.70501],[-85.47483,38.70481],[-85.47482,38.70456],[-85.47482,38.70439],[-85.47484,38.70423],[-85.47487,38.70408],[-85.47489,38.70403],[-85.47491,38.70399],[-85.47494,38.70396],[-85.47498,38.70393],[-85.47504,38.70389],[-85.47507,38.70387],[-85.47514,38.70383],[-85.4752,38.70381],[-85.47541,38.70376],[-85.47561,38.70373],[-85.47571,38.70371],[-85.47579,38.70371],[-85.47585,38.7037],[-85.47599,38.70367],[-85.47601,38.70366],[-85.47609,38.70361],[-85.47617,38.70353],[-85.4763,38.70342],[-85.47643,38.70331],[-85.47646,38.70329],[-85.47661,38.70316],[-85.47688,38.70296],[-85.47695,38.70291],[-85.47709,38.70282],[-85.47714,38.7028],[-85.47735,38.70273],[-85.47739,38.70271],[-85.47755,38.70264],[-85.47756,38.70264],[-85.47795,38.70247],[-85.47821,38.70235],[-85.47896,38.70206],[-85.47898,38.70205],[-85.47918,38.70197],[-85.47936,38.70191],[-85.4795,38.70186],[-85.4795,38.70186],[-85.47949,38.70177],[-85.4795,38.70146],[-85.47949,38.70116],[-85.47949,38.7008],[-85.47949,38.70078],[-85.47948,38.70042],[-85.47945,38.69959],[-85.47945,38.69958],[-85.47944,38.6992],[-85.47944,38.69904],[-85.47943,38.69826],[-85.47943,38.69815],[-85.47943,38.69814],[-85.47941,38.69748],[-85.47941,38.69742],[-85.47941,38.69724],[-85.4794,38.69706],[-85.47939,38.69674],[-85.47939,38.6967],[-85.47939,38.69634],[-85.47937,38.69526],[-85.47937,38.69508],[-85.47936,38.69464],[-85.47934,38.69417],[-85.47934,38.69392],[-85.47934,38.69362],[-85.47934,38.69351],[-85.47933,38.6932],[-85.47932,38.69292],[-85.47932,38.6929],[-85.47932,38.69254],[-85.47932,38.69249],[-85.47932,38.69236],[-85.47932,38.69182],[-85.47932,38.69154],[-85.47932,38.69128],[-85.47932,38.69074],[-85.47931,38.69061],[-85.47931,38.69056],[-85.4793,38.69038],[-85.4793,38.69031],[-85.4793,38.6902],[-85.4793,38.69002],[-85.4793,38.68983],[-85.47931,38.68968],[-85.47932,38.6894],[-85.47933,38.68922],[-85.47933,38.68918],[-85.47933,38.6885],[-85.47934,38.68814],[-85.47934,38.68773],[-85.47932,38.68742],[-85.47931,38.68688],[-85.4793,38.68605],[-85.4793,38.6858],[-85.47929,38.6852],[-85.47926,38.68322],[-85.47925,38.68256],[-85.47926,38.6825],[-85.4793,38.68232],[-85.47931,38.68226],[-85.47952,38.68181],[-85.47988,38.68115],[-85.47997,38.68099],[-85.48041,38.68019],[-85.48048,38.68008],[-85.48075,38.67958],[-85.48093,38.67923],[-85.48119,38.67875],[-85.48122,38.67869],[-85.48138,38.67838],[-85.48151,38.67814],[-85.48173,38.67771],[-85.48174,38.67768],[-85.48223,38.67676],[-85.48228,38.67666],[-85.48244,38.67637],[-85.48261,38.67604],[-85.4827,38.67587],[-85.48279,38.67569],[-85.48281,38.67564],[-85.48296,38.67538],[-85.48337,38.67458],[-85.48356,38.67422],[-85.4837,38.67396],[-85.48405,38.6733],[-85.48427,38.67286],[-85.48435,38.6727],[-85.48469,38.67202],[-85.48477,38.67187],[-85.48503,38.67135],[-85.48529,38.67087],[-85.48579,38.66991],[-85.48589,38.66969],[-85.48633,38.66883],[-85.48647,38.66856],[-85.48684,38.66787],[-85.4873,38.66699],[-85.48795,38.66576],[-85.48816,38.66558],[-85.48819,38.66555],[-85.48819,38.66555],[-85.48825,38.66544],[-85.48825,38.66535],[-85.48825,38.66502],[-85.48825,38.66461],[-85.48826,38.66413],[-85.48826,38.66412],[-85.48827,38.66276],[-85.48826,38.66268],[-85.48825,38.66215],[-85.48823,38.66095],[-85.48823,38.66071],[-85.48823,38.6607],[-85.48822,38.66],[-85.48823,38.65997],[-85.48822,38.65925],[-85.48821,38.65822],[-85.4882,38.65765],[-85.48819,38.65678],[-85.48819,38.65673],[-85.48819,38.65671],[-85.48818,38.65608],[-85.48818,38.65599],[-85.48818,38.65583],[-85.48816,38.65472],[-85.48816,38.65457],[-85.48816,38.65394],[-85.48813,38.65332],[-85.48813,38.65328],[-85.48812,38.65287],[-85.48812,38.65237],[-85.48812,38.65206],[-85.48812,38.65201],[-85.48812,38.6517],[-85.48812,38.6516],[-85.48812,38.65144],[-85.48812,38.65127],[-85.48808,38.651],[-85.48808,38.651],[-85.48831,38.651],[-85.48843,38.65099]]}},{"type":"Feature","properties":{"_gpxType":"trk","name":"1501 Green Rd - 6014 S 550 W - 5707 New Washington Bethlehem Rd - 10610 Charlestown New Market Rd - 7972 High Jackson Rd - 8th St - 602 Baxter Avenue, Louisville, KY","coordinateProperties":{},"id":23},"geometry":{"type":"LineString","coordinates":[[-85.48843,38.65099],[-85.48877,38.65098],[-85.489,38.65098],[-85.48907,38.65097],[-85.48923,38.65097],[-85.48946,38.65097],[-85.49015,38.65095],[-85.49025,38.65095],[-85.49038,38.65095],[-85.49061,38.65094],[-85.49084,38.65093],[-85.49153,38.65091],[-85.49158,38.65091],[-85.49176,38.65092],[-85.4919,38.65092],[-85.49207,38.65092],[-85.4923,38.65092],[-85.49322,38.65091],[-85.49345,38.65091],[-85.49356,38.6509],[-85.49368,38.6509],[-85.49375,38.6509],[-85.49391,38.6509],[-85.49398,38.6509],[-85.49414,38.65089],[-85.49433,38.65089],[-85.49446,38.65089],[-85.49483,38.65087],[-85.49506,38.65087],[-85.49529,38.65086],[-85.49552,38.65085],[-85.49555,38.65085],[-85.49575,38.65085],[-85.49621,38.65085],[-85.4969,38.65085],[-85.49696,38.65085],[-85.49713,38.65085],[-85.49736,38.65084],[-85.49736,38.65084],[-85.49735,38.65038],[-85.49735,38.65016],[-85.49735,38.64986],[-85.49734,38.64942],[-85.49731,38.64933],[-85.49725,38.64914],[-85.49706,38.64865],[-85.4967,38.64771],[-85.49667,38.64762],[-85.4966,38.64745],[-85.49656,38.64731],[-85.49653,38.64721],[-85.49655,38.64671],[-85.49657,38.64649],[-85.49659,38.64628],[-85.49659,38.64614],[-85.4966,38.64596],[-85.49662,38.6456],[-85.49662,38.64559],[-85.49662,38.64542],[-85.49662,38.64524],[-85.49662,38.64522],[-85.49665,38.6447],[-85.49665,38.64463],[-85.49666,38.64452],[-85.49666,38.64449],[-85.49667,38.64434],[-85.49667,38.64431],[-85.49668,38.64413],[-85.4967,38.64396],[-85.49672,38.64384],[-85.49672,38.64378],[-85.49672,38.6436],[-85.49672,38.64354],[-85.4967,38.64342],[-85.49668,38.64324],[-85.49665,38.64306],[-85.49663,38.64292],[-85.49664,38.64288],[-85.49666,38.64271],[-85.49666,38.6427],[-85.49668,38.64256],[-85.49668,38.64252],[-85.49673,38.64235],[-85.49675,38.64228],[-85.49678,38.64217],[-85.49681,38.64208],[-85.49686,38.642],[-85.49699,38.6418],[-85.49706,38.64163],[-85.49709,38.64156],[-85.49709,38.64126],[-85.4971,38.64114],[-85.4971,38.64112],[-85.4971,38.64096],[-85.4971,38.64084],[-85.4971,38.6406],[-85.49709,38.64042],[-85.49709,38.64041],[-85.49708,38.63934],[-85.49708,38.63928],[-85.49707,38.63887],[-85.49707,38.63869],[-85.49705,38.63749],[-85.49705,38.63738],[-85.49702,38.63647],[-85.49701,38.63569],[-85.49699,38.63476],[-85.49698,38.63403],[-85.49698,38.63386],[-85.49698,38.63385],[-85.49698,38.63368],[-85.49697,38.63331],[-85.49697,38.63306],[-85.49697,38.63291],[-85.49696,38.63239],[-85.49696,38.63237],[-85.49695,38.63219],[-85.49695,38.63203],[-85.49694,38.63133],[-85.49694,38.6313],[-85.49693,38.63115],[-85.49693,38.63112],[-85.49692,38.63021],[-85.49691,38.6289],[-85.49691,38.62873],[-85.49692,38.62869],[-85.4969,38.62861],[-85.49689,38.62856],[-85.49688,38.62853],[-85.49682,38.62848],[-85.49674,38.62846],[-85.49672,38.62845],[-85.49658,38.62844],[-85.49649,38.62844],[-85.49603,38.62844],[-85.4958,38.62844],[-85.49557,38.62844],[-85.49534,38.62844],[-85.4952,38.62844],[-85.49497,38.62844],[-85.49474,38.62844],[-85.49451,38.62844],[-85.49428,38.62844],[-85.49413,38.62844],[-85.49413,38.62844],[-85.49408,38.62841],[-85.4939,38.62831],[-85.49381,38.62819],[-85.49365,38.628],[-85.49354,38.62784],[-85.49351,38.6278],[-85.49342,38.62769],[-85.49337,38.62761],[-85.49332,38.62753],[-85.49326,38.62743],[-85.4932,38.62727],[-85.49316,38.62709],[-85.49316,38.6267],[-85.49317,38.62646],[-85.49317,38.62645],[-85.49317,38.62628],[-85.49316,38.6261],[-85.49315,38.62574],[-85.49313,38.62538],[-85.49314,38.625],[-85.49313,38.62476],[-85.49313,38.62453],[-85.49314,38.62359],[-85.49311,38.62274],[-85.4931,38.62232],[-85.49309,38.6212],[-85.49309,38.6212],[-85.49365,38.62121],[-85.49378,38.6212],[-85.49402,38.6212],[-85.49425,38.6212],[-85.49448,38.6212],[-85.49538,38.62119],[-85.49623,38.62117],[-85.49685,38.62116],[-85.49685,38.62116],[-85.49684,38.62081],[-85.49683,38.62046],[-85.49682,38.61998],[-85.49682,38.61935],[-85.4968,38.61873],[-85.49679,38.6184],[-85.49679,38.61739],[-85.49678,38.61649],[-85.49676,38.61625],[-85.49673,38.61423],[-85.49673,38.61215],[-85.49673,38.61142],[-85.49671,38.6104],[-85.49671,38.60954],[-85.49672,38.60935],[-85.49668,38.60824],[-85.49667,38.60711],[-85.49667,38.60711],[-85.49667,38.60686],[-85.49666,38.60672],[-85.49667,38.60656],[-85.49666,38.60639],[-85.49666,38.60635],[-85.49667,38.60618],[-85.49666,38.60601],[-85.49666,38.60576],[-85.49665,38.60564],[-85.49665,38.60524],[-85.49665,38.60505],[-85.49664,38.60452],[-85.49664,38.60375],[-85.49662,38.60318],[-85.49662,38.60288],[-85.49661,38.60267],[-85.49661,38.60213],[-85.4966,38.60192],[-85.49659,38.60106],[-85.49658,38.5999],[-85.49656,38.59836],[-85.49655,38.59793],[-85.49654,38.59728],[-85.49652,38.59656],[-85.49649,38.59494],[-85.49647,38.59426],[-85.49646,38.59365],[-85.49647,38.5934],[-85.49645,38.59312],[-85.49645,38.59294],[-85.49644,38.59266],[-85.49644,38.59249],[-85.49643,38.59248],[-85.49643,38.59247],[-85.49643,38.59221],[-85.49644,38.59184],[-85.49643,38.59149],[-85.49643,38.59131],[-85.49642,38.591],[-85.49641,38.59041],[-85.4964,38.59023],[-85.4964,38.59005],[-85.4964,38.58992],[-85.4964,38.58969],[-85.49639,38.58897],[-85.49638,38.58852],[-85.49637,38.58836],[-85.49638,38.5882],[-85.49636,38.58623],[-85.49636,38.58618],[-85.49637,38.58532],[-85.49637,38.58514],[-85.49634,38.58505],[-85.4963,38.58498],[-85.49624,38.58495],[-85.49612,38.58494],[-85.49598,38.58493],[-85.49571,38.58494],[-85.49556,38.58495],[-85.49485,38.58497],[-85.49459,38.58498],[-85.49451,38.58497],[-85.49442,38.58495],[-85.49441,38.58495],[-85.49433,38.58489],[-85.49429,38.58481],[-85.49428,38.58456],[-85.49427,38.58445],[-85.49427,38.58444],[-85.49427,38.58392],[-85.49427,38.5839],[-85.49426,38.58308],[-85.49424,38.58246],[-85.49423,38.58182],[-85.49422,38.58093],[-85.49422,38.58092],[-85.49422,38.58091],[-85.49423,38.58078],[-85.49426,38.58071],[-85.49434,38.58062],[-85.49454,38.58046],[-85.49459,38.58042],[-85.49469,38.58034],[-85.49504,38.58007],[-85.49534,38.57984],[-85.49536,38.57983],[-85.49621,38.57918],[-85.49692,38.57869],[-85.49746,38.57839],[-85.49763,38.5783],[-85.49765,38.57829],[-85.49783,38.57817],[-85.49787,38.57815],[-85.49799,38.57803],[-85.4981,38.57789],[-85.49822,38.57774],[-85.49828,38.57766],[-85.49842,38.57747],[-85.49852,38.57735],[-85.49861,38.57725],[-85.49898,38.57685],[-85.49906,38.57676],[-85.49927,38.57653],[-85.49937,38.57639],[-85.49944,38.57628],[-85.49949,38.57621],[-85.49953,38.57613],[-85.49956,38.57605],[-85.49958,38.57596],[-85.49959,38.57588],[-85.4996,38.57575],[-85.49962,38.57557],[-85.49963,38.57548],[-85.49968,38.57503],[-85.49971,38.57483],[-85.49972,38.57476],[-85.49973,38.57469],[-85.49976,38.57437],[-85.49977,38.57436],[-85.4998,38.57412],[-85.49982,38.57406],[-85.49985,38.57398],[-85.4999,38.57387],[-85.49996,38.57378],[-85.50005,38.57367],[-85.50016,38.57354],[-85.50019,38.5735],[-85.50033,38.57335],[-85.50039,38.57326],[-85.50043,38.57317],[-85.50045,38.57309],[-85.50047,38.573],[-85.50046,38.57288],[-85.50028,38.57216],[-85.50022,38.57182],[-85.50014,38.57137],[-85.50001,38.57082],[-85.5,38.57076],[-85.49983,38.57021],[-85.49978,38.57004],[-85.49978,38.57004],[-85.49996,38.56994],[-85.50019,38.5698],[-85.50044,38.56964],[-85.50063,38.56952],[-85.50089,38.56938],[-85.5009,38.56938],[-85.50102,38.56933],[-85.5011,38.56931],[-85.50111,38.5693],[-85.50114,38.56929],[-85.50133,38.56924],[-85.50138,38.56922],[-85.50177,38.56914],[-85.50196,38.56909],[-85.5022,38.56905],[-85.50235,38.56902],[-85.50265,38.56899],[-85.50266,38.56899],[-85.50288,38.56897],[-85.50289,38.56897],[-85.50327,38.56893],[-85.50331,38.56893]]}},{"type":"Feature","properties":{"_gpxType":"trk","name":"1501 Green Rd - 6014 S 550 W - 5707 New Washington Bethlehem Rd - 10610 Charlestown New Market Rd - 7972 High Jackson Rd - 8th St - 602 Baxter Avenue, Louisville, KY","coordinateProperties":{},"id":23},"geometry":{"type":"LineString","coordinates":[[-85.50331,38.56893],[-85.50345,38.56892],[-85.5036,38.56892],[-85.50361,38.56892],[-85.50365,38.56892],[-85.50392,38.56894],[-85.50429,38.56897],[-85.50434,38.56898],[-85.50451,38.56899],[-85.50453,38.56899],[-85.50485,38.56902],[-85.50498,38.56904],[-85.50543,38.56909],[-85.50588,38.56912],[-85.50613,38.56914],[-85.50618,38.56914],[-85.50619,38.56914],[-85.50646,38.56914],[-85.50664,38.56914],[-85.50681,38.56913],[-85.50704,38.56911],[-85.50708,38.56911],[-85.5071,38.5691],[-85.50722,38.56909],[-85.5074,38.56906],[-85.50755,38.56902],[-85.50773,38.56898],[-85.50814,38.56886],[-85.5082,38.56884],[-85.50852,38.56875],[-85.50971,38.56839],[-85.50988,38.56834],[-85.5109,38.56807],[-85.51166,38.56789],[-85.51207,38.5678],[-85.51256,38.56771],[-85.51261,38.5677],[-85.51285,38.56767],[-85.51323,38.56762],[-85.5139,38.56754],[-85.51456,38.56746],[-85.51475,38.56743],[-85.51487,38.5674],[-85.515,38.56737],[-85.51513,38.56732],[-85.5153,38.56727],[-85.51543,38.56722],[-85.51558,38.56715],[-85.51571,38.5671],[-85.51572,38.56709],[-85.51582,38.56704],[-85.51589,38.56701],[-85.5159,38.567],[-85.51597,38.56695],[-85.51603,38.56692],[-85.51608,38.56688],[-85.5161,38.56687],[-85.51614,38.56684],[-85.51623,38.56677],[-85.51625,38.56676],[-85.51634,38.56668],[-85.5164,38.56663],[-85.51657,38.56647],[-85.51682,38.56625],[-85.51712,38.56598],[-85.51736,38.56576],[-85.51762,38.56552],[-85.51791,38.56527],[-85.51848,38.56477],[-85.51852,38.56473],[-85.51906,38.56426],[-85.51959,38.56379],[-85.51967,38.56372],[-85.51991,38.5635],[-85.51999,38.56343],[-85.52007,38.56337],[-85.52013,38.56333],[-85.52021,38.56327],[-85.52033,38.56323],[-85.52044,38.5632],[-85.52051,38.56319],[-85.52058,38.56319],[-85.52085,38.56318],[-85.52088,38.56318],[-85.52113,38.56318],[-85.52177,38.56317],[-85.5218,38.56317],[-85.52203,38.56317],[-85.52327,38.56315],[-85.52383,38.56315],[-85.52431,38.56314],[-85.52615,38.56314],[-85.52625,38.56314],[-85.52832,38.56313],[-85.52891,38.56313],[-85.53213,38.56313],[-85.53266,38.56313],[-85.5328,38.56313],[-85.53288,38.56313],[-85.53326,38.56312],[-85.53334,38.56312],[-85.53349,38.56312],[-85.53441,38.56312],[-85.5345,38.56312],[-85.53464,38.56311],[-85.53473,38.56311],[-85.53476,38.56311],[-85.53496,38.56311],[-85.5351,38.56311],[-85.53519,38.56311],[-85.53533,38.56311],[-85.53542,38.56311],[-85.53556,38.56311],[-85.53602,38.56311],[-85.53625,38.56311],[-85.53634,38.56311],[-85.53657,38.56311],[-85.53657,38.56311],[-85.53743,38.5631],[-85.53805,38.5631],[-85.53881,38.56308],[-85.53918,38.56307],[-85.53957,38.56307],[-85.54105,38.56305],[-85.54229,38.56303],[-85.54229,38.56303],[-85.54416,38.563],[-85.54416,38.563],[-85.54448,38.563],[-85.54517,38.563],[-85.5454,38.563],[-85.5463,38.56299],[-85.54742,38.56298],[-85.54906,38.56296],[-85.54981,38.56296],[-85.5505,38.56295],[-85.55096,38.56295],[-85.55175,38.56295],[-85.55234,38.56296],[-85.55303,38.56295],[-85.55338,38.56294],[-85.55361,38.56294],[-85.55404,38.56294],[-85.55453,38.56294],[-85.55499,38.56294],[-85.55545,38.56293],[-85.5559,38.56293],[-85.55763,38.56292],[-85.56216,38.56288],[-85.56255,38.56288],[-85.56315,38.56288],[-85.56338,38.56288],[-85.56353,38.56288],[-85.56361,38.56288],[-85.5644,38.56288],[-85.56453,38.56288],[-85.56476,38.56288],[-85.56545,38.56287],[-85.56617,38.56286],[-85.56651,38.56286],[-85.56663,38.56286],[-85.56686,38.56286],[-85.56709,38.56286],[-85.56755,38.56286],[-85.56778,38.56286],[-85.56789,38.56286],[-85.5687,38.56285],[-85.56874,38.56285],[-85.56893,38.56285],[-85.56939,38.56284],[-85.56985,38.56284],[-85.57005,38.56284],[-85.57028,38.56284],[-85.57051,38.56283],[-85.5712,38.56283],[-85.57122,38.56283],[-85.57143,38.56283],[-85.57235,38.56282],[-85.5735,38.56281],[-85.57373,38.56281],[-85.57396,38.56281],[-85.57488,38.5628],[-85.57534,38.5628],[-85.57565,38.56279],[-85.57654,38.5628],[-85.57723,38.5628],[-85.57746,38.5628],[-85.57768,38.5628],[-85.57792,38.5628],[-85.57805,38.56279],[-85.57813,38.56278],[-85.57814,38.56277],[-85.57818,38.56276],[-85.57823,38.56274],[-85.57827,38.56272],[-85.57831,38.56269],[-85.57833,38.56268],[-85.57836,38.56266],[-85.57841,38.56262],[-85.57846,38.56256],[-85.57851,38.56248],[-85.57856,38.56239],[-85.57857,38.56237],[-85.57864,38.5622],[-85.57868,38.56211],[-85.57871,38.56203],[-85.57879,38.56186],[-85.57886,38.56169],[-85.5789,38.56161],[-85.57904,38.56136],[-85.57924,38.56103],[-85.57934,38.56087],[-85.57943,38.56071],[-85.57947,38.56065],[-85.57953,38.56054],[-85.57955,38.56051],[-85.5796,38.56044],[-85.57964,38.56039],[-85.57969,38.56032],[-85.57977,38.56024],[-85.57979,38.56022],[-85.57988,38.56014],[-85.57999,38.56006],[-85.58012,38.55999],[-85.58026,38.55992],[-85.58038,38.55987],[-85.58051,38.55984],[-85.58059,38.55982],[-85.58068,38.5598],[-85.58077,38.55979],[-85.58083,38.55978],[-85.5809,38.55978],[-85.58102,38.55977],[-85.58114,38.55978],[-85.5814,38.5598],[-85.5814,38.5598],[-85.58138,38.55966],[-85.58136,38.55962],[-85.58134,38.55955],[-85.58131,38.5595],[-85.58125,38.55943],[-85.58113,38.55932],[-85.58105,38.55924],[-85.58099,38.55918],[-85.5809,38.5591],[-85.58085,38.55904],[-85.58082,38.55901],[-85.5808,38.55897],[-85.58078,38.55892],[-85.58078,38.55887],[-85.58078,38.55878],[-85.58079,38.5586],[-85.58079,38.55851],[-85.5808,38.55848],[-85.58082,38.55833],[-85.58083,38.55828],[-85.58087,38.55816],[-85.58089,38.55812],[-85.58096,38.55799],[-85.58098,38.55795],[-85.58103,38.55786],[-85.58104,38.55782],[-85.58106,38.55775],[-85.58108,38.55769],[-85.58109,38.55764],[-85.5811,38.55758],[-85.5811,38.55751],[-85.58108,38.55723],[-85.58108,38.55711],[-85.58109,38.557],[-85.58114,38.55683],[-85.58116,38.55675],[-85.58117,38.55672],[-85.58122,38.55659],[-85.58158,38.55617],[-85.58184,38.55587],[-85.58242,38.5552],[-85.58249,38.55511],[-85.58254,38.55505],[-85.58267,38.5549],[-85.5828,38.55475],[-85.58293,38.5546],[-85.58314,38.55436],[-85.58368,38.55378],[-85.58381,38.55363],[-85.584,38.55343],[-85.58454,38.55287],[-85.58467,38.55273],[-85.58493,38.55246],[-85.58495,38.55245],[-85.5852,38.55217],[-85.58566,38.55164],[-85.58605,38.5512],[-85.5861,38.55114],[-85.58618,38.55105],[-85.58632,38.55089],[-85.58659,38.55062],[-85.58662,38.55058],[-85.58678,38.55043],[-85.58688,38.55034],[-85.58702,38.55022],[-85.58721,38.55009],[-85.58723,38.55008],[-85.58751,38.5499],[-85.58758,38.54987],[-85.58785,38.54972],[-85.58815,38.54957],[-85.58828,38.54953],[-85.58846,38.54947],[-85.58849,38.54946],[-85.58871,38.5494],[-85.58877,38.54939],[-85.58893,38.54935],[-85.58915,38.5493],[-85.58965,38.5492],[-85.58995,38.54913],[-85.59008,38.54911],[-85.59024,38.54906],[-85.59061,38.54896],[-85.59069,38.54893],[-85.59082,38.54889],[-85.59107,38.5488],[-85.59143,38.54866],[-85.59186,38.54847],[-85.59191,38.54845],[-85.59206,38.54838],[-85.59219,38.54832],[-85.5926,38.54811],[-85.59264,38.54809],[-85.59301,38.54788],[-85.59326,38.54772],[-85.59353,38.54753],[-85.5937,38.54742],[-85.59376,38.54738],[-85.59388,38.5473],[-85.59393,38.54726],[-85.59405,38.54719],[-85.59414,38.54714],[-85.59424,38.54708],[-85.59437,38.54701],[-85.59456,38.54692],[-85.59484,38.5468],[-85.59513,38.54668],[-85.5957,38.54645],[-85.59615,38.54627],[-85.59635,38.54618],[-85.59659,38.54608],[-85.5968,38.54598],[-85.59695,38.54589],[-85.59702,38.54585],[-85.59728,38.54567],[-85.59808,38.54509],[-85.59854,38.54477],[-85.59872,38.54464],[-85.59889,38.54452],[-85.59906,38.5444],[-85.59908,38.54439],[-85.59925,38.54429],[-85.59926,38.54429],[-85.59944,38.54419],[-85.59962,38.5441],[-85.59963,38.5441],[-85.59984,38.54401],[-85.59992,38.54398],[-85.60004,38.54392],[-85.60018,38.54386],[-85.60047,38.54371],[-85.60062,38.54363],[-85.60073,38.54357],[-85.60081,38.54353],[-85.60099,38.54344],[-85.601,38.54344],[-85.6012,38.54335],[-85.60123,38.54333],[-85.60135,38.5433],[-85.60142,38.54328],[-85.60155,38.54325],[-85.60172,38.54322],[-85.60182,38.54321],[-85.60187,38.54321],[-85.60206,38.5432],[-85.60244,38.5432],[-85.60255,38.54321],[-85.60278,38.54321],[-85.603,38.54322],[-85.60301,38.54322],[-85.60324,38.54324],[-85.6037,38.54328],[-85.60405,38.5433],[-85.60428,38.54332],[-85.6045,38.54333],[-85.60451,38.54333],[-85.60461,38.54333],[-85.60474,38.54331],[-85.60477,38.5433],[-85.60492,38.54326],[-85.60506,38.54319],[-85.60514,38.54314],[-85.60518,38.54312],[-85.60534,38.54299],[-85.60562,38.54275],[-85.60593,38.54249],[-85.60609,38.54236],[-85.60639,38.54208],[-85.60661,38.54189],[-85.60692,38.54162],[-85.60702,38.54156],[-85.60714,38.54148],[-85.6072,38.54145],[-85.60739,38.54135],[-85.60758,38.54124],[-85.60814,38.54093],[-85.60819,38.54091],[-85.60852,38.54073],[-85.60894,38.54051],[-85.6091,38.54043],[-85.60922,38.54037],[-85.60929,38.54034],[-85.60949,38.54025],[-85.60985,38.54008],[-85.6105,38.53982],[-85.61051,38.53981],[-85.6107,38.53972],[-85.61074,38.5397],[-85.61091,38.53961],[-85.61104,38.53953],[-85.61132,38.53931],[-85.61138,38.53926],[-85.61155,38.53913],[-85.61171,38.539],[-85.61192,38.53884],[-85.61202,38.53874],[-85.61209,38.53867],[-85.61216,38.5386],[-85.61228,38.53847],[-85.6123,38.53845],[-85.6125,38.53821],[-85.61255,38.53815],[-85.61268,38.538],[-85.6128,38.53785],[-85.61292,38.5377],[-85.61298,38.53762],[-85.61307,38.53748],[-85.61312,38.53738],[-85.61315,38.53733],[-85.61321,38.53721],[-85.61323,38.53716],[-85.6133,38.53703],[-85.61341,38.53689],[-85.61347,38.53679],[-85.61352,38.53673],[-85.61354,38.53671],[-85.61361,38.53663],[-85.61366,38.53659],[-85.6137,38.53655],[-85.61377,38.53651],[-85.61385,38.53646],[-85.61392,38.53643],[-85.61399,38.53641],[-85.61415,38.5364],[-85.61425,38.5364],[-85.61436,38.5364],[-85.61438,38.5364],[-85.61446,38.53641],[-85.61453,38.53642],[-85.6146,38.53642],[-85.61483,38.53644],[-85.61491,38.53645],[-85.61499,38.53646],[-85.61506,38.53646],[-85.61526,38.53647],[-85.61537,38.53647],[-85.61546,38.53646],[-85.61552,38.53645],[-85.6156,38.53643],[-85.61562,38.53643],[-85.61575,38.53639],[-85.61589,38.53635],[-85.61604,38.53629],[-85.6162,38.53621],[-85.61633,38.53613],[-85.61639,38.53608],[-85.6165,38.536],[-85.61664,38.5359],[-85.61667,38.53588],[-85.6168,38.53578],[-85.61682,38.53575],[-85.61688,38.5357],[-85.61696,38.53561],[-85.61701,38.53551],[-85.61706,38.53544],[-85.61712,38.53535],[-85.61716,38.53531],[-85.61725,38.53521],[-85.61743,38.53504],[-85.61757,38.53495],[-85.61766,38.53489],[-85.61777,38.53486],[-85.61788,38.53483],[-85.61799,38.53483],[-85.6181,38.53482],[-85.61822,38.53483],[-85.61833,38.53483],[-85.61845,38.53482],[-85.61861,38.53481],[-85.61867,38.53478],[-85.61885,38.5347],[-85.61887,38.53469],[-85.61905,38.53458],[-85.61924,38.53447],[-85.62005,38.534],[-85.62074,38.53365],[-85.62093,38.53354],[-85.62111,38.53343],[-85.6213,38.53333],[-85.62148,38.53322],[-85.62167,38.53312],[-85.62185,38.53301],[-85.62198,38.53293],[-85.62223,38.5328],[-85.62242,38.5327],[-85.62309,38.53233],[-85.62346,38.53212],[-85.62517,38.53116],[-85.62542,38.53102],[-85.6257,38.5309],[-85.62575,38.53087],[-85.62593,38.53076],[-85.62612,38.53065],[-85.62647,38.53044],[-85.62676,38.53026],[-85.62688,38.53021],[-85.62714,38.53018],[-85.62745,38.53018],[-85.6278,38.53019],[-85.62781,38.53019],[-85.62795,38.53016],[-85.62808,38.53009],[-85.62816,38.52999],[-85.62819,38.52975],[-85.62822,38.52964],[-85.62826,38.52949],[-85.62828,38.52946],[-85.62833,38.52937],[-85.62863,38.5291],[-85.62906,38.52879],[-85.6296,38.5284],[-85.62982,38.52826],[-85.63017,38.52803],[-85.63029,38.52798],[-85.63069,38.5278],[-85.63118,38.52765],[-85.63132,38.52758],[-85.63144,38.52753],[-85.63162,38.5274],[-85.63184,38.52721],[-85.63193,38.52711],[-85.63194,38.52707],[-85.63197,38.52698],[-85.63199,38.5269],[-85.63202,38.5268],[-85.63204,38.52672],[-85.63206,38.52659],[-85.6321,38.52647],[-85.63212,38.52642],[-85.63214,38.52637],[-85.63216,38.52631],[-85.63221,38.52624],[-85.63234,38.52612],[-85.63256,38.52598],[-85.63275,38.52584],[-85.63284,38.52575],[-85.63288,38.5257],[-85.63291,38.52567],[-85.63294,38.5256],[-85.63297,38.52554],[-85.63299,38.52542],[-85.633,38.52529],[-85.63303,38.5252],[-85.63307,38.52508],[-85.6331,38.52503],[-85.63312,38.52501],[-85.6332,38.52492],[-85.63338,38.52471],[-85.63356,38.52451],[-85.63375,38.52423],[-85.63385,38.5241],[-85.63413,38.52374],[-85.63414,38.52371],[-85.6342,38.52363],[-85.63423,38.52355],[-85.63431,38.52336],[-85.6344,38.52312],[-85.63449,38.52285],[-85.63457,38.52265],[-85.63463,38.52245],[-85.63465,38.52233],[-85.63465,38.52227],[-85.63463,38.52204],[-85.63463,38.52204],[-85.63444,38.52157],[-85.6344,38.52134],[-85.63437,38.52114],[-85.63438,38.52098],[-85.63438,38.5209],[-85.63439,38.52081],[-85.63443,38.52059],[-85.63447,38.52045],[-85.63457,38.52008],[-85.63467,38.51968],[-85.6347,38.51957],[-85.63474,38.51942],[-85.63475,38.51939],[-85.6348,38.51904],[-85.63484,38.51877],[-85.63492,38.51863],[-85.63496,38.51852],[-85.63536,38.51815],[-85.63543,38.5181],[-85.63561,38.51798],[-85.63576,38.51783],[-85.6359,38.51766],[-85.63608,38.51737],[-85.63608,38.51736],[-85.63635,38.51692],[-85.63659,38.51645],[-85.63662,38.51637],[-85.63675,38.51605],[-85.63693,38.51551],[-85.63699,38.51533],[-85.63719,38.51487],[-85.63736,38.51452],[-85.63752,38.51429],[-85.63759,38.51398],[-85.6376,38.51393],[-85.63781,38.51323],[-85.63786,38.51306],[-85.63787,38.513],[-85.63794,38.5127],[-85.63796,38.51262],[-85.63797,38.51244],[-85.63796,38.51198],[-85.63795,38.51181],[-85.63795,38.51171],[-85.638,38.51138],[-85.63809,38.51111],[-85.63817,38.51096],[-85.63823,38.51088],[-85.6383,38.5108],[-85.63871,38.51027],[-85.63896,38.50997],[-85.63931,38.50952]]}},{"type":"Feature","properties":{"_gpxType":"trk","name":"1501 Green Rd - 6014 S 550 W - 5707 New Washington Bethlehem Rd - 10610 Charlestown New Market Rd - 7972 High Jackson Rd - 8th St - 602 Baxter Avenue, Louisville, KY","coordinateProperties":{},"id":23},"geometry":{"type":"LineString","coordinates":[[-85.63931,38.50952],[-85.63937,38.50945],[-85.63944,38.50936],[-85.64002,38.50862],[-85.64017,38.50844],[-85.64023,38.50836],[-85.64075,38.50766],[-85.64097,38.50737],[-85.64131,38.50689],[-85.64132,38.50688],[-85.64153,38.50656],[-85.64191,38.50601],[-85.64197,38.50593],[-85.64222,38.50563],[-85.64226,38.50556],[-85.64248,38.50534],[-85.64248,38.50533],[-85.64291,38.50484],[-85.64332,38.50436],[-85.64347,38.50419],[-85.64361,38.50398],[-85.64378,38.50374],[-85.64388,38.50358],[-85.64417,38.50299],[-85.64434,38.50266],[-85.64437,38.50259],[-85.64463,38.50209],[-85.64484,38.50172],[-85.64486,38.50164],[-85.6449,38.50154],[-85.64498,38.50139],[-85.64499,38.50137],[-85.6451,38.50122],[-85.64513,38.50118],[-85.6453,38.50095],[-85.64548,38.50071],[-85.64557,38.50059],[-85.64564,38.50048],[-85.64571,38.50037],[-85.64575,38.50027],[-85.64577,38.50019],[-85.6458,38.50009],[-85.6458,38.49997],[-85.64579,38.49983],[-85.6458,38.4997],[-85.6458,38.49954],[-85.64578,38.49936],[-85.64578,38.49928],[-85.64575,38.49911],[-85.64572,38.49902],[-85.6456,38.49884],[-85.64559,38.49882],[-85.6455,38.49868],[-85.64542,38.49857],[-85.64538,38.49853],[-85.64522,38.49834],[-85.64514,38.49822],[-85.64504,38.49809],[-85.64499,38.49799],[-85.64496,38.49788],[-85.64494,38.4978],[-85.64494,38.49771],[-85.64495,38.49763],[-85.64497,38.49751],[-85.64502,38.49733],[-85.64507,38.49721],[-85.64512,38.49713],[-85.64524,38.49693],[-85.64532,38.49678],[-85.64547,38.49658],[-85.64554,38.49649],[-85.64557,38.49642],[-85.64561,38.49635],[-85.64563,38.49629],[-85.64566,38.4962],[-85.64567,38.4961],[-85.64567,38.49604],[-85.64566,38.49598],[-85.64564,38.4959],[-85.64563,38.49581],[-85.64559,38.49569],[-85.64557,38.4956],[-85.64557,38.49554],[-85.64558,38.49548],[-85.64564,38.49535],[-85.64569,38.49526],[-85.64575,38.49522],[-85.64582,38.49516],[-85.64606,38.49502],[-85.6461,38.49499],[-85.64615,38.49495],[-85.64624,38.49485],[-85.64628,38.4948],[-85.64637,38.49468],[-85.64659,38.4943],[-85.64673,38.49404],[-85.64674,38.49402],[-85.64704,38.49354],[-85.64726,38.49331],[-85.64748,38.49314],[-85.64764,38.49301],[-85.64784,38.49286],[-85.64803,38.49267],[-85.64832,38.4923],[-85.64845,38.49213],[-85.64868,38.49185],[-85.64882,38.49169],[-85.6489,38.4916],[-85.64896,38.49155],[-85.6491,38.49141],[-85.64925,38.49127],[-85.64938,38.49116],[-85.64957,38.49101],[-85.6498,38.49091],[-85.65,38.49082],[-85.65026,38.4907],[-85.65038,38.49063],[-85.65041,38.49061],[-85.65051,38.49055],[-85.65056,38.49051],[-85.65058,38.49048],[-85.65062,38.49043],[-85.65067,38.49035],[-85.65069,38.49031],[-85.65077,38.49008],[-85.65094,38.48948],[-85.651,38.48927],[-85.65111,38.48887],[-85.65114,38.48878],[-85.65121,38.48848],[-85.65131,38.48805],[-85.65134,38.48789],[-85.6514,38.48765],[-85.65146,38.48741],[-85.65147,38.48734],[-85.65151,38.48704],[-85.65151,38.48698],[-85.65149,38.48649],[-85.65148,38.48631],[-85.65146,38.48595],[-85.65145,38.4857],[-85.65146,38.48533],[-85.65145,38.48524],[-85.65144,38.48506],[-85.65139,38.48452],[-85.65138,38.48435],[-85.65136,38.48417],[-85.65136,38.48415],[-85.6513,38.48381],[-85.6513,38.4838],[-85.65113,38.48329],[-85.65111,38.48325],[-85.65101,38.48294],[-85.65089,38.48259],[-85.65072,38.48207],[-85.65065,38.48126],[-85.65057,38.48036],[-85.65056,38.48024],[-85.65051,38.47988],[-85.65043,38.47926],[-85.6504,38.47896],[-85.65037,38.47862],[-85.65036,38.47853],[-85.65035,38.47844],[-85.65033,38.47808],[-85.65033,38.47803],[-85.65028,38.47773],[-85.65026,38.47756],[-85.65023,38.47737],[-85.65022,38.47732],[-85.65017,38.4772],[-85.65009,38.47704],[-85.64994,38.47681],[-85.64987,38.47672],[-85.64975,38.47656],[-85.64946,38.47618],[-85.64927,38.47595],[-85.64881,38.47534],[-85.64849,38.47493],[-85.64821,38.47457],[-85.64806,38.47437],[-85.64757,38.47386],[-85.64755,38.47384],[-85.64714,38.47337],[-85.6469,38.4731],[-85.64677,38.47295],[-85.64667,38.47282],[-85.64655,38.47268],[-85.646,38.47209],[-85.64598,38.47207],[-85.6458,38.47187],[-85.64538,38.47137],[-85.64522,38.4712],[-85.6452,38.47118],[-85.64443,38.47032],[-85.64429,38.47017],[-85.64427,38.47015],[-85.64404,38.46989],[-85.64403,38.46987],[-85.64401,38.46985],[-85.64391,38.46972],[-85.64389,38.4697],[-85.64375,38.46954],[-85.64363,38.4694],[-85.64339,38.46913],[-85.64337,38.46911],[-85.64325,38.46898],[-85.64324,38.46896],[-85.64312,38.46884],[-85.64312,38.46884],[-85.64348,38.46863],[-85.64354,38.46859],[-85.64385,38.46842],[-85.64412,38.46827],[-85.64441,38.46811],[-85.64472,38.46793],[-85.645,38.46778],[-85.64542,38.46754],[-85.64581,38.46735],[-85.64587,38.46731],[-85.64597,38.46725],[-85.64599,38.46724],[-85.64604,38.46722],[-85.6461,38.46717],[-85.64613,38.46714],[-85.64616,38.46712],[-85.64619,38.46708],[-85.64622,38.46703],[-85.64623,38.46698],[-85.64624,38.46694],[-85.64623,38.4669],[-85.64622,38.46685],[-85.64618,38.46678],[-85.64613,38.46669],[-85.64608,38.46662],[-85.64607,38.46661],[-85.64597,38.46646],[-85.64555,38.46582],[-85.64442,38.46407],[-85.64428,38.4639],[-85.64419,38.46379],[-85.644,38.46361],[-85.64391,38.46352],[-85.64386,38.46347],[-85.64377,38.46338],[-85.64372,38.46333],[-85.64364,38.46324],[-85.64359,38.46318],[-85.64357,38.46316],[-85.64349,38.46305],[-85.64337,38.46287],[-85.64333,38.46282],[-85.64325,38.46271],[-85.64317,38.4626],[-85.64302,38.46241],[-85.6429,38.46227],[-85.64289,38.46225],[-85.64282,38.46216],[-85.64276,38.46206],[-85.64275,38.46201],[-85.64275,38.46199],[-85.64274,38.46197],[-85.64275,38.46194],[-85.64275,38.46192],[-85.64277,38.46189],[-85.64279,38.46186],[-85.64281,38.46184],[-85.64286,38.46181],[-85.64319,38.46164],[-85.64338,38.46154],[-85.64358,38.46144],[-85.64396,38.46124],[-85.64402,38.46121],[-85.64459,38.46091],[-85.6449,38.46075],[-85.64497,38.46071],[-85.6451,38.46064],[-85.64535,38.4605],[-85.6456,38.46036],[-85.64575,38.46028],[-85.64579,38.46026],[-85.64635,38.45995],[-85.64651,38.45986],[-85.64708,38.45955],[-85.64737,38.45939],[-85.64751,38.45931],[-85.64762,38.45923],[-85.64772,38.45915],[-85.64788,38.45901],[-85.64793,38.45897],[-85.6481,38.45885],[-85.64821,38.45876],[-85.64865,38.45844],[-85.64902,38.45817],[-85.64941,38.45789],[-85.64957,38.45777],[-85.64991,38.45753],[-85.65022,38.45731],[-85.65025,38.45728],[-85.65058,38.45704],[-85.65065,38.45698],[-85.65083,38.45685],[-85.651,38.45673],[-85.65122,38.45658],[-85.65126,38.45655],[-85.65139,38.45648],[-85.65152,38.4564],[-85.65163,38.45634],[-85.65184,38.45622],[-85.65202,38.45612],[-85.65217,38.45601],[-85.65233,38.45589],[-85.65234,38.45588],[-85.65249,38.45576],[-85.65282,38.45545],[-85.65297,38.45531],[-85.65312,38.45517],[-85.65338,38.45494],[-85.65358,38.45475],[-85.65384,38.45452],[-85.654,38.45438],[-85.65409,38.4543],[-85.65436,38.45408],[-85.65456,38.4539],[-85.65466,38.4538],[-85.65471,38.45375],[-85.65477,38.45368],[-85.65479,38.45365],[-85.65481,38.45363],[-85.65484,38.45358],[-85.65487,38.45354],[-85.65493,38.45343],[-85.65498,38.45333],[-85.65507,38.45315],[-85.65513,38.45297],[-85.65515,38.45292],[-85.65519,38.4528],[-85.65525,38.45262],[-85.65531,38.45245],[-85.65535,38.4523],[-85.6554,38.45214],[-85.65542,38.4521],[-85.65544,38.45205],[-85.65551,38.45193],[-85.65561,38.45177],[-85.65589,38.45136],[-85.65609,38.45106],[-85.65611,38.45104],[-85.65626,38.4508],[-85.65632,38.45072],[-85.65642,38.45056],[-85.65652,38.4504],[-85.65662,38.45024],[-85.65668,38.45015],[-85.65673,38.45005],[-85.65683,38.44987],[-85.65697,38.44963],[-85.65726,38.44902],[-85.65739,38.44874],[-85.65745,38.44858],[-85.65752,38.44844],[-85.65757,38.44834],[-85.65761,38.44829],[-85.65764,38.44824],[-85.65776,38.44814],[-85.65776,38.44814],[-85.65735,38.44767],[-85.65709,38.44738],[-85.65709,38.44738],[-85.6577,38.44702],[-85.65794,38.44688],[-85.65804,38.44683],[-85.65822,38.44672],[-85.65859,38.44651],[-85.65878,38.4464],[-85.65911,38.44622],[-85.65929,38.44612],[-85.65967,38.44591],[-85.65986,38.4458],[-85.66001,38.44571],[-85.6602,38.4456],[-85.66038,38.44549],[-85.66093,38.44516],[-85.66093,38.44516],[-85.66065,38.44487],[-85.66042,38.44463],[-85.66015,38.44434],[-85.65995,38.44412],[-85.65969,38.44383],[-85.65957,38.4437],[-85.65944,38.44358],[-85.65906,38.44319],[-85.65906,38.44319],[-85.65905,38.44309],[-85.65906,38.44305],[-85.65907,38.44301],[-85.65908,38.443],[-85.65909,38.44299],[-85.65943,38.44279],[-85.65987,38.44253],[-85.66006,38.44242],[-85.66068,38.44208],[-85.66087,38.44197],[-85.66105,38.44187],[-85.66118,38.4418],[-85.66169,38.44151],[-85.66224,38.44119],[-85.66281,38.44086],[-85.66284,38.44084],[-85.66321,38.44063],[-85.66331,38.44057],[-85.6634,38.44052],[-85.66375,38.44032],[-85.66377,38.44031],[-85.66431,38.44],[-85.66468,38.43979],[-85.66487,38.43969],[-85.66524,38.43947],[-85.66598,38.43905],[-85.66646,38.43878],[-85.66714,38.43837],[-85.66753,38.43815],[-85.6686,38.43755],[-85.66879,38.43744],[-85.66879,38.43744],[-85.66905,38.43723],[-85.66929,38.43705],[-85.66938,38.43691],[-85.66957,38.43666],[-85.66981,38.43634],[-85.67013,38.43599],[-85.67036,38.43582],[-85.6706,38.43569],[-85.67071,38.43563],[-85.67126,38.43533],[-85.67204,38.43491],[-85.67263,38.43456],[-85.673,38.43435],[-85.67336,38.43413],[-85.67355,38.43402],[-85.67375,38.4339],[-85.67391,38.43381],[-85.6741,38.4337],[-85.67421,38.43364],[-85.67429,38.4336],[-85.67444,38.43353],[-85.67458,38.43345],[-85.67474,38.43336],[-85.67493,38.43326],[-85.67522,38.4331],[-85.6754,38.43299],[-85.67559,38.43289],[-85.67577,38.43278],[-85.67596,38.43268],[-85.67633,38.43247],[-85.67652,38.43236],[-85.6767,38.43226],[-85.67689,38.43215],[-85.67729,38.43192],[-85.678,38.43152],[-85.67844,38.43127],[-85.67857,38.4312],[-85.67858,38.43119],[-85.68023,38.43024],[-85.6806,38.43003],[-85.68128,38.42965],[-85.6817,38.42942],[-85.68208,38.42921],[-85.68245,38.42901],[-85.6826,38.42893],[-85.68283,38.4288],[-85.68301,38.42869],[-85.6832,38.42859],[-85.68376,38.42827],[-85.68395,38.42817],[-85.6845,38.42785],[-85.68452,38.42784],[-85.68477,38.42771],[-85.68498,38.42759],[-85.68517,38.42748],[-85.68529,38.42741],[-85.68543,38.42732],[-85.68546,38.42728],[-85.68549,38.42716],[-85.68549,38.42685],[-85.68548,38.42664],[-85.68546,38.42628],[-85.68544,38.42611]]}},{"type":"Feature","properties":{"_gpxType":"trk","name":"1501 Green Rd - 6014 S 550 W - 5707 New Washington Bethlehem Rd - 10610 Charlestown New Market Rd - 7972 High Jackson Rd - 8th St - 602 Baxter Avenue, Louisville, KY","coordinateProperties":{},"id":23},"geometry":{"type":"LineString","coordinates":[[-85.68544,38.42611],[-85.68544,38.4261],[-85.68543,38.42593],[-85.68543,38.42592],[-85.68537,38.4252],[-85.68536,38.42503],[-85.68535,38.42485],[-85.68534,38.42467],[-85.68533,38.42449],[-85.68533,38.42431],[-85.68534,38.42427],[-85.68535,38.42413],[-85.68536,38.42395],[-85.68538,38.42377],[-85.68537,38.42368],[-85.68535,38.42363],[-85.68532,38.42356],[-85.68526,38.42347],[-85.68517,38.42332],[-85.68516,38.42331],[-85.68504,38.42315],[-85.68493,38.42299],[-85.6848,38.42284],[-85.68467,38.4227],[-85.68428,38.42225],[-85.68418,38.42215],[-85.68402,38.42196],[-85.68388,38.42181],[-85.68375,38.42167],[-85.68335,38.42123],[-85.68334,38.42121],[-85.68329,38.42113],[-85.68327,38.42106],[-85.68328,38.42099],[-85.68334,38.42094],[-85.68336,38.42092],[-85.68353,38.42081],[-85.6836,38.42076],[-85.68371,38.4207],[-85.68408,38.42048],[-85.68427,38.42038],[-85.68429,38.42036],[-85.68477,38.42014],[-85.68486,38.42009],[-85.68505,38.41999],[-85.68524,38.41989],[-85.68562,38.41969],[-85.6858,38.41959],[-85.68599,38.41948],[-85.68636,38.41927],[-85.68654,38.41917],[-85.68691,38.41896],[-85.68691,38.41896],[-85.6864,38.41836],[-85.68631,38.41826],[-85.68607,38.41803],[-85.68592,38.4179],[-85.68583,38.41784],[-85.68535,38.41768],[-85.68532,38.41768],[-85.68532,38.41768],[-85.68535,38.41747],[-85.68534,38.41722],[-85.68533,38.41714],[-85.68527,38.41698],[-85.68521,38.41686],[-85.68509,38.41668],[-85.68484,38.41637],[-85.68437,38.4159],[-85.68431,38.41582],[-85.68413,38.41571],[-85.68413,38.41571],[-85.68431,38.41539],[-85.68449,38.41506],[-85.68454,38.41496],[-85.68458,38.41489],[-85.68463,38.41477],[-85.68464,38.41472],[-85.68465,38.41465],[-85.68468,38.41444],[-85.68468,38.41424],[-85.68468,38.41408],[-85.68466,38.414],[-85.68464,38.41386],[-85.68462,38.41383],[-85.68456,38.41371],[-85.6845,38.41363],[-85.68439,38.41348],[-85.68433,38.4134],[-85.68421,38.41329],[-85.68404,38.41315],[-85.68385,38.41305],[-85.68372,38.413],[-85.68332,38.41282],[-85.68332,38.41282],[-85.68344,38.41264],[-85.68353,38.41249],[-85.68361,38.41232],[-85.68363,38.41226],[-85.6837,38.41208],[-85.68374,38.41191],[-85.68376,38.41183],[-85.68377,38.4117],[-85.68378,38.41156],[-85.6838,38.41134],[-85.68384,38.41125],[-85.68391,38.41117],[-85.6841,38.41104],[-85.68422,38.41097],[-85.68435,38.41089],[-85.6844,38.41086],[-85.68477,38.41066],[-85.6848,38.41064],[-85.6852,38.41043],[-85.6852,38.41043],[-85.68499,38.41018],[-85.68484,38.41001],[-85.68474,38.40988],[-85.68459,38.40971],[-85.68438,38.40947],[-85.6843,38.40939],[-85.68417,38.40925],[-85.6839,38.40895],[-85.68348,38.40848],[-85.68334,38.40833],[-85.68295,38.40789],[-85.68202,38.40686],[-85.68176,38.40657],[-85.68169,38.4065],[-85.68158,38.40638],[-85.68143,38.40621],[-85.68112,38.40587],[-85.68106,38.40581],[-85.68084,38.40557],[-85.68057,38.40528],[-85.68038,38.40506],[-85.68036,38.40504],[-85.68011,38.40475],[-85.67993,38.40452],[-85.67978,38.40434],[-85.67968,38.40422],[-85.67944,38.40392],[-85.67937,38.40384],[-85.67919,38.40365],[-85.67896,38.40341],[-85.67883,38.40326],[-85.67875,38.40318],[-85.67862,38.40303],[-85.67843,38.40282],[-85.67805,38.4024],[-85.67768,38.40199],[-85.6775,38.40179],[-85.67745,38.40174],[-85.67741,38.4017],[-85.67735,38.40166],[-85.67728,38.40163],[-85.67719,38.40157],[-85.67702,38.40153],[-85.67702,38.40153],[-85.6766,38.40144],[-85.67642,38.4014],[-85.67624,38.40136],[-85.6761,38.40133],[-85.67598,38.40129],[-85.67588,38.40124],[-85.67584,38.40122],[-85.67579,38.4012],[-85.67561,38.4011],[-85.67547,38.40099],[-85.67539,38.40092],[-85.67532,38.40085],[-85.67524,38.40075],[-85.67514,38.40062],[-85.67508,38.40049],[-85.67506,38.40043],[-85.67503,38.40036],[-85.67501,38.40024],[-85.675,38.4001],[-85.675,38.39999],[-85.67502,38.39988],[-85.67503,38.39978],[-85.67506,38.3997],[-85.67512,38.39956],[-85.67514,38.3995],[-85.67515,38.3995],[-85.67516,38.39945],[-85.67522,38.3993],[-85.67528,38.39915],[-85.6753,38.39906],[-85.67531,38.39898],[-85.67532,38.3989],[-85.67532,38.39881],[-85.67531,38.39872],[-85.6753,38.39863],[-85.67527,38.39853],[-85.67523,38.39842],[-85.67519,38.39832],[-85.67516,38.39827],[-85.67511,38.39819],[-85.67505,38.39812],[-85.67504,38.39811],[-85.67495,38.39801],[-85.67485,38.39789],[-85.67467,38.39769],[-85.67466,38.39767],[-85.67452,38.39752],[-85.67439,38.39739],[-85.67427,38.39725],[-85.67393,38.39689],[-85.67372,38.39665],[-85.67354,38.39645],[-85.67314,38.39604],[-85.67301,38.39589],[-85.6729,38.39578],[-85.67287,38.39575],[-85.6726,38.39545],[-85.67207,38.39487],[-85.67197,38.39476],[-85.67194,38.39472],[-85.67178,38.39454],[-85.67171,38.39446],[-85.67154,38.39428],[-85.67128,38.394],[-85.67117,38.39387],[-85.67101,38.3937],[-85.67088,38.39355],[-85.67077,38.39344],[-85.67063,38.39328],[-85.67046,38.39309],[-85.67024,38.39287],[-85.66995,38.39258],[-85.6698,38.39244],[-85.66963,38.39226],[-85.6696,38.39223],[-85.66951,38.39214],[-85.66941,38.39205],[-85.66938,38.39201],[-85.66918,38.39181],[-85.66893,38.39155],[-85.66864,38.39127],[-85.66843,38.39106],[-85.66824,38.39087],[-85.66815,38.39078],[-85.66807,38.3907],[-85.66797,38.3906],[-85.66796,38.3906],[-85.66793,38.39056],[-85.66785,38.39048],[-85.66777,38.39039],[-85.6677,38.39031],[-85.66759,38.39014],[-85.66749,38.38994],[-85.66746,38.38985],[-85.66742,38.38975],[-85.6674,38.3897],[-85.66731,38.38943],[-85.66725,38.38924],[-85.66724,38.38918],[-85.66721,38.38903],[-85.66721,38.389],[-85.6672,38.38884],[-85.6672,38.38882],[-85.66722,38.38865],[-85.66722,38.38863],[-85.66722,38.38851],[-85.66722,38.38847],[-85.66719,38.38828],[-85.66716,38.38813],[-85.66712,38.38799],[-85.66709,38.38794],[-85.66706,38.38786],[-85.66702,38.38777],[-85.66699,38.38772],[-85.66691,38.38761],[-85.66682,38.38746],[-85.66681,38.38745],[-85.66653,38.38715],[-85.6664,38.38701],[-85.66627,38.38686],[-85.66615,38.38674],[-85.666,38.38657],[-85.66573,38.38628],[-85.66547,38.386],[-85.66534,38.38588],[-85.66521,38.38579],[-85.66503,38.38565],[-85.66494,38.3856],[-85.66484,38.38554],[-85.66478,38.38551],[-85.66469,38.38547],[-85.66458,38.38542],[-85.66455,38.38541],[-85.66454,38.38541],[-85.66437,38.38535],[-85.6642,38.38529],[-85.66372,38.38517],[-85.66349,38.38512],[-85.66349,38.38512],[-85.6636,38.38493],[-85.66379,38.38461],[-85.66387,38.38449],[-85.66389,38.38445],[-85.66399,38.38428],[-85.66417,38.38399],[-85.66458,38.38329]]}},{"type":"Feature","properties":{"_gpxType":"trk","name":"1501 Green Rd - 6014 S 550 W - 5707 New Washington Bethlehem Rd - 10610 Charlestown New Market Rd - 7972 High Jackson Rd - 8th St - 602 Baxter Avenue, Louisville, KY","coordinateProperties":{},"id":23},"geometry":{"type":"LineString","coordinates":[[-85.66458,38.38329],[-85.66467,38.38314],[-85.6647,38.38309],[-85.66498,38.38264],[-85.66508,38.38247],[-85.66548,38.38183],[-85.66553,38.38172],[-85.66555,38.38168],[-85.66603,38.38094],[-85.66612,38.38079],[-85.6662,38.3806],[-85.66629,38.38039],[-85.66636,38.38021],[-85.66656,38.37972],[-85.66716,38.37823],[-85.66782,38.3766],[-85.66807,38.37596],[-85.66813,38.37581],[-85.66826,38.37551],[-85.66835,38.37527],[-85.66846,38.37501],[-85.66851,38.37489],[-85.66866,38.37452],[-85.66893,38.37386],[-85.66899,38.37373],[-85.66906,38.37354],[-85.66929,38.37298],[-85.66944,38.37263],[-85.66955,38.37234],[-85.66963,38.37216],[-85.66975,38.37187],[-85.6699,38.37149],[-85.66991,38.37148],[-85.67006,38.37109],[-85.67015,38.37088],[-85.67021,38.37073],[-85.67025,38.37061],[-85.67029,38.37046],[-85.67035,38.37022],[-85.67036,38.37018],[-85.6704,38.37],[-85.67041,38.36992],[-85.67043,38.36977],[-85.67044,38.36946],[-85.67043,38.36921],[-85.6704,38.36899],[-85.67036,38.36878],[-85.67029,38.36855],[-85.67019,38.36819],[-85.6701,38.36785],[-85.67009,38.36783],[-85.66998,38.36742],[-85.66984,38.36694],[-85.66973,38.36653],[-85.66965,38.36627],[-85.66958,38.366],[-85.66946,38.36554],[-85.66938,38.36519],[-85.66933,38.36504],[-85.66926,38.36476],[-85.6692,38.36444],[-85.66917,38.36414],[-85.66916,38.36412],[-85.66916,38.36402],[-85.66916,38.36396],[-85.66916,38.36393],[-85.66918,38.36378],[-85.66918,38.36374],[-85.6692,38.36361],[-85.66921,38.36347],[-85.66924,38.36328],[-85.66924,38.36325],[-85.66925,38.36296],[-85.66925,38.36289],[-85.66925,38.36273],[-85.66922,38.36253],[-85.66922,38.36247],[-85.6692,38.36238],[-85.66918,38.36225],[-85.66916,38.36217],[-85.66913,38.36203],[-85.66908,38.36182],[-85.66907,38.36173],[-85.66905,38.36162],[-85.66903,38.36148],[-85.66897,38.36124],[-85.66893,38.36109],[-85.66891,38.36102],[-85.66889,38.36091],[-85.66881,38.36051],[-85.66878,38.36038],[-85.66872,38.36008],[-85.66869,38.35984],[-85.66866,38.35955],[-85.66865,38.35951],[-85.66863,38.35933],[-85.66862,38.35918],[-85.66862,38.35915],[-85.66859,38.35882],[-85.66859,38.35879],[-85.66858,38.35873],[-85.66857,38.35867],[-85.66855,38.35859],[-85.66853,38.35851],[-85.66851,38.35845],[-85.66847,38.35836],[-85.66845,38.35829],[-85.66843,38.35824],[-85.66841,38.35814],[-85.66841,38.35813],[-85.66839,38.35803],[-85.66837,38.35795],[-85.66834,38.35786],[-85.6683,38.35776],[-85.66826,38.35768],[-85.66823,38.35761],[-85.66822,38.35759],[-85.66816,38.35748],[-85.66814,38.35745],[-85.66806,38.3573],[-85.66805,38.35728],[-85.66799,38.35719],[-85.66794,38.35713],[-85.6679,38.35707],[-85.6678,38.35694],[-85.66771,38.35682],[-85.66757,38.35667],[-85.66753,38.35663],[-85.66743,38.35653],[-85.66741,38.35651],[-85.66732,38.35638],[-85.66731,38.35638],[-85.66722,38.35625],[-85.66717,38.35617],[-85.66713,38.35608],[-85.66712,38.35605],[-85.66707,38.35594],[-85.66705,38.35588],[-85.66703,38.35581],[-85.667,38.3557],[-85.667,38.35568],[-85.66699,38.35559],[-85.66698,38.35553],[-85.66698,38.35552],[-85.66698,38.35543],[-85.66698,38.35533],[-85.66699,38.35521],[-85.667,38.35516],[-85.667,38.35511],[-85.66702,38.355],[-85.66702,38.35499],[-85.66704,38.35487],[-85.66706,38.35481],[-85.66708,38.35472],[-85.66711,38.35463],[-85.66712,38.35461],[-85.66717,38.35446],[-85.66721,38.35441],[-85.66758,38.35396],[-85.6677,38.35381],[-85.6677,38.3538],[-85.66772,38.35378],[-85.66779,38.35367],[-85.66781,38.35365],[-85.66784,38.35361],[-85.66787,38.35354],[-85.66792,38.35346],[-85.66796,38.35338],[-85.66799,38.35331],[-85.66802,38.35324],[-85.66807,38.35311],[-85.66811,38.35297],[-85.66814,38.35283],[-85.66814,38.35279],[-85.66816,38.3527],[-85.66816,38.35265],[-85.66817,38.35261],[-85.66817,38.35252],[-85.66817,38.35243],[-85.66817,38.35234],[-85.66816,38.35222],[-85.66815,38.35216],[-85.66814,38.35207],[-85.66812,38.352],[-85.6681,38.3519],[-85.66808,38.35184],[-85.66806,38.35176],[-85.66804,38.35172],[-85.66795,38.35148],[-85.66793,38.35141],[-85.66786,38.3512],[-85.66781,38.35106],[-85.6678,38.35103],[-85.66775,38.35089],[-85.66774,38.35085],[-85.66771,38.35076],[-85.66765,38.35059],[-85.66755,38.35028],[-85.66747,38.34998],[-85.66741,38.34981],[-85.66735,38.34965],[-85.66728,38.34948],[-85.6672,38.34929],[-85.66714,38.34914],[-85.6671,38.34903],[-85.66708,38.34899],[-85.66704,38.34887],[-85.66698,38.3487],[-85.66693,38.34852],[-85.66681,38.34817],[-85.66674,38.34791],[-85.66671,38.34783],[-85.66666,38.34769],[-85.66665,38.34766],[-85.6666,38.34755],[-85.66655,38.34736],[-85.66649,38.3472],[-85.66643,38.34703],[-85.66632,38.34668],[-85.66629,38.34657],[-85.66626,38.34651],[-85.66626,38.34649],[-85.66624,38.34641],[-85.66623,38.34638],[-85.66623,38.34635],[-85.66622,38.34633],[-85.66621,38.34627],[-85.66621,38.34621],[-85.66621,38.34619],[-85.66621,38.34615],[-85.66621,38.34613],[-85.66622,38.34603],[-85.66621,38.34599],[-85.66619,38.34596],[-85.66618,38.34594],[-85.66617,38.34592],[-85.66617,38.34592],[-85.66625,38.34581],[-85.66631,38.34571],[-85.66634,38.34564],[-85.66636,38.34561],[-85.66643,38.3455],[-85.66645,38.34549],[-85.66657,38.34538],[-85.6666,38.34535],[-85.66667,38.3453],[-85.66677,38.34523],[-85.66681,38.34521],[-85.66692,38.34512],[-85.66698,38.34507],[-85.66705,38.34503],[-85.66731,38.34491],[-85.66732,38.34491],[-85.66753,38.34484],[-85.66759,38.34482],[-85.66774,38.34478],[-85.66775,38.34478],[-85.66787,38.34474],[-85.66796,38.34471],[-85.66801,38.34469],[-85.66817,38.34463],[-85.66834,38.34457],[-85.6686,38.34446],[-85.66876,38.34437],[-85.66879,38.34436],[-85.66881,38.34434],[-85.66893,38.34425],[-85.66893,38.34424],[-85.66904,38.34413],[-85.66906,38.3441],[-85.66918,38.34394],[-85.66919,38.34392],[-85.66923,38.34386],[-85.66927,38.34378],[-85.66933,38.34362],[-85.66934,38.34361],[-85.66939,38.34343],[-85.66942,38.34331],[-85.66944,38.34305],[-85.66946,38.34272],[-85.66948,38.34254],[-85.66949,38.34236],[-85.6695,38.3422],[-85.6695,38.34218],[-85.66952,38.342],[-85.66953,38.34184],[-85.66953,38.34182],[-85.66955,38.34164],[-85.66956,38.34146],[-85.66958,38.34128],[-85.66959,38.34117],[-85.66959,38.3411],[-85.66962,38.34074],[-85.66966,38.3402],[-85.66968,38.34002],[-85.6697,38.33985],[-85.66972,38.33967],[-85.66974,38.33949],[-85.66975,38.33931],[-85.66977,38.33913],[-85.66978,38.33911],[-85.6698,38.33877],[-85.66982,38.33832],[-85.66989,38.33806],[-85.66989,38.33805],[-85.66993,38.33785],[-85.66999,38.33771],[-85.66999,38.3377],[-85.67008,38.33751],[-85.67029,38.33722],[-85.67041,38.33706],[-85.67071,38.3368],[-85.67073,38.33679],[-85.67089,38.33668],[-85.67102,38.3366],[-85.67107,38.33657],[-85.67126,38.33647],[-85.67145,38.33637],[-85.67164,38.33628],[-85.67165,38.33628],[-85.67184,38.33618],[-85.67262,38.33579],[-85.67282,38.33567],[-85.67316,38.33547],[-85.6732,38.33544],[-85.67332,38.33535],[-85.67352,38.33519],[-85.67363,38.33508],[-85.67368,38.33501],[-85.67374,38.33492],[-85.67378,38.33486],[-85.67381,38.33479],[-85.67384,38.3347],[-85.67388,38.33459],[-85.67394,38.33441],[-85.67395,38.3343],[-85.67395,38.33421],[-85.67394,38.33413],[-85.67393,38.334],[-85.67386,38.33381],[-85.67381,38.33366],[-85.6737,38.33328],[-85.6737,38.33328],[-85.67415,38.33321],[-85.67438,38.33318],[-85.67439,38.33318],[-85.67503,38.33303],[-85.67543,38.33294],[-85.6758,38.33272],[-85.67589,38.33266],[-85.67595,38.33263],[-85.67608,38.33255],[-85.67635,38.33239],[-85.67657,38.33227],[-85.67727,38.3319],[-85.67748,38.33178],[-85.67757,38.33173],[-85.6782,38.33136],[-85.67888,38.33097],[-85.67925,38.33076],[-85.67944,38.33066],[-85.67963,38.33056],[-85.68,38.33035],[-85.68019,38.33024],[-85.68032,38.33017],[-85.68093,38.32982],[-85.68106,38.32974],[-85.68111,38.32971],[-85.68124,38.32964],[-85.6813,38.32961],[-85.6814,38.32955],[-85.68158,38.32945],[-85.68179,38.32933],[-85.68214,38.32913],[-85.68236,38.32901],[-85.68254,38.32889],[-85.68267,38.32879],[-85.68274,38.32873],[-85.68278,38.32869],[-85.68287,38.32859],[-85.68296,38.32847],[-85.68315,38.32815],[-85.68334,38.32785],[-85.68334,38.32785],[-85.6835,38.32753],[-85.68364,38.32727],[-85.68372,38.32713],[-85.68379,38.32701],[-85.68383,38.32694],[-85.68384,38.32692],[-85.68388,38.32686],[-85.68395,38.32677],[-85.68403,38.32668],[-85.68411,38.3266],[-85.68426,38.32646],[-85.68439,38.32635],[-85.68466,38.32611],[-85.68504,38.32579],[-85.6853,38.32557],[-85.68573,38.32519],[-85.6859,38.32505],[-85.68615,38.32484],[-85.68622,38.32478],[-85.68659,38.32445],[-85.68697,38.32412],[-85.68735,38.3238],[-85.68749,38.32368],[-85.68772,38.32351],[-85.68789,38.32339],[-85.68829,38.32313],[-85.68885,38.32279],[-85.68938,38.32247],[-85.68971,38.32227],[-85.68982,38.32221],[-85.69029,38.32193],[-85.69065,38.32173],[-85.69089,38.32158],[-85.69094,38.32155],[-85.69116,38.32142],[-85.69119,38.3214],[-85.69142,38.32126],[-85.69191,38.32094],[-85.69212,38.32081],[-85.69248,38.32057],[-85.69256,38.32052],[-85.69302,38.32022],[-85.69393,38.31962],[-85.6943,38.31938],[-85.69468,38.31913],[-85.69532,38.31872],[-85.69562,38.31852],[-85.69576,38.31842],[-85.69614,38.31818],[-85.69647,38.31796],[-85.69673,38.3178],[-85.69699,38.31762],[-85.6971,38.31753],[-85.69721,38.31745],[-85.69749,38.31722],[-85.69755,38.31717],[-85.69859,38.3163],[-85.69927,38.31571],[-85.69936,38.31564],[-85.69957,38.31547],[-85.69984,38.31523],[-85.69998,38.31511],[-85.70004,38.31505],[-85.70009,38.31501],[-85.70013,38.31497],[-85.70019,38.31491],[-85.70042,38.31469],[-85.70045,38.31466],[-85.70057,38.31454],[-85.70098,38.31413],[-85.70106,38.31405],[-85.70116,38.31395],[-85.70141,38.3137],[-85.7015,38.31361],[-85.70183,38.31328],[-85.70188,38.31323],[-85.702,38.3131],[-85.70214,38.31297],[-85.70226,38.31283],[-85.7023,38.31279],[-85.70235,38.31273],[-85.7024,38.31267],[-85.70247,38.31257],[-85.70249,38.31254],[-85.70252,38.3125],[-85.70256,38.31242],[-85.70262,38.31233],[-85.70264,38.3123],[-85.7027,38.31221],[-85.70277,38.31208],[-85.70288,38.31191],[-85.70297,38.31176],[-85.70315,38.31139],[-85.70322,38.31118],[-85.70328,38.311],[-85.70336,38.31069],[-85.70348,38.31038],[-85.7036,38.3101],[-85.70374,38.30975],[-85.70386,38.30947],[-85.70398,38.30918],[-85.70406,38.30901],[-85.70417,38.30877],[-85.70431,38.30849],[-85.70467,38.30776],[-85.70486,38.30737],[-85.70498,38.30711],[-85.70512,38.30683],[-85.70534,38.30639],[-85.70547,38.30612],[-85.70568,38.3057],[-85.70604,38.30487],[-85.70623,38.30445],[-85.70628,38.30434],[-85.70644,38.30397],[-85.70675,38.30326],[-85.70705,38.30258],[-85.70725,38.3021],[-85.70753,38.30144],[-85.7076,38.30128],[-85.70768,38.3011],[-85.70777,38.3009],[-85.70794,38.30051],[-85.70801,38.30033],[-85.70806,38.30021],[-85.70807,38.30019],[-85.70814,38.30007],[-85.70819,38.29997],[-85.70826,38.29988],[-85.70831,38.29981],[-85.70836,38.29975],[-85.70841,38.2997],[-85.70852,38.2996],[-85.70852,38.2996],[-85.70933,38.29893],[-85.70967,38.29865],[-85.71058,38.2979],[-85.71087,38.29766],[-85.71165,38.29703],[-85.71172,38.29697],[-85.71218,38.29659],[-85.71282,38.29606],[-85.71292,38.29598],[-85.71323,38.29572],[-85.71365,38.29537],[-85.71371,38.29533],[-85.714,38.29509],[-85.714,38.29509],[-85.71352,38.29458],[-85.71325,38.29429],[-85.71299,38.294],[-85.71281,38.2938],[-85.7125,38.29347],[-85.71224,38.29318],[-85.7121,38.29303],[-85.71143,38.2923],[-85.71078,38.29159],[-85.71063,38.29142],[-85.71027,38.29102],[-85.71009,38.29084],[-85.71,38.29073],[-85.70953,38.29023],[-85.70947,38.29018],[-85.709,38.28964],[-85.7089,38.28952],[-85.70864,38.28925],[-85.70864,38.28925],[-85.70895,38.28906],[-85.70934,38.28884],[-85.71058,38.28814],[-85.71082,38.288],[-85.7115,38.28762],[-85.71164,38.28754],[-85.71185,38.28744],[-85.71197,38.2874],[-85.71209,38.28734],[-85.71215,38.28731],[-85.7126,38.28706],[-85.71346,38.28657],[-85.71366,38.28646],[-85.71385,38.28636],[-85.71422,38.28615],[-85.71488,38.28577],[-85.71498,38.28571],[-85.71519,38.28559],[-85.71528,38.28554],[-85.71546,38.28544],[-85.71592,38.28518],[-85.71675,38.28469],[-85.71712,38.28448],[-85.71731,38.28438],[-85.71768,38.28417],[-85.71803,38.28398],[-85.71897,38.28346],[-85.7199,38.28294],[-85.72009,38.28284],[-85.72078,38.28245],[-85.7211,38.28227],[-85.72129,38.28217],[-85.72152,38.28206],[-85.72204,38.28179],[-85.72266,38.28149],[-85.72266,38.28149],[-85.72287,38.28153],[-85.72287,38.28153],[-85.72353,38.28123],[-85.72432,38.28086],[-85.72498,38.28053],[-85.72517,38.28043],[-85.7252,38.28042],[-85.72573,38.28012],[-85.72589,38.27991],[-85.72648,38.27963],[-85.72709,38.27933],[-85.72719,38.27927],[-85.7272,38.27926],[-85.72736,38.27915],[-85.72736,38.27915],[-85.72738,38.27913],[-85.72745,38.27906],[-85.7275,38.27899],[-85.7275,38.27897],[-85.72762,38.27863],[-85.72763,38.27858],[-85.72774,38.27839],[-85.7278,38.27833],[-85.728,38.2782],[-85.72979,38.27716],[-85.73016,38.27694],[-85.73034,38.27683],[-85.73088,38.2765],[-85.73099,38.27643],[-85.73117,38.27634],[-85.73201,38.27594],[-85.73272,38.27559],[-85.73347,38.27523],[-85.73421,38.27487],[-85.73483,38.27456],[-85.73545,38.27426],[-85.7359,38.27405],[-85.73617,38.27392],[-85.73669,38.27367],[-85.73692,38.27356],[-85.73747,38.2733],[-85.73793,38.27308],[-85.73832,38.27288],[-85.73843,38.27283],[-85.73862,38.27273],[-85.7389,38.27259],[-85.73917,38.27246],[-85.73943,38.27233],[-85.73963,38.27223],[-85.74042,38.27185],[-85.74081,38.27166],[-85.74164,38.27125],[-85.74164,38.27125],[-85.74153,38.27112],[-85.74153,38.27112],[-85.74162,38.27106],[-85.74165,38.27104],[-85.74169,38.27102],[-85.74174,38.27101],[-85.74182,38.271],[-85.74186,38.27098],[-85.74196,38.27094],[-85.74202,38.27091],[-85.74206,38.2709],[-85.74212,38.27087],[-85.74222,38.27082],[-85.74226,38.27081],[-85.74238,38.27069],[-85.74239,38.27066],[-85.74243,38.27058],[-85.74246,38.27049],[-85.74246,38.27048],[-85.74245,38.27036],[-85.74243,38.27034],[-85.74242,38.27032],[-85.74235,38.27024],[-85.74232,38.27019],[-85.7423,38.27017],[-85.74219,38.27004],[-85.74212,38.26994],[-85.74207,38.26988],[-85.74205,38.26986],[-85.74195,38.26973],[-85.74193,38.26971],[-85.74182,38.26956],[-85.74181,38.26956],[-85.74171,38.26942],[-85.7417,38.2694],[-85.74162,38.2693],[-85.74161,38.26927],[-85.7416,38.26924],[-85.74158,38.26916],[-85.74158,38.26909],[-85.74158,38.26906],[-85.74158,38.26905],[-85.74152,38.26895],[-85.7415,38.26892],[-85.74148,38.2689],[-85.74136,38.26875],[-85.74124,38.26859],[-85.74112,38.26844],[-85.74101,38.26831],[-85.7409,38.26816],[-85.74079,38.268],[-85.74068,38.26784],[-85.74057,38.26768],[-85.74046,38.26753],[-85.74035,38.26737],[-85.74023,38.26721],[-85.74012,38.26706],[-85.74001,38.2669],[-85.7399,38.26674],[-85.73979,38.26658],[-85.73968,38.26643],[-85.73957,38.26627],[-85.73946,38.26611],[-85.73935,38.26595],[-85.73923,38.2658],[-85.73914,38.26566],[-85.73912,38.26564],[-85.73901,38.26548],[-85.7389,38.26533],[-85.73879,38.26517],[-85.73868,38.26501],[-85.73857,38.26485],[-85.73846,38.2647],[-85.73834,38.26454],[-85.73823,38.26438],[-85.73812,38.26422],[-85.73801,38.26407],[-85.7379,38.26391],[-85.73779,38.26375],[-85.73768,38.2636],[-85.73757,38.26344],[-85.73746,38.26328],[-85.73734,38.26312],[-85.73726,38.26301],[-85.73719,38.26289],[-85.73717,38.26285],[-85.73716,38.26284],[-85.73708,38.26271],[-85.73708,38.2627],[-85.73706,38.26268],[-85.73699,38.26255],[-85.73697,38.26252],[-85.7369,38.2624],[-85.73687,38.26235],[-85.73681,38.26225],[-85.73679,38.26223],[-85.73679,38.26221],[-85.73678,38.26219],[-85.73679,38.26219],[-85.73679,38.26218],[-85.73679,38.26217],[-85.73679,38.26214],[-85.73679,38.26212],[-85.73679,38.2621],[-85.7368,38.26208],[-85.73681,38.26206],[-85.73682,38.26205],[-85.73685,38.26203],[-85.73688,38.26201],[-85.73689,38.26201],[-85.73701,38.26197],[-85.73709,38.26195],[-85.73711,38.26194],[-85.7372,38.26193],[-85.73727,38.26192],[-85.73733,38.26192],[-85.73742,38.26192],[-85.73749,38.26193],[-85.7375,38.26193],[-85.73752,38.26193],[-85.73762,38.26195],[-85.73772,38.26198],[-85.7378,38.26203],[-85.73785,38.26207],[-85.73788,38.26211],[-85.73789,38.26213],[-85.73791,38.26219],[-85.73792,38.26225],[-85.73791,38.26226],[-85.7379,38.26228],[-85.7379,38.26229],[-85.73788,38.26234],[-85.73784,38.26238],[-85.73779,38.26243],[-85.73778,38.26244],[-85.73772,38.26249],[-85.73771,38.26249],[-85.73763,38.26255],[-85.73762,38.26255],[-85.7376,38.26256],[-85.73756,38.26259],[-85.73744,38.26264],[-85.73743,38.26264],[-85.73742,38.26264],[-85.7374,38.26265],[-85.73732,38.26267],[-85.73723,38.26269],[-85.73721,38.26269],[-85.7372,38.26269],[-85.73718,38.2627],[-85.73714,38.2627],[-85.73705,38.26271],[-85.73698,38.26272],[-85.73696,38.26272],[-85.73695,38.26272],[-85.73686,38.26272],[-85.73678,38.26271],[-85.73675,38.26271],[-85.73674,38.26271],[-85.73673,38.26271],[-85.73665,38.2627],[-85.73654,38.26268],[-85.73648,38.26267],[-85.73642,38.26265],[-85.73631,38.26262],[-85.73627,38.26261],[-85.73619,38.26257],[-85.73608,38.26252],[-85.73607,38.26252],[-85.736,38.26247],[-85.73592,38.26241],[-85.73583,38.26234],[-85.73574,38.26227],[-85.73562,38.2621],[-85.73562,38.2621],[-85.7358,38.26202],[-85.73617,38.26185],[-85.73622,38.26183],[-85.73675,38.26158],[-85.73675,38.26158],[-85.7367,38.2615],[-85.73664,38.26142],[-85.73662,38.26139],[-85.73661,38.26133],[-85.73661,38.26129],[-85.7366,38.26099],[-85.7366,38.26098],[-85.7366,38.26094],[-85.73662,38.26077],[-85.73663,38.26061],[-85.73667,38.26045],[-85.73671,38.26026],[-85.73673,38.26016],[-85.73677,38.26004],[-85.73677,38.26004],[-85.73672,38.26004],[-85.73657,38.26],[-85.73643,38.25998],[-85.73638,38.25997],[-85.73634,38.25996],[-85.73633,38.25996],[-85.7362,38.25996],[-85.73611,38.25996],[-85.73606,38.25997],[-85.73589,38.25998],[-85.73588,38.25998],[-85.73574,38.26002],[-85.73532,38.26007],[-85.73505,38.26012],[-85.73488,38.26016],[-85.73478,38.26017],[-85.7347,38.2602],[-85.73452,38.26023],[-85.7343,38.26025],[-85.73396,38.26027],[-85.73365,38.26027],[-85.73352,38.26027],[-85.73345,38.26027],[-85.73336,38.26027],[-85.73305,38.26027],[-85.73299,38.26027],[-85.73281,38.26027],[-85.7328,38.26027],[-85.73276,38.26027],[-85.73257,38.26027],[-85.73253,38.26027],[-85.73186,38.26027],[-85.73184,38.26027],[-85.73139,38.26027],[-85.73099,38.26022],[-85.7307,38.2602],[-85.73058,38.2602],[-85.73044,38.2602],[-85.73029,38.2602],[-85.73021,38.2602],[-85.73013,38.26021],[-85.72996,38.26022],[-85.72885,38.26036],[-85.72854,38.2604],[-85.72834,38.26041],[-85.72825,38.26041],[-85.72816,38.2604],[-85.72814,38.2604],[-85.728,38.26039],[-85.7279,38.26038],[-85.72773,38.26034],[-85.72756,38.26028],[-85.72756,38.26027],[-85.72747,38.26023],[-85.72738,38.26019],[-85.72736,38.26018],[-85.7273,38.26014],[-85.72723,38.26008],[-85.72717,38.26003],[-85.72708,38.25995],[-85.72695,38.25978],[-85.72681,38.25961],[-85.72679,38.25958],[-85.72677,38.25955],[-85.72674,38.25952],[-85.7267,38.25947],[-85.72646,38.25917],[-85.7261,38.25871],[-85.72605,38.25866],[-85.72598,38.25858],[-85.72575,38.2583],[-85.72568,38.2582],[-85.72532,38.25776],[-85.72513,38.25751],[-85.72505,38.25742],[-85.72496,38.25732],[-85.72496,38.25732],[-85.72484,38.2572],[-85.72455,38.25695],[-85.72443,38.25684],[-85.72435,38.25679],[-85.72426,38.25673],[-85.72415,38.25667],[-85.72406,38.25663],[-85.7239,38.25656],[-85.7238,38.25652],[-85.72373,38.2565],[-85.72361,38.25646],[-85.72354,38.25643],[-85.72347,38.25641],[-85.72338,38.25636],[-85.7233,38.25632],[-85.72324,38.25628],[-85.72317,38.25624],[-85.72314,38.25621],[-85.72311,38.25619],[-85.72292,38.25601],[-85.72273,38.25585],[-85.72268,38.25582],[-85.72261,38.25577],[-85.72259,38.25576],[-85.72224,38.2555],[-85.72218,38.25542],[-85.72186,38.25506],[-85.72176,38.25493],[-85.72152,38.25466],[-85.7214,38.25452],[-85.72127,38.25436],[-85.72083,38.2539],[-85.72045,38.25345],[-85.72044,38.25343],[-85.72036,38.25334],[-85.72031,38.25328],[-85.72019,38.25313],[-85.71975,38.25259],[-85.71967,38.25251],[-85.71887,38.25157],[-85.71887,38.25157],[-85.71943,38.25127],[-85.71948,38.25125],[-85.71971,38.25112],[-85.71992,38.25101],[-85.72027,38.25081],[-85.72032,38.25078],[-85.7207,38.25058],[-85.7218,38.25001],[-85.722,38.24991],[-85.72244,38.24967],[-85.72293,38.24942],[-85.72354,38.2491],[-85.72416,38.24878],[-85.72443,38.24864],[-85.72501,38.24834],[-85.7252,38.24824],[-85.72539,38.24814],[-85.72573,38.24797],[-85.72706,38.24727],[-85.72735,38.24712],[-85.72799,38.2468],[-85.72838,38.2466],[-85.72899,38.24628],[-85.72899,38.24628],[-85.72892,38.2462],[-85.72892,38.2462],[-85.72902,38.24615],[-85.72921,38.24606]]}}]}