{"type":"FeatureCollection","features":[{"type":"Feature","properties":{"_gpxType":"trk","name":"602 Baxter Avenue, Louisville, KY - 158 Bent Pine Lane, Brandenburg, KY","coordinateProperties":{},"id":25},"geometry":{"type":"LineString","coordinates":[[-85.72881,38.24605],[-85.72892,38.2462],[-85.72899,38.24628],[-85.72923,38.24658],[-85.7295,38.24691],[-85.72984,38.24734],[-85.72998,38.24752],[-85.73021,38.24783],[-85.73056,38.2483],[-85.73073,38.24851],[-85.7309,38.24874],[-85.73114,38.24904],[-85.73133,38.24926],[-85.73155,38.24955],[-85.73171,38.24975],[-85.73213,38.25032],[-85.73247,38.25079],[-85.73248,38.25081],[-85.73256,38.25092],[-85.73261,38.25097],[-85.73265,38.25102],[-85.7327,38.25106],[-85.73278,38.2511],[-85.73295,38.2512],[-85.73295,38.2512],[-85.73293,38.25135],[-85.73292,38.25139],[-85.73289,38.25151],[-85.73281,38.25178],[-85.73276,38.25191],[-85.73267,38.25221],[-85.73261,38.2524],[-85.73256,38.25259],[-85.73253,38.25271],[-85.7324,38.25332],[-85.73238,38.25342],[-85.73237,38.25346],[-85.73231,38.25378],[-85.73231,38.25378],[-85.73233,38.25384],[-85.73234,38.25387],[-85.7324,38.25392],[-85.73244,38.25394],[-85.73248,38.25395],[-85.73264,38.25401],[-85.73378,38.25412],[-85.73577,38.25434],[-85.73661,38.25443],[-85.7378,38.25456],[-85.73981,38.25479],[-85.73981,38.25479],[-85.73967,38.25555],[-85.73961,38.25598],[-85.7396,38.25606],[-85.73957,38.25624],[-85.73951,38.25655],[-85.73945,38.25695],[-85.73942,38.25713],[-85.73942,38.25716],[-85.73933,38.2577],[-85.73934,38.25776],[-85.73936,38.25785],[-85.73939,38.25797],[-85.73939,38.25797],[-85.73953,38.25791],[-85.73968,38.25785],[-85.73978,38.25782],[-85.73989,38.25779],[-85.74005,38.25773],[-85.7401,38.25771],[-85.74031,38.25765],[-85.74033,38.25764],[-85.7405,38.2576],[-85.74053,38.2576],[-85.74067,38.25757],[-85.74086,38.25755],[-85.74116,38.25754],[-85.74119,38.25754],[-85.74121,38.25754],[-85.74125,38.25755],[-85.74147,38.25755],[-85.74166,38.25755],[-85.74179,38.25756],[-85.74185,38.25756],[-85.74207,38.25756],[-85.74208,38.25756],[-85.74216,38.25756],[-85.74236,38.25755],[-85.74307,38.25755],[-85.74345,38.25754],[-85.74411,38.25755],[-85.74444,38.2576],[-85.7448,38.25765],[-85.74511,38.2577],[-85.7454,38.25774],[-85.74547,38.25774],[-85.74608,38.2578],[-85.74608,38.2578],[-85.74611,38.25816],[-85.74616,38.2587],[-85.74618,38.25889],[-85.74618,38.25889],[-85.74622,38.2589],[-85.74672,38.25895],[-85.74718,38.25901],[-85.74741,38.25903],[-85.74763,38.25906],[-85.74854,38.25916],[-85.74857,38.25917],[-85.7488,38.25915],[-85.7488,38.25915],[-85.74881,38.25919],[-85.74881,38.25923],[-85.74881,38.25951],[-85.74882,38.25953],[-85.74885,38.25955],[-85.74888,38.25955],[-85.74923,38.25953],[-85.74938,38.25952],[-85.74956,38.25951],[-85.74976,38.25949],[-85.74996,38.25948],[-85.75003,38.25946],[-85.75009,38.25944],[-85.75017,38.25939],[-85.75025,38.25933],[-85.75027,38.25932],[-85.75028,38.25933],[-85.75029,38.25933],[-85.75036,38.25937],[-85.75038,38.25938],[-85.7504,38.25938],[-85.75043,38.25938],[-85.75044,38.25938],[-85.75046,38.25939],[-85.75047,38.25939],[-85.75048,38.25939],[-85.75048,38.2594],[-85.75049,38.2594],[-85.7505,38.25941],[-85.75051,38.25941],[-85.75052,38.25941],[-85.75054,38.25941],[-85.75056,38.2594],[-85.75059,38.2594],[-85.75062,38.25939],[-85.75064,38.25939],[-85.75066,38.25939],[-85.75068,38.25939],[-85.75069,38.2594],[-85.7507,38.25941],[-85.75071,38.25941],[-85.75073,38.25942],[-85.75075,38.25943],[-85.75077,38.25944],[-85.75079,38.25944],[-85.75082,38.25944],[-85.75095,38.25943],[-85.751,38.25943],[-85.75104,38.25943],[-85.75121,38.25942],[-85.75138,38.25941],[-85.75146,38.2594],[-85.75155,38.25939],[-85.75191,38.25935],[-85.75206,38.25933],[-85.75214,38.25932],[-85.75216,38.25932],[-85.75236,38.2593],[-85.75259,38.25929],[-85.75298,38.25926],[-85.75305,38.25925],[-85.75328,38.25923],[-85.7535,38.25921],[-85.75373,38.2592],[-85.75401,38.25918],[-85.75419,38.25918],[-85.75442,38.25917],[-85.75465,38.25917],[-85.75488,38.25916],[-85.7549,38.25916],[-85.7551,38.25915],[-85.75516,38.25915],[-85.75533,38.25914],[-85.75556,38.25912],[-85.75579,38.25911],[-85.75602,38.2591],[-85.75618,38.25909],[-85.75625,38.25908],[-85.75647,38.25906],[-85.75662,38.25905],[-85.7567,38.25904],[-85.75693,38.25902],[-85.75708,38.25901],[-85.75716,38.259],[-85.75716,38.259],[-85.75745,38.25902],[-85.75814,38.25904],[-85.75818,38.25905],[-85.75837,38.25905],[-85.75859,38.25906],[-85.75863,38.25906],[-85.75882,38.25906],[-85.75905,38.25905],[-85.75914,38.25905],[-85.75928,38.25904],[-85.75951,38.25903],[-85.76016,38.25898],[-85.76043,38.25895],[-85.76066,38.25893],[-85.76081,38.25892],[-85.76134,38.25891],[-85.76149,38.2589],[-85.76157,38.2589],[-85.76189,38.25888],[-85.76226,38.25887],[-85.76247,38.25885],[-85.76279,38.25886],[-85.76294,38.25886],[-85.76316,38.25886],[-85.76317,38.25886],[-85.7634,38.25887],[-85.76347,38.25888],[-85.76363,38.2589],[-85.76366,38.2589],[-85.76403,38.25893],[-85.76414,38.25893],[-85.76423,38.25894],[-85.76431,38.25896],[-85.76453,38.259],[-85.76458,38.25901],[-85.76477,38.25903],[-85.76492,38.25905],[-85.76498,38.25906],[-85.76519,38.2591],[-85.76533,38.25915],[-85.76544,38.25922],[-85.76552,38.2593],[-85.76559,38.25938],[-85.76573,38.25951],[-85.76594,38.25964],[-85.76614,38.25974],[-85.76625,38.25977],[-85.76653,38.25987],[-85.76665,38.25993],[-85.76674,38.25998],[-85.76694,38.26012],[-85.76723,38.26031],[-85.76739,38.26041],[-85.76757,38.26053],[-85.76782,38.26069],[-85.76792,38.26075],[-85.76804,38.26082],[-85.76811,38.26086],[-85.76819,38.2609],[-85.76834,38.261],[-85.76844,38.26109],[-85.76858,38.26118],[-85.76863,38.26121],[-85.76872,38.26125],[-85.76879,38.2613],[-85.76882,38.26131],[-85.76889,38.26134],[-85.76901,38.2614],[-85.76909,38.26144],[-85.76925,38.26151],[-85.76941,38.26156],[-85.76964,38.26166],[-85.76984,38.26172],[-85.76995,38.26175],[-85.77016,38.26181],[-85.77027,38.26184],[-85.77047,38.26194],[-85.771,38.26221],[-85.77138,38.26241],[-85.7714,38.26242],[-85.77162,38.26257],[-85.77173,38.26265],[-85.77185,38.26274],[-85.77198,38.26285],[-85.77204,38.26292],[-85.77216,38.26306],[-85.77223,38.26312],[-85.77231,38.26319],[-85.77243,38.26334],[-85.77244,38.26335],[-85.77249,38.26343],[-85.77253,38.26351],[-85.77254,38.26354],[-85.77257,38.26361],[-85.77259,38.26365],[-85.77262,38.26369],[-85.77268,38.26375],[-85.77285,38.26391],[-85.77306,38.26411],[-85.77313,38.26417],[-85.77336,38.26442],[-85.77391,38.26495],[-85.77442,38.26544],[-85.77496,38.26596],[-85.77534,38.26631],[-85.77564,38.26655],[-85.77584,38.26672],[-85.77588,38.26677],[-85.77595,38.26684],[-85.77634,38.26722],[-85.77679,38.26763],[-85.77705,38.26787],[-85.77711,38.26793],[-85.77738,38.26814],[-85.77752,38.26827],[-85.77767,38.26841],[-85.77775,38.26847],[-85.77782,38.26854],[-85.7781,38.26882],[-85.77834,38.26907],[-85.77843,38.2692],[-85.77862,38.2694],[-85.77888,38.26966],[-85.77916,38.26994],[-85.77919,38.26998],[-85.7794,38.27018],[-85.77969,38.27047],[-85.77991,38.27069],[-85.77997,38.27075],[-85.78005,38.27083],[-85.78026,38.27103],[-85.78057,38.27133],[-85.7807,38.27146],[-85.78073,38.27148],[-85.78075,38.27149],[-85.78077,38.27149],[-85.78078,38.27148],[-85.78079,38.27148],[-85.78083,38.27145],[-85.78088,38.27142],[-85.78089,38.2714],[-85.7809,38.27137],[-85.78089,38.27134],[-85.78087,38.27132],[-85.78085,38.27131],[-85.78083,38.27131],[-85.7808,38.2713],[-85.78078,38.27128],[-85.78076,38.27125],[-85.78076,38.27123],[-85.78077,38.27121],[-85.7808,38.27119],[-85.78085,38.27119],[-85.78089,38.27121],[-85.78095,38.27126],[-85.78098,38.2713],[-85.781,38.27131],[-85.78105,38.27136],[-85.78112,38.27143],[-85.78113,38.27144],[-85.78117,38.27148],[-85.7812,38.2715],[-85.78123,38.27152],[-85.78129,38.27156],[-85.78133,38.2716],[-85.78134,38.27161],[-85.78143,38.2717],[-85.78151,38.27177],[-85.78172,38.27199],[-85.78212,38.27237],[-85.78227,38.27252],[-85.78266,38.27291],[-85.78295,38.27319],[-85.78302,38.27323],[-85.78314,38.27332],[-85.78322,38.27338],[-85.78327,38.27345],[-85.78332,38.27351],[-85.78338,38.27358],[-85.78343,38.27363],[-85.78351,38.2737],[-85.78383,38.27398],[-85.78399,38.27411],[-85.78421,38.27425],[-85.78446,38.27441],[-85.7848,38.27457],[-85.78481,38.27458],[-85.78523,38.2748],[-85.78537,38.27487],[-85.78577,38.27508],[-85.78601,38.2752],[-85.78628,38.27534],[-85.78651,38.27545],[-85.78677,38.27554],[-85.78704,38.2756],[-85.78722,38.27564],[-85.78738,38.27567],[-85.78744,38.27569],[-85.7876,38.27573],[-85.78786,38.27577],[-85.78805,38.27579],[-85.78811,38.27579],[-85.78834,38.27579],[-85.78879,38.27577],[-85.78881,38.27577],[-85.78902,38.27574],[-85.78911,38.27573],[-85.78924,38.2757],[-85.78925,38.2757],[-85.78936,38.27567],[-85.78946,38.27565],[-85.78947,38.27565],[-85.7896,38.27563],[-85.78968,38.27563],[-85.78969,38.27563],[-85.78976,38.27565],[-85.78989,38.27568],[-85.78994,38.27568],[-85.79007,38.27568],[-85.79015,38.27568],[-85.79056,38.27568],[-85.7906,38.27567],[-85.79083,38.27566],[-85.79101,38.27566],[-85.79106,38.27565],[-85.79152,38.27564],[-85.79175,38.27563],[-85.79184,38.27562],[-85.79198,38.27561],[-85.7922,38.27559],[-85.79224,38.27559],[-85.79243,38.27558],[-85.79261,38.27557],[-85.79266,38.27557],[-85.79289,38.27556],[-85.79312,38.27554],[-85.79322,38.27554],[-85.79336,38.27552],[-85.79348,38.2755],[-85.79422,38.27532],[-85.79446,38.27526],[-85.79482,38.27513],[-85.79502,38.27504],[-85.79509,38.275],[-85.79513,38.27497],[-85.79518,38.27492],[-85.79518,38.27491],[-85.79518,38.27491],[-85.79523,38.27489],[-85.79524,38.27489],[-85.79526,38.27487],[-85.79539,38.2747],[-85.79545,38.2746],[-85.79546,38.27459],[-85.79548,38.27458],[-85.79578,38.2747],[-85.7962,38.27485],[-85.7964,38.27492],[-85.79701,38.27514],[-85.79702,38.27515],[-85.79704,38.27516],[-85.79707,38.2752],[-85.79708,38.2752],[-85.79722,38.27524],[-85.79722,38.27524],[-85.79724,38.27516],[-85.79724,38.27516],[-85.7973,38.27516],[-85.79739,38.27517],[-85.79753,38.27517],[-85.79767,38.27517],[-85.79915,38.27507],[-85.79924,38.27507],[-85.80075,38.27496],[-85.80095,38.27494],[-85.80164,38.2749],[-85.80275,38.27482],[-85.80458,38.2747],[-85.80551,38.27463],[-85.8064,38.27458],[-85.80779,38.27448],[-85.8082,38.27444],[-85.80848,38.27442],[-85.80855,38.27442],[-85.80878,38.2744],[-85.80887,38.2744],[-85.80917,38.27438],[-85.80924,38.27437],[-85.8093,38.27437],[-85.80931,38.27437],[-85.80952,38.27435],[-85.80953,38.27435],[-85.8097,38.27434],[-85.80974,38.27434],[-85.80976,38.27434],[-85.80989,38.27433],[-85.80999,38.27433],[-85.81057,38.27428],[-85.81177,38.2742],[-85.81216,38.27417],[-85.81284,38.27413],[-85.81307,38.27411],[-85.8136,38.27408],[-85.81398,38.27404],[-85.814,38.27404],[-85.81421,38.27401],[-85.81433,38.27399],[-85.81464,38.2739],[-85.81468,38.27389],[-85.81495,38.27379],[-85.81511,38.27373],[-85.81525,38.27367],[-85.81535,38.27362],[-85.8155,38.27354],[-85.8156,38.27349],[-85.81592,38.2733],[-85.81646,38.27298],[-85.8178,38.2722],[-85.81809,38.27203],[-85.81817,38.27198],[-85.81853,38.27177],[-85.81945,38.27123],[-85.81963,38.27112],[-85.81982,38.27101],[-85.82131,38.27014],[-85.82225,38.26959],[-85.82244,38.26947],[-85.82266,38.26934],[-85.82291,38.26919],[-85.82305,38.2691],[-85.82312,38.26905],[-85.82316,38.26903],[-85.82326,38.26896],[-85.82329,38.26893],[-85.82338,38.26886],[-85.82352,38.26874],[-85.82366,38.26863],[-85.82384,38.26847],[-85.82396,38.26834],[-85.82403,38.26826],[-85.82411,38.26818],[-85.82418,38.26809],[-85.82432,38.26792],[-85.82443,38.26778],[-85.82453,38.26764],[-85.82462,38.26749],[-85.82463,38.26748],[-85.82472,38.26733],[-85.82479,38.26721],[-85.82484,38.2671],[-85.8249,38.26699],[-85.8252,38.26628],[-85.82567,38.26514],[-85.82567,38.26514],[-85.82578,38.26517],[-85.82578,38.26517],[-85.8258,38.26513],[-85.82581,38.26511],[-85.82584,38.2651],[-85.82584,38.26507],[-85.82587,38.26499],[-85.82595,38.26481],[-85.82608,38.26452],[-85.8262,38.26429],[-85.8263,38.26414],[-85.82631,38.2641],[-85.82632,38.26403],[-85.82639,38.26381],[-85.82645,38.26364],[-85.82649,38.26352],[-85.82711,38.26218],[-85.82719,38.26201],[-85.82721,38.26197],[-85.82724,38.26194],[-85.82728,38.26192],[-85.82731,38.2619],[-85.82736,38.26189],[-85.82739,38.26188],[-85.82744,38.26187],[-85.82749,38.26187],[-85.82757,38.26187],[-85.8277,38.26188],[-85.82779,38.26188],[-85.82779,38.26188],[-85.82771,38.26184],[-85.82764,38.26178],[-85.82759,38.26174],[-85.82755,38.2617],[-85.82752,38.26165],[-85.82748,38.26155],[-85.82743,38.26142],[-85.82742,38.26134],[-85.82743,38.26129],[-85.82745,38.26122],[-85.82749,38.26114],[-85.82758,38.26098],[-85.82767,38.26085],[-85.82776,38.26068],[-85.82778,38.26064],[-85.82782,38.26051],[-85.82785,38.26035],[-85.82785,38.26029],[-85.82786,38.26005],[-85.82785,38.25968],[-85.82786,38.25965],[-85.82788,38.25963],[-85.82787,38.25956],[-85.82787,38.2595],[-85.82788,38.25932],[-85.82791,38.25912],[-85.82801,38.25881],[-85.82806,38.25863],[-85.82811,38.25862],[-85.82812,38.25861],[-85.82827,38.25847],[-85.82832,38.25844],[-85.82838,38.25841],[-85.82851,38.25836],[-85.82861,38.25833],[-85.82868,38.2583],[-85.82885,38.2583],[-85.82896,38.25831],[-85.829,38.25831],[-85.82902,38.2583],[-85.82905,38.25827],[-85.82907,38.25824],[-85.82907,38.25824],[-85.82924,38.25831],[-85.82938,38.25835],[-85.82949,38.25839],[-85.82959,38.25842],[-85.82968,38.25844],[-85.82976,38.25845],[-85.82978,38.25845],[-85.82986,38.25845],[-85.83001,38.25845],[-85.8301,38.25843],[-85.83021,38.25841],[-85.83023,38.2584],[-85.83031,38.25835],[-85.8304,38.25828],[-85.83045,38.25823],[-85.8305,38.25818],[-85.83057,38.25811],[-85.83065,38.25799],[-85.83068,38.25791],[-85.8307,38.25785],[-85.83071,38.25776],[-85.83074,38.2575],[-85.83069,38.25731],[-85.83067,38.25719],[-85.83066,38.25702],[-85.83066,38.25687],[-85.8307,38.25669],[-85.83076,38.25655],[-85.83078,38.25652],[-85.83083,38.25644],[-85.83103,38.25622],[-85.83107,38.25616],[-85.83111,38.25609],[-85.83116,38.25595],[-85.83118,38.25585],[-85.83124,38.25563],[-85.83141,38.25443],[-85.83141,38.25422],[-85.83142,38.25404],[-85.83141,38.25397],[-85.83138,38.25391],[-85.83137,38.2539],[-85.83134,38.25384],[-85.83126,38.25372],[-85.83119,38.25359],[-85.83116,38.25352],[-85.83112,38.25337],[-85.83111,38.25331],[-85.83111,38.25322],[-85.83112,38.25313],[-85.83115,38.25295],[-85.83119,38.25284],[-85.83127,38.25266],[-85.83131,38.25259],[-85.83134,38.2525],[-85.83141,38.2522],[-85.83141,38.25213],[-85.83138,38.25205],[-85.83132,38.25188],[-85.83129,38.25183],[-85.83126,38.25179],[-85.83117,38.2517],[-85.83101,38.25155],[-85.83084,38.25144],[-85.83061,38.25132],[-85.83041,38.25122],[-85.83028,38.25117],[-85.83003,38.25112],[-85.83,38.25111],[-85.82986,38.25109],[-85.82971,38.25109],[-85.8296,38.25109],[-85.82946,38.25112],[-85.82936,38.25115],[-85.82936,38.25115],[-85.82925,38.25096],[-85.82928,38.2508],[-85.82932,38.25063],[-85.82932,38.25063],[-85.82937,38.25018],[-85.82939,38.25],[-85.82944,38.24953],[-85.82949,38.24908],[-85.82952,38.24867],[-85.82953,38.24862],[-85.82962,38.24768],[-85.82975,38.24667],[-85.82984,38.24582],[-85.82993,38.24496],[-85.82995,38.24474],[-85.83003,38.24407],[-85.83014,38.24317],[-85.83017,38.24293],[-85.83019,38.24275],[-85.83025,38.24221],[-85.83037,38.24123],[-85.83039,38.24107],[-85.83043,38.24072],[-85.83055,38.23972],[-85.83059,38.23934],[-85.83064,38.239],[-85.83067,38.23867],[-85.83069,38.23849],[-85.8307,38.23846],[-85.83085,38.23717],[-85.83092,38.23664],[-85.83095,38.23632],[-85.83096,38.23603],[-85.83096,38.23598],[-85.83096,38.23568],[-85.83095,38.23553],[-85.83094,38.23544],[-85.83091,38.23515],[-85.83089,38.235],[-85.83081,38.23461],[-85.83073,38.2342],[-85.83071,38.23407],[-85.83071,38.234],[-85.83071,38.23392],[-85.83071,38.23384],[-85.83072,38.23376],[-85.83078,38.2334],[-85.8308,38.23331],[-85.83079,38.23319],[-85.83079,38.23313],[-85.83078,38.23308],[-85.83076,38.23302],[-85.83075,38.23298],[-85.83072,38.23292],[-85.83072,38.23292],[-85.8307,38.23289],[-85.83068,38.23286],[-85.83066,38.23284],[-85.83063,38.23281],[-85.83058,38.23276],[-85.83052,38.23272],[-85.83046,38.23268],[-85.83038,38.23262],[-85.83033,38.2326],[-85.83029,38.23258],[-85.83026,38.23257],[-85.83021,38.23256],[-85.83017,38.23254],[-85.83011,38.23253],[-85.83004,38.23252],[-85.83,38.23252],[-85.82997,38.23252],[-85.82993,38.23251],[-85.8298,38.23251],[-85.82967,38.23251],[-85.82946,38.23252],[-85.82945,38.23252],[-85.829,38.23253],[-85.82886,38.23253],[-85.82873,38.23253],[-85.82865,38.23252],[-85.82854,38.23251],[-85.82848,38.2325],[-85.82842,38.23249],[-85.82833,38.23247],[-85.82826,38.23244],[-85.82816,38.23241],[-85.82807,38.23237],[-85.82801,38.23234],[-85.82794,38.2323],[-85.82788,38.23226],[-85.82783,38.23222],[-85.82775,38.23216],[-85.82767,38.23208],[-85.82763,38.23202],[-85.82757,38.23195],[-85.82755,38.23189],[-85.82752,38.23184],[-85.82749,38.23173],[-85.82746,38.23162],[-85.82745,38.23155],[-85.82744,38.23142],[-85.82744,38.23136],[-85.82745,38.23132],[-85.82752,38.23055],[-85.82768,38.22899],[-85.82769,38.22894],[-85.82775,38.22827],[-85.82777,38.22814],[-85.82776,38.22809],[-85.82776,38.22804],[-85.82776,38.22796],[-85.82774,38.22778],[-85.82769,38.22761],[-85.82767,38.22756],[-85.82762,38.22744],[-85.8276,38.22739],[-85.82753,38.22726],[-85.82742,38.22707],[-85.82728,38.22691],[-85.82714,38.22678],[-85.82697,38.22663],[-85.82681,38.22652],[-85.82665,38.22642],[-85.82644,38.22632],[-85.82622,38.22624],[-85.82601,38.22617],[-85.82574,38.22612],[-85.82559,38.22609],[-85.82543,38.22608],[-85.8254,38.22608],[-85.82516,38.22606],[-85.8249,38.22603],[-85.82484,38.22603],[-85.8248,38.22603],[-85.82413,38.22598],[-85.82393,38.22596],[-85.8236,38.22593],[-85.8236,38.22593],[-85.82364,38.22562],[-85.82365,38.22555],[-85.82365,38.22545],[-85.82377,38.2243],[-85.82383,38.22369],[-85.82387,38.22341],[-85.82387,38.22313],[-85.82387,38.22305],[-85.82387,38.22305],[-85.82378,38.22303],[-85.82369,38.22302],[-85.82369,38.22302],[-85.82367,38.22291],[-85.82367,38.2229],[-85.82366,38.22289],[-85.82365,38.22288],[-85.82364,38.22288],[-85.8236,38.22287],[-85.8235,38.22286],[-85.82346,38.22286],[-85.82337,38.22285],[-85.82335,38.22285],[-85.82332,38.22285],[-85.82331,38.22284],[-85.8233,38.22284],[-85.82329,38.22283],[-85.82328,38.22282],[-85.82328,38.22281],[-85.82327,38.2228],[-85.82326,38.22279],[-85.82331,38.22231],[-85.82339,38.22152],[-85.82339,38.2215],[-85.8234,38.22149],[-85.82347,38.22144],[-85.82346,38.22131],[-85.82344,38.22129],[-85.82341,38.22127],[-85.82337,38.22124],[-85.82332,38.2212],[-85.8232,38.2211],[-85.82309,38.22102],[-85.82307,38.221],[-85.82297,38.22091],[-85.82295,38.22088],[-85.82291,38.22084],[-85.82289,38.22075],[-85.82289,38.22065],[-85.82291,38.22055],[-85.82291,38.22053],[-85.82294,38.22043],[-85.82297,38.22031],[-85.82299,38.22023],[-85.82301,38.22018],[-85.82303,38.22014],[-85.82309,38.22005],[-85.82312,38.22002],[-85.82316,38.21997],[-85.82323,38.21992],[-85.8233,38.21988],[-85.8234,38.21983],[-85.82352,38.21978],[-85.82355,38.21976],[-85.82356,38.21975],[-85.82358,38.21973],[-85.8236,38.21971],[-85.82362,38.21969],[-85.82364,38.21966],[-85.82366,38.21956],[-85.82367,38.2195],[-85.8237,38.21932],[-85.82372,38.21921],[-85.82372,38.21914],[-85.82374,38.21896],[-85.82375,38.21891],[-85.82381,38.21825],[-85.82382,38.21813],[-85.82383,38.21807],[-85.82386,38.21769],[-85.82391,38.21724],[-85.82392,38.21717],[-85.82395,38.21683],[-85.82401,38.21672],[-85.82403,38.21663],[-85.82404,38.21646],[-85.82405,38.21635],[-85.82406,38.21628],[-85.8241,38.21592],[-85.82414,38.2155],[-85.82414,38.21541],[-85.82414,38.21539],[-85.82414,38.21533],[-85.82412,38.21527],[-85.82412,38.21523],[-85.82411,38.21521],[-85.82409,38.21513],[-85.82401,38.21497],[-85.82399,38.21494],[-85.82398,38.21492],[-85.82395,38.2149],[-85.8239,38.21486],[-85.82387,38.21484],[-85.82386,38.21482],[-85.82386,38.2148],[-85.82386,38.21479],[-85.82386,38.21478],[-85.82387,38.21477],[-85.8239,38.21475],[-85.82394,38.21473],[-85.82401,38.21469],[-85.82404,38.21468],[-85.82408,38.21468],[-85.8241,38.21467],[-85.82418,38.21466],[-85.82418,38.21466],[-85.82416,38.21461],[-85.82416,38.21461],[-85.82448,38.21454],[-85.8255,38.21431],[-85.82667,38.21405],[-85.82756,38.21385],[-85.82828,38.21369],[-85.82862,38.2136],[-85.82884,38.21355],[-85.82894,38.21354],[-85.82906,38.21352],[-85.82919,38.2135],[-85.82932,38.21349],[-85.82942,38.21348],[-85.8295,38.21349],[-85.82958,38.21349],[-85.82969,38.2135],[-85.82977,38.21351],[-85.82988,38.21353],[-85.82995,38.21355],[-85.83013,38.2136],[-85.83086,38.21385],[-85.83117,38.21396],[-85.83118,38.21396],[-85.83129,38.214],[-85.83153,38.21407],[-85.83165,38.21411],[-85.83179,38.21414],[-85.83196,38.21417],[-85.83204,38.21418],[-85.83205,38.21418],[-85.83209,38.21419],[-85.83226,38.2142],[-85.8324,38.2142],[-85.83249,38.2142],[-85.8325,38.2142],[-85.83257,38.21419],[-85.83273,38.21418],[-85.83281,38.21417],[-85.83302,38.21414],[-85.8334,38.21409],[-85.83341,38.21409],[-85.83365,38.21405],[-85.83386,38.21402],[-85.83428,38.21396],[-85.83497,38.21386],[-85.83514,38.21384],[-85.83535,38.21381],[-85.83582,38.21374],[-85.83655,38.21364],[-85.83695,38.21358],[-85.83716,38.21355],[-85.83722,38.21354],[-85.8373,38.21353],[-85.83744,38.2135],[-85.83752,38.21349],[-85.83758,38.21347],[-85.83767,38.21345],[-85.83773,38.21343],[-85.83779,38.21341],[-85.83787,38.21338],[-85.83788,38.21338],[-85.83796,38.21334],[-85.83802,38.21331],[-85.83809,38.21328],[-85.83816,38.21323],[-85.83826,38.21318],[-85.83829,38.21316],[-85.83842,38.21308],[-85.83862,38.21296],[-85.83865,38.21294],[-85.83883,38.21282],[-85.8392,38.21261],[-85.83944,38.21246],[-85.83969,38.21232],[-85.8399,38.21219],[-85.84001,38.21213],[-85.84013,38.21206],[-85.84026,38.21197],[-85.8404,38.21186],[-85.84056,38.21171],[-85.84061,38.21166],[-85.84072,38.21155],[-85.84117,38.21112],[-85.8413,38.21099],[-85.84152,38.21079],[-85.84176,38.21056],[-85.84188,38.21045],[-85.84191,38.21042],[-85.8421,38.21023],[-85.84235,38.21],[-85.84265,38.20973],[-85.84274,38.20963],[-85.84307,38.20932],[-85.84319,38.2092],[-85.84325,38.20915],[-85.84336,38.20904],[-85.84345,38.20896],[-85.84352,38.2089],[-85.84361,38.20883],[-85.84368,38.20878],[-85.84371,38.20877],[-85.84379,38.20871],[-85.84386,38.20868],[-85.84394,38.20864],[-85.84412,38.20856],[-85.84432,38.20848],[-85.84482,38.20829],[-85.84525,38.20813],[-85.84529,38.20811],[-85.84531,38.2081],[-85.84543,38.20806],[-85.84552,38.20803],[-85.84562,38.20799],[-85.84579,38.20794],[-85.84596,38.20789],[-85.84616,38.20784],[-85.8464,38.20778],[-85.84664,38.20772],[-85.84688,38.20767],[-85.84704,38.20763],[-85.84716,38.2076],[-85.84725,38.20757],[-85.84737,38.20753],[-85.84748,38.20749],[-85.84756,38.20745],[-85.84768,38.20738],[-85.84789,38.20726],[-85.84812,38.20711],[-85.84832,38.20698],[-85.84855,38.20681],[-85.84871,38.2067],[-85.84893,38.20656],[-85.84905,38.20647],[-85.84923,38.20635],[-85.84934,38.20627],[-85.84939,38.20623],[-85.84951,38.20613],[-85.84973,38.20595],[-85.84983,38.20587],[-85.84992,38.20579],[-85.85007,38.20568],[-85.85024,38.20554],[-85.85063,38.20525],[-85.85107,38.20491],[-85.85239,38.20392],[-85.85276,38.20364],[-85.85347,38.2031],[-85.85404,38.20267],[-85.85439,38.20241],[-85.8549,38.20203],[-85.85569,38.2014],[-85.85587,38.20126],[-85.85687,38.2005],[-85.85691,38.20047],[-85.85711,38.20032],[-85.85726,38.20021],[-85.858,38.19963],[-85.85806,38.19958],[-85.85818,38.1995],[-85.85863,38.19916],[-85.85869,38.19911],[-85.85878,38.19905],[-85.85895,38.19893],[-85.85908,38.19886],[-85.85924,38.19877],[-85.8595,38.19865],[-85.85989,38.19849],[-85.8602,38.19836],[-85.86099,38.19804],[-85.86121,38.19794],[-85.86133,38.19789],[-85.8614,38.19785],[-85.8615,38.1978],[-85.86173,38.19767],[-85.86199,38.1975],[-85.86236,38.19726],[-85.86268,38.19704],[-85.86317,38.19671],[-85.86357,38.19643],[-85.86391,38.1962],[-85.86455,38.19576],[-85.86461,38.19572],[-85.86487,38.19554],[-85.86506,38.1954],[-85.86517,38.19532],[-85.86556,38.19499],[-85.86581,38.19475],[-85.86597,38.19459],[-85.86607,38.19451],[-85.86648,38.19414],[-85.8667,38.19396],[-85.86709,38.19357],[-85.86725,38.19341],[-85.86735,38.19331],[-85.86763,38.19303],[-85.86823,38.1924],[-85.86833,38.1923],[-85.86864,38.192],[-85.86871,38.19193],[-85.86871,38.19193],[-85.86883,38.19199],[-85.86895,38.19205],[-85.87014,38.19259],[-85.87021,38.19263],[-85.87073,38.19287],[-85.87142,38.1932],[-85.87151,38.19324],[-85.87236,38.19363],[-85.87289,38.19388],[-85.87289,38.19388],[-85.87294,38.19383],[-85.87314,38.19358],[-85.87341,38.19324],[-85.87371,38.19289],[-85.87383,38.19274],[-85.87396,38.19259],[-85.87396,38.19259],[-85.87471,38.19293],[-85.87547,38.19329],[-85.87616,38.19361],[-85.87621,38.19363],[-85.87712,38.19405],[-85.87731,38.19414],[-85.87771,38.19432],[-85.8779,38.19442],[-85.8782,38.19455],[-85.8782,38.19455],[-85.87829,38.19443],[-85.87839,38.19425],[-85.87864,38.19389],[-85.8788,38.19364],[-85.8793,38.19287],[-85.87942,38.19268],[-85.87993,38.19191],[-85.88058,38.19092],[-85.88075,38.19064],[-85.88082,38.19049],[-85.88084,38.19037],[-85.88082,38.19024],[-85.88081,38.19014],[-85.88064,38.18926],[-85.88049,38.18865],[-85.88049,38.18865],[-85.88045,38.18857],[-85.88037,38.18848],[-85.88033,38.18845],[-85.88023,38.18837],[-85.88005,38.18826],[-85.87987,38.18818],[-85.87933,38.18794],[-85.87915,38.18784],[-85.8783,38.18724],[-85.87669,38.18609],[-85.87617,38.18572],[-85.87616,38.18571],[-85.87574,38.18542],[-85.87498,38.18487],[-85.87497,38.18487],[-85.87385,38.18407],[-85.8737,38.18399],[-85.87339,38.18385],[-85.87338,38.18385],[-85.87279,38.18361],[-85.87243,38.18346],[-85.87234,38.18342],[-85.8723,38.18337],[-85.87226,38.18332],[-85.87221,38.18323],[-85.87217,38.18312],[-85.87214,38.18304],[-85.87209,38.18282],[-85.87209,38.18276],[-85.87206,38.18249],[-85.87204,38.18236],[-85.87203,38.18229],[-85.87206,38.18222],[-85.87212,38.18218],[-85.87245,38.18208],[-85.87246,38.18208],[-85.87262,38.18203],[-85.87269,38.18202],[-85.87275,38.18198],[-85.87283,38.1819],[-85.87284,38.1819],[-85.87287,38.18187],[-85.87292,38.18184],[-85.87309,38.18181],[-85.87325,38.18177],[-85.87343,38.18174],[-85.87348,38.18173],[-85.87351,38.18173],[-85.87362,38.18168],[-85.87367,38.18163],[-85.87368,38.18163],[-85.87372,38.18159],[-85.87376,38.18155],[-85.87379,38.18152],[-85.87381,38.18149],[-85.87382,38.18146],[-85.87385,38.18136],[-85.87386,38.18114],[-85.87386,38.18101],[-85.87386,38.18096],[-85.87386,38.18085],[-85.87386,38.18078],[-85.87387,38.1806],[-85.87389,38.18042],[-85.8739,38.18028],[-85.87394,38.1802],[-85.87397,38.18017],[-85.874,38.18015],[-85.87401,38.18014],[-85.87404,38.18014],[-85.87407,38.18014],[-85.87408,38.18014],[-85.8741,38.18014],[-85.87422,38.18017],[-85.87433,38.18021],[-85.87443,38.18026],[-85.87449,38.1803],[-85.8746,38.18042],[-85.87464,38.18044],[-85.87468,38.18046],[-85.87477,38.18047],[-85.87496,38.18046],[-85.87507,38.18045],[-85.87522,38.18044],[-85.87529,38.18043],[-85.87536,38.18043],[-85.8754,38.18043],[-85.87547,38.18045],[-85.8756,38.18048],[-85.8758,38.18055],[-85.87584,38.18055],[-85.87587,38.18055],[-85.87593,38.18055],[-85.876,38.18052],[-85.87608,38.18048],[-85.87629,38.18029],[-85.87643,38.1802],[-85.87657,38.18011],[-85.87671,38.18004],[-85.87684,38.17998],[-85.87689,38.17996],[-85.87711,38.17988],[-85.8774,38.17978],[-85.87764,38.17972],[-85.87776,38.17969],[-85.87781,38.17967],[-85.87784,38.17966],[-85.87785,38.17964],[-85.87786,38.17962],[-85.87786,38.17958],[-85.87785,38.17952],[-85.87782,38.17945],[-85.87782,38.17944],[-85.87778,38.1793],[-85.87774,38.1792],[-85.87768,38.17912],[-85.8776,38.17899],[-85.87758,38.17893],[-85.87756,38.17884],[-85.87757,38.17877],[-85.87758,38.17866],[-85.87757,38.17858],[-85.87755,38.17848],[-85.87748,38.1783],[-85.87744,38.17819],[-85.87739,38.17808],[-85.87738,38.17804],[-85.87737,38.178],[-85.87738,38.17798],[-85.87738,38.17797],[-85.87739,38.17796],[-85.87741,38.17794],[-85.87747,38.17792],[-85.87757,38.17786],[-85.87765,38.17782],[-85.87772,38.17776],[-85.87773,38.17774],[-85.87774,38.17772],[-85.87774,38.17771],[-85.87774,38.17769],[-85.87773,38.17766],[-85.87767,38.17755],[-85.87763,38.1775],[-85.87761,38.17746],[-85.87759,38.17744],[-85.87757,38.17742],[-85.8775,38.17728],[-85.87741,38.17716],[-85.8773,38.17703],[-85.87729,38.17701],[-85.87721,38.17691],[-85.87715,38.17681],[-85.87712,38.17675],[-85.87708,38.17667],[-85.87704,38.17658],[-85.87704,38.17656],[-85.87704,38.17653],[-85.87706,38.1765],[-85.87708,38.17647],[-85.87711,38.17646],[-85.8772,38.17644],[-85.87721,38.17644],[-85.87802,38.17636],[-85.87806,38.17636],[-85.87829,38.17633],[-85.87844,38.17631],[-85.87898,38.17625],[-85.87923,38.17623],[-85.87942,38.17621],[-85.88033,38.17612],[-85.88099,38.17606],[-85.88131,38.17601],[-85.88162,38.17591],[-85.88166,38.17591],[-85.88202,38.17587],[-85.8821,38.17589],[-85.88213,38.1759],[-85.88226,38.17589],[-85.88295,38.17588],[-85.88313,38.17588],[-85.88313,38.17588],[-85.88336,38.17585],[-85.88361,38.17583],[-85.884,38.17581],[-85.88453,38.17578],[-85.88543,38.17574],[-85.88626,38.1757],[-85.88678,38.17567],[-85.88701,38.17566],[-85.88769,38.17563],[-85.88829,38.1756],[-85.88841,38.17559],[-85.88857,38.17559],[-85.88897,38.1756],[-85.88929,38.1756],[-85.88941,38.1756],[-85.88965,38.17559],[-85.88971,38.17559],[-85.88976,38.17557],[-85.88985,38.17554],[-85.88996,38.17549],[-85.89014,38.17534],[-85.89023,38.17526],[-85.89029,38.17518],[-85.89035,38.17507],[-85.89038,38.17502],[-85.89046,38.17476],[-85.89072,38.17395],[-85.89109,38.17287],[-85.89128,38.17233],[-85.89145,38.17183],[-85.8918,38.1708],[-85.89196,38.17033],[-85.892,38.1702],[-85.89213,38.16979],[-85.89231,38.16923],[-85.89251,38.16858],[-85.89255,38.16846],[-85.89266,38.16804],[-85.89274,38.16771],[-85.89274,38.16764],[-85.89272,38.16755],[-85.89278,38.1673],[-85.89294,38.16658],[-85.89309,38.16585],[-85.89328,38.16498],[-85.8933,38.16489],[-85.89347,38.16415],[-85.89357,38.1637],[-85.89359,38.16358],[-85.89367,38.16322],[-85.89368,38.16317],[-85.89375,38.16286],[-85.89383,38.16246],[-85.89386,38.16234],[-85.89388,38.16229],[-85.89393,38.1622],[-85.89396,38.16214],[-85.894,38.16197],[-85.89403,38.16182],[-85.89405,38.16171],[-85.89405,38.16169],[-85.89405,38.16156],[-85.89405,38.16147],[-85.89408,38.16131],[-85.89424,38.16063],[-85.89448,38.15956],[-85.8948,38.15815],[-85.89495,38.15747],[-85.89498,38.15732],[-85.89502,38.15699],[-85.89505,38.1568],[-85.89508,38.15654],[-85.89509,38.1564],[-85.89514,38.15604],[-85.89518,38.15567],[-85.8952,38.15542],[-85.89523,38.1552],[-85.89526,38.15493],[-85.89527,38.15487],[-85.89528,38.15475],[-85.89531,38.15452],[-85.89535,38.15421],[-85.89538,38.15389],[-85.89544,38.15343],[-85.89551,38.15298],[-85.89556,38.15266],[-85.8956,38.15243],[-85.8956,38.15242],[-85.89564,38.15212],[-85.89571,38.15176],[-85.89579,38.1513],[-85.89582,38.1512],[-85.89587,38.151],[-85.89589,38.15089],[-85.89595,38.15059],[-85.89603,38.15021],[-85.89604,38.15012],[-85.89609,38.14988],[-85.89617,38.14947],[-85.8962,38.14922],[-85.89624,38.14897],[-85.89627,38.14864],[-85.89629,38.14844],[-85.89635,38.14796],[-85.89636,38.14779],[-85.89635,38.14769],[-85.89635,38.14763],[-85.89636,38.14754],[-85.89636,38.14754],[-85.89636,38.14751],[-85.89637,38.14749],[-85.89638,38.14748],[-85.89642,38.14746],[-85.89645,38.14745],[-85.89648,38.14744],[-85.89693,38.14745],[-85.8972,38.14747],[-85.89741,38.14748],[-85.89788,38.1475],[-85.89802,38.14751],[-85.89853,38.14753],[-85.89891,38.14754],[-85.89908,38.14755],[-85.8996,38.14756],[-85.89965,38.14756],[-85.89998,38.14756],[-85.90038,38.14752],[-85.90043,38.14751],[-85.90047,38.14749],[-85.90051,38.14745],[-85.90055,38.14735],[-85.90059,38.14712],[-85.90066,38.14681],[-85.90068,38.14673],[-85.9007,38.14667],[-85.90071,38.14663],[-85.90073,38.14644],[-85.90075,38.14602],[-85.90076,38.14582],[-85.90079,38.14524],[-85.90083,38.14449],[-85.90088,38.14355],[-85.90092,38.1429],[-85.90092,38.14278],[-85.90095,38.14224],[-85.90096,38.14214],[-85.90098,38.14166],[-85.901,38.14134],[-85.90101,38.14095],[-85.90102,38.14063],[-85.90103,38.14036],[-85.90104,38.13991],[-85.90105,38.13955],[-85.90106,38.13919],[-85.90107,38.13847],[-85.90109,38.13775],[-85.9011,38.13739],[-85.9011,38.13721],[-85.90113,38.13577],[-85.90115,38.13496],[-85.90114,38.13483],[-85.90115,38.13467],[-85.90117,38.13415],[-85.90118,38.13396],[-85.90121,38.13314],[-85.90121,38.13307],[-85.90121,38.13291],[-85.90119,38.13275],[-85.90116,38.1326],[-85.90114,38.13254],[-85.90112,38.13248],[-85.90103,38.13231],[-85.90094,38.13216],[-85.90083,38.13204],[-85.90073,38.13193],[-85.90055,38.13178],[-85.90035,38.1316],[-85.90013,38.1314],[-85.89979,38.13111],[-85.89963,38.13096],[-85.89953,38.13085],[-85.89942,38.13069],[-85.89935,38.13057],[-85.89932,38.13049],[-85.89927,38.13028],[-85.89924,38.13009],[-85.89922,38.12988],[-85.89921,38.12963],[-85.89921,38.12938],[-85.89922,38.12924],[-85.89924,38.12902],[-85.89925,38.12882],[-85.89926,38.12861],[-85.89926,38.12855],[-85.89924,38.12852],[-85.89923,38.1285],[-85.8992,38.12848],[-85.89918,38.12846],[-85.89917,38.12844],[-85.89916,38.12842],[-85.89916,38.1284],[-85.89913,38.12776],[-85.89911,38.12735],[-85.89906,38.12667],[-85.89904,38.12629],[-85.89903,38.12597],[-85.89901,38.12566],[-85.89899,38.12527],[-85.89895,38.1246],[-85.89892,38.1239],[-85.89888,38.12332],[-85.89885,38.12275],[-85.89882,38.12245],[-85.89878,38.12179],[-85.89874,38.12108],[-85.89874,38.12095],[-85.89872,38.12056],[-85.89869,38.1201],[-85.89869,38.12003],[-85.89867,38.11963],[-85.89867,38.11961],[-85.89865,38.11943],[-85.89863,38.11927],[-85.89863,38.11925],[-85.8986,38.11911],[-85.89855,38.11898],[-85.89853,38.11892],[-85.8985,38.11882],[-85.89848,38.11877],[-85.89844,38.11869],[-85.89837,38.11857],[-85.89828,38.11843],[-85.89825,38.11839],[-85.89818,38.1183],[-85.89809,38.11819],[-85.89795,38.11804],[-85.89778,38.11789],[-85.89776,38.11786],[-85.89762,38.11776],[-85.89742,38.1176],[-85.89735,38.11755],[-85.8973,38.11751],[-85.89726,38.11748],[-85.89714,38.11737],[-85.89707,38.11729],[-85.89703,38.11722],[-85.89698,38.11714],[-85.89694,38.1171],[-85.89691,38.11704],[-85.89687,38.1169],[-85.89681,38.11662],[-85.89681,38.11657],[-85.89681,38.11653],[-85.89684,38.1164],[-85.89694,38.1161],[-85.89697,38.11602],[-85.89702,38.11591],[-85.89704,38.11583],[-85.89706,38.11575],[-85.89709,38.11565],[-85.89712,38.11554],[-85.89714,38.11548],[-85.8972,38.11531],[-85.89723,38.11524],[-85.89737,38.11481],[-85.89744,38.11459],[-85.89747,38.11442],[-85.89749,38.11413],[-85.89749,38.11402],[-85.89748,38.11389],[-85.8974,38.11342],[-85.89728,38.11279],[-85.8972,38.11235],[-85.8971,38.11176],[-85.89703,38.11138],[-85.8969,38.11068],[-85.89681,38.1102],[-85.89674,38.10978],[-85.89662,38.10917],[-85.89656,38.1088],[-85.89652,38.10861],[-85.8965,38.10852],[-85.89642,38.10832],[-85.89627,38.10804],[-85.89594,38.1075],[-85.89562,38.10697],[-85.89559,38.10691],[-85.89542,38.10663],[-85.8951,38.10611],[-85.8948,38.10561],[-85.89461,38.10529],[-85.89454,38.10515],[-85.89452,38.1051],[-85.89451,38.10505],[-85.8945,38.10498],[-85.89451,38.10489],[-85.89453,38.10471],[-85.89455,38.10462],[-85.89456,38.10458],[-85.89458,38.10443],[-85.8946,38.10433],[-85.8946,38.10425],[-85.89458,38.10404],[-85.89457,38.10395],[-85.89451,38.10341],[-85.89447,38.10305],[-85.89435,38.10203],[-85.89431,38.10161],[-85.89427,38.10132],[-85.89425,38.10101],[-85.89422,38.10035],[-85.8942,38.09969],[-85.89418,38.09912],[-85.89415,38.09848],[-85.89414,38.09818],[-85.89411,38.09754],[-85.89411,38.09735],[-85.89412,38.09722],[-85.89413,38.09714],[-85.89415,38.09707],[-85.89419,38.09695],[-85.89426,38.09678],[-85.89437,38.09657],[-85.8944,38.09651],[-85.89443,38.09647],[-85.89445,38.09646],[-85.89446,38.09642],[-85.89452,38.09624],[-85.89456,38.09607],[-85.89458,38.09587],[-85.89459,38.09565],[-85.89458,38.0955],[-85.89458,38.09489],[-85.89459,38.0945],[-85.89459,38.09419],[-85.89464,38.09393],[-85.89472,38.09366],[-85.89479,38.0935],[-85.89481,38.09341],[-85.89487,38.09326],[-85.89508,38.0929],[-85.89539,38.09254],[-85.89552,38.09239],[-85.89556,38.09233],[-85.89629,38.0915],[-85.89647,38.09129],[-85.89686,38.09085],[-85.89726,38.09037],[-85.89732,38.09031],[-85.89775,38.08981],[-85.89817,38.08932],[-85.89861,38.08882],[-85.89874,38.08867],[-85.89935,38.08796],[-85.90005,38.08715],[-85.90033,38.08677],[-85.90047,38.0865],[-85.90058,38.08622],[-85.90073,38.08577],[-85.90087,38.08536],[-85.90099,38.08499],[-85.90105,38.0848],[-85.90115,38.08446],[-85.90126,38.08414],[-85.90138,38.08377],[-85.90143,38.08364],[-85.90171,38.08276],[-85.90178,38.08255],[-85.90197,38.08199],[-85.90201,38.08185],[-85.90213,38.0815],[-85.90215,38.08144],[-85.90218,38.08133],[-85.90224,38.08116],[-85.90232,38.08091],[-85.90242,38.08063],[-85.9025,38.08039],[-85.90259,38.08011],[-85.90262,38.08001],[-85.90274,38.07961],[-85.90288,38.07922],[-85.90298,38.07889],[-85.90318,38.07828],[-85.90335,38.07776],[-85.90358,38.07703],[-85.9038,38.0763],[-85.904,38.07569],[-85.90412,38.07527],[-85.90417,38.07503],[-85.90432,38.07444],[-85.9044,38.0741],[-85.90468,38.0729],[-85.90485,38.07221],[-85.90493,38.07175],[-85.90509,38.07105],[-85.90523,38.07042],[-85.90543,38.06963],[-85.90559,38.06894],[-85.9057,38.06845],[-85.90582,38.06798],[-85.90587,38.06771],[-85.9059,38.06745],[-85.90591,38.06732],[-85.90591,38.06711],[-85.90586,38.06679],[-85.90585,38.06672],[-85.90579,38.0664],[-85.90575,38.06619],[-85.9057,38.06595],[-85.90564,38.06567],[-85.90561,38.06553],[-85.9056,38.06548],[-85.90556,38.06524],[-85.90551,38.06495],[-85.9055,38.06494],[-85.90544,38.06459],[-85.90542,38.0645],[-85.90527,38.0638],[-85.9052,38.06345],[-85.90519,38.06334],[-85.90519,38.06327],[-85.90518,38.06316],[-85.90518,38.06306],[-85.90518,38.06298],[-85.90519,38.0628],[-85.90519,38.06275],[-85.90518,38.0627],[-85.90516,38.06266],[-85.9051,38.0626],[-85.90506,38.06258],[-85.905,38.06256],[-85.9049,38.06255],[-85.90479,38.06257],[-85.90471,38.06258],[-85.90469,38.06258],[-85.90468,38.06258],[-85.90463,38.06257],[-85.9046,38.06254],[-85.90457,38.06247],[-85.90457,38.06241],[-85.90456,38.06239],[-85.90456,38.06235],[-85.90454,38.06231],[-85.90451,38.0623],[-85.90451,38.06229],[-85.90448,38.06227],[-85.90444,38.06226],[-85.90439,38.06225],[-85.90434,38.06226],[-85.90429,38.06228],[-85.90426,38.06228],[-85.90424,38.06228],[-85.90423,38.06228],[-85.90422,38.06228],[-85.90421,38.06227],[-85.9042,38.06227],[-85.90419,38.06226],[-85.90419,38.06226],[-85.90433,38.0621],[-85.90437,38.06205],[-85.90446,38.06194],[-85.9046,38.06178],[-85.90476,38.06161],[-85.90486,38.06148],[-85.90501,38.06132],[-85.90512,38.06119],[-85.90521,38.06108],[-85.90531,38.06099],[-85.90542,38.06088],[-85.90551,38.0608],[-85.90557,38.06074],[-85.90558,38.06073],[-85.90563,38.06069],[-85.90572,38.06058],[-85.90577,38.06054],[-85.90581,38.06048],[-85.90587,38.06039],[-85.9059,38.06034],[-85.90595,38.06025],[-85.90598,38.06018],[-85.906,38.06012],[-85.90608,38.05992],[-85.90611,38.05982],[-85.90615,38.05971],[-85.90624,38.05947],[-85.90631,38.05928],[-85.90641,38.05898],[-85.90651,38.0587],[-85.90656,38.05858],[-85.90662,38.05843],[-85.90663,38.05838],[-85.90664,38.05837],[-85.90668,38.05827],[-85.90672,38.05816],[-85.90677,38.05808],[-85.90695,38.05775],[-85.90733,38.05707],[-85.90745,38.05686],[-85.90778,38.05627],[-85.90786,38.05614],[-85.90789,38.05609],[-85.90796,38.05596],[-85.90797,38.05594],[-85.90797,38.05593],[-85.90797,38.05592],[-85.90797,38.05591],[-85.90797,38.0559],[-85.90796,38.05589],[-85.90795,38.05588],[-85.90794,38.05586],[-85.9079,38.05584],[-85.90779,38.05578],[-85.9076,38.05569],[-85.90728,38.05554],[-85.90675,38.05527],[-85.90621,38.05501],[-85.90621,38.05501],[-85.90606,38.05493],[-85.90581,38.05479],[-85.90549,38.05463],[-85.90547,38.05461],[-85.90415,38.05395],[-85.9035,38.05362],[-85.90334,38.05354],[-85.90328,38.05349],[-85.90321,38.05343],[-85.90316,38.05339],[-85.9031,38.05333],[-85.90304,38.05327],[-85.90298,38.05319],[-85.90293,38.05311],[-85.90245,38.05238],[-85.90213,38.05189],[-85.90204,38.05174],[-85.90196,38.05157],[-85.9019,38.05141],[-85.90187,38.0513],[-85.90171,38.05061],[-85.90165,38.05035],[-85.90129,38.04884],[-85.90121,38.0485],[-85.90083,38.04731],[-85.90079,38.04723],[-85.90075,38.04715],[-85.90072,38.0471],[-85.90067,38.04705],[-85.90063,38.047],[-85.90057,38.04696],[-85.90039,38.04686],[-85.90036,38.04684],[-85.89963,38.04646],[-85.89963,38.04646],[-85.89984,38.04626],[-85.90006,38.04604],[-85.90055,38.04556],[-85.90092,38.04519],[-85.90103,38.04508],[-85.90139,38.04472],[-85.90285,38.04326],[-85.90321,38.0429],[-85.90352,38.0426],[-85.90354,38.04258],[-85.90391,38.04221],[-85.9041,38.04202],[-85.90424,38.04188],[-85.90431,38.04181],[-85.90508,38.04105],[-85.90535,38.04079],[-85.90552,38.04061],[-85.90559,38.04055],[-85.90725,38.03894],[-85.90916,38.03707],[-85.90935,38.0369],[-85.90964,38.03661],[-85.90986,38.03639],[-85.91034,38.03593],[-85.91101,38.03527],[-85.91154,38.03477],[-85.91224,38.03408],[-85.91243,38.03387],[-85.91271,38.03358],[-85.91281,38.03348],[-85.91282,38.03347],[-85.91321,38.03301],[-85.91343,38.03272],[-85.91379,38.03223],[-85.91401,38.0319],[-85.91412,38.03172],[-85.91435,38.03132],[-85.91456,38.03092],[-85.91475,38.03057],[-85.91482,38.03043],[-85.9156,38.02896],[-85.91597,38.02825],[-85.9161,38.02797],[-85.91618,38.0278],[-85.91632,38.02743],[-85.91635,38.02732],[-85.9164,38.02715],[-85.9164,38.02714],[-85.91648,38.02672],[-85.91649,38.02649],[-85.9165,38.02625],[-85.91655,38.02603],[-85.91655,38.02596],[-85.91653,38.02582],[-85.91647,38.02524],[-85.91646,38.02506],[-85.91644,38.0249],[-85.91644,38.02452],[-85.91648,38.02426],[-85.91651,38.02407],[-85.91656,38.02384],[-85.91662,38.0236],[-85.91669,38.0234],[-85.91679,38.02316],[-85.91687,38.02301],[-85.91688,38.02298],[-85.91697,38.02281],[-85.91709,38.02262],[-85.91723,38.02241],[-85.91734,38.02227],[-85.91756,38.022],[-85.9178,38.02176],[-85.91793,38.02163],[-85.91821,38.02135],[-85.91835,38.0212],[-85.9185,38.02105],[-85.91873,38.02073],[-85.91919,38.02028],[-85.9209,38.01855],[-85.92116,38.01829],[-85.92203,38.01742],[-85.92247,38.01697],[-85.92311,38.01636],[-85.92369,38.01583],[-85.9238,38.01573],[-85.92412,38.01544],[-85.92456,38.01503],[-85.92592,38.01379],[-85.92622,38.01351],[-85.92682,38.01297],[-85.92693,38.01287],[-85.92713,38.01271],[-85.92732,38.01256],[-85.92814,38.01199],[-85.9287,38.0116],[-85.92913,38.0113],[-85.93003,38.01066],[-85.93036,38.01043],[-85.93085,38.01009],[-85.93103,38.00996],[-85.9312,38.00984],[-85.93146,38.00966],[-85.93154,38.00961],[-85.93171,38.00949],[-85.93199,38.00929],[-85.93242,38.00899],[-85.9327,38.00879],[-85.93312,38.0085],[-85.93345,38.00827],[-85.93493,38.00724],[-85.93563,38.00674],[-85.93685,38.00589],[-85.93764,38.00534],[-85.93812,38.00501],[-85.93885,38.0045],[-85.93922,38.00424],[-85.93924,38.00422],[-85.93943,38.00409],[-85.93962,38.00395],[-85.93984,38.00377],[-85.94004,38.0036],[-85.94021,38.00344],[-85.94032,38.00333],[-85.94038,38.00327],[-85.94042,38.00324],[-85.94052,38.00313],[-85.94075,38.00288],[-85.94087,38.00276],[-85.94093,38.0027],[-85.94112,38.00249],[-85.94132,38.00226],[-85.94181,38.00174],[-85.94181,38.00173],[-85.94221,38.00131],[-85.94234,38.00116],[-85.9424,38.0011],[-85.94286,38.00057],[-85.94292,38.00049],[-85.94337,37.99997],[-85.94353,37.99979],[-85.94357,37.99975],[-85.94373,37.99957],[-85.94373,37.99957],[-85.94414,37.99951],[-85.94434,37.99946],[-85.94452,37.99944],[-85.94484,37.99939],[-85.94497,37.99937],[-85.94515,37.99935],[-85.94528,37.99932],[-85.94541,37.99932],[-85.94625,37.99917],[-85.94668,37.99911],[-85.94713,37.99904],[-85.94796,37.9989],[-85.94879,37.99876],[-85.94962,37.99863],[-85.95049,37.9985],[-85.95064,37.99848],[-85.95093,37.99843],[-85.95108,37.9984],[-85.95122,37.99836],[-85.95127,37.99833],[-85.95135,37.9983],[-85.95188,37.99803],[-85.95346,37.99726],[-85.95378,37.9971],[-85.95501,37.99651],[-85.95642,37.99583],[-85.9569,37.99557],[-85.95724,37.99537],[-85.95736,37.9953],[-85.95751,37.99519],[-85.95786,37.99494],[-85.95795,37.99487],[-85.95823,37.99464],[-85.95828,37.9946],[-85.95837,37.99453],[-85.95854,37.99437],[-85.95868,37.99424],[-85.95882,37.99409],[-85.95908,37.99382],[-85.95921,37.99367],[-85.95929,37.99358],[-85.95945,37.99337],[-85.95949,37.99332],[-85.95964,37.99317],[-85.95978,37.99295],[-85.95992,37.99274],[-85.96005,37.99243],[-85.96012,37.99228],[-85.96022,37.99209],[-85.96037,37.99173],[-85.96051,37.99139],[-85.96058,37.99122],[-85.96071,37.99087],[-85.96103,37.99008],[-85.96118,37.9897],[-85.96126,37.98947],[-85.96131,37.98934],[-85.96135,37.9892],[-85.96137,37.98917],[-85.96142,37.98909],[-85.96148,37.98892],[-85.96153,37.98873],[-85.96158,37.98861],[-85.96161,37.98849],[-85.96163,37.98845],[-85.96166,37.9883],[-85.96169,37.98815],[-85.96173,37.98795],[-85.96175,37.98781],[-85.96176,37.98777],[-85.96177,37.98769],[-85.96179,37.98755],[-85.9618,37.98742],[-85.9618,37.98736],[-85.9618,37.98732],[-85.96181,37.98725],[-85.96181,37.98723],[-85.96182,37.98716],[-85.96183,37.98708],[-85.96184,37.98705],[-85.96184,37.98702],[-85.96186,37.98697],[-85.96188,37.9869],[-85.96188,37.98685],[-85.96189,37.98675],[-85.96191,37.98661],[-85.96191,37.98655],[-85.96193,37.98639],[-85.96196,37.98622],[-85.96199,37.98604],[-85.96202,37.98587],[-85.96203,37.98575],[-85.96204,37.98568],[-85.96205,37.98564],[-85.96206,37.98554],[-85.96207,37.98542],[-85.96209,37.98529],[-85.9621,37.98518],[-85.96213,37.98503],[-85.96216,37.98487],[-85.96218,37.9847],[-85.96219,37.9847],[-85.9622,37.98464],[-85.96221,37.98452],[-85.96222,37.98443],[-85.96224,37.98429],[-85.96225,37.9842],[-85.96226,37.98409],[-85.96227,37.984],[-85.96228,37.98389],[-85.96229,37.9838],[-85.96229,37.98374],[-85.96229,37.98365],[-85.96229,37.98353],[-85.9623,37.9834],[-85.96229,37.9833],[-85.96229,37.98318],[-85.9623,37.9831],[-85.9623,37.98308],[-85.9623,37.98301],[-85.9623,37.98292],[-85.96229,37.98272],[-85.96229,37.98263],[-85.96229,37.98238],[-85.96229,37.98236],[-85.96229,37.98226],[-85.96228,37.98217],[-85.96227,37.98194],[-85.96227,37.98182],[-85.96227,37.98165],[-85.96226,37.98137],[-85.96224,37.98121],[-85.96224,37.98112],[-85.96223,37.981],[-85.96222,37.98092],[-85.96222,37.98085],[-85.96222,37.98076],[-85.96222,37.98069],[-85.96222,37.98059],[-85.96222,37.98043],[-85.96224,37.98027],[-85.96228,37.97996],[-85.96229,37.97988],[-85.96232,37.97972],[-85.96234,37.97962],[-85.96236,37.97954],[-85.96237,37.97949],[-85.96237,37.97943],[-85.96237,37.97943],[-85.96241,37.97929],[-85.96248,37.97911],[-85.96255,37.97893],[-85.96262,37.97878],[-85.96267,37.97863],[-85.96273,37.97844],[-85.96299,37.97812],[-85.9632,37.97788],[-85.96345,37.97761],[-85.96358,37.97746],[-85.96368,37.97736],[-85.96385,37.97721],[-85.96398,37.97709],[-85.96414,37.97696],[-85.96434,37.9768],[-85.96442,37.97675],[-85.96455,37.97665],[-85.96474,37.97653],[-85.96493,37.97641],[-85.96501,37.97636],[-85.96511,37.97631],[-85.96524,37.97624],[-85.96542,37.97615],[-85.9656,37.97607],[-85.96579,37.97599],[-85.9659,37.97594],[-85.96603,37.97589],[-85.96624,37.97582],[-85.9665,37.97573],[-85.96663,37.9757],[-85.96679,37.97566],[-85.96693,37.97562],[-85.96698,37.97561],[-85.96711,37.97558],[-85.9672,37.97556],[-85.96754,37.97548],[-85.96814,37.97535],[-85.9686,37.97525],[-85.96904,37.97516],[-85.96925,37.97515],[-85.96926,37.97515],[-85.96935,37.97513],[-85.96967,37.97506],[-85.96995,37.975],[-85.97038,37.9749],[-85.97096,37.97478],[-85.97164,37.97462],[-85.9722,37.9745],[-85.97237,37.97446],[-85.97268,37.9744],[-85.97317,37.97428],[-85.97385,37.97413],[-85.9744,37.97401],[-85.97456,37.97398],[-85.97506,37.97387],[-85.97583,37.9737],[-85.97588,37.97369],[-85.97651,37.97355],[-85.9776,37.97331],[-85.97815,37.97318],[-85.97829,37.97315],[-85.97868,37.97304],[-85.97912,37.97292],[-85.97958,37.97278],[-85.98009,37.9726],[-85.98022,37.97255],[-85.98044,37.97247],[-85.98084,37.97232],[-85.98123,37.97216],[-85.98152,37.97202],[-85.98186,37.97186],[-85.98212,37.97173],[-85.9824,37.97159],[-85.98276,37.9714],[-85.9831,37.9712],[-85.98342,37.971],[-85.98367,37.97084],[-85.98397,37.97064],[-85.98417,37.97049],[-85.98441,37.97031],[-85.98463,37.97014],[-85.98473,37.97007],[-85.985,37.96986],[-85.98527,37.96963],[-85.98528,37.96962],[-85.98557,37.96936],[-85.98558,37.96935],[-85.98572,37.96922],[-85.98586,37.96909],[-85.98601,37.96894],[-85.98627,37.96868],[-85.98642,37.96852],[-85.98661,37.9683],[-85.98671,37.96818],[-85.98684,37.96803],[-85.98687,37.96799],[-85.98713,37.96765],[-85.98739,37.96728],[-85.98741,37.96725],[-85.98765,37.9669],[-85.98782,37.96661],[-85.98799,37.96631],[-85.98811,37.96609],[-85.98834,37.96561],[-85.98857,37.96513],[-85.98867,37.96494],[-85.98875,37.96477],[-85.98876,37.96475],[-85.98896,37.96433],[-85.98899,37.96426],[-85.98917,37.96391],[-85.98924,37.96376],[-85.98932,37.96359],[-85.98935,37.96352],[-85.98958,37.96305],[-85.98964,37.96292],[-85.98978,37.96264],[-85.98981,37.96259],[-85.98999,37.96221],[-85.99005,37.96208],[-85.99013,37.96191],[-85.99018,37.96182],[-85.9903,37.96158],[-85.99036,37.96146],[-85.99053,37.9611],[-85.99067,37.96079],[-85.9907,37.96074],[-85.99084,37.96045],[-85.99101,37.96011],[-85.99119,37.95973],[-85.99137,37.95939],[-85.99164,37.95887],[-85.9918,37.95848],[-85.99197,37.95814],[-85.99198,37.95811],[-85.99213,37.9578],[-85.99221,37.95764],[-85.99245,37.95714],[-85.9927,37.95663],[-85.99273,37.95657],[-85.99278,37.95646],[-85.99286,37.95629],[-85.99288,37.95625],[-85.99302,37.95596],[-85.99305,37.9559],[-85.99324,37.9555],[-85.99335,37.95528],[-85.99338,37.95523],[-85.99353,37.95491],[-85.99368,37.9546],[-85.99401,37.95394],[-85.99428,37.95341],[-85.9944,37.95316],[-85.99459,37.95276],[-85.99473,37.95248],[-85.99474,37.95247],[-85.99474,37.95246],[-85.99495,37.95202],[-85.99512,37.95167],[-85.99538,37.95113],[-85.99595,37.94995],[-85.99599,37.94987],[-85.99605,37.94975],[-85.99632,37.94919],[-85.99644,37.94893],[-85.9967,37.9484],[-85.9968,37.94817],[-85.99685,37.94806],[-85.99691,37.94791],[-85.99696,37.94774],[-85.997,37.94763],[-85.997,37.94762],[-85.99697,37.94753],[-85.99706,37.94724],[-85.99711,37.94705],[-85.99712,37.947],[-85.99715,37.94686],[-85.99717,37.94679],[-85.9972,37.94667],[-85.99724,37.94648],[-85.99726,37.94637],[-85.99727,37.94629],[-85.9973,37.94611],[-85.99732,37.94592],[-85.99734,37.94574],[-85.99735,37.94555],[-85.99736,37.94537],[-85.99736,37.94536],[-85.99737,37.9452],[-85.99737,37.94519],[-85.99737,37.94503],[-85.99737,37.94485],[-85.99736,37.94468],[-85.99735,37.9445],[-85.99733,37.94429],[-85.99731,37.94405],[-85.99729,37.94384],[-85.99728,37.94378],[-85.99725,37.94363],[-85.99722,37.94343],[-85.99718,37.94323],[-85.99713,37.94303],[-85.99708,37.94279],[-85.99703,37.94261],[-85.99697,37.9424],[-85.9969,37.94218],[-85.99686,37.94204],[-85.99681,37.94188],[-85.99672,37.94162],[-85.99666,37.94147],[-85.99655,37.9412],[-85.99591,37.93982],[-85.99563,37.93922],[-85.99563,37.93922],[-85.99592,37.93912],[-85.99664,37.93893],[-85.99694,37.93884],[-85.99716,37.93877],[-85.99743,37.9387],[-85.99766,37.93863],[-85.99821,37.93848],[-85.99857,37.93836],[-85.99903,37.9382],[-85.99963,37.93798],[-86.00031,37.93771],[-86.00064,37.93756],[-86.00106,37.93738],[-86.00164,37.9371],[-86.00166,37.93709],[-86.00189,37.93697],[-86.0021,37.93686],[-86.00235,37.93672],[-86.00276,37.93648],[-86.00296,37.93637],[-86.003,37.93634],[-86.00315,37.93626],[-86.00324,37.9362],[-86.00344,37.93606],[-86.00377,37.93583],[-86.00445,37.93536],[-86.00515,37.93488],[-86.0063,37.93408],[-86.00707,37.93354],[-86.00787,37.93298],[-86.00794,37.93293],[-86.00811,37.93281],[-86.00845,37.93257],[-86.00876,37.93234],[-86.0093,37.93197],[-86.01,37.93151],[-86.01033,37.93128],[-86.01064,37.93105],[-86.01121,37.93064],[-86.012,37.93006],[-86.01249,37.92972],[-86.01266,37.9296],[-86.01454,37.92828],[-86.01471,37.92816],[-86.01667,37.92679],[-86.01709,37.92651],[-86.01772,37.92609],[-86.01798,37.92592],[-86.01815,37.9258],[-86.01818,37.92578],[-86.01832,37.92568],[-86.01849,37.92556],[-86.01885,37.92532],[-86.01918,37.92509],[-86.0194,37.92494],[-86.01965,37.92476],[-86.02012,37.92443],[-86.02013,37.92442],[-86.02028,37.92431],[-86.02029,37.92431],[-86.02045,37.92419],[-86.02063,37.92406],[-86.02079,37.92395],[-86.02101,37.92379],[-86.02128,37.9236],[-86.0213,37.92359],[-86.02147,37.92347],[-86.02156,37.92341],[-86.02184,37.92321],[-86.02199,37.92311],[-86.02208,37.92305],[-86.02216,37.923],[-86.02234,37.92289],[-86.02252,37.92278],[-86.02269,37.92269],[-86.02271,37.92268],[-86.0228,37.92264],[-86.02295,37.92256],[-86.02311,37.92249],[-86.02328,37.92242],[-86.02351,37.92233],[-86.02373,37.92225],[-86.02394,37.92218],[-86.02415,37.92212],[-86.02436,37.92206],[-86.02446,37.92204],[-86.02475,37.92198],[-86.02507,37.92192],[-86.02537,37.92188],[-86.02559,37.92186],[-86.02576,37.92184],[-86.02597,37.92184],[-86.02621,37.92183],[-86.02629,37.92183],[-86.0263,37.92183],[-86.02652,37.92183],[-86.02658,37.92183],[-86.02667,37.92183],[-86.02686,37.92184],[-86.02697,37.92185],[-86.02699,37.92185],[-86.02703,37.92186],[-86.02731,37.92189],[-86.02749,37.92191],[-86.02765,37.92193],[-86.0278,37.92196],[-86.02802,37.922],[-86.02829,37.92206],[-86.02876,37.92218],[-86.02961,37.9224],[-86.02994,37.92249],[-86.02998,37.9225],[-86.03039,37.9226],[-86.0307,37.92268],[-86.0315,37.9229],[-86.03182,37.92298],[-86.0327,37.92321],[-86.03275,37.92323],[-86.03325,37.92336],[-86.03358,37.92345],[-86.03386,37.92352],[-86.03485,37.92378],[-86.03594,37.92406],[-86.03597,37.92407],[-86.03661,37.92424],[-86.03705,37.92436],[-86.03745,37.92447],[-86.03791,37.92461],[-86.03809,37.92466],[-86.0384,37.92476],[-86.03871,37.92487],[-86.03893,37.92495],[-86.03913,37.92502],[-86.03934,37.92509],[-86.03945,37.92513],[-86.04025,37.92544],[-86.04033,37.92547],[-86.04074,37.92564],[-86.04114,37.92581],[-86.04133,37.9259],[-86.04148,37.92597],[-86.04195,37.92619],[-86.04245,37.92643],[-86.04301,37.92671],[-86.04306,37.92674],[-86.04353,37.92697],[-86.04377,37.92709],[-86.04493,37.92768],[-86.04549,37.92796],[-86.04569,37.92806],[-86.04765,37.92904],[-86.04837,37.9294],[-86.04838,37.92941],[-86.04872,37.92958],[-86.04896,37.9297],[-86.04915,37.9298],[-86.05031,37.93038],[-86.05043,37.93043],[-86.05066,37.93055],[-86.05081,37.93063],[-86.05126,37.93086],[-86.05159,37.93102],[-86.05165,37.93105],[-86.05181,37.93113],[-86.05231,37.93138],[-86.0525,37.93148],[-86.05289,37.93168],[-86.05324,37.93185],[-86.05368,37.93207],[-86.05408,37.93227],[-86.05448,37.93246],[-86.05451,37.9325],[-86.05455,37.93252],[-86.05493,37.93272],[-86.05525,37.93288],[-86.05575,37.93314],[-86.05621,37.93338],[-86.05671,37.93362],[-86.05712,37.93384],[-86.05817,37.93432],[-86.05842,37.93444],[-86.05864,37.93455],[-86.05903,37.93475],[-86.05933,37.9349],[-86.05988,37.93518],[-86.0603,37.93539],[-86.06071,37.93559],[-86.06137,37.93592],[-86.06186,37.93617],[-86.06208,37.93628],[-86.06366,37.93706],[-86.06422,37.93733],[-86.0644,37.93742],[-86.06545,37.93794],[-86.06568,37.93805],[-86.06625,37.93833],[-86.06635,37.93838],[-86.06666,37.93853],[-86.06725,37.93882],[-86.06749,37.93895],[-86.06802,37.93921],[-86.06846,37.93943],[-86.06872,37.93956],[-86.06895,37.93967],[-86.06916,37.93977],[-86.06924,37.9398],[-86.06937,37.93986],[-86.06961,37.93997],[-86.06984,37.94006],[-86.07007,37.94014],[-86.0701,37.94015],[-86.07015,37.94017],[-86.07031,37.94023],[-86.07047,37.94028],[-86.07063,37.94033],[-86.07079,37.94037],[-86.07087,37.9404],[-86.07094,37.94042],[-86.07116,37.94048],[-86.07117,37.94048],[-86.07144,37.94054],[-86.07176,37.94062],[-86.07201,37.94067],[-86.07248,37.94076],[-86.07292,37.94085],[-86.07314,37.9409],[-86.074,37.94107],[-86.07403,37.94108],[-86.07424,37.94113],[-86.07448,37.9412],[-86.0746,37.94124],[-86.0747,37.94128],[-86.07487,37.94136],[-86.07492,37.94138],[-86.07499,37.94141],[-86.07506,37.94145],[-86.07513,37.94149],[-86.07519,37.94153],[-86.07526,37.94157],[-86.07538,37.94165],[-86.07551,37.94174],[-86.07565,37.94186],[-86.07639,37.94243],[-86.07645,37.94248],[-86.07663,37.94262],[-86.07675,37.94271],[-86.07681,37.94275],[-86.07694,37.94284],[-86.077,37.94288],[-86.07708,37.94293],[-86.07714,37.94297],[-86.07721,37.94301],[-86.07735,37.94308],[-86.07742,37.94312],[-86.07756,37.94318],[-86.07766,37.94323],[-86.07776,37.94327],[-86.07786,37.94331],[-86.0779,37.94332],[-86.07804,37.94336],[-86.07821,37.94341],[-86.07831,37.94344],[-86.07847,37.94348],[-86.07871,37.94352],[-86.07909,37.94359],[-86.07931,37.94362],[-86.07956,37.94367],[-86.07973,37.94371],[-86.07992,37.94375],[-86.08006,37.94379],[-86.08031,37.94385],[-86.08039,37.94388],[-86.08056,37.94393],[-86.08096,37.94406],[-86.08105,37.94408],[-86.08113,37.94411],[-86.0813,37.94417],[-86.08146,37.94422],[-86.08154,37.94425],[-86.08179,37.94434],[-86.08195,37.9444],[-86.08328,37.94486],[-86.08398,37.94511],[-86.08424,37.9452],[-86.08485,37.94541],[-86.0853,37.94557],[-86.08533,37.94558],[-86.08551,37.94564],[-86.08583,37.94576],[-86.08611,37.94587],[-86.08641,37.94598],[-86.08662,37.94607],[-86.08673,37.94612],[-86.08695,37.94622],[-86.08711,37.94629],[-86.08733,37.9464],[-86.0878,37.94664],[-86.08828,37.94688],[-86.08916,37.94734],[-86.08963,37.94759],[-86.09008,37.94782],[-86.09015,37.94785],[-86.09027,37.94791],[-86.0906,37.94808],[-86.09084,37.94821],[-86.09103,37.94831],[-86.09152,37.94856],[-86.09156,37.94859],[-86.09164,37.94863],[-86.09179,37.9487],[-86.09289,37.94928],[-86.09308,37.94938],[-86.09324,37.94946],[-86.09346,37.94957],[-86.09375,37.94972],[-86.09403,37.94987],[-86.09417,37.94993],[-86.09429,37.94999],[-86.09449,37.95008],[-86.09463,37.95013],[-86.09466,37.95015],[-86.09477,37.95019],[-86.09493,37.95025],[-86.09506,37.95029],[-86.09528,37.95036],[-86.09542,37.9504],[-86.0958,37.9505],[-86.09609,37.95057],[-86.09634,37.95063],[-86.09657,37.95069],[-86.09681,37.95075],[-86.09743,37.9509],[-86.09746,37.95091],[-86.0981,37.95106],[-86.09873,37.95122],[-86.09919,37.95133],[-86.09941,37.95139],[-86.10003,37.95154],[-86.10083,37.95174],[-86.10119,37.95182],[-86.1016,37.95192],[-86.10215,37.95206],[-86.10247,37.95213],[-86.10255,37.95216],[-86.10358,37.95241],[-86.10388,37.95248],[-86.10418,37.95256],[-86.10421,37.95257],[-86.10462,37.95268],[-86.10507,37.95279],[-86.10507,37.95279],[-86.10497,37.95295],[-86.10494,37.95301],[-86.1047,37.95345],[-86.10466,37.95352],[-86.10452,37.95378],[-86.10449,37.95383],[-86.10443,37.95395],[-86.10442,37.95397],[-86.10434,37.95411],[-86.10431,37.95418],[-86.10425,37.95428],[-86.10413,37.95451],[-86.10413,37.95451],[-86.10456,37.95468],[-86.10496,37.95484],[-86.10496,37.95484],[-86.10495,37.95485],[-86.10492,37.95488],[-86.10474,37.95505],[-86.10464,37.95516],[-86.10455,37.95529],[-86.10446,37.95543],[-86.10444,37.95547],[-86.10443,37.95548],[-86.10439,37.95556],[-86.10434,37.95564],[-86.10431,37.9557],[-86.10428,37.95581],[-86.10427,37.95584],[-86.10421,37.95599],[-86.10411,37.95627],[-86.10404,37.95651],[-86.10402,37.95658],[-86.10397,37.95671],[-86.10393,37.95687],[-86.10389,37.95702],[-86.10384,37.95716],[-86.1038,37.95731],[-86.10377,37.95738],[-86.10375,37.95744],[-86.10369,37.95758],[-86.10362,37.95771],[-86.10362,37.95772],[-86.10361,37.95772],[-86.10354,37.95785],[-86.10346,37.95798],[-86.10338,37.95811],[-86.10332,37.9582],[-86.1033,37.95824],[-86.10322,37.95837],[-86.10314,37.95849],[-86.10306,37.95862],[-86.10301,37.95869],[-86.10297,37.95875],[-86.10288,37.95887],[-86.10278,37.959],[-86.10268,37.95912],[-86.10248,37.95935],[-86.10217,37.95971],[-86.10216,37.95972],[-86.10207,37.95982],[-86.10205,37.95985],[-86.10194,37.95997],[-86.10193,37.95998],[-86.10181,37.96012],[-86.10158,37.96041],[-86.10156,37.96042],[-86.10145,37.96055],[-86.10133,37.9607],[-86.10131,37.96072],[-86.1012,37.96084],[-86.10105,37.96102],[-86.101,37.96108],[-86.10096,37.96113],[-86.10093,37.96117],[-86.10084,37.96127],[-86.10073,37.96141],[-86.10068,37.96147],[-86.10061,37.96154],[-86.10052,37.96168],[-86.10041,37.96182],[-86.10033,37.96193],[-86.10031,37.96196],[-86.10021,37.96208],[-86.1001,37.96219],[-86.10007,37.96223],[-86.1,37.96233],[-86.09995,37.96238],[-86.0999,37.96245],[-86.0998,37.96257],[-86.09972,37.96269],[-86.09971,37.96271],[-86.09963,37.96285],[-86.09963,37.96286],[-86.09957,37.96298],[-86.09952,37.96313],[-86.0995,37.96326],[-86.09946,37.96341],[-86.09943,37.96356],[-86.09942,37.96358],[-86.0994,37.96374],[-86.09938,37.96389],[-86.09937,37.96404],[-86.09935,37.96409],[-86.09934,37.96417],[-86.0993,37.9643],[-86.09925,37.96443],[-86.09925,37.96444],[-86.0992,37.96455],[-86.09914,37.96467],[-86.09908,37.96478],[-86.09901,37.96492],[-86.09895,37.96504],[-86.09892,37.96511],[-86.09889,37.96517],[-86.09885,37.96528],[-86.09884,37.9653],[-86.09877,37.96546],[-86.0987,37.96563],[-86.09867,37.9657],[-86.09864,37.9658],[-86.09862,37.96584],[-86.09856,37.96598],[-86.0985,37.96612],[-86.09849,37.96614],[-86.09844,37.96625],[-86.09837,37.96638],[-86.09832,37.96647],[-86.09831,37.96649],[-86.09824,37.96659],[-86.09818,37.9667],[-86.09812,37.96681],[-86.09808,37.96691],[-86.09807,37.96697],[-86.09806,37.96702],[-86.09807,37.96714],[-86.09807,37.96715],[-86.09808,37.96717],[-86.09811,37.96726],[-86.09815,37.96732],[-86.09817,37.96736],[-86.09826,37.96745],[-86.09828,37.96747],[-86.09837,37.96754],[-86.09847,37.96762],[-86.09857,37.96771],[-86.09867,37.96779],[-86.09874,37.96786],[-86.09877,37.96789],[-86.09887,37.96798],[-86.09889,37.968],[-86.09903,37.96814],[-86.09907,37.96819],[-86.09916,37.96829],[-86.09917,37.96829],[-86.09927,37.9684],[-86.09937,37.96852],[-86.09955,37.96873],[-86.09957,37.96876],[-86.09967,37.96888],[-86.09979,37.96904],[-86.09986,37.96912],[-86.09994,37.96923],[-86.10002,37.96935],[-86.10008,37.96946],[-86.10012,37.96957],[-86.10015,37.96968],[-86.10017,37.96979],[-86.10017,37.96987],[-86.10017,37.96987],[-86.10038,37.9699],[-86.10046,37.96991],[-86.10055,37.96992],[-86.10065,37.96992],[-86.10075,37.96993],[-86.10089,37.96996],[-86.10097,37.96997],[-86.10109,37.96999],[-86.1012,37.97002],[-86.10127,37.97004],[-86.10131,37.97006],[-86.10142,37.9701],[-86.10147,37.97013],[-86.10153,37.97016],[-86.10162,37.97023],[-86.10171,37.97031],[-86.10178,37.97039],[-86.10179,37.9704],[-86.10185,37.97049],[-86.10191,37.97058],[-86.10196,37.97068],[-86.10199,37.97072],[-86.102,37.97077],[-86.10203,37.97082],[-86.10206,37.97086],[-86.10215,37.97094],[-86.10225,37.97101],[-86.10235,37.97107],[-86.10237,37.97107],[-86.10249,37.97112],[-86.10263,37.97114],[-86.10276,37.97116],[-86.10289,37.97117],[-86.10304,37.97117],[-86.10318,37.97117],[-86.10332,37.97115],[-86.10342,37.97114],[-86.10346,37.97113],[-86.10359,37.9711],[-86.10372,37.97106],[-86.10383,37.97101],[-86.10395,37.97096],[-86.10403,37.9709],[-86.10403,37.9709],[-86.10414,37.97097],[-86.10416,37.97099],[-86.10428,37.97107],[-86.10432,37.97109],[-86.10435,37.97111],[-86.10448,37.97123],[-86.10455,37.97129],[-86.10463,37.97135],[-86.1047,37.97141],[-86.10478,37.97148],[-86.10481,37.97151],[-86.10486,37.97155],[-86.10494,37.97162],[-86.10502,37.97168],[-86.10511,37.97174],[-86.10514,37.97176],[-86.1052,37.9718],[-86.10529,37.97185],[-86.10541,37.9719],[-86.10551,37.97194],[-86.10553,37.97194],[-86.1056,37.97197],[-86.10572,37.97201],[-86.10583,37.97204],[-86.10583,37.97204],[-86.10585,37.97219],[-86.10585,37.9722],[-86.10587,37.97225],[-86.10588,37.97231],[-86.1059,37.97238],[-86.1059,37.9724],[-86.10593,37.97247],[-86.10597,37.97254],[-86.10597,37.97255],[-86.10602,37.97262],[-86.10607,37.97269],[-86.10611,37.97276],[-86.10617,37.97282],[-86.1062,37.97286],[-86.10627,37.97293],[-86.10631,37.97298],[-86.10634,37.973],[-86.10636,37.97302],[-86.10641,37.97306],[-86.10644,37.97308],[-86.10649,37.97312],[-86.10651,37.97313],[-86.10651,37.97313],[-86.10663,37.97305],[-86.10667,37.97302],[-86.10673,37.973],[-86.10686,37.97293],[-86.10688,37.97292],[-86.10694,37.97289],[-86.10702,37.97286],[-86.10712,37.97283],[-86.10723,37.9728],[-86.10734,37.97278],[-86.10745,37.97275],[-86.10752,37.97274],[-86.10757,37.97273],[-86.10769,37.97272],[-86.1078,37.9727],[-86.1079,37.97269],[-86.10792,37.97269],[-86.10804,37.97267],[-86.10817,37.97266],[-86.1083,37.97265],[-86.1086,37.97264],[-86.10887,37.97265],[-86.109,37.97265],[-86.10903,37.97266],[-86.10913,37.97266],[-86.10926,37.97267],[-86.10939,37.97268]]}}]}