{"type":"FeatureCollection","features":[{"type":"Feature","properties":{"_gpxType":"trk","name":"158 Bent Pine Lane, Brandenburg, KY - 201 W Main St, Cloverport, KY 40111","coordinateProperties":{},"id":26},"geometry":{"type":"LineString","coordinates":[[-86.10939,37.97268],[-86.10926,37.97267],[-86.10913,37.97266],[-86.10903,37.97266],[-86.109,37.97265],[-86.10887,37.97265],[-86.1086,37.97264],[-86.1083,37.97265],[-86.10817,37.97266],[-86.10804,37.97267],[-86.10792,37.97269],[-86.1079,37.97269],[-86.1078,37.9727],[-86.10769,37.97272],[-86.10757,37.97273],[-86.10752,37.97274],[-86.10745,37.97275],[-86.10734,37.97278],[-86.10723,37.9728],[-86.10712,37.97283],[-86.10702,37.97286],[-86.10694,37.97289],[-86.10688,37.97292],[-86.10686,37.97293],[-86.10673,37.973],[-86.10667,37.97302],[-86.10663,37.97305],[-86.10651,37.97313],[-86.10651,37.97313],[-86.10649,37.97312],[-86.10644,37.97308],[-86.10641,37.97306],[-86.10636,37.97302],[-86.10634,37.973],[-86.10631,37.97298],[-86.10627,37.97293],[-86.1062,37.97286],[-86.10617,37.97282],[-86.10611,37.97276],[-86.10607,37.97269],[-86.10602,37.97262],[-86.10597,37.97255],[-86.10597,37.97254],[-86.10593,37.97247],[-86.1059,37.9724],[-86.1059,37.97238],[-86.10588,37.97231],[-86.10587,37.97225],[-86.10585,37.9722],[-86.10585,37.97219],[-86.10583,37.97204],[-86.10583,37.97204],[-86.10572,37.97201],[-86.1056,37.97197],[-86.10553,37.97194],[-86.10551,37.97194],[-86.10541,37.9719],[-86.10529,37.97185],[-86.1052,37.9718],[-86.10514,37.97176],[-86.10511,37.97174],[-86.10502,37.97168],[-86.10494,37.97162],[-86.10486,37.97155],[-86.10481,37.97151],[-86.10478,37.97148],[-86.1047,37.97141],[-86.10463,37.97135],[-86.10455,37.97129],[-86.10448,37.97123],[-86.10435,37.97111],[-86.10432,37.97109],[-86.10428,37.97107],[-86.10416,37.97099],[-86.10414,37.97097],[-86.10403,37.9709],[-86.10403,37.9709],[-86.10395,37.97096],[-86.10383,37.97101],[-86.10372,37.97106],[-86.10359,37.9711],[-86.10346,37.97113],[-86.10342,37.97114],[-86.10332,37.97115],[-86.10318,37.97117],[-86.10304,37.97117],[-86.10289,37.97117],[-86.10276,37.97116],[-86.10263,37.97114],[-86.10249,37.97112],[-86.10237,37.97107],[-86.10235,37.97107],[-86.10225,37.97101],[-86.10215,37.97094],[-86.10206,37.97086],[-86.10203,37.97082],[-86.102,37.97077],[-86.10199,37.97072],[-86.10196,37.97068],[-86.10191,37.97058],[-86.10185,37.97049],[-86.10179,37.9704],[-86.10178,37.97039],[-86.10171,37.97031],[-86.10162,37.97023],[-86.10153,37.97016],[-86.10147,37.97013],[-86.10142,37.9701],[-86.10131,37.97006],[-86.10127,37.97004],[-86.1012,37.97002],[-86.10109,37.96999],[-86.10097,37.96997],[-86.10089,37.96996],[-86.10075,37.96993],[-86.10065,37.96992],[-86.10055,37.96992],[-86.10046,37.96991],[-86.10038,37.9699],[-86.10017,37.96987],[-86.10017,37.96987],[-86.10017,37.96979],[-86.10015,37.96968],[-86.10012,37.96957],[-86.10008,37.96946],[-86.10002,37.96935],[-86.09994,37.96923],[-86.09986,37.96912],[-86.09979,37.96904],[-86.09967,37.96888],[-86.09957,37.96876],[-86.09955,37.96873],[-86.09937,37.96852],[-86.09927,37.9684],[-86.09917,37.96829],[-86.09916,37.96829],[-86.09907,37.96819],[-86.09903,37.96814],[-86.09889,37.968],[-86.09887,37.96798],[-86.09877,37.96789],[-86.09874,37.96786],[-86.09867,37.96779],[-86.09857,37.96771],[-86.09847,37.96762],[-86.09837,37.96754],[-86.09828,37.96747],[-86.09826,37.96745],[-86.09817,37.96736],[-86.09815,37.96732],[-86.09811,37.96726],[-86.09808,37.96717],[-86.09807,37.96715],[-86.09807,37.96714],[-86.09806,37.96702],[-86.09807,37.96697],[-86.09808,37.96691],[-86.09812,37.96681],[-86.09818,37.9667],[-86.09824,37.96659],[-86.09831,37.96649],[-86.09832,37.96647],[-86.09837,37.96638],[-86.09844,37.96625],[-86.09849,37.96614],[-86.0985,37.96612],[-86.09856,37.96598],[-86.09862,37.96584],[-86.09864,37.9658],[-86.09867,37.9657],[-86.0987,37.96563],[-86.09877,37.96546],[-86.09884,37.9653],[-86.09885,37.96528],[-86.09889,37.96517],[-86.09892,37.96511],[-86.09895,37.96504],[-86.09901,37.96492],[-86.09908,37.96478],[-86.09914,37.96467],[-86.0992,37.96455],[-86.09925,37.96444],[-86.09925,37.96443],[-86.0993,37.9643],[-86.09934,37.96417],[-86.09935,37.96409],[-86.09937,37.96404],[-86.09938,37.96389],[-86.0994,37.96374],[-86.09942,37.96358],[-86.09943,37.96356],[-86.09946,37.96341],[-86.0995,37.96326],[-86.09952,37.96313],[-86.09957,37.96298],[-86.09963,37.96286],[-86.09963,37.96285],[-86.09971,37.96271],[-86.09972,37.96269],[-86.0998,37.96257],[-86.0999,37.96245],[-86.09995,37.96238],[-86.1,37.96233],[-86.10007,37.96223],[-86.1001,37.96219],[-86.10021,37.96208],[-86.10031,37.96196],[-86.10033,37.96193],[-86.10041,37.96182],[-86.10052,37.96168],[-86.10061,37.96154],[-86.10068,37.96147],[-86.10073,37.96141],[-86.10084,37.96127],[-86.10093,37.96117],[-86.10096,37.96113],[-86.101,37.96108],[-86.10105,37.96102],[-86.1012,37.96084],[-86.10131,37.96072],[-86.10133,37.9607],[-86.10145,37.96055],[-86.10156,37.96042],[-86.10158,37.96041],[-86.10181,37.96012],[-86.10193,37.95998],[-86.10194,37.95997],[-86.10205,37.95985],[-86.10207,37.95982],[-86.10216,37.95972],[-86.10217,37.95971],[-86.10248,37.95935],[-86.10268,37.95912],[-86.10278,37.959],[-86.10288,37.95887],[-86.10297,37.95875],[-86.10301,37.95869],[-86.10306,37.95862],[-86.10314,37.95849],[-86.10322,37.95837],[-86.1033,37.95824],[-86.10332,37.9582],[-86.10338,37.95811],[-86.10346,37.95798],[-86.10354,37.95785],[-86.10361,37.95772],[-86.10362,37.95772],[-86.10362,37.95771],[-86.10369,37.95758],[-86.10375,37.95744],[-86.10377,37.95738],[-86.1038,37.95731],[-86.10384,37.95716],[-86.10389,37.95702],[-86.10393,37.95687],[-86.10397,37.95671],[-86.10402,37.95658],[-86.10404,37.95651],[-86.10411,37.95627],[-86.10421,37.95599],[-86.10427,37.95584],[-86.10428,37.95581],[-86.10431,37.9557],[-86.10434,37.95564],[-86.10439,37.95556],[-86.10443,37.95548],[-86.10444,37.95547],[-86.10446,37.95543],[-86.10455,37.95529],[-86.10464,37.95516],[-86.10474,37.95505],[-86.10492,37.95488],[-86.10495,37.95485],[-86.10496,37.95484],[-86.10496,37.95484],[-86.10456,37.95468],[-86.10413,37.95451],[-86.10413,37.95451],[-86.10425,37.95428],[-86.10431,37.95418],[-86.10434,37.95411],[-86.10442,37.95397],[-86.10443,37.95395],[-86.10449,37.95383],[-86.10452,37.95378],[-86.10466,37.95352],[-86.1047,37.95345],[-86.10494,37.95301],[-86.10497,37.95295],[-86.10507,37.95279],[-86.10507,37.95279],[-86.10462,37.95268],[-86.10421,37.95257],[-86.10418,37.95256],[-86.10388,37.95248],[-86.10358,37.95241],[-86.10255,37.95216],[-86.10247,37.95213],[-86.10215,37.95206],[-86.1016,37.95192],[-86.10119,37.95182],[-86.10083,37.95174],[-86.10003,37.95154],[-86.09941,37.95139],[-86.09919,37.95133],[-86.09873,37.95122],[-86.0981,37.95106],[-86.09746,37.95091],[-86.09743,37.9509],[-86.09681,37.95075],[-86.09657,37.95069],[-86.09634,37.95063],[-86.09609,37.95057],[-86.0958,37.9505],[-86.09542,37.9504],[-86.09528,37.95036],[-86.09506,37.95029],[-86.09493,37.95025],[-86.09477,37.95019],[-86.09466,37.95015],[-86.09463,37.95013],[-86.09449,37.95008],[-86.09429,37.94999],[-86.09417,37.94993],[-86.09403,37.94987],[-86.09403,37.94987],[-86.09404,37.94975],[-86.09406,37.94969],[-86.09407,37.94967],[-86.09409,37.94961],[-86.09411,37.94955],[-86.09413,37.94946],[-86.09415,37.94936],[-86.09415,37.94934],[-86.09418,37.94925],[-86.0942,37.94916],[-86.09421,37.94913],[-86.09425,37.949],[-86.09425,37.94899],[-86.09426,37.94895],[-86.09431,37.94881],[-86.09434,37.94871],[-86.09436,37.94864],[-86.09439,37.94856],[-86.09448,37.94825],[-86.09449,37.94821],[-86.09452,37.94811],[-86.09452,37.9481],[-86.09456,37.94795],[-86.09461,37.94776],[-86.09463,37.94768],[-86.09465,37.94758],[-86.09467,37.9475],[-86.09471,37.94736],[-86.09472,37.94732],[-86.09474,37.94721],[-86.09478,37.94706],[-86.09478,37.94705],[-86.09483,37.94688],[-86.09485,37.94679],[-86.09486,37.94675],[-86.09487,37.9467],[-86.09489,37.94662],[-86.0949,37.9466],[-86.09492,37.94652],[-86.09494,37.94644],[-86.09496,37.94635],[-86.09497,37.94629],[-86.09504,37.94599],[-86.09505,37.94597],[-86.09506,37.94591],[-86.09508,37.94581],[-86.09512,37.94565],[-86.09516,37.94549],[-86.09519,37.94533],[-86.0952,37.94528],[-86.09521,37.9452],[-86.09522,37.94517],[-86.09523,37.94511],[-86.09524,37.94502],[-86.09525,37.94493],[-86.09526,37.94486],[-86.09526,37.94484],[-86.09526,37.94475],[-86.09527,37.94471],[-86.09527,37.94455],[-86.09527,37.94448],[-86.09527,37.94439],[-86.09527,37.9443],[-86.09528,37.94423],[-86.09528,37.94421],[-86.09529,37.94359],[-86.09529,37.94349],[-86.09529,37.94341],[-86.09529,37.9433],[-86.09528,37.94317],[-86.09527,37.94305],[-86.09525,37.94292],[-86.09523,37.94281],[-86.09521,37.94269],[-86.0952,37.94257],[-86.09521,37.94256],[-86.09522,37.94245],[-86.09525,37.94239],[-86.09527,37.94233],[-86.09533,37.94222],[-86.09534,37.94221],[-86.09542,37.94209],[-86.09552,37.94196],[-86.09563,37.94184],[-86.0957,37.94177],[-86.09575,37.94172],[-86.09587,37.9416],[-86.09598,37.94148],[-86.09612,37.94134],[-86.09622,37.94124],[-86.09639,37.94105],[-86.09644,37.941],[-86.09655,37.94088],[-86.09666,37.94076],[-86.09674,37.94069],[-86.09685,37.94059],[-86.09694,37.94048],[-86.09699,37.94035],[-86.097,37.94031],[-86.09703,37.94022],[-86.09705,37.9401],[-86.09705,37.93998],[-86.09705,37.93995],[-86.09705,37.9399],[-86.09705,37.93985],[-86.09706,37.93976],[-86.09706,37.93972],[-86.09707,37.93959],[-86.09709,37.93945],[-86.0971,37.93941],[-86.09712,37.9393],[-86.09714,37.93923],[-86.09716,37.93915],[-86.09718,37.93905],[-86.0972,37.93899],[-86.09724,37.93888],[-86.09725,37.93884],[-86.09731,37.9387],[-86.09738,37.93855],[-86.09756,37.93821],[-86.0976,37.93813],[-86.09765,37.93804],[-86.09768,37.93799],[-86.09775,37.93785],[-86.09783,37.93771],[-86.0979,37.93757],[-86.09791,37.93754],[-86.09803,37.93729],[-86.0981,37.93716],[-86.09816,37.93704],[-86.09823,37.93697],[-86.09828,37.93691],[-86.09833,37.93684],[-86.09837,37.93678],[-86.09843,37.93671],[-86.09845,37.93668],[-86.09853,37.93655],[-86.09854,37.93654],[-86.09873,37.93629],[-86.09876,37.93624],[-86.09882,37.93615],[-86.09887,37.93608],[-86.09892,37.936],[-86.09896,37.93591],[-86.099,37.93584],[-86.09904,37.93575],[-86.09907,37.93568],[-86.0992,37.93541],[-86.09921,37.93537],[-86.09927,37.93524],[-86.09928,37.93523],[-86.09936,37.93506],[-86.0994,37.93497],[-86.09944,37.93488],[-86.09948,37.9348],[-86.09954,37.93466],[-86.0996,37.93453],[-86.0997,37.93431],[-86.09972,37.93427],[-86.09983,37.93402],[-86.09986,37.93397],[-86.09989,37.9339],[-86.09993,37.9338],[-86.09994,37.93378],[-86.09998,37.93365],[-86.09999,37.93363],[-86.10002,37.93353],[-86.10003,37.93345],[-86.10004,37.9334],[-86.10005,37.93328],[-86.10005,37.93327],[-86.10007,37.93315],[-86.10008,37.93302],[-86.10009,37.93291],[-86.10011,37.93281],[-86.10014,37.93274],[-86.10019,37.93259],[-86.1002,37.93257],[-86.10029,37.93241],[-86.10029,37.9324],[-86.10045,37.93212],[-86.10047,37.93207],[-86.10053,37.93197],[-86.10057,37.93191],[-86.10059,37.93188],[-86.10065,37.93174],[-86.10072,37.93162],[-86.10075,37.93158],[-86.10079,37.9315],[-86.10086,37.93138],[-86.10092,37.93126],[-86.10092,37.93125],[-86.10098,37.93114],[-86.10104,37.93103],[-86.10109,37.93091],[-86.1011,37.93091],[-86.10115,37.93083],[-86.10119,37.93075],[-86.1012,37.93073],[-86.10126,37.93063],[-86.10129,37.93059],[-86.10131,37.93054],[-86.10136,37.93043],[-86.10142,37.93033],[-86.10155,37.93009],[-86.10158,37.93003],[-86.10163,37.92992],[-86.10168,37.9298],[-86.10172,37.92975],[-86.10173,37.92975],[-86.10177,37.92966],[-86.10181,37.92958],[-86.10184,37.92951],[-86.10188,37.92945],[-86.10191,37.9294],[-86.10195,37.92933],[-86.10199,37.92926],[-86.10199,37.92926],[-86.1023,37.92938],[-86.1029,37.92962],[-86.1031,37.9297],[-86.10324,37.92976],[-86.10406,37.93007],[-86.10422,37.93013],[-86.10435,37.93018],[-86.10442,37.9302],[-86.10449,37.93021],[-86.10459,37.93024],[-86.10469,37.93025],[-86.10477,37.93025],[-86.10484,37.93025],[-86.10491,37.93025],[-86.105,37.93024],[-86.10504,37.93024],[-86.10519,37.93023],[-86.10532,37.93021],[-86.10542,37.93019],[-86.10551,37.93017],[-86.10565,37.93013],[-86.10577,37.93009],[-86.10587,37.93005],[-86.10589,37.93004],[-86.10606,37.92995],[-86.10607,37.92994],[-86.10629,37.92981],[-86.10663,37.92965],[-86.10669,37.92962],[-86.10701,37.92945],[-86.10711,37.9294],[-86.10743,37.92922],[-86.10753,37.92917],[-86.1076,37.92914],[-86.10767,37.92912],[-86.10774,37.92909],[-86.10801,37.92904],[-86.10815,37.929],[-86.10836,37.92893],[-86.1086,37.92882],[-86.10888,37.92868],[-86.10889,37.92867],[-86.10909,37.92858],[-86.10987,37.92821],[-86.10999,37.92815],[-86.11084,37.92774],[-86.11098,37.92767],[-86.11104,37.92764],[-86.11143,37.92746],[-86.11159,37.92738],[-86.11182,37.92727],[-86.11199,37.92718],[-86.1124,37.92698],[-86.1125,37.92694],[-86.11279,37.9268],[-86.11284,37.92678],[-86.11299,37.92671],[-86.11318,37.92661],[-86.11357,37.92642],[-86.11376,37.92633],[-86.11385,37.92629],[-86.11395,37.92623],[-86.11428,37.92607],[-86.11457,37.92593],[-86.11473,37.92585],[-86.11492,37.92576],[-86.11502,37.92571],[-86.1153,37.92557],[-86.11531,37.92556],[-86.1155,37.92547],[-86.11574,37.92535],[-86.11605,37.92519],[-86.11612,37.92516],[-86.11621,37.92512],[-86.11642,37.92502],[-86.11686,37.9248],[-86.11689,37.92478],[-86.11709,37.92468],[-86.1172,37.92463],[-86.11786,37.9243],[-86.11806,37.9242],[-86.11832,37.92407],[-86.11839,37.92404],[-86.11852,37.92398],[-86.11863,37.92392],[-86.11926,37.92359],[-86.11928,37.92358],[-86.11947,37.92349],[-86.11963,37.92341],[-86.12001,37.92322],[-86.12025,37.92311],[-86.12077,37.92283],[-86.12095,37.92274],[-86.12096,37.92273],[-86.12112,37.9226],[-86.12128,37.92248],[-86.12146,37.92234],[-86.12161,37.92223],[-86.12179,37.9221],[-86.12205,37.92194],[-86.12215,37.9219],[-86.12234,37.9218],[-86.12273,37.92162],[-86.12295,37.92156],[-86.12301,37.92154],[-86.12316,37.92149],[-86.12324,37.92145],[-86.12346,37.92133],[-86.12353,37.92128],[-86.12385,37.92101],[-86.12395,37.92096],[-86.12401,37.92093],[-86.12403,37.92092],[-86.12409,37.92089],[-86.12419,37.92086],[-86.12432,37.92082],[-86.12441,37.92079],[-86.12443,37.92079],[-86.1245,37.92076],[-86.12459,37.92073],[-86.12461,37.92072],[-86.12463,37.92071],[-86.12469,37.92069],[-86.1248,37.92063],[-86.12509,37.92044],[-86.12532,37.92027],[-86.12534,37.92025],[-86.1255,37.92013],[-86.12565,37.92002],[-86.12567,37.92001],[-86.12616,37.91964],[-86.12631,37.91952],[-86.12633,37.91951],[-86.1265,37.91939],[-86.12666,37.91926],[-86.12674,37.91921],[-86.12681,37.91915],[-86.12683,37.91914],[-86.127,37.91902],[-86.12715,37.91891],[-86.12717,37.9189],[-86.1275,37.91866],[-86.1275,37.91866],[-86.12758,37.91863],[-86.12762,37.91862],[-86.12765,37.91861],[-86.12774,37.9186],[-86.12788,37.91858],[-86.1279,37.91858],[-86.12808,37.91857],[-86.12828,37.91855],[-86.12833,37.91854],[-86.12856,37.91851],[-86.12859,37.91851],[-86.12868,37.91849],[-86.12877,37.91845],[-86.12885,37.91841],[-86.12891,37.91834],[-86.12897,37.91827],[-86.129,37.91818],[-86.12903,37.91808],[-86.12905,37.91797],[-86.12908,37.91786],[-86.1291,37.91773],[-86.12911,37.91763],[-86.12912,37.91759],[-86.12914,37.91745],[-86.12916,37.9173],[-86.12917,37.91727],[-86.12919,37.91715],[-86.1292,37.91709],[-86.12922,37.91699],[-86.12925,37.91684],[-86.12928,37.91674],[-86.12929,37.91667],[-86.12932,37.91651],[-86.12935,37.91635],[-86.12939,37.91618],[-86.12951,37.91552],[-86.12955,37.91531],[-86.12957,37.9152],[-86.1296,37.91504],[-86.12962,37.91496],[-86.12963,37.91487],[-86.1297,37.9144],[-86.12976,37.91388],[-86.12976,37.91384],[-86.12978,37.9137],[-86.12982,37.91326],[-86.12991,37.91255],[-86.12994,37.91208],[-86.13001,37.91155],[-86.13003,37.91145],[-86.13004,37.91138],[-86.1301,37.911],[-86.13014,37.9107],[-86.13014,37.91066],[-86.13017,37.91048],[-86.1302,37.91032],[-86.13024,37.91013],[-86.13026,37.91002],[-86.13029,37.90995],[-86.13036,37.9098],[-86.13037,37.90978],[-86.13047,37.90962],[-86.13047,37.90962],[-86.13068,37.90967],[-86.13069,37.90967],[-86.13075,37.90969],[-86.13085,37.9097],[-86.13091,37.90971],[-86.13097,37.90971],[-86.13112,37.90973],[-86.13114,37.90973],[-86.13129,37.90974],[-86.13137,37.90974],[-86.13148,37.90975],[-86.13159,37.90976],[-86.13182,37.90978],[-86.13188,37.90978],[-86.1323,37.90981],[-86.13251,37.90982],[-86.13273,37.90984],[-86.13313,37.90986],[-86.13318,37.90987],[-86.13369,37.9099],[-86.13392,37.90992],[-86.1341,37.90994],[-86.13428,37.90995],[-86.13462,37.90998],[-86.13482,37.90999],[-86.13501,37.91],[-86.1353,37.91003],[-86.13557,37.91005],[-86.13576,37.91006],[-86.13595,37.91007],[-86.13598,37.91007],[-86.13613,37.91009],[-86.13666,37.91013],[-86.13689,37.91015],[-86.13711,37.91016],[-86.13723,37.91017],[-86.13758,37.9102],[-86.13802,37.91023],[-86.13826,37.91025],[-86.13842,37.91025],[-86.13858,37.91026],[-86.13873,37.91028],[-86.13887,37.91028],[-86.13901,37.9103],[-86.13915,37.9103],[-86.13916,37.9103],[-86.13944,37.91029],[-86.13958,37.91027],[-86.13983,37.91021],[-86.13996,37.91018],[-86.14004,37.91015],[-86.14019,37.91009],[-86.14025,37.91007],[-86.14039,37.91003],[-86.14046,37.91001],[-86.14062,37.90996],[-86.14066,37.90993],[-86.14076,37.90985],[-86.1408,37.90979],[-86.14085,37.90971],[-86.14087,37.90962],[-86.14089,37.90955],[-86.14091,37.90946],[-86.14091,37.90944],[-86.14093,37.90926],[-86.14095,37.90916],[-86.14099,37.90893],[-86.14099,37.90891],[-86.14103,37.90873],[-86.14106,37.90858],[-86.14106,37.90855],[-86.14108,37.90846],[-86.1411,37.90837],[-86.14111,37.90833],[-86.14112,37.90822],[-86.14113,37.90819],[-86.14115,37.9081],[-86.14117,37.90798],[-86.1412,37.90786],[-86.14123,37.90774],[-86.14124,37.90766],[-86.14125,37.90762],[-86.14127,37.9075],[-86.14127,37.90748],[-86.1413,37.90738],[-86.14133,37.90727],[-86.14134,37.90716],[-86.14137,37.90706],[-86.14137,37.90701],[-86.14139,37.90696],[-86.14139,37.90695],[-86.14141,37.90687],[-86.14144,37.90679],[-86.14144,37.90678],[-86.14147,37.90671],[-86.14151,37.90664],[-86.14156,37.90658],[-86.14163,37.90653],[-86.1417,37.9065],[-86.14171,37.9065],[-86.1418,37.90649],[-86.1419,37.90649],[-86.142,37.9065],[-86.14212,37.90651],[-86.14215,37.90652],[-86.14225,37.90653],[-86.14239,37.90655],[-86.14253,37.90657],[-86.14268,37.90659],[-86.14283,37.9066],[-86.14313,37.90664],[-86.14328,37.90666],[-86.1435,37.90668],[-86.14357,37.90669],[-86.14372,37.90671],[-86.14387,37.90673],[-86.14395,37.90674],[-86.14403,37.90675],[-86.1442,37.90676],[-86.14436,37.90676],[-86.14441,37.90675],[-86.14453,37.90675],[-86.14464,37.90673],[-86.1447,37.90673],[-86.14486,37.9067],[-86.14495,37.90669],[-86.14503,37.90667],[-86.14519,37.90665],[-86.14553,37.90659],[-86.14575,37.90656],[-86.14598,37.90652],[-86.14599,37.90652],[-86.14632,37.90647],[-86.14665,37.90642],[-86.14732,37.90633],[-86.14745,37.90631],[-86.14755,37.9063],[-86.14775,37.90627],[-86.14777,37.90627],[-86.148,37.90623],[-86.14822,37.9062],[-86.14829,37.90619],[-86.14841,37.90618],[-86.14853,37.90616],[-86.14863,37.90613],[-86.14866,37.90612],[-86.14877,37.90609],[-86.14887,37.90604],[-86.14892,37.90602],[-86.14903,37.90596],[-86.14905,37.90594],[-86.14923,37.90583],[-86.14926,37.90581],[-86.1494,37.90571],[-86.14949,37.90565],[-86.14957,37.90559],[-86.14971,37.90551],[-86.14975,37.90548],[-86.14981,37.90544],[-86.14991,37.90538],[-86.14993,37.90537],[-86.15001,37.90533],[-86.15011,37.90528],[-86.15012,37.90527],[-86.1502,37.90524],[-86.15029,37.9052],[-86.15039,37.90517],[-86.15048,37.90514],[-86.15054,37.90513],[-86.15056,37.90512],[-86.15072,37.90509],[-86.15085,37.90506],[-86.15091,37.90505],[-86.15095,37.90503],[-86.15102,37.90501],[-86.15109,37.90499],[-86.15109,37.90499],[-86.15104,37.90494],[-86.15099,37.90484],[-86.15098,37.90483],[-86.15095,37.90474],[-86.15094,37.90463],[-86.15094,37.90452],[-86.15095,37.90447],[-86.15096,37.9044],[-86.15097,37.90429],[-86.151,37.90412],[-86.15103,37.90389],[-86.15105,37.90376],[-86.15108,37.90358],[-86.1511,37.90349],[-86.15113,37.90335],[-86.15116,37.90322],[-86.15116,37.90321],[-86.15124,37.90293],[-86.15124,37.90291],[-86.15129,37.90275],[-86.15134,37.90257],[-86.15138,37.90243],[-86.15143,37.90229],[-86.15144,37.90222],[-86.15147,37.90213],[-86.15149,37.90205],[-86.15151,37.90198],[-86.15153,37.90187],[-86.15154,37.90182],[-86.15156,37.90169],[-86.15157,37.90166],[-86.1516,37.90152],[-86.15164,37.90134],[-86.15166,37.90119],[-86.15166,37.90116],[-86.15168,37.90104],[-86.15169,37.90098],[-86.1517,37.9009],[-86.15171,37.90082],[-86.15174,37.90046],[-86.15177,37.90019],[-86.15178,37.9001],[-86.15178,37.90005],[-86.15181,37.8999],[-86.15183,37.89976],[-86.15185,37.89963],[-86.15188,37.8995],[-86.15192,37.89937],[-86.15198,37.89922],[-86.15203,37.89911],[-86.15209,37.89897],[-86.15215,37.89883],[-86.15218,37.89877],[-86.15221,37.89869],[-86.15234,37.89842],[-86.15245,37.89821],[-86.15255,37.89802],[-86.15263,37.89787],[-86.1527,37.89773],[-86.15271,37.89771],[-86.15277,37.89758],[-86.15282,37.89748],[-86.1529,37.89731],[-86.15292,37.89728],[-86.15298,37.89714],[-86.15298,37.89713],[-86.15305,37.89697],[-86.15311,37.89683],[-86.15318,37.89668],[-86.1532,37.89663],[-86.15325,37.89652],[-86.15328,37.89646],[-86.15333,37.89637],[-86.1534,37.89623],[-86.15345,37.89613],[-86.15348,37.89608],[-86.15353,37.89596],[-86.15355,37.89594],[-86.15363,37.8958],[-86.15369,37.89565],[-86.15376,37.8955],[-86.15378,37.89545],[-86.15383,37.89535],[-86.1539,37.8952],[-86.15398,37.89505],[-86.15406,37.8949],[-86.15414,37.89476],[-86.15421,37.8946],[-86.15429,37.89445],[-86.15438,37.89428],[-86.15444,37.89415],[-86.15446,37.89411],[-86.15452,37.894],[-86.15459,37.89384],[-86.15463,37.89378],[-86.15467,37.89369],[-86.15471,37.89361],[-86.15475,37.89353],[-86.1548,37.89344],[-86.15498,37.89311],[-86.15515,37.89278],[-86.15523,37.89263],[-86.15537,37.89238],[-86.15545,37.89223],[-86.15551,37.89211],[-86.15554,37.89205],[-86.15557,37.89198],[-86.1556,37.89187],[-86.15561,37.89185],[-86.15564,37.89172],[-86.15567,37.89158],[-86.15571,37.89134],[-86.15577,37.89098],[-86.15577,37.89097],[-86.15584,37.89065],[-86.15587,37.89056],[-86.15588,37.89049],[-86.15591,37.89038],[-86.15593,37.89034],[-86.15598,37.89018],[-86.15603,37.89003],[-86.1561,37.88988],[-86.15614,37.88977],[-86.15617,37.88973],[-86.15624,37.88959],[-86.15627,37.88953],[-86.1563,37.88945],[-86.15637,37.88932],[-86.15653,37.88903],[-86.15662,37.88886],[-86.15663,37.88884],[-86.15669,37.8887],[-86.15674,37.88859],[-86.15675,37.88855],[-86.15675,37.88852],[-86.15675,37.88851],[-86.15674,37.88847],[-86.15673,37.88844],[-86.15673,37.88844],[-86.15695,37.88841],[-86.15695,37.88841],[-86.15697,37.88831],[-86.15699,37.88824],[-86.157,37.88823],[-86.15704,37.88814],[-86.15707,37.88806],[-86.15716,37.88789],[-86.1572,37.88781],[-86.15722,37.88774],[-86.15724,37.88768],[-86.15726,37.88761],[-86.15728,37.88755],[-86.1573,37.88748],[-86.15731,37.88742],[-86.15732,37.88737],[-86.15734,37.88715],[-86.15734,37.88712],[-86.15735,37.88692],[-86.15736,37.88681],[-86.15736,37.88676],[-86.15736,37.8867],[-86.15736,37.8866],[-86.15735,37.88655],[-86.15736,37.88651],[-86.15736,37.88648],[-86.15736,37.88645],[-86.15737,37.88642],[-86.15738,37.88639],[-86.1574,37.88636],[-86.15741,37.88634],[-86.15743,37.88631],[-86.15745,37.88629],[-86.15747,37.88627],[-86.15749,37.88626],[-86.15752,37.88624],[-86.15756,37.88621],[-86.15766,37.88615],[-86.15771,37.88612],[-86.15778,37.88608],[-86.1579,37.886],[-86.15792,37.88599],[-86.15802,37.88591],[-86.15809,37.88586],[-86.15815,37.88581],[-86.15829,37.88571],[-86.15841,37.88561],[-86.15842,37.8856],[-86.15865,37.88541],[-86.15867,37.88539],[-86.1588,37.88527],[-86.15892,37.88517],[-86.15911,37.88501],[-86.1592,37.88495],[-86.15934,37.88483],[-86.15951,37.88467],[-86.15962,37.88458],[-86.15967,37.88454],[-86.15991,37.88433],[-86.15998,37.88428],[-86.16029,37.88402],[-86.16036,37.88396],[-86.16061,37.88375],[-86.16066,37.88371],[-86.16081,37.88359],[-86.16104,37.88339],[-86.1612,37.88326],[-86.16124,37.88323],[-86.16152,37.88299],[-86.16166,37.88287],[-86.16181,37.88273],[-86.16191,37.88263],[-86.16203,37.88251],[-86.16212,37.8824],[-86.16213,37.88238],[-86.16222,37.88225],[-86.1623,37.88211],[-86.16245,37.88183],[-86.1626,37.88154],[-86.16268,37.8814],[-86.16271,37.88133],[-86.16275,37.88125],[-86.16291,37.88096],[-86.16306,37.88067],[-86.16315,37.88052],[-86.16318,37.88047],[-86.16323,37.88038],[-86.16331,37.88024],[-86.16339,37.88009],[-86.16346,37.87995],[-86.16352,37.87981],[-86.16357,37.87969],[-86.16364,37.87952],[-86.16371,37.87936],[-86.16383,37.87909],[-86.16396,37.8788],[-86.16406,37.87858],[-86.1641,37.87851],[-86.16414,37.87841],[-86.16417,37.87837],[-86.16423,37.87824],[-86.16431,37.87808],[-86.16439,37.87794],[-86.1644,37.87791],[-86.16447,37.87779],[-86.16453,37.8777],[-86.16457,37.87766],[-86.16467,37.87753],[-86.16472,37.87747],[-86.16478,37.87741],[-86.16489,37.87729],[-86.16502,37.87717],[-86.16509,37.87712],[-86.16516,37.87707],[-86.16531,37.87696],[-86.16541,37.87688],[-86.16561,37.87673],[-86.16588,37.87653],[-86.1659,37.87651],[-86.16605,37.8764],[-86.16607,37.87638],[-86.16615,37.87632],[-86.16622,37.87625],[-86.16624,37.87624],[-86.16635,37.87615],[-86.16638,37.87613],[-86.16647,37.87606],[-86.16658,37.87599],[-86.16671,37.87592],[-86.16674,37.87591],[-86.16683,37.87587],[-86.16695,37.87582],[-86.16697,37.87581],[-86.16714,37.87577],[-86.16716,37.87576],[-86.1673,37.87572],[-86.16737,37.8757],[-86.16741,37.87568],[-86.16751,37.87564],[-86.16757,37.87561],[-86.16759,37.8756],[-86.16771,37.87553],[-86.16775,37.8755],[-86.16786,37.87544],[-86.16812,37.87527],[-86.16826,37.87518],[-86.16828,37.87516],[-86.16846,37.87505],[-86.16851,37.87502],[-86.16877,37.87487],[-86.16901,37.87473],[-86.16902,37.87473],[-86.16928,37.87457],[-86.16965,37.87433],[-86.16985,37.87421],[-86.16993,37.87417],[-86.17008,37.87408],[-86.17018,37.87402],[-86.17023,37.87399],[-86.17054,37.87383],[-86.17068,37.87374],[-86.17074,37.87371],[-86.17082,37.87366],[-86.17091,37.87359],[-86.17096,37.87356],[-86.17108,37.87347],[-86.1712,37.87338],[-86.17124,37.87334],[-86.17131,37.87328],[-86.17141,37.87318],[-86.17152,37.87308],[-86.17162,37.87298],[-86.17182,37.87278],[-86.1719,37.87268],[-86.17194,37.87264],[-86.17198,37.87259],[-86.17207,37.87248],[-86.17221,37.8723],[-86.17229,37.87221],[-86.17252,37.87191],[-86.17267,37.87172],[-86.17279,37.87157],[-86.17286,37.87147],[-86.173,37.8713],[-86.17314,37.87112],[-86.17315,37.87111],[-86.17333,37.87087],[-86.17339,37.8708],[-86.17342,37.87076],[-86.17347,37.8707],[-86.17356,37.87062],[-86.17367,37.87052],[-86.17368,37.87051],[-86.17384,37.8704],[-86.17397,37.87031],[-86.17401,37.87028],[-86.17409,37.87023],[-86.17417,37.87018],[-86.17419,37.87017],[-86.17425,37.87013],[-86.17433,37.87009],[-86.17437,37.87007],[-86.17439,37.87006],[-86.17444,37.87003],[-86.17461,37.86995],[-86.17476,37.86988],[-86.17488,37.86982],[-86.17488,37.86982],[-86.17495,37.86986],[-86.17501,37.86989],[-86.17506,37.86992],[-86.17512,37.86994],[-86.17536,37.87002],[-86.17549,37.87007],[-86.17557,37.8701],[-86.17569,37.87014],[-86.17581,37.87019],[-86.1759,37.87022],[-86.17594,37.87023],[-86.17606,37.87028],[-86.1761,37.8703],[-86.17618,37.87033],[-86.1763,37.87038],[-86.17644,37.87043],[-86.1767,37.87054],[-86.17671,37.87055],[-86.17684,37.8706],[-86.17695,37.87067],[-86.17706,37.87073],[-86.17717,37.8708],[-86.17727,37.87089],[-86.17737,37.87099],[-86.17739,37.87101],[-86.17747,37.87109],[-86.17753,37.87115],[-86.17758,37.8712],[-86.17767,37.8713],[-86.17768,37.87132],[-86.1778,37.87144],[-86.17791,37.87157],[-86.17803,37.87169],[-86.17814,37.87181],[-86.17821,37.87188],[-86.17848,37.87216],[-86.17859,37.87227],[-86.17871,37.87238],[-86.17876,37.87245],[-86.17881,37.8725],[-86.17898,37.87274],[-86.17906,37.87285],[-86.17913,37.87297],[-86.1792,37.87308],[-86.17927,37.87318],[-86.17931,37.87324],[-86.17934,37.87328],[-86.17943,37.87337],[-86.17952,37.87346],[-86.17964,37.87354],[-86.17977,37.87361],[-86.17993,37.87366],[-86.18,37.87369],[-86.1801,37.87371],[-86.18027,37.87376],[-86.18045,37.87381],[-86.18083,37.87391],[-86.18086,37.87392],[-86.18101,37.87397],[-86.18122,37.87402],[-86.18138,37.87407],[-86.18172,37.87416],[-86.1821,37.87427],[-86.1824,37.87436],[-86.18254,37.8744],[-86.18266,37.87443],[-86.18278,37.87446],[-86.18279,37.87447],[-86.18296,37.87452],[-86.183,37.87453],[-86.18304,37.87454],[-86.18309,37.87455],[-86.18315,37.87457],[-86.18322,37.87459],[-86.18328,37.87461],[-86.18336,37.87463],[-86.18359,37.8747],[-86.18365,37.87471],[-86.18372,37.87473],[-86.18386,37.87477],[-86.184,37.87481],[-86.18414,37.87485],[-86.18443,37.87494],[-86.1845,37.87496],[-86.18474,37.87503],[-86.18493,37.87508],[-86.18521,37.87516],[-86.18524,37.87517],[-86.18567,37.87529],[-86.18588,37.87536],[-86.18598,37.87539],[-86.18614,37.87544],[-86.18631,37.87549],[-86.18652,37.87555],[-86.18666,37.87559],[-86.18701,37.87569],[-86.18717,37.87573],[-86.18718,37.87573],[-86.18753,37.87582],[-86.1876,37.87584],[-86.18787,37.87591],[-86.18804,37.87595],[-86.1882,37.87599],[-86.18837,37.87603],[-86.18871,37.87611],[-86.18891,37.87616],[-86.18925,37.87624],[-86.18943,37.87628],[-86.18961,37.87633],[-86.18978,37.87637],[-86.18995,37.87641],[-86.19029,37.87649],[-86.19044,37.87653],[-86.19095,37.87665],[-86.19111,37.87669],[-86.19153,37.87679],[-86.19173,37.87684],[-86.19202,37.87691],[-86.19216,37.87694],[-86.1923,37.87697],[-86.19244,37.87701],[-86.19284,37.8771],[-86.19294,37.87712],[-86.19316,37.87718],[-86.19326,37.8772],[-86.19335,37.87722],[-86.19343,37.87724],[-86.19363,37.8773],[-86.1937,37.87737],[-86.19376,37.87742],[-86.19382,37.8775],[-86.19387,37.87758],[-86.19391,37.87768],[-86.19402,37.87789],[-86.19402,37.87789],[-86.19401,37.87786],[-86.19401,37.87782],[-86.19402,37.87774],[-86.19402,37.87769],[-86.19403,37.87764],[-86.19404,37.87759],[-86.19405,37.87754],[-86.19407,37.87749],[-86.19408,37.87744],[-86.19409,37.8774],[-86.19414,37.87729],[-86.19421,37.87715],[-86.19428,37.87702],[-86.19469,37.87631],[-86.19503,37.87571],[-86.19507,37.87565],[-86.19516,37.87549],[-86.19544,37.875],[-86.19563,37.87467],[-86.19571,37.87454],[-86.19572,37.87451],[-86.19594,37.87413],[-86.1961,37.87385],[-86.19616,37.87376],[-86.1962,37.87369],[-86.19625,37.8736],[-86.1963,37.87353],[-86.19639,37.87339],[-86.19651,37.87321],[-86.19653,37.87319],[-86.1967,37.87297],[-86.19691,37.87274],[-86.19702,37.87261],[-86.19713,37.8725],[-86.19743,37.87218],[-86.19744,37.87217],[-86.19769,37.87189],[-86.198,37.87155],[-86.19823,37.8713],[-86.19825,37.87128],[-86.19861,37.87088],[-86.19889,37.87057],[-86.19918,37.87025],[-86.19926,37.87015],[-86.19937,37.87002],[-86.19952,37.86982],[-86.19962,37.86967],[-86.19968,37.86958],[-86.19972,37.8695],[-86.19976,37.86943],[-86.19981,37.86934],[-86.19987,37.86921],[-86.19995,37.86899],[-86.20008,37.86864],[-86.20026,37.86813],[-86.20032,37.86795],[-86.20038,37.86778],[-86.20047,37.8675],[-86.2006,37.86712],[-86.20062,37.86709],[-86.20074,37.86674],[-86.20087,37.86637],[-86.20092,37.86622],[-86.20098,37.86605],[-86.20104,37.86587],[-86.2011,37.8657],[-86.20128,37.86518],[-86.2013,37.8651],[-86.20134,37.86501],[-86.2014,37.86483],[-86.20146,37.86466],[-86.20152,37.86449],[-86.20154,37.86444],[-86.20189,37.86343],[-86.20195,37.86327],[-86.20203,37.86305],[-86.20207,37.86293],[-86.2021,37.86285],[-86.20218,37.86258],[-86.20219,37.86256],[-86.20223,37.86239],[-86.20228,37.86218],[-86.20231,37.86205],[-86.20237,37.8618],[-86.20245,37.86141],[-86.20253,37.86105],[-86.20264,37.86052],[-86.20272,37.86017],[-86.20296,37.85903],[-86.20298,37.85892],[-86.20303,37.85869],[-86.20308,37.85844],[-86.2031,37.85823],[-86.20308,37.85803],[-86.20306,37.85785],[-86.20305,37.85767],[-86.20304,37.85749],[-86.20303,37.85741],[-86.20304,37.85729],[-86.20308,37.85703],[-86.2031,37.85696],[-86.20313,37.85683],[-86.20314,37.85678],[-86.20329,37.85628],[-86.20349,37.85558],[-86.20354,37.8554],[-86.20356,37.85536],[-86.20358,37.85527],[-86.20373,37.85478],[-86.20382,37.85453],[-86.20388,37.85436],[-86.20394,37.85418],[-86.20401,37.85401],[-86.20408,37.8538],[-86.20413,37.85366],[-86.20421,37.85345],[-86.20433,37.85315],[-86.2044,37.85298],[-86.20443,37.85288],[-86.20448,37.85277],[-86.20454,37.85259],[-86.20455,37.85256],[-86.20459,37.85246],[-86.20466,37.85229],[-86.20467,37.85225],[-86.20473,37.8521],[-86.20489,37.85166],[-86.20492,37.8516],[-86.20493,37.85156],[-86.20502,37.85136],[-86.20511,37.85117],[-86.20516,37.85105],[-86.20539,37.85061],[-86.20554,37.85032],[-86.20559,37.85022],[-86.20585,37.84972],[-86.20602,37.84939],[-86.2061,37.84922],[-86.20626,37.8489],[-86.20636,37.84872],[-86.20644,37.84855],[-86.20675,37.84794],[-86.20698,37.8475],[-86.207,37.84746],[-86.20701,37.84744],[-86.20709,37.84727],[-86.20715,37.84717],[-86.20727,37.84694],[-86.20731,37.84685],[-86.20735,37.84677],[-86.20744,37.8466],[-86.2075,37.84649],[-86.20756,37.84641],[-86.20763,37.8463],[-86.20772,37.84622],[-86.20781,37.84614],[-86.2079,37.84608],[-86.20798,37.84604],[-86.20804,37.846],[-86.20811,37.84597],[-86.20817,37.84595],[-86.20818,37.84594],[-86.20827,37.84591],[-86.20836,37.84589],[-86.2085,37.84585],[-86.20864,37.84582],[-86.20882,37.84578],[-86.20891,37.84576],[-86.20915,37.84572],[-86.20988,37.84557],[-86.21004,37.84553],[-86.21048,37.84544],[-86.21048,37.84544],[-86.21086,37.84536],[-86.21113,37.8453],[-86.21139,37.84523],[-86.21173,37.84514],[-86.21237,37.84495],[-86.21291,37.84479],[-86.21307,37.84475],[-86.21318,37.84471],[-86.21334,37.84467],[-86.2135,37.84463],[-86.21376,37.84454],[-86.21419,37.84442],[-86.21455,37.84432],[-86.21462,37.8443],[-86.21519,37.84413],[-86.21553,37.84402],[-86.21561,37.84399],[-86.21596,37.84389],[-86.21604,37.84387],[-86.21625,37.84381],[-86.21666,37.8437],[-86.21733,37.84351],[-86.21735,37.8435],[-86.21764,37.84343],[-86.21793,37.84337],[-86.21819,37.84332],[-86.21846,37.84328],[-86.21865,37.84325],[-86.21869,37.84325],[-86.21888,37.84323],[-86.21903,37.84321],[-86.21933,37.84318],[-86.21937,37.84318],[-86.21956,37.84317],[-86.21972,37.84316],[-86.22011,37.84315],[-86.22024,37.84315],[-86.22045,37.84315],[-86.22076,37.84315],[-86.22092,37.84315],[-86.22123,37.84315],[-86.22138,37.84315],[-86.2216,37.84315],[-86.22216,37.84316],[-86.22279,37.84316],[-86.22304,37.84316],[-86.22325,37.84317],[-86.22348,37.84317],[-86.22352,37.84317],[-86.22399,37.84318],[-86.22439,37.84318],[-86.2246,37.84318],[-86.22461,37.84318],[-86.22484,37.84318],[-86.22507,37.84318],[-86.22514,37.84318],[-86.22524,37.84318],[-86.22537,37.84318],[-86.22553,37.84317],[-86.22577,37.84316],[-86.22594,37.84315],[-86.22617,37.84312],[-86.22638,37.8431],[-86.22643,37.84309],[-86.22656,37.84307],[-86.22677,37.84304],[-86.22688,37.84303],[-86.22733,37.84296],[-86.22822,37.84284],[-86.22867,37.84277],[-86.22946,37.84267],[-86.23002,37.84259],[-86.23047,37.84252],[-86.23063,37.8425],[-86.23114,37.84243],[-86.23159,37.84237],[-86.23191,37.84233],[-86.23204,37.84231],[-86.23285,37.8422],[-86.23383,37.84206],[-86.23446,37.84198],[-86.23496,37.8419],[-86.23509,37.84189],[-86.23518,37.84187],[-86.23556,37.84181],[-86.23585,37.84178],[-86.23602,37.84175],[-86.23662,37.84167],[-86.23691,37.84163],[-86.23692,37.84163],[-86.23711,37.84159],[-86.23741,37.84155],[-86.23759,37.84152],[-86.23762,37.84151],[-86.23781,37.84148],[-86.23788,37.84147],[-86.23803,37.84144],[-86.23806,37.84144],[-86.23826,37.8414],[-86.23831,37.84139],[-86.23857,37.84134],[-86.2387,37.84132],[-86.23884,37.84129],[-86.23909,37.84124],[-86.23934,37.84119],[-86.23961,37.84113],[-86.24001,37.84105],[-86.24023,37.84101],[-86.24024,37.84101],[-86.24028,37.841],[-86.24046,37.84096],[-86.24055,37.84094],[-86.24068,37.84091],[-86.2409,37.84087],[-86.24093,37.84086],[-86.24112,37.84082],[-86.2412,37.84081],[-86.24134,37.84078],[-86.24157,37.84073],[-86.24184,37.84067],[-86.24209,37.84062],[-86.24217,37.8406],[-86.24236,37.84057],[-86.24271,37.84049],[-86.24308,37.84041],[-86.24354,37.84032],[-86.24421,37.84018],[-86.2446,37.84012],[-86.2446,37.84012],[-86.24471,37.84012],[-86.24482,37.84012],[-86.24483,37.84012],[-86.24495,37.84011],[-86.24506,37.84009],[-86.24509,37.84009],[-86.24522,37.84007],[-86.24545,37.84002],[-86.24561,37.83999],[-86.2457,37.83998],[-86.24598,37.83993],[-86.24605,37.83991],[-86.24618,37.83989],[-86.24637,37.83986],[-86.24682,37.8398],[-86.24727,37.83975],[-86.24743,37.83974],[-86.2475,37.83973],[-86.24782,37.8397],[-86.24795,37.83969],[-86.2481,37.83967],[-86.24817,37.83966],[-86.2484,37.83964],[-86.24854,37.83963],[-86.24898,37.8396],[-86.24931,37.83957],[-86.24933,37.83957],[-86.24951,37.83956],[-86.24953,37.83955],[-86.24975,37.83954],[-86.24999,37.83952],[-86.25002,37.83952],[-86.25027,37.8395],[-86.25037,37.83949],[-86.25063,37.83947],[-86.25096,37.83944],[-86.25124,37.83942],[-86.25144,37.83941],[-86.25157,37.83941],[-86.25162,37.83941],[-86.2518,37.83941],[-86.25181,37.83941],[-86.25202,37.83943],[-86.25224,37.83945],[-86.25229,37.83946],[-86.25248,37.83948],[-86.2525,37.83948],[-86.25271,37.83951],[-86.2529,37.83953],[-86.25293,37.83954],[-86.25315,37.83957],[-86.25338,37.83962],[-86.25359,37.83966],[-86.25378,37.83969],[-86.25399,37.83974],[-86.25419,37.83977],[-86.25426,37.83979],[-86.25436,37.8398],[-86.25455,37.83983],[-86.25465,37.83984],[-86.25478,37.83986],[-86.2549,37.83986],[-86.25493,37.83986],[-86.25507,37.83986],[-86.25522,37.83986],[-86.25543,37.83985],[-86.25562,37.83984],[-86.25568,37.83983],[-86.25612,37.8398],[-86.25639,37.83978],[-86.25652,37.83977],[-86.25712,37.83974],[-86.25721,37.83973],[-86.25743,37.83972],[-86.25748,37.83972],[-86.25789,37.8397],[-86.25811,37.83969],[-86.25817,37.83969],[-86.25834,37.83969],[-86.25862,37.83968],[-86.2588,37.83967],[-86.25888,37.83967],[-86.25902,37.83966],[-86.25912,37.83966],[-86.25946,37.83961],[-86.25947,37.83961],[-86.25969,37.83956],[-86.2597,37.83956],[-86.25991,37.8395],[-86.26004,37.83946],[-86.26012,37.83943],[-86.26039,37.83933],[-86.26053,37.83928],[-86.26101,37.8391],[-86.26122,37.83903],[-86.26182,37.8388],[-86.2621,37.83869],[-86.26272,37.83846],[-86.26359,37.83814],[-86.26375,37.83808],[-86.26417,37.83791],[-86.26435,37.83783],[-86.26455,37.83774],[-86.26495,37.83756],[-86.26511,37.83749],[-86.26515,37.83748],[-86.26534,37.83738],[-86.26553,37.83729],[-86.26631,37.83691],[-86.2669,37.83663],[-86.26691,37.83663],[-86.26768,37.83626],[-86.26787,37.83617],[-86.26791,37.83615],[-86.26846,37.83589],[-86.26923,37.83552],[-86.26938,37.83545],[-86.26943,37.83542],[-86.26982,37.83523],[-86.27001,37.83514],[-86.27039,37.83495],[-86.27063,37.83483],[-86.27084,37.83473],[-86.27098,37.83467],[-86.27105,37.83464],[-86.27129,37.83454],[-86.27159,37.83443],[-86.27197,37.83428],[-86.27282,37.83396],[-86.27303,37.83389],[-86.27344,37.83373],[-86.27361,37.83367],[-86.27365,37.83366],[-86.27373,37.83363],[-86.27386,37.8336],[-86.27398,37.83359],[-86.27409,37.83358],[-86.27412,37.83358],[-86.27429,37.83358],[-86.27477,37.83362],[-86.27477,37.83362],[-86.2749,37.83347],[-86.27495,37.8334],[-86.27504,37.83333],[-86.27507,37.8333],[-86.27521,37.83321],[-86.27522,37.83321],[-86.27596,37.83282],[-86.27634,37.83262],[-86.27652,37.83251],[-86.27721,37.83213],[-86.27735,37.83206],[-86.27745,37.83199],[-86.27748,37.83197],[-86.27782,37.83178],[-86.27791,37.83173],[-86.2782,37.83159],[-86.27842,37.83149],[-86.2786,37.83139],[-86.27898,37.8312],[-86.27936,37.83101],[-86.27975,37.83081],[-86.28033,37.83052],[-86.28052,37.83043],[-86.2809,37.83024],[-86.28109,37.83014],[-86.28129,37.83004],[-86.28148,37.82995],[-86.28187,37.82975],[-86.28206,37.82966],[-86.28246,37.82949],[-86.28266,37.8294],[-86.28305,37.82922],[-86.28345,37.82905],[-86.28374,37.82892],[-86.28385,37.82887],[-86.28397,37.82883],[-86.28417,37.8288],[-86.28452,37.8288],[-86.28475,37.8288],[-86.28478,37.8288],[-86.28497,37.82876],[-86.28503,37.82875],[-86.28516,37.82872],[-86.28519,37.8287],[-86.28529,37.82866],[-86.28539,37.82862],[-86.28558,37.82853],[-86.28578,37.82844],[-86.28578,37.82843],[-86.28597,37.82834],[-86.28617,37.82825],[-86.28656,37.82806],[-86.28733,37.82769],[-86.28746,37.82762],[-86.28773,37.8275],[-86.28792,37.82741],[-86.28832,37.82723],[-86.28851,37.82714],[-86.28852,37.82714],[-86.2887,37.82704],[-86.28871,37.82704],[-86.2889,37.82695],[-86.28898,37.8269],[-86.28908,37.82684],[-86.28944,37.82662],[-86.28944,37.82661],[-86.28994,37.8263],[-86.28997,37.82628],[-86.29014,37.82616],[-86.29049,37.82593],[-86.29049,37.82592],[-86.29083,37.82569],[-86.29091,37.82564],[-86.29101,37.82558],[-86.29119,37.82547],[-86.29137,37.82536],[-86.29153,37.82526],[-86.29172,37.82512],[-86.29174,37.82509],[-86.29177,37.82506],[-86.29181,37.82502],[-86.29188,37.82495],[-86.29214,37.82471],[-86.29225,37.82462],[-86.29236,37.82452],[-86.29237,37.82452],[-86.29267,37.82427],[-86.29279,37.82417],[-86.29315,37.82388],[-86.29363,37.8235],[-86.29434,37.82289],[-86.29439,37.82283],[-86.29463,37.82252],[-86.29469,37.82244],[-86.29474,37.82236],[-86.29484,37.82231],[-86.29502,37.82209],[-86.29509,37.82201],[-86.29514,37.82194],[-86.29521,37.82185],[-86.29526,37.82178],[-86.29533,37.8217],[-86.29538,37.82163],[-86.29545,37.82155],[-86.2955,37.82149],[-86.29551,37.82148],[-86.29559,37.82141],[-86.29566,37.82135],[-86.29574,37.82127],[-86.29592,37.8211],[-86.29633,37.82073],[-86.29636,37.8207],[-86.29666,37.82042],[-86.29678,37.82032],[-86.29681,37.82029],[-86.29693,37.82018],[-86.29693,37.82017],[-86.29712,37.82007],[-86.29733,37.82002],[-86.29737,37.82],[-86.29755,37.82],[-86.29803,37.81997],[-86.29823,37.81996],[-86.29891,37.81992],[-86.29907,37.81991],[-86.30028,37.81989],[-86.30076,37.81994],[-86.3008,37.81995],[-86.30099,37.81996],[-86.30121,37.81998],[-86.30144,37.82],[-86.30164,37.82002],[-86.30167,37.82002],[-86.30201,37.82006],[-86.3028,37.82013],[-86.30302,37.82016],[-86.3037,37.82023],[-86.30392,37.82025],[-86.30415,37.82028],[-86.30437,37.8203],[-86.30481,37.82036],[-86.30482,37.82036],[-86.30505,37.8204],[-86.30507,37.8204],[-86.30526,37.82046],[-86.30532,37.82048],[-86.30545,37.82053],[-86.30573,37.8207],[-86.30599,37.82088],[-86.30615,37.82101],[-86.30632,37.82113],[-86.3064,37.82119],[-86.30649,37.82125],[-86.30667,37.82136],[-86.30695,37.82153],[-86.30704,37.82157],[-86.30723,37.82167],[-86.30731,37.82171],[-86.30739,37.82174],[-86.30748,37.82176],[-86.30762,37.82176],[-86.30772,37.82176],[-86.30779,37.82176],[-86.30794,37.82172],[-86.30808,37.82165],[-86.30815,37.8216],[-86.30825,37.8215],[-86.30828,37.82148],[-86.30875,37.82109],[-86.30889,37.82097],[-86.30901,37.82087],[-86.30906,37.82083],[-86.30911,37.82079],[-86.3092,37.82071],[-86.3093,37.82061],[-86.30935,37.82055],[-86.30941,37.82047],[-86.30946,37.82039],[-86.30956,37.82026],[-86.30958,37.82024],[-86.30961,37.82021],[-86.30979,37.82003],[-86.30988,37.81997],[-86.31,37.81989],[-86.31018,37.81976],[-86.3104,37.81966],[-86.31043,37.81965],[-86.31046,37.81963],[-86.31068,37.81955],[-86.31088,37.81947],[-86.31118,37.81925],[-86.31131,37.81914],[-86.31133,37.81912],[-86.31136,37.8191],[-86.31146,37.81902],[-86.31165,37.81891],[-86.31186,37.81884],[-86.31189,37.81883],[-86.31192,37.81882],[-86.31211,37.81878],[-86.31217,37.81877],[-86.3123,37.81876],[-86.31234,37.81876],[-86.31276,37.81875],[-86.31298,37.81878],[-86.31302,37.81878],[-86.31306,37.81879],[-86.3132,37.81883],[-86.31373,37.81896],[-86.31391,37.81899],[-86.31419,37.81901],[-86.31431,37.81901],[-86.31457,37.81903],[-86.31469,37.81903],[-86.31476,37.81904],[-86.31502,37.81908],[-86.31521,37.8191],[-86.31543,37.81913],[-86.31556,37.81913],[-86.31566,37.81911],[-86.31568,37.8191],[-86.31569,37.8191],[-86.3158,37.81906],[-86.31591,37.81901],[-86.31602,37.81894],[-86.31621,37.81877],[-86.31648,37.8185],[-86.3165,37.81848],[-86.31663,37.81833],[-86.31671,37.81819],[-86.31672,37.81817],[-86.31674,37.81815],[-86.31678,37.81805],[-86.31679,37.81803],[-86.31683,37.81785],[-86.31684,37.81782],[-86.31687,37.81767],[-86.31689,37.81756],[-86.31692,37.8175],[-86.31693,37.81747],[-86.31696,37.8174],[-86.3175,37.81667],[-86.31759,37.81656],[-86.31759,37.81656],[-86.31766,37.81654],[-86.31786,37.81642],[-86.31786,37.81642],[-86.31794,37.81606],[-86.31809,37.81553],[-86.31819,37.81518],[-86.31824,37.815],[-86.31839,37.81448],[-86.31844,37.8143],[-86.31845,37.81426],[-86.31849,37.81413],[-86.3185,37.8141],[-86.31856,37.81395],[-86.31863,37.81381],[-86.31864,37.81378],[-86.31873,37.81362],[-86.31888,37.81336],[-86.31893,37.8133],[-86.31923,37.81281],[-86.31933,37.81265],[-86.31944,37.81249],[-86.31964,37.81217],[-86.31984,37.81185],[-86.31995,37.81169],[-86.32005,37.81153],[-86.32015,37.81137],[-86.32076,37.8104],[-86.32086,37.81024],[-86.32145,37.80932],[-86.32147,37.80927],[-86.32155,37.80911],[-86.32163,37.80895],[-86.32177,37.8086],[-86.32184,37.80842],[-86.32212,37.80774],[-86.32218,37.80764],[-86.32225,37.80756],[-86.32234,37.80751],[-86.32241,37.80748],[-86.32243,37.80747],[-86.32253,37.80746],[-86.32261,37.80747],[-86.32268,37.80748],[-86.32289,37.80754],[-86.32289,37.80754],[-86.32305,37.80729],[-86.3232,37.80705],[-86.32339,37.80678],[-86.32342,37.80674],[-86.32354,37.80659],[-86.32357,37.80655],[-86.3237,37.80639],[-86.32389,37.80617],[-86.32407,37.80597],[-86.32419,37.80585],[-86.32426,37.80577],[-86.32433,37.80571],[-86.32442,37.80563],[-86.32461,37.80545],[-86.32479,37.80531],[-86.32488,37.80523],[-86.32513,37.80503],[-86.32526,37.80492],[-86.3253,37.80489],[-86.32553,37.80472],[-86.32576,37.80456],[-86.32667,37.80391],[-86.32727,37.8035],[-86.32785,37.80312],[-86.3279,37.80309],[-86.32874,37.80255],[-86.32893,37.80243],[-86.32907,37.80234],[-86.32908,37.80233],[-86.32918,37.80226],[-86.32929,37.80217],[-86.32939,37.80209],[-86.3294,37.80207],[-86.32954,37.80195],[-86.32965,37.80184],[-86.32983,37.80165],[-86.32986,37.80161],[-86.32992,37.80154],[-86.32995,37.8015],[-86.32998,37.80146],[-86.33002,37.8014],[-86.33008,37.80131],[-86.33014,37.80122],[-86.33018,37.80114],[-86.33035,37.80085],[-86.33089,37.79997],[-86.33097,37.79983],[-86.33105,37.79969],[-86.33121,37.7994],[-86.33124,37.79935],[-86.3313,37.79924],[-86.33147,37.7989],[-86.33156,37.79874],[-86.33173,37.7984],[-86.33198,37.79791],[-86.33207,37.79774],[-86.33224,37.7974],[-86.33233,37.79724],[-86.3325,37.79691],[-86.33276,37.79641],[-86.33329,37.79541],[-86.33356,37.7949],[-86.33378,37.79449],[-86.33392,37.79425],[-86.33399,37.79412],[-86.33413,37.79391],[-86.33423,37.79376],[-86.33449,37.79336],[-86.33466,37.79313],[-86.33492,37.79277],[-86.33515,37.79242],[-86.33527,37.79227],[-86.33541,37.7921],[-86.33557,37.79193],[-86.33568,37.79182],[-86.3358,37.79171],[-86.33593,37.79162],[-86.33608,37.79149],[-86.33622,37.79137],[-86.33641,37.79123],[-86.33643,37.79122],[-86.33658,37.79111],[-86.33691,37.79087],[-86.33775,37.79025],[-86.33808,37.79001],[-86.33825,37.78988],[-86.33832,37.78983],[-86.33906,37.78929],[-86.33954,37.78893],[-86.33992,37.78866],[-86.34006,37.78855],[-86.34033,37.78837],[-86.34055,37.78824],[-86.34076,37.78811],[-86.34099,37.78798],[-86.34122,37.78787],[-86.34137,37.7878],[-86.34139,37.78779],[-86.34163,37.7877],[-86.34197,37.78757],[-86.34322,37.7871],[-86.34415,37.78675],[-86.34426,37.78671],[-86.34516,37.78637],[-86.3455,37.78625],[-86.34715,37.78564],[-86.34878,37.78504],[-86.34921,37.78488],[-86.34928,37.78485],[-86.34941,37.7848],[-86.34988,37.78463],[-86.35065,37.78435],[-86.35159,37.784],[-86.35205,37.78383],[-86.35256,37.78364],[-86.35287,37.78353],[-86.3531,37.78346],[-86.35345,37.78337],[-86.35369,37.78331],[-86.35399,37.78325],[-86.35416,37.78321],[-86.35421,37.7832],[-86.35592,37.78286],[-86.35638,37.78278],[-86.35708,37.78263],[-86.35796,37.78245],[-86.35882,37.78228],[-86.35907,37.78223],[-86.35923,37.7822],[-86.35953,37.78213],[-86.35988,37.78205],[-86.36017,37.78198],[-86.36044,37.7819],[-86.36065,37.78183],[-86.36099,37.78172],[-86.36153,37.78155],[-86.36163,37.78152],[-86.36225,37.78131],[-86.36314,37.78101],[-86.36358,37.78085],[-86.36363,37.78084],[-86.36378,37.78078],[-86.36391,37.78074],[-86.36399,37.78071],[-86.36426,37.78062],[-86.36464,37.7805],[-86.36491,37.78041],[-86.36512,37.78035],[-86.36564,37.78019],[-86.36618,37.78004],[-86.36636,37.77998],[-86.3668,37.77986],[-86.36699,37.7798],[-86.36708,37.77978],[-86.36723,37.77974],[-86.36762,37.77964],[-86.36762,37.77964],[-86.36778,37.77988],[-86.36783,37.77996],[-86.36802,37.78027],[-86.36802,37.78028],[-86.36803,37.78029],[-86.36821,37.78059],[-86.36834,37.7808],[-86.36848,37.78105],[-86.3685,37.78109],[-86.3685,37.7811],[-86.36853,37.78117],[-86.36854,37.78129],[-86.36852,37.78142],[-86.36852,37.78144],[-86.36851,37.78146],[-86.36848,37.78153],[-86.36847,37.78162],[-86.36846,37.78169],[-86.36847,37.78182],[-86.36851,37.78195],[-86.36861,37.78212],[-86.36871,37.78226],[-86.36873,37.78229],[-86.36874,37.7823],[-86.36877,37.78233],[-86.36888,37.7824],[-86.36906,37.78243],[-86.36934,37.78246],[-86.3699,37.78249],[-86.37038,37.78251],[-86.37081,37.78249],[-86.37094,37.78248],[-86.37119,37.78246],[-86.37122,37.78246],[-86.37194,37.78238],[-86.37252,37.78232],[-86.3729,37.78227],[-86.37299,37.78225],[-86.37322,37.7822],[-86.37393,37.78195],[-86.37434,37.78182],[-86.37446,37.78177],[-86.37452,37.78175],[-86.37476,37.78165],[-86.37509,37.78149],[-86.37532,37.78137],[-86.37561,37.7812],[-86.37566,37.78117],[-86.37568,37.78116],[-86.37578,37.78108],[-86.37595,37.78096],[-86.37598,37.78093],[-86.37599,37.78092],[-86.37607,37.78083],[-86.37623,37.78066],[-86.37637,37.78047],[-86.37652,37.78026],[-86.37665,37.78007],[-86.3768,37.77988],[-86.37699,37.77956],[-86.37716,37.77927],[-86.37726,37.77909],[-86.37758,37.77851],[-86.3778,37.77812],[-86.37783,37.77807],[-86.37826,37.77734],[-86.37838,37.77714],[-86.37846,37.77699],[-86.3785,37.77693],[-86.37857,37.77681],[-86.37866,37.77665],[-86.37913,37.77583],[-86.37923,37.77565],[-86.37925,37.77559],[-86.37925,37.77554],[-86.37923,37.77549],[-86.37919,37.77545],[-86.3791,37.77538],[-86.37874,37.77511],[-86.37874,37.77511],[-86.37917,37.7747],[-86.37932,37.77453],[-86.37953,37.7743],[-86.37966,37.77415],[-86.37973,37.77407],[-86.37987,37.77389],[-86.37995,37.77379],[-86.38017,37.7735],[-86.38025,37.77338],[-86.38046,37.77307],[-86.3806,37.77283],[-86.38068,37.7727],[-86.38072,37.77263],[-86.38078,37.77253],[-86.38087,37.77237],[-86.38097,37.77221],[-86.38192,37.77053],[-86.38306,37.76853],[-86.38315,37.76837],[-86.38333,37.76804],[-86.38352,37.76771],[-86.3838,37.76722],[-86.3838,37.76722],[-86.38398,37.76728],[-86.38411,37.76728],[-86.38427,37.76725],[-86.38435,37.76722],[-86.38445,37.76716],[-86.38454,37.76709],[-86.38522,37.76657],[-86.38525,37.76655],[-86.3855,37.76635],[-86.38614,37.76592],[-86.38624,37.76586],[-86.38628,37.76584],[-86.38639,37.76577],[-86.3868,37.76555],[-86.38693,37.76548],[-86.38703,37.76543],[-86.38722,37.76535],[-86.38737,37.76529],[-86.3876,37.76521],[-86.38764,37.7652],[-86.38784,37.76513],[-86.38818,37.76503],[-86.38853,37.76494],[-86.38867,37.76491],[-86.38871,37.7649],[-86.38888,37.76487],[-86.38911,37.76483],[-86.38916,37.76482],[-86.38923,37.76481],[-86.38975,37.76473],[-86.39005,37.7647],[-86.39023,37.76468],[-86.39038,37.76466],[-86.3907,37.76464],[-86.39104,37.76464],[-86.39138,37.76469],[-86.39158,37.76474],[-86.39163,37.76475],[-86.39171,37.76477],[-86.3927,37.76507],[-86.3929,37.76514],[-86.39327,37.76527],[-86.39331,37.76529],[-86.39333,37.76529],[-86.39379,37.7655],[-86.39387,37.76553],[-86.39391,37.76555],[-86.39485,37.76598],[-86.39489,37.766],[-86.39506,37.76608],[-86.39555,37.76628],[-86.39587,37.7664],[-86.39612,37.76648],[-86.39621,37.76651],[-86.39628,37.76653],[-86.39671,37.76666],[-86.39675,37.76667],[-86.39726,37.76682],[-86.39823,37.76714],[-86.3984,37.7672],[-86.39939,37.76753],[-86.39949,37.76756],[-86.39954,37.76757],[-86.39967,37.76759],[-86.39987,37.76764],[-86.39993,37.76764],[-86.40021,37.76767],[-86.40075,37.76769],[-86.40092,37.76768],[-86.40127,37.76765],[-86.40151,37.7676],[-86.40159,37.76758],[-86.40169,37.76756],[-86.4019,37.76751],[-86.4022,37.76742],[-86.40249,37.76732],[-86.40375,37.76681],[-86.40379,37.7668],[-86.40385,37.76677],[-86.40435,37.76656],[-86.40459,37.76646],[-86.40491,37.76632],[-86.40495,37.7663],[-86.40518,37.76618],[-86.4052,37.76617],[-86.40533,37.7661],[-86.40563,37.76594],[-86.40628,37.76554],[-86.40642,37.76545],[-86.40643,37.76544],[-86.40664,37.76533],[-86.4067,37.7653],[-86.40683,37.76524],[-86.40697,37.76519],[-86.40723,37.76513],[-86.40727,37.76512],[-86.40742,37.7651],[-86.40772,37.76509],[-86.40774,37.76509],[-86.40795,37.7651],[-86.40821,37.76511],[-86.40869,37.76517],[-86.40885,37.76519],[-86.40921,37.76524],[-86.40993,37.76534],[-86.41015,37.76537],[-86.41034,37.7654],[-86.4106,37.76545],[-86.41081,37.7655],[-86.41085,37.76551],[-86.41123,37.76564],[-86.41145,37.76572],[-86.41171,37.76582],[-86.41183,37.76589],[-86.41201,37.76599],[-86.4122,37.7661],[-86.41224,37.76612],[-86.41235,37.76617],[-86.41258,37.76625],[-86.4126,37.76626],[-86.41284,37.76632],[-86.41298,37.76635],[-86.41327,37.76638],[-86.41343,37.76639],[-86.41389,37.7664],[-86.41395,37.7664],[-86.41418,37.76639],[-86.4144,37.76639],[-86.41455,37.76638],[-86.41463,37.76638],[-86.41486,37.76638],[-86.41487,37.76638],[-86.41515,37.76639],[-86.41531,37.76641],[-86.41554,37.76642],[-86.41577,37.76644],[-86.41586,37.76645],[-86.41599,37.76644],[-86.41622,37.76642],[-86.41628,37.76642],[-86.41689,37.76633],[-86.41711,37.7663],[-86.41728,37.76627],[-86.41734,37.76627],[-86.41757,37.76626],[-86.41766,37.76625],[-86.41779,37.76625],[-86.41799,37.76626],[-86.41802,37.76626],[-86.41803,37.76626],[-86.41825,37.76627],[-86.4187,37.76631],[-86.41883,37.76632],[-86.41893,37.76631],[-86.41907,37.76631],[-86.41915,37.76629],[-86.41933,37.76627],[-86.41952,37.76624],[-86.41959,37.76621],[-86.4198,37.76613],[-86.41995,37.76608],[-86.42057,37.76578],[-86.42061,37.76576],[-86.42076,37.7657],[-86.42114,37.76551],[-86.42134,37.76542],[-86.42172,37.76523],[-86.42192,37.76514],[-86.42211,37.76504],[-86.42213,37.76504],[-86.42232,37.76497],[-86.42252,37.76489],[-86.42264,37.76485],[-86.42273,37.76482],[-86.42292,37.76478],[-86.42295,37.76477],[-86.42317,37.76471],[-86.4232,37.7647],[-86.42359,37.76458],[-86.42369,37.76455],[-86.4239,37.76448],[-86.42397,37.76445],[-86.42411,37.76442],[-86.42422,37.7644],[-86.42476,37.76426],[-86.4248,37.76425],[-86.42498,37.7642],[-86.42519,37.76414],[-86.42533,37.7641],[-86.42562,37.76402],[-86.42587,37.76394],[-86.42604,37.76388],[-86.42625,37.76382],[-86.42631,37.7638],[-86.42646,37.76375],[-86.42667,37.76368],[-86.42737,37.76345],[-86.42769,37.76335],[-86.42773,37.76333],[-86.42793,37.76326],[-86.42829,37.76314],[-86.42845,37.76311],[-86.42858,37.76309],[-86.4286,37.76309],[-86.4288,37.76308],[-86.42892,37.76308],[-86.42971,37.76314],[-86.42994,37.76315],[-86.43016,37.76316],[-86.43017,37.76316],[-86.43039,37.76318],[-86.43047,37.76319],[-86.43068,37.76324],[-86.43103,37.76336],[-86.43107,37.76337],[-86.43123,37.76345],[-86.43143,37.76354],[-86.4315,37.76357],[-86.43183,37.76371],[-86.43186,37.76373],[-86.43202,37.7638],[-86.43258,37.76405],[-86.43258,37.76405],[-86.43268,37.76413],[-86.4328,37.76421],[-86.43295,37.76428],[-86.43338,37.76447],[-86.4336,37.76456],[-86.43375,37.76462],[-86.4342,37.76481],[-86.43435,37.76488],[-86.4344,37.76489],[-86.43533,37.76527],[-86.43537,37.76528],[-86.43542,37.7653],[-86.43577,37.76544],[-86.43589,37.76549],[-86.43606,37.76555],[-86.43627,37.76564],[-86.43679,37.76584],[-86.437,37.76592],[-86.43716,37.76598],[-86.43721,37.766],[-86.43801,37.76632],[-86.43881,37.76664],[-86.43969,37.76699],[-86.43985,37.76705],[-86.44023,37.76723],[-86.44053,37.76738],[-86.44058,37.7674],[-86.44069,37.76748],[-86.4408,37.76756],[-86.4409,37.76765],[-86.44097,37.76772],[-86.44103,37.76777],[-86.44135,37.76811],[-86.44144,37.76819],[-86.44152,37.76825],[-86.44155,37.76827],[-86.44156,37.76827],[-86.44161,37.76829],[-86.44168,37.76831],[-86.44173,37.76831],[-86.44181,37.76832],[-86.442,37.76831],[-86.442,37.76831],[-86.44208,37.76864],[-86.44213,37.76881],[-86.4422,37.76897],[-86.44228,37.7691],[-86.44239,37.76927],[-86.44319,37.77038],[-86.44331,37.77054],[-86.44338,37.77061],[-86.44347,37.77076],[-86.44354,37.77085],[-86.4438,37.7712],[-86.44409,37.77157],[-86.4442,37.77174],[-86.44428,37.77192],[-86.44445,37.77243],[-86.44468,37.7732],[-86.44478,37.77347],[-86.44488,37.77366],[-86.44496,37.77378],[-86.44507,37.77392],[-86.44522,37.7741],[-86.44616,37.77507],[-86.44666,37.77559],[-86.44698,37.77593],[-86.44798,37.77697],[-86.44821,37.77725],[-86.44896,37.77805],[-86.44917,37.77827],[-86.44951,37.77864],[-86.45038,37.77957],[-86.45119,37.78044],[-86.45152,37.78079],[-86.45184,37.78113],[-86.45197,37.78127],[-86.45216,37.78146],[-86.45225,37.78151],[-86.45235,37.78154],[-86.45251,37.78157],[-86.45251,37.78157],[-86.45326,37.78144],[-86.45384,37.78133],[-86.45406,37.78129],[-86.45493,37.78113],[-86.45508,37.78109],[-86.45619,37.78089],[-86.45691,37.78076],[-86.45728,37.78069],[-86.45806,37.78054],[-86.45846,37.78047],[-86.45923,37.78033],[-86.45932,37.78031],[-86.46008,37.78017],[-86.4609,37.78002],[-86.4609,37.78002],[-86.46111,37.78072],[-86.4612,37.78103],[-86.46127,37.78128],[-86.46127,37.78128],[-86.46168,37.7812],[-86.46198,37.78114],[-86.46239,37.78107],[-86.46283,37.78098],[-86.46425,37.78072],[-86.46426,37.78072],[-86.4646,37.78065],[-86.46473,37.78062],[-86.46482,37.7806],[-86.46485,37.7806],[-86.46503,37.78056],[-86.46522,37.78051],[-86.46547,37.78045],[-86.46559,37.78042],[-86.4656,37.78041],[-86.46569,37.78039],[-86.46574,37.78038],[-86.466,37.78031],[-86.46612,37.78028],[-86.46635,37.78022],[-86.46658,37.78017],[-86.46674,37.78012],[-86.46677,37.78011],[-86.46689,37.78008],[-86.4669,37.78008],[-86.4671,37.78001],[-86.46728,37.77994],[-86.46745,37.77988],[-86.46775,37.77977],[-86.46852,37.77949],[-86.46874,37.77943],[-86.46889,37.77939],[-86.46913,37.77934],[-86.46929,37.7793],[-86.46936,37.77928],[-86.46954,37.77924],[-86.46973,37.7792],[-86.46989,37.77918],[-86.47009,37.77914],[-86.47037,37.77908],[-86.47056,37.77903],[-86.47077,37.77898],[-86.47081,37.77897],[-86.47099,37.77892],[-86.471,37.77892],[-86.47105,37.7789],[-86.4712,37.77886],[-86.47141,37.7788],[-86.47167,37.77872],[-86.47205,37.7786],[-86.47226,37.77854],[-86.47262,37.77842],[-86.47269,37.77841],[-86.4729,37.77834],[-86.47311,37.77827],[-86.47344,37.77817],[-86.47353,37.77814],[-86.4737,37.7781],[-86.47385,37.77806],[-86.47399,37.77802],[-86.4742,37.77797],[-86.4746,37.7779],[-86.47482,37.77786],[-86.47507,37.77781],[-86.47522,37.77778],[-86.47542,37.77774],[-86.47557,37.77771],[-86.47577,37.77766],[-86.47589,37.77763],[-86.47594,37.77761],[-86.47607,37.77757],[-86.4763,37.7775],[-86.47647,37.77743],[-86.47656,37.77739],[-86.47672,37.77733],[-86.47689,37.77725],[-86.47698,37.77721],[-86.47721,37.77709],[-86.47785,37.77681],[-86.47839,37.77651],[-86.47851,37.77646],[-86.4788,37.77636],[-86.47898,37.77628],[-86.47951,37.77605],[-86.48009,37.77579],[-86.48037,37.77567],[-86.48113,37.77533],[-86.48187,37.77501],[-86.48243,37.77477],[-86.48326,37.77441],[-86.48405,37.77406],[-86.48461,37.77381],[-86.48533,37.77349],[-86.48569,37.77333],[-86.48585,37.77326],[-86.4862,37.77311],[-86.48647,37.77297],[-86.48667,37.77287],[-86.48694,37.77272],[-86.48722,37.77255],[-86.48742,37.77242],[-86.48792,37.7721],[-86.48825,37.77188],[-86.48868,37.77158],[-86.48911,37.77129],[-86.48973,37.77087],[-86.49042,37.77041],[-86.49079,37.77015],[-86.49151,37.76967],[-86.49162,37.76959],[-86.49179,37.76947],[-86.49196,37.76935],[-86.49224,37.76916],[-86.49248,37.769],[-86.49265,37.76889],[-86.49297,37.76867],[-86.49369,37.76818],[-86.49402,37.76797],[-86.49424,37.76783],[-86.49431,37.76778],[-86.4944,37.76773],[-86.49446,37.7677],[-86.49454,37.76765],[-86.49459,37.76763],[-86.49462,37.76761],[-86.49471,37.76757],[-86.49478,37.76754],[-86.49485,37.76751],[-86.4949,37.76748],[-86.49495,37.76746],[-86.49502,37.76743],[-86.4951,37.7674],[-86.49517,37.76737],[-86.49524,37.76735],[-86.49536,37.76732],[-86.49549,37.76728],[-86.4956,37.76725],[-86.49569,37.76723],[-86.49579,37.76721],[-86.4959,37.76719],[-86.49602,37.76718],[-86.49618,37.76716],[-86.49634,37.76715],[-86.4969,37.76714],[-86.49772,37.76712],[-86.49889,37.76709],[-86.49915,37.76708],[-86.50031,37.76705],[-86.50065,37.76705],[-86.50095,37.76706],[-86.5012,37.76709],[-86.5014,37.76712],[-86.50156,37.76716],[-86.50178,37.76722],[-86.50201,37.7673],[-86.50215,37.76737],[-86.50219,37.76738],[-86.50248,37.76754],[-86.50266,37.76765],[-86.5027,37.76767],[-86.50349,37.76821],[-86.50392,37.76851],[-86.504,37.76858],[-86.50411,37.76865],[-86.50428,37.76876],[-86.5045,37.76889],[-86.50468,37.76899],[-86.50489,37.76909],[-86.50499,37.76914],[-86.50512,37.76919],[-86.50534,37.76927],[-86.50554,37.76934],[-86.50575,37.76941],[-86.50617,37.76955],[-86.50647,37.76965],[-86.50668,37.76971],[-86.50735,37.76993],[-86.50773,37.77006],[-86.50801,37.77015],[-86.50879,37.7704],[-86.50957,37.77066],[-86.51005,37.77081],[-86.51026,37.77088],[-86.51048,37.77095],[-86.5111,37.77115],[-86.51122,37.77119],[-86.51164,37.77131],[-86.51188,37.77136],[-86.51219,37.77141],[-86.51227,37.77142],[-86.51245,37.77144],[-86.51262,37.77145],[-86.51281,37.77145],[-86.51297,37.77144],[-86.51309,37.77144],[-86.51319,37.77143],[-86.51331,37.77141],[-86.51364,37.77136],[-86.51377,37.77133],[-86.51386,37.77131],[-86.51394,37.77129],[-86.51408,37.77125],[-86.51428,37.77118],[-86.51429,37.77118],[-86.51443,37.77113],[-86.51449,37.7711],[-86.51457,37.77107],[-86.5147,37.77101],[-86.51498,37.77086],[-86.51525,37.77072],[-86.51546,37.77061],[-86.5162,37.77022],[-86.51633,37.77015],[-86.51677,37.76992],[-86.51772,37.76942],[-86.51815,37.7692],[-86.51829,37.76913],[-86.51857,37.76898],[-86.51892,37.76881],[-86.51915,37.76871],[-86.51937,37.76863],[-86.51948,37.7686],[-86.51958,37.76856],[-86.5198,37.7685],[-86.5199,37.76847],[-86.52005,37.76844],[-86.52041,37.76835],[-86.52084,37.76826],[-86.521,37.76822],[-86.52126,37.76817],[-86.52143,37.76813],[-86.52165,37.76808],[-86.52187,37.76803],[-86.52207,37.76799],[-86.52209,37.76799],[-86.52253,37.76789],[-86.52263,37.76787],[-86.52275,37.76785],[-86.52304,37.76779],[-86.52319,37.76775],[-86.52341,37.76771],[-86.5241,37.76756],[-86.52484,37.7674],[-86.52487,37.7674],[-86.52553,37.76726],[-86.52613,37.76713],[-86.52657,37.76704],[-86.52679,37.76699],[-86.527,37.76694],[-86.52721,37.7669],[-86.52722,37.7669],[-86.52761,37.76682],[-86.52794,37.76677],[-86.52834,37.76674],[-86.52882,37.76675],[-86.52912,37.76676],[-86.5294,37.76678],[-86.5299,37.76685],[-86.52997,37.76686],[-86.53019,37.7669],[-86.5302,37.7669],[-86.53029,37.76691],[-86.53042,37.76693],[-86.53064,37.76696],[-86.53065,37.76696],[-86.53087,37.76699],[-86.53109,37.76702],[-86.53109,37.76703],[-86.53132,37.76706],[-86.53154,37.76709],[-86.53176,37.76712],[-86.53177,37.76712],[-86.53194,37.76714],[-86.53278,37.76726],[-86.5331,37.76731],[-86.53311,37.76731],[-86.53333,37.76734],[-86.5338,37.76741],[-86.53445,37.7675],[-86.53467,37.76753],[-86.53479,37.76755],[-86.53585,37.7677],[-86.53646,37.76779],[-86.53686,37.76785],[-86.53758,37.76794],[-86.53787,37.76797],[-86.53816,37.76797],[-86.53862,37.76797],[-86.53905,37.76794],[-86.5394,37.76791],[-86.53943,37.7679],[-86.53962,37.76788],[-86.53962,37.76787],[-86.53987,37.76784],[-86.54014,37.76779],[-86.54057,37.76773],[-86.54096,37.76766],[-86.54119,37.76762],[-86.54163,37.76755],[-86.54163,37.76754],[-86.54185,37.76751],[-86.54252,37.76739],[-86.54274,37.76736],[-86.54275,37.76735],[-86.54297,37.76732],[-86.54319,37.76728],[-86.54354,37.76722],[-86.54374,37.76719],[-86.54388,37.7672],[-86.54399,37.76721],[-86.54408,37.76722],[-86.54413,37.76723],[-86.54419,37.76725],[-86.5443,37.76728],[-86.54439,37.76731],[-86.54448,37.76735],[-86.54459,37.7674],[-86.54479,37.76752],[-86.54513,37.76774],[-86.54545,37.76795],[-86.54562,37.76807],[-86.54579,37.76819],[-86.54597,37.7683],[-86.54623,37.76848],[-86.54666,37.76877],[-86.54768,37.76947],[-86.54769,37.76948],[-86.54804,37.76971],[-86.5481,37.76976],[-86.54821,37.76983],[-86.54825,37.76986],[-86.54832,37.7699],[-86.54843,37.76996],[-86.54855,37.77001],[-86.54861,37.77004],[-86.54868,37.77007],[-86.54876,37.77009],[-86.54886,37.77012],[-86.54901,37.77015],[-86.54901,37.77015],[-86.54907,37.77024],[-86.54911,37.7703],[-86.54916,37.77035],[-86.54922,37.77041],[-86.54929,37.77047],[-86.54937,37.77053],[-86.54975,37.77082],[-86.54975,37.77083],[-86.55085,37.77167],[-86.55122,37.77196],[-86.55205,37.77268],[-86.55225,37.77285],[-86.55246,37.77303],[-86.55265,37.77317],[-86.55275,37.77325],[-86.5529,37.77336],[-86.55305,37.77346],[-86.55318,37.77354],[-86.55338,37.77367],[-86.55355,37.77375],[-86.55371,37.77384],[-86.55393,37.77396],[-86.55397,37.77397],[-86.55414,37.77406],[-86.5544,37.77418],[-86.55452,37.77424],[-86.55471,37.77433],[-86.55491,37.77442],[-86.5551,37.77451],[-86.5553,37.77461],[-86.55609,37.77498],[-86.55628,37.77507],[-86.55667,37.77525],[-86.55686,37.77534],[-86.55706,37.77543],[-86.55725,37.77553],[-86.55805,37.7759],[-86.55848,37.77611],[-86.559,37.77638],[-86.55947,37.77664],[-86.55951,37.77667],[-86.5597,37.77677],[-86.55998,37.77694],[-86.56006,37.77699],[-86.56048,37.77724],[-86.56077,37.77742],[-86.56078,37.77743],[-86.56095,37.77755],[-86.56096,37.77755],[-86.56112,37.77767],[-86.56113,37.77768],[-86.56127,37.77779],[-86.56127,37.7778],[-86.56135,37.77787],[-86.56142,37.77794],[-86.56145,37.77796],[-86.56152,37.77803],[-86.56156,37.77808],[-86.5616,37.77812],[-86.56182,37.77838],[-86.56188,37.77844],[-86.56195,37.77853],[-86.56206,37.77866],[-86.56219,37.77883],[-86.56231,37.77898],[-86.56242,37.77913],[-86.56242,37.77914],[-86.56259,37.77936],[-86.56269,37.77951],[-86.5628,37.77967],[-86.56288,37.7798],[-86.56295,37.77993],[-86.56301,37.78004],[-86.56306,37.78015],[-86.5631,37.78024],[-86.56311,37.78027],[-86.56313,37.78033],[-86.56314,37.7804],[-86.56316,37.78045],[-86.56316,37.78046],[-86.56318,37.78056],[-86.56319,37.78062],[-86.56319,37.78065],[-86.56319,37.78074],[-86.56319,37.7808],[-86.56319,37.78082],[-86.56319,37.78088],[-86.56317,37.78101],[-86.56314,37.78116],[-86.56309,37.78131],[-86.56305,37.7814],[-86.56305,37.78141],[-86.56299,37.78153],[-86.5629,37.78168],[-86.56286,37.78173],[-86.56282,37.78179],[-86.56273,37.7819],[-86.56247,37.78217],[-86.56244,37.7822],[-86.56218,37.78246],[-86.5621,37.78255],[-86.562,37.78267],[-86.56192,37.78276],[-86.56186,37.78285],[-86.56178,37.78296],[-86.56171,37.78307],[-86.56168,37.78311],[-86.56159,37.78328],[-86.56148,37.78347],[-86.56144,37.78356],[-86.5614,37.78364],[-86.56135,37.78372],[-86.56118,37.78406],[-86.561,37.78439],[-86.56092,37.78456],[-86.56074,37.78489],[-86.56048,37.78539],[-86.56032,37.7857],[-86.56024,37.78587],[-86.56023,37.78589],[-86.56019,37.78598],[-86.56017,37.78606],[-86.56015,37.78613],[-86.56012,37.78626],[-86.5601,37.78639],[-86.5601,37.78646],[-86.56009,37.78651],[-86.5601,37.7866],[-86.5601,37.78664],[-86.56011,37.78676],[-86.56012,37.78685],[-86.56015,37.78695],[-86.56017,37.78703],[-86.56018,37.78707],[-86.5602,37.78713],[-86.56023,37.7872],[-86.5603,37.78734],[-86.56032,37.78737],[-86.56039,37.78747],[-86.56045,37.78756],[-86.5605,37.78762],[-86.56061,37.78774],[-86.56068,37.78783],[-86.56076,37.78791],[-86.56082,37.78797],[-86.56103,37.7882],[-86.56109,37.78826],[-86.56143,37.78863],[-86.56149,37.7887],[-86.56163,37.78884],[-86.56174,37.78896],[-86.56189,37.78913],[-86.56203,37.78928],[-86.56217,37.78944],[-86.56229,37.78957],[-86.56236,37.78965],[-86.56256,37.78986],[-86.56268,37.79],[-86.56276,37.79009],[-86.56282,37.79016],[-86.56286,37.79019],[-86.56296,37.7903],[-86.56301,37.79034],[-86.56305,37.79037],[-86.56311,37.79043],[-86.56312,37.79044],[-86.56328,37.79056],[-86.56337,37.79062],[-86.5634,37.79064],[-86.56345,37.79067],[-86.56361,37.79076],[-86.56364,37.79077],[-86.56375,37.79083],[-86.56386,37.79088],[-86.56412,37.791],[-86.56473,37.79128],[-86.56482,37.79132],[-86.56485,37.79133],[-86.56512,37.79146],[-86.56518,37.79149],[-86.56533,37.79157],[-86.56547,37.79164],[-86.56558,37.79172],[-86.56564,37.79176],[-86.56574,37.79184],[-86.56581,37.79189],[-86.5659,37.79197],[-86.56597,37.79202],[-86.56611,37.79217],[-86.56645,37.79255],[-86.5667,37.79285],[-86.5669,37.79308],[-86.56696,37.79314],[-86.56717,37.79338],[-86.56762,37.79393],[-86.56814,37.79452],[-86.5684,37.79482],[-86.56841,37.79483],[-86.56855,37.79497],[-86.56869,37.7951],[-86.56877,37.79518],[-86.56894,37.79531],[-86.56901,37.79535],[-86.56913,37.79543],[-86.56932,37.79554],[-86.56938,37.79557],[-86.56953,37.79564],[-86.56974,37.79573],[-86.56977,37.79574],[-86.56997,37.79581],[-86.56998,37.79581],[-86.5702,37.79587],[-86.57043,37.79592],[-86.57064,37.79595],[-86.57067,37.79595],[-86.57155,37.79604],[-86.572,37.79608],[-86.57222,37.79611],[-86.57229,37.79611],[-86.57245,37.79613],[-86.57268,37.79616],[-86.57358,37.79626],[-86.5738,37.79628],[-86.57403,37.79631],[-86.57454,37.79636],[-86.57479,37.7964],[-86.57499,37.79641],[-86.57513,37.79643],[-86.57522,37.79643],[-86.57536,37.79644],[-86.57544,37.79644],[-86.57552,37.79644],[-86.57569,37.79644],[-86.5759,37.79643],[-86.57613,37.79642],[-86.57615,37.79642],[-86.57635,37.7964],[-86.57662,37.79638],[-86.5768,37.79636],[-86.57725,37.79631],[-86.57771,37.79625],[-86.57789,37.79623],[-86.57793,37.79623],[-86.57816,37.79622],[-86.57834,37.79622],[-86.57861,37.79623],[-86.57863,37.79623],[-86.57884,37.79626],[-86.57889,37.79627],[-86.57905,37.79631],[-86.57925,37.79637],[-86.57927,37.79637],[-86.57945,37.79644],[-86.57947,37.79645],[-86.57963,37.79652],[-86.57967,37.79654],[-86.57981,37.79662],[-86.57998,37.79673],[-86.58015,37.79684],[-86.58062,37.79718],[-86.58087,37.79737],[-86.58094,37.79742],[-86.58105,37.79748],[-86.5812,37.79757],[-86.58143,37.79767],[-86.58159,37.79774],[-86.58164,37.79775],[-86.58202,37.79784],[-86.58229,37.79789],[-86.58242,37.79791],[-86.58286,37.79795],[-86.5832,37.79799],[-86.58378,37.79806],[-86.58387,37.79808],[-86.58409,37.79813],[-86.5841,37.79813],[-86.5843,37.79819],[-86.58448,37.79826],[-86.5845,37.79827],[-86.58458,37.79831],[-86.58469,37.79837],[-86.58476,37.79841],[-86.58487,37.79848],[-86.58493,37.79852],[-86.58509,37.79863],[-86.5852,37.79873],[-86.58522,37.79876],[-86.58534,37.79887],[-86.58535,37.79889],[-86.58541,37.79896],[-86.58546,37.79903],[-86.58551,37.7991],[-86.58559,37.79924],[-86.58565,37.79939],[-86.58577,37.7997],[-86.58578,37.79973],[-86.58584,37.79991],[-86.58589,37.80008],[-86.58595,37.80026],[-86.586,37.80043],[-86.58606,37.80061],[-86.58611,37.80078],[-86.58617,37.80095],[-86.58625,37.8012],[-86.58628,37.8013],[-86.58639,37.80165],[-86.58653,37.80214],[-86.58666,37.80254],[-86.58674,37.80284],[-86.58683,37.8032],[-86.58692,37.8035],[-86.58698,37.80367],[-86.58703,37.80385],[-86.58709,37.80402],[-86.58723,37.80447],[-86.58726,37.80454],[-86.58732,37.80472],[-86.58738,37.80489],[-86.58744,37.80506],[-86.58746,37.80511],[-86.58752,37.80523],[-86.5876,37.8054],[-86.58766,37.80553],[-86.58769,37.80557],[-86.58774,37.80566],[-86.5878,37.80572],[-86.58788,37.80582],[-86.58793,37.80587],[-86.58798,37.80592],[-86.5881,37.80599],[-86.58822,37.80607],[-86.58846,37.8062],[-86.58853,37.80624],[-86.58866,37.8063],[-86.58885,37.80639],[-86.58891,37.80641],[-86.58906,37.80646],[-86.58919,37.80649],[-86.58933,37.80651],[-86.58955,37.80653],[-86.5897,37.80654],[-86.58973,37.80654],[-86.58996,37.80655],[-86.59019,37.80656],[-86.59027,37.80656],[-86.59042,37.80656],[-86.59052,37.80657],[-86.59079,37.8066],[-86.59109,37.80665],[-86.59126,37.80669],[-86.59163,37.80678],[-86.5921,37.80696],[-86.59214,37.80698],[-86.59234,37.80707],[-86.59254,37.80715],[-86.59286,37.80729],[-86.59304,37.80736],[-86.59332,37.80745],[-86.59336,37.80747],[-86.59353,37.80752],[-86.59374,37.80759],[-86.59393,37.80765],[-86.59395,37.80765],[-86.59417,37.80771],[-86.59438,37.80777],[-86.59481,37.80789],[-86.59503,37.80795],[-86.59524,37.80801],[-86.59546,37.80806],[-86.59567,37.80812],[-86.59575,37.80814],[-86.59654,37.80834],[-86.59676,37.80839],[-86.59698,37.80845],[-86.59701,37.80845],[-86.59719,37.8085],[-86.59762,37.80862],[-86.59784,37.80868],[-86.59806,37.80873],[-86.59827,37.80879],[-86.59892,37.80897],[-86.59913,37.80902],[-86.59935,37.80908],[-86.59956,37.80914],[-86.59978,37.8092],[-86.5999,37.80923],[-86.60021,37.80931],[-86.60043,37.80937],[-86.60064,37.80942],[-86.60086,37.80948],[-86.60108,37.80953],[-86.60129,37.80959],[-86.60151,37.80964],[-86.60173,37.8097],[-86.60238,37.80987],[-86.60274,37.80996],[-86.60303,37.81002],[-86.60356,37.81012],[-86.60369,37.81015],[-86.60391,37.81021],[-86.60394,37.81021],[-86.6043,37.81035],[-86.60432,37.81036],[-86.6045,37.81047],[-86.60451,37.81047],[-86.60464,37.81057],[-86.60467,37.81059],[-86.60475,37.81066],[-86.60481,37.81073],[-86.6049,37.81085],[-86.60502,37.81105],[-86.60506,37.81112],[-86.6051,37.81122],[-86.60514,37.81135],[-86.60515,37.81139],[-86.60526,37.81174],[-86.60532,37.81197],[-86.60543,37.81232],[-86.60547,37.81244],[-86.60567,37.81296],[-86.6058,37.8133],[-86.60584,37.8134],[-86.60587,37.81348],[-86.60595,37.81365],[-86.60598,37.81373],[-86.6061,37.81395],[-86.60612,37.81398],[-86.60622,37.81413],[-86.60623,37.81414],[-86.60639,37.81434],[-86.60651,37.81448],[-86.60666,37.8146],[-86.60673,37.81466],[-86.60703,37.81483],[-86.60709,37.81486],[-86.60733,37.81498],[-86.60757,37.81508],[-86.60816,37.81527],[-86.60864,37.81539],[-86.60868,37.8154],[-86.60907,37.81549],[-86.60956,37.81561],[-86.60975,37.81568],[-86.60994,37.81575],[-86.61023,37.81588],[-86.61032,37.81593],[-86.6105,37.81604],[-86.61067,37.81615],[-86.6107,37.81617],[-86.61086,37.8163],[-86.61099,37.81641],[-86.61102,37.81643],[-86.61107,37.81648],[-86.61131,37.8167],[-86.61151,37.81689],[-86.61176,37.81711],[-86.61191,37.81725],[-86.61263,37.8179],[-86.61303,37.81823],[-86.6131,37.81829],[-86.61324,37.81843],[-86.61344,37.81866],[-86.61349,37.81873],[-86.61364,37.81895],[-86.61375,37.81919],[-86.61376,37.81923],[-86.61381,37.8194],[-86.61382,37.81946],[-86.61384,37.81988],[-86.61384,37.81994],[-86.61385,37.82012],[-86.61385,37.82049],[-86.61388,37.82057],[-86.61391,37.82065],[-86.614,37.82082],[-86.61411,37.82094],[-86.61414,37.82097],[-86.61415,37.82098],[-86.61423,37.82106],[-86.61438,37.82116],[-86.61446,37.82122],[-86.61448,37.82123],[-86.61449,37.82124],[-86.61462,37.82131],[-86.61465,37.82132],[-86.61468,37.82132],[-86.61484,37.82137],[-86.6149,37.82137],[-86.6151,37.82139],[-86.61512,37.82139],[-86.61535,37.8214],[-86.61541,37.8214],[-86.61558,37.8214],[-86.61567,37.8214],[-86.6158,37.82139],[-86.61586,37.82139],[-86.61603,37.82139],[-86.61609,37.82139],[-86.61615,37.82139],[-86.61626,37.8214],[-86.61632,37.82141],[-86.61647,37.82142],[-86.61649,37.82142],[-86.61654,37.82143],[-86.61675,37.82147],[-86.61693,37.82151],[-86.61698,37.82152],[-86.61719,37.8216],[-86.61728,37.82163],[-86.61734,37.82165],[-86.61739,37.82167],[-86.61755,37.82173],[-86.6176,37.82175],[-86.61763,37.82177],[-86.6178,37.82183],[-86.61798,37.82189],[-86.61801,37.82191],[-86.61815,37.82195],[-86.61837,37.82204],[-86.61858,37.82211],[-86.61879,37.82218],[-86.61895,37.82224],[-86.619,37.82225],[-86.6192,37.82233],[-86.61941,37.8224],[-86.61948,37.82242],[-86.61962,37.82247],[-86.61983,37.82255],[-86.62003,37.82263],[-86.62013,37.82266],[-86.62023,37.82271],[-86.62043,37.8228],[-86.62058,37.82287],[-86.62062,37.8229],[-86.62081,37.823],[-86.621,37.8231],[-86.62114,37.82318],[-86.62118,37.8232],[-86.62137,37.82331],[-86.62165,37.82347],[-86.62171,37.82351],[-86.62189,37.8236],[-86.62191,37.82361],[-86.62219,37.82373],[-86.62249,37.82383],[-86.62253,37.82384],[-86.62276,37.82388],[-86.62277,37.82389],[-86.62281,37.82389],[-86.62298,37.82391],[-86.623,37.82391],[-86.62322,37.82392],[-86.62326,37.82392],[-86.62328,37.82393],[-86.62345,37.82393],[-86.62349,37.82393],[-86.62368,37.82394],[-86.62375,37.82394],[-86.62431,37.82392],[-86.62437,37.82392],[-86.6244,37.82392],[-86.6245,37.82392],[-86.6246,37.82393],[-86.62469,37.82394],[-86.62488,37.82397],[-86.62505,37.82402],[-86.62506,37.82403],[-86.62521,37.82409],[-86.62525,37.82411],[-86.62526,37.82411],[-86.62537,37.82417],[-86.62544,37.82421],[-86.62545,37.82422],[-86.62552,37.82426],[-86.6256,37.82434],[-86.62561,37.82434],[-86.62564,37.82438],[-86.62581,37.82455],[-86.6265,37.82516],[-86.6268,37.82543],[-86.62695,37.82557],[-86.62709,37.8257],[-86.62721,37.82581],[-86.62723,37.82583],[-86.62737,37.82596],[-86.62751,37.8261],[-86.62766,37.82623],[-86.6278,37.82637],[-86.62806,37.82656],[-86.62846,37.82696],[-86.62848,37.82698],[-86.62858,37.8271],[-86.6287,37.82722],[-86.6288,37.82733],[-86.62889,37.82742],[-86.62901,37.82755],[-86.62907,37.8276],[-86.62915,37.82769],[-86.62936,37.82791],[-86.62952,37.8281],[-86.62968,37.82829],[-86.62973,37.82836],[-86.62978,37.82842],[-86.62984,37.82852],[-86.62991,37.82863],[-86.62994,37.82868],[-86.63003,37.82885],[-86.63011,37.82904],[-86.63016,37.82919],[-86.63022,37.82942],[-86.63028,37.82972],[-86.63036,37.83018],[-86.63042,37.83048],[-86.63057,37.83161],[-86.63066,37.83212],[-86.63066,37.83215],[-86.63067,37.83219],[-86.63073,37.83251],[-86.63077,37.8327],[-86.63091,37.83344],[-86.63097,37.83382],[-86.63099,37.834],[-86.631,37.83403],[-86.63101,37.83418],[-86.63102,37.83421],[-86.63102,37.83429],[-86.63102,37.83435],[-86.63102,37.83435],[-86.63092,37.83452],[-86.63089,37.83456],[-86.63087,37.83467],[-86.63088,37.83469],[-86.6309,37.83477],[-86.63093,37.83487],[-86.63112,37.83538],[-86.63119,37.83556],[-86.63125,37.83573],[-86.6313,37.8359],[-86.63132,37.83602],[-86.63132,37.83605],[-86.63132,37.83609],[-86.63135,37.83625],[-86.63136,37.8363],[-86.6314,37.83661],[-86.63144,37.83689],[-86.63148,37.8372],[-86.63148,37.8372],[-86.63167,37.83718]]}}]}