{"type":"FeatureCollection","features":[{"type":"Feature","properties":{"_gpxType":"trk","name":"Bill's IGA, Hawes Boulevard, Hawesville, KY - River Rd - 10300 US-431, Utica, KY 42376","coordinateProperties":{},"id":27},"geometry":{"type":"LineString","coordinates":[[-86.75427,37.89631],[-86.75456,37.89665],[-86.75475,37.89688],[-86.75477,37.89691],[-86.75482,37.89697],[-86.75492,37.89712],[-86.75504,37.89731],[-86.75519,37.89759],[-86.75523,37.89768],[-86.75531,37.89787],[-86.75544,37.89816],[-86.75544,37.89816],[-86.75533,37.89817],[-86.75524,37.89819],[-86.7552,37.8982],[-86.75517,37.89822],[-86.75514,37.89823],[-86.75512,37.89825],[-86.7551,37.89826],[-86.75499,37.8983],[-86.75487,37.89833],[-86.75483,37.89834],[-86.75478,37.89836],[-86.75457,37.89843],[-86.75437,37.89849],[-86.75425,37.89854],[-86.75424,37.89854],[-86.75424,37.89854],[-86.75421,37.89857],[-86.75416,37.89859],[-86.75413,37.89863],[-86.7541,37.89868],[-86.7541,37.89873],[-86.7541,37.89878],[-86.75411,37.89883],[-86.75412,37.89886],[-86.75415,37.89898],[-86.75416,37.89902],[-86.75417,37.89903],[-86.75418,37.89907],[-86.75418,37.89911],[-86.75416,37.89915],[-86.75414,37.89918],[-86.75411,37.8992],[-86.7541,37.8992],[-86.75405,37.89922],[-86.754,37.89924],[-86.75389,37.89928],[-86.75383,37.89929],[-86.75373,37.89933],[-86.7537,37.89935],[-86.75362,37.89939],[-86.75352,37.89946],[-86.75343,37.89953],[-86.75339,37.8996],[-86.75337,37.89962],[-86.7533,37.89972],[-86.75329,37.89976],[-86.75328,37.89981],[-86.75327,37.89991],[-86.75327,37.89994],[-86.75328,37.90001],[-86.75331,37.9001],[-86.75334,37.90015],[-86.75338,37.9002],[-86.75343,37.90025],[-86.75352,37.90033],[-86.7536,37.90039],[-86.75365,37.90042],[-86.75368,37.90044],[-86.75373,37.90047],[-86.75382,37.90051],[-86.75387,37.90054],[-86.75387,37.90054],[-86.75368,37.90056],[-86.75355,37.90058],[-86.75347,37.90059],[-86.75342,37.90059],[-86.75331,37.90061],[-86.75325,37.90061],[-86.75297,37.90065],[-86.75288,37.90066],[-86.75277,37.90067],[-86.75263,37.90069],[-86.75248,37.9007],[-86.75232,37.90071],[-86.75229,37.90072],[-86.75207,37.90073],[-86.75185,37.90075],[-86.75158,37.90076],[-86.75138,37.90075],[-86.75134,37.90075],[-86.75092,37.90074],[-86.7505,37.90072],[-86.75038,37.90072],[-86.75032,37.90072],[-86.75028,37.90073],[-86.75022,37.90074],[-86.75017,37.90075],[-86.75013,37.90077],[-86.75007,37.90079],[-86.75004,37.90081],[-86.75,37.90083],[-86.74995,37.90087],[-86.7499,37.90091],[-86.74985,37.90096],[-86.74937,37.90137],[-86.74937,37.90137],[-86.74984,37.90171],[-86.75034,37.90207],[-86.75061,37.90226],[-86.75112,37.90262],[-86.75162,37.90299],[-86.75165,37.90301],[-86.75183,37.90314],[-86.75186,37.90316],[-86.75206,37.9033],[-86.75238,37.90353],[-86.75275,37.9038],[-86.75306,37.90403],[-86.75312,37.90407],[-86.75321,37.90414],[-86.75353,37.90436],[-86.75381,37.90457],[-86.7539,37.90462],[-86.75395,37.90466],[-86.75402,37.9047],[-86.75423,37.90485],[-86.75461,37.90512],[-86.75469,37.90518],[-86.7547,37.90518],[-86.75478,37.90524],[-86.75521,37.90554],[-86.75524,37.90557],[-86.75524,37.90557],[-86.75534,37.90564],[-86.75535,37.90565],[-86.75541,37.90569],[-86.75552,37.90577],[-86.75558,37.90581],[-86.75566,37.90586],[-86.75569,37.90589],[-86.75576,37.90593],[-86.75583,37.90598],[-86.75602,37.90611],[-86.75604,37.90612],[-86.75621,37.90624],[-86.75625,37.90627],[-86.75627,37.90629],[-86.75667,37.90657],[-86.75672,37.9066],[-86.75675,37.90663],[-86.75682,37.90669],[-86.75687,37.90677],[-86.75688,37.90684],[-86.75686,37.90691],[-86.75682,37.90697],[-86.75679,37.90699],[-86.75677,37.90702],[-86.75665,37.90709],[-86.75662,37.90711],[-86.75656,37.90715],[-86.75642,37.90724],[-86.75626,37.90736],[-86.75619,37.90741],[-86.75611,37.90746],[-86.75603,37.9075],[-86.75589,37.90758],[-86.75579,37.90763],[-86.75572,37.90768],[-86.75565,37.90773],[-86.75561,37.90778],[-86.75558,37.90785],[-86.75558,37.90792],[-86.7556,37.90799],[-86.75564,37.90806],[-86.7557,37.90813],[-86.75576,37.9082],[-86.75588,37.90831],[-86.75602,37.90844],[-86.75675,37.90913],[-86.75705,37.90941],[-86.75744,37.90978],[-86.75748,37.90983],[-86.75843,37.91084],[-86.75857,37.91098],[-86.75865,37.91109],[-86.7588,37.91124],[-86.75906,37.91151],[-86.75913,37.91158],[-86.7594,37.91191],[-86.75958,37.91212],[-86.76,37.91261],[-86.76025,37.9129],[-86.76038,37.91305],[-86.76051,37.9132],[-86.76063,37.91335],[-86.7619,37.91485],[-86.76203,37.915],[-86.76216,37.91515],[-86.76304,37.91619],[-86.76355,37.91679],[-86.76368,37.91694],[-86.76419,37.91754],[-86.7643,37.91767],[-86.76458,37.91798],[-86.76471,37.91812],[-86.76485,37.91827],[-86.76495,37.91838],[-86.76561,37.91916],[-86.76571,37.91927],[-86.76574,37.91931],[-86.76618,37.91994],[-86.76728,37.92152],[-86.76739,37.92168],[-86.76761,37.92199],[-86.76772,37.92215],[-86.76783,37.92231],[-86.76794,37.92246],[-86.76805,37.92262],[-86.76827,37.92294],[-86.76849,37.92325],[-86.7686,37.92341],[-86.76871,37.92357],[-86.76893,37.92388],[-86.76906,37.92407],[-86.76915,37.9242],[-86.76925,37.92436],[-86.76936,37.92452],[-86.76977,37.92516],[-86.7705,37.92628],[-86.77061,37.92644],[-86.77071,37.9266],[-86.77093,37.92693],[-86.77096,37.92699],[-86.771,37.92705],[-86.77103,37.9271],[-86.77106,37.92714],[-86.77113,37.92722],[-86.77114,37.92723],[-86.77121,37.92728],[-86.77129,37.9273],[-86.77134,37.9273],[-86.77137,37.9273],[-86.77146,37.92728],[-86.77155,37.92725],[-86.77163,37.9272],[-86.77174,37.92714],[-86.77177,37.92712],[-86.77208,37.92694],[-86.77225,37.92683],[-86.77236,37.92676],[-86.77246,37.9267],[-86.77278,37.92649],[-86.77308,37.92631],[-86.77318,37.92625],[-86.77353,37.92603],[-86.77375,37.9259],[-86.77386,37.92585],[-86.77391,37.92582],[-86.77397,37.9258],[-86.77403,37.92579],[-86.77409,37.92577],[-86.77416,37.92577],[-86.77422,37.92576],[-86.77435,37.92578],[-86.77441,37.92579],[-86.77448,37.92581],[-86.77454,37.92583],[-86.7746,37.92586],[-86.77472,37.92591],[-86.77484,37.92598],[-86.77502,37.92609],[-86.77508,37.92613],[-86.77529,37.92624],[-86.77531,37.92625],[-86.77542,37.92632],[-86.77556,37.9264],[-86.77563,37.92644],[-86.77583,37.92656],[-86.77597,37.92664],[-86.77618,37.92676],[-86.77623,37.92678],[-86.77647,37.9269],[-86.77655,37.92694],[-86.77678,37.92703],[-86.77702,37.92714],[-86.77717,37.9272],[-86.77742,37.92729],[-86.77764,37.92738],[-86.77783,37.92747],[-86.77792,37.92751],[-86.77797,37.92753],[-86.77803,37.92756],[-86.77808,37.92759],[-86.77813,37.92762],[-86.77818,37.92765],[-86.77824,37.92768],[-86.77839,37.92778],[-86.77849,37.92784],[-86.77864,37.92795],[-86.77881,37.92807],[-86.77892,37.92816],[-86.77911,37.9283],[-86.77924,37.92838],[-86.77926,37.92839],[-86.7794,37.9285],[-86.77941,37.9285],[-86.77955,37.9286],[-86.77979,37.92878],[-86.77993,37.92889],[-86.78027,37.92914],[-86.7804,37.92924],[-86.78057,37.92937],[-86.78078,37.92953],[-86.78112,37.92979],[-86.78123,37.92986],[-86.78147,37.93004],[-86.78151,37.93007],[-86.78156,37.93011],[-86.78163,37.93016],[-86.78168,37.9302],[-86.78177,37.93027],[-86.78228,37.93063],[-86.78264,37.93091],[-86.78298,37.93114],[-86.78347,37.9315],[-86.78352,37.93153],[-86.78377,37.93172],[-86.78449,37.93223],[-86.78474,37.93241],[-86.78498,37.93259],[-86.78512,37.93269],[-86.78541,37.93289],[-86.78561,37.93304],[-86.78582,37.9332],[-86.78615,37.93345],[-86.78624,37.93352],[-86.78654,37.93376],[-86.78656,37.93378],[-86.78671,37.9339],[-86.78681,37.93398],[-86.78704,37.93418],[-86.78721,37.93434],[-86.78743,37.93452],[-86.78767,37.93474],[-86.78777,37.93483],[-86.78786,37.93492],[-86.78793,37.93498],[-86.78794,37.93499],[-86.78817,37.93521],[-86.78841,37.93543],[-86.78859,37.93564],[-86.78876,37.93581],[-86.78894,37.936],[-86.78918,37.93627],[-86.78952,37.93663],[-86.78966,37.93679],[-86.79045,37.93764],[-86.79067,37.93787],[-86.79077,37.93799],[-86.79087,37.93811],[-86.79092,37.93817],[-86.79096,37.93823],[-86.79099,37.93827],[-86.791,37.9383],[-86.79113,37.93849],[-86.79133,37.93882],[-86.79158,37.93924],[-86.79206,37.94006],[-86.79215,37.94021],[-86.79232,37.94049],[-86.79235,37.94055],[-86.7924,37.94064],[-86.79257,37.94092],[-86.79274,37.9412],[-86.79277,37.94124],[-86.79284,37.94136],[-86.79288,37.94143],[-86.79294,37.94152],[-86.79314,37.94185],[-86.79335,37.94216],[-86.79339,37.94222],[-86.79357,37.9425],[-86.79366,37.94264],[-86.7941,37.94332],[-86.7944,37.94376],[-86.79442,37.94379],[-86.7945,37.94392],[-86.79513,37.94488],[-86.7953,37.94515],[-86.79551,37.94548],[-86.79553,37.94553],[-86.79565,37.94572],[-86.79581,37.946],[-86.79596,37.94629],[-86.79603,37.94644],[-86.79617,37.94672],[-86.79624,37.94685],[-86.79637,37.94715],[-86.79655,37.94753],[-86.79663,37.94772],[-86.79675,37.94801],[-86.79676,37.94804],[-86.7968,37.94816],[-86.79691,37.94846],[-86.79703,37.94882],[-86.79712,37.94913],[-86.79724,37.94955],[-86.7975,37.95049],[-86.79762,37.95094],[-86.79764,37.95102],[-86.7977,37.95119],[-86.79771,37.95123],[-86.79772,37.95128],[-86.79772,37.95131],[-86.79777,37.95158],[-86.79782,37.95186],[-86.79785,37.95203],[-86.79785,37.95204],[-86.79786,37.95207],[-86.79788,37.95221],[-86.79788,37.95222],[-86.79791,37.95253],[-86.79795,37.95285],[-86.79798,37.95329],[-86.79799,37.95335],[-86.798,37.95347],[-86.79801,37.95365],[-86.79802,37.95387],[-86.79804,37.95419],[-86.79805,37.95437],[-86.79806,37.95455],[-86.79807,37.95463],[-86.79809,37.95503],[-86.7981,37.95527],[-86.7981,37.95538],[-86.7981,37.95544],[-86.7981,37.95545],[-86.79811,37.95571],[-86.7981,37.95588],[-86.79809,37.95616],[-86.79809,37.95617],[-86.79809,37.95634],[-86.79809,37.95635],[-86.79806,37.95679],[-86.79803,37.95724],[-86.79801,37.95755],[-86.79797,37.95818],[-86.79796,37.9585],[-86.79796,37.95868],[-86.79795,37.95886],[-86.79794,37.95922],[-86.79793,37.9594],[-86.79791,37.95994],[-86.7979,37.96042],[-86.7979,37.96064],[-86.7979,37.96086],[-86.79791,37.961],[-86.79791,37.96111],[-86.79792,37.96123],[-86.79794,37.96136],[-86.79795,37.96139],[-86.79797,37.96153],[-86.79797,37.96155],[-86.79799,37.96163],[-86.798,37.96171],[-86.79804,37.96187],[-86.79806,37.96194],[-86.79809,37.96204],[-86.7981,37.96206],[-86.79815,37.96224],[-86.79844,37.96327],[-86.79845,37.96329],[-86.7985,37.96347],[-86.79859,37.96379],[-86.79874,37.96432],[-86.79881,37.96467],[-86.7989,37.9651],[-86.79893,37.96528],[-86.7991,37.96617],[-86.79914,37.96635],[-86.79924,37.96688],[-86.79933,37.96737],[-86.79938,37.96759],[-86.79961,37.96879],[-86.79963,37.96883],[-86.79967,37.96901],[-86.79982,37.96954],[-86.79992,37.96989],[-86.79997,37.97006],[-86.80001,37.97024],[-86.80006,37.97042],[-86.80011,37.97059],[-86.80016,37.97077],[-86.80018,37.97084],[-86.80032,37.97129],[-86.80037,37.97147],[-86.80048,37.97182],[-86.80048,37.97183],[-86.80103,37.97338],[-86.80114,37.97367],[-86.80133,37.97429],[-86.80145,37.97463],[-86.80161,37.97506],[-86.80163,37.97512],[-86.8017,37.97529],[-86.8017,37.9753],[-86.80178,37.97546],[-86.80187,37.97562],[-86.80198,37.97583],[-86.80226,37.97627],[-86.80237,37.97643],[-86.8031,37.9776],[-86.80328,37.97787],[-86.80329,37.97788],[-86.8034,37.97804],[-86.80355,37.97828],[-86.80365,37.97842],[-86.80375,37.97855],[-86.80384,37.97867],[-86.80397,37.9788],[-86.80404,37.97886],[-86.80438,37.97919],[-86.80467,37.97946],[-86.80469,37.97948],[-86.80512,37.97989],[-86.8054,37.98016],[-86.80543,37.98019],[-86.80555,37.9803],[-86.80569,37.98044],[-86.80596,37.98069],[-86.80635,37.98107],[-86.80642,37.98113],[-86.80648,37.9812],[-86.8067,37.98141],[-86.80674,37.98145],[-86.80699,37.98169],[-86.807,37.9817],[-86.80713,37.98183],[-86.80726,37.98198],[-86.80731,37.98203],[-86.80755,37.98228],[-86.80779,37.98255],[-86.8078,37.98256],[-86.80794,37.9827],[-86.80797,37.98274],[-86.80808,37.98286],[-86.80829,37.98312],[-86.80845,37.9833],[-86.80851,37.98337],[-86.80858,37.98345],[-86.80871,37.98359],[-86.8089,37.98379],[-86.80917,37.98409],[-86.80929,37.9842],[-86.80941,37.98431],[-86.80953,37.98442],[-86.80966,37.98452],[-86.8098,37.98462],[-86.80987,37.98467],[-86.81001,37.98477],[-86.81006,37.9848],[-86.81021,37.98492],[-86.81034,37.98502],[-86.81047,37.98512],[-86.81054,37.98519],[-86.81059,37.98522],[-86.8107,37.98533],[-86.81081,37.98544],[-86.81083,37.98547],[-86.81097,37.98561],[-86.81102,37.98566],[-86.81132,37.98599],[-86.81138,37.98604],[-86.81148,37.98615],[-86.81151,37.98619],[-86.81159,37.98627],[-86.81175,37.98645],[-86.81178,37.98648],[-86.81191,37.98659],[-86.81211,37.98676],[-86.81237,37.98697],[-86.81251,37.98709],[-86.81253,37.9871],[-86.81268,37.98723],[-86.81316,37.98762],[-86.81325,37.9877],[-86.81396,37.98826],[-86.8141,37.98838],[-86.81412,37.98839],[-86.81432,37.98856],[-86.81443,37.98864],[-86.81448,37.98867],[-86.81453,37.98871],[-86.81463,37.98876],[-86.81473,37.98878],[-86.81483,37.98879],[-86.81493,37.98877],[-86.81499,37.98875]]}},{"type":"Feature","properties":{"_gpxType":"trk","name":"Bill's IGA, Hawes Boulevard, Hawesville, KY - River Rd - 10300 US-431, Utica, KY 42376","coordinateProperties":{},"id":27},"geometry":{"type":"LineString","coordinates":[[-86.81499,37.98875],[-86.81502,37.98874],[-86.81506,37.98872],[-86.81511,37.9887],[-86.8152,37.98865],[-86.81534,37.98856],[-86.81548,37.98847],[-86.81564,37.98836],[-86.81593,37.98817],[-86.81594,37.98816],[-86.81627,37.98791],[-86.81636,37.98785],[-86.81688,37.98746],[-86.81694,37.98742],[-86.81702,37.98736],[-86.81723,37.98721],[-86.81751,37.98702],[-86.81762,37.98694],[-86.81774,37.98687],[-86.81789,37.98678],[-86.81816,37.9866],[-86.81819,37.98659],[-86.81834,37.9865],[-86.81852,37.98639],[-86.81866,37.9863],[-86.81897,37.98612],[-86.81907,37.98606],[-86.81918,37.986],[-86.81921,37.98599],[-86.81926,37.98596],[-86.81948,37.98584],[-86.81963,37.98576],[-86.81982,37.98565],[-86.82016,37.98547],[-86.8203,37.98539],[-86.82055,37.98525],[-86.82092,37.98504],[-86.821,37.985],[-86.82129,37.98483],[-86.82165,37.98462],[-86.82196,37.98445],[-86.82204,37.9844],[-86.82221,37.98431],[-86.82234,37.98423],[-86.82258,37.9841],[-86.8227,37.98403],[-86.82283,37.98395],[-86.82295,37.98388],[-86.82304,37.98381],[-86.82307,37.98377],[-86.82309,37.98375],[-86.82309,37.98374],[-86.82312,37.98365],[-86.82312,37.98357],[-86.8231,37.98348],[-86.82305,37.9834],[-86.82299,37.98332],[-86.82265,37.98288],[-86.82234,37.98248],[-86.82227,37.98239],[-86.8222,37.9823],[-86.82217,37.98225],[-86.82215,37.98221],[-86.82213,37.98216],[-86.82211,37.98211],[-86.82211,37.98202],[-86.82215,37.98193],[-86.82221,37.98186],[-86.82225,37.98184],[-86.8223,37.9818],[-86.8224,37.98176],[-86.82244,37.98174],[-86.82252,37.98172],[-86.8227,37.98167],[-86.82309,37.98156],[-86.8233,37.98151],[-86.82361,37.98142],[-86.82395,37.98133],[-86.82525,37.98099],[-86.82546,37.98093],[-86.82562,37.98089],[-86.8259,37.98082],[-86.82618,37.98074],[-86.82636,37.98069],[-86.82664,37.98061],[-86.8269,37.98054],[-86.82737,37.98042],[-86.82798,37.98025],[-86.82846,37.98012],[-86.82862,37.98008],[-86.82889,37.98001],[-86.82906,37.97996],[-86.82932,37.9799],[-86.82949,37.97986],[-86.82974,37.97981],[-86.82989,37.97979],[-86.83005,37.97976],[-86.8302,37.97972],[-86.83027,37.97971],[-86.83041,37.97967],[-86.83054,37.97962],[-86.8306,37.9796],[-86.83087,37.97949],[-86.83163,37.97919],[-86.83171,37.97916],[-86.83178,37.97913],[-86.83304,37.97863],[-86.83389,37.9783],[-86.83439,37.97811],[-86.83533,37.97775],[-86.83612,37.97744],[-86.83692,37.97713],[-86.8376,37.97687],[-86.83769,37.97684],[-86.83835,37.97658],[-86.83837,37.97657],[-86.83917,37.97625],[-86.83975,37.97601],[-86.84004,37.9759],[-86.84052,37.97572],[-86.84064,37.97567],[-86.84098,37.97554],[-86.84105,37.97551],[-86.84126,37.97544],[-86.84143,37.97537],[-86.84152,37.97533],[-86.84159,37.97528],[-86.84162,37.97523],[-86.84163,37.97522],[-86.84165,37.97516],[-86.84165,37.97508],[-86.84164,37.975],[-86.84162,37.9747],[-86.84161,37.97454],[-86.84161,37.97448],[-86.84161,37.97435],[-86.84163,37.97423],[-86.84166,37.9741],[-86.84171,37.97397],[-86.84177,37.97381],[-86.84182,37.97371],[-86.84184,37.97364],[-86.84202,37.97323],[-86.84206,37.97313],[-86.84214,37.97296],[-86.84222,37.97278],[-86.84229,37.97262],[-86.84234,37.97252],[-86.84244,37.97233],[-86.84246,37.97229],[-86.84251,37.9722],[-86.84255,37.97214],[-86.84256,37.97213],[-86.84259,37.97208],[-86.84264,37.97203],[-86.84269,37.97198],[-86.8427,37.97197],[-86.84275,37.97192],[-86.84288,37.97182],[-86.84301,37.97173],[-86.84337,37.9715],[-86.84373,37.97127],[-86.84407,37.97104],[-86.8445,37.97077],[-86.84458,37.97071],[-86.84486,37.97052],[-86.84492,37.97049],[-86.84498,37.97045],[-86.84603,37.96976],[-86.84636,37.96954],[-86.84711,37.96905],[-86.84719,37.969],[-86.84744,37.96884],[-86.84778,37.96862],[-86.84815,37.96838],[-86.84839,37.96823],[-86.84921,37.9677],[-86.84977,37.96734],[-86.8498,37.96732],[-86.84992,37.96725],[-86.85009,37.96713],[-86.85014,37.9671],[-86.85027,37.96702],[-86.85057,37.96682],[-86.85107,37.96651],[-86.85145,37.96626],[-86.85154,37.96621],[-86.85164,37.96615],[-86.85178,37.96606],[-86.85248,37.96562],[-86.8525,37.9656],[-86.85264,37.96552],[-86.853,37.9653],[-86.85327,37.96513],[-86.85402,37.96468],[-86.85404,37.96467],[-86.85443,37.96443],[-86.85495,37.9641],[-86.85497,37.96408],[-86.85513,37.96398],[-86.85577,37.96357],[-86.85595,37.96346],[-86.85603,37.9634],[-86.85631,37.96323],[-86.85666,37.96302],[-86.8569,37.96286],[-86.8576,37.96243],[-86.85778,37.96231],[-86.85791,37.96223],[-86.85798,37.96219],[-86.85898,37.96155],[-86.85928,37.96136],[-86.85947,37.96124],[-86.85985,37.961],[-86.86005,37.96088],[-86.86061,37.96052],[-86.86105,37.96025],[-86.8615,37.95996],[-86.86154,37.95994],[-86.86192,37.95971],[-86.86194,37.95969],[-86.8623,37.95946],[-86.8626,37.95928],[-86.86314,37.95893],[-86.8633,37.95882],[-86.86332,37.95881],[-86.86334,37.95879],[-86.86348,37.95871],[-86.86399,37.95838],[-86.86421,37.95824],[-86.86481,37.95786],[-86.86509,37.95768],[-86.86527,37.95757],[-86.86537,37.9575],[-86.86545,37.95746],[-86.8658,37.95724],[-86.86593,37.95716],[-86.86618,37.95701],[-86.86628,37.95693],[-86.86633,37.95689],[-86.86638,37.95685],[-86.86642,37.9568],[-86.86645,37.95674],[-86.86647,37.9567],[-86.86649,37.95664],[-86.8665,37.9566],[-86.8665,37.95656],[-86.86651,37.95649],[-86.86651,37.95638],[-86.86651,37.95624],[-86.86654,37.95589],[-86.86654,37.95585],[-86.86655,37.95572],[-86.86655,37.95567],[-86.86655,37.95564],[-86.86654,37.95551],[-86.86653,37.95547],[-86.86651,37.95538],[-86.86649,37.95535],[-86.86646,37.95529],[-86.86644,37.95525],[-86.86636,37.95514],[-86.86626,37.95503],[-86.86618,37.95495],[-86.86608,37.95484],[-86.86596,37.95472],[-86.86584,37.95459],[-86.86583,37.95458],[-86.86578,37.95453],[-86.86575,37.95449],[-86.8657,37.95443],[-86.8657,37.95442],[-86.86566,37.95435],[-86.86564,37.95431],[-86.86561,37.95422],[-86.8656,37.95418],[-86.86558,37.95406],[-86.86557,37.95394],[-86.86557,37.95379],[-86.86557,37.95372],[-86.86557,37.95363],[-86.86558,37.953],[-86.86559,37.95284],[-86.86559,37.95283],[-86.86561,37.95265],[-86.86561,37.95256],[-86.86568,37.95227],[-86.86578,37.95205],[-86.86589,37.95188],[-86.86603,37.95174],[-86.86619,37.95163],[-86.86638,37.95153],[-86.86648,37.95147],[-86.86659,37.95143],[-86.86683,37.95133],[-86.867,37.95127],[-86.86715,37.95121],[-86.8672,37.95119],[-86.86732,37.95116],[-86.86748,37.95111],[-86.86764,37.95108],[-86.86766,37.95108],[-86.86786,37.95105],[-86.8679,37.95105],[-86.86809,37.95103],[-86.8682,37.95102],[-86.86826,37.95101],[-86.86831,37.951],[-86.86832,37.951],[-86.86854,37.95098],[-86.86886,37.95095],[-86.869,37.95094],[-86.86921,37.95094],[-86.86922,37.95093],[-86.86942,37.95092],[-86.86945,37.95092],[-86.86977,37.95091],[-86.86998,37.95091],[-86.87013,37.95091],[-86.87025,37.9509],[-86.87059,37.9509],[-86.87064,37.9509],[-86.87082,37.9509],[-86.87094,37.95092],[-86.871,37.95093],[-86.87104,37.95094],[-86.8711,37.95096],[-86.87116,37.95098],[-86.87125,37.95102],[-86.87126,37.95102],[-86.87131,37.95105],[-86.87135,37.95107],[-86.87144,37.95113],[-86.87148,37.95116],[-86.87155,37.95122],[-86.87168,37.95134],[-86.8718,37.95144],[-86.87193,37.95155],[-86.87206,37.95165],[-86.87221,37.95175],[-86.87237,37.95184],[-86.87245,37.95187],[-86.87248,37.95189],[-86.87254,37.95191],[-86.87273,37.95198],[-86.87293,37.95205],[-86.87307,37.95209],[-86.87313,37.95211],[-86.87364,37.95226],[-86.87385,37.95232],[-86.874,37.95237],[-86.87414,37.95241],[-86.87416,37.95242],[-86.87431,37.95247],[-86.87466,37.9526],[-86.87516,37.95278],[-86.87518,37.95279],[-86.87536,37.95285],[-86.87559,37.95294],[-86.87575,37.953],[-86.8758,37.95302],[-86.87593,37.95307],[-86.87599,37.95309],[-86.8761,37.95315],[-86.87616,37.95318],[-86.87626,37.95324],[-86.87631,37.95328],[-86.87641,37.95335],[-86.87654,37.95346],[-86.87711,37.95397],[-86.87724,37.95408],[-86.87732,37.95416],[-86.87739,37.95422],[-86.87746,37.95425],[-86.87754,37.95428],[-86.87763,37.95428],[-86.87766,37.95427],[-86.87767,37.95427],[-86.87771,37.95426],[-86.87776,37.95424],[-86.8778,37.95421],[-86.87789,37.95416],[-86.87799,37.95409],[-86.87808,37.95401],[-86.87834,37.95381],[-86.8785,37.95368],[-86.87861,37.95358],[-86.8789,37.95332],[-86.87917,37.95307],[-86.87932,37.95295],[-86.87946,37.95283],[-86.87962,37.95271],[-86.87978,37.9526],[-86.87985,37.95255],[-86.88011,37.95237],[-86.88027,37.95226],[-86.88053,37.95207],[-86.8807,37.95195],[-86.88076,37.9519],[-86.88104,37.9517],[-86.88126,37.95154],[-86.88143,37.95142],[-86.8816,37.95129],[-86.8817,37.95122],[-86.88177,37.95117],[-86.88198,37.95101],[-86.88202,37.95098],[-86.88264,37.95054],[-86.88272,37.95047],[-86.88281,37.95041],[-86.88309,37.95021],[-86.88357,37.94986],[-86.88377,37.94973],[-86.88421,37.94941],[-86.88426,37.94937],[-86.88496,37.94888],[-86.88511,37.94878],[-86.8853,37.94865],[-86.88547,37.94853],[-86.88559,37.94844],[-86.88568,37.94838],[-86.88578,37.94831],[-86.88654,37.94778],[-86.88674,37.94765],[-86.88708,37.94742],[-86.88728,37.9473],[-86.88747,37.94717],[-86.88772,37.94701],[-86.8879,37.9469],[-86.888,37.94683],[-86.88808,37.94678],[-86.88861,37.94644],[-86.88873,37.94637],[-86.88926,37.94604],[-86.88945,37.94592],[-86.88968,37.94577],[-86.88986,37.94566],[-86.89018,37.94547],[-86.89022,37.94544],[-86.8904,37.94533],[-86.89086,37.94505],[-86.8913,37.94478],[-86.89148,37.94467],[-86.89185,37.94445],[-86.89209,37.9443],[-86.89243,37.94409],[-86.89318,37.94364],[-86.89329,37.94357],[-86.89342,37.94349],[-86.89347,37.94346],[-86.89387,37.94322],[-86.89401,37.94313],[-86.89415,37.94304],[-86.89419,37.94302],[-86.89436,37.9429],[-86.89447,37.94283],[-86.89452,37.9428],[-86.8947,37.94268],[-86.89489,37.94256],[-86.89506,37.94246],[-86.89544,37.94226],[-86.89582,37.94206],[-86.89605,37.94195],[-86.89628,37.94183],[-86.89637,37.94179],[-86.89641,37.94176],[-86.8965,37.94172],[-86.89659,37.94167],[-86.89678,37.94158],[-86.89698,37.94148],[-86.89708,37.94143],[-86.89723,37.94136],[-86.89745,37.94125],[-86.89756,37.9412],[-86.89776,37.94111],[-86.89782,37.94108],[-86.89788,37.94105],[-86.89793,37.94102],[-86.89798,37.94099],[-86.89802,37.94096],[-86.89808,37.94089],[-86.8981,37.94082],[-86.8981,37.94074],[-86.89809,37.94069],[-86.89809,37.94067],[-86.89808,37.94066],[-86.89805,37.94058],[-86.89801,37.94051],[-86.89801,37.9405],[-86.89795,37.94038],[-86.89794,37.94033],[-86.89791,37.94027],[-86.89789,37.9402],[-86.89789,37.94016],[-86.89789,37.94013],[-86.8979,37.9401],[-86.89792,37.94006],[-86.89795,37.94004],[-86.89798,37.94001],[-86.89799,37.94],[-86.89805,37.93997],[-86.89825,37.93989],[-86.89874,37.93969],[-86.89879,37.93966],[-86.89901,37.93957],[-86.89907,37.93955],[-86.89941,37.9394],[-86.8995,37.93936],[-86.89956,37.93934],[-86.89971,37.93928],[-86.89975,37.93926],[-86.90036,37.939],[-86.90052,37.93893],[-86.90125,37.93862],[-86.90137,37.93857],[-86.90143,37.93854],[-86.90168,37.93844],[-86.90195,37.93832],[-86.9026,37.93804],[-86.90264,37.93803],[-86.90283,37.93795],[-86.9029,37.93792],[-86.90301,37.93787],[-86.90301,37.93787],[-86.90294,37.93775],[-86.90286,37.93764],[-86.90282,37.93758],[-86.90272,37.93744],[-86.90271,37.93742],[-86.9024,37.93696],[-86.9024,37.93696],[-86.90374,37.93639],[-86.90505,37.93583],[-86.90571,37.93556],[-86.90645,37.93525],[-86.90726,37.93491],[-86.90772,37.93472],[-86.90848,37.93441],[-86.90922,37.9341],[-86.90928,37.93408],[-86.90964,37.93393],[-86.90995,37.9338],[-86.91032,37.93364],[-86.91068,37.9335],[-86.91138,37.93321],[-86.91165,37.9331],[-86.91173,37.93306],[-86.91178,37.93303],[-86.91186,37.933],[-86.91203,37.9329],[-86.91215,37.93282],[-86.91217,37.93281],[-86.91223,37.93276],[-86.91238,37.93264],[-86.91259,37.93247],[-86.91261,37.93245],[-86.9132,37.93198],[-86.91372,37.93154],[-86.91419,37.93114],[-86.91422,37.93111],[-86.91438,37.93098],[-86.91474,37.93069],[-86.91501,37.93046],[-86.91517,37.93033],[-86.91534,37.93018],[-86.91548,37.93007],[-86.91642,37.92928],[-86.91645,37.92926],[-86.91661,37.92912],[-86.91667,37.92907],[-86.91683,37.92895],[-86.91693,37.92888],[-86.91704,37.92881],[-86.91715,37.92875],[-86.91731,37.92866],[-86.91732,37.92865],[-86.91744,37.9286],[-86.9175,37.92857],[-86.91751,37.92857],[-86.91769,37.92849],[-86.91789,37.92843],[-86.91809,37.92837],[-86.91822,37.92834],[-86.91846,37.92828],[-86.91892,37.92818],[-86.91909,37.92815],[-86.91942,37.92807],[-86.91959,37.92803],[-86.92011,37.92792],[-86.92026,37.92789],[-86.92048,37.92784],[-86.92096,37.92773],[-86.92127,37.92767],[-86.92142,37.92763],[-86.92158,37.9276],[-86.92216,37.92747],[-86.92414,37.92703],[-86.92508,37.92683],[-86.92552,37.92673],[-86.92596,37.92663],[-86.92618,37.92659],[-86.9264,37.92654],[-86.92661,37.92649],[-86.92683,37.92645],[-86.92684,37.92644],[-86.92706,37.9264],[-86.92739,37.92634],[-86.92785,37.92626],[-86.9282,37.9262],[-86.9286,37.92613],[-86.92865,37.92613],[-86.92911,37.92605],[-86.92957,37.92599],[-86.92968,37.92597],[-86.92972,37.92597],[-86.9298,37.92595],[-86.92994,37.92593],[-86.93015,37.9259],[-86.93016,37.9259],[-86.93085,37.92578],[-86.9315,37.92566],[-86.93169,37.92563],[-86.93182,37.92561],[-86.93207,37.92556],[-86.9322,37.92554],[-86.93245,37.92549],[-86.93342,37.92531],[-86.93348,37.92531],[-86.93386,37.92523],[-86.93393,37.92522],[-86.93471,37.92508],[-86.93515,37.925],[-86.93516,37.925],[-86.93569,37.9249],[-86.93769,37.92451],[-86.93797,37.92445],[-86.93826,37.9244],[-86.93848,37.92435],[-86.9399,37.92408],[-86.93996,37.92406],[-86.94003,37.92405],[-86.94008,37.92404],[-86.94012,37.92403],[-86.94025,37.92401],[-86.94042,37.92398],[-86.9416,37.9238],[-86.94205,37.92374],[-86.9425,37.92367],[-86.94294,37.9236],[-86.94317,37.92357],[-86.94496,37.9233],[-86.94675,37.92303],[-86.94742,37.92293],[-86.94787,37.92286],[-86.94944,37.92262],[-86.94958,37.9226],[-86.94976,37.92257],[-86.95088,37.9224],[-86.95115,37.92236],[-86.95137,37.92233],[-86.95162,37.92229],[-86.95179,37.92226],[-86.95195,37.92224],[-86.9522,37.92219],[-86.95247,37.92213],[-86.95265,37.92208],[-86.95288,37.92202],[-86.95295,37.92201],[-86.95301,37.92199],[-86.95363,37.92183],[-86.9546,37.92157],[-86.95518,37.92141],[-86.95707,37.92091],[-86.95822,37.9206],[-86.95863,37.92048],[-86.95903,37.92037],[-86.95923,37.92031],[-86.95943,37.92024],[-86.95967,37.92014],[-86.95986,37.92005],[-86.96011,37.91993],[-86.96037,37.91979],[-86.96056,37.91968],[-86.96069,37.9196],[-86.9608,37.91953],[-86.96091,37.91945],[-86.96093,37.91943],[-86.96103,37.91936],[-86.9611,37.91931],[-86.96116,37.91926],[-86.96126,37.91918],[-86.96129,37.91916],[-86.96138,37.91908],[-86.96186,37.91864],[-86.96195,37.91855],[-86.96241,37.91807],[-86.96322,37.91721],[-86.96383,37.91656],[-86.96422,37.91616],[-86.96458,37.91578],[-86.96467,37.91569],[-86.96542,37.9149],[-86.96543,37.91489],[-86.96556,37.91476],[-86.96587,37.91443],[-86.96675,37.9135],[-86.96769,37.91251],[-86.96785,37.91234],[-86.96793,37.91225],[-86.96804,37.91213],[-86.96814,37.91201],[-86.96829,37.91183],[-86.96839,37.91171],[-86.96849,37.91158],[-86.96851,37.91156],[-86.96856,37.91149],[-86.96892,37.91104],[-86.96977,37.90994],[-86.97048,37.90904],[-86.97127,37.90804],[-86.97152,37.90772],[-86.97186,37.90728],[-86.97253,37.90642],[-86.97337,37.90535],[-86.97365,37.90499],[-86.97409,37.90444],[-86.97421,37.90428],[-86.97433,37.90413],[-86.97445,37.90398],[-86.97524,37.90297],[-86.97541,37.90275],[-86.97555,37.90257],[-86.97567,37.90243],[-86.97578,37.90232],[-86.97587,37.90223],[-86.97595,37.90218],[-86.97602,37.90212],[-86.97609,37.90207],[-86.97622,37.90199],[-86.97632,37.90193],[-86.97642,37.90188],[-86.97655,37.90182],[-86.97667,37.90177],[-86.97684,37.90171],[-86.97698,37.90167],[-86.97711,37.90163],[-86.97718,37.90161],[-86.97732,37.90157],[-86.97744,37.90154],[-86.97771,37.90146],[-86.97795,37.90139],[-86.97827,37.9013],[-86.97871,37.90117],[-86.97911,37.90106],[-86.97968,37.90089],[-86.9797,37.90089],[-86.98054,37.90065],[-86.98225,37.90015],[-86.98281,37.89999],[-86.98289,37.89997],[-86.98326,37.89986],[-86.98398,37.89965],[-86.98418,37.8996],[-86.98469,37.89944],[-86.9849,37.89938],[-86.98526,37.89927],[-86.98548,37.8992],[-86.98564,37.89914],[-86.98596,37.89901],[-86.98623,37.89888],[-86.98644,37.89878],[-86.9865,37.89874],[-86.98661,37.89868],[-86.98673,37.8986],[-86.98691,37.89847],[-86.98708,37.89835],[-86.98732,37.89816],[-86.98744,37.89805],[-86.98757,37.89794],[-86.98772,37.8978],[-86.98786,37.89764],[-86.98807,37.89738],[-86.98817,37.89722],[-86.9883,37.89701],[-86.98839,37.89684],[-86.9885,37.89665],[-86.9886,37.89642],[-86.9887,37.89617],[-86.98876,37.89594],[-86.98882,37.89565],[-86.98896,37.89485],[-86.9891,37.89405],[-86.98914,37.89378],[-86.98917,37.8936],[-86.98931,37.8928],[-86.9894,37.89227],[-86.98943,37.89209],[-86.98952,37.89156],[-86.98958,37.8912],[-86.98982,37.88977],[-86.98986,37.88949],[-86.98989,37.88936],[-86.9899,37.88924],[-86.99019,37.88753],[-86.99022,37.88738],[-86.99024,37.88715],[-86.99025,37.88693],[-86.99025,37.88668],[-86.99023,37.88656],[-86.99021,37.8864],[-86.99013,37.88609],[-86.99007,37.88591],[-86.99001,37.88575],[-86.99001,37.88573],[-86.98994,37.88558],[-86.98993,37.88555],[-86.98987,37.88543],[-86.98986,37.88541],[-86.98975,37.88521],[-86.98964,37.88504],[-86.98956,37.88493],[-86.98953,37.88488],[-86.98932,37.88462],[-86.98905,37.88434],[-86.98884,37.88412],[-86.98844,37.88367],[-86.98824,37.88346],[-86.98811,37.88332],[-86.98797,37.88317],[-86.98784,37.88303],[-86.98757,37.88274],[-86.98744,37.8826],[-86.98727,37.88241],[-86.98722,37.88235],[-86.98712,37.88225],[-86.98702,37.8821],[-86.98696,37.88198],[-86.98692,37.88191],[-86.98685,37.88177],[-86.9868,37.88165],[-86.98679,37.88162],[-86.98674,37.88148],[-86.98674,37.88147],[-86.98672,37.88142],[-86.98669,37.88123],[-86.98668,37.88098],[-86.98669,37.88041],[-86.98669,37.8804],[-86.9867,37.88004],[-86.98671,37.87957],[-86.98671,37.87951],[-86.98671,37.8795],[-86.98674,37.87889],[-86.98675,37.87879],[-86.98675,37.87878],[-86.98676,37.87861],[-86.98677,37.87854],[-86.98677,37.87853],[-86.98678,37.87844],[-86.98679,37.87839],[-86.9868,37.87831],[-86.98681,37.87826],[-86.98685,37.87806],[-86.98692,37.87778],[-86.98695,37.87771],[-86.987,37.87756],[-86.98701,37.87754],[-86.98702,37.8775],[-86.98707,37.87739],[-86.98712,37.87726],[-86.98719,37.87711],[-86.98721,37.87708],[-86.98733,37.87685],[-86.98748,37.8766],[-86.9877,37.87626],[-86.98806,37.8757],[-86.98815,37.87559],[-86.98823,37.8755],[-86.9883,37.87545],[-86.98832,37.87543],[-86.98845,37.87536],[-86.98854,37.87532],[-86.98871,37.87526],[-86.98889,37.8752],[-86.98889,37.8752],[-86.98888,37.8751],[-86.98889,37.87495],[-86.98892,37.87476],[-86.98895,37.87464],[-86.98902,37.87441],[-86.98912,37.87417],[-86.9892,37.874],[-86.98922,37.87396],[-86.9893,37.87382],[-86.98941,37.87363],[-86.98942,37.87363],[-86.98958,37.87337],[-86.98973,37.87315],[-86.99141,37.8706],[-86.99152,37.87044],[-86.9932,37.86789],[-86.99364,37.86723],[-86.99418,37.86639],[-86.99437,37.86609],[-86.99461,37.86572],[-86.99483,37.8654],[-86.99511,37.86498],[-86.99541,37.86453],[-86.99541,37.86453],[-86.9952,37.86444],[-86.99504,37.86438],[-86.99477,37.86427],[-86.9947,37.86424],[-86.99424,37.86405],[-86.9939,37.86391],[-86.99365,37.8638],[-86.99302,37.86354],[-86.99297,37.86352],[-86.99248,37.86331],[-86.99165,37.86297],[-86.99127,37.86282],[-86.99106,37.86273],[-86.9905,37.8625],[-86.99046,37.86248],[-86.99005,37.86232],[-86.99004,37.86231],[-86.98965,37.86215],[-86.98945,37.86207],[-86.98857,37.86171],[-86.98747,37.86126],[-86.98664,37.86091],[-86.98452,37.86003],[-86.98431,37.85995],[-86.98411,37.85987],[-86.9833,37.85953],[-86.98274,37.8593],[-86.98234,37.85914],[-86.98213,37.85906],[-86.98152,37.85881],[-86.98114,37.85865],[-86.981,37.85859],[-86.98019,37.85825],[-86.97999,37.85817],[-86.97918,37.85783],[-86.97898,37.85774],[-86.97878,37.85766],[-86.97677,37.85681],[-86.97657,37.85673],[-86.97637,37.85664],[-86.97629,37.85661],[-86.97617,37.85656],[-86.97557,37.8563],[-86.97537,37.85621],[-86.97497,37.85604],[-86.9748,37.85597],[-86.97454,37.85587],[-86.97437,37.8558],[-86.97434,37.85579],[-86.97419,37.85573],[-86.97414,37.85571],[-86.97393,37.85563],[-86.97386,37.8556],[-86.97378,37.85557],[-86.97373,37.85555],[-86.97352,37.85547],[-86.97351,37.85547],[-86.97331,37.8554],[-86.97319,37.85536],[-86.97289,37.85526],[-86.97287,37.85526],[-86.97266,37.85519],[-86.97247,37.85512],[-86.97245,37.85511],[-86.97231,37.85505],[-86.97228,37.85503],[-86.97222,37.855],[-86.9721,37.85492],[-86.97204,37.85488],[-86.97193,37.85482],[-86.97192,37.85481],[-86.97175,37.85469],[-86.97148,37.85451],[-86.97123,37.85434],[-86.97106,37.85422],[-86.971,37.85418],[-86.97089,37.8541],[-86.97071,37.85399],[-86.97067,37.85396],[-86.97054,37.85387],[-86.97028,37.8537],[-86.96984,37.85342],[-86.96983,37.85342],[-86.96966,37.85331],[-86.96965,37.8533],[-86.96948,37.85319],[-86.96943,37.85316],[-86.9693,37.85308],[-86.96912,37.85296],[-86.96905,37.85291],[-86.96894,37.85286],[-86.96894,37.85286],[-86.96896,37.85278],[-86.96897,37.85275],[-86.96898,37.8527],[-86.96907,37.85244],[-86.96909,37.85241],[-86.96912,37.8523],[-86.96918,37.85217],[-86.96924,37.85207],[-86.96932,37.85193],[-86.96942,37.85181],[-86.96947,37.85176],[-86.96957,37.85166],[-86.96972,37.85152],[-86.96976,37.85148],[-86.96991,37.85134],[-86.97021,37.85105],[-86.97041,37.85086],[-86.97049,37.85079],[-86.97059,37.8507],[-86.97075,37.85057],[-86.97081,37.85053],[-86.97094,37.85043],[-86.97124,37.85023],[-86.97132,37.85017],[-86.97146,37.85007],[-86.97149,37.85005],[-86.97164,37.84994],[-86.97187,37.84978],[-86.97216,37.84957],[-86.97218,37.84955],[-86.97242,37.84936],[-86.97277,37.84912],[-86.97294,37.849],[-86.97307,37.84891],[-86.97324,37.8488],[-86.97329,37.84876],[-86.97337,37.84871],[-86.97348,37.84866],[-86.97357,37.84861],[-86.97367,37.84857],[-86.97375,37.84854],[-86.97388,37.8485],[-86.97395,37.84848],[-86.9741,37.84845],[-86.97414,37.84845],[-86.9743,37.8484],[-86.97432,37.8484],[-86.97446,37.84836],[-86.97453,37.84833],[-86.97473,37.84827],[-86.97494,37.8482],[-86.97495,37.84819],[-86.97515,37.84811],[-86.97532,37.84802],[-86.97541,37.84796],[-86.97548,37.8479],[-86.9755,37.84788],[-86.97552,37.84785],[-86.97555,37.8478],[-86.97557,37.84775],[-86.97559,37.84772],[-86.9756,37.84769],[-86.9756,37.84764],[-86.9756,37.84749],[-86.97559,37.84736],[-86.97558,37.84727],[-86.97558,37.84718],[-86.97558,37.84715],[-86.9756,37.84703],[-86.97564,37.84692],[-86.97568,37.84683],[-86.97573,37.84676],[-86.97577,37.84671],[-86.97588,37.84663],[-86.97594,37.84658],[-86.97596,37.84657],[-86.97598,37.84656],[-86.97614,37.84647],[-86.97634,37.84637],[-86.97654,37.84626],[-86.97673,37.84616],[-86.97677,37.84614],[-86.97702,37.846],[-86.97726,37.84585],[-86.97728,37.84584],[-86.97741,37.84574],[-86.97744,37.84571],[-86.97747,37.84569],[-86.97755,37.84562],[-86.97775,37.84545],[-86.97782,37.84538],[-86.9779,37.84531],[-86.97802,37.84519],[-86.97804,37.84517],[-86.97827,37.84493],[-86.97834,37.84486],[-86.97852,37.84467],[-86.97857,37.84462],[-86.97861,37.84456],[-86.97863,37.84453],[-86.97868,37.84446],[-86.97875,37.84432],[-86.97879,37.8442],[-86.9788,37.84417],[-86.97881,37.84413],[-86.97881,37.84408],[-86.97882,37.84401],[-86.97882,37.84392],[-86.97882,37.84385],[-86.97881,37.84384],[-86.97878,37.84344],[-86.97877,37.8433],[-86.97877,37.84329],[-86.97877,37.84315],[-86.97878,37.84294],[-86.97885,37.84248],[-86.9789,37.84218],[-86.97893,37.84201],[-86.97895,37.84184],[-86.97898,37.84168],[-86.97904,37.84119],[-86.97909,37.84102],[-86.97912,37.84095],[-86.97917,37.84081],[-86.97918,37.84078],[-86.97924,37.84066],[-86.97935,37.84044],[-86.97937,37.8404],[-86.97944,37.84028],[-86.97946,37.84025],[-86.97971,37.83978],[-86.97976,37.83971],[-86.97995,37.83936],[-86.98015,37.83898],[-86.98021,37.83889],[-86.98039,37.83856],[-86.98057,37.83823],[-86.98094,37.83757],[-86.98103,37.83741],[-86.98116,37.83717],[-86.98121,37.83708],[-86.9813,37.83691],[-86.98133,37.83685],[-86.98139,37.83675],[-86.98149,37.83658],[-86.98152,37.83654],[-86.9816,37.83642],[-86.98177,37.83616],[-86.98217,37.8356],[-86.98245,37.83522],[-86.98264,37.83498],[-86.98291,37.83459],[-86.983,37.83446],[-86.98314,37.83427],[-86.98368,37.8335],[-86.98376,37.83338],[-86.98402,37.83302],[-86.98418,37.83279],[-86.98424,37.83268],[-86.98427,37.83263],[-86.98433,37.83252],[-86.98441,37.83236],[-86.98449,37.8322],[-86.9845,37.83218],[-86.98452,37.83213],[-86.98473,37.83171],[-86.98497,37.83121],[-86.98498,37.83119],[-86.98499,37.83118],[-86.98506,37.83102],[-86.98517,37.8308],[-86.98542,37.83029],[-86.98555,37.83001],[-86.98561,37.82989],[-86.98564,37.82984],[-86.98564,37.82983],[-86.98572,37.82966],[-86.9858,37.8295],[-86.98602,37.82906],[-86.98613,37.82884],[-86.9865,37.82825],[-86.9866,37.82809],[-86.98671,37.82793],[-86.98701,37.82745],[-86.98711,37.82729],[-86.98743,37.82678],[-86.98752,37.82665],[-86.98758,37.82656],[-86.98769,37.82642],[-86.98775,37.82636],[-86.98781,37.82629],[-86.98788,37.82623],[-86.98791,37.8262],[-86.98794,37.82617],[-86.98801,37.82612],[-86.98808,37.82607],[-86.98815,37.82603],[-86.98823,37.82598],[-86.98839,37.8259],[-86.98864,37.82579],[-86.98883,37.82573],[-86.98903,37.82568],[-86.9893,37.82562],[-86.98946,37.82558],[-86.99056,37.82532],[-86.99121,37.82516],[-86.99142,37.82511],[-86.99174,37.82503],[-86.99251,37.82484],[-86.99267,37.8248],[-86.99333,37.82464],[-86.99383,37.82452],[-86.99447,37.82437],[-86.99498,37.82424],[-86.99548,37.82412],[-86.99577,37.82405],[-86.99599,37.824],[-86.99619,37.82395],[-86.99621,37.82394],[-86.99686,37.82378],[-86.99697,37.82375],[-86.99707,37.82373],[-86.99729,37.82368],[-86.99748,37.82363],[-86.99751,37.82362],[-86.99795,37.82352],[-86.99838,37.82341],[-86.99884,37.82329],[-86.99905,37.82323],[-86.99914,37.8232],[-86.99925,37.82317],[-86.99944,37.82308],[-86.99962,37.82299],[-87.00092,37.82231],[-87.00105,37.82224],[-87.00187,37.82182],[-87.00264,37.82142],[-87.00283,37.82132],[-87.00314,37.82116],[-87.00377,37.82082],[-87.00396,37.82072],[-87.00491,37.82022],[-87.00574,37.81978],[-87.00604,37.81962],[-87.00715,37.81905],[-87.00792,37.81864],[-87.00867,37.81825],[-87.00886,37.81815],[-87.00979,37.81767],[-87.01013,37.81749],[-87.01019,37.81746],[-87.01035,37.81737],[-87.01037,37.81735],[-87.01047,37.81729],[-87.01063,37.81717],[-87.01074,37.81707],[-87.01085,37.81697],[-87.01103,37.8168],[-87.01126,37.81654],[-87.01157,37.81622],[-87.01164,37.81614],[-87.0117,37.81608],[-87.01198,37.81578],[-87.01228,37.81547],[-87.0124,37.81534],[-87.01265,37.81508],[-87.01269,37.81503],[-87.0127,37.81502],[-87.01292,37.81479],[-87.01296,37.81474],[-87.0131,37.8146],[-87.01333,37.81435],[-87.01337,37.81431],[-87.0135,37.81418],[-87.01364,37.81402],[-87.01367,37.81399],[-87.01385,37.8138],[-87.01397,37.81368],[-87.01405,37.81361],[-87.01417,37.8135],[-87.01421,37.81346],[-87.01424,37.81344],[-87.01432,37.81337],[-87.01438,37.81333],[-87.01447,37.81326],[-87.01453,37.81322],[-87.01466,37.81313],[-87.0147,37.8131],[-87.01471,37.8131],[-87.0148,37.81304],[-87.01484,37.81302],[-87.01489,37.81299],[-87.01507,37.81288],[-87.01516,37.81282],[-87.01538,37.81269],[-87.01556,37.81258],[-87.01561,37.81254],[-87.01571,37.81248],[-87.01574,37.81247],[-87.01579,37.81244],[-87.01606,37.81227],[-87.01648,37.81202],[-87.01682,37.81181],[-87.01687,37.81178],[-87.01697,37.81172],[-87.017,37.8117],[-87.01705,37.81167],[-87.01718,37.81159],[-87.0173,37.81152],[-87.01736,37.81148],[-87.01741,37.81145],[-87.01752,37.81139],[-87.01754,37.81137],[-87.0176,37.81134],[-87.0177,37.81128],[-87.01778,37.81123],[-87.01792,37.81114],[-87.01796,37.81112],[-87.01803,37.81108],[-87.01808,37.81104],[-87.01814,37.81101],[-87.01821,37.81097],[-87.01823,37.81095],[-87.01826,37.81093],[-87.01832,37.8109],[-87.01844,37.81082],[-87.0185,37.81079],[-87.01856,37.81075],[-87.01857,37.81074],[-87.01862,37.81071],[-87.01867,37.81067],[-87.01868,37.81067],[-87.01877,37.8106],[-87.01888,37.81052],[-87.019,37.81043],[-87.01909,37.81036],[-87.01918,37.81028],[-87.01921,37.81025],[-87.01934,37.81013],[-87.01936,37.81011],[-87.01941,37.81006],[-87.0195,37.80996],[-87.01952,37.80994],[-87.0196,37.80985],[-87.01963,37.80981],[-87.01969,37.80974],[-87.01976,37.80965],[-87.01987,37.80951],[-87.02014,37.80915],[-87.02048,37.80868],[-87.02075,37.80837],[-87.02089,37.80823],[-87.02099,37.80815],[-87.02106,37.80809],[-87.02115,37.80802],[-87.02125,37.80794],[-87.02135,37.80787],[-87.02157,37.80771],[-87.02175,37.80758],[-87.022,37.80738],[-87.0223,37.80716],[-87.02252,37.807],[-87.02287,37.80673],[-87.02296,37.80666],[-87.02298,37.80665],[-87.02309,37.80655],[-87.02311,37.80653],[-87.02315,37.8065],[-87.0232,37.80644],[-87.02328,37.80635],[-87.02334,37.80628],[-87.02338,37.80622],[-87.02344,37.80612],[-87.02347,37.80607],[-87.02351,37.806],[-87.02378,37.80554],[-87.02386,37.8054],[-87.02397,37.80523],[-87.02411,37.80502],[-87.02425,37.80485],[-87.0243,37.80479],[-87.0244,37.80467],[-87.02451,37.80454],[-87.02469,37.80435],[-87.02485,37.80418],[-87.0251,37.80391],[-87.02524,37.80377],[-87.0253,37.8037],[-87.02551,37.8035],[-87.02552,37.80349],[-87.0257,37.80333],[-87.02587,37.80319],[-87.02609,37.80302],[-87.02636,37.80281],[-87.02669,37.80257],[-87.02691,37.80241],[-87.02734,37.80206],[-87.02771,37.80176],[-87.02774,37.80173],[-87.02777,37.8017],[-87.02778,37.80168],[-87.02781,37.80165],[-87.02782,37.80163],[-87.02784,37.80159],[-87.02786,37.80156],[-87.02787,37.80153],[-87.02787,37.80153],[-87.02789,37.80147],[-87.02793,37.80129],[-87.02793,37.80129],[-87.02733,37.80124],[-87.027,37.80121],[-87.02688,37.8012],[-87.02677,37.80118],[-87.02655,37.80115],[-87.02625,37.8011],[-87.02604,37.80106],[-87.02595,37.80103],[-87.02586,37.80101],[-87.0257,37.80096],[-87.02562,37.80093],[-87.02552,37.80089],[-87.02539,37.80084],[-87.02521,37.80075],[-87.02512,37.80071],[-87.02501,37.80066],[-87.02406,37.80024],[-87.02382,37.80014],[-87.02336,37.79994],[-87.02285,37.79972],[-87.02282,37.79971],[-87.02265,37.79964],[-87.0225,37.79958],[-87.02237,37.79954],[-87.02225,37.7995],[-87.02192,37.7994],[-87.02192,37.7994],[-87.02199,37.79927],[-87.02209,37.7991],[-87.02216,37.79899],[-87.02219,37.79894],[-87.02247,37.79851],[-87.02251,37.79846],[-87.02261,37.79831],[-87.02293,37.79783],[-87.02318,37.79745],[-87.02324,37.79735],[-87.02335,37.79719],[-87.02352,37.79692],[-87.024,37.79619],[-87.02418,37.79591],[-87.0243,37.79572],[-87.0245,37.79542],[-87.02473,37.79507],[-87.02476,37.79502],[-87.02492,37.79477],[-87.02494,37.79475],[-87.02504,37.79459],[-87.02516,37.79441],[-87.02542,37.79401],[-87.02546,37.79394],[-87.02556,37.79378],[-87.02562,37.79368],[-87.02575,37.79346],[-87.02589,37.79323],[-87.02595,37.79313],[-87.02616,37.79281],[-87.02626,37.79265],[-87.02662,37.7921],[-87.02689,37.7917],[-87.02752,37.79074],[-87.02782,37.79027],[-87.0279,37.79013],[-87.02797,37.79001],[-87.02814,37.78975],[-87.02837,37.78939],[-87.02842,37.78931],[-87.02858,37.78905],[-87.02881,37.78869],[-87.02893,37.7885],[-87.02903,37.78834],[-87.02916,37.78815],[-87.02963,37.78741],[-87.02975,37.78722],[-87.02985,37.78706],[-87.02995,37.7869],[-87.03029,37.78637],[-87.03146,37.78453],[-87.03156,37.78437],[-87.03187,37.78389],[-87.03217,37.78341],[-87.03217,37.78341],[-87.032,37.78339],[-87.0316,37.78335],[-87.03149,37.78334],[-87.03139,37.78333],[-87.03129,37.78332],[-87.03109,37.78328],[-87.03105,37.78328],[-87.03097,37.78326],[-87.03082,37.78323],[-87.03069,37.78319],[-87.03062,37.78317],[-87.03057,37.78315],[-87.03041,37.78309],[-87.03033,37.78306],[-87.03021,37.78301],[-87.03,37.78293],[-87.02996,37.78291],[-87.0296,37.78277],[-87.02939,37.78268],[-87.02919,37.7826],[-87.02914,37.78258],[-87.02899,37.78252],[-87.02878,37.78244],[-87.02836,37.78227],[-87.02787,37.78208],[-87.02767,37.782],[-87.02688,37.78167],[-87.02648,37.7815],[-87.02628,37.78142],[-87.02619,37.78138],[-87.02608,37.78133],[-87.02597,37.78129],[-87.02592,37.78127],[-87.02589,37.78126],[-87.02579,37.78121],[-87.02564,37.78112],[-87.02551,37.78105],[-87.02541,37.78098],[-87.02532,37.78091],[-87.02532,37.78091],[-87.02551,37.78076],[-87.02558,37.78069],[-87.02564,37.78063],[-87.02566,37.78061],[-87.02569,37.78057],[-87.02573,37.7805],[-87.02587,37.78029],[-87.02598,37.78013],[-87.02684,37.77878],[-87.02703,37.77849],[-87.02722,37.77821],[-87.02732,37.77805],[-87.0274,37.77792],[-87.02762,37.77756],[-87.02773,37.7774],[-87.02779,37.7773],[-87.02783,37.77724],[-87.02793,37.77708],[-87.02803,37.77692],[-87.02813,37.77676],[-87.02832,37.77647],[-87.02834,37.77644],[-87.02844,37.77628],[-87.02854,37.77612],[-87.02864,37.77596],[-87.02874,37.77579],[-87.02875,37.77578],[-87.02885,37.77563],[-87.02895,37.77547],[-87.02906,37.77531],[-87.02916,37.77515],[-87.02927,37.775],[-87.02937,37.77484],[-87.02965,37.7744],[-87.02968,37.77436],[-87.02979,37.7742],[-87.02989,37.77403],[-87.03009,37.77371],[-87.03017,37.77359],[-87.03051,37.77307],[-87.03072,37.77275],[-87.03108,37.77218],[-87.03149,37.77154],[-87.03152,37.77149],[-87.0317,37.77118],[-87.0318,37.77099],[-87.03189,37.77079],[-87.03199,37.77053],[-87.03209,37.77021],[-87.03212,37.77014],[-87.03224,37.76982],[-87.03228,37.76969],[-87.03237,37.76944],[-87.03248,37.76918],[-87.03249,37.76915],[-87.03255,37.76901],[-87.0327,37.76865],[-87.03276,37.76849],[-87.03297,37.76798],[-87.03303,37.76784],[-87.03323,37.76733],[-87.0333,37.76716],[-87.03337,37.76698],[-87.03344,37.76681],[-87.03357,37.76648],[-87.03358,37.76647],[-87.03365,37.7663],[-87.03372,37.76613],[-87.03379,37.76596],[-87.03386,37.76579],[-87.03393,37.76562],[-87.03408,37.76528],[-87.03416,37.76512],[-87.03424,37.76495],[-87.03439,37.76462],[-87.03447,37.76445],[-87.03451,37.76434],[-87.03454,37.76428],[-87.03468,37.76393],[-87.03473,37.76382],[-87.03475,37.76376],[-87.03488,37.76342],[-87.03494,37.76324],[-87.03501,37.76307],[-87.03507,37.7629],[-87.03514,37.76273],[-87.03527,37.76239],[-87.03527,37.76238],[-87.03529,37.76236],[-87.0354,37.76207],[-87.03555,37.7617],[-87.03567,37.76143],[-87.03577,37.76119],[-87.03585,37.76102],[-87.03592,37.76085],[-87.03598,37.76072],[-87.03607,37.76051],[-87.03614,37.76034],[-87.03621,37.76017],[-87.03643,37.75963],[-87.03652,37.75941],[-87.03655,37.75932],[-87.03662,37.75914],[-87.03668,37.75898],[-87.03684,37.75852],[-87.03686,37.75847],[-87.037,37.75803],[-87.03722,37.75742],[-87.03725,37.75734],[-87.03735,37.75708],[-87.03752,37.75666],[-87.03773,37.75615],[-87.03779,37.756],[-87.03786,37.75581],[-87.03802,37.7554],[-87.03821,37.75495],[-87.03824,37.75487],[-87.0383,37.7547],[-87.03834,37.75459],[-87.03837,37.75452],[-87.03844,37.75435],[-87.0387,37.75366],[-87.03877,37.75349],[-87.0389,37.75315],[-87.03894,37.75305],[-87.03894,37.75304],[-87.03896,37.75295],[-87.03899,37.75286],[-87.039,37.75283],[-87.03901,37.75278],[-87.03902,37.75272],[-87.03903,37.75265],[-87.03903,37.75258],[-87.03903,37.75247],[-87.03903,37.75238],[-87.03902,37.75225],[-87.03901,37.75212],[-87.03897,37.75199],[-87.03895,37.7519],[-87.03893,37.75181],[-87.03888,37.75166],[-87.03887,37.75161],[-87.03886,37.75156],[-87.03884,37.75151],[-87.03883,37.75143],[-87.03882,37.75135],[-87.03882,37.75128],[-87.03881,37.75121],[-87.03882,37.7511],[-87.03882,37.75109],[-87.03883,37.751],[-87.03884,37.75092],[-87.03885,37.75086],[-87.03889,37.75072],[-87.03895,37.75055],[-87.03901,37.75042],[-87.03915,37.75006],[-87.03929,37.74971],[-87.03936,37.74954],[-87.03946,37.74931],[-87.03957,37.74903],[-87.03964,37.74884],[-87.03978,37.7485],[-87.03985,37.74833],[-87.03999,37.74799],[-87.04005,37.74782],[-87.04008,37.74776],[-87.04019,37.74747],[-87.04032,37.74714],[-87.04047,37.74672],[-87.04066,37.7462],[-87.04081,37.74581],[-87.04096,37.74544],[-87.041,37.74531],[-87.04104,37.74517],[-87.04105,37.74499],[-87.04106,37.74492],[-87.04105,37.74485],[-87.04105,37.74469],[-87.04105,37.74459],[-87.04105,37.74453],[-87.04106,37.74431],[-87.04108,37.74418],[-87.04108,37.74417],[-87.04115,37.74393],[-87.04115,37.74393],[-87.04121,37.74378],[-87.04121,37.74375],[-87.04126,37.74361],[-87.04127,37.74355],[-87.04128,37.74343],[-87.04128,37.74335],[-87.04127,37.74326],[-87.04127,37.74324],[-87.04123,37.74309],[-87.04121,37.74298],[-87.04113,37.74269],[-87.04108,37.74253],[-87.04098,37.74217],[-87.04093,37.74199],[-87.04088,37.74183],[-87.04077,37.7415],[-87.0407,37.74125],[-87.04065,37.74108],[-87.04055,37.74073],[-87.04055,37.74073],[-87.04071,37.74075],[-87.04077,37.74076],[-87.04101,37.74084],[-87.04108,37.74086],[-87.04112,37.74086],[-87.04131,37.7409],[-87.04195,37.74109],[-87.04295,37.74135],[-87.04363,37.74153],[-87.04423,37.74173],[-87.04451,37.74182],[-87.04498,37.74197],[-87.04548,37.74215],[-87.04623,37.7424],[-87.04662,37.74251],[-87.04679,37.7426],[-87.04686,37.74261],[-87.04703,37.74266],[-87.04714,37.74268],[-87.04716,37.74269],[-87.04722,37.74271],[-87.0473,37.74275],[-87.04733,37.74277],[-87.04736,37.74278],[-87.04737,37.74279],[-87.04745,37.7428],[-87.04753,37.74281],[-87.04761,37.74283],[-87.04769,37.74286],[-87.04791,37.74295],[-87.04826,37.74307],[-87.04841,37.74311],[-87.0485,37.74315],[-87.04859,37.74317],[-87.04874,37.74322],[-87.04885,37.74327],[-87.04895,37.74331],[-87.04901,37.74333],[-87.04912,37.74335],[-87.04921,37.74338],[-87.04932,37.7434],[-87.04936,37.74342],[-87.04945,37.74345],[-87.04979,37.74356],[-87.04999,37.74362],[-87.05034,37.74374],[-87.05048,37.74378],[-87.05054,37.74379],[-87.05061,37.74382],[-87.05069,37.74386],[-87.05084,37.74391],[-87.05142,37.7441],[-87.05146,37.74411],[-87.0516,37.74415],[-87.05167,37.74418],[-87.05177,37.74421],[-87.05196,37.7443],[-87.05206,37.74433],[-87.0522,37.74436],[-87.05247,37.74446],[-87.0527,37.74454],[-87.05294,37.7446],[-87.05298,37.74462],[-87.05301,37.74463],[-87.05306,37.74465],[-87.05313,37.74467],[-87.05313,37.74468],[-87.05322,37.7447],[-87.05338,37.74475],[-87.05347,37.74478],[-87.05358,37.74482],[-87.05378,37.74488],[-87.05398,37.74495],[-87.05409,37.74499],[-87.05418,37.74501],[-87.05445,37.74512],[-87.05471,37.74521],[-87.05487,37.74526],[-87.05524,37.74538],[-87.05561,37.7455],[-87.05603,37.74564],[-87.05608,37.74566],[-87.0561,37.74567],[-87.05644,37.74579],[-87.05665,37.74586],[-87.05674,37.74589],[-87.05688,37.74591],[-87.05692,37.74593],[-87.05694,37.74593],[-87.05711,37.74598],[-87.05714,37.74599],[-87.0573,37.74603],[-87.05745,37.74607],[-87.05755,37.74611],[-87.05756,37.74612],[-87.05764,37.74615],[-87.05771,37.74618],[-87.05787,37.74624],[-87.05812,37.74633],[-87.05828,37.74638],[-87.05836,37.7464],[-87.05846,37.74643],[-87.05861,37.74649],[-87.05866,37.74651],[-87.0587,37.74653],[-87.05874,37.74653],[-87.05883,37.74655],[-87.05899,37.7466],[-87.05915,37.74665],[-87.05922,37.74668],[-87.05929,37.74669],[-87.05939,37.74672],[-87.05953,37.74676],[-87.06004,37.74693],[-87.06018,37.74698],[-87.06023,37.747],[-87.06028,37.74703],[-87.06029,37.74704],[-87.06037,37.74708],[-87.0605,37.74712],[-87.06087,37.74724],[-87.061,37.74727],[-87.06107,37.74729],[-87.06111,37.74731],[-87.06114,37.74733],[-87.06118,37.74735],[-87.06132,37.7474],[-87.06175,37.74753],[-87.06201,37.7476],[-87.06209,37.74761],[-87.06222,37.74763],[-87.06234,37.74764],[-87.06243,37.74767],[-87.06247,37.74769],[-87.06255,37.74771],[-87.06275,37.74778],[-87.06289,37.74781],[-87.0629,37.74781],[-87.06311,37.74784],[-87.06331,37.74786],[-87.06333,37.74787],[-87.06345,37.74789],[-87.06357,37.7479],[-87.06375,37.74793],[-87.06393,37.74795],[-87.06485,37.748],[-87.06498,37.74798],[-87.06507,37.74796],[-87.0652,37.74791],[-87.06526,37.74789],[-87.06535,37.74789],[-87.06558,37.74789],[-87.06576,37.74788],[-87.06601,37.74785],[-87.06603,37.74785],[-87.0666,37.74777],[-87.06715,37.74764],[-87.06765,37.74749],[-87.06836,37.74725],[-87.06905,37.74701],[-87.06922,37.74694],[-87.06942,37.74686],[-87.06976,37.74671],[-87.06978,37.7467],[-87.06978,37.74668],[-87.06978,37.74667],[-87.06974,37.74661],[-87.06974,37.7466],[-87.06975,37.74658],[-87.06978,37.74657],[-87.07005,37.74648],[-87.07008,37.74646],[-87.07009,37.74645],[-87.0701,37.74644],[-87.07008,37.7463],[-87.07008,37.7463],[-87.07023,37.74626],[-87.07033,37.74622],[-87.07047,37.74616],[-87.07055,37.74611],[-87.07063,37.74608],[-87.0707,37.74607],[-87.07076,37.74609],[-87.07081,37.74611],[-87.07091,37.74617],[-87.07101,37.7462],[-87.07113,37.74621],[-87.07125,37.74621],[-87.07129,37.7462],[-87.07133,37.7462],[-87.0715,37.74617],[-87.07152,37.74617],[-87.07169,37.74612],[-87.07182,37.74608],[-87.07195,37.74605],[-87.07211,37.74604],[-87.07223,37.74603],[-87.0724,37.74598],[-87.07263,37.74589],[-87.07288,37.74584],[-87.07317,37.74577],[-87.0737,37.74569],[-87.0738,37.74565],[-87.07389,37.74561],[-87.07397,37.74559],[-87.07403,37.74558],[-87.07411,37.74558],[-87.07424,37.7456],[-87.07442,37.74562],[-87.07459,37.74563],[-87.07483,37.74562],[-87.07505,37.74559],[-87.07523,37.74557],[-87.07537,37.74554],[-87.07549,37.7455],[-87.0756,37.74546],[-87.07578,37.74537],[-87.07593,37.74526],[-87.07604,37.74516],[-87.07616,37.74508],[-87.07622,37.74505],[-87.07634,37.74499],[-87.07646,37.74495],[-87.07656,37.74493],[-87.07666,37.74491],[-87.07674,37.7449],[-87.07681,37.74489],[-87.07696,37.74484],[-87.07712,37.74477],[-87.07727,37.7447],[-87.0773,37.74468],[-87.07741,37.74461],[-87.07745,37.74459],[-87.07752,37.74453],[-87.07782,37.74426],[-87.07803,37.74407],[-87.07822,37.74391],[-87.07834,37.74382],[-87.07841,37.74377],[-87.07853,37.74373],[-87.07865,37.74369],[-87.07896,37.74361],[-87.07907,37.74357],[-87.07915,37.74356],[-87.07919,37.74356],[-87.07927,37.74358],[-87.07944,37.7436],[-87.07962,37.74362],[-87.07972,37.74361],[-87.07981,37.74358],[-87.07991,37.74355],[-87.08004,37.74348],[-87.0802,37.74341],[-87.08045,37.74333],[-87.08077,37.74323],[-87.08088,37.7432],[-87.08099,37.74314],[-87.08113,37.74308],[-87.08135,37.74302],[-87.08157,37.74295],[-87.08184,37.74284],[-87.08223,37.7427],[-87.08247,37.74261],[-87.08277,37.74253],[-87.083,37.74248],[-87.08321,37.74244],[-87.08332,37.74244],[-87.08342,37.74244],[-87.08348,37.74244],[-87.08354,37.74242],[-87.08359,37.7424],[-87.08366,37.74238],[-87.08367,37.74238],[-87.08376,37.74236],[-87.08387,37.74235],[-87.08388,37.74235],[-87.08406,37.74232],[-87.08411,37.74232],[-87.08425,37.74231],[-87.0845,37.7423],[-87.08456,37.7423],[-87.08466,37.74229],[-87.08475,37.74228],[-87.08479,37.74227],[-87.08485,37.74226],[-87.08496,37.74221],[-87.08503,37.74216],[-87.08506,37.74212],[-87.08509,37.74204],[-87.08513,37.74188],[-87.08518,37.74181],[-87.08526,37.74177],[-87.08531,37.74175],[-87.08531,37.74175],[-87.08536,37.74173],[-87.08538,37.74172],[-87.0854,37.74173],[-87.08542,37.74175],[-87.08563,37.7419],[-87.0857,37.74195],[-87.08576,37.74196],[-87.08582,37.74196],[-87.08592,37.74194],[-87.08605,37.74188],[-87.08606,37.74188],[-87.08618,37.74185],[-87.08631,37.74184],[-87.08651,37.74183],[-87.08655,37.74183],[-87.08684,37.7418],[-87.08738,37.74167],[-87.08781,37.74155],[-87.0881,37.74148],[-87.08856,37.74138],[-87.08936,37.74115],[-87.08968,37.74107],[-87.0901,37.74096],[-87.09051,37.74086],[-87.09086,37.74077],[-87.09104,37.74073],[-87.09126,37.74067],[-87.09157,37.74057],[-87.09186,37.74047],[-87.092,37.7404],[-87.09202,37.74039],[-87.0922,37.74028],[-87.09221,37.74028],[-87.09227,37.74022],[-87.09235,37.74014],[-87.09241,37.74005],[-87.09246,37.73998],[-87.0925,37.73991],[-87.09251,37.7399],[-87.09256,37.73982],[-87.09257,37.73981],[-87.09264,37.73966],[-87.09265,37.73964],[-87.09273,37.73949],[-87.09277,37.73943],[-87.09282,37.73938],[-87.09284,37.73935],[-87.09288,37.7393],[-87.09293,37.73921],[-87.09294,37.73918],[-87.09297,37.73911],[-87.09303,37.73902],[-87.09305,37.73899],[-87.09311,37.73891],[-87.09314,37.73887],[-87.09315,37.73885],[-87.09318,37.73878],[-87.09321,37.73869],[-87.09324,37.73859],[-87.09328,37.73852],[-87.09328,37.73851],[-87.09333,37.7384],[-87.09335,37.73835],[-87.0934,37.73823],[-87.09352,37.73807],[-87.0936,37.73798],[-87.09367,37.73791],[-87.09372,37.73782],[-87.09376,37.73772],[-87.09377,37.73771],[-87.09386,37.73756],[-87.09415,37.73713],[-87.09426,37.73693],[-87.09431,37.73683],[-87.09434,37.73677],[-87.09435,37.73675],[-87.09445,37.73658],[-87.09455,37.73642],[-87.09456,37.73641],[-87.09475,37.7361],[-87.09485,37.73596],[-87.09507,37.73555],[-87.09514,37.73545],[-87.09529,37.73523],[-87.09533,37.73518],[-87.09535,37.73517],[-87.09536,37.73517],[-87.0954,37.73517],[-87.09549,37.73522],[-87.09555,37.73524],[-87.09556,37.73524],[-87.09561,37.73525],[-87.09565,37.73526],[-87.09568,37.73524],[-87.09571,37.73521],[-87.09576,37.73514],[-87.09578,37.73503],[-87.09582,37.73487],[-87.09584,37.73483],[-87.09587,37.73476],[-87.09594,37.73467],[-87.09601,37.73458],[-87.09612,37.73448],[-87.09619,37.73437],[-87.0962,37.73436],[-87.09628,37.73421],[-87.09636,37.73406],[-87.09649,37.73387],[-87.09674,37.73342],[-87.09687,37.73322],[-87.09705,37.73304],[-87.09708,37.73296],[-87.09709,37.73285],[-87.09712,37.73278],[-87.09743,37.7323],[-87.09757,37.73205],[-87.0977,37.73185],[-87.09775,37.73179],[-87.09783,37.73168],[-87.09791,37.73156],[-87.0979,37.73149],[-87.09789,37.73136],[-87.09788,37.73092],[-87.09785,37.73056],[-87.09784,37.73039],[-87.09779,37.72965],[-87.09773,37.72874],[-87.0977,37.72824],[-87.0977,37.72796],[-87.09768,37.72763],[-87.09762,37.72721],[-87.09762,37.72712],[-87.09766,37.72703],[-87.09774,37.72697],[-87.09789,37.72688],[-87.09795,37.72684],[-87.09808,37.72679],[-87.09828,37.7267],[-87.09848,37.72661],[-87.09866,37.72654],[-87.09885,37.7265],[-87.09899,37.72646],[-87.09914,37.72642],[-87.09925,37.72639],[-87.09938,37.72635],[-87.09944,37.7263],[-87.09957,37.72621],[-87.09999,37.72609],[-87.10025,37.72603],[-87.10072,37.7259],[-87.10123,37.72581],[-87.10138,37.72579],[-87.10145,37.72578],[-87.10172,37.72574],[-87.1024,37.72565],[-87.10288,37.7256],[-87.10322,37.72558],[-87.10348,37.72557],[-87.1037,37.72556],[-87.10393,37.72556],[-87.10438,37.72556],[-87.10439,37.72556],[-87.10511,37.72559],[-87.10549,37.72561],[-87.10557,37.72562],[-87.10574,37.72566],[-87.10589,37.7257],[-87.10596,37.72571],[-87.10618,37.72576],[-87.1064,37.72581],[-87.10666,37.72586],[-87.10683,37.7259],[-87.10699,37.72591],[-87.10706,37.72593],[-87.10711,37.72595],[-87.10718,37.72599],[-87.10727,37.726],[-87.10815,37.72619],[-87.10837,37.72624],[-87.10924,37.72642],[-87.10968,37.72651],[-87.11012,37.7266],[-87.11034,37.72665],[-87.11056,37.7267],[-87.11078,37.72674],[-87.11105,37.7268],[-87.1112,37.72682],[-87.11133,37.72682],[-87.11138,37.7268],[-87.11145,37.72679],[-87.11151,37.72673],[-87.11155,37.72668],[-87.11157,37.72664],[-87.11159,37.72661],[-87.11164,37.72647],[-87.1117,37.72629],[-87.1117,37.72627],[-87.11172,37.72619],[-87.11174,37.72612],[-87.11179,37.72594],[-87.1118,37.72591],[-87.11185,37.72577],[-87.11196,37.72543],[-87.11201,37.72526],[-87.11201,37.72526],[-87.11214,37.72527],[-87.11214,37.72527],[-87.1125,37.72416],[-87.11264,37.72372],[-87.11289,37.72289],[-87.11301,37.72252],[-87.11379,37.72009],[-87.11379,37.72009],[-87.11417,37.72017],[-87.11458,37.72028],[-87.11486,37.72036],[-87.11507,37.72042],[-87.11526,37.72047],[-87.1154,37.7205],[-87.11565,37.72056],[-87.11589,37.72062],[-87.11617,37.72069],[-87.11644,37.72074],[-87.11668,37.7208],[-87.11705,37.7209],[-87.11724,37.72096],[-87.11755,37.72104],[-87.11775,37.72109],[-87.11791,37.72112],[-87.11809,37.72115],[-87.11824,37.72119],[-87.11885,37.72134],[-87.11902,37.72139],[-87.11944,37.72148],[-87.11957,37.72151],[-87.12001,37.72161],[-87.12057,37.72174],[-87.1209,37.72183],[-87.12125,37.72191],[-87.12159,37.722],[-87.12178,37.72205],[-87.12182,37.72206],[-87.12208,37.72211],[-87.12235,37.72216],[-87.12238,37.72216],[-87.12257,37.72219],[-87.12284,37.72223],[-87.123,37.72225],[-87.12314,37.72227],[-87.12333,37.7223],[-87.12368,37.72233],[-87.12375,37.72234],[-87.12389,37.72236],[-87.12389,37.72236],[-87.124,37.7224],[-87.12415,37.72244],[-87.12446,37.7225],[-87.12464,37.72253],[-87.12533,37.72261],[-87.12561,37.72265],[-87.12575,37.72267],[-87.12587,37.72268],[-87.12592,37.72269],[-87.12603,37.7227],[-87.12609,37.7227],[-87.12616,37.7227],[-87.12628,37.7227],[-87.12636,37.7227],[-87.12646,37.72269],[-87.12657,37.72268],[-87.12666,37.72267],[-87.12673,37.72266],[-87.12682,37.72265],[-87.12691,37.72264],[-87.12698,37.72262],[-87.12704,37.72261],[-87.12708,37.72259],[-87.12717,37.72255],[-87.1273,37.72255],[-87.12774,37.72249],[-87.12814,37.72244],[-87.12829,37.72242],[-87.12841,37.72242],[-87.12857,37.72241],[-87.12871,37.72241],[-87.12882,37.72242],[-87.12894,37.72244],[-87.12906,37.72246],[-87.12931,37.72251],[-87.13005,37.7227],[-87.13032,37.72278],[-87.13063,37.72285],[-87.13086,37.72291],[-87.13111,37.72298],[-87.13122,37.72301],[-87.13144,37.72306],[-87.1316,37.72309],[-87.13179,37.7231],[-87.13186,37.7231],[-87.13191,37.72311],[-87.13207,37.7231],[-87.13353,37.72304],[-87.1353,37.72297],[-87.13663,37.72292],[-87.13706,37.72291],[-87.13804,37.72287],[-87.13812,37.72287],[-87.13822,37.72287],[-87.1384,37.72286],[-87.13857,37.72287],[-87.13867,37.72288],[-87.13873,37.72289],[-87.13893,37.72292],[-87.13896,37.72292],[-87.13908,37.72294],[-87.13939,37.72298],[-87.13986,37.72305],[-87.1411,37.72322],[-87.14142,37.72327],[-87.14143,37.72327],[-87.14182,37.72333],[-87.14236,37.72341],[-87.14277,37.72349],[-87.14277,37.72349],[-87.14287,37.72319],[-87.14314,37.72248],[-87.14351,37.72144],[-87.14357,37.72127],[-87.14363,37.7211],[-87.14387,37.7204],[-87.14393,37.72023],[-87.14399,37.72006],[-87.14411,37.71971],[-87.1443,37.71919],[-87.14466,37.71817],[-87.14487,37.71759],[-87.14566,37.7154],[-87.14601,37.71446],[-87.14626,37.71376],[-87.14707,37.71152],[-87.14713,37.71134],[-87.14738,37.71065],[-87.14775,37.70961],[-87.14799,37.70892],[-87.14811,37.70857],[-87.14817,37.7084],[-87.14824,37.70822],[-87.1483,37.70805],[-87.14893,37.70633],[-87.14916,37.70571],[-87.14988,37.70363],[-87.14994,37.70345],[-87.15003,37.7032],[-87.15006,37.70311],[-87.15027,37.70251],[-87.15056,37.70169],[-87.1509,37.70075],[-87.15095,37.70061],[-87.15113,37.70009],[-87.15119,37.69992],[-87.15126,37.69974],[-87.15135,37.69948],[-87.15141,37.69929],[-87.15142,37.69926],[-87.15143,37.69923],[-87.15143,37.69922],[-87.15143,37.69918],[-87.15144,37.69913],[-87.15144,37.6991],[-87.15143,37.69906],[-87.15142,37.69901],[-87.15139,37.69886],[-87.15139,37.69878],[-87.15139,37.69874],[-87.15139,37.69868],[-87.1514,37.69864],[-87.15141,37.69858],[-87.15144,37.69851],[-87.15144,37.69849],[-87.15152,37.69825],[-87.15155,37.69816],[-87.15161,37.69799],[-87.15166,37.69786],[-87.15167,37.69781],[-87.15192,37.69712],[-87.15204,37.69677],[-87.15222,37.69625],[-87.15241,37.69573],[-87.15253,37.69539],[-87.15256,37.69528],[-87.15273,37.69475],[-87.15289,37.69423],[-87.153,37.69388],[-87.15303,37.69377],[-87.15321,37.69318],[-87.15324,37.69309],[-87.15342,37.6925],[-87.15342,37.69248],[-87.15353,37.69213],[-87.15372,37.69153],[-87.15383,37.69116],[-87.15409,37.6903],[-87.15421,37.68994],[-87.15426,37.68976],[-87.15429,37.68965],[-87.15436,37.68942],[-87.15449,37.68907],[-87.1545,37.68905],[-87.15456,37.6889],[-87.15463,37.68875],[-87.15464,37.68873],[-87.15477,37.68842],[-87.15478,37.68839],[-87.15481,37.68829],[-87.15482,37.68822],[-87.15483,37.68815],[-87.15484,37.68807],[-87.15483,37.68798],[-87.1548,37.68785],[-87.15478,37.68768],[-87.15475,37.6875],[-87.15472,37.6873],[-87.1547,37.6872],[-87.15467,37.68713],[-87.15464,37.68706],[-87.15459,37.68698],[-87.15458,37.68697],[-87.15451,37.68688],[-87.15444,37.68679],[-87.15433,37.68668],[-87.15419,37.68654],[-87.15406,37.6864],[-87.15401,37.68636],[-87.15392,37.68627],[-87.15386,37.68619],[-87.1538,37.68611],[-87.15376,37.68606],[-87.15368,37.68595],[-87.15365,37.6859],[-87.15359,37.6858],[-87.15347,37.68561],[-87.15345,37.68558],[-87.15337,37.68543],[-87.1533,37.68529],[-87.15327,37.68522],[-87.15325,37.68515],[-87.15324,37.68506],[-87.15323,37.68498],[-87.15323,37.68489],[-87.15323,37.68485],[-87.15323,37.68423],[-87.15323,37.68417],[-87.15323,37.68399],[-87.15323,37.68381],[-87.15323,37.6836],[-87.15322,37.68345],[-87.15322,37.68309],[-87.15321,37.68255],[-87.15321,37.68219],[-87.1532,37.68191],[-87.15331,37.68175],[-87.15333,37.68173],[-87.15339,37.6816],[-87.15351,37.68124],[-87.15356,37.68109],[-87.15357,37.68106],[-87.15373,37.68054],[-87.15386,37.68013],[-87.15397,37.67984],[-87.15403,37.67967],[-87.1541,37.6795],[-87.15416,37.67934],[-87.15416,37.67933],[-87.15423,37.67915],[-87.15429,37.67898],[-87.15436,37.67881],[-87.15442,37.67864],[-87.15455,37.67829],[-87.15462,37.67812],[-87.15467,37.67798],[-87.15474,37.67777],[-87.1548,37.6776],[-87.155,37.67704],[-87.15513,37.6767],[-87.1554,37.67591],[-87.15543,37.67583],[-87.15549,37.67566],[-87.15611,37.67386],[-87.15641,37.67299],[-87.15653,37.67264],[-87.15679,37.67195],[-87.15712,37.67109],[-87.15739,37.67038],[-87.1575,37.67006],[-87.15756,37.66988],[-87.15769,37.6695],[-87.15777,37.66928],[-87.1578,37.6692],[-87.15785,37.66912],[-87.15789,37.66906],[-87.15795,37.66901],[-87.15809,37.66888],[-87.15822,37.66877],[-87.15823,37.66876],[-87.15853,37.6685],[-87.15962,37.66758],[-87.15993,37.66732],[-87.16039,37.66692],[-87.1607,37.66666],[-87.16084,37.66654],[-87.16085,37.66653],[-87.16147,37.666],[-87.16171,37.6658],[-87.16193,37.6656],[-87.16224,37.66534],[-87.1627,37.66494],[-87.16301,37.66467],[-87.16439,37.66348],[-87.16493,37.66301],[-87.165,37.66295],[-87.16546,37.66255],[-87.16607,37.66202],[-87.16623,37.66189],[-87.16699,37.66122],[-87.16806,37.66029],[-87.16929,37.65923],[-87.16944,37.65909],[-87.17021,37.65843],[-87.17039,37.65827],[-87.17175,37.65711],[-87.17176,37.6571],[-87.17184,37.65703],[-87.17191,37.65696],[-87.17195,37.6569],[-87.17198,37.65684],[-87.172,37.6568],[-87.17204,37.65668],[-87.17219,37.65598],[-87.1722,37.65593],[-87.17224,37.65575],[-87.17245,37.6548],[-87.17275,37.65338],[-87.17286,37.65285],[-87.17306,37.65186],[-87.17308,37.65179],[-87.17322,37.65115],[-87.17336,37.65055],[-87.17343,37.65026],[-87.17357,37.64967],[-87.17365,37.64932],[-87.17382,37.64861],[-87.17391,37.64826],[-87.17404,37.64769],[-87.17418,37.64702],[-87.17426,37.64666],[-87.17464,37.64489],[-87.17493,37.64341],[-87.17502,37.64296],[-87.17512,37.64252],[-87.17532,37.64164],[-87.17557,37.64058],[-87.1756,37.64047],[-87.17561,37.6404],[-87.17563,37.64033],[-87.17569,37.64004],[-87.17572,37.63987],[-87.17574,37.6398],[-87.17576,37.63969],[-87.1758,37.63951],[-87.17581,37.63944],[-87.17583,37.63934],[-87.17585,37.63926],[-87.17585,37.63925],[-87.17587,37.63916],[-87.17594,37.6388],[-87.17595,37.63873],[-87.17597,37.63862],[-87.17598,37.63855],[-87.176,37.63845],[-87.17602,37.63837],[-87.17603,37.63827],[-87.17604,37.63827],[-87.17612,37.63791],[-87.17613,37.63784],[-87.17616,37.63774],[-87.17617,37.63767],[-87.17624,37.63738],[-87.17636,37.63685],[-87.17638,37.63675],[-87.1764,37.63666],[-87.17653,37.63614],[-87.17657,37.63597],[-87.17658,37.6359],[-87.17661,37.63579],[-87.17665,37.63561],[-87.17667,37.63554],[-87.17669,37.63544],[-87.17671,37.63537],[-87.17674,37.63526],[-87.17682,37.63491],[-87.17684,37.63484],[-87.17684,37.63483],[-87.17686,37.63473],[-87.17687,37.63466],[-87.1769,37.63455],[-87.17691,37.63448],[-87.17694,37.63438],[-87.17701,37.63402],[-87.17709,37.63367],[-87.17711,37.6336],[-87.17718,37.63328],[-87.17721,37.63314],[-87.17725,37.63296],[-87.17726,37.63293],[-87.17729,37.63278],[-87.17737,37.63243],[-87.17737,37.63243],[-87.17693,37.63236],[-87.17671,37.63232],[-87.17604,37.63222],[-87.17515,37.63208],[-87.17492,37.63204],[-87.17448,37.63197],[-87.17403,37.6319],[-87.17401,37.6319],[-87.1739,37.63188],[-87.1738,37.63188],[-87.17372,37.63188],[-87.17365,37.63188],[-87.17359,37.63189],[-87.17353,37.6319],[-87.17346,37.63192],[-87.17339,37.63195],[-87.17331,37.632],[-87.17323,37.63206],[-87.17302,37.63227],[-87.17279,37.63251],[-87.17252,37.6328],[-87.17212,37.63324],[-87.17181,37.63357],[-87.17125,37.63414],[-87.171,37.63438],[-87.17097,37.63442],[-87.17056,37.63485],[-87.17053,37.63488],[-87.17045,37.63495],[-87.17043,37.63497],[-87.17039,37.63499],[-87.17035,37.63502],[-87.17029,37.63504],[-87.17026,37.63505],[-87.17023,37.63506],[-87.17021,37.63506],[-87.1702,37.63506],[-87.17017,37.63506],[-87.17014,37.63506],[-87.1701,37.63506],[-87.17006,37.63505],[-87.17002,37.63504],[-87.16998,37.63502],[-87.16995,37.63501],[-87.16989,37.63497],[-87.1698,37.63492],[-87.16967,37.63483],[-87.16963,37.63481],[-87.16923,37.63455],[-87.1691,37.63446],[-87.16892,37.63435],[-87.16877,37.63424],[-87.16849,37.63406],[-87.16832,37.63394],[-87.16782,37.6336],[-87.1678,37.63359],[-87.16743,37.63335],[-87.16726,37.63324],[-87.16708,37.63312],[-87.16691,37.63301],[-87.16551,37.63211],[-87.16526,37.63195],[-87.16495,37.63178],[-87.16475,37.63168],[-87.16451,37.63158],[-87.1645,37.63158],[-87.16429,37.6315],[-87.16368,37.63126],[-87.16328,37.6311],[-87.16242,37.63076],[-87.16185,37.63054],[-87.16165,37.63046],[-87.16163,37.63045],[-87.16002,37.62982],[-87.15798,37.62903],[-87.15777,37.62895],[-87.15757,37.62887],[-87.15737,37.6288],[-87.15716,37.62872],[-87.15655,37.62848],[-87.15585,37.62821],[-87.15533,37.628],[-87.1552,37.62795],[-87.15472,37.62776],[-87.15432,37.62761],[-87.15431,37.6276],[-87.1541,37.62753],[-87.15399,37.62748],[-87.15391,37.62745],[-87.1539,37.62745],[-87.1537,37.62737],[-87.1535,37.62729],[-87.15349,37.62729],[-87.1533,37.6272],[-87.15311,37.62711],[-87.1531,37.62711],[-87.15301,37.62707],[-87.15291,37.62702],[-87.15271,37.62694],[-87.1527,37.62693],[-87.15249,37.62684],[-87.1523,37.62676],[-87.15212,37.62667],[-87.15211,37.62667],[-87.15192,37.62658],[-87.15191,37.62658],[-87.15172,37.62649],[-87.15153,37.6264],[-87.15152,37.6264],[-87.1515,37.62639],[-87.15133,37.62631],[-87.15132,37.62631],[-87.15074,37.62605],[-87.15073,37.62604],[-87.15054,37.62596],[-87.15034,37.62587],[-87.15033,37.62587],[-87.15031,37.62586],[-87.15014,37.62578],[-87.15002,37.62573],[-87.14954,37.62554],[-87.14918,37.62538],[-87.14914,37.62536],[-87.14913,37.62536],[-87.14875,37.62518],[-87.14855,37.62509],[-87.14854,37.62508],[-87.14835,37.62499],[-87.14821,37.62493],[-87.14816,37.62491],[-87.14815,37.6249],[-87.14758,37.62463],[-87.14738,37.62453],[-87.14719,37.62444],[-87.147,37.62435],[-87.14699,37.62435],[-87.14683,37.62427],[-87.1468,37.62426],[-87.14642,37.62408],[-87.14622,37.62399],[-87.14621,37.62398],[-87.14603,37.6239],[-87.14601,37.62389],[-87.14582,37.6238],[-87.14566,37.62373],[-87.14497,37.62341],[-87.14487,37.62337],[-87.14441,37.62316],[-87.14408,37.62302],[-87.14407,37.62302],[-87.14398,37.62298],[-87.14388,37.62294],[-87.14347,37.62278],[-87.14346,37.62278],[-87.1434,37.62276],[-87.14326,37.6227],[-87.14325,37.6227],[-87.14305,37.62262],[-87.14285,37.62255],[-87.14284,37.62255],[-87.14266,37.62248],[-87.14244,37.6224],[-87.14243,37.6224],[-87.14223,37.62233],[-87.14222,37.62232],[-87.14179,37.62217],[-87.1412,37.62196],[-87.14118,37.62195],[-87.14076,37.62181],[-87.14064,37.62176],[-87.14057,37.62174],[-87.14016,37.62158],[-87.13996,37.62151],[-87.13994,37.6215],[-87.13955,37.62136],[-87.13952,37.62135],[-87.13932,37.62127],[-87.13898,37.62114],[-87.13893,37.62113],[-87.13891,37.62112],[-87.13872,37.62105],[-87.1387,37.62104],[-87.13852,37.62098],[-87.13827,37.62089],[-87.13807,37.62081],[-87.13786,37.62073],[-87.13766,37.62065],[-87.13746,37.62057],[-87.13697,37.62038],[-87.1366,37.62023],[-87.13605,37.62],[-87.13458,37.61942],[-87.13417,37.61926],[-87.1339,37.61915],[-87.13289,37.61876],[-87.13231,37.61853],[-87.13187,37.61837],[-87.13183,37.61835],[-87.13148,37.61825],[-87.13079,37.61804],[-87.13071,37.61801],[-87.13032,37.61788],[-87.13012,37.61779],[-87.1301,37.61778],[-87.13003,37.61774],[-87.12991,37.61767],[-87.12978,37.61759],[-87.12963,37.61748],[-87.12957,37.61743],[-87.12948,37.61736],[-87.12942,37.6173],[-87.12897,37.6169],[-87.1289,37.61683],[-87.12882,37.61676],[-87.12868,37.61662],[-87.12826,37.61624],[-87.1282,37.61618],[-87.12805,37.61604],[-87.12801,37.61599],[-87.12792,37.61589],[-87.12778,37.61575],[-87.12777,37.61574],[-87.12752,37.61545],[-87.12739,37.61531],[-87.12737,37.61528],[-87.12726,37.61516],[-87.12721,37.61511],[-87.1271,37.61503],[-87.12709,37.61502],[-87.12696,37.61495],[-87.12692,37.61493],[-87.12689,37.61492],[-87.12682,37.6149],[-87.1267,37.61488],[-87.12666,37.61487],[-87.1265,37.61486],[-87.12647,37.61486],[-87.12624,37.61486],[-87.12587,37.61488],[-87.12517,37.61491],[-87.12363,37.61499],[-87.12336,37.61501],[-87.12267,37.61505],[-87.12241,37.61506],[-87.12225,37.61505],[-87.1221,37.61503],[-87.12203,37.61502],[-87.12196,37.61499],[-87.12184,37.61494],[-87.12182,37.61493],[-87.12179,37.6149],[-87.12173,37.61486],[-87.12169,37.61482],[-87.12165,37.61477],[-87.12162,37.61471],[-87.1216,37.61466],[-87.12158,37.6146],[-87.12156,37.61447],[-87.12142,37.61279],[-87.12134,37.61194],[-87.1212,37.61051],[-87.12119,37.61033],[-87.12117,37.61013],[-87.12112,37.60985],[-87.1211,37.60972],[-87.12109,37.60971],[-87.12108,37.60965],[-87.12103,37.60957],[-87.12101,37.60954],[-87.12097,37.6095],[-87.12088,37.60943],[-87.12077,37.60938],[-87.12065,37.60933],[-87.12052,37.60931],[-87.12042,37.6093],[-87.12038,37.6093],[-87.12023,37.60931],[-87.12008,37.60934],[-87.11851,37.60968],[-87.11825,37.60974],[-87.11815,37.60976],[-87.11805,37.60976],[-87.11798,37.60977],[-87.11788,37.60976],[-87.11779,37.60975],[-87.11769,37.60972],[-87.11755,37.60964],[-87.11751,37.6096],[-87.11744,37.60954],[-87.11738,37.60946],[-87.11724,37.60926],[-87.11712,37.60908],[-87.117,37.60889],[-87.11696,37.60882],[-87.11694,37.60878],[-87.11688,37.60867],[-87.11671,37.60817],[-87.11661,37.60782],[-87.11636,37.60694],[-87.11617,37.6063],[-87.11609,37.60603],[-87.11604,37.60585],[-87.11597,37.60561],[-87.11584,37.60515],[-87.11584,37.60514],[-87.11578,37.605],[-87.11577,37.60498],[-87.11571,37.60481],[-87.11556,37.60453],[-87.11539,37.60426],[-87.11534,37.60415],[-87.11532,37.6041],[-87.11516,37.60366],[-87.11506,37.60346],[-87.11506,37.60346],[-87.11492,37.60352],[-87.11485,37.60354],[-87.11472,37.6036],[-87.1146,37.60365],[-87.11426,37.60378],[-87.11411,37.60383],[-87.11389,37.6039],[-87.11369,37.60397],[-87.11322,37.60411],[-87.11244,37.60432],[-87.11238,37.60434],[-87.11097,37.60473],[-87.11086,37.60476],[-87.11005,37.605],[-87.10992,37.60504],[-87.10947,37.60517],[-87.10892,37.60533],[-87.10801,37.60561],[-87.10716,37.60586],[-87.10695,37.60592],[-87.10652,37.60605],[-87.1065,37.60606],[-87.10607,37.60619],[-87.10546,37.60637],[-87.10546,37.60637],[-87.10548,37.60665],[-87.10551,37.60682],[-87.10551,37.60685],[-87.10554,37.60696],[-87.10554,37.60699],[-87.10559,37.60719],[-87.10564,37.60734],[-87.10572,37.60763],[-87.10579,37.60787],[-87.1058,37.60791],[-87.10586,37.60808],[-87.10591,37.60822],[-87.10613,37.60894],[-87.10617,37.60907],[-87.10617,37.60909],[-87.10626,37.60935],[-87.10628,37.60942],[-87.10639,37.60977],[-87.10653,37.61026],[-87.10654,37.6103],[-87.10659,37.61047],[-87.10664,37.61067],[-87.10669,37.6109],[-87.10674,37.61112],[-87.10677,37.61128],[-87.10681,37.6115],[-87.10684,37.61172],[-87.10689,37.61199],[-87.10692,37.61219],[-87.10693,37.61232],[-87.10694,37.61236],[-87.10698,37.61267],[-87.10701,37.61297],[-87.10702,37.61308],[-87.10706,37.61338],[-87.10706,37.61339],[-87.10708,37.61359],[-87.10709,37.61359]]}}]}