{"type":"FeatureCollection","features":[{"type":"Feature","properties":{"_gpxType":"trk","name":"10300 U.S. 431, Utica, KY - First Baptist Church, Kentucky 132, Sebree, KY","coordinateProperties":{},"id":28},"geometry":{"type":"LineString","coordinates":[[-87.10709,37.61359],[-87.10708,37.61359],[-87.10706,37.61339],[-87.10706,37.61338],[-87.10702,37.61308],[-87.10701,37.61297],[-87.10698,37.61267],[-87.10694,37.61236],[-87.10693,37.61232],[-87.10692,37.61219],[-87.10689,37.61199],[-87.10684,37.61172],[-87.10681,37.6115],[-87.10677,37.61128],[-87.10674,37.61112],[-87.10669,37.6109],[-87.10664,37.61067],[-87.10659,37.61047],[-87.10654,37.6103],[-87.10653,37.61026],[-87.10639,37.60977],[-87.10628,37.60942],[-87.10626,37.60935],[-87.10617,37.60909],[-87.10617,37.60907],[-87.10613,37.60894],[-87.10591,37.60822],[-87.10586,37.60808],[-87.1058,37.60791],[-87.10579,37.60787],[-87.10572,37.60763],[-87.10564,37.60734],[-87.10559,37.60719],[-87.10554,37.60699],[-87.10554,37.60696],[-87.10551,37.60685],[-87.10551,37.60682],[-87.10548,37.60665],[-87.10546,37.60637],[-87.10546,37.60637],[-87.10607,37.60619],[-87.1065,37.60606],[-87.10652,37.60605],[-87.10695,37.60592],[-87.10716,37.60586],[-87.10801,37.60561],[-87.10892,37.60533],[-87.10947,37.60517],[-87.10992,37.60504],[-87.11005,37.605],[-87.11086,37.60476],[-87.11097,37.60473],[-87.11238,37.60434],[-87.11244,37.60432],[-87.11322,37.60411],[-87.11369,37.60397],[-87.11389,37.6039],[-87.11411,37.60383],[-87.11426,37.60378],[-87.1146,37.60365],[-87.11472,37.6036],[-87.11485,37.60354],[-87.11492,37.60352],[-87.11506,37.60346],[-87.11512,37.60344],[-87.11531,37.60334],[-87.11542,37.60328],[-87.1159,37.60307],[-87.11602,37.60302],[-87.11614,37.60297],[-87.1163,37.6029],[-87.11642,37.60285],[-87.1165,37.60282],[-87.11656,37.60279],[-87.11671,37.60274],[-87.11691,37.60266],[-87.11703,37.60262],[-87.1171,37.60259],[-87.11712,37.60259],[-87.11723,37.60254],[-87.11732,37.6025],[-87.11743,37.60245],[-87.11747,37.60243],[-87.1177,37.6023],[-87.11779,37.60225],[-87.11797,37.60212],[-87.11805,37.60205],[-87.11812,37.60198],[-87.11818,37.60192],[-87.11819,37.60191],[-87.11825,37.60186],[-87.11829,37.60183],[-87.11833,37.60179],[-87.11835,37.60178],[-87.11841,37.60173],[-87.11853,37.60167],[-87.11856,37.60165],[-87.11871,37.60159],[-87.11903,37.60151],[-87.11906,37.60151],[-87.11929,37.60147],[-87.11954,37.60144],[-87.12027,37.60133],[-87.12085,37.60125],[-87.12092,37.60124],[-87.12107,37.60122],[-87.12152,37.60114],[-87.12171,37.60111],[-87.12186,37.60107],[-87.12194,37.60103],[-87.12199,37.601],[-87.12214,37.60094],[-87.12233,37.60084],[-87.12253,37.60075],[-87.12265,37.6007],[-87.12309,37.60055],[-87.12315,37.60053],[-87.12357,37.6004],[-87.12363,37.60038],[-87.12388,37.60033],[-87.12401,37.60032],[-87.12416,37.60031],[-87.12424,37.60031],[-87.12442,37.6003],[-87.12446,37.6003],[-87.12469,37.60032],[-87.12492,37.60033],[-87.12503,37.60034],[-87.12527,37.60035],[-87.12537,37.60035],[-87.12605,37.60037],[-87.12628,37.60037],[-87.1265,37.60038],[-87.12665,37.60038],[-87.12673,37.60038],[-87.12696,37.60039],[-87.12719,37.6004],[-87.12741,37.6004],[-87.12788,37.60042],[-87.12809,37.60044],[-87.12832,37.60047],[-87.12854,37.60049],[-87.12877,37.60052],[-87.12899,37.60054],[-87.12935,37.60058],[-87.12944,37.60059],[-87.12966,37.60062],[-87.13006,37.60067],[-87.13032,37.60072],[-87.13055,37.60074],[-87.13056,37.60074],[-87.13059,37.60075],[-87.13074,37.60078],[-87.13078,37.60078],[-87.13083,37.60078],[-87.13089,37.60077],[-87.13093,37.60076],[-87.13096,37.60074],[-87.13099,37.60073],[-87.13102,37.60071],[-87.13104,37.60068],[-87.13106,37.60065],[-87.13108,37.60062],[-87.13108,37.60059],[-87.13107,37.60033],[-87.13107,37.60022],[-87.13104,37.59978],[-87.13104,37.59974],[-87.13103,37.59957],[-87.13102,37.59942],[-87.13101,37.59932],[-87.131,37.59924],[-87.131,37.59921],[-87.13097,37.59903],[-87.13091,37.59851],[-87.13091,37.5985],[-87.13085,37.59815],[-87.13085,37.59813],[-87.13083,37.59804],[-87.13082,37.59796],[-87.13073,37.59732],[-87.13061,37.59686],[-87.1306,37.59674],[-87.13064,37.59661],[-87.13069,37.59654],[-87.13087,37.59639],[-87.131,37.59631],[-87.1311,37.59625],[-87.13121,37.5962],[-87.13125,37.59618],[-87.13162,37.59605],[-87.13205,37.5959],[-87.13216,37.59587],[-87.13271,37.59571],[-87.13325,37.59558],[-87.13346,37.59554],[-87.1336,37.59552],[-87.13385,37.59551],[-87.13413,37.5955],[-87.13454,37.59551],[-87.13535,37.59554],[-87.13564,37.59555],[-87.13587,37.59556],[-87.13672,37.59558],[-87.13678,37.59558],[-87.137,37.59559],[-87.13745,37.59559],[-87.13768,37.59558],[-87.13774,37.59558],[-87.13791,37.59558],[-87.13793,37.59558],[-87.13809,37.59556],[-87.13813,37.59555],[-87.13831,37.59551],[-87.13835,37.5955],[-87.13853,37.59543],[-87.13856,37.59542],[-87.13885,37.59531],[-87.13916,37.59517],[-87.13935,37.59508],[-87.13955,37.59498],[-87.13993,37.5948],[-87.14009,37.59472],[-87.14074,37.59446],[-87.14094,37.59438],[-87.14111,37.59432],[-87.14196,37.59398],[-87.14216,37.5939],[-87.14217,37.5939],[-87.14288,37.59361],[-87.1439,37.59322],[-87.14411,37.59314],[-87.1442,37.5931],[-87.14431,37.59306],[-87.14492,37.59282],[-87.14502,37.59278],[-87.14512,37.59274],[-87.14533,37.59267],[-87.1457,37.59253],[-87.14594,37.59244],[-87.14635,37.59227],[-87.1464,37.59225],[-87.14655,37.59219],[-87.14676,37.59211],[-87.14708,37.59198],[-87.14767,37.59175],[-87.1481,37.59159],[-87.14831,37.59151],[-87.14872,37.59136],[-87.14892,37.59128],[-87.14933,37.59113],[-87.14995,37.5909],[-87.15015,37.59082],[-87.15111,37.59046],[-87.1518,37.59021],[-87.152,37.59013],[-87.15241,37.58998],[-87.15286,37.58982],[-87.15375,37.58948],[-87.15416,37.58933],[-87.15437,37.58925],[-87.15499,37.58902],[-87.15507,37.58899],[-87.15519,37.58894],[-87.15534,37.58889],[-87.15539,37.58886],[-87.15594,37.58866],[-87.15601,37.58863],[-87.15633,37.58851],[-87.15661,37.58841],[-87.15662,37.5884],[-87.1568,37.58834],[-87.15693,37.58829],[-87.15706,37.58825],[-87.15723,37.5882],[-87.15735,37.58817],[-87.15747,37.58816],[-87.15758,37.58815],[-87.1577,37.58815],[-87.15772,37.58815],[-87.15787,37.58816],[-87.15807,37.58817],[-87.15823,37.5882],[-87.15838,37.58821],[-87.15846,37.58821],[-87.1585,37.58822],[-87.15856,37.58822],[-87.15862,37.58822],[-87.15868,37.58822],[-87.1587,37.58822],[-87.1588,37.5882],[-87.15886,37.58817],[-87.15895,37.5881],[-87.15898,37.58806],[-87.1591,37.58794],[-87.15912,37.58792],[-87.15927,37.58775],[-87.15991,37.58704],[-87.15993,37.58701],[-87.16016,37.58675],[-87.16029,37.5866],[-87.16055,37.5863],[-87.16068,37.58616],[-87.1612,37.58556],[-87.16123,37.58552],[-87.16145,37.58527],[-87.16169,37.58498],[-87.16197,37.58467],[-87.16222,37.58438],[-87.16236,37.58423],[-87.16248,37.58414],[-87.16253,37.58411],[-87.1626,37.58408],[-87.16274,37.58405],[-87.16284,37.58406],[-87.16289,37.58407],[-87.16291,37.58408],[-87.16293,37.58409],[-87.16298,37.58411],[-87.16306,37.58416],[-87.16314,37.58423],[-87.16324,37.58432],[-87.16339,37.58447],[-87.16357,37.58464],[-87.16371,37.58478],[-87.16378,37.58485],[-87.16382,37.5849],[-87.16396,37.58504],[-87.16427,37.58536],[-87.16451,37.58559],[-87.16453,37.58561],[-87.16456,37.58564],[-87.16463,37.5857],[-87.16467,37.58574],[-87.16471,37.58578],[-87.16475,37.58582],[-87.16478,37.58584],[-87.1648,37.58586],[-87.1651,37.58613],[-87.16513,37.58615],[-87.16523,37.58624],[-87.16528,37.58629],[-87.16552,37.5865],[-87.16555,37.58653],[-87.16557,37.58655],[-87.16563,37.5866],[-87.16566,37.58663],[-87.16602,37.58695],[-87.1661,37.58702],[-87.16613,37.58704],[-87.16633,37.58721],[-87.16634,37.58722],[-87.16641,37.58728],[-87.16664,37.58747],[-87.16665,37.58748],[-87.16667,37.58749],[-87.16693,37.5877],[-87.16739,37.58808],[-87.16744,37.58812],[-87.1676,37.58825],[-87.16769,37.58832],[-87.16777,37.58839],[-87.16795,37.58853],[-87.16806,37.58861],[-87.16816,37.58868],[-87.16822,37.58872],[-87.16825,37.58874],[-87.16826,37.58875],[-87.16828,37.58876],[-87.16838,37.58882],[-87.16844,37.58885],[-87.16852,37.58888],[-87.16862,37.58893],[-87.16866,37.58894],[-87.16886,37.589],[-87.16905,37.58905],[-87.16921,37.58909],[-87.16937,37.58913],[-87.16953,37.58915],[-87.16961,37.58916],[-87.16977,37.58918],[-87.16985,37.58918],[-87.16996,37.58918],[-87.16997,37.58918],[-87.17005,37.58918],[-87.17014,37.58917],[-87.17018,37.58917],[-87.17019,37.58917],[-87.17022,37.58917],[-87.1703,37.58916],[-87.17041,37.58913],[-87.17043,37.58913],[-87.1705,37.58911],[-87.17067,37.58907],[-87.17088,37.58901],[-87.17105,37.58895],[-87.17108,37.58894],[-87.17187,37.58867],[-87.17188,37.58867],[-87.17272,37.58838],[-87.17334,37.58818],[-87.17355,37.58811],[-87.17366,37.58807],[-87.1738,37.58803],[-87.17384,37.58801],[-87.17401,37.58795],[-87.17408,37.58793],[-87.17422,37.58788],[-87.17438,37.58783],[-87.17447,37.5878],[-87.1745,37.58779],[-87.1748,37.58769],[-87.17492,37.58766],[-87.17501,37.58763],[-87.17513,37.58759],[-87.17533,37.58754],[-87.17549,37.58749],[-87.17565,37.58746],[-87.17567,37.58745],[-87.17582,37.58742],[-87.17587,37.58741],[-87.17588,37.58741],[-87.17589,37.58741],[-87.17593,37.5874],[-87.176,37.58739],[-87.17614,37.58737],[-87.17636,37.58736],[-87.17671,37.58734],[-87.17677,37.58733],[-87.17694,37.58733],[-87.17701,37.58733],[-87.17713,37.58733],[-87.17732,37.58734],[-87.17752,37.58735],[-87.17784,37.58739],[-87.17835,37.58745],[-87.17836,37.58745],[-87.17871,37.58749],[-87.17875,37.5875],[-87.17918,37.58755],[-87.17922,37.58756],[-87.17944,37.58758],[-87.17963,37.58761],[-87.17992,37.58764],[-87.18013,37.58766],[-87.18014,37.58767],[-87.18015,37.58767],[-87.18055,37.58772],[-87.18081,37.58776],[-87.18082,37.58776],[-87.18083,37.58776],[-87.18109,37.58781],[-87.18124,37.58784],[-87.18153,37.58791],[-87.18175,37.58796],[-87.18189,37.588],[-87.18224,37.5881],[-87.18245,37.58816],[-87.1829,37.58831],[-87.18293,37.58832],[-87.18326,37.58842],[-87.18451,37.58882],[-87.18468,37.58888],[-87.18472,37.58889],[-87.18539,37.5891],[-87.1855,37.58914],[-87.18567,37.58919],[-87.18584,37.58925],[-87.18595,37.58929],[-87.18636,37.58942],[-87.18675,37.58954],[-87.1872,37.58968],[-87.18737,37.58973],[-87.1874,37.58974],[-87.18741,37.58974],[-87.18742,37.58975],[-87.18743,37.58975],[-87.18784,37.58988],[-87.18804,37.58994],[-87.18805,37.58995],[-87.18855,37.59011],[-87.18862,37.59013],[-87.18866,37.59014],[-87.18868,37.59015],[-87.18887,37.59021],[-87.18926,37.59035],[-87.18949,37.59043],[-87.18951,37.59044],[-87.18969,37.5905],[-87.18972,37.59051],[-87.1899,37.59058],[-87.19013,37.59067],[-87.19051,37.5908],[-87.19055,37.59082],[-87.19072,37.59087],[-87.19073,37.59087],[-87.19089,37.59089],[-87.19089,37.59089],[-87.1909,37.59106],[-87.19091,37.5912],[-87.19093,37.59142],[-87.19094,37.59148],[-87.19096,37.59159],[-87.19103,37.59195],[-87.19106,37.59213],[-87.19109,37.5923],[-87.19111,37.5924],[-87.19115,37.59259],[-87.19122,37.59277],[-87.19125,37.59283],[-87.1913,37.59293],[-87.19134,37.59299],[-87.19139,37.59308],[-87.19145,37.59315],[-87.19149,37.5932],[-87.19156,37.59331],[-87.19167,37.59346],[-87.19168,37.59346],[-87.19168,37.59347],[-87.19179,37.59362],[-87.19188,37.59374],[-87.19201,37.59392],[-87.19202,37.59393],[-87.1921,37.59403],[-87.19217,37.59413],[-87.19223,37.59418],[-87.19231,37.59423],[-87.19238,37.59426],[-87.19246,37.59429],[-87.19256,37.59431],[-87.19267,37.59432],[-87.19286,37.59435],[-87.19316,37.5944],[-87.19336,37.59443],[-87.19352,37.59446],[-87.19373,37.59451],[-87.1938,37.59452],[-87.19389,37.59453],[-87.19394,37.59454],[-87.19397,37.59455],[-87.19433,37.59462],[-87.19437,37.59463],[-87.19442,37.59464],[-87.19454,37.59467],[-87.19455,37.59467],[-87.1947,37.59471],[-87.19476,37.59473],[-87.19498,37.59479],[-87.19547,37.59493],[-87.19562,37.59497],[-87.1958,37.59501],[-87.19595,37.59504],[-87.19605,37.59507],[-87.19643,37.59518],[-87.19689,37.59529],[-87.19692,37.59529],[-87.19713,37.59535],[-87.19735,37.59541],[-87.19749,37.59545],[-87.19778,37.59552],[-87.19792,37.59556],[-87.19821,37.59563],[-87.19829,37.59565],[-87.1984,37.59567],[-87.19864,37.59574],[-87.19879,37.59577],[-87.19913,37.59584],[-87.19946,37.59589],[-87.19953,37.5959],[-87.19968,37.59591],[-87.19974,37.59591],[-87.19991,37.59592],[-87.20013,37.59593],[-87.20014,37.59593],[-87.20082,37.59589],[-87.20252,37.59577],[-87.20275,37.59576],[-87.2037,37.59569],[-87.20388,37.59568],[-87.20413,37.59569],[-87.20435,37.5957],[-87.20454,37.59571],[-87.20478,37.59574],[-87.20505,37.59577],[-87.20531,37.59582],[-87.20562,37.5959],[-87.20583,37.59596],[-87.20607,37.59603],[-87.20625,37.59609],[-87.20639,37.59613],[-87.20676,37.59626],[-87.20734,37.59649],[-87.20748,37.59655],[-87.20778,37.59668],[-87.20827,37.59691],[-87.20921,37.59733],[-87.20926,37.59735],[-87.20941,37.59742],[-87.20946,37.59744],[-87.20961,37.59751],[-87.20966,37.59753],[-87.2098,37.59759],[-87.20995,37.59766],[-87.21005,37.5977],[-87.21013,37.59774],[-87.21032,37.59784],[-87.21042,37.59791],[-87.21045,37.59794],[-87.21057,37.59804],[-87.21069,37.59816],[-87.21071,37.59819],[-87.21081,37.59831],[-87.21093,37.59851],[-87.21102,37.59867],[-87.2111,37.59883],[-87.21111,37.59885],[-87.21119,37.599],[-87.21124,37.59909],[-87.21129,37.59916],[-87.2113,37.59918],[-87.21132,37.59922],[-87.21134,37.59926],[-87.21144,37.59944],[-87.21154,37.59962],[-87.21162,37.59975],[-87.21164,37.5998],[-87.21184,37.60015],[-87.21185,37.60016],[-87.21206,37.60053],[-87.21222,37.6008],[-87.21227,37.60089],[-87.21242,37.60115],[-87.21275,37.60176],[-87.21294,37.60211],[-87.21295,37.60212],[-87.21306,37.60228],[-87.2131,37.60235],[-87.21322,37.6025],[-87.21336,37.60265],[-87.21349,37.60276],[-87.21359,37.60282],[-87.21361,37.60284],[-87.21369,37.60289],[-87.21382,37.60296],[-87.21395,37.60302],[-87.21412,37.60307],[-87.21434,37.60313],[-87.21444,37.60316],[-87.21461,37.60319],[-87.21492,37.60326],[-87.21511,37.6033],[-87.21598,37.60348],[-87.2162,37.60353],[-87.21623,37.60354],[-87.21645,37.60358],[-87.21693,37.60368],[-87.21723,37.60375],[-87.21741,37.60379],[-87.21745,37.60379],[-87.21759,37.60382],[-87.21763,37.60383],[-87.2178,37.60386],[-87.21781,37.60386],[-87.21822,37.60395],[-87.21892,37.6041],[-87.21893,37.60411],[-87.21936,37.6042],[-87.22001,37.60434],[-87.22002,37.60434],[-87.22089,37.60452],[-87.2209,37.60453],[-87.22141,37.60464],[-87.22186,37.60472],[-87.22199,37.60474],[-87.222,37.60475],[-87.22207,37.60476],[-87.22216,37.60477],[-87.22232,37.60477],[-87.22244,37.60476],[-87.22245,37.60476],[-87.22256,37.60476],[-87.22357,37.60465],[-87.22447,37.60455],[-87.22514,37.60448],[-87.22518,37.60447],[-87.22578,37.60441],[-87.22582,37.60441],[-87.22604,37.60438],[-87.22607,37.60437],[-87.22627,37.60435],[-87.22631,37.60435],[-87.22653,37.60433],[-87.22661,37.60432],[-87.22672,37.60432],[-87.22672,37.60431],[-87.22691,37.6043],[-87.22695,37.6043],[-87.22721,37.60429],[-87.22746,37.60428],[-87.22798,37.60429],[-87.22799,37.60429],[-87.22822,37.60429],[-87.22844,37.60429],[-87.22958,37.6043],[-87.23001,37.60431],[-87.23092,37.60434],[-87.23115,37.60434],[-87.2316,37.60436],[-87.23183,37.60436],[-87.23191,37.60437],[-87.23205,37.60437],[-87.23228,37.60438],[-87.23251,37.60439],[-87.23319,37.60441],[-87.2338,37.60442],[-87.23387,37.60443],[-87.23455,37.60446],[-87.235,37.60448],[-87.23523,37.60449],[-87.2355,37.6045],[-87.23614,37.60453],[-87.23659,37.60455],[-87.23699,37.60457],[-87.23767,37.6046],[-87.2379,37.60461],[-87.23795,37.60462],[-87.23845,37.60464],[-87.2389,37.60466],[-87.23968,37.60471],[-87.24029,37.60474],[-87.24049,37.60475],[-87.24064,37.60476],[-87.24094,37.60475],[-87.24105,37.60475],[-87.24139,37.60472],[-87.24177,37.60469],[-87.24222,37.60466],[-87.2423,37.60465],[-87.24297,37.60459],[-87.24343,37.60455],[-87.24347,37.60454],[-87.24365,37.60452],[-87.24433,37.60446],[-87.24466,37.60444],[-87.246,37.60432],[-87.2464,37.60429],[-87.2469,37.60425],[-87.24706,37.60423],[-87.24713,37.60423],[-87.24736,37.60422],[-87.24834,37.60418],[-87.2494,37.60414],[-87.24963,37.60413],[-87.24985,37.60413],[-87.25027,37.60411],[-87.25063,37.60411],[-87.25108,37.6041],[-87.25244,37.60408],[-87.25251,37.60408],[-87.2529,37.60409],[-87.25312,37.6041],[-87.25313,37.6041],[-87.25335,37.6041],[-87.25351,37.6041],[-87.25358,37.60411],[-87.25387,37.60414],[-87.25408,37.60417],[-87.25425,37.6042],[-87.2547,37.60422],[-87.25516,37.60423],[-87.25561,37.60425],[-87.25606,37.60427],[-87.25629,37.60427],[-87.25646,37.60428],[-87.25669,37.60429],[-87.25692,37.6043],[-87.25714,37.6043],[-87.25737,37.60431],[-87.2576,37.60432],[-87.25782,37.60432],[-87.25805,37.60433],[-87.25828,37.60434],[-87.25896,37.60436],[-87.25919,37.60437],[-87.25941,37.60438],[-87.25964,37.60438],[-87.26009,37.6044],[-87.26032,37.6044],[-87.26055,37.60441],[-87.26061,37.60441],[-87.26077,37.60442],[-87.26123,37.60444],[-87.26145,37.60445],[-87.26178,37.60446],[-87.26201,37.60447],[-87.26209,37.60447],[-87.26223,37.60448],[-87.2624,37.60448],[-87.26258,37.60449],[-87.26265,37.60449],[-87.26268,37.60449],[-87.26269,37.60449],[-87.26291,37.6045],[-87.26314,37.60451],[-87.26322,37.60451],[-87.26326,37.60451],[-87.2636,37.60452],[-87.26386,37.60453],[-87.26438,37.60455],[-87.26444,37.60455],[-87.26558,37.6046],[-87.2658,37.60462],[-87.26603,37.60463],[-87.26626,37.60464],[-87.26648,37.60465],[-87.26739,37.60469],[-87.26766,37.6047],[-87.26774,37.60471],[-87.26782,37.60471],[-87.26784,37.60471],[-87.26807,37.60472],[-87.26812,37.60472],[-87.26821,37.60472],[-87.26823,37.60473],[-87.26832,37.60473],[-87.26866,37.60474],[-87.26872,37.60475],[-87.26875,37.60475],[-87.26882,37.60475],[-87.26886,37.60475],[-87.26893,37.60476],[-87.26908,37.60476],[-87.26933,37.60478],[-87.26936,37.60478],[-87.26957,37.60479],[-87.26966,37.6048],[-87.2702,37.60482],[-87.27041,37.60483],[-87.27047,37.60484],[-87.27079,37.60485],[-87.27102,37.60486],[-87.27121,37.60487],[-87.27141,37.60488],[-87.27144,37.60489],[-87.2716,37.6049],[-87.27163,37.6049],[-87.27166,37.6049],[-87.27189,37.60492],[-87.27198,37.60493],[-87.27219,37.60495],[-87.2724,37.60497],[-87.27257,37.60499],[-87.27302,37.60504],[-87.27322,37.60506],[-87.27324,37.60506],[-87.27347,37.60508],[-87.27369,37.60511],[-87.27392,37.60513],[-87.27414,37.60515],[-87.2745,37.60519],[-87.27482,37.60522],[-87.27504,37.60525],[-87.27513,37.60525],[-87.27527,37.60527],[-87.27572,37.60532],[-87.27573,37.60532],[-87.27617,37.60537],[-87.27639,37.60539],[-87.27641,37.60539],[-87.27677,37.60543],[-87.27707,37.60546],[-87.27729,37.60548],[-87.2775,37.6055],[-87.27752,37.6055],[-87.27774,37.60553],[-87.27783,37.60553],[-87.27823,37.60558],[-87.27842,37.6056],[-87.27856,37.60561],[-87.27882,37.60565],[-87.27924,37.60571],[-87.27931,37.60572],[-87.2794,37.60574],[-87.27958,37.60578],[-87.27976,37.60583],[-87.28013,37.60594],[-87.28037,37.60602],[-87.2805,37.60607],[-87.281,37.60623],[-87.28108,37.60626],[-87.28114,37.60628],[-87.28154,37.60642],[-87.28157,37.60643],[-87.28183,37.60652],[-87.28198,37.60656],[-87.28291,37.60685],[-87.28321,37.60695],[-87.28335,37.607],[-87.28345,37.60703],[-87.28359,37.60707],[-87.28367,37.6071],[-87.28377,37.60713],[-87.2838,37.60714],[-87.28384,37.60715],[-87.28478,37.60745],[-87.2848,37.60746],[-87.28525,37.6076],[-87.28528,37.60761],[-87.28538,37.60765],[-87.28564,37.60773],[-87.28575,37.60777],[-87.28578,37.60778],[-87.28586,37.6078],[-87.28598,37.60784],[-87.28615,37.6079],[-87.28623,37.60793],[-87.28628,37.60794],[-87.28637,37.60796],[-87.28646,37.60799],[-87.28649,37.608],[-87.28662,37.60804],[-87.28671,37.60806],[-87.28684,37.6081],[-87.28709,37.60818],[-87.2873,37.60826],[-87.28749,37.60832],[-87.28751,37.60833],[-87.28768,37.60838],[-87.28776,37.60841],[-87.28793,37.60847],[-87.28802,37.6085],[-87.28821,37.60856],[-87.28839,37.60863],[-87.28857,37.60871],[-87.28874,37.60879],[-87.28876,37.60879],[-87.28893,37.60888],[-87.28894,37.60889],[-87.28911,37.60899],[-87.28929,37.6091],[-87.28938,37.60915],[-87.28946,37.6092],[-87.28947,37.60921],[-87.28965,37.60932],[-87.29019,37.60965],[-87.29031,37.60973],[-87.29037,37.60976],[-87.2905,37.60984],[-87.29056,37.60988],[-87.29074,37.60999],[-87.2909,37.6101],[-87.29108,37.61021],[-87.29126,37.61032],[-87.29147,37.61045],[-87.29153,37.61049],[-87.29205,37.6108],[-87.29216,37.61087],[-87.29233,37.61098],[-87.29251,37.6111],[-87.29268,37.61121],[-87.29286,37.61132],[-87.29295,37.61138],[-87.29333,37.61161],[-87.2934,37.61166],[-87.29358,37.61176],[-87.29377,37.61187],[-87.29397,37.61197],[-87.29417,37.61206],[-87.29438,37.61214],[-87.29446,37.61216],[-87.2946,37.61221],[-87.29482,37.61228],[-87.295,37.61232],[-87.2952,37.61237],[-87.29549,37.61244],[-87.29572,37.61249],[-87.29594,37.61254],[-87.29602,37.61256],[-87.29609,37.61257],[-87.29613,37.61258],[-87.2963,37.61262],[-87.29655,37.61269],[-87.29662,37.6127],[-87.29706,37.61281],[-87.29721,37.61285],[-87.29771,37.61297],[-87.29773,37.61297],[-87.29794,37.61302],[-87.29815,37.61306],[-87.29816,37.61307],[-87.29827,37.61309],[-87.29837,37.6131],[-87.29838,37.61311],[-87.29849,37.61312],[-87.29859,37.61314],[-87.29861,37.61314],[-87.29868,37.61315],[-87.29891,37.61317],[-87.29914,37.61318],[-87.29927,37.61319],[-87.29938,37.6132],[-87.29995,37.61322],[-87.30041,37.61324],[-87.30053,37.61324],[-87.30063,37.61324],[-87.30154,37.61328],[-87.30171,37.61328],[-87.30278,37.61331],[-87.30289,37.61332],[-87.30319,37.61333],[-87.30411,37.61337],[-87.30434,37.61337],[-87.30442,37.61338],[-87.30454,37.61338],[-87.30465,37.61339],[-87.3053,37.61341],[-87.30541,37.61341],[-87.30552,37.61341],[-87.30573,37.6134],[-87.30584,37.6134],[-87.30599,37.61338],[-87.30605,37.61337],[-87.30616,37.61336],[-87.30626,37.61334],[-87.30637,37.61332],[-87.30658,37.61328],[-87.30679,37.61323],[-87.30699,37.61317],[-87.30708,37.61314],[-87.3072,37.6131],[-87.30741,37.61303],[-87.30749,37.61299],[-87.30761,37.61295],[-87.3079,37.61284],[-87.308,37.6128],[-87.30819,37.61272],[-87.30831,37.61268],[-87.30847,37.61262],[-87.30857,37.61258],[-87.30861,37.61256],[-87.30866,37.61254],[-87.30894,37.61243],[-87.30901,37.61241],[-87.30904,37.6124],[-87.30914,37.61236],[-87.30934,37.61228],[-87.30976,37.61212],[-87.30983,37.61209],[-87.31019,37.61195],[-87.31024,37.61193],[-87.31062,37.61179],[-87.31069,37.61176],[-87.31103,37.61163],[-87.31113,37.61159],[-87.31122,37.61154],[-87.31141,37.61145],[-87.31159,37.61135],[-87.31176,37.61125],[-87.31181,37.61122],[-87.31184,37.6112],[-87.31191,37.61114],[-87.31198,37.61108],[-87.31204,37.61101],[-87.3121,37.61094],[-87.31216,37.61087],[-87.31221,37.6108],[-87.31221,37.61079],[-87.31226,37.61072],[-87.31234,37.61056],[-87.31243,37.6104],[-87.31251,37.61022],[-87.31256,37.61012],[-87.31257,37.6101],[-87.31288,37.60937],[-87.31291,37.60931],[-87.31292,37.60927],[-87.31307,37.60893],[-87.31315,37.60873],[-87.31316,37.60871],[-87.31338,37.6082],[-87.31347,37.60799],[-87.31352,37.60788],[-87.31371,37.60745],[-87.31379,37.6073],[-87.31384,37.60722],[-87.31388,37.60714],[-87.31399,37.60698],[-87.31405,37.60688],[-87.31409,37.60683],[-87.31415,37.60676],[-87.31421,37.60669],[-87.31426,37.60663],[-87.3143,37.60658],[-87.31432,37.60656],[-87.31439,37.6065],[-87.31445,37.60644],[-87.31452,37.60638],[-87.31458,37.60632],[-87.31465,37.60626],[-87.31472,37.60621],[-87.31487,37.6061],[-87.31495,37.60605],[-87.31503,37.606],[-87.3151,37.60595],[-87.31511,37.60595],[-87.31519,37.6059],[-87.31535,37.60581],[-87.31586,37.60556],[-87.31606,37.60546],[-87.31644,37.60527],[-87.31663,37.60518],[-87.31698,37.605],[-87.31714,37.60493],[-87.31736,37.60484],[-87.31759,37.60476],[-87.31784,37.60469],[-87.31787,37.60468],[-87.31806,37.60464],[-87.31828,37.60459],[-87.31894,37.60445],[-87.31938,37.60436],[-87.32028,37.60418],[-87.32048,37.60414],[-87.32136,37.60396],[-87.32149,37.60393],[-87.32163,37.60389],[-87.32181,37.60383],[-87.32199,37.60376],[-87.32214,37.60368],[-87.32229,37.60359],[-87.32245,37.60348],[-87.32252,37.60343],[-87.32258,37.60338],[-87.32263,37.60333],[-87.32268,37.60327],[-87.32272,37.60322],[-87.32277,37.60316],[-87.32281,37.6031],[-87.32288,37.60297],[-87.32289,37.60297],[-87.32307,37.60265],[-87.32321,37.60241],[-87.32326,37.60232],[-87.32331,37.60223],[-87.32335,37.60217],[-87.32336,37.60216],[-87.32339,37.60211],[-87.32346,37.602],[-87.32356,37.60183],[-87.32358,37.60179],[-87.32364,37.6017],[-87.32365,37.60167],[-87.32373,37.60155],[-87.32375,37.60151],[-87.32376,37.60148],[-87.3238,37.60142],[-87.3239,37.60127],[-87.3239,37.60127],[-87.32451,37.6015],[-87.32493,37.60165],[-87.32498,37.60167],[-87.32573,37.60195],[-87.32646,37.60224],[-87.32656,37.60228],[-87.32717,37.60252],[-87.32765,37.60271],[-87.32889,37.60318],[-87.3293,37.60333],[-87.32991,37.60357],[-87.33032,37.60372],[-87.33073,37.60388],[-87.33134,37.60411],[-87.33154,37.60419],[-87.33175,37.60427],[-87.33195,37.60435],[-87.33216,37.60443],[-87.33318,37.60482],[-87.33359,37.60497],[-87.33379,37.60505],[-87.334,37.60513],[-87.3342,37.60521],[-87.33543,37.60568],[-87.33563,37.60575],[-87.33625,37.60599],[-87.33709,37.60631],[-87.33811,37.6067],[-87.33832,37.60678],[-87.33852,37.60686],[-87.33873,37.60694],[-87.33893,37.60702],[-87.33954,37.60725],[-87.34036,37.60756],[-87.34056,37.60764],[-87.34097,37.6078],[-87.34159,37.60803],[-87.34183,37.60813],[-87.34199,37.60819],[-87.34257,37.60842],[-87.34302,37.60858],[-87.34344,37.60872],[-87.34346,37.60873],[-87.34384,37.60888],[-87.34405,37.60896],[-87.34507,37.60935],[-87.34548,37.60951],[-87.34589,37.60966],[-87.3463,37.60982],[-87.3465,37.6099],[-87.34738,37.61024],[-87.34799,37.61047],[-87.3486,37.61071],[-87.34901,37.61087],[-87.35013,37.6113],[-87.35023,37.61134],[-87.35069,37.61152],[-87.35085,37.61157],[-87.35097,37.61162],[-87.35126,37.61171],[-87.35127,37.61171],[-87.35148,37.61177],[-87.35187,37.61188],[-87.35191,37.61189],[-87.35262,37.61209],[-87.35277,37.61213],[-87.35341,37.61231],[-87.35407,37.61249],[-87.35452,37.61261],[-87.35514,37.61278],[-87.35536,37.61283],[-87.35643,37.61312],[-87.35729,37.61336],[-87.35823,37.61361],[-87.35858,37.6137],[-87.35874,37.61375],[-87.3588,37.61376],[-87.35899,37.61381],[-87.35901,37.61382],[-87.35925,37.61388],[-87.35944,37.61393],[-87.36009,37.61411],[-87.36103,37.61436],[-87.36138,37.61446],[-87.36181,37.61457],[-87.36202,37.61463],[-87.36208,37.61464],[-87.36245,37.61474],[-87.36289,37.61485],[-87.3631,37.61491],[-87.36363,37.61507],[-87.36471,37.61536],[-87.36578,37.61565],[-87.36643,37.61582],[-87.36664,37.61588],[-87.36797,37.61624],[-87.36815,37.61629],[-87.36858,37.6164],[-87.36875,37.61645],[-87.369,37.61652],[-87.36901,37.61652],[-87.36922,37.61658],[-87.36927,37.61659],[-87.36953,37.61666],[-87.36987,37.61675],[-87.37008,37.61681],[-87.3703,37.61687],[-87.37058,37.61695],[-87.37073,37.61699],[-87.37084,37.61702],[-87.37094,37.61705],[-87.37159,37.61722],[-87.37215,37.61737],[-87.37245,37.61745],[-87.37288,37.61756],[-87.37291,37.61757],[-87.37352,37.61774],[-87.37374,37.6178],[-87.37395,37.61786],[-87.37466,37.61805],[-87.37481,37.61809],[-87.3749,37.61811],[-87.37503,37.61814],[-87.37515,37.61818],[-87.3754,37.61823],[-87.37546,37.61824],[-87.37565,37.61827],[-87.3764,37.61838],[-87.37658,37.61841],[-87.37703,37.61847],[-87.37747,37.61853],[-87.37751,37.61854],[-87.37778,37.61858],[-87.37814,37.61863],[-87.37831,37.61865],[-87.37837,37.61866],[-87.37857,37.61868],[-87.37859,37.61868],[-87.37884,37.61871],[-87.3791,37.61873],[-87.37935,37.61874],[-87.37961,37.61874],[-87.37963,37.61874],[-87.37987,37.61873],[-87.38012,37.61871],[-87.38036,37.61868],[-87.38061,37.61864],[-87.38062,37.61863],[-87.38084,37.6186],[-87.38106,37.61856],[-87.3811,37.61855],[-87.38135,37.61851],[-87.3816,37.61847],[-87.38185,37.61844],[-87.38196,37.61842],[-87.3821,37.61839],[-87.38261,37.6183],[-87.38284,37.61826],[-87.38287,37.61826],[-87.38312,37.61821],[-87.38337,37.61817],[-87.38351,37.61815],[-87.38362,37.61813],[-87.38387,37.61809],[-87.38412,37.61805],[-87.38436,37.618],[-87.38487,37.61792],[-87.38506,37.61789],[-87.38512,37.61787],[-87.38516,37.61787],[-87.38529,37.61785],[-87.3859,37.61775],[-87.38595,37.61775],[-87.3864,37.61767],[-87.38684,37.6176],[-87.38707,37.61757],[-87.38716,37.61755],[-87.38729,37.61753],[-87.38774,37.61747],[-87.3879,37.61744],[-87.38815,37.6174],[-87.3884,37.61735],[-87.38864,37.6173],[-87.38887,37.61724],[-87.38905,37.61718],[-87.3891,37.61717],[-87.38932,37.61709],[-87.38946,37.61703],[-87.38954,37.617],[-87.38966,37.61694],[-87.38974,37.6169],[-87.38995,37.61681],[-87.39036,37.61661],[-87.39044,37.61658],[-87.39057,37.61652],[-87.39064,37.61649],[-87.39078,37.61643],[-87.39099,37.61634],[-87.3912,37.61627],[-87.39141,37.61619],[-87.39146,37.61618],[-87.39162,37.61613],[-87.39167,37.61612],[-87.39184,37.61608],[-87.39189,37.61607],[-87.39205,37.61604],[-87.39227,37.61601],[-87.39249,37.61598],[-87.39279,37.61595],[-87.39294,37.61594],[-87.39301,37.61593],[-87.39317,37.61591],[-87.39346,37.61588],[-87.39403,37.61582],[-87.39462,37.61575],[-87.39528,37.61569],[-87.39614,37.6156],[-87.39698,37.61552],[-87.39719,37.6155],[-87.39737,37.61548],[-87.39761,37.61545],[-87.39841,37.61536],[-87.3985,37.61535],[-87.39866,37.61536],[-87.39909,37.61531],[-87.39926,37.61529],[-87.39958,37.61526],[-87.39975,37.61524],[-87.3999,37.61523],[-87.40005,37.61524],[-87.40017,37.61525],[-87.40048,37.61538],[-87.40074,37.61557],[-87.40086,37.61569],[-87.40113,37.61594],[-87.40127,37.61608],[-87.40134,37.61615],[-87.40146,37.61627],[-87.40148,37.6163],[-87.40154,37.61635],[-87.40156,37.61637],[-87.40165,37.61646],[-87.40178,37.6166],[-87.4021,37.6169],[-87.40242,37.61722],[-87.40291,37.61771],[-87.40293,37.61773],[-87.40309,37.61789],[-87.40353,37.61831],[-87.40371,37.61847],[-87.40389,37.61863],[-87.40408,37.61879],[-87.40417,37.61887],[-87.40426,37.61895],[-87.40445,37.6191],[-87.40464,37.61926],[-87.40474,37.61933],[-87.40483,37.61941],[-87.40488,37.61944],[-87.40491,37.61946],[-87.40513,37.61963],[-87.40538,37.61981],[-87.40541,37.61982],[-87.40544,37.61985],[-87.40564,37.61999],[-87.40585,37.62014],[-87.40606,37.62028],[-87.40624,37.6204],[-87.40627,37.62042],[-87.40642,37.62051],[-87.40644,37.62052],[-87.40649,37.62055],[-87.40671,37.62069],[-87.40678,37.62072],[-87.40705,37.62088],[-87.40718,37.62095],[-87.40736,37.62105],[-87.4074,37.62107],[-87.40753,37.62114],[-87.40755,37.62115],[-87.40763,37.62119],[-87.40772,37.62124],[-87.40791,37.62134],[-87.40793,37.62135],[-87.40798,37.62138],[-87.4081,37.62143],[-87.40812,37.62145],[-87.40822,37.6215],[-87.40858,37.62167],[-87.40905,37.62191],[-87.40906,37.62191],[-87.40909,37.62192],[-87.40918,37.62196],[-87.40919,37.62197],[-87.40942,37.62208],[-87.40965,37.62219],[-87.41001,37.62236],[-87.41023,37.62246],[-87.41026,37.62248],[-87.41048,37.62258],[-87.41064,37.62266],[-87.41096,37.62282],[-87.41139,37.62303],[-87.41141,37.62304],[-87.41158,37.62313],[-87.41161,37.62314],[-87.41204,37.62335],[-87.41216,37.62341],[-87.41219,37.62342],[-87.41293,37.62379],[-87.41298,37.62382],[-87.41336,37.62401],[-87.41362,37.62414],[-87.4137,37.62417],[-87.41413,37.62438],[-87.41439,37.6245],[-87.41465,37.62462],[-87.41476,37.62467],[-87.41513,37.62482],[-87.41562,37.62497],[-87.41613,37.62511],[-87.41617,37.62512],[-87.41675,37.62526],[-87.41678,37.62527],[-87.4171,37.62532],[-87.41746,37.62536],[-87.41778,37.6254],[-87.41808,37.62543],[-87.41858,37.62547],[-87.41866,37.62547],[-87.41881,37.62548],[-87.41956,37.62553],[-87.42001,37.62556],[-87.42016,37.62557],[-87.42076,37.6256],[-87.42084,37.62561],[-87.42107,37.62562],[-87.42135,37.62564],[-87.4215,37.62565],[-87.42152,37.62565],[-87.42164,37.62566],[-87.42222,37.62569],[-87.42251,37.6257],[-87.42266,37.6257],[-87.4228,37.62571],[-87.42309,37.62571],[-87.42334,37.6257],[-87.42365,37.62568],[-87.42387,37.62566],[-87.42401,37.62565],[-87.42402,37.62565],[-87.42411,37.62564],[-87.42425,37.62562],[-87.4244,37.6256],[-87.42457,37.62557],[-87.42465,37.62556],[-87.42485,37.62552],[-87.42492,37.62551],[-87.42501,37.62549],[-87.42504,37.62549],[-87.42512,37.62547],[-87.42523,37.62544],[-87.42536,37.62542],[-87.4256,37.62536],[-87.42588,37.6253],[-87.42598,37.62528],[-87.42632,37.6252],[-87.42634,37.62519],[-87.42649,37.62516],[-87.4266,37.62513],[-87.42732,37.62495],[-87.42781,37.62483],[-87.42847,37.62467],[-87.42862,37.62463],[-87.42883,37.62458],[-87.42892,37.62456],[-87.42914,37.62451],[-87.42927,37.62448],[-87.42928,37.62448],[-87.42936,37.62446],[-87.42948,37.62444],[-87.42956,37.62443],[-87.42996,37.62436],[-87.43038,37.62431],[-87.4305,37.6243],[-87.43062,37.62429],[-87.4307,37.62428],[-87.43083,37.62427],[-87.43104,37.62426],[-87.43152,37.62425],[-87.43161,37.62425],[-87.43191,37.62425],[-87.43206,37.62425],[-87.43274,37.62429],[-87.43275,37.62429],[-87.43305,37.62432],[-87.43333,37.62435],[-87.43359,37.62439],[-87.43374,37.62441],[-87.43391,37.62444],[-87.43403,37.62447],[-87.43408,37.62448],[-87.43419,37.6245],[-87.43445,37.62455],[-87.43452,37.62457],[-87.43458,37.62458],[-87.43473,37.62461],[-87.43526,37.62475],[-87.43557,37.62482],[-87.43574,37.62486],[-87.43583,37.62487],[-87.43586,37.62488],[-87.43613,37.62492],[-87.43619,37.62493],[-87.43638,37.62496],[-87.4365,37.62498],[-87.43671,37.62501],[-87.43699,37.62505],[-87.43756,37.62513],[-87.43806,37.62519],[-87.43815,37.6252],[-87.43842,37.62524],[-87.43874,37.62529],[-87.43884,37.6253],[-87.43942,37.62538],[-87.43968,37.62541],[-87.43986,37.62543],[-87.44008,37.62545],[-87.44019,37.62547],[-87.44031,37.62548],[-87.44042,37.62549],[-87.44071,37.62551],[-87.44076,37.62551],[-87.44111,37.62554],[-87.44153,37.62556],[-87.4418,37.62558],[-87.44207,37.62559],[-87.44234,37.6256],[-87.44248,37.6256],[-87.44257,37.6256],[-87.44261,37.6256],[-87.4427,37.6256],[-87.44288,37.6256],[-87.44315,37.6256],[-87.44356,37.62559],[-87.44398,37.62557],[-87.44398,37.62557],[-87.44625,37.62535],[-87.44791,37.62516],[-87.44863,37.62507],[-87.44877,37.62506],[-87.44933,37.62499],[-87.45045,37.62486],[-87.45129,37.62476],[-87.45146,37.62475],[-87.45168,37.62472],[-87.45186,37.6247],[-87.45229,37.62465],[-87.45257,37.62462],[-87.45328,37.62453],[-87.45356,37.62449],[-87.45413,37.62442],[-87.45437,37.62438],[-87.4544,37.62437],[-87.45454,37.62435],[-87.45496,37.62428],[-87.45523,37.62424],[-87.45551,37.62419],[-87.45606,37.62409],[-87.45633,37.62404],[-87.45637,37.62403],[-87.45659,37.62399],[-87.45674,37.62396],[-87.45729,37.62384],[-87.45769,37.62375],[-87.45809,37.62366],[-87.45875,37.6235],[-87.45915,37.6234],[-87.45941,37.62333],[-87.45942,37.62333],[-87.45964,37.62327],[-87.4598,37.62323],[-87.46006,37.62316],[-87.46018,37.62312],[-87.46057,37.62301],[-87.46083,37.62293],[-87.46092,37.62291],[-87.46096,37.62289],[-87.46122,37.62282],[-87.46134,37.62278],[-87.46147,37.62274],[-87.46173,37.62265],[-87.46212,37.62253],[-87.46249,37.6224],[-87.4629,37.62226],[-87.46303,37.62222],[-87.46316,37.62217],[-87.46368,37.62199],[-87.46412,37.62183],[-87.46446,37.62171],[-87.46458,37.62166],[-87.46598,37.62116],[-87.46619,37.62109],[-87.46636,37.62103],[-87.46648,37.62098],[-87.46661,37.62093],[-87.46674,37.62089],[-87.46687,37.62084],[-87.46714,37.62075],[-87.46753,37.62061],[-87.46763,37.62057],[-87.46779,37.62051],[-87.46784,37.6205],[-87.46832,37.62032],[-87.46911,37.62004],[-87.46924,37.62],[-87.46937,37.61995],[-87.46963,37.61986],[-87.46976,37.61981],[-87.47012,37.61968],[-87.47028,37.61962],[-87.47033,37.61961],[-87.47054,37.61953],[-87.47067,37.61949],[-87.4708,37.61944],[-87.47093,37.61939],[-87.47171,37.61911],[-87.47197,37.61902],[-87.47262,37.61879],[-87.47274,37.61874],[-87.47287,37.6187],[-87.47313,37.6186],[-87.47326,37.61856],[-87.47397,37.6183],[-87.47401,37.61829],[-87.47413,37.61824],[-87.47438,37.61815],[-87.4745,37.61811],[-87.47462,37.61806],[-87.47475,37.61802],[-87.47487,37.61798],[-87.47548,37.61776],[-87.47596,37.61758],[-87.47608,37.61754],[-87.4762,37.6175],[-87.47717,37.61715],[-87.47766,37.61697],[-87.4779,37.61689],[-87.47794,37.61687],[-87.47811,37.61681],[-87.47814,37.6168],[-87.47839,37.61671],[-87.47888,37.61653],[-87.47913,37.61644],[-87.47962,37.61627],[-87.47975,37.61622],[-87.48017,37.61607],[-87.48021,37.61606],[-87.48025,37.61604],[-87.48086,37.61582],[-87.48111,37.61573],[-87.48185,37.61546],[-87.48259,37.6152],[-87.48333,37.61493],[-87.48345,37.61488],[-87.48352,37.61486],[-87.48358,37.61484],[-87.48369,37.6148],[-87.48372,37.61479],[-87.48395,37.61471],[-87.48451,37.6145],[-87.48472,37.61443],[-87.48476,37.61442],[-87.48483,37.61439],[-87.48495,37.61435],[-87.48508,37.6143],[-87.48557,37.61412],[-87.48593,37.61399],[-87.48617,37.61391],[-87.48617,37.6139],[-87.48629,37.61386],[-87.48703,37.61359],[-87.48741,37.61346],[-87.48782,37.61331],[-87.48806,37.61322],[-87.48844,37.61309],[-87.48898,37.61289],[-87.48906,37.61286],[-87.48967,37.61264],[-87.49015,37.61247],[-87.49109,37.61218],[-87.49127,37.61213],[-87.49146,37.61207],[-87.49195,37.6119],[-87.49203,37.61188],[-87.49205,37.61187],[-87.49224,37.61181],[-87.49226,37.6118],[-87.49287,37.61159],[-87.49295,37.61156],[-87.49317,37.61149],[-87.49351,37.61136],[-87.49412,37.61114],[-87.49427,37.61108],[-87.49442,37.61103],[-87.49456,37.61098],[-87.49486,37.61086],[-87.49558,37.6106],[-87.49573,37.61057],[-87.49582,37.61053],[-87.49656,37.61036],[-87.49666,37.61033],[-87.49734,37.61019],[-87.49754,37.61017],[-87.49801,37.61012],[-87.49848,37.61008],[-87.49877,37.61007],[-87.49918,37.61006],[-87.49939,37.61007],[-87.49984,37.61008],[-87.50032,37.61012],[-87.50053,37.61013],[-87.50087,37.61018],[-87.50118,37.61022],[-87.50154,37.61029],[-87.50228,37.61045],[-87.50241,37.61048],[-87.50263,37.61053],[-87.50334,37.61069],[-87.50367,37.61076],[-87.50404,37.6108],[-87.50452,37.61095],[-87.50482,37.61102],[-87.50485,37.61103],[-87.50516,37.6111],[-87.50547,37.61116],[-87.50576,37.61121],[-87.50605,37.61125],[-87.50623,37.61127],[-87.50635,37.61129],[-87.50643,37.6113],[-87.50646,37.6113],[-87.5066,37.61132],[-87.50675,37.61133],[-87.50707,37.61137],[-87.50726,37.61138],[-87.5074,37.61139],[-87.50758,37.6114],[-87.50788,37.61142],[-87.50832,37.61144],[-87.50835,37.61143],[-87.5085,37.61144],[-87.50877,37.61144],[-87.50907,37.61143],[-87.50936,37.61142],[-87.50953,37.61141],[-87.50969,37.6114],[-87.50983,37.61139],[-87.51012,37.61136],[-87.51041,37.61132],[-87.5107,37.61128],[-87.51107,37.61122],[-87.51125,37.61119],[-87.51128,37.61118],[-87.51157,37.61113],[-87.51188,37.61106],[-87.51222,37.61098],[-87.51243,37.61093],[-87.5128,37.61082],[-87.51297,37.61077],[-87.51298,37.61077],[-87.51303,37.61075],[-87.51324,37.61069],[-87.51362,37.61057],[-87.51381,37.61051],[-87.51407,37.61042],[-87.51474,37.61017],[-87.51557,37.60988],[-87.51691,37.60944],[-87.51735,37.60932],[-87.51759,37.60926],[-87.51774,37.60922],[-87.51791,37.60919],[-87.51798,37.60917],[-87.51807,37.60916],[-87.51824,37.60913],[-87.51827,37.60913],[-87.51852,37.60909],[-87.51875,37.60908],[-87.51897,37.60907],[-87.5192,37.60907],[-87.51929,37.60907],[-87.51942,37.60907],[-87.51981,37.60909],[-87.51999,37.60911],[-87.52008,37.60911],[-87.52055,37.60913],[-87.52094,37.60916],[-87.52147,37.60918],[-87.52176,37.60919],[-87.52183,37.6092],[-87.52255,37.60924],[-87.5226,37.60925],[-87.5228,37.60926],[-87.52346,37.60929],[-87.52348,37.6093],[-87.52406,37.60934],[-87.5252,37.60941],[-87.52539,37.60942],[-87.52547,37.60943],[-87.52594,37.60946],[-87.52626,37.60949],[-87.52629,37.60949],[-87.52699,37.60954],[-87.52722,37.60956],[-87.52724,37.60956],[-87.52738,37.60957],[-87.52764,37.60959],[-87.52798,37.60962],[-87.52815,37.60963],[-87.52842,37.60966],[-87.52842,37.60966],[-87.52865,37.60967],[-87.52869,37.60967],[-87.52888,37.60968],[-87.52893,37.60969],[-87.52902,37.60971],[-87.5291,37.60971],[-87.52939,37.60974],[-87.52964,37.60976],[-87.52971,37.60977],[-87.52979,37.60978],[-87.52983,37.60978],[-87.52986,37.60978],[-87.52994,37.60979],[-87.53001,37.6098],[-87.53005,37.60981],[-87.53016,37.60982],[-87.53027,37.60983],[-87.53033,37.60984],[-87.53046,37.60985],[-87.53068,37.60987],[-87.53118,37.60991],[-87.53231,37.61001],[-87.53231,37.61001],[-87.53238,37.60948],[-87.53245,37.60898],[-87.53254,37.60849],[-87.53262,37.60797],[-87.5327,37.60744],[-87.53271,37.60734],[-87.53278,37.60688],[-87.53278,37.60688],[-87.53277,37.60678],[-87.53282,37.60645],[-87.53288,37.60591],[-87.53291,37.60573],[-87.53293,37.60554],[-87.53295,37.60544],[-87.53297,37.60528],[-87.53297,37.60526],[-87.53297,37.60526],[-87.53298,37.6052],[-87.53295,37.6051],[-87.53292,37.60506],[-87.53287,37.605],[-87.5328,37.60496],[-87.53274,37.60491],[-87.5327,37.60486],[-87.53269,37.6048],[-87.5327,37.60474],[-87.53273,37.60467],[-87.53277,37.6046],[-87.53289,37.60442],[-87.53295,37.60432],[-87.53301,37.60422],[-87.53311,37.60407]]}}]}