{"type":"FeatureCollection","features":[{"type":"Feature","properties":{"_gpxType":"trk","name":"First Baptist Church, Kentucky 132, Sebree, KY - 324 E Fords Ferry Rd","coordinateProperties":{},"id":29},"geometry":{"type":"LineString","coordinates":[[-87.53311,37.60407],[-87.53327,37.60382],[-87.53335,37.60368],[-87.53336,37.60368],[-87.53345,37.60354],[-87.53365,37.60319],[-87.53375,37.60303],[-87.53377,37.60299],[-87.53382,37.60291],[-87.53387,37.60284],[-87.53395,37.60271],[-87.53398,37.60266],[-87.53402,37.60262],[-87.53407,37.60255],[-87.53407,37.60255],[-87.53427,37.60263],[-87.53452,37.60274],[-87.53467,37.6028],[-87.53485,37.60287],[-87.53487,37.60288],[-87.53519,37.603],[-87.53528,37.60304],[-87.53542,37.60309],[-87.53553,37.60313],[-87.53564,37.60316],[-87.53576,37.60319],[-87.53585,37.60321],[-87.53587,37.60321],[-87.53609,37.60324],[-87.5362,37.60324],[-87.5363,37.60323],[-87.5365,37.6032],[-87.53671,37.60317],[-87.53675,37.60316],[-87.53697,37.60313],[-87.53704,37.60312],[-87.53737,37.60308],[-87.53742,37.60308],[-87.53764,37.60306],[-87.5377,37.60305],[-87.53787,37.60304],[-87.53803,37.60302],[-87.5381,37.60302],[-87.53832,37.60301],[-87.53835,37.603],[-87.53855,37.60299],[-87.53868,37.60298],[-87.5389,37.60297],[-87.539,37.60296],[-87.53923,37.60295],[-87.53932,37.60295],[-87.53945,37.60294],[-87.53962,37.60293],[-87.53977,37.60291],[-87.54013,37.60287],[-87.54027,37.60286],[-87.54052,37.60281],[-87.54065,37.60278],[-87.54077,37.60276],[-87.54087,37.60273],[-87.54093,37.60271],[-87.54109,37.60267],[-87.54126,37.60262],[-87.54151,37.60255],[-87.54159,37.60253],[-87.54173,37.60249],[-87.54175,37.60248],[-87.54192,37.60244],[-87.54194,37.60244],[-87.54209,37.60241],[-87.54226,37.60239],[-87.54262,37.60236],[-87.54276,37.60234],[-87.54284,37.60234],[-87.54307,37.60232],[-87.54309,37.60232],[-87.54329,37.6023],[-87.54352,37.60229],[-87.54361,37.60228],[-87.54375,37.60227],[-87.54401,37.60226],[-87.54441,37.60224],[-87.54443,37.60224],[-87.54463,37.60222],[-87.54465,37.60221],[-87.54485,37.60219],[-87.5451,37.60214],[-87.54527,37.60211],[-87.54548,37.60205],[-87.54568,37.60197],[-87.54571,37.60195],[-87.54587,37.60187],[-87.54605,37.60176],[-87.54607,37.60174],[-87.54621,37.60164],[-87.54624,37.60162],[-87.54637,37.60151],[-87.54639,37.60149],[-87.54651,37.60136],[-87.54665,37.60121],[-87.54666,37.6012],[-87.54678,37.60105],[-87.54691,37.60089],[-87.54714,37.60059],[-87.54716,37.60056],[-87.54725,37.60043],[-87.54737,37.60028],[-87.5474,37.60023],[-87.54748,37.60012],[-87.54777,37.59974],[-87.54795,37.5995],[-87.54839,37.59891],[-87.54865,37.59856],[-87.54886,37.59828],[-87.5489,37.59822],[-87.54908,37.59797],[-87.54926,37.59771],[-87.54932,37.59762],[-87.54959,37.59719],[-87.54963,37.59714],[-87.54971,37.59702],[-87.55046,37.59602],[-87.55069,37.59568],[-87.55075,37.59558],[-87.55086,37.59542],[-87.55101,37.59515],[-87.55118,37.59475],[-87.55121,37.59457],[-87.55122,37.59444],[-87.55125,37.59426],[-87.55125,37.59422],[-87.55127,37.59407],[-87.55127,37.59404],[-87.55127,37.59388],[-87.55127,37.59386],[-87.55127,37.59369],[-87.55127,37.5935],[-87.55126,37.59332],[-87.55126,37.59331],[-87.55125,37.59314],[-87.55125,37.59312],[-87.55124,37.59296],[-87.55123,37.59278],[-87.5512,37.59224],[-87.55119,37.59206],[-87.55118,37.59198],[-87.55117,37.59188],[-87.55115,37.59155],[-87.55112,37.59114],[-87.5511,37.59082],[-87.5511,37.59078],[-87.55108,37.59045],[-87.55107,37.59026],[-87.55107,37.59024],[-87.55106,37.59008],[-87.55106,37.59006],[-87.55104,37.5899],[-87.55104,37.58988],[-87.55102,37.58955],[-87.551,37.58921],[-87.55101,37.58916],[-87.55101,37.58904],[-87.55102,37.58888],[-87.55105,37.58872],[-87.55108,37.58862],[-87.55109,37.58857],[-87.55113,37.58845],[-87.55114,37.58843],[-87.55122,37.58828],[-87.5513,37.58814],[-87.5514,37.588],[-87.55142,37.58796],[-87.55151,37.58784],[-87.55154,37.58781],[-87.55197,37.58722],[-87.552,37.58719],[-87.5521,37.58706],[-87.55211,37.58703],[-87.55222,37.58689],[-87.55223,37.58688],[-87.55234,37.58672],[-87.55281,37.5861],[-87.55287,37.58603],[-87.553,37.58585],[-87.5535,37.58518],[-87.55365,37.58497],[-87.55373,37.58487],[-87.55385,37.58471],[-87.55408,37.5844],[-87.55419,37.58425],[-87.55431,37.58409],[-87.55496,37.58321],[-87.55509,37.58303],[-87.55511,37.583],[-87.55522,37.58284],[-87.55534,37.58267],[-87.55555,37.58237],[-87.55566,37.58222],[-87.55608,37.58161],[-87.55632,37.58127],[-87.55633,37.58126],[-87.55657,37.58092],[-87.55674,37.5807],[-87.55683,37.58059],[-87.55711,37.58027],[-87.55725,37.58011],[-87.55753,37.5798],[-87.55783,37.57949],[-87.55827,37.57902],[-87.55857,37.5787],[-87.55864,37.57863],[-87.55878,37.57848],[-87.55919,37.57805],[-87.55945,37.57776],[-87.55959,37.57762],[-87.55995,37.57722],[-87.56012,37.57704],[-87.56053,37.5766],[-87.56071,37.5764],[-87.56078,37.57634],[-87.56087,37.57624],[-87.56103,37.57609],[-87.56106,37.57605],[-87.56119,37.57593],[-87.56137,37.57579],[-87.56154,37.57564],[-87.56169,37.57553],[-87.56172,37.57551],[-87.56185,37.57541],[-87.5619,37.57537],[-87.56202,37.57529],[-87.56264,37.57482],[-87.56282,37.57469],[-87.56284,37.57467],[-87.56357,37.57415],[-87.56385,37.57394],[-87.56412,37.57374],[-87.56449,37.57348],[-87.56467,37.57334],[-87.56484,37.5732],[-87.565,37.57308],[-87.56518,37.57292],[-87.56534,37.57278],[-87.5655,37.57264],[-87.5658,37.57237],[-87.56621,37.572],[-87.5667,37.57156],[-87.56681,37.57146],[-87.56726,37.57106],[-87.56733,37.57099],[-87.56771,37.57065],[-87.56785,37.57051],[-87.568,37.57038],[-87.56808,37.57031],[-87.56815,37.57024],[-87.5683,37.57011],[-87.56852,37.56991],[-87.56867,37.56978],[-87.56876,37.56971],[-87.56884,37.56965],[-87.56892,37.56958],[-87.569,37.56951],[-87.56908,37.56946],[-87.56918,37.56938],[-87.56936,37.56926],[-87.56955,37.56915],[-87.56961,37.56912],[-87.56974,37.56905],[-87.5698,37.56902],[-87.56993,37.56896],[-87.57012,37.56887],[-87.57032,37.56879],[-87.57053,37.56871],[-87.57074,37.56864],[-87.57081,37.56861],[-87.57095,37.56857],[-87.57103,37.56855],[-87.57139,37.56844],[-87.5716,37.56838],[-87.57215,37.56821],[-87.5723,37.56817],[-87.57254,37.56808],[-87.57272,37.56802],[-87.57279,37.56799],[-87.57296,37.56793],[-87.57313,37.56785],[-87.57329,37.56777],[-87.57345,37.56769],[-87.57349,37.56766],[-87.57363,37.56758],[-87.57382,37.56747],[-87.574,37.56736],[-87.57417,37.56725],[-87.57421,37.56723],[-87.57488,37.56679],[-87.57491,37.56677],[-87.57524,37.56654],[-87.57532,37.56649],[-87.57542,37.56642],[-87.57559,37.5663],[-87.57576,37.56617],[-87.57609,37.56591],[-87.57641,37.56566],[-87.57642,37.56565],[-87.57659,37.56552],[-87.57708,37.56512],[-87.57725,37.56499],[-87.57743,37.56486],[-87.57755,37.56478],[-87.57761,37.56474],[-87.5778,37.56463],[-87.57799,37.56454],[-87.5782,37.56445],[-87.5784,37.56437],[-87.57861,37.5643],[-87.57882,37.56423],[-87.57895,37.5642],[-87.57991,37.56391],[-87.58057,37.56371],[-87.58065,37.56369],[-87.58078,37.56364],[-87.58099,37.56357],[-87.58106,37.56354],[-87.58119,37.56349],[-87.58137,37.5634],[-87.58155,37.5633],[-87.58163,37.56325],[-87.58172,37.56319],[-87.58189,37.56307],[-87.58206,37.56295],[-87.58222,37.56283],[-87.58231,37.56277],[-87.58247,37.56265],[-87.58297,37.56228],[-87.58323,37.56209],[-87.58348,37.56192],[-87.58348,37.56191],[-87.58374,37.56174],[-87.58392,37.56164],[-87.5841,37.56155],[-87.5843,37.56147],[-87.5846,37.56138],[-87.58524,37.56123],[-87.58548,37.56119],[-87.58636,37.56102],[-87.58643,37.56101],[-87.58659,37.56099],[-87.58666,37.56098],[-87.58685,37.56096],[-87.58715,37.56096],[-87.58747,37.56098],[-87.58767,37.56101],[-87.58784,37.56105],[-87.58824,37.56114],[-87.58853,37.56122],[-87.58875,37.56128],[-87.58896,37.56134],[-87.58951,37.56149],[-87.58982,37.56157],[-87.59025,37.56169],[-87.59047,37.56175],[-87.59052,37.56176],[-87.59088,37.56183],[-87.59117,37.56187],[-87.5915,37.56189],[-87.59176,37.56189],[-87.59181,37.56189],[-87.59209,37.56188],[-87.59235,37.56185],[-87.59265,37.56178],[-87.59296,37.56169],[-87.59312,37.56164],[-87.59325,37.56159],[-87.59333,37.56157],[-87.59373,37.56142],[-87.59437,37.56121],[-87.59458,37.56113],[-87.59512,37.56095],[-87.59604,37.56064],[-87.59625,37.56057],[-87.59646,37.5605],[-87.59678,37.56039],[-87.59708,37.56029],[-87.59729,37.56022],[-87.59851,37.55981],[-87.59918,37.55958],[-87.59938,37.5595],[-87.59959,37.55943],[-87.5998,37.55936],[-87.60015,37.55923],[-87.60042,37.55914],[-87.60125,37.55885],[-87.60167,37.5587],[-87.60187,37.55863],[-87.60217,37.55853],[-87.60258,37.55838],[-87.60278,37.5583],[-87.60311,37.55818],[-87.60332,37.55811],[-87.60375,37.55795],[-87.60414,37.5578],[-87.60473,37.55758],[-87.60512,37.55743],[-87.60531,37.55735],[-87.6055,37.55726],[-87.60569,37.55717],[-87.60587,37.55708],[-87.60639,37.55679],[-87.60656,37.55669],[-87.60669,37.55663],[-87.60674,37.55661],[-87.60691,37.55652],[-87.60708,37.55645],[-87.60709,37.55645],[-87.60726,37.55637],[-87.60744,37.5563],[-87.60789,37.55613],[-87.60802,37.55608],[-87.6083,37.55597],[-87.6086,37.55585],[-87.60911,37.55565],[-87.60915,37.55564],[-87.60952,37.55549],[-87.60972,37.55541],[-87.60999,37.5553],[-87.61018,37.55523],[-87.61061,37.55507],[-87.61081,37.55499],[-87.61104,37.55491],[-87.61133,37.5548],[-87.61153,37.55472],[-87.61173,37.55464],[-87.61194,37.55456],[-87.61199,37.55454],[-87.61214,37.55448],[-87.61238,37.55439],[-87.61255,37.55432],[-87.61275,37.55424],[-87.61295,37.55416],[-87.61313,37.55409],[-87.61316,37.55408],[-87.61336,37.554],[-87.61356,37.55392],[-87.6136,37.5539],[-87.61397,37.55376],[-87.61401,37.55375],[-87.61418,37.55368],[-87.6142,37.55367],[-87.61438,37.5536],[-87.61458,37.55353],[-87.61459,37.55352],[-87.61479,37.55345],[-87.6152,37.55329],[-87.6154,37.55321],[-87.61561,37.55314],[-87.61562,37.55313],[-87.61581,37.55306],[-87.61616,37.55293],[-87.6163,37.55288],[-87.61657,37.55278],[-87.61676,37.55272],[-87.61698,37.55265],[-87.6172,37.55259],[-87.61726,37.55258],[-87.61742,37.55255],[-87.61748,37.55254],[-87.61764,37.55251],[-87.61786,37.55248],[-87.61808,37.55246],[-87.61815,37.55245],[-87.61831,37.55244],[-87.61877,37.55242],[-87.61905,37.55242],[-87.61924,37.55241],[-87.61973,37.5524],[-87.61996,37.5524],[-87.62048,37.55239],[-87.62087,37.55238],[-87.62122,37.55237],[-87.62155,37.55236],[-87.62178,37.55236],[-87.622,37.55235],[-87.62268,37.55234],[-87.62304,37.55233],[-87.62343,37.55232],[-87.62389,37.55231],[-87.62395,37.55231],[-87.62411,37.55231],[-87.62434,37.55231],[-87.62502,37.5523],[-87.62547,37.55229],[-87.62591,37.55228],[-87.62608,37.55227],[-87.62614,37.55227],[-87.6263,37.55227],[-87.62638,37.55226],[-87.62662,37.55226],[-87.62704,37.55225],[-87.62709,37.55225],[-87.62726,37.55224],[-87.62733,37.55224],[-87.62772,37.55223],[-87.6278,37.55223],[-87.62794,37.55223],[-87.62804,37.55222],[-87.6284,37.55222],[-87.6285,37.55222],[-87.62885,37.55221],[-87.6291,37.55221],[-87.62922,37.5522],[-87.62933,37.5522],[-87.62946,37.5522],[-87.6297,37.55219],[-87.62994,37.55217],[-87.63001,37.55216],[-87.63017,37.55215],[-87.6304,37.55211],[-87.63045,37.5521],[-87.63062,37.55207],[-87.63085,37.55202],[-87.63089,37.55201],[-87.63107,37.55196],[-87.6311,37.55195],[-87.63129,37.55189],[-87.63132,37.55188],[-87.63152,37.55182],[-87.63174,37.55173],[-87.63196,37.55164],[-87.63213,37.55156],[-87.63217,37.55155],[-87.63239,37.55145],[-87.63252,37.55139],[-87.6326,37.55135],[-87.63291,37.5512],[-87.63369,37.55083],[-87.63411,37.55063],[-87.63453,37.55043],[-87.63486,37.55028],[-87.63506,37.55019],[-87.63575,37.54986],[-87.63603,37.54974],[-87.63654,37.5495],[-87.63693,37.54932],[-87.63712,37.54922],[-87.63732,37.54913],[-87.63771,37.54895],[-87.6379,37.54886],[-87.6381,37.54876],[-87.63822,37.54871],[-87.63841,37.54861],[-87.63861,37.54852],[-87.63869,37.54848],[-87.6388,37.54843],[-87.63939,37.54816],[-87.63957,37.54808],[-87.63978,37.54798],[-87.64017,37.5478],[-87.64025,37.54776],[-87.6405,37.54764],[-87.64093,37.54744],[-87.64109,37.54737],[-87.64202,37.54692],[-87.64229,37.5468],[-87.64246,37.54672],[-87.64266,37.54662],[-87.64305,37.54644],[-87.64325,37.54635],[-87.64368,37.54615],[-87.64481,37.54562],[-87.64501,37.54553],[-87.64523,37.54542],[-87.64559,37.54525],[-87.64579,37.54516],[-87.64598,37.54507],[-87.64652,37.54482],[-87.64676,37.54471],[-87.64691,37.54464],[-87.64728,37.54447],[-87.64755,37.54434],[-87.64774,37.54425],[-87.64794,37.54416],[-87.64813,37.54407],[-87.64861,37.54385],[-87.64891,37.5437],[-87.6493,37.54352],[-87.64971,37.54333],[-87.64991,37.54324],[-87.65049,37.54297],[-87.65166,37.54242],[-87.65168,37.54241],[-87.65186,37.54233],[-87.65205,37.54223],[-87.65212,37.5422],[-87.65297,37.5418],[-87.65324,37.54168],[-87.65343,37.54158],[-87.65363,37.54149],[-87.65391,37.54136],[-87.65421,37.54122],[-87.6543,37.54118],[-87.65441,37.54112],[-87.65454,37.54106],[-87.6546,37.54103],[-87.65466,37.54101],[-87.6548,37.54094],[-87.65499,37.54084],[-87.65501,37.54083],[-87.65518,37.54075],[-87.65524,37.54071],[-87.65547,37.54058],[-87.6557,37.54044],[-87.65573,37.54043],[-87.6558,37.54037],[-87.6559,37.54031],[-87.65607,37.54019],[-87.6563,37.54003],[-87.65637,37.53998],[-87.65649,37.5399],[-87.65668,37.53977],[-87.65672,37.53975],[-87.65688,37.53965],[-87.65708,37.53953],[-87.65717,37.53947],[-87.65744,37.53931],[-87.65751,37.53926],[-87.65761,37.5392],[-87.65777,37.5391],[-87.65798,37.53898],[-87.65801,37.53896],[-87.65815,37.53886],[-87.65826,37.53878],[-87.65845,37.53858],[-87.65856,37.53844],[-87.65861,37.53838],[-87.65874,37.53816],[-87.65884,37.53794],[-87.65886,37.53789],[-87.6589,37.53775],[-87.65894,37.53761],[-87.65897,37.53746],[-87.659,37.53716],[-87.65902,37.53688],[-87.65904,37.5367],[-87.6591,37.53598],[-87.6591,37.53588],[-87.65912,37.53562],[-87.65915,37.53523],[-87.65917,37.53507],[-87.65917,37.53492],[-87.65916,37.53477],[-87.65916,37.53472],[-87.65915,37.53463],[-87.65914,37.53454],[-87.65913,37.53449],[-87.65911,37.53437],[-87.6591,37.53435],[-87.65907,37.5342],[-87.65893,37.53366],[-87.65889,37.53349],[-87.65889,37.53348],[-87.65885,37.53335],[-87.65879,37.53312],[-87.65861,37.53249],[-87.65852,37.5322],[-87.65827,37.53137],[-87.65822,37.53121],[-87.65822,37.53119],[-87.65807,37.53066],[-87.65804,37.53052],[-87.65801,37.53039],[-87.65799,37.53025],[-87.65798,37.53019],[-87.65797,37.53012],[-87.65797,37.52999],[-87.65796,37.52986],[-87.65796,37.52983],[-87.65797,37.52973],[-87.658,37.52947],[-87.65801,37.52943],[-87.65804,37.52933],[-87.65807,37.5292],[-87.65807,37.52918],[-87.65812,37.52904],[-87.65816,37.5289],[-87.65822,37.52877],[-87.65828,37.52864],[-87.65834,37.52852],[-87.6584,37.52839],[-87.65847,37.52827],[-87.65854,37.52815],[-87.65861,37.52804],[-87.65869,37.52793],[-87.65871,37.52791],[-87.65878,37.52782],[-87.65887,37.52772],[-87.65897,37.52762],[-87.65907,37.52752],[-87.65917,37.52742],[-87.65928,37.52733],[-87.6594,37.52725],[-87.65952,37.52717],[-87.65962,37.52711],[-87.65965,37.5271],[-87.65979,37.52702],[-87.65981,37.52701],[-87.65992,37.52696],[-87.66006,37.52689],[-87.66019,37.52683],[-87.66039,37.52674],[-87.66047,37.5267],[-87.66099,37.52646],[-87.6618,37.52608],[-87.66201,37.52599],[-87.66236,37.52584],[-87.66251,37.52577],[-87.6626,37.52573],[-87.66294,37.5256],[-87.66353,37.52538],[-87.66358,37.52536],[-87.66407,37.52518],[-87.66412,37.52516],[-87.66421,37.52512],[-87.66428,37.5251],[-87.66439,37.52506],[-87.66442,37.52505],[-87.66458,37.52499],[-87.66502,37.52483],[-87.66563,37.52461],[-87.66602,37.52446],[-87.66614,37.52441],[-87.66623,37.52436],[-87.66628,37.52433],[-87.66647,37.52422],[-87.66659,37.52414],[-87.66666,37.5241],[-87.66683,37.52399],[-87.66711,37.52379],[-87.66716,37.52376],[-87.66732,37.52364],[-87.66747,37.52352],[-87.6676,37.52342],[-87.66793,37.52317],[-87.66809,37.52304],[-87.66826,37.5229],[-87.66858,37.52265],[-87.66873,37.52253],[-87.66921,37.52215],[-87.66954,37.5219],[-87.66957,37.52188],[-87.66973,37.52174],[-87.66985,37.52164],[-87.6699,37.5216],[-87.67005,37.52148],[-87.67021,37.52135],[-87.67036,37.52121],[-87.67052,37.52107],[-87.67083,37.52078],[-87.67106,37.52057],[-87.67114,37.52049],[-87.67164,37.52002],[-87.67179,37.51988],[-87.67208,37.5196],[-87.6728,37.51891],[-87.67323,37.5185],[-87.67389,37.51788],[-87.6741,37.51767],[-87.67482,37.51697],[-87.67497,37.51683],[-87.67498,37.51682],[-87.67511,37.5167],[-87.67525,37.51656],[-87.67543,37.51639],[-87.67569,37.51615],[-87.67586,37.51603],[-87.67587,37.51603],[-87.67604,37.51591],[-87.67615,37.51586],[-87.67624,37.51582],[-87.6763,37.51579],[-87.67644,37.51574],[-87.67652,37.51571],[-87.67675,37.51566],[-87.67696,37.51563],[-87.6771,37.51561],[-87.67711,37.51561],[-87.67728,37.51561],[-87.67754,37.51561],[-87.67755,37.51561],[-87.678,37.51562],[-87.67801,37.51562],[-87.67864,37.51566],[-87.67891,37.51568],[-87.67936,37.51571],[-87.67945,37.51572],[-87.67981,37.51574],[-87.68048,37.51579],[-87.68053,37.51579],[-87.68069,37.51579],[-87.68071,37.51579],[-87.68083,37.51579],[-87.6809,37.51578],[-87.68097,37.51578],[-87.68111,37.51576],[-87.68116,37.51575],[-87.68126,37.51574],[-87.68138,37.51571],[-87.68141,37.5157],[-87.6815,37.51568],[-87.68156,37.51566],[-87.6817,37.51562],[-87.68183,37.51556],[-87.68192,37.51551],[-87.68216,37.51537],[-87.68223,37.51532],[-87.68261,37.51508],[-87.68275,37.515],[-87.68277,37.515],[-87.68289,37.51494],[-87.68297,37.51491],[-87.68304,37.51488],[-87.68319,37.51483],[-87.6835,37.51473],[-87.68365,37.5147],[-87.68379,37.51468],[-87.68382,37.51468],[-87.68393,37.51468],[-87.68406,37.51471],[-87.68419,37.51475],[-87.68432,37.51481],[-87.68445,37.51489],[-87.68458,37.51496],[-87.68484,37.51514],[-87.68509,37.51529],[-87.68533,37.51546],[-87.68544,37.51555],[-87.68579,37.5158],[-87.68586,37.51585],[-87.68596,37.51592],[-87.68602,37.51595],[-87.68614,37.51603],[-87.68633,37.51612],[-87.68649,37.51619],[-87.68656,37.51622],[-87.68669,37.51627],[-87.68685,37.51633],[-87.68746,37.51655],[-87.68755,37.51658],[-87.6876,37.5166],[-87.68774,37.51665],[-87.68776,37.51665],[-87.68788,37.5167],[-87.68814,37.51681],[-87.68836,37.5169],[-87.68854,37.51697],[-87.6889,37.51712],[-87.68902,37.51717],[-87.68914,37.51721],[-87.68937,37.5173],[-87.68958,37.51738],[-87.69007,37.51758],[-87.69028,37.51765],[-87.69048,37.51773],[-87.6908,37.51786],[-87.69147,37.51812],[-87.69155,37.51815],[-87.69177,37.51825],[-87.69194,37.51831],[-87.692,37.51834],[-87.69223,37.51843],[-87.69232,37.51846],[-87.69241,37.5185],[-87.69273,37.51863],[-87.69275,37.51863],[-87.69306,37.51876],[-87.69315,37.5188],[-87.69318,37.51881],[-87.69332,37.51886],[-87.69336,37.51888],[-87.6934,37.51889],[-87.69351,37.51894],[-87.69362,37.51898],[-87.69376,37.51904],[-87.69397,37.51912],[-87.69417,37.5192],[-87.69421,37.51921],[-87.69458,37.51936],[-87.69498,37.51951],[-87.69543,37.51969],[-87.69566,37.51977],[-87.69584,37.51984],[-87.69601,37.5199],[-87.69641,37.52006],[-87.69682,37.52021],[-87.69684,37.52022],[-87.69703,37.52029],[-87.69712,37.52032],[-87.69727,37.52036],[-87.69741,37.5204],[-87.69751,37.52042],[-87.69756,37.52043],[-87.69768,37.52044],[-87.69771,37.52044],[-87.69787,37.52044],[-87.69803,37.52045],[-87.69836,37.52045],[-87.6985,37.52045],[-87.69882,37.52044],[-87.69914,37.52043],[-87.69936,37.52044],[-87.69939,37.52044],[-87.69965,37.52043],[-87.69972,37.52044],[-87.69995,37.52045],[-87.7,37.52046],[-87.70017,37.52048],[-87.70033,37.52051],[-87.70052,37.52055],[-87.70069,37.5206],[-87.70087,37.52065],[-87.70089,37.52065],[-87.70104,37.5207],[-87.70152,37.52085],[-87.70234,37.52115],[-87.70235,37.52115],[-87.70262,37.52125],[-87.70297,37.52137],[-87.70304,37.52139],[-87.704,37.52174],[-87.70406,37.52176],[-87.70441,37.52189],[-87.7048,37.52203],[-87.70506,37.52211],[-87.70525,37.52218],[-87.70531,37.5222],[-87.70546,37.52223],[-87.70556,37.52226],[-87.70581,37.52231],[-87.70593,37.52233],[-87.70595,37.52233],[-87.70616,37.52235],[-87.70622,37.52235],[-87.7064,37.52236],[-87.70645,37.52236],[-87.70656,37.52236],[-87.70666,37.52236],[-87.70694,37.52236],[-87.70724,37.52235],[-87.70726,37.52235],[-87.70735,37.52235],[-87.70769,37.52235],[-87.70796,37.52235],[-87.70803,37.52235],[-87.70814,37.52235],[-87.70826,37.52234],[-87.70879,37.52234],[-87.70905,37.52233],[-87.70917,37.52233],[-87.70925,37.52233],[-87.70928,37.52233],[-87.70939,37.52233],[-87.70957,37.52233],[-87.70973,37.52232],[-87.71006,37.52232],[-87.71007,37.52232],[-87.71018,37.52232],[-87.71023,37.52232],[-87.7103,37.52232],[-87.71053,37.52231],[-87.71058,37.52231],[-87.71086,37.52231],[-87.71098,37.52231],[-87.71109,37.52231],[-87.71121,37.52231],[-87.71132,37.52231],[-87.71157,37.5223],[-87.71166,37.5223],[-87.71177,37.5223],[-87.71189,37.5223],[-87.712,37.5223],[-87.71212,37.5223],[-87.71223,37.52229],[-87.71245,37.52229],[-87.71268,37.52229],[-87.71291,37.52229],[-87.71302,37.52229],[-87.71347,37.52228],[-87.7137,37.52228],[-87.71381,37.52228],[-87.71421,37.52227],[-87.71449,37.52227],[-87.71478,37.52226],[-87.71492,37.52226],[-87.71506,37.52226],[-87.7152,37.52227],[-87.71534,37.52227],[-87.71545,37.52228],[-87.71547,37.52228],[-87.71561,37.52229],[-87.71568,37.5223],[-87.71575,37.5223],[-87.7159,37.52233],[-87.71601,37.52234],[-87.71612,37.52237],[-87.71614,37.52237],[-87.71627,37.5224],[-87.71634,37.52242],[-87.7164,37.52243],[-87.71665,37.5225],[-87.71699,37.52259],[-87.71716,37.52266],[-87.71742,37.52274],[-87.71769,37.52282],[-87.71795,37.52291],[-87.71803,37.52293],[-87.71822,37.52299],[-87.71824,37.523],[-87.71847,37.52309],[-87.71885,37.52324],[-87.71906,37.52332],[-87.71918,37.52337],[-87.7194,37.52345],[-87.71963,37.52355],[-87.71987,37.52364],[-87.7201,37.52374],[-87.72047,37.52389],[-87.72073,37.524],[-87.72109,37.52415],[-87.72127,37.52423],[-87.72145,37.52432],[-87.72167,37.52441],[-87.72182,37.52448],[-87.72206,37.52459],[-87.72207,37.52459],[-87.72219,37.52464],[-87.72226,37.52467],[-87.7223,37.52469],[-87.72275,37.52488],[-87.72325,37.5251],[-87.72333,37.52514],[-87.72342,37.52519],[-87.72344,37.5252],[-87.72363,37.52531],[-87.72366,37.52532],[-87.72373,37.52537],[-87.7238,37.52542],[-87.72406,37.52559],[-87.72433,37.52576],[-87.72443,37.52582],[-87.72459,37.52591],[-87.72475,37.526],[-87.72504,37.52612],[-87.72509,37.52614],[-87.72517,37.52616],[-87.72528,37.5262],[-87.7256,37.52628],[-87.72563,37.52628],[-87.72668,37.52653],[-87.72675,37.52654],[-87.7269,37.52658],[-87.72712,37.52663],[-87.72729,37.52667],[-87.72734,37.52668],[-87.7274,37.5267],[-87.72755,37.52673],[-87.72799,37.52683],[-87.72805,37.52684],[-87.72805,37.52685],[-87.72821,37.52688],[-87.72829,37.5269],[-87.72853,37.52695],[-87.72878,37.52698],[-87.72903,37.527],[-87.72927,37.52701],[-87.72952,37.527],[-87.72955,37.527],[-87.72962,37.527],[-87.72976,37.52699],[-87.73,37.52699],[-87.73051,37.52697],[-87.7309,37.52695],[-87.73092,37.52695],[-87.7316,37.52693],[-87.73254,37.5269],[-87.73307,37.52688],[-87.7333,37.52687],[-87.73405,37.52685],[-87.73582,37.52679],[-87.73624,37.52677],[-87.73683,37.52675],[-87.73708,37.52674],[-87.73733,37.52673],[-87.73757,37.52672],[-87.73782,37.5267],[-87.73806,37.52666],[-87.7383,37.52662],[-87.73849,37.52657],[-87.73854,37.52656],[-87.73878,37.5265],[-87.73902,37.52644],[-87.73975,37.52625],[-87.73999,37.52618],[-87.74,37.52618],[-87.74021,37.52612],[-87.74023,37.52611],[-87.74143,37.52578],[-87.74171,37.52571],[-87.74191,37.52566],[-87.74257,37.52547],[-87.74278,37.52541],[-87.74286,37.52539],[-87.74359,37.5252],[-87.74386,37.52512],[-87.74406,37.52506],[-87.74407,37.52506],[-87.74429,37.525],[-87.74452,37.52495],[-87.74475,37.5249],[-87.74498,37.52485],[-87.74521,37.52481],[-87.74592,37.5247],[-87.74627,37.52464],[-87.74664,37.52458],[-87.74712,37.5245],[-87.74716,37.5245],[-87.74736,37.52447],[-87.74739,37.52447],[-87.7476,37.52445],[-87.74785,37.52444],[-87.74809,37.52444],[-87.74834,37.52444],[-87.74858,37.52445],[-87.74933,37.52447],[-87.75007,37.52449],[-87.7501,37.52449],[-87.75079,37.5245],[-87.75109,37.52451],[-87.75128,37.52451],[-87.75152,37.52451],[-87.75162,37.52452],[-87.75175,37.52453],[-87.75197,37.52455],[-87.75219,37.52458],[-87.75241,37.52461],[-87.75263,37.52465],[-87.75285,37.5247],[-87.7536,37.52487],[-87.75377,37.52491],[-87.75382,37.52492],[-87.75401,37.52496],[-87.75424,37.525],[-87.75448,37.52504],[-87.75471,37.52507],[-87.75495,37.5251],[-87.75519,37.52511],[-87.75543,37.52512],[-87.75566,37.52512],[-87.75589,37.52512],[-87.75613,37.52511],[-87.75635,37.52509],[-87.75652,37.52508],[-87.75658,37.52507],[-87.75674,37.52506],[-87.75681,37.52505],[-87.75704,37.52502],[-87.75754,37.52496],[-87.75768,37.52495],[-87.75832,37.52487],[-87.75869,37.52482],[-87.75873,37.52481],[-87.75883,37.52479],[-87.75903,37.52475],[-87.75913,37.52472],[-87.75938,37.52467],[-87.7597,37.52459],[-87.75978,37.52457],[-87.75993,37.52455],[-87.76012,37.5245],[-87.76032,37.52446],[-87.7607,37.52436],[-87.76081,37.52433],[-87.76088,37.52431],[-87.76106,37.52426],[-87.76124,37.5242],[-87.76141,37.52415],[-87.76157,37.52408],[-87.76163,37.52404],[-87.76174,37.52399],[-87.76191,37.52388],[-87.76208,37.52376],[-87.76223,37.52364],[-87.76227,37.52361],[-87.76238,37.52351],[-87.76242,37.52347],[-87.76245,37.52345],[-87.76252,37.52337],[-87.76262,37.52326],[-87.76265,37.52323],[-87.76277,37.52306],[-87.76288,37.52289],[-87.763,37.5227],[-87.76314,37.52245],[-87.76322,37.52233],[-87.76352,37.52179],[-87.76365,37.52156],[-87.76398,37.52097],[-87.76429,37.52038],[-87.76442,37.52014],[-87.76455,37.51995],[-87.76485,37.51951],[-87.76501,37.51929],[-87.76522,37.51904],[-87.76551,37.51875],[-87.76585,37.51843],[-87.76616,37.51811],[-87.76732,37.51699],[-87.76755,37.51676],[-87.76798,37.51635],[-87.76827,37.51606],[-87.76928,37.51509],[-87.76944,37.51493],[-87.7696,37.51478],[-87.76975,37.51462],[-87.7699,37.51446],[-87.77004,37.5143],[-87.77017,37.51413],[-87.7703,37.51396],[-87.77033,37.51392],[-87.77042,37.51379],[-87.77049,37.51369],[-87.7706,37.51352],[-87.7707,37.51336],[-87.77089,37.51302],[-87.77093,37.51296],[-87.77098,37.51285],[-87.77128,37.51229],[-87.77143,37.512],[-87.77163,37.51162],[-87.77197,37.51096],[-87.77199,37.51093],[-87.77251,37.50989],[-87.77269,37.50953],[-87.77286,37.50922],[-87.77287,37.50919],[-87.77297,37.50903],[-87.77308,37.50888],[-87.77319,37.50873],[-87.77332,37.50858],[-87.77345,37.50845],[-87.77373,37.50817],[-87.77387,37.50804],[-87.77415,37.50777],[-87.77447,37.50748],[-87.77476,37.50722],[-87.7748,37.50718],[-87.7749,37.50708],[-87.7752,37.50681],[-87.77591,37.50614],[-87.77608,37.50598],[-87.77628,37.5058],[-87.77652,37.50557],[-87.77666,37.50543],[-87.77766,37.50447],[-87.77768,37.50446],[-87.77782,37.50432],[-87.77787,37.50428],[-87.77879,37.5034],[-87.77882,37.50337],[-87.77899,37.50321],[-87.77931,37.5029],[-87.77937,37.50285],[-87.7798,37.50244],[-87.78007,37.50219],[-87.78036,37.50191],[-87.78054,37.50175],[-87.78066,37.50164],[-87.7811,37.50123],[-87.78125,37.50109],[-87.78139,37.50096],[-87.78158,37.50079],[-87.78169,37.5007],[-87.78199,37.50044],[-87.7823,37.50019],[-87.78245,37.50006],[-87.7826,37.49995],[-87.78291,37.49971],[-87.783,37.49964],[-87.78306,37.49959],[-87.78317,37.49952],[-87.78368,37.49914],[-87.78417,37.49878],[-87.7845,37.49854],[-87.78467,37.49841],[-87.78509,37.49811],[-87.78517,37.49805],[-87.78535,37.49792],[-87.78576,37.49763],[-87.78609,37.49741],[-87.78645,37.49715],[-87.78669,37.49695],[-87.78672,37.49692],[-87.78719,37.49652],[-87.78822,37.49562],[-87.78884,37.49509],[-87.78887,37.49505],[-87.78899,37.49495],[-87.78938,37.49462],[-87.78945,37.49456],[-87.78991,37.49416],[-87.79007,37.49403],[-87.79014,37.49397],[-87.79064,37.49353],[-87.79068,37.4935],[-87.79114,37.49311],[-87.79144,37.49285],[-87.79145,37.49284],[-87.79206,37.49231],[-87.79228,37.49211],[-87.79251,37.49191],[-87.79267,37.49177],[-87.79313,37.49138],[-87.79427,37.49039],[-87.79435,37.49032],[-87.79474,37.48997],[-87.79481,37.48992],[-87.79497,37.48979],[-87.79506,37.48971],[-87.79512,37.48966],[-87.79522,37.48958],[-87.79538,37.48946],[-87.79554,37.48934],[-87.79571,37.48924],[-87.79592,37.48912],[-87.79606,37.48905],[-87.79625,37.48897],[-87.79645,37.48889],[-87.79665,37.48883],[-87.79685,37.48877],[-87.79706,37.48873],[-87.79718,37.4887],[-87.79727,37.48869],[-87.79748,37.48866],[-87.7977,37.48864],[-87.79792,37.48862],[-87.79814,37.48862],[-87.79836,37.48863],[-87.79857,37.48865],[-87.79876,37.48867],[-87.79879,37.48867],[-87.79901,37.48871],[-87.7992,37.48874],[-87.79922,37.48874],[-87.79944,37.48877],[-87.79987,37.48885],[-87.8005,37.48896],[-87.80093,37.48902],[-87.80114,37.48905],[-87.80136,37.48907],[-87.80158,37.48908],[-87.80165,37.48908],[-87.80174,37.48908],[-87.80202,37.48907],[-87.80225,37.48905],[-87.80246,37.48902],[-87.80268,37.48898],[-87.80288,37.48894],[-87.80307,37.48889],[-87.80326,37.48883],[-87.8034,37.48878],[-87.80386,37.48861],[-87.80399,37.48853],[-87.80414,37.48842],[-87.80429,37.4883],[-87.80444,37.48818],[-87.80459,37.48806],[-87.80499,37.48772],[-87.80515,37.48759],[-87.80623,37.48667],[-87.80671,37.48627],[-87.80749,37.48562],[-87.808,37.48518],[-87.80877,37.48452],[-87.80923,37.48412],[-87.81042,37.48309],[-87.81138,37.48227],[-87.81159,37.48211],[-87.8122,37.48158],[-87.81229,37.48151],[-87.81275,37.48112],[-87.8129,37.48099],[-87.81307,37.48085],[-87.81316,37.48077],[-87.81331,37.48064],[-87.81362,37.48037],[-87.81403,37.48003],[-87.81403,37.48003],[-87.81487,37.48051],[-87.81513,37.48066],[-87.81531,37.48077],[-87.81549,37.48087],[-87.81563,37.48093],[-87.81568,37.48095],[-87.81571,37.48096],[-87.81577,37.48097],[-87.81584,37.48097],[-87.81584,37.48097],[-87.81589,37.48095],[-87.81599,37.4809],[-87.8161,37.48084],[-87.81633,37.48068],[-87.81678,37.48038],[-87.81683,37.48034],[-87.81695,37.48025],[-87.81746,37.47991],[-87.81755,37.47983],[-87.81772,37.47971],[-87.81796,37.47954],[-87.81808,37.47946],[-87.8183,37.47929],[-87.8184,37.47921],[-87.8185,37.47912],[-87.81857,37.47905],[-87.8186,37.47903],[-87.81869,37.47893],[-87.81878,37.47883],[-87.81886,37.47873],[-87.81893,37.47863],[-87.819,37.47853],[-87.81906,37.47843],[-87.81909,37.47838],[-87.81912,37.47834],[-87.81922,37.47818],[-87.81925,37.47812],[-87.81931,37.47803],[-87.81935,37.47797],[-87.81938,37.47792],[-87.8194,37.47791],[-87.81944,37.47784],[-87.8199,37.47703],[-87.82007,37.47675],[-87.82014,37.47662],[-87.82026,37.47639],[-87.8204,37.47614],[-87.82078,37.47549],[-87.82078,37.47549],[-87.82158,37.47581],[-87.82199,37.47597],[-87.82199,37.47597],[-87.82204,37.47592],[-87.82212,37.47582],[-87.82225,37.47568],[-87.82229,37.47564],[-87.82236,37.47555],[-87.82238,37.47553],[-87.82245,37.47546],[-87.82255,37.47537],[-87.82268,37.47526],[-87.82283,37.47512],[-87.82284,37.47511],[-87.82316,37.4748],[-87.8233,37.47467],[-87.82336,37.47461],[-87.82351,37.47446],[-87.82364,37.47433],[-87.82378,37.47418],[-87.82398,37.47397],[-87.82419,37.47376],[-87.82433,37.47362],[-87.82445,37.4735],[-87.82465,37.4733],[-87.82471,37.47324],[-87.82478,37.47318],[-87.82491,37.47307],[-87.82492,37.47306],[-87.82507,37.47295],[-87.82522,37.47284],[-87.8253,37.47278],[-87.82548,37.47268],[-87.82578,37.47247],[-87.82596,37.47236],[-87.82609,37.47228],[-87.82618,37.47222],[-87.82686,37.47179],[-87.82724,37.47155],[-87.82747,37.4714],[-87.8276,37.47133],[-87.82782,37.47119],[-87.82796,37.47111],[-87.82808,37.47103],[-87.82836,37.47087],[-87.82855,37.47077],[-87.82867,37.47071],[-87.82878,37.47067],[-87.82887,37.47063],[-87.82896,37.4706],[-87.82906,37.47056],[-87.82918,37.47053],[-87.82932,37.47049],[-87.82973,37.47038],[-87.83067,37.47016],[-87.83089,37.4701],[-87.83111,37.47005],[-87.83113,37.47005],[-87.83132,37.47],[-87.83146,37.46997],[-87.83154,37.46994],[-87.83219,37.46979],[-87.83262,37.46968],[-87.8327,37.46966],[-87.83284,37.46963],[-87.83335,37.46951],[-87.83392,37.46937],[-87.83435,37.46926],[-87.83436,37.46926],[-87.83457,37.4692],[-87.83522,37.46905],[-87.83544,37.46899],[-87.83565,37.46894],[-87.83586,37.46889],[-87.83597,37.46886],[-87.83618,37.46881],[-87.8363,37.46878],[-87.83648,37.46873],[-87.83669,37.46868],[-87.83688,37.46861],[-87.83698,37.46858],[-87.83707,37.46854],[-87.83714,37.46851],[-87.83725,37.46847],[-87.83734,37.46843],[-87.83734,37.46842],[-87.83743,37.46838],[-87.8376,37.46829],[-87.83791,37.46812],[-87.83813,37.468],[-87.83864,37.46771],[-87.83894,37.46754],[-87.83944,37.46725],[-87.84029,37.46676],[-87.84063,37.46656],[-87.84072,37.46651],[-87.84081,37.46645],[-87.84098,37.46634],[-87.84099,37.46633],[-87.84113,37.46622],[-87.84127,37.4661],[-87.84141,37.46597],[-87.84154,37.46583],[-87.84163,37.46572],[-87.84165,37.46569],[-87.84176,37.46555],[-87.8418,37.46547],[-87.84185,37.4654],[-87.84193,37.46525],[-87.84196,37.46517],[-87.84202,37.46503],[-87.84207,37.46492],[-87.84231,37.46435],[-87.84242,37.46411],[-87.84249,37.46395],[-87.84257,37.46379],[-87.84265,37.46364],[-87.84273,37.46351],[-87.84274,37.46349],[-87.84278,37.46342],[-87.84284,37.46335],[-87.84294,37.46321],[-87.843,37.46314],[-87.84306,37.46307],[-87.84313,37.46301],[-87.84326,37.46287],[-87.84333,37.4628],[-87.84347,37.46267],[-87.84362,37.46254],[-87.84377,37.46242],[-87.84392,37.4623],[-87.84399,37.46225],[-87.84408,37.46218],[-87.84423,37.46207],[-87.84431,37.46202],[-87.84456,37.46187],[-87.84472,37.46177],[-87.84503,37.46161],[-87.8452,37.46153],[-87.84541,37.46147],[-87.84548,37.46145],[-87.8457,37.46139],[-87.84591,37.46134],[-87.84592,37.46134],[-87.84614,37.46131],[-87.84615,37.46131],[-87.84638,37.46128],[-87.84662,37.46126],[-87.84681,37.46124],[-87.84697,37.46123],[-87.84709,37.46121],[-87.84721,37.46119],[-87.84733,37.46116],[-87.84739,37.46113],[-87.84749,37.46109],[-87.84763,37.46101],[-87.84771,37.46097],[-87.84778,37.46092],[-87.84802,37.46079],[-87.8481,37.46074],[-87.84828,37.46066],[-87.84845,37.46058],[-87.8486,37.46052],[-87.8488,37.46043],[-87.84881,37.46043],[-87.8492,37.46027],[-87.84966,37.46007],[-87.8498,37.46001],[-87.84998,37.45993],[-87.85014,37.45985],[-87.85028,37.45978],[-87.8503,37.45976],[-87.85037,37.45972],[-87.85047,37.45965],[-87.85061,37.45955],[-87.85076,37.45944],[-87.85087,37.45936],[-87.8509,37.45933],[-87.85097,37.45927],[-87.85103,37.4592],[-87.85115,37.45908],[-87.85127,37.45895],[-87.85133,37.45888],[-87.85138,37.45881],[-87.8514,37.45877],[-87.85143,37.45874],[-87.85151,37.45862],[-87.85153,37.45859],[-87.85162,37.45845],[-87.8518,37.45813],[-87.85187,37.458],[-87.85191,37.45792],[-87.85199,37.45778],[-87.85219,37.45743],[-87.85226,37.45731],[-87.85231,37.45722],[-87.85246,37.45693],[-87.85254,37.45681],[-87.85259,37.45673],[-87.8527,37.45658],[-87.85284,37.45641],[-87.85298,37.45628],[-87.85311,37.45617],[-87.85326,37.45605],[-87.8534,37.45596],[-87.85355,37.45586],[-87.85356,37.45585],[-87.8537,37.45577],[-87.85383,37.4557],[-87.85397,37.45562],[-87.85409,37.45557],[-87.85423,37.4555],[-87.8543,37.45547],[-87.85442,37.45542],[-87.85451,37.45539],[-87.85454,37.45539],[-87.85465,37.45536],[-87.85483,37.45531],[-87.85572,37.45513],[-87.856,37.45508],[-87.85644,37.45499],[-87.85683,37.45486],[-87.85731,37.45468],[-87.85814,37.45437],[-87.85828,37.45432],[-87.85855,37.45421],[-87.85875,37.45413],[-87.85896,37.45405],[-87.8594,37.45387],[-87.85956,37.45381],[-87.85976,37.45372],[-87.86037,37.45348],[-87.86048,37.45343],[-87.86068,37.45333],[-87.86088,37.45324],[-87.86107,37.45314],[-87.86126,37.45304],[-87.86152,37.4529],[-87.8617,37.4528],[-87.86179,37.45275],[-87.86189,37.45269],[-87.86207,37.45259],[-87.86213,37.45256],[-87.86226,37.45249],[-87.86238,37.45242],[-87.86244,37.45238],[-87.86263,37.45228],[-87.8628,37.45218],[-87.86282,37.45218],[-87.863,37.45208],[-87.86317,37.45198],[-87.86372,37.45168],[-87.86375,37.45167],[-87.86393,37.45157],[-87.86419,37.45143],[-87.86431,37.45137],[-87.8645,37.45126],[-87.86464,37.45118],[-87.86468,37.45116],[-87.86499,37.45099],[-87.86524,37.45084],[-87.86541,37.45074],[-87.86557,37.45064],[-87.86569,37.45056],[-87.86581,37.45048],[-87.86598,37.45036],[-87.8661,37.45027],[-87.86661,37.44984],[-87.86673,37.44974],[-87.86676,37.44971],[-87.86707,37.44945],[-87.86709,37.44944],[-87.86723,37.44932],[-87.86733,37.44924],[-87.86738,37.44919],[-87.86745,37.44913],[-87.86754,37.44905],[-87.86781,37.44882],[-87.86784,37.44879],[-87.86805,37.44861],[-87.86815,37.4485],[-87.86825,37.4484],[-87.86834,37.4483],[-87.86841,37.44823],[-87.86843,37.4482],[-87.86852,37.44809],[-87.86853,37.44808],[-87.8686,37.44798],[-87.86865,37.44792],[-87.86877,37.44777],[-87.86884,37.44766],[-87.86899,37.44745],[-87.86912,37.44725],[-87.86927,37.44703],[-87.86959,37.44656],[-87.86996,37.44602],[-87.87007,37.44587],[-87.87036,37.44546],[-87.87041,37.4454],[-87.87064,37.44506],[-87.87081,37.44483],[-87.87093,37.44467],[-87.87105,37.44453],[-87.87119,37.44439],[-87.87126,37.44432],[-87.87133,37.44425],[-87.87148,37.44412],[-87.87163,37.444],[-87.87179,37.44388],[-87.87195,37.44377],[-87.87212,37.44367],[-87.87221,37.44362],[-87.87255,37.44341],[-87.87291,37.44321],[-87.87351,37.44285],[-87.87363,37.44278],[-87.87381,37.44268],[-87.874,37.44257],[-87.87422,37.44244],[-87.87436,37.44236],[-87.87473,37.44215],[-87.87512,37.44192],[-87.87546,37.44172],[-87.87602,37.4414],[-87.87644,37.44116],[-87.87712,37.44076],[-87.87717,37.44074],[-87.87735,37.44063],[-87.87766,37.44045],[-87.87772,37.44042],[-87.87785,37.44034],[-87.8779,37.44031],[-87.87793,37.44029],[-87.87808,37.4402],[-87.87827,37.4401],[-87.8783,37.44008],[-87.87845,37.44],[-87.87858,37.43992],[-87.87887,37.43975],[-87.87937,37.43947],[-87.87957,37.43936],[-87.87974,37.43926],[-87.87978,37.43924],[-87.87992,37.43916],[-87.88009,37.43906],[-87.88011,37.43905],[-87.88029,37.43895],[-87.88068,37.43872],[-87.88134,37.43835],[-87.8817,37.43814],[-87.88207,37.43792],[-87.88225,37.43782],[-87.88226,37.43782],[-87.88276,37.43753],[-87.8828,37.4375],[-87.88299,37.4374],[-87.88317,37.43729],[-87.88354,37.43708],[-87.8837,37.43699],[-87.88409,37.43677],[-87.88427,37.43666],[-87.88429,37.43665],[-87.88447,37.43655],[-87.88475,37.43639],[-87.88556,37.43593],[-87.88575,37.43582],[-87.88576,37.43581],[-87.8859,37.43574],[-87.88593,37.43572],[-87.88611,37.43561],[-87.88613,37.4356],[-87.88629,37.4355],[-87.88631,37.4355],[-87.88649,37.43539],[-87.88682,37.4352],[-87.88704,37.43508],[-87.88721,37.43498],[-87.88723,37.43497],[-87.8876,37.43476],[-87.88769,37.43471],[-87.88771,37.4347],[-87.88811,37.43447],[-87.88869,37.43414],[-87.88878,37.43409],[-87.88882,37.43407],[-87.88897,37.43398],[-87.88919,37.43386],[-87.88924,37.43383],[-87.88975,37.43354],[-87.88997,37.4334],[-87.89018,37.43327],[-87.89027,37.43321],[-87.89031,37.43317],[-87.89044,37.43308],[-87.89056,37.43298],[-87.89067,37.43288],[-87.89076,37.4328],[-87.89077,37.43279],[-87.89081,37.43274],[-87.89085,37.43271],[-87.89093,37.43262],[-87.89095,37.4326],[-87.891,37.43253],[-87.89107,37.43245],[-87.89108,37.43244],[-87.89115,37.43234],[-87.89119,37.43229],[-87.89123,37.43223],[-87.89136,37.43204],[-87.89137,37.43203],[-87.8914,37.43198],[-87.89143,37.43192],[-87.89149,37.43181],[-87.89155,37.43169],[-87.89157,37.43164],[-87.89166,37.43148],[-87.89174,37.43131],[-87.89198,37.43086],[-87.89206,37.4307],[-87.89209,37.43065],[-87.89215,37.43053],[-87.89218,37.43048],[-87.89224,37.43036],[-87.89226,37.43031],[-87.89235,37.43015],[-87.89241,37.43003],[-87.89244,37.42998],[-87.8925,37.42986],[-87.89252,37.42981],[-87.89258,37.4297],[-87.89275,37.42937],[-87.89278,37.42931],[-87.89287,37.42915],[-87.89287,37.42914],[-87.8932,37.42854],[-87.89323,37.42849],[-87.8933,37.42838],[-87.89332,37.42833],[-87.89344,37.42811],[-87.89368,37.42766],[-87.89374,37.42755],[-87.89377,37.4275],[-87.89393,37.42718],[-87.89409,37.42692],[-87.8941,37.42688],[-87.89412,37.42684],[-87.8942,37.4267],[-87.89428,37.42655],[-87.89432,37.42649],[-87.89437,37.42639],[-87.89444,37.42628],[-87.89456,37.42606],[-87.89477,37.42567],[-87.89484,37.42554],[-87.895,37.42528],[-87.89508,37.42516],[-87.89517,37.42504],[-87.89526,37.42493],[-87.89527,37.42493],[-87.89537,37.42482],[-87.89548,37.42472],[-87.8956,37.42463],[-87.89573,37.42454],[-87.89585,37.42446],[-87.89599,37.42439],[-87.89613,37.42433],[-87.89628,37.42427],[-87.89645,37.42421],[-87.89669,37.42413],[-87.89693,37.42406],[-87.89712,37.424],[-87.89736,37.42393],[-87.89739,37.42392],[-87.89765,37.42383],[-87.89782,37.42377],[-87.89799,37.42371],[-87.89816,37.42363],[-87.89825,37.42359],[-87.89833,37.42355],[-87.89837,37.42353],[-87.89842,37.42351],[-87.8985,37.42346],[-87.89866,37.42336],[-87.89882,37.42326],[-87.89884,37.42324],[-87.89897,37.42315],[-87.89905,37.42309],[-87.89912,37.42303],[-87.89918,37.42298],[-87.89919,37.42297],[-87.89933,37.42282],[-87.89939,37.42274],[-87.89952,37.42259],[-87.89964,37.42243],[-87.8998,37.4222],[-87.89996,37.42196],[-87.90027,37.42148],[-87.90037,37.42132],[-87.90037,37.42131],[-87.90047,37.42116],[-87.90094,37.42043],[-87.90168,37.41925],[-87.90184,37.41901],[-87.90208,37.41863],[-87.90218,37.41847],[-87.90258,37.41786],[-87.90282,37.4175],[-87.9029,37.41738],[-87.90296,37.41728],[-87.90304,37.41714],[-87.90309,37.41705],[-87.90313,37.41699],[-87.9032,37.41685],[-87.90335,37.41655],[-87.90342,37.4164],[-87.90352,37.41618],[-87.90368,37.41584],[-87.90376,37.41567],[-87.90377,37.41565],[-87.90391,37.41534],[-87.90399,37.41517],[-87.90407,37.415],[-87.90437,37.41432],[-87.90458,37.41385],[-87.90473,37.41351],[-87.90479,37.41334],[-87.90485,37.41317],[-87.9049,37.413],[-87.90491,37.41295],[-87.90493,37.41284],[-87.90496,37.41267],[-87.90498,37.41251],[-87.90498,37.41234],[-87.90498,37.41219],[-87.90496,37.41203],[-87.90495,37.41195],[-87.90492,37.41179],[-87.90487,37.41163],[-87.90479,37.41135],[-87.90464,37.41089],[-87.90436,37.40995],[-87.9043,37.40977],[-87.90429,37.40972],[-87.90419,37.40943],[-87.90402,37.40886],[-87.90379,37.40807],[-87.90371,37.40783],[-87.90364,37.40757],[-87.90359,37.40739],[-87.90355,37.40724],[-87.90344,37.40681],[-87.90337,37.40653],[-87.90332,37.40616],[-87.9033,37.40587],[-87.9033,37.4058],[-87.9033,37.40562],[-87.9033,37.40552],[-87.90337,37.40497],[-87.90346,37.40436],[-87.90352,37.40401],[-87.90357,37.40365],[-87.9036,37.40347],[-87.9036,37.40343],[-87.90374,37.40258],[-87.90377,37.4024],[-87.90383,37.40204],[-87.90387,37.40179],[-87.90388,37.40169],[-87.90391,37.40151],[-87.90395,37.40131],[-87.90398,37.40108],[-87.90404,37.40066],[-87.90408,37.40037],[-87.9041,37.40026],[-87.90414,37.40002],[-87.90422,37.39974],[-87.90429,37.39956],[-87.90436,37.39939],[-87.90439,37.39932],[-87.90461,37.39878],[-87.90475,37.39848],[-87.90479,37.39837],[-87.90484,37.39819],[-87.90484,37.39819],[-87.90525,37.39835],[-87.90535,37.39838],[-87.90545,37.39843],[-87.90564,37.39852],[-87.90566,37.39853],[-87.90584,37.39861],[-87.90604,37.39869],[-87.90624,37.39878],[-87.9064,37.39885],[-87.90644,37.39887],[-87.90663,37.39896],[-87.90702,37.39914],[-87.90703,37.39914],[-87.90724,37.39922],[-87.90748,37.39928],[-87.90766,37.39931],[-87.90788,37.39935],[-87.9081,37.3994],[-87.90832,37.39944],[-87.90854,37.39948],[-87.90877,37.39952],[-87.90899,37.39956],[-87.90907,37.39958],[-87.90965,37.39966],[-87.9101,37.39971],[-87.9104,37.39975],[-87.91077,37.39979],[-87.91145,37.39986],[-87.91167,37.39989],[-87.91212,37.39993],[-87.91234,37.39996],[-87.91267,37.40001],[-87.91304,37.40011],[-87.91309,37.40012],[-87.9133,37.40019],[-87.9134,37.40025],[-87.91393,37.4006],[-87.91396,37.40062],[-87.91428,37.40088],[-87.91437,37.40096],[-87.91474,37.40128],[-87.91493,37.40145],[-87.91513,37.40162],[-87.91547,37.40185],[-87.91564,37.40197],[-87.91633,37.40243],[-87.91671,37.40263],[-87.91687,37.40271],[-87.91719,37.40273],[-87.91751,37.40262],[-87.91756,37.40261],[-87.91786,37.40253],[-87.91841,37.4025],[-87.91847,37.40251],[-87.91851,37.40254],[-87.91861,37.40259],[-87.91873,37.40264],[-87.91916,37.40291],[-87.9193,37.403],[-87.91933,37.40302],[-87.91951,37.40314],[-87.91968,37.40326],[-87.91978,37.40332],[-87.91984,37.40338],[-87.92017,37.40363],[-87.92018,37.40364],[-87.92032,37.40376],[-87.92038,37.40382],[-87.92057,37.40402],[-87.92072,37.4042],[-87.92075,37.40425],[-87.92083,37.40436],[-87.92104,37.40467],[-87.92126,37.40499],[-87.92138,37.40516],[-87.92146,37.40526],[-87.9215,37.40529],[-87.92155,37.40534],[-87.92165,37.4054],[-87.9219,37.40549],[-87.92251,37.40569],[-87.92256,37.40571],[-87.92357,37.40599],[-87.92374,37.40603],[-87.92443,37.40621],[-87.92452,37.40624],[-87.92465,37.40627],[-87.9255,37.40652],[-87.92571,37.40658],[-87.92575,37.40659],[-87.92615,37.40667],[-87.92636,37.40672],[-87.92637,37.40672],[-87.92681,37.40679],[-87.92685,37.4068],[-87.92704,37.40682],[-87.92726,37.40684],[-87.92729,37.40685],[-87.92748,37.40686],[-87.92775,37.40688],[-87.92794,37.40689],[-87.92802,37.4069],[-87.92816,37.4069],[-87.92816,37.40689],[-87.92826,37.40687],[-87.92838,37.40683],[-87.92847,37.40678],[-87.92857,37.40671],[-87.92865,37.40663],[-87.92881,37.40644],[-87.92882,37.40643],[-87.92896,37.40622],[-87.92901,37.40611],[-87.92908,37.40598],[-87.92916,37.40577],[-87.9293,37.40543],[-87.92943,37.40508],[-87.9295,37.4049],[-87.92961,37.4046],[-87.92966,37.40448],[-87.92967,37.40446],[-87.92968,37.40442],[-87.92976,37.40425],[-87.92983,37.40408],[-87.9299,37.40391],[-87.92999,37.4037],[-87.93006,37.40358],[-87.9302,37.40337],[-87.93029,37.40328],[-87.9303,37.40327],[-87.9304,37.4032],[-87.93054,37.40314],[-87.93069,37.40311],[-87.9308,37.40308],[-87.93094,37.40308],[-87.93134,37.40314],[-87.93144,37.40315],[-87.93155,37.40314],[-87.93158,37.40313],[-87.93165,37.40311],[-87.93189,37.40304],[-87.93201,37.40299],[-87.93218,37.40289],[-87.93236,37.40278],[-87.93254,37.40266],[-87.93289,37.40244],[-87.933,37.40237],[-87.93306,37.40232],[-87.93324,37.4022],[-87.93338,37.4021],[-87.93341,37.40209],[-87.93353,37.402],[-87.93392,37.40174],[-87.93436,37.40145],[-87.9347,37.4012],[-87.93477,37.40114],[-87.93487,37.40104],[-87.93494,37.40095],[-87.935,37.40084],[-87.93504,37.40077],[-87.9353,37.40027],[-87.93538,37.4001],[-87.93555,37.39978],[-87.93561,37.39963],[-87.93563,37.39953],[-87.93569,37.39928],[-87.9357,37.39924],[-87.93575,37.39911],[-87.93581,37.39894],[-87.93584,37.39884],[-87.93588,37.39876],[-87.93608,37.39832],[-87.93611,37.39826],[-87.9362,37.39809],[-87.93627,37.39795],[-87.93628,37.39792],[-87.93634,37.39775],[-87.93636,37.3977],[-87.93649,37.39722],[-87.93653,37.39715],[-87.93659,37.3971],[-87.93662,37.39709],[-87.93673,37.39704],[-87.93682,37.39702],[-87.93704,37.39699],[-87.93716,37.39699],[-87.93723,37.39699],[-87.93746,37.39701],[-87.93768,37.39702],[-87.93786,37.39704],[-87.93794,37.39702],[-87.93804,37.39699],[-87.93811,37.39694],[-87.93812,37.39694],[-87.93819,37.39688],[-87.93825,37.3968],[-87.93836,37.39661],[-87.93839,37.39652],[-87.9384,37.39647],[-87.93845,37.39629],[-87.93849,37.39613],[-87.93863,37.39595],[-87.93875,37.3958],[-87.93888,37.39567],[-87.9389,37.39564],[-87.93904,37.39555],[-87.93922,37.39544],[-87.93937,37.39534],[-87.93957,37.39521],[-87.93975,37.3951],[-87.94028,37.39477],[-87.94046,37.39465],[-87.94052,37.39462],[-87.94064,37.39455],[-87.94116,37.39425],[-87.94119,37.39423],[-87.94137,37.39412],[-87.94146,37.39406],[-87.94154,37.394],[-87.94171,37.39389],[-87.942,37.39368],[-87.9424,37.39342],[-87.94275,37.39319],[-87.94291,37.39307],[-87.94298,37.39302],[-87.94306,37.39293],[-87.94319,37.39278],[-87.94324,37.39271],[-87.94342,37.39247],[-87.94354,37.39232],[-87.94363,37.39221],[-87.94366,37.39217],[-87.94386,37.39193],[-87.94393,37.39188],[-87.94418,37.39171],[-87.94428,37.39165],[-87.94481,37.39132],[-87.94499,37.39121],[-87.9451,37.39115],[-87.94551,37.39087],[-87.94586,37.39063],[-87.946,37.39054],[-87.94603,37.39052],[-87.94641,37.39033],[-87.94661,37.39024],[-87.94662,37.39024],[-87.94682,37.39017],[-87.94711,37.39006],[-87.9478,37.38989],[-87.94811,37.38982],[-87.9488,37.38966],[-87.94885,37.38965],[-87.94923,37.38955],[-87.94944,37.38949],[-87.94965,37.38944],[-87.94986,37.38938],[-87.94987,37.38938],[-87.95031,37.3893],[-87.95053,37.38926],[-87.95075,37.38923],[-87.95096,37.38919],[-87.95097,37.38919],[-87.9512,37.38919],[-87.95142,37.38918],[-87.95143,37.38918],[-87.95158,37.3892],[-87.95165,37.38922],[-87.95179,37.38924],[-87.95188,37.38926],[-87.952,37.38929],[-87.95214,37.38933],[-87.95221,37.38936],[-87.95221,37.38936],[-87.95234,37.3894],[-87.95256,37.38946],[-87.95264,37.38947],[-87.95275,37.38948],[-87.95309,37.38949],[-87.95314,37.38949],[-87.95332,37.38949],[-87.9534,37.38949],[-87.95354,37.38947],[-87.95376,37.38945],[-87.95431,37.38924],[-87.95445,37.38917],[-87.95457,37.38909],[-87.95464,37.38904],[-87.95473,37.38899],[-87.95481,37.38895],[-87.95507,37.38881],[-87.9554,37.38869],[-87.95561,37.38867],[-87.9559,37.38866],[-87.9559,37.38866],[-87.95606,37.38871],[-87.95611,37.38872],[-87.95678,37.38883],[-87.95722,37.3889],[-87.9581,37.38905],[-87.95855,37.38912],[-87.95882,37.38917],[-87.95911,37.38921],[-87.95997,37.38934],[-87.96018,37.38937],[-87.96041,37.38941],[-87.96064,37.38945],[-87.96108,37.38952],[-87.96166,37.38962],[-87.96174,37.38964],[-87.96175,37.38964],[-87.96183,37.38969],[-87.96197,37.38979],[-87.96219,37.39],[-87.96221,37.39002],[-87.96259,37.39047],[-87.96266,37.39054],[-87.96282,37.39078],[-87.96293,37.39093],[-87.96293,37.39094],[-87.96299,37.39104],[-87.96303,37.39109],[-87.96314,37.39114],[-87.96325,37.39115],[-87.96336,37.39112],[-87.96352,37.39104],[-87.96386,37.39092],[-87.96407,37.39084],[-87.96414,37.39082],[-87.96432,37.39074],[-87.96438,37.39069],[-87.96448,37.39055],[-87.9645,37.39053],[-87.96474,37.39023],[-87.96477,37.39019],[-87.96487,37.39008],[-87.96502,37.38993],[-87.96516,37.38981],[-87.96533,37.38972],[-87.96535,37.38971],[-87.96542,37.38969],[-87.96557,37.38966],[-87.96561,37.38965],[-87.96579,37.38964],[-87.96602,37.38963],[-87.96618,37.38962],[-87.96639,37.38959],[-87.96659,37.38956],[-87.9669,37.38948],[-87.96702,37.38944],[-87.96711,37.38942],[-87.96711,37.38941],[-87.96724,37.38936],[-87.96731,37.38933],[-87.96786,37.38905],[-87.96788,37.38904],[-87.96841,37.3887],[-87.96849,37.38864],[-87.96878,37.38849],[-87.96889,37.38842],[-87.96931,37.38821],[-87.96935,37.38819],[-87.96954,37.38811],[-87.96973,37.38802],[-87.96997,37.3879],[-87.97016,37.38777],[-87.97019,37.38775],[-87.97029,37.38768],[-87.97037,37.38761],[-87.97054,37.38745],[-87.97062,37.38737],[-87.97077,37.38718],[-87.97083,37.3871],[-87.9709,37.38703],[-87.97092,37.38702],[-87.97102,37.38693],[-87.97107,37.38691],[-87.97114,37.38686],[-87.97125,37.3868],[-87.97126,37.38679],[-87.97139,37.38674],[-87.97145,37.38672],[-87.97153,37.3867],[-87.97166,37.38668],[-87.97167,37.38668],[-87.97212,37.38664],[-87.97223,37.38663],[-87.97234,37.38661],[-87.97252,37.38657],[-87.97256,37.38656],[-87.97277,37.3865],[-87.97298,37.38643],[-87.97319,37.38637],[-87.97404,37.3861],[-87.97418,37.38606],[-87.97447,37.38599],[-87.97467,37.38594],[-87.97468,37.38593],[-87.97481,37.38591],[-87.9749,37.3859],[-87.97497,37.38589],[-87.97512,37.38589],[-87.97513,37.38589],[-87.97527,37.38589],[-87.97542,37.38592],[-87.97557,37.38596],[-87.97597,37.38608],[-87.97611,37.38609],[-87.97622,37.38608],[-87.97658,37.38604],[-87.97667,37.38603],[-87.97692,37.38602],[-87.97735,37.38601],[-87.9778,37.38601],[-87.97803,37.386],[-87.97819,37.386],[-87.97848,37.38602],[-87.9787,37.38603],[-87.97893,37.38604],[-87.97901,37.38605],[-87.97916,37.38606],[-87.97938,37.38609],[-87.97942,37.38609],[-87.9796,37.38611],[-87.98013,37.38615],[-87.98028,37.38615],[-87.98037,37.38616],[-87.98051,37.38615],[-87.98119,37.38613],[-87.98141,37.38612],[-87.98152,37.38612],[-87.98164,37.38612],[-87.9818,37.38612],[-87.98186,37.38613],[-87.98195,37.38614],[-87.98209,37.38616],[-87.98225,37.38619],[-87.98241,37.38623],[-87.98252,37.38626],[-87.98338,37.38648],[-87.9834,37.38648],[-87.9836,37.38653],[-87.98405,37.38664],[-87.98421,37.38669],[-87.98451,37.38679],[-87.98466,37.38685],[-87.98526,37.38709],[-87.98567,37.38726],[-87.98569,37.38727],[-87.98608,37.3874],[-87.9865,37.38754],[-87.98656,37.38756],[-87.98671,37.38761],[-87.98692,37.38768],[-87.98707,37.38773],[-87.9871,37.38774],[-87.98717,37.38775],[-87.98734,37.38776],[-87.98739,37.38776],[-87.98752,37.38775],[-87.98767,37.38773],[-87.98784,37.38769],[-87.98792,37.38767],[-87.98803,37.38764],[-87.98805,37.38763],[-87.98812,37.38759],[-87.98819,37.38754],[-87.98822,37.38751],[-87.98824,37.38748],[-87.98828,37.38741],[-87.98828,37.38734],[-87.98829,37.38732],[-87.98826,37.3868],[-87.98826,37.38662],[-87.98825,37.38644],[-87.98824,37.38626],[-87.98822,37.38595],[-87.98822,37.3859],[-87.98816,37.38519],[-87.98807,37.38404],[-87.98806,37.38393],[-87.98804,37.38375],[-87.98803,37.38363],[-87.98803,37.38357],[-87.98803,37.38355],[-87.98805,37.38346],[-87.9881,37.38337],[-87.98813,37.38334],[-87.98816,37.38331],[-87.98825,37.38326],[-87.98864,37.38308],[-87.9887,37.38306],[-87.98878,37.38303],[-87.99025,37.38254],[-87.99058,37.38242],[-87.99161,37.38206],[-87.99265,37.38169],[-87.99275,37.38165],[-87.99369,37.38135],[-87.99474,37.381],[-87.99599,37.38059],[-87.99618,37.38053],[-87.99703,37.38023],[-87.99744,37.38009],[-87.9975,37.38007],[-87.99765,37.38002],[-87.99787,37.37997],[-87.9986,37.37979],[-87.99878,37.37974],[-87.99898,37.37966],[-87.99898,37.37966],[-87.99916,37.38],[-87.99926,37.38024],[-87.99939,37.38056],[-87.99948,37.38082],[-87.99959,37.38118],[-87.99959,37.3812],[-87.99971,37.38165],[-87.99987,37.38226],[-88.00012,37.38326],[-88.00028,37.38384],[-88.00031,37.38393],[-88.00039,37.38421],[-88.00049,37.38446],[-88.00061,37.38483],[-88.00067,37.38502],[-88.00078,37.38537],[-88.00098,37.38606],[-88.00107,37.38641],[-88.00114,37.3867],[-88.00123,37.38701],[-88.00129,37.38716],[-88.00136,37.3873],[-88.00144,37.38744],[-88.00154,37.38758],[-88.00165,37.38771],[-88.00169,37.38775],[-88.00191,37.38796],[-88.00226,37.38828],[-88.00248,37.38847],[-88.00258,37.38856],[-88.00272,37.38867],[-88.00339,37.38919],[-88.0035,37.38927],[-88.00418,37.38983],[-88.00425,37.38988],[-88.00498,37.39046],[-88.00538,37.39078],[-88.00627,37.39145],[-88.00663,37.39171],[-88.00696,37.39194],[-88.00782,37.39253],[-88.00827,37.39284],[-88.00833,37.39289],[-88.00868,37.39312],[-88.00877,37.39318],[-88.00921,37.39346],[-88.00927,37.3935],[-88.00939,37.39357],[-88.00973,37.39377],[-88.00993,37.39389],[-88.01011,37.394],[-88.0107,37.39435],[-88.01088,37.39446],[-88.01123,37.3947],[-88.01124,37.39471],[-88.0114,37.39481],[-88.01157,37.39493],[-88.01169,37.39502],[-88.01174,37.39505],[-88.01208,37.39529],[-88.01252,37.3956],[-88.01284,37.39583],[-88.01294,37.39591],[-88.01327,37.39615],[-88.01401,37.39668],[-88.0141,37.39675],[-88.01418,37.39681],[-88.01433,37.39694],[-88.01449,37.39708],[-88.01456,37.39715],[-88.01485,37.39745],[-88.01535,37.39799],[-88.0159,37.3986],[-88.01656,37.39933],[-88.01657,37.39936],[-88.01671,37.3995],[-88.01685,37.39962],[-88.01691,37.39967],[-88.01706,37.39977],[-88.01723,37.39985],[-88.01739,37.39992],[-88.0176,37.4],[-88.01784,37.40009],[-88.01811,37.40021],[-88.01829,37.4003],[-88.01855,37.40044],[-88.0188,37.40061],[-88.01911,37.40085],[-88.01927,37.40097],[-88.01958,37.40122],[-88.01971,37.40133],[-88.01987,37.40146],[-88.02004,37.4016],[-88.02033,37.40184],[-88.02061,37.40205],[-88.02067,37.40209],[-88.02101,37.40233],[-88.02118,37.40245],[-88.0215,37.40266],[-88.02171,37.40279],[-88.02224,37.40312],[-88.02242,37.40324],[-88.02259,37.40335],[-88.02277,37.40346],[-88.02283,37.4035],[-88.02304,37.40364],[-88.02335,37.40385],[-88.02353,37.40397],[-88.02372,37.4041],[-88.02398,37.40427],[-88.02425,37.40443],[-88.02441,37.40453],[-88.0251,37.40493],[-88.02587,37.40538],[-88.02587,37.40539],[-88.02621,37.40561],[-88.02631,37.40568],[-88.02673,37.40596],[-88.02691,37.40608],[-88.02702,37.40615],[-88.02708,37.40619],[-88.02776,37.40666],[-88.0281,37.4069],[-88.0282,37.40698],[-88.02871,37.40737],[-88.02955,37.40804],[-88.02971,37.40817],[-88.03006,37.40843],[-88.03025,37.40855],[-88.03058,37.40875],[-88.03075,37.40885],[-88.03076,37.40886],[-88.03149,37.40928],[-88.03185,37.40949],[-88.03202,37.40959],[-88.0324,37.40982],[-88.03257,37.40992],[-88.03275,37.41004],[-88.03291,37.41015],[-88.03323,37.41039],[-88.03325,37.41041],[-88.03341,37.41054],[-88.03354,37.41064],[-88.03356,37.41067],[-88.03385,37.41095],[-88.03397,37.41107],[-88.03411,37.41121],[-88.03428,37.41136],[-88.03456,37.41164],[-88.03458,37.41166],[-88.03498,37.41207],[-88.03512,37.41221],[-88.03553,37.41264],[-88.03573,37.41287],[-88.03604,37.41324],[-88.03616,37.41339],[-88.03632,37.4136],[-88.03642,37.41374],[-88.03651,37.41388],[-88.03658,37.41403],[-88.03664,37.41419],[-88.03669,37.41437],[-88.03672,37.41451],[-88.03672,37.41455],[-88.03674,37.41467],[-88.03675,37.41485],[-88.03675,37.41493],[-88.03674,37.41529],[-88.03674,37.41545],[-88.03673,37.41574],[-88.03674,37.4161],[-88.03674,37.41627],[-88.03677,37.41645],[-88.0368,37.41662],[-88.03686,37.41678],[-88.03693,37.41694],[-88.03711,37.41731],[-88.03716,37.41739],[-88.03738,37.4178],[-88.03748,37.41799],[-88.03763,37.41829],[-88.03773,37.41847],[-88.03779,37.41858],[-88.03802,37.41895],[-88.03816,37.41919],[-88.03823,37.41928],[-88.0384,37.41946],[-88.03894,37.41997],[-88.03915,37.42016],[-88.03924,37.42024],[-88.03928,37.42027],[-88.03951,37.42043],[-88.03959,37.42047],[-88.03961,37.42049],[-88.04,37.42067],[-88.04019,37.42076],[-88.04078,37.42104],[-88.04117,37.42122],[-88.04135,37.42131],[-88.0415,37.42138],[-88.04155,37.42141],[-88.04165,37.42147],[-88.04173,37.42152],[-88.04179,37.42156],[-88.0419,37.42164],[-88.04192,37.42165],[-88.04204,37.42176],[-88.04219,37.42192],[-88.04226,37.42199],[-88.04249,37.42225],[-88.04271,37.4225],[-88.04284,37.42265],[-88.04287,37.42269],[-88.04296,37.4228],[-88.04309,37.42295],[-88.04313,37.423],[-88.04326,37.42317],[-88.04332,37.42326],[-88.04359,37.42365],[-88.04359,37.42365],[-88.04377,37.42353],[-88.0441,37.42329],[-88.04438,37.42307],[-88.04491,37.42266],[-88.04521,37.42243],[-88.04523,37.42241],[-88.04571,37.42202],[-88.04587,37.42189],[-88.04602,37.42176],[-88.04603,37.42176],[-88.04624,37.42159],[-88.0465,37.42138],[-88.04731,37.42075],[-88.04737,37.4207],[-88.04772,37.42043],[-88.04797,37.42022],[-88.04805,37.42017],[-88.04815,37.42014],[-88.04822,37.42014],[-88.04827,37.42013],[-88.04836,37.42014],[-88.0484,37.42014],[-88.04853,37.42016],[-88.04889,37.42024],[-88.04902,37.42027],[-88.04914,37.4203],[-88.04946,37.42033],[-88.04947,37.42033],[-88.04955,37.42034],[-88.04963,37.42035],[-88.04969,37.42036],[-88.05036,37.42044],[-88.05045,37.42045],[-88.05047,37.42046],[-88.05081,37.42048],[-88.05088,37.42049],[-88.0509,37.42049],[-88.05093,37.42049],[-88.05104,37.42051],[-88.0512,37.42057],[-88.0514,37.42076],[-88.05185,37.42134],[-88.0519,37.4214],[-88.05197,37.4215],[-88.05207,37.42163],[-88.05269,37.42249],[-88.05276,37.42259],[-88.05298,37.4229],[-88.05323,37.42321],[-88.05337,37.42334],[-88.05341,37.42338],[-88.05343,37.42339],[-88.0535,37.42342],[-88.05354,37.42345],[-88.05365,37.42348],[-88.05375,37.42348],[-88.05382,37.42349],[-88.05389,37.42348],[-88.05406,37.42344],[-88.05425,37.4234],[-88.05438,37.42341],[-88.0545,37.42344],[-88.05472,37.42352],[-88.05481,37.42356],[-88.05484,37.42357],[-88.05485,37.42357],[-88.05514,37.42366],[-88.05518,37.42367],[-88.05527,37.42369],[-88.05528,37.42369],[-88.05536,37.4237],[-88.05548,37.42373],[-88.05549,37.42373],[-88.0555,37.42373],[-88.05559,37.42374],[-88.0557,37.42375],[-88.0558,37.42374],[-88.05601,37.42369],[-88.05637,37.4236],[-88.05645,37.42358],[-88.05676,37.4235],[-88.05702,37.42344],[-88.05703,37.42344],[-88.05732,37.42338],[-88.05737,37.42336],[-88.0576,37.42334],[-88.05768,37.42335],[-88.05769,37.42335],[-88.05777,37.42335],[-88.05791,37.4234],[-88.05803,37.42346],[-88.05808,37.4235],[-88.05809,37.4235],[-88.05814,37.42355],[-88.05815,37.42356],[-88.05822,37.42364],[-88.05822,37.42365],[-88.05833,37.42378],[-88.05869,37.42422],[-88.05871,37.42424],[-88.05872,37.42425],[-88.05896,37.42452],[-88.05916,37.42467],[-88.05959,37.42489],[-88.05971,37.42495],[-88.05972,37.42496],[-88.05975,37.42497],[-88.05997,37.42511],[-88.06024,37.42526],[-88.06034,37.4253],[-88.06037,37.42531],[-88.06048,37.42532],[-88.06049,37.42532],[-88.0609,37.42529],[-88.06138,37.42533],[-88.06138,37.42534],[-88.06143,37.42534],[-88.06146,37.42534],[-88.06156,37.42534],[-88.06177,37.42532],[-88.06206,37.42526],[-88.06213,37.42525],[-88.06245,37.42518],[-88.06271,37.42509],[-88.06282,37.42503],[-88.06296,37.42498],[-88.06298,37.42497],[-88.06302,37.42495],[-88.06322,37.42485],[-88.0636,37.42467],[-88.06361,37.42467],[-88.06406,37.42446],[-88.06417,37.42442],[-88.0642,37.42441],[-88.06452,37.42428],[-88.06458,37.42426],[-88.06461,37.42425],[-88.06477,37.4242],[-88.0648,37.4242],[-88.06482,37.42419],[-88.06488,37.42418],[-88.065,37.42417],[-88.06525,37.42417],[-88.06527,37.42417],[-88.06572,37.42417],[-88.06573,37.42417],[-88.0664,37.42419],[-88.0665,37.42419],[-88.06666,37.42421],[-88.06685,37.42424],[-88.0673,37.42435],[-88.06737,37.42437],[-88.06751,37.42441],[-88.06764,37.42445],[-88.06772,37.42448],[-88.06778,37.4245],[-88.06789,37.42457],[-88.0679,37.42459],[-88.06798,37.42465],[-88.06805,37.42474],[-88.06809,37.42483],[-88.06816,37.42508],[-88.06816,37.4251],[-88.06818,37.42525],[-88.06822,37.42549],[-88.06825,37.42561],[-88.06827,37.42568],[-88.06831,37.42576],[-88.06843,37.42592],[-88.06844,37.42593],[-88.06857,37.42608],[-88.06872,37.42625],[-88.06905,37.42669],[-88.06905,37.42669],[-88.06943,37.42649],[-88.06946,37.42647],[-88.06964,37.42642],[-88.06969,37.42641],[-88.07014,37.42632],[-88.0702,37.4263],[-88.07031,37.42625],[-88.07039,37.42616],[-88.07042,37.42612],[-88.07048,37.42604],[-88.07053,37.42596],[-88.07055,37.42593],[-88.07062,37.4258],[-88.07079,37.42548],[-88.07107,37.42492],[-88.07109,37.42485],[-88.0711,37.42485],[-88.07116,37.42464],[-88.07124,37.42445],[-88.07145,37.42405],[-88.07148,37.42401],[-88.07158,37.42384],[-88.0716,37.42381],[-88.07167,37.42373],[-88.0717,37.42369],[-88.07172,37.42367],[-88.07186,37.42357],[-88.07203,37.42345],[-88.0722,37.42333],[-88.07227,37.42328],[-88.07237,37.42321],[-88.07255,37.4231],[-88.07267,37.42305],[-88.07275,37.42302],[-88.07284,37.423],[-88.07297,37.42298],[-88.07318,37.42294],[-88.07319,37.42294],[-88.07333,37.42291],[-88.0734,37.42287],[-88.07344,37.42285],[-88.07353,37.42279],[-88.07356,37.42275],[-88.0737,37.4226],[-88.07383,37.42246],[-88.07389,37.42239],[-88.07398,37.42232],[-88.07407,37.42225],[-88.07417,37.42218],[-88.07426,37.42205],[-88.07427,37.42203],[-88.07429,37.42196],[-88.07434,37.42151],[-88.07434,37.42151],[-88.07439,37.42148],[-88.07445,37.42146],[-88.07452,37.42145],[-88.07463,37.42145],[-88.07514,37.4216],[-88.07515,37.42161],[-88.07556,37.42174],[-88.07592,37.42186],[-88.07603,37.42189],[-88.07614,37.4219],[-88.07626,37.4219],[-88.07665,37.42186],[-88.07675,37.42186],[-88.07694,37.42182],[-88.07704,37.42181],[-88.07714,37.42181],[-88.07733,37.42182],[-88.07754,37.42183],[-88.07791,37.42189],[-88.07822,37.42195],[-88.07865,37.42204],[-88.07888,37.42207],[-88.07948,37.42213],[-88.07955,37.42213],[-88.07994,37.42218],[-88.08,37.42218],[-88.08024,37.4222],[-88.08059,37.4222],[-88.08083,37.42219],[-88.08106,37.42216],[-88.08127,37.42211],[-88.08134,37.4221],[-88.08163,37.42204],[-88.08179,37.42204],[-88.08183,37.42204],[-88.08196,37.42205],[-88.08216,37.42208],[-88.08234,37.42213],[-88.08244,37.42216],[-88.08265,37.42224],[-88.08285,37.42231],[-88.08299,37.42236],[-88.08306,37.42239],[-88.08326,37.42246],[-88.0836,37.42255],[-88.08369,37.42258],[-88.0839,37.42266],[-88.0841,37.42274],[-88.08412,37.42275],[-88.08438,37.42285],[-88.08457,37.42294],[-88.08469,37.42302],[-88.08483,37.42311],[-88.08502,37.42326],[-88.08504,37.42327],[-88.08511,37.42333],[-88.08524,37.42342],[-88.08534,37.42348],[-88.08536,37.42349],[-88.08553,37.42357],[-88.08556,37.42358],[-88.08577,37.42365],[-88.08581,37.42366],[-88.08597,37.42372],[-88.0863,37.42384],[-88.08659,37.42388],[-88.08661,37.42388],[-88.08684,37.4239],[-88.08706,37.42391],[-88.08752,37.42394],[-88.08767,37.42392],[-88.08779,37.42388],[-88.08788,37.42382],[-88.08808,37.42368],[-88.08814,37.4236],[-88.08817,37.42356],[-88.08843,37.4233],[-88.08855,37.4232],[-88.08878,37.42312],[-88.08917,37.423],[-88.08984,37.4228],[-88.09048,37.42261],[-88.09077,37.42252],[-88.09174,37.42226],[-88.09195,37.4222],[-88.09247,37.42205],[-88.0929,37.42192],[-88.09348,37.42175],[-88.09353,37.42174],[-88.09374,37.42167],[-88.09391,37.42162],[-88.09422,37.42152],[-88.09431,37.4215],[-88.09435,37.42145],[-88.09435,37.42145],[-88.09448,37.42179],[-88.09449,37.42179],[-88.09473,37.42226],[-88.09474,37.42229],[-88.09475,37.42231],[-88.09502,37.42278],[-88.09529,37.42328],[-88.09562,37.42387],[-88.0957,37.42401],[-88.09576,37.42409],[-88.09589,37.42428],[-88.0961,37.42455],[-88.09611,37.42456],[-88.09625,37.4247],[-88.09679,37.42528],[-88.09742,37.42595],[-88.09773,37.42629],[-88.09787,37.42643],[-88.09814,37.42672],[-88.09827,37.42687],[-88.09841,37.42701],[-88.09858,37.42719],[-88.09883,37.42749],[-88.0991,37.42778],[-88.09936,37.42807],[-88.0995,37.4282],[-88.09951,37.42821],[-88.09964,37.42833],[-88.0998,37.42843],[-88.09984,37.42846],[-88.09997,37.42853],[-88.10015,37.42861],[-88.10053,37.42875],[-88.10073,37.42881],[-88.10093,37.42884],[-88.10109,37.42885],[-88.10114,37.42886],[-88.10222,37.4289],[-88.10264,37.42892],[-88.1033,37.42894],[-88.10357,37.42895],[-88.10421,37.42899],[-88.10448,37.429],[-88.10467,37.429],[-88.10513,37.429],[-88.10516,37.429],[-88.10558,37.42898],[-88.10561,37.42898],[-88.1058,37.42895],[-88.10605,37.42891],[-88.10623,37.42887],[-88.10714,37.42865],[-88.10729,37.42861],[-88.10757,37.42853],[-88.10842,37.42829],[-88.10865,37.42822],[-88.10886,37.42816],[-88.10893,37.42814],[-88.10949,37.42796],[-88.10952,37.42795],[-88.10969,37.42788],[-88.10986,37.4278],[-88.10989,37.42779],[-88.11018,37.42763],[-88.11026,37.42759],[-88.11044,37.42748],[-88.11047,37.42746],[-88.11061,37.42736],[-88.11109,37.42698],[-88.1115,37.42663],[-88.11156,37.42659],[-88.11171,37.42649],[-88.11174,37.42647],[-88.11189,37.4264],[-88.11193,37.42638],[-88.11205,37.42634],[-88.11214,37.42632],[-88.11225,37.42629],[-88.11236,37.42628],[-88.11239,37.42627],[-88.11252,37.42626],[-88.11268,37.42626],[-88.11281,37.42627],[-88.11288,37.42628],[-88.11303,37.4263],[-88.11306,37.42631],[-88.11323,37.42634],[-88.11359,37.42644],[-88.11411,37.42658],[-88.11424,37.42662],[-88.11433,37.42664],[-88.11454,37.4267],[-88.11475,37.42676],[-88.11497,37.42681],[-88.11518,37.42687],[-88.1154,37.42693],[-88.1156,37.42699],[-88.11604,37.42711],[-88.11625,37.42717],[-88.11634,37.42719],[-88.11663,37.42727],[-88.11668,37.42729],[-88.11685,37.42734],[-88.1171,37.4274],[-88.11743,37.42746],[-88.11774,37.42749],[-88.11795,37.4275],[-88.118,37.4275],[-88.11814,37.42749],[-88.11823,37.42749],[-88.11859,37.42746],[-88.11913,37.42744],[-88.11916,37.42744],[-88.11937,37.42743],[-88.1196,37.42746],[-88.1198,37.42751],[-88.11994,37.42754],[-88.11997,37.42756],[-88.1201,37.42761],[-88.12033,37.42772],[-88.12048,37.42781],[-88.12062,37.42791],[-88.12071,37.42797],[-88.12086,37.42807],[-88.12088,37.42809],[-88.12118,37.42827],[-88.12139,37.42841],[-88.12161,37.42851],[-88.12165,37.42853],[-88.12182,37.42858],[-88.12194,37.42862],[-88.12223,37.4287],[-88.12246,37.42872],[-88.12247,37.42872],[-88.12262,37.42874],[-88.1227,37.42874],[-88.12279,37.42875],[-88.12295,37.42876],[-88.12329,37.42879],[-88.12355,37.42881],[-88.1236,37.42882],[-88.12367,37.42882],[-88.12395,37.42887],[-88.12429,37.42896],[-88.12443,37.42902],[-88.12478,37.42917],[-88.12504,37.4293],[-88.12514,37.42935],[-88.12535,37.42943],[-88.1256,37.42955],[-88.12588,37.42962],[-88.12608,37.42964],[-88.12612,37.42965],[-88.12628,37.42965],[-88.12642,37.42964],[-88.12653,37.42962],[-88.12655,37.42961],[-88.12666,37.42959],[-88.12674,37.42956],[-88.12681,37.42955],[-88.12691,37.42951],[-88.12715,37.42942],[-88.12715,37.42942],[-88.12722,37.42954],[-88.12731,37.42966],[-88.12733,37.42969],[-88.12743,37.42982],[-88.12743,37.42983],[-88.12753,37.42995],[-88.12773,37.43018],[-88.12782,37.43026],[-88.1279,37.43035],[-88.12796,37.4304],[-88.12807,37.43052],[-88.12819,37.43062],[-88.12825,37.43068],[-88.12833,37.43075],[-88.12843,37.43083],[-88.12856,37.43094],[-88.12872,37.43105],[-88.12884,37.43113],[-88.12901,37.43124],[-88.12908,37.43128],[-88.12915,37.43132],[-88.12936,37.43144],[-88.12955,37.43154],[-88.1299,37.43171],[-88.13008,37.4318],[-88.13047,37.43198],[-88.13067,37.43208],[-88.13086,37.43217],[-88.13125,37.43235],[-88.13139,37.43242],[-88.13164,37.43253],[-88.13207,37.43273],[-88.13323,37.43328],[-88.13362,37.43347],[-88.13382,37.43356],[-88.13401,37.43365],[-88.13421,37.43374],[-88.1344,37.43383],[-88.1346,37.43392],[-88.13479,37.43401],[-88.13492,37.43407],[-88.13499,37.43411],[-88.13518,37.4342],[-88.13557,37.43438],[-88.13577,37.43448],[-88.13635,37.43475],[-88.13654,37.43485],[-88.1366,37.43487],[-88.13674,37.43494],[-88.13693,37.43503],[-88.13713,37.43512],[-88.13732,37.43521],[-88.13758,37.43533],[-88.13791,37.43549],[-88.1381,37.43558],[-88.1383,37.43567],[-88.13849,37.43576],[-88.13869,37.43585],[-88.13871,37.43587],[-88.13896,37.43598],[-88.13928,37.43612],[-88.13946,37.43619],[-88.13958,37.43624],[-88.13981,37.43632],[-88.14005,37.43639],[-88.14034,37.43647],[-88.14059,37.43653],[-88.14082,37.43658],[-88.14089,37.43659],[-88.14107,37.43663],[-88.14123,37.43665],[-88.14133,37.43666],[-88.14137,37.43667],[-88.14155,37.43669],[-88.14157,37.43669],[-88.14178,37.4367],[-88.14191,37.43671],[-88.14217,37.43672],[-88.14223,37.43673],[-88.14268,37.43674],[-88.14332,37.43676],[-88.14377,37.43677],[-88.14427,37.43679],[-88.14472,37.4368],[-88.14495,37.4368],[-88.14509,37.43681],[-88.14585,37.43683],[-88.14608,37.43684],[-88.14631,37.43685],[-88.14676,37.43686],[-88.14699,37.43687],[-88.14766,37.43689],[-88.14833,37.43692],[-88.14865,37.43693],[-88.14879,37.43694],[-88.14894,37.43696],[-88.14901,37.43697],[-88.14908,37.43698],[-88.14936,37.43702],[-88.14945,37.43704],[-88.14963,37.43708],[-88.14989,37.43715],[-88.14991,37.43715],[-88.1501,37.43721],[-88.15017,37.43723],[-88.15056,37.43737],[-88.15072,37.43743],[-88.15081,37.43747],[-88.15092,37.43752],[-88.15093,37.43753],[-88.15111,37.43762],[-88.15116,37.43764],[-88.15129,37.43772],[-88.15138,37.43776],[-88.15148,37.43782],[-88.15165,37.43793],[-88.152,37.43814],[-88.15238,37.43837],[-88.15256,37.43848],[-88.15302,37.43876],[-88.15381,37.43924],[-88.15435,37.43957],[-88.1554,37.4402],[-88.15558,37.44031],[-88.15594,37.44053],[-88.15612,37.44064],[-88.15702,37.44119],[-88.1572,37.44129],[-88.15726,37.44133],[-88.15738,37.4414],[-88.15809,37.44185],[-88.15861,37.44216],[-88.1588,37.44229],[-88.15881,37.4423],[-88.15897,37.44241],[-88.15914,37.44254],[-88.1592,37.44258],[-88.1593,37.44266],[-88.15938,37.44274],[-88.15945,37.4428],[-88.15955,37.44289],[-88.15959,37.44293],[-88.15971,37.44306],[-88.15973,37.44308],[-88.15987,37.44322],[-88.16002,37.4434],[-88.16011,37.44352],[-88.16016,37.44358],[-88.16023,37.44368],[-88.1603,37.44378],[-88.16034,37.44384],[-88.16043,37.44399],[-88.16044,37.444],[-88.16055,37.4442],[-88.16062,37.44433],[-88.16066,37.44441],[-88.16075,37.44463],[-88.16077,37.44467],[-88.16083,37.44484],[-88.16083,37.44485],[-88.16089,37.44501],[-88.16094,37.44519],[-88.161,37.44536],[-88.16106,37.44554],[-88.16109,37.44563],[-88.16111,37.44571],[-88.16117,37.44588],[-88.16122,37.44606],[-88.16129,37.44627],[-88.16137,37.44658],[-88.16138,37.44659],[-88.16143,37.44676],[-88.16146,37.44686],[-88.16168,37.44752],[-88.16173,37.44769],[-88.16179,37.44786],[-88.1619,37.44822],[-88.16221,37.44924],[-88.16292,37.4515],[-88.16298,37.45168],[-88.163,37.45174],[-88.16314,37.4522],[-88.1632,37.45238],[-88.16325,37.45255],[-88.16347,37.45324],[-88.16347,37.45325],[-88.16352,37.45342],[-88.16358,37.4536],[-88.16359,37.45363],[-88.16363,37.45377],[-88.16369,37.45395],[-88.16396,37.45482],[-88.16402,37.455],[-88.16407,37.45517],[-88.16412,37.45532],[-88.16429,37.45587],[-88.16434,37.45604],[-88.16445,37.45639],[-88.16462,37.45692],[-88.16467,37.45709],[-88.16472,37.45726],[-88.16478,37.45744],[-88.16494,37.45796],[-88.16505,37.45831],[-88.16516,37.45866],[-88.16521,37.45884],[-88.16527,37.45901],[-88.16532,37.45919],[-88.16538,37.45936],[-88.16554,37.45988],[-88.16576,37.4606],[-88.16576,37.4606],[-88.16579,37.46066],[-88.16587,37.46094],[-88.16592,37.46126],[-88.16596,37.46148],[-88.16597,37.46156],[-88.16623,37.46577],[-88.16625,37.46615],[-88.16624,37.46651],[-88.16624,37.46657],[-88.16623,37.46714],[-88.16623,37.46714],[-88.16623,37.46738],[-88.16623,37.46738],[-88.16601,37.46738],[-88.16582,37.46738],[-88.16578,37.46738],[-88.16555,37.46738],[-88.16549,37.46738],[-88.16544,37.46738],[-88.16541,37.46743],[-88.1654,37.46746],[-88.16539,37.4675],[-88.16539,37.4675],[-88.16538,37.46767],[-88.16538,37.46768],[-88.16537,37.46786],[-88.16536,37.46801],[-88.16536,37.46801],[-88.165,37.46801],[-88.16491,37.468],[-88.16472,37.468],[-88.16454,37.468],[-88.16454,37.468],[-88.16454,37.46787],[-88.16453,37.46766],[-88.1645,37.46759],[-88.16444,37.46754],[-88.16444,37.46754],[-88.16436,37.4675],[-88.16417,37.46747],[-88.16355,37.46742],[-88.16326,37.4674],[-88.1631,37.4674],[-88.16279,37.46739],[-88.16262,37.4674],[-88.16244,37.46743],[-88.16227,37.46747],[-88.1621,37.46752],[-88.16194,37.46758],[-88.16183,37.46764],[-88.16169,37.4677],[-88.16128,37.46793],[-88.16123,37.46795],[-88.16107,37.46803],[-88.16044,37.46831],[-88.16033,37.46835],[-88.15993,37.46851],[-88.15993,37.46851],[-88.15993,37.46864],[-88.15996,37.46874],[-88.15997,37.46882],[-88.16,37.46895],[-88.16,37.46906],[-88.15997,37.46915],[-88.15997,37.46918],[-88.15996,37.46924],[-88.15991,37.46931],[-88.1599,37.46934],[-88.15987,37.4694],[-88.15982,37.46947],[-88.15979,37.4695],[-88.15965,37.46963],[-88.15965,37.46964],[-88.1595,37.46978],[-88.15946,37.46982],[-88.15935,37.46992],[-88.15926,37.47],[-88.1592,37.47005],[-88.15916,37.47007],[-88.15907,37.47012],[-88.15901,37.47014],[-88.15897,37.47016],[-88.15881,37.47022],[-88.15881,37.47022],[-88.15887,37.4704],[-88.15903,37.47063],[-88.15909,37.47071],[-88.15921,37.47089],[-88.15932,37.4711],[-88.1594,37.47134],[-88.15941,37.47138],[-88.15948,37.47165],[-88.1595,37.47177],[-88.15951,37.47185],[-88.15948,37.47196],[-88.1594,37.47208],[-88.15918,37.47229],[-88.15896,37.47247],[-88.15895,37.47248],[-88.15868,37.47271],[-88.15864,37.47274],[-88.15857,37.47278],[-88.15851,37.47281],[-88.15845,37.47282],[-88.15844,37.47282]]}}]}