{"type":"FeatureCollection","features":[{"type":"Feature","properties":{"_gpxType":"trk","name":"634-36 E 7th St - 407 State St - 7117 Crest Dr - 890 Broad St - 3137 OH-531 - 1035 Bridge St - 4366 Main Ave - 9 W 49th St - 2034 S Ridge Rd W","coordinateProperties":{},"id":3},"geometry":{"type":"LineString","coordinates":[[-80.07028,42.13374],[-80.07034,42.13372],[-80.07056,42.13364],[-80.07143,42.13332],[-80.07238,42.13296],[-80.07369,42.13248],[-80.07448,42.13217],[-80.07517,42.13193],[-80.07602,42.13162],[-80.07731,42.13113],[-80.07733,42.13112],[-80.07845,42.1307],[-80.07895,42.13054],[-80.0793,42.13041],[-80.07938,42.13038],[-80.08003,42.13014],[-80.08017,42.13009],[-80.08082,42.12984],[-80.08082,42.12984],[-80.0815,42.13086],[-80.08218,42.13186],[-80.08218,42.13186],[-80.08321,42.13148],[-80.08337,42.13142],[-80.08357,42.13135],[-80.08457,42.13099],[-80.08551,42.13064],[-80.08594,42.13048],[-80.08594,42.13048],[-80.08614,42.13079],[-80.08624,42.13094],[-80.08634,42.13109],[-80.08646,42.13126]]}},{"type":"Feature","properties":{"_gpxType":"trk","name":"634-36 E 7th St - 407 State St - 7117 Crest Dr - 890 Broad St - 3137 OH-531 - 1035 Bridge St - 4366 Main Ave - 9 W 49th St - 2034 S Ridge Rd W","coordinateProperties":{},"id":3},"geometry":{"type":"LineString","coordinates":[[-80.08646,42.13126],[-80.08658,42.13143],[-80.08716,42.13238],[-80.08782,42.13334],[-80.0879,42.13346],[-80.088,42.13362],[-80.08821,42.13395],[-80.08828,42.13405],[-80.08838,42.13421],[-80.08848,42.13437],[-80.08853,42.13443],[-80.08869,42.1347],[-80.08893,42.13503],[-80.08897,42.1351],[-80.08909,42.13526],[-80.08909,42.13526],[-80.08923,42.1352],[-80.08927,42.13517],[-80.0893,42.13513],[-80.08932,42.13511],[-80.08933,42.13508],[-80.08934,42.13505],[-80.08933,42.13502],[-80.08938,42.13498],[-80.08941,42.13495],[-80.08942,42.13493],[-80.08942,42.13491],[-80.08943,42.13489],[-80.08943,42.13486],[-80.08943,42.13483],[-80.08942,42.1348],[-80.08941,42.13478],[-80.0894,42.13475],[-80.08937,42.13469],[-80.08937,42.13469],[-80.08926,42.13473],[-80.08923,42.13473],[-80.08919,42.13474],[-80.08916,42.13474],[-80.08912,42.13474],[-80.0891,42.13473],[-80.08909,42.13472],[-80.08907,42.13471],[-80.08906,42.1347],[-80.08901,42.13461],[-80.08899,42.13456],[-80.08898,42.13453],[-80.08898,42.13452],[-80.08898,42.1345],[-80.089,42.13447],[-80.08901,42.13445],[-80.08903,42.13443],[-80.08909,42.13438],[-80.0892,42.13431],[-80.08926,42.13426],[-80.08932,42.13421],[-80.08938,42.13416],[-80.08943,42.13412],[-80.08948,42.13409],[-80.08952,42.13407],[-80.08957,42.13405],[-80.08997,42.13393],[-80.09026,42.13385],[-80.09039,42.13381]]}},{"type":"Feature","properties":{"_gpxType":"trk","name":"634-36 E 7th St - 407 State St - 7117 Crest Dr - 890 Broad St - 3137 OH-531 - 1035 Bridge St - 4366 Main Ave - 9 W 49th St - 2034 S Ridge Rd W","coordinateProperties":{},"id":3},"geometry":{"type":"LineString","coordinates":[[-80.09039,42.13381],[-80.09065,42.13374],[-80.09077,42.13371],[-80.09084,42.13369],[-80.09092,42.13368],[-80.09099,42.13367],[-80.09108,42.13367],[-80.09114,42.13367],[-80.09121,42.13367],[-80.09128,42.13367],[-80.0915,42.13363],[-80.09193,42.13357],[-80.09214,42.13354],[-80.09227,42.13352],[-80.09242,42.13349],[-80.09254,42.13346],[-80.09263,42.13343],[-80.09263,42.13342],[-80.09264,42.13342],[-80.09264,42.13341],[-80.09265,42.1334],[-80.09266,42.13337],[-80.09266,42.13336],[-80.09267,42.13335],[-80.09268,42.13334],[-80.09269,42.13334],[-80.09276,42.13333],[-80.09363,42.1332],[-80.09364,42.1332],[-80.09391,42.13315],[-80.09409,42.13312],[-80.09455,42.13305],[-80.09463,42.13304],[-80.09476,42.133],[-80.09507,42.13292],[-80.09524,42.13286],[-80.09541,42.13281],[-80.09546,42.13279],[-80.09635,42.13246],[-80.09651,42.13239],[-80.09684,42.13224],[-80.09715,42.13205],[-80.09769,42.13173],[-80.09812,42.1315],[-80.09833,42.13136],[-80.09889,42.131],[-80.09903,42.13091],[-80.09921,42.13079],[-80.09925,42.13076],[-80.0995,42.13061],[-80.0996,42.13056],[-80.09986,42.13042],[-80.10035,42.13025],[-80.10044,42.13022],[-80.101,42.13003],[-80.1011,42.13],[-80.1013,42.12993],[-80.10132,42.12992],[-80.10142,42.12989],[-80.10156,42.12986],[-80.10178,42.12981],[-80.10199,42.12976],[-80.10207,42.12973],[-80.10219,42.12967],[-80.10232,42.12962],[-80.1024,42.12957],[-80.10241,42.12957],[-80.10248,42.12954],[-80.10257,42.12951],[-80.10262,42.12949],[-80.10264,42.12948],[-80.10275,42.12946],[-80.10295,42.1294],[-80.10312,42.12935],[-80.1033,42.12929],[-80.10356,42.1292],[-80.10373,42.12914],[-80.10388,42.12909],[-80.10395,42.12907],[-80.10396,42.12907],[-80.10403,42.12904],[-80.1041,42.129],[-80.10426,42.12891],[-80.1044,42.12885],[-80.10455,42.12878],[-80.1046,42.12876],[-80.10468,42.12873],[-80.10476,42.1287],[-80.10489,42.12867],[-80.10505,42.12863],[-80.1051,42.12862],[-80.10543,42.12848],[-80.10545,42.12847],[-80.10567,42.12839],[-80.10574,42.12836],[-80.10589,42.1283],[-80.10596,42.12827],[-80.10618,42.12816],[-80.10627,42.12811],[-80.10635,42.12808],[-80.1065,42.12805],[-80.10666,42.128],[-80.10668,42.12799],[-80.10681,42.12796],[-80.10695,42.12791],[-80.10709,42.12785],[-80.10729,42.12776],[-80.10749,42.12767],[-80.10759,42.12762],[-80.10768,42.12758],[-80.10773,42.12756],[-80.1078,42.12755],[-80.10795,42.12751],[-80.10813,42.12745],[-80.10826,42.12741],[-80.10839,42.12735],[-80.10858,42.12727],[-80.10878,42.12716],[-80.10885,42.12712],[-80.10897,42.12706],[-80.10914,42.12695],[-80.10928,42.12682],[-80.10941,42.1267],[-80.10951,42.1266],[-80.10956,42.12654],[-80.10963,42.12645],[-80.10964,42.12644],[-80.10979,42.12622],[-80.10989,42.12607],[-80.1099,42.12605],[-80.10991,42.12604],[-80.10992,42.12603],[-80.10994,42.12603],[-80.10996,42.12602],[-80.11,42.12601],[-80.11002,42.12601],[-80.11003,42.126],[-80.11005,42.12599],[-80.11015,42.12586],[-80.11015,42.12586],[-80.1103,42.12593],[-80.1103,42.12593],[-80.1104,42.12586],[-80.11046,42.12581],[-80.1105,42.12576],[-80.11052,42.12572],[-80.11054,42.12567],[-80.11055,42.12561],[-80.11057,42.12554],[-80.11057,42.12545],[-80.11057,42.12539],[-80.11057,42.1253],[-80.11057,42.12523],[-80.11058,42.1252],[-80.11059,42.12518],[-80.11062,42.12515],[-80.11067,42.12509],[-80.11069,42.12504],[-80.11071,42.125],[-80.11073,42.12495],[-80.11074,42.12491],[-80.11076,42.12486],[-80.11085,42.12475],[-80.11088,42.12469],[-80.1109,42.12466],[-80.11092,42.12461],[-80.11095,42.12456],[-80.11098,42.12451],[-80.11104,42.12444],[-80.1111,42.12435],[-80.11114,42.1243],[-80.1112,42.1242],[-80.11121,42.12419],[-80.11127,42.1241],[-80.11131,42.12402],[-80.11135,42.12397],[-80.11146,42.12379],[-80.11159,42.12357],[-80.11164,42.1235],[-80.11166,42.12345],[-80.11167,42.12339],[-80.11167,42.12335],[-80.11167,42.12333],[-80.11168,42.12331],[-80.11171,42.12326],[-80.11174,42.1232],[-80.11192,42.12293],[-80.11204,42.12273],[-80.11208,42.12267],[-80.1122,42.12249],[-80.11242,42.12217],[-80.11266,42.1218],[-80.11307,42.12122],[-80.11318,42.12106],[-80.11329,42.1209],[-80.11338,42.12078],[-80.11359,42.12048],[-80.11407,42.11978],[-80.11418,42.11962],[-80.11423,42.11955],[-80.11428,42.11947],[-80.11438,42.1193],[-80.11449,42.11913],[-80.11452,42.11908],[-80.11459,42.11897],[-80.1147,42.11881],[-80.1148,42.11865],[-80.11491,42.11849],[-80.11496,42.11841],[-80.11498,42.1184],[-80.11502,42.11838],[-80.11508,42.11836],[-80.11521,42.11832],[-80.11531,42.11829],[-80.11543,42.11828],[-80.11553,42.11829],[-80.11563,42.1183],[-80.11568,42.11833],[-80.11571,42.11837],[-80.11574,42.11844],[-80.11574,42.11846],[-80.11576,42.11849],[-80.11579,42.11854],[-80.11584,42.11856],[-80.11588,42.11857],[-80.11595,42.11859],[-80.11607,42.1186],[-80.11632,42.11861],[-80.11654,42.11859],[-80.1166,42.11858],[-80.11669,42.11857],[-80.1168,42.11855],[-80.11683,42.11853],[-80.11694,42.1185],[-80.11721,42.11837],[-80.11725,42.11835],[-80.11728,42.11834],[-80.11736,42.11831],[-80.11747,42.11826],[-80.11749,42.11824],[-80.11754,42.1182],[-80.11758,42.1182],[-80.11764,42.1182],[-80.11767,42.1182],[-80.11771,42.11821],[-80.11781,42.11824],[-80.11789,42.11826],[-80.11796,42.11826],[-80.11808,42.11826],[-80.11822,42.11825],[-80.11831,42.11823],[-80.11844,42.11821],[-80.11852,42.11819],[-80.11861,42.11818],[-80.11879,42.11815],[-80.11889,42.11813],[-80.11899,42.11811],[-80.1191,42.11809],[-80.1191,42.11809],[-80.11908,42.11794],[-80.11904,42.11767],[-80.11902,42.11756],[-80.11901,42.11751],[-80.119,42.11744],[-80.119,42.11737],[-80.11899,42.11732],[-80.119,42.11728],[-80.11902,42.11724],[-80.11905,42.11715],[-80.11909,42.11707],[-80.11912,42.11704],[-80.11918,42.11694],[-80.11933,42.11678],[-80.1196,42.11651],[-80.11964,42.11647],[-80.11967,42.11644],[-80.11969,42.11644],[-80.11971,42.11643],[-80.11974,42.11643],[-80.11981,42.11645],[-80.11981,42.11645],[-80.11974,42.11655],[-80.11962,42.11668],[-80.11953,42.11678],[-80.11953,42.11678],[-80.1196,42.11681],[-80.11968,42.11686],[-80.11968,42.11686],[-80.1198,42.11683],[-80.12085,42.1164],[-80.12097,42.11636],[-80.12113,42.11626],[-80.12203,42.11592],[-80.12213,42.11588],[-80.12326,42.11546],[-80.12426,42.11509],[-80.12525,42.11471],[-80.12537,42.11467],[-80.12639,42.11428],[-80.1273,42.11394],[-80.12828,42.11358],[-80.12926,42.11321],[-80.13025,42.11283],[-80.13036,42.11279],[-80.13141,42.11238],[-80.13153,42.11233],[-80.1326,42.11193],[-80.13369,42.11152],[-80.13476,42.11114],[-80.13584,42.11073],[-80.13693,42.11035],[-80.13751,42.11011],[-80.13801,42.10991],[-80.13903,42.10954],[-80.13942,42.10939],[-80.13959,42.10933],[-80.13985,42.10923],[-80.14093,42.10882],[-80.14157,42.10859],[-80.14217,42.10836],[-80.14274,42.10814],[-80.14305,42.10803],[-80.14388,42.1077],[-80.14496,42.10727],[-80.14614,42.10683],[-80.14671,42.10661],[-80.14774,42.10622],[-80.14833,42.106],[-80.14844,42.10595],[-80.14904,42.10573],[-80.14937,42.1056],[-80.14965,42.1055],[-80.14978,42.10545],[-80.15007,42.10534],[-80.15023,42.10528],[-80.15051,42.10518],[-80.15066,42.10512],[-80.15095,42.10501],[-80.15109,42.10496],[-80.15148,42.10482],[-80.15171,42.10473],[-80.15238,42.10448],[-80.15291,42.10427],[-80.15344,42.10406],[-80.15401,42.10385],[-80.15457,42.10364],[-80.15468,42.10361],[-80.1549,42.10355],[-80.1552,42.10342],[-80.1552,42.10342],[-80.15551,42.1034],[-80.1557,42.10338],[-80.15614,42.10334],[-80.15697,42.10327],[-80.15749,42.10323],[-80.15819,42.10316],[-80.15855,42.10313],[-80.15871,42.1031],[-80.15886,42.10307],[-80.15901,42.10304],[-80.16046,42.10253],[-80.16059,42.10249],[-80.1612,42.10228],[-80.16165,42.10211],[-80.16194,42.102],[-80.16208,42.10195],[-80.16211,42.10193],[-80.16221,42.10188],[-80.16245,42.10173],[-80.16295,42.1014],[-80.16328,42.10118],[-80.16335,42.10113],[-80.16346,42.10106],[-80.16353,42.10102],[-80.16364,42.10094],[-80.16376,42.10086],[-80.164,42.1007],[-80.16454,42.10034],[-80.16566,42.09962],[-80.16576,42.09956],[-80.16605,42.09937],[-80.16619,42.09928],[-80.16658,42.09902],[-80.16733,42.09851],[-80.16742,42.09846],[-80.16758,42.09837],[-80.16792,42.09816],[-80.16806,42.09805],[-80.16813,42.09801],[-80.16833,42.09789],[-80.16843,42.09782],[-80.16851,42.09776],[-80.16894,42.09748],[-80.16935,42.09723],[-80.16942,42.09717],[-80.16946,42.09715],[-80.16961,42.09707],[-80.17004,42.09677],[-80.17017,42.09668],[-80.17029,42.09661],[-80.17049,42.09648],[-80.17068,42.09636],[-80.17077,42.09631],[-80.17086,42.09625],[-80.17122,42.09599],[-80.17138,42.0959],[-80.17184,42.09562],[-80.17227,42.09532],[-80.17245,42.0952],[-80.17267,42.09509],[-80.17349,42.09456],[-80.17365,42.09444],[-80.1739,42.09428],[-80.17395,42.09424],[-80.17448,42.09391],[-80.17483,42.0937],[-80.17585,42.09304],[-80.17675,42.0925],[-80.177,42.09234],[-80.17707,42.0923],[-80.17725,42.09219],[-80.17743,42.09207],[-80.17762,42.09195],[-80.17805,42.09168],[-80.1786,42.09135],[-80.17906,42.09106],[-80.17947,42.09081],[-80.17956,42.09075],[-80.1796,42.0907],[-80.18027,42.0903],[-80.18102,42.08985],[-80.18189,42.08931],[-80.18204,42.08921],[-80.18214,42.08915],[-80.18237,42.089],[-80.18298,42.08862],[-80.18346,42.08831],[-80.18358,42.08823],[-80.1845,42.08763],[-80.18509,42.08726],[-80.18526,42.08714],[-80.18541,42.08702],[-80.18554,42.08691],[-80.18561,42.08684],[-80.1857,42.08676],[-80.18585,42.08659],[-80.18585,42.08659],[-80.18634,42.08645],[-80.18735,42.08598],[-80.18835,42.08556],[-80.1891,42.08522],[-80.18944,42.08506],[-80.18972,42.08494],[-80.19034,42.08466],[-80.19051,42.08461],[-80.19075,42.08451],[-80.19103,42.08442],[-80.19134,42.0843],[-80.19149,42.08425],[-80.19162,42.08422],[-80.19163,42.08422],[-80.19173,42.08424],[-80.19183,42.08427],[-80.19184,42.08429],[-80.19205,42.08462],[-80.19216,42.08478],[-80.19226,42.08494],[-80.19236,42.0851],[-80.19263,42.08553],[-80.19268,42.08559],[-80.1928,42.08575],[-80.1928,42.08575],[-80.19346,42.0855],[-80.19353,42.08548],[-80.19428,42.08517],[-80.1948,42.08495],[-80.19565,42.0846],[-80.19576,42.08456],[-80.19586,42.08452],[-80.19607,42.08443],[-80.19696,42.08406],[-80.19713,42.08399],[-80.19776,42.08373],[-80.1984,42.08347],[-80.19845,42.08345],[-80.1986,42.08339],[-80.19861,42.08338],[-80.19902,42.08326],[-80.19905,42.08325],[-80.19906,42.08324],[-80.19977,42.08312],[-80.19984,42.08311],[-80.20001,42.08309],[-80.2002,42.08306],[-80.20048,42.08302],[-80.20091,42.08295],[-80.20185,42.08279],[-80.20192,42.08278],[-80.20209,42.08275],[-80.20233,42.08271],[-80.20236,42.0827],[-80.20255,42.08265],[-80.20301,42.08252],[-80.20323,42.08245],[-80.20346,42.08239],[-80.20369,42.08233],[-80.20369,42.08233],[-80.20364,42.0822],[-80.20358,42.08202],[-80.20352,42.08185],[-80.20347,42.0817],[-80.20347,42.08167],[-80.20344,42.08149],[-80.20341,42.08132],[-80.20341,42.08131],[-80.2034,42.08124],[-80.20337,42.08116],[-80.20334,42.08108],[-80.20327,42.081],[-80.20318,42.08093],[-80.20308,42.08088],[-80.20306,42.08087],[-80.2028,42.08071],[-80.20248,42.08052],[-80.20221,42.08033],[-80.20204,42.08021],[-80.2019,42.08011],[-80.20187,42.08008],[-80.20184,42.08004],[-80.20179,42.07996],[-80.20175,42.07988],[-80.20175,42.0798],[-80.20175,42.07974],[-80.20175,42.07971],[-80.20176,42.07962],[-80.20188,42.07928],[-80.2019,42.07921],[-80.2019,42.0792],[-80.20189,42.07912],[-80.20187,42.07903],[-80.2018,42.07892],[-80.20173,42.07882],[-80.2017,42.07877],[-80.20142,42.07832],[-80.20142,42.07832],[-80.20212,42.07807],[-80.2037,42.07754],[-80.2037,42.07754],[-80.20358,42.07735],[-80.2035,42.07721],[-80.20336,42.07699],[-80.20316,42.07658],[-80.20304,42.07644],[-80.20285,42.07619],[-80.2027,42.07595],[-80.20261,42.07581],[-80.2026,42.07579],[-80.20255,42.07573],[-80.20234,42.0754],[-80.20229,42.07533],[-80.20227,42.0753],[-80.20224,42.07525],[-80.20214,42.07509],[-80.20187,42.07468],[-80.20187,42.07468],[-80.20281,42.07436],[-80.20344,42.07413],[-80.20414,42.07385],[-80.20435,42.07377],[-80.20478,42.0736],[-80.20499,42.07351],[-80.20499,42.07351],[-80.20498,42.07348],[-80.20498,42.07348],[-80.20502,42.07346],[-80.20517,42.07341],[-80.20572,42.07321],[-80.20583,42.07317],[-80.20593,42.07313],[-80.20621,42.07303],[-80.20646,42.07291],[-80.20664,42.07282],[-80.20672,42.07277],[-80.20691,42.07265],[-80.2071,42.07251],[-80.2071,42.07251],[-80.2072,42.07257],[-80.20753,42.07276],[-80.2078,42.07289],[-80.20813,42.07301],[-80.20839,42.07309],[-80.20864,42.07315],[-80.20885,42.07318],[-80.20909,42.07321],[-80.20922,42.07322],[-80.20936,42.07323],[-80.20958,42.07323],[-80.20986,42.07321],[-80.21008,42.07319],[-80.21014,42.07318],[-80.21021,42.07317],[-80.21021,42.07317],[-80.21027,42.07326],[-80.21033,42.07335],[-80.21052,42.07364],[-80.21074,42.07397],[-80.21084,42.0741],[-80.21084,42.0741],[-80.21157,42.07378],[-80.21266,42.07333],[-80.21373,42.07286],[-80.21499,42.0723],[-80.2156,42.07205],[-80.21644,42.07169],[-80.21705,42.07142],[-80.21747,42.07124],[-80.2181,42.07097],[-80.21848,42.0708],[-80.21912,42.07052],[-80.21931,42.07044],[-80.22035,42.06998],[-80.22157,42.06945],[-80.22267,42.06895],[-80.22361,42.0685],[-80.22408,42.06828],[-80.22448,42.06808],[-80.22457,42.06803],[-80.22459,42.06803],[-80.22488,42.06788],[-80.22498,42.06783],[-80.22499,42.06782],[-80.22579,42.06743],[-80.22619,42.06722],[-80.2268,42.06692],[-80.227,42.06682],[-80.2272,42.06671],[-80.2278,42.06641],[-80.2284,42.0661],[-80.2286,42.066],[-80.22879,42.0659],[-80.22884,42.06587],[-80.22899,42.0658],[-80.22919,42.06569],[-80.22959,42.06549],[-80.2296,42.06548],[-80.22979,42.06539],[-80.23039,42.06508],[-80.23119,42.06468],[-80.23159,42.06447],[-80.23179,42.06437],[-80.23239,42.06407],[-80.23239,42.06407],[-80.23224,42.06379],[-80.23221,42.06374],[-80.23204,42.06346],[-80.23153,42.06263],[-80.23079,42.06145],[-80.23073,42.06135],[-80.23061,42.06116],[-80.2305,42.061],[-80.23044,42.0609],[-80.23041,42.06085],[-80.23031,42.06068],[-80.23007,42.06029],[-80.23004,42.06025],[-80.22995,42.06008],[-80.22991,42.06002],[-80.22985,42.05992],[-80.22981,42.05985],[-80.22973,42.05971],[-80.22965,42.05959],[-80.2296,42.05952],[-80.22952,42.05936],[-80.22942,42.05919],[-80.22896,42.05844],[-80.22892,42.05837],[-80.22874,42.05809],[-80.22864,42.05792],[-80.22839,42.05753],[-80.22835,42.05746],[-80.22831,42.05734],[-80.22828,42.05727],[-80.22826,42.0572],[-80.22824,42.05704],[-80.22824,42.05672],[-80.22824,42.05654],[-80.22824,42.05618],[-80.22824,42.05582],[-80.22824,42.05571],[-80.22824,42.05559],[-80.22824,42.05452],[-80.22824,42.05398],[-80.22824,42.05398],[-80.22926,42.05386],[-80.2295,42.05384],[-80.22959,42.05383],[-80.23019,42.05376],[-80.23213,42.05352],[-80.23222,42.05351],[-80.23279,42.05338],[-80.23288,42.05337],[-80.23308,42.05334],[-80.23317,42.05333],[-80.2333,42.05329],[-80.23335,42.05328],[-80.23344,42.05326],[-80.23361,42.0532],[-80.23381,42.05312],[-80.23397,42.05304],[-80.2342,42.05291],[-80.23435,42.05281],[-80.23748,42.05083],[-80.23785,42.05059],[-80.23803,42.05048],[-80.2384,42.05024],[-80.23924,42.04971],[-80.23932,42.04966],[-80.23947,42.04958],[-80.23963,42.04949],[-80.2398,42.04942],[-80.24001,42.04934],[-80.24015,42.04929],[-80.24037,42.04922],[-80.24148,42.04885],[-80.24182,42.04874],[-80.24227,42.04857],[-80.24257,42.04843],[-80.24287,42.04824],[-80.24287,42.04824],[-80.24287,42.04803],[-80.24302,42.04768],[-80.24315,42.04733],[-80.2432,42.04718],[-80.24323,42.047],[-80.24325,42.04688],[-80.24325,42.04675],[-80.24323,42.04669],[-80.24322,42.04664],[-80.24321,42.04662],[-80.24312,42.04648],[-80.24302,42.04632],[-80.24292,42.04615],[-80.24271,42.04583],[-80.2424,42.04534],[-80.2423,42.04517],[-80.24225,42.0451],[-80.24225,42.0451],[-80.24245,42.04499],[-80.24252,42.04496],[-80.2426,42.04491],[-80.24278,42.04481],[-80.24278,42.0448],[-80.24283,42.04477],[-80.24302,42.04466],[-80.24316,42.04458],[-80.24321,42.04455],[-80.24329,42.0445],[-80.24339,42.04443],[-80.24357,42.04431],[-80.24373,42.04421],[-80.24432,42.04385],[-80.2445,42.04373],[-80.24453,42.04371],[-80.24469,42.04362],[-80.24499,42.04343],[-80.2458,42.04293],[-80.24581,42.04293],[-80.246,42.04282],[-80.24603,42.0428],[-80.24619,42.0427],[-80.24627,42.04265],[-80.24638,42.04259],[-80.24687,42.04231],[-80.24694,42.04226],[-80.24709,42.04216],[-80.24722,42.04204],[-80.24729,42.04196],[-80.24733,42.04192],[-80.24739,42.04184],[-80.24741,42.04181],[-80.24743,42.04179],[-80.2475,42.04168],[-80.2476,42.04151],[-80.24762,42.04148],[-80.24771,42.04135],[-80.24781,42.04119],[-80.2479,42.04105],[-80.24803,42.04085],[-80.24822,42.04051],[-80.24823,42.0405],[-80.24852,42.04006],[-80.24884,42.03955],[-80.24899,42.03932],[-80.24929,42.03883],[-80.24951,42.03847],[-80.24993,42.0378],[-80.25003,42.03764],[-80.25015,42.03745],[-80.25023,42.03731],[-80.25054,42.0368],[-80.25054,42.0368],[-80.25127,42.03676],[-80.25175,42.03673],[-80.25313,42.03665],[-80.25313,42.03665],[-80.25278,42.03615],[-80.25261,42.0359],[-80.25261,42.0359],[-80.2532,42.03533],[-80.25349,42.03504],[-80.25393,42.03461],[-80.25448,42.03408],[-80.25478,42.03377],[-80.25524,42.03332],[-80.25579,42.03277],[-80.25582,42.03274],[-80.25612,42.03247],[-80.25649,42.03208],[-80.25662,42.03195],[-80.25679,42.03178],[-80.25682,42.03174],[-80.25686,42.0317],[-80.25703,42.03152],[-80.25711,42.03144],[-80.25744,42.03109],[-80.25771,42.03082],[-80.25781,42.03073],[-80.25795,42.0306],[-80.258,42.03054],[-80.25825,42.0303],[-80.25827,42.03028],[-80.25839,42.03015],[-80.25869,42.02986],[-80.25869,42.02986],[-80.25927,42.02997],[-80.25949,42.03002],[-80.25962,42.03004],[-80.25973,42.03006],[-80.25979,42.03007],[-80.26009,42.03013],[-80.2609,42.03029],[-80.26103,42.03032],[-80.26139,42.03039],[-80.26167,42.03045],[-80.26207,42.03053],[-80.26231,42.03057],[-80.26301,42.03072],[-80.26353,42.03082],[-80.2646,42.03103],[-80.26506,42.03113],[-80.26541,42.03121],[-80.2659,42.03129],[-80.26624,42.03135],[-80.26653,42.0314],[-80.26677,42.03143],[-80.26701,42.03142],[-80.2675,42.03143],[-80.26759,42.03143],[-80.26799,42.0314],[-80.26809,42.03137],[-80.26821,42.03133],[-80.26843,42.03126],[-80.26909,42.03102],[-80.26975,42.03079],[-80.26997,42.03072],[-80.27026,42.03061],[-80.27041,42.03057],[-80.27066,42.0305],[-80.27087,42.03046],[-80.27091,42.03045],[-80.27113,42.03043],[-80.27131,42.03043],[-80.2715,42.03044],[-80.27158,42.03046],[-80.27178,42.03052],[-80.27206,42.03062],[-80.27215,42.03065],[-80.27235,42.03071],[-80.27246,42.03074],[-80.27267,42.03077],[-80.27288,42.03078],[-80.27298,42.03078],[-80.27307,42.03078],[-80.27322,42.03076],[-80.27333,42.03075],[-80.27346,42.03073],[-80.27366,42.0307],[-80.2742,42.03064],[-80.27442,42.03064],[-80.2745,42.03064],[-80.27466,42.03066],[-80.2748,42.03068],[-80.27506,42.03072],[-80.27513,42.03074],[-80.2756,42.03084],[-80.27578,42.03088],[-80.27583,42.03089],[-80.27616,42.03096],[-80.27633,42.03101],[-80.27651,42.03108],[-80.27666,42.03118],[-80.27671,42.03122],[-80.27675,42.03127],[-80.27678,42.03126],[-80.27678,42.03127],[-80.27682,42.03134],[-80.27691,42.0315],[-80.27701,42.03168],[-80.27704,42.03176],[-80.27709,42.03184],[-80.27715,42.0319],[-80.27723,42.03196],[-80.27725,42.03197],[-80.27731,42.03201],[-80.2774,42.03205],[-80.27745,42.03207],[-80.2775,42.03209],[-80.2776,42.03211],[-80.27768,42.03212],[-80.27771,42.03212],[-80.27782,42.03212],[-80.27792,42.03211],[-80.27802,42.03209],[-80.27815,42.03205],[-80.27953,42.0317],[-80.28021,42.03153],[-80.2809,42.03135],[-80.28136,42.03123],[-80.28159,42.03118],[-80.28181,42.03112],[-80.2825,42.03094],[-80.28269,42.03089],[-80.28269,42.03089],[-80.28289,42.03118],[-80.28302,42.03139],[-80.28317,42.03163],[-80.28338,42.03195],[-80.28338,42.03195],[-80.28367,42.03184],[-80.28381,42.03179],[-80.28402,42.0317],[-80.28429,42.0316],[-80.2847,42.03144],[-80.2851,42.0313],[-80.28532,42.03122],[-80.28554,42.03115],[-80.28564,42.03111],[-80.28666,42.03075],[-80.28728,42.03052],[-80.28744,42.03047],[-80.2877,42.03037],[-80.28817,42.0302],[-80.28829,42.03016],[-80.28861,42.03004],[-80.28905,42.02988],[-80.28909,42.02987],[-80.28981,42.02961],[-80.29014,42.02949],[-80.29036,42.02942],[-80.29049,42.02937],[-80.2905,42.02937],[-80.29136,42.02905],[-80.29188,42.02887],[-80.29224,42.02874],[-80.29234,42.0287],[-80.29254,42.02863],[-80.29319,42.0284],[-80.29339,42.02833],[-80.29363,42.02825],[-80.29375,42.0282],[-80.29376,42.0282],[-80.29423,42.02803],[-80.29474,42.02785],[-80.29507,42.02773],[-80.29541,42.02761],[-80.29605,42.02738],[-80.29668,42.02715],[-80.29695,42.02705],[-80.2974,42.02687],[-80.29791,42.02668],[-80.29848,42.02647],[-80.29869,42.02639],[-80.29928,42.02618],[-80.29934,42.02616],[-80.29978,42.026],[-80.29995,42.02594],[-80.3,42.02592],[-80.30009,42.02589],[-80.30088,42.0256],[-80.30109,42.02553],[-80.3017,42.0253],[-80.30195,42.02521],[-80.30212,42.02515],[-80.30217,42.02513],[-80.30245,42.02503],[-80.30319,42.02474],[-80.30326,42.02471],[-80.30346,42.02464],[-80.30405,42.02441],[-80.30411,42.02439],[-80.30451,42.02423],[-80.30491,42.02408],[-80.30497,42.02406],[-80.30556,42.02383],[-80.30587,42.02372],[-80.30621,42.0236],[-80.30627,42.02358],[-80.3067,42.02342],[-80.30708,42.02328],[-80.30714,42.02326],[-80.30729,42.0232],[-80.3073,42.0232],[-80.30801,42.02295],[-80.30817,42.02289],[-80.30823,42.02287],[-80.30838,42.02281],[-80.3091,42.02256],[-80.30926,42.0225],[-80.30947,42.02243],[-80.30991,42.02227],[-80.31012,42.02219],[-80.31018,42.02217],[-80.31056,42.02203],[-80.31078,42.02195],[-80.31095,42.02189],[-80.311,42.02188],[-80.31143,42.02172],[-80.31174,42.02161],[-80.31187,42.02156],[-80.31209,42.02148],[-80.31224,42.02143],[-80.31274,42.02125],[-80.31283,42.02121],[-80.31296,42.02117],[-80.31361,42.02093],[-80.31376,42.02088],[-80.31405,42.02078],[-80.31513,42.02039],[-80.31514,42.02039],[-80.31558,42.02024],[-80.3158,42.02016],[-80.316,42.02009],[-80.31602,42.02008],[-80.31689,42.01978],[-80.31733,42.01963],[-80.31736,42.01961],[-80.31777,42.01947],[-80.31799,42.0194],[-80.31858,42.01919],[-80.31874,42.01913],[-80.31929,42.01894],[-80.31977,42.01877],[-80.31982,42.01875],[-80.32007,42.01862],[-80.32017,42.01859],[-80.32068,42.01841],[-80.32158,42.0181],[-80.32258,42.01775],[-80.32337,42.01746],[-80.3241,42.01721],[-80.32476,42.01698],[-80.32562,42.01668],[-80.3266,42.01633],[-80.32747,42.01603],[-80.32832,42.01574],[-80.32854,42.01566],[-80.32871,42.0156],[-80.32941,42.01535],[-80.32947,42.01533],[-80.33007,42.01512],[-80.3302,42.01507],[-80.33112,42.01475],[-80.33116,42.01474],[-80.3312,42.01473],[-80.33222,42.01437],[-80.33235,42.01432],[-80.3327,42.0142],[-80.33305,42.01407],[-80.33387,42.01379],[-80.33452,42.01357],[-80.33491,42.01343],[-80.33562,42.01319],[-80.33573,42.01315],[-80.33657,42.0129],[-80.33713,42.0127],[-80.33798,42.01239],[-80.338,42.01238],[-80.33909,42.012],[-80.33997,42.0117],[-80.34102,42.01135],[-80.34211,42.01096],[-80.34232,42.01088],[-80.34321,42.01056],[-80.34342,42.01049],[-80.34389,42.01032],[-80.3442,42.01018],[-80.34422,42.01017],[-80.34422,42.01017],[-80.34524,42.01059],[-80.34524,42.01059],[-80.34524,42.01058],[-80.3454,42.01036],[-80.3454,42.01036],[-80.34573,42.01048],[-80.34573,42.01048],[-80.34645,42.00947],[-80.34661,42.00925],[-80.34666,42.00919],[-80.34672,42.00913],[-80.34679,42.00909],[-80.34687,42.00905],[-80.34689,42.00904],[-80.34732,42.00891],[-80.34746,42.00886],[-80.34754,42.00884],[-80.34813,42.00865],[-80.34821,42.00863],[-80.34843,42.00856],[-80.34858,42.00851],[-80.34866,42.00849],[-80.34887,42.00841],[-80.34909,42.00833],[-80.34936,42.00824],[-80.34975,42.0081],[-80.34996,42.00802],[-80.35018,42.00794],[-80.35062,42.00779],[-80.35084,42.00771],[-80.35106,42.00763],[-80.35118,42.00758],[-80.35127,42.00755],[-80.35143,42.00749],[-80.35149,42.00747],[-80.35169,42.00738],[-80.3517,42.00738],[-80.3519,42.00728],[-80.35195,42.00725],[-80.35209,42.00717],[-80.3521,42.00716],[-80.35245,42.00693],[-80.35263,42.00681],[-80.35281,42.00669],[-80.35318,42.00645],[-80.35318,42.00645],[-80.35345,42.00625],[-80.35399,42.00589],[-80.35406,42.00584],[-80.35414,42.00578],[-80.3542,42.00573],[-80.35436,42.00556],[-80.35442,42.00548],[-80.35446,42.0054],[-80.35458,42.00517],[-80.35464,42.00507],[-80.35482,42.00473],[-80.35491,42.00457],[-80.35494,42.00451],[-80.35518,42.00407],[-80.35521,42.00401],[-80.35527,42.0039],[-80.35536,42.00373],[-80.35542,42.00362],[-80.35554,42.0034],[-80.35557,42.00334],[-80.35563,42.00323],[-80.3558,42.00289],[-80.3558,42.00289],[-80.35562,42.00281],[-80.35555,42.00278],[-80.35551,42.00277],[-80.35534,42.00269],[-80.35492,42.00251],[-80.35456,42.00236],[-80.35386,42.00208],[-80.35385,42.00208],[-80.35342,42.00193],[-80.35342,42.00193],[-80.35337,42.00178],[-80.3533,42.00137],[-80.35328,42.0013],[-80.35324,42.00119],[-80.35298,42.00061],[-80.35293,42.00051],[-80.35287,42.00039],[-80.35282,42.00027],[-80.35268,42],[-80.35248,41.9996],[-80.35241,41.99947],[-80.35232,41.99926],[-80.35224,41.99909],[-80.35208,41.99875],[-80.35199,41.99854],[-80.35174,41.99802],[-80.35168,41.9979],[-80.35156,41.99767],[-80.35149,41.99757],[-80.35131,41.99728],[-80.35119,41.99714],[-80.35105,41.99702],[-80.35098,41.99697],[-80.35097,41.99696],[-80.35079,41.99686],[-80.3506,41.99678],[-80.35049,41.99675],[-80.3504,41.99672],[-80.3499,41.99656],[-80.34972,41.9965],[-80.34946,41.99642],[-80.34901,41.99629],[-80.34891,41.99626],[-80.34879,41.99622],[-80.34857,41.99615],[-80.34822,41.99603],[-80.34813,41.996],[-80.34785,41.99589],[-80.34751,41.99578],[-80.3474,41.99576],[-80.3473,41.99573],[-80.3472,41.99568],[-80.34704,41.99558],[-80.34696,41.99552],[-80.34683,41.99534],[-80.34679,41.99519],[-80.34678,41.99503],[-80.34678,41.99496],[-80.34675,41.9946],[-80.34675,41.99449],[-80.34674,41.99444],[-80.34671,41.99361],[-80.34666,41.99325],[-80.34665,41.99316],[-80.34657,41.9927],[-80.34657,41.9927],[-80.3489,41.99222],[-80.35052,41.99188],[-80.35169,41.99164],[-80.35213,41.99154],[-80.35243,41.99148],[-80.35272,41.99141],[-80.35291,41.99136],[-80.353,41.99134],[-80.3534,41.99122],[-80.35366,41.99114],[-80.3538,41.9911],[-80.35394,41.99105],[-80.35413,41.99098],[-80.35432,41.99091],[-80.35474,41.99074],[-80.35474,41.99074],[-80.35483,41.99104],[-80.35485,41.99109],[-80.35489,41.99121],[-80.35493,41.99133],[-80.35499,41.99151],[-80.35501,41.99156],[-80.35506,41.99174],[-80.35516,41.99209],[-80.3553,41.99253],[-80.35535,41.9927],[-80.35541,41.99288],[-80.35551,41.99323],[-80.35562,41.99358],[-80.35573,41.99395],[-80.35589,41.99446],[-80.35589,41.99446],[-80.35623,41.99443],[-80.35661,41.99442],[-80.35663,41.99442],[-80.35782,41.99442],[-80.35853,41.99442],[-80.35877,41.99442],[-80.35901,41.99443],[-80.35949,41.99444],[-80.35974,41.99445],[-80.36046,41.99447],[-80.36053,41.99447],[-80.3607,41.99448],[-80.36095,41.99448],[-80.36191,41.99448],[-80.36216,41.99448],[-80.3624,41.99448],[-80.36276,41.99448],[-80.36285,41.99449],[-80.36306,41.9945],[-80.36372,41.9945],[-80.36444,41.99451],[-80.36469,41.99451],[-80.36493,41.99451],[-80.36565,41.99451],[-80.3659,41.99452],[-80.36615,41.99452],[-80.36653,41.99452],[-80.36675,41.99452],[-80.36697,41.99452],[-80.3671,41.99453],[-80.3673,41.99455],[-80.36758,41.99459],[-80.36782,41.99463],[-80.36853,41.99474],[-80.36875,41.99479],[-80.36876,41.99479],[-80.36896,41.99482],[-80.36918,41.99484],[-80.36941,41.99485],[-80.36948,41.99484],[-80.36953,41.99484],[-80.36996,41.99484],[-80.37021,41.99484],[-80.37117,41.99484],[-80.37166,41.99484],[-80.3719,41.99484],[-80.37359,41.99483],[-80.37384,41.99483],[-80.37408,41.99483],[-80.37432,41.99483],[-80.37505,41.99483],[-80.37515,41.99483],[-80.37529,41.99483],[-80.37553,41.99483],[-80.37626,41.99483],[-80.37674,41.99483],[-80.37771,41.99483],[-80.37819,41.99483],[-80.37843,41.99483],[-80.37868,41.99483],[-80.3794,41.99483],[-80.37989,41.99483],[-80.38013,41.99483],[-80.38037,41.99483],[-80.38085,41.99483],[-80.3811,41.99483],[-80.38134,41.99483],[-80.38158,41.99483],[-80.38182,41.99483],[-80.38243,41.99483],[-80.38303,41.99483],[-80.38327,41.99483],[-80.38424,41.99483],[-80.38448,41.99483],[-80.38521,41.99483],[-80.38666,41.99482],[-80.38763,41.99482],[-80.38793,41.99479],[-80.38842,41.99478],[-80.38866,41.99478],[-80.3889,41.99478],[-80.38914,41.99478],[-80.38963,41.99477],[-80.38986,41.99477],[-80.38987,41.99477],[-80.39084,41.99478],[-80.39156,41.99478],[-80.3918,41.99478],[-80.39204,41.99478],[-80.39205,41.99478],[-80.39326,41.99479],[-80.39373,41.99479],[-80.39398,41.99479],[-80.39488,41.99479],[-80.39495,41.99479],[-80.39518,41.99479],[-80.39519,41.99479],[-80.39638,41.9948],[-80.3964,41.9948],[-80.39661,41.9948],[-80.39664,41.9948],[-80.39711,41.99479],[-80.39713,41.99479],[-80.39739,41.99479],[-80.39772,41.99477],[-80.39844,41.99474],[-80.39868,41.99474],[-80.39965,41.9947],[-80.40038,41.99468],[-80.40086,41.99466],[-80.40106,41.99466],[-80.40328,41.99462],[-80.40352,41.99462],[-80.4054,41.99459],[-80.4054,41.99459],[-80.40539,41.99516],[-80.4054,41.99585],[-80.40541,41.99593],[-80.40542,41.99684],[-80.40542,41.99693],[-80.40544,41.99711],[-80.40547,41.99747],[-80.40548,41.99766],[-80.40549,41.99783],[-80.40552,41.99833],[-80.40556,41.99868],[-80.40556,41.99869],[-80.40558,41.99887],[-80.40559,41.99905],[-80.40563,41.99941],[-80.40565,41.99956],[-80.40565,41.99959],[-80.40566,41.99969],[-80.40574,41.99979],[-80.40574,41.99979],[-80.40614,41.99959],[-80.40673,41.99929],[-80.407,41.99916],[-80.4072,41.99906],[-80.40752,41.9989],[-80.40771,41.99882],[-80.40797,41.99872],[-80.4086,41.99848],[-80.40982,41.99802],[-80.41028,41.99786],[-80.411,41.9976],[-80.41219,41.99716],[-80.41313,41.99681],[-80.41355,41.99666],[-80.41414,41.99645],[-80.41428,41.9964],[-80.41481,41.99621],[-80.41566,41.9959],[-80.4159,41.9958],[-80.41618,41.99571],[-80.41661,41.99555],[-80.41722,41.99533],[-80.41747,41.99523],[-80.41785,41.99509],[-80.41833,41.9949],[-80.41854,41.99481],[-80.41932,41.9945],[-80.4196,41.99438],[-80.41977,41.9943],[-80.42044,41.99399],[-80.42065,41.9939],[-80.42075,41.99385],[-80.42127,41.99362],[-80.4215,41.99352],[-80.42169,41.99344],[-80.4219,41.99335],[-80.42273,41.99299],[-80.42278,41.99296],[-80.42315,41.9928],[-80.42322,41.99277],[-80.42347,41.99266],[-80.42372,41.99255],[-80.42398,41.99243],[-80.42398,41.99243],[-80.42405,41.9926],[-80.42406,41.99261],[-80.42419,41.99294],[-80.42433,41.99328],[-80.42463,41.99403],[-80.42467,41.99409],[-80.42479,41.99423],[-80.4248,41.99424],[-80.42484,41.99428],[-80.42496,41.99437],[-80.42502,41.9944],[-80.42521,41.99453],[-80.42521,41.99453],[-80.42585,41.9945],[-80.42666,41.99447],[-80.42714,41.99445],[-80.42739,41.99444],[-80.42763,41.99443],[-80.42835,41.9944],[-80.42908,41.99437],[-80.43004,41.99433],[-80.43047,41.99432],[-80.43077,41.9943],[-80.43091,41.9943],[-80.43095,41.9943],[-80.43101,41.9943],[-80.43149,41.99428],[-80.43254,41.99425],[-80.43326,41.99421],[-80.43374,41.99419],[-80.43398,41.99418],[-80.43422,41.99417],[-80.43446,41.99416],[-80.43495,41.99414],[-80.43519,41.99413],[-80.43543,41.99412],[-80.43567,41.99411],[-80.43591,41.9941],[-80.43615,41.99409],[-80.4364,41.99408],[-80.43712,41.99404],[-80.43736,41.99403],[-80.4376,41.99402],[-80.43809,41.994],[-80.43881,41.99397],[-80.43929,41.99395],[-80.44009,41.99391],[-80.44064,41.99389],[-80.44113,41.99387],[-80.44137,41.99386],[-80.44154,41.99386],[-80.44161,41.99385],[-80.44209,41.99384],[-80.44306,41.9938],[-80.4433,41.99379],[-80.44378,41.99377],[-80.44487,41.99372],[-80.44535,41.99369],[-80.44632,41.99365],[-80.44656,41.99364],[-80.4468,41.99362],[-80.44728,41.9936],[-80.44777,41.99358],[-80.44801,41.99357],[-80.44846,41.99355],[-80.44873,41.99354],[-80.44897,41.99353],[-80.44921,41.99352],[-80.44945,41.99352],[-80.44969,41.99351],[-80.44993,41.9935],[-80.45042,41.99348],[-80.45077,41.99346],[-80.45125,41.99344],[-80.4515,41.99343],[-80.45198,41.9934],[-80.45246,41.99338],[-80.45319,41.99335],[-80.45343,41.99334],[-80.45367,41.99332],[-80.45391,41.99331],[-80.45415,41.9933],[-80.45439,41.99329],[-80.4544,41.99329],[-80.45488,41.99327],[-80.45512,41.99326],[-80.45536,41.99325],[-80.45584,41.99323],[-80.45609,41.99321],[-80.45633,41.9932],[-80.45657,41.99319],[-80.45681,41.99318],[-80.4574,41.99315],[-80.45794,41.99313],[-80.45818,41.99312],[-80.45819,41.99312],[-80.45866,41.99311],[-80.45963,41.99307],[-80.46011,41.99305],[-80.46036,41.99304],[-80.4606,41.99304],[-80.46132,41.99301],[-80.46181,41.99299],[-80.46205,41.99298],[-80.46229,41.99297],[-80.46253,41.99296],[-80.46301,41.99294],[-80.4632,41.99293],[-80.46353,41.99288],[-80.46427,41.99275],[-80.4644,41.99273],[-80.46452,41.9927],[-80.46456,41.99269],[-80.46468,41.99267],[-80.46561,41.9925],[-80.46634,41.99238],[-80.46649,41.99236],[-80.46656,41.99234],[-80.46679,41.99228],[-80.46686,41.99227],[-80.46726,41.99221],[-80.4675,41.99217],[-80.46775,41.99213],[-80.46797,41.9921],[-80.46845,41.99203],[-80.46871,41.99199],[-80.46916,41.99193],[-80.46919,41.99192],[-80.46963,41.99186],[-80.46986,41.99183],[-80.46987,41.99182],[-80.46991,41.99182],[-80.47058,41.99171],[-80.47062,41.9917],[-80.47082,41.99167],[-80.47129,41.99159],[-80.47134,41.99159],[-80.47224,41.99144],[-80.47229,41.99143],[-80.47247,41.9914],[-80.47271,41.99136],[-80.47294,41.99132],[-80.47348,41.99124],[-80.47354,41.99123],[-80.47365,41.99121],[-80.47396,41.99115],[-80.47412,41.99113],[-80.47419,41.99111],[-80.47431,41.9911],[-80.47436,41.99109],[-80.4746,41.99105],[-80.47463,41.99105],[-80.47467,41.99104],[-80.47474,41.99103],[-80.47504,41.99094],[-80.47506,41.99094],[-80.47513,41.99091],[-80.47535,41.99084],[-80.4755,41.9908],[-80.47595,41.99066],[-80.47617,41.99059],[-80.47625,41.99056],[-80.47647,41.99049],[-80.47662,41.99044],[-80.47684,41.99037],[-80.47692,41.99035],[-80.47702,41.99032],[-80.47706,41.9903],[-80.47728,41.99023],[-80.47737,41.9902],[-80.47751,41.99016],[-80.4776,41.99013],[-80.47782,41.99006],[-80.47795,41.99002],[-80.47804,41.98999],[-80.47817,41.98995],[-80.47849,41.98985],[-80.47862,41.98981],[-80.47906,41.98966],[-80.47912,41.98965],[-80.47917,41.98963],[-80.47928,41.98959],[-80.47961,41.98949],[-80.48006,41.98934],[-80.48017,41.98931],[-80.48028,41.98927],[-80.48039,41.98923],[-80.48064,41.98915],[-80.48069,41.98914],[-80.48084,41.98908],[-80.48102,41.98902],[-80.48106,41.98901],[-80.48122,41.98895],[-80.4813,41.98892],[-80.48175,41.98879],[-80.48197,41.98873],[-80.4821,41.98869],[-80.4822,41.98867],[-80.48243,41.98862],[-80.48266,41.98856],[-80.48336,41.9884],[-80.48364,41.98835],[-80.48415,41.98823],[-80.48438,41.98818],[-80.48457,41.98813],[-80.48461,41.98813],[-80.48508,41.98805],[-80.48555,41.98796],[-80.48568,41.98794],[-80.48625,41.98782],[-80.48648,41.98777],[-80.48695,41.98767],[-80.48718,41.98761],[-80.48739,41.98757],[-80.48764,41.98752],[-80.48788,41.98747],[-80.48834,41.98737],[-80.48881,41.98728],[-80.48904,41.98723],[-80.48951,41.98714],[-80.48964,41.98711],[-80.48998,41.98705],[-80.49045,41.98696],[-80.49092,41.98687],[-80.49115,41.98682],[-80.49138,41.98678],[-80.49162,41.98673],[-80.49185,41.98669],[-80.492,41.98666],[-80.49209,41.98664],[-80.49255,41.98653],[-80.49278,41.98648],[-80.49301,41.98643],[-80.49305,41.98642],[-80.49324,41.98637],[-80.49336,41.98634],[-80.49368,41.98625],[-80.49381,41.98621],[-80.49388,41.98619],[-80.49397,41.98615],[-80.49409,41.98611],[-80.49425,41.98605],[-80.49447,41.98598],[-80.49469,41.9859],[-80.49556,41.98558],[-80.49559,41.98557],[-80.49665,41.9852],[-80.49709,41.98504],[-80.49752,41.98489],[-80.49774,41.98481],[-80.49787,41.98476],[-80.49796,41.98473],[-80.49799,41.98472],[-80.49818,41.98465],[-80.49839,41.98457],[-80.49861,41.98449],[-80.49926,41.98426],[-80.49986,41.98404],[-80.49986,41.98404],[-80.50067,41.98374],[-80.50089,41.98365],[-80.50154,41.98341],[-80.50156,41.9834],[-80.50233,41.9831],[-80.5024,41.98307],[-80.50258,41.983],[-80.50277,41.98291],[-80.50296,41.98282],[-80.50319,41.98268],[-80.50348,41.98249],[-80.50402,41.98211],[-80.50438,41.98187],[-80.50445,41.98183],[-80.50463,41.98171],[-80.50486,41.98155],[-80.50507,41.98142],[-80.50536,41.98126],[-80.50549,41.9812],[-80.50558,41.98115],[-80.50559,41.98115],[-80.50573,41.98108],[-80.50586,41.98102],[-80.50599,41.98097],[-80.50616,41.9809],[-80.5066,41.98073],[-80.50664,41.98072],[-80.50728,41.98049],[-80.5088,41.97997],[-80.50883,41.97996],[-80.50951,41.97973],[-80.50995,41.97958],[-80.51013,41.97952],[-80.51061,41.97935],[-80.51104,41.9792],[-80.5117,41.97897],[-80.51214,41.97882],[-80.51258,41.97867],[-80.51324,41.97844],[-80.51368,41.97829],[-80.51412,41.97814],[-80.51428,41.97809],[-80.51456,41.97799],[-80.51477,41.97791],[-80.51543,41.97768],[-80.51587,41.97753],[-80.51597,41.9775],[-80.51631,41.97737],[-80.51696,41.97714],[-80.51755,41.97692],[-80.51827,41.97667],[-80.51863,41.97655],[-80.519,41.97642],[-80.51936,41.97629],[-80.51949,41.97627],[-80.5198,41.97621],[-80.5204,41.97611],[-80.52075,41.97605],[-80.52098,41.97602],[-80.52122,41.97598],[-80.5213,41.97596],[-80.52145,41.97593],[-80.52194,41.97582],[-80.52214,41.97577],[-80.52237,41.97571],[-80.5226,41.97565],[-80.52269,41.97563],[-80.52281,41.97558],[-80.52282,41.97558],[-80.52292,41.97552],[-80.523,41.97546],[-80.52308,41.9754],[-80.52321,41.97532],[-80.52337,41.97524],[-80.52338,41.97524],[-80.52354,41.97518],[-80.5236,41.97516],[-80.52366,41.97515],[-80.52379,41.97513],[-80.52384,41.97513],[-80.52408,41.97513],[-80.52456,41.97513],[-80.52467,41.97513],[-80.5248,41.97512],[-80.5248,41.97511],[-80.52492,41.97508],[-80.52498,41.97506],[-80.52525,41.97498],[-80.52548,41.97492],[-80.52615,41.97472],[-80.5266,41.97459],[-80.52682,41.97452],[-80.52751,41.97433],[-80.52773,41.97427],[-80.52796,41.9742],[-80.52841,41.97408],[-80.52854,41.97404],[-80.52884,41.97393],[-80.52885,41.97393],[-80.52953,41.97373],[-80.52976,41.97367],[-80.52982,41.97365],[-80.52998,41.9736],[-80.5302,41.97353],[-80.53027,41.97351],[-80.53067,41.97343],[-80.53075,41.97342],[-80.5309,41.97339],[-80.53093,41.97338],[-80.5311,41.97336],[-80.53114,41.97335],[-80.53136,41.97328],[-80.53182,41.97316],[-80.53249,41.97297],[-80.53272,41.9729],[-80.53294,41.97283],[-80.53316,41.97276],[-80.53324,41.97273],[-80.53339,41.97269],[-80.53407,41.97251],[-80.53453,41.97238],[-80.53468,41.97234],[-80.53498,41.97226],[-80.53544,41.97214],[-80.53567,41.97208],[-80.53589,41.97202],[-80.53618,41.97195],[-80.53657,41.97183],[-80.53702,41.9717],[-80.53714,41.97166],[-80.53747,41.97157],[-80.53812,41.97139],[-80.53815,41.97138],[-80.53834,41.97133],[-80.53861,41.97126],[-80.53907,41.97114],[-80.53928,41.97109],[-80.53997,41.97089],[-80.5402,41.97083],[-80.54042,41.97076],[-80.5406,41.97071],[-80.54065,41.97069],[-80.54108,41.97053],[-80.5413,41.97046],[-80.54132,41.97045],[-80.54145,41.97039],[-80.54153,41.97036],[-80.54169,41.97025],[-80.54169,41.97025],[-80.54162,41.97018],[-80.54159,41.97014],[-80.54153,41.97003],[-80.54144,41.96985],[-80.54132,41.96962],[-80.54128,41.96957],[-80.54118,41.96944],[-80.54009,41.96905],[-80.53955,41.96885],[-80.53858,41.96849],[-80.53724,41.96799],[-80.53615,41.96758],[-80.53275,41.9663],[-80.53227,41.96612],[-80.53174,41.96589],[-80.53174,41.96589],[-80.53169,41.96594],[-80.53167,41.96596],[-80.53163,41.96598],[-80.5316,41.96601],[-80.53154,41.96604],[-80.5315,41.96606],[-80.53145,41.96607],[-80.5314,41.96608],[-80.53135,41.96608],[-80.5313,41.96609],[-80.53125,41.96608],[-80.5312,41.96607],[-80.53117,41.96606],[-80.53114,41.96604],[-80.53112,41.96603],[-80.53109,41.96601],[-80.53106,41.96598],[-80.53104,41.96594],[-80.53102,41.9659],[-80.53091,41.96555],[-80.53091,41.96554],[-80.53085,41.96538],[-80.53069,41.96499],[-80.53043,41.96435],[-80.53028,41.964],[-80.53027,41.96398],[-80.53004,41.96342],[-80.53001,41.96332],[-80.53,41.96329],[-80.52995,41.96316],[-80.52992,41.96307],[-80.52991,41.96294],[-80.52991,41.96278],[-80.5299,41.9626],[-80.5299,41.96242],[-80.5299,41.96206],[-80.5299,41.96188],[-80.5299,41.96157],[-80.5299,41.96152],[-80.52989,41.96117],[-80.52988,41.96081],[-80.52988,41.96063],[-80.52987,41.96027],[-80.52987,41.96009],[-80.52987,41.96006],[-80.52986,41.95991],[-80.52985,41.95955],[-80.52984,41.95937],[-80.52984,41.95919],[-80.52983,41.95896],[-80.52982,41.95865],[-80.52982,41.95847],[-80.52981,41.95811],[-80.52981,41.95793],[-80.5298,41.95775],[-80.5298,41.95757],[-80.52979,41.95731],[-80.52978,41.95703],[-80.52977,41.95685],[-80.52977,41.95667],[-80.52976,41.95651],[-80.52976,41.95629],[-80.52972,41.95553],[-80.52972,41.95549],[-80.52967,41.95511],[-80.52965,41.95507],[-80.52961,41.95504],[-80.5296,41.95504],[-80.5296,41.95504],[-80.52983,41.95487],[-80.52996,41.95482],[-80.53009,41.95478],[-80.5303,41.95476],[-80.53033,41.95476],[-80.53051,41.95476],[-80.53069,41.95479],[-80.53094,41.95485],[-80.53118,41.95489],[-80.53147,41.95492],[-80.53159,41.95494],[-80.53172,41.95493],[-80.53183,41.95492],[-80.53226,41.95485],[-80.53256,41.95479],[-80.53293,41.95472],[-80.53401,41.95453],[-80.53462,41.95443],[-80.53542,41.95428],[-80.53585,41.95419],[-80.53612,41.95414],[-80.53615,41.95413],[-80.53633,41.95409],[-80.53644,41.95406],[-80.53655,41.95401],[-80.53657,41.95401],[-80.5367,41.95396],[-80.53695,41.95386],[-80.53713,41.95381],[-80.53724,41.95378],[-80.53741,41.95376],[-80.53761,41.95374],[-80.5377,41.95373],[-80.53914,41.95359],[-80.53968,41.95353],[-80.5401,41.95351],[-80.54059,41.95347],[-80.54081,41.95346],[-80.54121,41.95344],[-80.54131,41.95345],[-80.5414,41.95348],[-80.54153,41.95353],[-80.54153,41.95353],[-80.54158,41.95342],[-80.54159,41.9534],[-80.54162,41.95327],[-80.54163,41.95321],[-80.54164,41.95317],[-80.54166,41.95312],[-80.54172,41.95302],[-80.54179,41.95293],[-80.54179,41.95292],[-80.54188,41.95284],[-80.54194,41.9528],[-80.54212,41.95268],[-80.5422,41.95263],[-80.5425,41.95245],[-80.54269,41.95234],[-80.54288,41.95222],[-80.54292,41.95218],[-80.54295,41.95209],[-80.54294,41.95206],[-80.54296,41.95187],[-80.54297,41.95179],[-80.543,41.95162],[-80.54302,41.95154],[-80.54303,41.95151],[-80.5431,41.95137],[-80.54321,41.95119],[-80.54336,41.95095],[-80.5434,41.95088],[-80.54353,41.95072],[-80.54364,41.95057],[-80.54376,41.95041],[-80.54383,41.95031],[-80.54393,41.95017],[-80.544,41.95003],[-80.54405,41.94992],[-80.54408,41.94987],[-80.54412,41.94975],[-80.54419,41.94954],[-80.54423,41.9494],[-80.54427,41.94926],[-80.54428,41.94922],[-80.54432,41.94904],[-80.54434,41.94893],[-80.54435,41.94887],[-80.54439,41.94869],[-80.54445,41.94833],[-80.54448,41.94815],[-80.5445,41.94805],[-80.54458,41.94773],[-80.54461,41.94762],[-80.54473,41.94719],[-80.54475,41.94713],[-80.5448,41.94695],[-80.54491,41.94655],[-80.54498,41.94628],[-80.54498,41.94625],[-80.54505,41.946],[-80.54507,41.94589],[-80.54514,41.94554],[-80.54518,41.94536],[-80.54522,41.94518],[-80.54528,41.9449],[-80.54532,41.94465],[-80.54536,41.94447],[-80.54542,41.94411],[-80.54547,41.94394],[-80.54549,41.94383],[-80.54551,41.94376],[-80.54556,41.94358],[-80.54563,41.94335],[-80.54573,41.94306],[-80.5459,41.94254],[-80.54597,41.94235],[-80.54602,41.9422],[-80.54603,41.94219],[-80.54613,41.94203],[-80.54614,41.94202],[-80.54632,41.94192],[-80.54632,41.94192],[-80.54643,41.94208],[-80.54651,41.94221],[-80.54654,41.94224],[-80.54665,41.9424],[-80.54675,41.94253],[-80.54677,41.94255],[-80.54685,41.94266],[-80.54688,41.94271],[-80.54699,41.94288],[-80.54712,41.94302],[-80.54713,41.94304],[-80.54724,41.94315],[-80.54726,41.94317],[-80.54745,41.94328],[-80.54747,41.94329],[-80.54762,41.94335],[-80.54766,41.94337],[-80.54777,41.94343],[-80.54787,41.94346],[-80.54803,41.94351],[-80.54833,41.94355],[-80.54836,41.94356],[-80.54858,41.94357],[-80.54882,41.94358],[-80.54886,41.94358],[-80.54906,41.94358],[-80.5493,41.94358],[-80.54933,41.94358],[-80.54954,41.94359],[-80.54978,41.94359],[-80.55017,41.94361],[-80.55049,41.94362],[-80.55099,41.94364],[-80.55107,41.94364],[-80.55112,41.94364],[-80.55132,41.94365],[-80.55139,41.94365],[-80.55156,41.94366],[-80.55167,41.94367],[-80.5518,41.94367],[-80.55233,41.9437],[-80.55233,41.9437],[-80.5524,41.94382],[-80.5524,41.94395],[-80.55239,41.94404],[-80.55239,41.94405],[-80.55238,41.9441],[-80.55234,41.94428],[-80.55234,41.94428],[-80.55231,41.94432],[-80.55228,41.94434],[-80.55219,41.94432],[-80.55203,41.9443],[-80.55193,41.94429],[-80.55188,41.94434],[-80.55185,41.94444],[-80.55185,41.94445],[-80.55181,41.94462],[-80.55177,41.9448],[-80.55177,41.9448],[-80.5521,41.94481],[-80.55249,41.94483],[-80.55321,41.94486],[-80.55393,41.9449],[-80.55393,41.9449],[-80.55391,41.94509],[-80.55385,41.94563],[-80.55384,41.94581],[-80.55382,41.94604],[-80.55381,41.94635],[-80.55376,41.94664],[-80.55375,41.94677],[-80.55373,41.94696],[-80.55371,41.94733],[-80.55364,41.94791],[-80.55364,41.94791],[-80.55495,41.94791],[-80.55495,41.94791],[-80.55491,41.94876],[-80.5549,41.94886],[-80.5549,41.94889],[-80.55487,41.94903],[-80.55487,41.94904],[-80.5547,41.94956],[-80.5547,41.94956],[-80.55565,41.94957],[-80.55582,41.94957],[-80.55582,41.94957],[-80.55575,41.94981],[-80.55567,41.95007],[-80.55563,41.95021],[-80.55562,41.95024],[-80.55561,41.95028],[-80.55558,41.95035],[-80.55555,41.95045],[-80.55553,41.95051],[-80.55552,41.95052],[-80.55541,41.95082],[-80.55541,41.95082],[-80.55526,41.95079],[-80.55502,41.95075],[-80.55466,41.95068],[-80.55455,41.95067],[-80.55454,41.95067],[-80.55442,41.95067],[-80.55431,41.95069],[-80.55345,41.95078],[-80.55341,41.9508],[-80.55337,41.95082],[-80.55337,41.95082],[-80.55337,41.95086],[-80.55333,41.9513],[-80.55329,41.95172],[-80.55323,41.95227],[-80.55316,41.95298],[-80.55313,41.95334],[-80.5531,41.95375],[-80.55298,41.9546],[-80.55294,41.9553],[-80.55291,41.95573],[-80.5529,41.95575],[-80.55287,41.95611],[-80.55278,41.95711],[-80.5527,41.95781],[-80.55266,41.95822],[-80.55253,41.95927],[-80.55244,41.95999],[-80.55232,41.96104],[-80.55226,41.96153],[-80.55226,41.96153],[-80.55349,41.96147]]}},{"type":"Feature","properties":{"_gpxType":"trk","name":"634-36 E 7th St - 407 State St - 7117 Crest Dr - 890 Broad St - 3137 OH-531 - 1035 Bridge St - 4366 Main Ave - 9 W 49th St - 2034 S Ridge Rd W","coordinateProperties":{},"id":3},"geometry":{"type":"LineString","coordinates":[[-80.55349,41.96147],[-80.55359,41.96147],[-80.55487,41.96141],[-80.55487,41.96141],[-80.55491,41.96094],[-80.55492,41.96076],[-80.555,41.95986],[-80.55508,41.959],[-80.55509,41.95882],[-80.55517,41.95792],[-80.55537,41.95583],[-80.55551,41.95445],[-80.55551,41.95445],[-80.55604,41.95447],[-80.55676,41.95451],[-80.557,41.95451],[-80.55725,41.95452],[-80.55804,41.95455],[-80.55857,41.95442],[-80.55885,41.95434],[-80.55974,41.95407],[-80.56072,41.9538],[-80.56094,41.95373],[-80.56099,41.95372],[-80.56144,41.95359],[-80.56212,41.9534],[-80.5628,41.95321],[-80.56316,41.95311],[-80.56316,41.95311],[-80.56333,41.95229],[-80.5634,41.95201],[-80.56368,41.95068],[-80.56379,41.95014],[-80.56381,41.95004],[-80.56384,41.9498],[-80.56384,41.9498],[-80.564,41.94979],[-80.56506,41.94956],[-80.56522,41.94953],[-80.56552,41.94946],[-80.56586,41.94939],[-80.56651,41.94927],[-80.56717,41.94915],[-80.56788,41.94905],[-80.56825,41.94899],[-80.56946,41.9488],[-80.56998,41.94873],[-80.57076,41.94861],[-80.57203,41.94842],[-80.57234,41.94836],[-80.57274,41.94831],[-80.57328,41.94823],[-80.57373,41.94816],[-80.57436,41.94807],[-80.57471,41.94801],[-80.57483,41.94799],[-80.57542,41.94789],[-80.57636,41.94774],[-80.57658,41.9477],[-80.57658,41.9477],[-80.57675,41.94792],[-80.57675,41.94792],[-80.57708,41.94784],[-80.57721,41.94782],[-80.57893,41.94743],[-80.57913,41.94738],[-80.57929,41.94735],[-80.58044,41.94709],[-80.58098,41.94697],[-80.58138,41.94688],[-80.58179,41.94679],[-80.58283,41.94655],[-80.58353,41.94639],[-80.58475,41.9461],[-80.58555,41.94592],[-80.58607,41.94581],[-80.58614,41.94579],[-80.5863,41.94575],[-80.58716,41.94555],[-80.58745,41.94548],[-80.58796,41.94536],[-80.58814,41.94532],[-80.58875,41.94519],[-80.58926,41.94507],[-80.58926,41.94507],[-80.58928,41.94451],[-80.58932,41.94369],[-80.58932,41.94361],[-80.58932,41.94356],[-80.58932,41.94351],[-80.58931,41.94315],[-80.58931,41.94308],[-80.58931,41.94297],[-80.58931,41.94261],[-80.5893,41.94225],[-80.5893,41.94207],[-80.5893,41.94189],[-80.58929,41.94157],[-80.58929,41.94146],[-80.58929,41.94135],[-80.58928,41.94103],[-80.58927,41.94083],[-80.58927,41.94052],[-80.58927,41.94016],[-80.58927,41.94016],[-80.58951,41.94016],[-80.58999,41.94016],[-80.59023,41.94016],[-80.59095,41.94017],[-80.59127,41.94016],[-80.59136,41.94015],[-80.59145,41.94012],[-80.59168,41.94002],[-80.59168,41.94002],[-80.59243,41.93973],[-80.59243,41.93973],[-80.59241,41.93966],[-80.59241,41.93922],[-80.59242,41.93905],[-80.59242,41.93872],[-80.59242,41.93854],[-80.59242,41.93845],[-80.59241,41.938],[-80.59265,41.93707],[-80.59265,41.93707],[-80.59291,41.9371],[-80.59313,41.93712],[-80.59347,41.93716],[-80.59373,41.93719],[-80.59403,41.93723],[-80.59432,41.93728],[-80.59453,41.93731],[-80.59475,41.93734],[-80.59507,41.93738],[-80.59517,41.93739],[-80.59529,41.9374],[-80.59538,41.9374],[-80.59547,41.9374],[-80.59549,41.9374],[-80.59556,41.93739],[-80.59565,41.93738],[-80.59575,41.93737],[-80.59585,41.93735],[-80.59594,41.93733],[-80.59605,41.9373],[-80.59619,41.93725],[-80.59626,41.93722],[-80.59634,41.93717],[-80.59643,41.93712],[-80.59656,41.93704],[-80.59672,41.93694],[-80.59691,41.9368],[-80.59713,41.93666],[-80.59713,41.93666],[-80.59723,41.93674],[-80.59726,41.93676],[-80.59728,41.93677],[-80.5973,41.93679],[-80.59733,41.9368],[-80.59736,41.93682],[-80.5974,41.93683],[-80.59744,41.93684],[-80.59745,41.93685],[-80.5975,41.93686],[-80.59756,41.93686],[-80.59768,41.93688],[-80.59794,41.93688],[-80.59865,41.93688],[-80.59876,41.93688],[-80.59889,41.93687],[-80.59966,41.93686],[-80.6001,41.93685],[-80.60036,41.93684],[-80.60062,41.93684],[-80.60064,41.93684],[-80.60086,41.93685],[-80.6009,41.93685],[-80.60134,41.93685],[-80.60158,41.93685],[-80.6016,41.93685],[-80.60207,41.93685],[-80.60231,41.93685],[-80.60255,41.93685],[-80.60265,41.93685],[-80.60375,41.93684],[-80.60424,41.93684],[-80.60448,41.93684],[-80.60571,41.93684],[-80.60593,41.93684],[-80.60618,41.93684],[-80.60645,41.93684],[-80.60666,41.93684],[-80.6069,41.93685],[-80.60695,41.93685],[-80.60714,41.93685],[-80.60763,41.93685],[-80.60787,41.93684],[-80.60789,41.93684],[-80.60881,41.93685],[-80.60884,41.93685],[-80.61101,41.93683],[-80.6115,41.93683],[-80.61189,41.93683],[-80.61238,41.93683],[-80.6127,41.93683],[-80.61295,41.93683],[-80.61319,41.93683],[-80.61369,41.93683],[-80.61391,41.93683],[-80.61416,41.93683],[-80.61506,41.93682],[-80.61506,41.93682],[-80.61506,41.9368],[-80.61506,41.93644],[-80.61506,41.93617],[-80.61508,41.93554],[-80.61509,41.93536],[-80.6151,41.93497],[-80.61511,41.93464],[-80.61511,41.93446],[-80.61512,41.93423],[-80.61514,41.93357],[-80.61514,41.93338],[-80.61514,41.9332],[-80.61515,41.93302],[-80.61515,41.93274],[-80.61516,41.93248],[-80.61516,41.9323],[-80.6152,41.93086],[-80.6152,41.93068],[-80.61521,41.9305],[-80.61521,41.93032],[-80.61523,41.93011],[-80.61523,41.92978],[-80.61525,41.92936],[-80.61527,41.92896],[-80.61527,41.9285],[-80.61527,41.9284],[-80.61529,41.92796],[-80.6153,41.92774],[-80.61531,41.9276],[-80.61533,41.92724],[-80.61532,41.92707],[-80.61531,41.92697],[-80.61533,41.9261],[-80.61533,41.92598],[-80.61535,41.92544],[-80.61537,41.92508],[-80.61537,41.92496],[-80.61539,41.92443],[-80.61541,41.92369],[-80.61542,41.92317],[-80.61542,41.92301],[-80.61542,41.92299],[-80.61542,41.92292],[-80.61546,41.9221],[-80.61546,41.92191],[-80.61546,41.92185],[-80.61546,41.92155],[-80.61547,41.92119],[-80.6155,41.92029],[-80.6155,41.92011],[-80.61553,41.91921],[-80.61554,41.9187],[-80.61555,41.91847],[-80.61559,41.91805],[-80.61559,41.91805],[-80.61624,41.91781],[-80.61624,41.9178],[-80.61647,41.9177],[-80.61666,41.91761],[-80.61689,41.91747],[-80.61701,41.91739],[-80.61742,41.9171],[-80.61755,41.917],[-80.6188,41.91606],[-80.61896,41.91595],[-80.61938,41.91562],[-80.6198,41.91531],[-80.62039,41.91491],[-80.62053,41.91484],[-80.62081,41.91472],[-80.62082,41.91472],[-80.62109,41.91462],[-80.62137,41.91453],[-80.6217,41.91445],[-80.62211,41.91433],[-80.62307,41.91406],[-80.62325,41.91401],[-80.62376,41.91387],[-80.62506,41.91351],[-80.62591,41.91327],[-80.62622,41.91316],[-80.62628,41.91313],[-80.62643,41.91309],[-80.62656,41.91304],[-80.62683,41.9129],[-80.62694,41.91285],[-80.62714,41.91274],[-80.62753,41.91253],[-80.62829,41.91213],[-80.62856,41.91197],[-80.62879,41.91181],[-80.62882,41.91179],[-80.62903,41.91162],[-80.62913,41.91153],[-80.62963,41.91112],[-80.63006,41.91077],[-80.63012,41.91072],[-80.63063,41.91034],[-80.6308,41.91021],[-80.63093,41.91011],[-80.63116,41.90998],[-80.63123,41.90994],[-80.63137,41.90988],[-80.6315,41.90983],[-80.6318,41.90972],[-80.6326,41.90945],[-80.63308,41.90928],[-80.63348,41.90916],[-80.63383,41.90906],[-80.63404,41.90902],[-80.63429,41.909],[-80.63451,41.909],[-80.63466,41.909],[-80.6347,41.909],[-80.6349,41.90901],[-80.63504,41.90901],[-80.63708,41.90907],[-80.63835,41.9091],[-80.63852,41.9091],[-80.64118,41.90918],[-80.64149,41.90918],[-80.64215,41.90921],[-80.64302,41.90923],[-80.64327,41.90924],[-80.64351,41.90925],[-80.64399,41.90926],[-80.64458,41.90927],[-80.6452,41.90929],[-80.64544,41.9093],[-80.64569,41.90931],[-80.64585,41.90931],[-80.64689,41.90934],[-80.64713,41.90933],[-80.64716,41.90933],[-80.6474,41.9093],[-80.64746,41.90929],[-80.6476,41.90927],[-80.64761,41.90927],[-80.64783,41.90922],[-80.64807,41.90916],[-80.64826,41.9091],[-80.64845,41.90903],[-80.64851,41.909],[-80.64865,41.90894],[-80.64871,41.9089],[-80.6489,41.90879],[-80.64928,41.90858],[-80.65008,41.90812],[-80.6505,41.90788],[-80.65114,41.90751],[-80.65123,41.90747],[-80.65142,41.90736],[-80.65161,41.90725],[-80.65199,41.90702],[-80.65218,41.90691],[-80.65238,41.90681],[-80.65257,41.9067],[-80.6527,41.90662],[-80.65314,41.90637],[-80.65321,41.90633],[-80.65371,41.90603],[-80.65467,41.90549],[-80.65486,41.90538],[-80.65564,41.90495],[-80.65607,41.90471],[-80.65621,41.90462],[-80.65657,41.90441],[-80.65659,41.9044],[-80.65758,41.90385],[-80.65872,41.90319],[-80.65948,41.90275],[-80.6596,41.90268],[-80.65967,41.90264],[-80.66006,41.90243],[-80.6602,41.90235],[-80.66025,41.90232],[-80.66091,41.90193],[-80.66094,41.90191],[-80.66101,41.90187],[-80.6612,41.90176],[-80.66158,41.90154],[-80.66177,41.90143],[-80.66216,41.90121],[-80.66217,41.9012],[-80.66265,41.90092],[-80.66301,41.9007],[-80.66349,41.90043],[-80.66368,41.90033],[-80.6638,41.90026],[-80.66387,41.90022],[-80.66399,41.90015],[-80.66425,41.89999],[-80.66463,41.89977],[-80.6652,41.89944],[-80.66533,41.89937],[-80.6654,41.89933],[-80.6656,41.89922],[-80.66587,41.89909],[-80.666,41.89903],[-80.66615,41.89897],[-80.66621,41.89894],[-80.66748,41.89842],[-80.66769,41.89833],[-80.6679,41.89824],[-80.66795,41.89822],[-80.6681,41.89814],[-80.6683,41.89804],[-80.6684,41.89799],[-80.6685,41.89794],[-80.66863,41.89786],[-80.66868,41.89782],[-80.66886,41.8977],[-80.66902,41.89757],[-80.66906,41.89754],[-80.66934,41.8973],[-80.66949,41.89716],[-80.66962,41.89704],[-80.66965,41.89702],[-80.66981,41.89688],[-80.66996,41.89674],[-80.67011,41.89661],[-80.6702,41.89653],[-80.67042,41.89633],[-80.67085,41.89593],[-80.67088,41.89591],[-80.67103,41.89577],[-80.6715,41.89536],[-80.6718,41.89508],[-80.67196,41.89494],[-80.67211,41.8948],[-80.67227,41.89466],[-80.67237,41.89456],[-80.67242,41.89452],[-80.67257,41.89438],[-80.67273,41.89425],[-80.67288,41.89411],[-80.67303,41.89397],[-80.67319,41.89383],[-80.67334,41.89369],[-80.67356,41.89349],[-80.6738,41.89327],[-80.67396,41.89314],[-80.67411,41.893],[-80.67426,41.89286],[-80.67442,41.89272],[-80.67457,41.89258],[-80.67508,41.89213],[-80.67546,41.89178],[-80.67551,41.89174],[-80.67614,41.89118],[-80.67624,41.89109],[-80.67649,41.89087],[-80.67662,41.89076],[-80.67662,41.89076],[-80.67678,41.8909],[-80.67693,41.89104],[-80.67708,41.89118],[-80.67732,41.8914],[-80.67739,41.89146],[-80.67786,41.89187],[-80.67832,41.89228],[-80.67848,41.89242],[-80.67895,41.89283],[-80.6791,41.89297],[-80.67941,41.89325],[-80.67957,41.89338],[-80.67972,41.89352],[-80.68004,41.89379],[-80.68041,41.89412],[-80.68063,41.89431],[-80.6811,41.89473],[-80.68112,41.89474],[-80.68165,41.89521],[-80.68243,41.8959],[-80.68286,41.89627],[-80.68305,41.89643],[-80.68333,41.89667],[-80.68342,41.89677],[-80.6837,41.89701],[-80.68382,41.89711],[-80.68388,41.89717],[-80.68395,41.89722],[-80.68403,41.8973],[-80.6841,41.89736],[-80.68462,41.89783],[-80.68527,41.89839],[-80.68528,41.8984],[-80.68534,41.89845],[-80.68572,41.89879],[-80.68574,41.89881],[-80.6859,41.89894],[-80.6862,41.89922],[-80.68647,41.89948],[-80.68664,41.89965],[-80.68678,41.8998],[-80.6869,41.89992],[-80.68726,41.90034],[-80.68747,41.90059],[-80.68753,41.90067],[-80.68783,41.90108],[-80.688,41.9013],[-80.68811,41.90144],[-80.68812,41.90146],[-80.68847,41.90193],[-80.68859,41.90209],[-80.68907,41.90273],[-80.68928,41.90301],[-80.68933,41.90308],[-80.68941,41.90319],[-80.68945,41.90324],[-80.68953,41.90335],[-80.68959,41.90344],[-80.68964,41.90354],[-80.68971,41.90368],[-80.68977,41.90383],[-80.68982,41.90398],[-80.68985,41.90408],[-80.68992,41.90426],[-80.69002,41.90454],[-80.69016,41.90495],[-80.69036,41.90547],[-80.69042,41.90564],[-80.69054,41.90597],[-80.69061,41.90614],[-80.69069,41.90634],[-80.69075,41.90648],[-80.6909,41.90683],[-80.69105,41.90717],[-80.69118,41.90749],[-80.69133,41.90783],[-80.69141,41.90802],[-80.69148,41.90819],[-80.69156,41.90837],[-80.69163,41.90854],[-80.69178,41.90888],[-80.69185,41.90905],[-80.69207,41.90956],[-80.69207,41.90956],[-80.69231,41.90953],[-80.69255,41.9095],[-80.69283,41.90944],[-80.69329,41.90935],[-80.69349,41.90931],[-80.69397,41.90922],[-80.6942,41.90919],[-80.69424,41.90919],[-80.69447,41.90917],[-80.69459,41.90917],[-80.6949,41.90917],[-80.69586,41.90919],[-80.69635,41.9092],[-80.69747,41.90921],[-80.69804,41.90922],[-80.69863,41.90922],[-80.69921,41.90924],[-80.69973,41.90925],[-80.70045,41.90926],[-80.70093,41.90927],[-80.70094,41.90927],[-80.70214,41.90929],[-80.70252,41.9093],[-80.70281,41.90929],[-80.70308,41.90927],[-80.70383,41.90918],[-80.70478,41.90907],[-80.70526,41.90901],[-80.7053,41.90901],[-80.70563,41.90899],[-80.70575,41.90898],[-80.70579,41.90898],[-80.70599,41.90899],[-80.70624,41.909],[-80.70672,41.90901],[-80.70696,41.90902],[-80.70744,41.90903],[-80.70768,41.90904],[-80.70793,41.90905],[-80.70817,41.90905],[-80.70827,41.90906],[-80.70841,41.90906],[-80.70865,41.90907],[-80.70889,41.90908],[-80.70913,41.90909],[-80.70937,41.9091],[-80.7094,41.9091],[-80.70962,41.9091],[-80.70997,41.90911],[-80.71058,41.90913],[-80.71082,41.90914],[-80.71107,41.90914],[-80.71131,41.90915],[-80.71154,41.90915],[-80.71178,41.90914],[-80.71179,41.90914],[-80.71201,41.90911],[-80.71203,41.90911],[-80.71221,41.90908],[-80.71241,41.90903],[-80.71271,41.90893],[-80.71296,41.90884],[-80.71353,41.9086],[-80.71377,41.9085],[-80.71396,41.90843],[-80.71414,41.90837],[-80.71418,41.90836],[-80.71439,41.90831],[-80.71441,41.9083],[-80.71464,41.90826],[-80.71489,41.90822],[-80.71512,41.9082],[-80.71585,41.9082],[-80.71609,41.90819],[-80.7161,41.90819],[-80.71633,41.90819],[-80.71654,41.90819],[-80.71657,41.90819],[-80.71681,41.90818],[-80.71688,41.90818],[-80.71695,41.90818],[-80.7173,41.90818],[-80.71754,41.90818],[-80.71756,41.90818],[-80.71778,41.90817],[-80.71802,41.90817],[-80.71805,41.90817],[-80.71875,41.90817],[-80.71918,41.90817],[-80.71923,41.90816],[-80.71947,41.90816],[-80.71971,41.90816],[-80.71995,41.90816],[-80.7202,41.90815],[-80.72068,41.90815],[-80.72132,41.90814],[-80.7214,41.90814],[-80.72189,41.90814],[-80.72238,41.90814],[-80.72285,41.90813],[-80.72334,41.90812],[-80.72382,41.90812],[-80.72575,41.90813],[-80.72575,41.90813],[-80.72574,41.90867],[-80.72574,41.90881],[-80.72574,41.90939],[-80.72574,41.9099],[-80.72574,41.91001],[-80.72574,41.91045],[-80.72574,41.9106],[-80.72574,41.91063],[-80.72574,41.911],[-80.72574,41.91117],[-80.72574,41.91167],[-80.72574,41.91191],[-80.72574,41.91212],[-80.72574,41.91221],[-80.72573,41.91281],[-80.72573,41.91299],[-80.72572,41.91309],[-80.72573,41.91329],[-80.72573,41.91335],[-80.72573,41.91353],[-80.72573,41.91389],[-80.72573,41.91407],[-80.72573,41.9142],[-80.72573,41.91425],[-80.72573,41.91443],[-80.72573,41.91456],[-80.72573,41.91461],[-80.72573,41.91479],[-80.72573,41.91515],[-80.72573,41.91528],[-80.72573,41.91533],[-80.72573,41.91543],[-80.72573,41.91546],[-80.72573,41.91569],[-80.72572,41.91619],[-80.72572,41.91623],[-80.72572,41.91637],[-80.72572,41.91641],[-80.72572,41.91649],[-80.72572,41.91677],[-80.72574,41.91761],[-80.72576,41.91785],[-80.72576,41.91785],[-80.72605,41.91777],[-80.72658,41.91763],[-80.72676,41.91759],[-80.72689,41.91757],[-80.72703,41.91754],[-80.72718,41.91752],[-80.7273,41.9175],[-80.72748,41.91748],[-80.72769,41.91745],[-80.72818,41.9174],[-80.72906,41.91732],[-80.73025,41.9172],[-80.73086,41.91714],[-80.73105,41.91712],[-80.7311,41.91711],[-80.73189,41.91704],[-80.7323,41.917],[-80.73254,41.91698],[-80.73277,41.91695],[-80.73341,41.91689],[-80.73373,41.91686],[-80.73397,41.91683],[-80.73425,41.91681],[-80.73517,41.91671],[-80.73532,41.9167],[-80.73593,41.91664],[-80.73637,41.9166],[-80.73697,41.91654],[-80.73827,41.91641],[-80.73829,41.91641],[-80.73853,41.91639],[-80.73877,41.91637],[-80.73928,41.91632],[-80.73997,41.91627],[-80.74018,41.91625],[-80.74021,41.91625],[-80.74069,41.91621],[-80.74108,41.91618],[-80.74163,41.91614],[-80.74181,41.91612],[-80.74189,41.91612],[-80.74253,41.91607],[-80.74321,41.91601],[-80.74333,41.916],[-80.74343,41.91599],[-80.74357,41.91598],[-80.74377,41.91596],[-80.74549,41.91577],[-80.74598,41.91572],[-80.74735,41.91558],[-80.74836,41.91547],[-80.7486,41.91544],[-80.74905,41.9154],[-80.74965,41.91533],[-80.74979,41.91531],[-80.75003,41.91529],[-80.75009,41.91528],[-80.75051,41.91523],[-80.75097,41.91517],[-80.75099,41.91517],[-80.75122,41.91514],[-80.75146,41.91512],[-80.75153,41.91511],[-80.7517,41.91509],[-80.7519,41.91507],[-80.75194,41.91506],[-80.75237,41.91501],[-80.75262,41.91498],[-80.75272,41.91496],[-80.75289,41.91493],[-80.75312,41.91488],[-80.7533,41.91483],[-80.75344,41.91479],[-80.75376,41.91468],[-80.75397,41.91459],[-80.75419,41.91449],[-80.75445,41.91434],[-80.75448,41.91432]]}},{"type":"Feature","properties":{"_gpxType":"trk","name":"634-36 E 7th St - 407 State St - 7117 Crest Dr - 890 Broad St - 3137 OH-531 - 1035 Bridge St - 4366 Main Ave - 9 W 49th St - 2034 S Ridge Rd W","coordinateProperties":{},"id":3},"geometry":{"type":"LineString","coordinates":[[-80.75448,41.91432],[-80.75473,41.91418],[-80.75474,41.91417],[-80.75534,41.91382],[-80.75545,41.91376],[-80.75602,41.91343],[-80.7561,41.91338],[-80.75639,41.91321],[-80.75752,41.91256],[-80.75783,41.91237],[-80.7579,41.91233],[-80.75809,41.91222],[-80.75885,41.91178],[-80.75906,41.91166],[-80.75924,41.91155],[-80.75945,41.91143],[-80.75973,41.91127],[-80.75985,41.91121],[-80.75995,41.91115],[-80.76012,41.91106],[-80.76027,41.91099],[-80.76044,41.9109],[-80.76075,41.91076],[-80.76076,41.91076],[-80.76108,41.91061],[-80.76136,41.91049],[-80.76193,41.91024],[-80.76294,41.9098],[-80.76374,41.90945],[-80.76449,41.90912],[-80.76477,41.909],[-80.76536,41.90874],[-80.76587,41.90852],[-80.76628,41.90835],[-80.76644,41.90828],[-80.76751,41.90779],[-80.76768,41.90772],[-80.76861,41.9073],[-80.76926,41.90701],[-80.76952,41.9069],[-80.7703,41.90655],[-80.77083,41.90632],[-80.7712,41.90616],[-80.7722,41.90571],[-80.77246,41.90558],[-80.77246,41.90558],[-80.77252,41.90572],[-80.77255,41.90575],[-80.7726,41.90578],[-80.77269,41.90583],[-80.77274,41.90586],[-80.77279,41.90588],[-80.7729,41.9059],[-80.77297,41.90591],[-80.773,41.90592],[-80.77312,41.90592],[-80.77323,41.9059],[-80.77324,41.9059],[-80.77333,41.90587],[-80.77363,41.90573],[-80.77372,41.90568],[-80.77381,41.90566],[-80.77392,41.90565],[-80.77402,41.90565],[-80.77412,41.90566],[-80.7746,41.90554],[-80.77498,41.90536],[-80.77517,41.90523],[-80.77523,41.90518],[-80.77532,41.90509],[-80.77546,41.90494],[-80.77558,41.9048],[-80.77564,41.90475],[-80.77574,41.90469],[-80.77585,41.90464],[-80.77623,41.90455],[-80.77634,41.90451],[-80.77643,41.90446],[-80.77646,41.90444],[-80.77654,41.90438],[-80.7766,41.90431],[-80.77664,41.90423],[-80.77676,41.9038],[-80.77683,41.90354],[-80.77684,41.90344],[-80.77683,41.90331],[-80.77683,41.90331],[-80.77709,41.90317],[-80.77725,41.90309],[-80.77725,41.90309],[-80.77733,41.90311],[-80.77741,41.90313],[-80.77754,41.90313],[-80.77784,41.90313],[-80.77817,41.90314],[-80.77835,41.90314],[-80.77956,41.90313],[-80.78027,41.90314],[-80.78083,41.90315],[-80.78083,41.90315],[-80.78084,41.90274],[-80.78084,41.90256],[-80.78084,41.90238],[-80.78085,41.90213],[-80.78086,41.90184],[-80.78087,41.90163],[-80.78084,41.90148],[-80.78084,41.90148],[-80.78089,41.90149],[-80.78092,41.90149],[-80.78129,41.90143],[-80.78161,41.9014],[-80.78162,41.9014],[-80.78169,41.9014],[-80.78188,41.9014],[-80.78189,41.9014],[-80.78214,41.9014],[-80.78309,41.90146],[-80.78338,41.90147],[-80.78339,41.90147],[-80.78357,41.90147],[-80.78365,41.90147],[-80.78391,41.90146],[-80.78434,41.90142],[-80.78584,41.90128],[-80.78656,41.90122],[-80.78728,41.90117],[-80.78754,41.90115],[-80.78824,41.90109],[-80.78848,41.90108],[-80.78857,41.90107],[-80.78872,41.90105],[-80.78889,41.90103],[-80.78896,41.90103],[-80.78901,41.90102],[-80.78914,41.901],[-80.78947,41.90096],[-80.78991,41.90088],[-80.79016,41.90084],[-80.79021,41.90081],[-80.79023,41.9008],[-80.79027,41.90079],[-80.79032,41.90078],[-80.79089,41.90069],[-80.7909,41.90069],[-80.79149,41.90061],[-80.7916,41.90059],[-80.7917,41.90056],[-80.79183,41.90054],[-80.79198,41.90052],[-80.79206,41.90049],[-80.79214,41.90044],[-80.79219,41.90038],[-80.79225,41.90023],[-80.79226,41.90017],[-80.7923,41.9],[-80.7923,41.9],[-80.79251,41.90004],[-80.79263,41.90007],[-80.79274,41.90009],[-80.79284,41.90011],[-80.79323,41.9002],[-80.7933,41.90021],[-80.79353,41.90026],[-80.79371,41.9003],[-80.79406,41.90038],[-80.79485,41.90055],[-80.79523,41.90062],[-80.79555,41.90067],[-80.79565,41.90068],[-80.7957,41.90069],[-80.79572,41.90069],[-80.7958,41.90071],[-80.79592,41.90074],[-80.79592,41.90074],[-80.79604,41.90081],[-80.79613,41.90086],[-80.79631,41.90098],[-80.79638,41.90102],[-80.79643,41.90104],[-80.79647,41.90106],[-80.79654,41.90107],[-80.7966,41.90108],[-80.79667,41.90108],[-80.79672,41.90107],[-80.79676,41.90106],[-80.79679,41.90105],[-80.79683,41.90102],[-80.79683,41.90102],[-80.79707,41.90083],[-80.79739,41.90057],[-80.79765,41.90038],[-80.79776,41.9003],[-80.79793,41.90019],[-80.79813,41.90011],[-80.79826,41.90006],[-80.79845,41.89999],[-80.7985,41.89997],[-80.79875,41.89986],[-80.79887,41.89981],[-80.79898,41.89976],[-80.79926,41.89964]]}},{"type":"Feature","properties":{"_gpxType":"trk","name":"634-36 E 7th St - 407 State St - 7117 Crest Dr - 890 Broad St - 3137 OH-531 - 1035 Bridge St - 4366 Main Ave - 9 W 49th St - 2034 S Ridge Rd W","coordinateProperties":{},"id":3},"geometry":{"type":"LineString","coordinates":[[-80.79926,41.89964],[-80.79898,41.89976],[-80.79887,41.89981],[-80.79875,41.89986],[-80.7985,41.89997],[-80.7985,41.89997],[-80.79849,41.8999],[-80.79841,41.89982],[-80.79832,41.89975],[-80.79822,41.89969],[-80.79781,41.89943],[-80.79752,41.89924],[-80.79734,41.89912],[-80.79695,41.89887],[-80.79681,41.89878],[-80.7968,41.89876],[-80.7968,41.89876],[-80.79757,41.89833],[-80.79794,41.89813],[-80.79825,41.89795],[-80.79883,41.89762],[-80.79921,41.8974],[-80.7994,41.89729],[-80.79979,41.89707],[-80.80075,41.89652],[-80.80145,41.89611],[-80.80283,41.89534],[-80.8034,41.89501],[-80.80363,41.89488],[-80.80443,41.89441],[-80.80519,41.89402],[-80.80519,41.89402],[-80.80521,41.89392],[-80.80528,41.89343],[-80.80531,41.89322],[-80.80531,41.89318],[-80.80534,41.89296],[-80.8054,41.89256],[-80.8054,41.89252],[-80.80544,41.89228],[-80.80545,41.89216],[-80.80547,41.89201],[-80.8055,41.89187],[-80.80555,41.89148],[-80.80557,41.8914],[-80.80558,41.89133],[-80.80559,41.89119],[-80.80558,41.89106],[-80.8055,41.89068],[-80.80543,41.89043],[-80.80539,41.89029],[-80.8053,41.88993],[-80.80521,41.88958],[-80.80506,41.88905],[-80.80505,41.88902],[-80.80495,41.88863],[-80.80473,41.88779],[-80.80462,41.88746],[-80.80459,41.88741],[-80.80427,41.8866],[-80.80426,41.88658],[-80.80401,41.8861],[-80.80382,41.88574],[-80.8038,41.8857],[-80.80372,41.88558],[-80.80359,41.88541],[-80.80343,41.88524],[-80.80339,41.8852],[-80.80313,41.88498],[-80.80291,41.88481],[-80.80289,41.8848],[-80.80246,41.88448],[-80.80215,41.88425],[-80.80206,41.88415],[-80.80202,41.88411],[-80.80196,41.884],[-80.80196,41.884],[-80.80166,41.88406],[-80.8015,41.88405],[-80.8013,41.88403],[-80.80112,41.88399],[-80.80108,41.88398],[-80.80104,41.88396],[-80.80093,41.88391],[-80.8008,41.88384],[-80.80061,41.88371],[-80.80042,41.88358],[-80.80031,41.8835],[-80.8002,41.88342],[-80.80015,41.88339],[-80.79996,41.88325],[-80.7999,41.88321],[-80.79967,41.88304],[-80.79962,41.88301],[-80.79946,41.88288],[-80.79937,41.88281],[-80.7992,41.88268],[-80.79889,41.88245],[-80.79853,41.8822],[-80.79841,41.88212],[-80.79808,41.88188],[-80.79772,41.88161],[-80.79747,41.88143],[-80.79726,41.88126],[-80.79718,41.88122],[-80.79711,41.88116],[-80.79675,41.88091],[-80.79635,41.88061],[-80.79604,41.88038],[-80.79576,41.88016],[-80.79552,41.87996],[-80.79541,41.87986],[-80.79533,41.8798],[-80.79514,41.87966],[-80.79458,41.87925],[-80.79434,41.87908],[-80.79402,41.87884],[-80.79384,41.8787],[-80.79314,41.87819],[-80.79248,41.8777],[-80.79214,41.87744],[-80.79185,41.87722],[-80.79182,41.8772],[-80.79168,41.87709],[-80.79138,41.87686],[-80.79115,41.8767],[-80.79081,41.87644],[-80.79064,41.87631],[-80.79047,41.87618],[-80.79036,41.8761],[-80.78993,41.87578],[-80.78948,41.87544],[-80.78885,41.87496],[-80.78859,41.87477],[-80.78848,41.87468],[-80.78831,41.87454],[-80.78807,41.87438],[-80.78783,41.87419],[-80.78776,41.87413],[-80.78729,41.87378],[-80.7869,41.87348],[-80.78665,41.8733],[-80.78646,41.87317],[-80.7854,41.87257],[-80.78449,41.87206],[-80.78374,41.87163],[-80.78361,41.87155],[-80.78317,41.8713],[-80.78301,41.87121],[-80.78277,41.87108],[-80.78247,41.87093],[-80.78241,41.87091],[-80.7823,41.87086],[-80.78214,41.87081],[-80.78214,41.87081],[-80.7821,41.87076],[-80.78207,41.87071],[-80.78204,41.87065],[-80.78203,41.8706],[-80.78202,41.87053],[-80.78202,41.87047],[-80.78203,41.87036],[-80.78208,41.87022],[-80.78222,41.86985]]}},{"type":"Feature","properties":{"_gpxType":"trk","name":"634-36 E 7th St - 407 State St - 7117 Crest Dr - 890 Broad St - 3137 OH-531 - 1035 Bridge St - 4366 Main Ave - 9 W 49th St - 2034 S Ridge Rd W","coordinateProperties":{},"id":3},"geometry":{"type":"LineString","coordinates":[[-80.78222,41.86985],[-80.78227,41.86971],[-80.78229,41.86966],[-80.78233,41.86956],[-80.7824,41.86939],[-80.78254,41.86907],[-80.78262,41.86887],[-80.78288,41.86816],[-80.78293,41.868],[-80.78302,41.86781],[-80.78322,41.86726],[-80.7834,41.8668],[-80.78356,41.86638],[-80.78359,41.8663],[-80.78378,41.86579],[-80.78401,41.86518],[-80.78413,41.86487],[-80.78418,41.86474],[-80.78433,41.86437],[-80.78438,41.86423],[-80.78441,41.86415],[-80.78444,41.86407],[-80.7846,41.86366],[-80.78471,41.86341],[-80.78475,41.86324],[-80.78488,41.86292],[-80.78488,41.86292],[-80.78541,41.86304],[-80.78563,41.86308],[-80.78567,41.86307],[-80.78573,41.86306],[-80.78578,41.86303],[-80.78582,41.86299],[-80.78584,41.86293],[-80.78584,41.86293],[-80.78587,41.86286]]}},{"type":"Feature","properties":{"_gpxType":"trk","name":"634-36 E 7th St - 407 State St - 7117 Crest Dr - 890 Broad St - 3137 OH-531 - 1035 Bridge St - 4366 Main Ave - 9 W 49th St - 2034 S Ridge Rd W","coordinateProperties":{},"id":3},"geometry":{"type":"LineString","coordinates":[[-80.78587,41.86286],[-80.786,41.86245],[-80.78616,41.86199],[-80.78635,41.86148],[-80.78635,41.86148],[-80.78683,41.86146],[-80.78707,41.86144],[-80.78749,41.86142],[-80.78756,41.86142],[-80.78851,41.86132],[-80.78855,41.86132],[-80.78874,41.8613],[-80.78892,41.86129],[-80.78895,41.86129],[-80.78903,41.86127],[-80.78922,41.86126],[-80.78946,41.86123],[-80.78959,41.86122],[-80.78979,41.86119],[-80.79091,41.86107],[-80.79125,41.86103],[-80.79246,41.8609],[-80.7927,41.86087],[-80.7927,41.86087],[-80.79432,41.85925],[-80.79438,41.85919],[-80.79453,41.85905],[-80.79482,41.85876],[-80.79497,41.85862],[-80.79541,41.85819],[-80.79556,41.85805],[-80.79571,41.85791],[-80.79616,41.85749],[-80.79631,41.85734],[-80.79646,41.8572],[-80.79689,41.85679],[-80.7972,41.85649],[-80.79765,41.85607],[-80.7978,41.85593],[-80.79795,41.85579],[-80.79824,41.85551],[-80.79856,41.85519],[-80.799,41.85476],[-80.79915,41.85462],[-80.79974,41.85405],[-80.79989,41.85391],[-80.80093,41.85291],[-80.80122,41.85263],[-80.80196,41.85192],[-80.80211,41.85178],[-80.80248,41.85143],[-80.80255,41.85135],[-80.80284,41.85106],[-80.80327,41.85063],[-80.80356,41.85034],[-80.8037,41.85019],[-80.80395,41.84995],[-80.80399,41.8499],[-80.80412,41.84975],[-80.80423,41.84964],[-80.80452,41.8493],[-80.80457,41.84925],[-80.8047,41.8491],[-80.80474,41.84907],[-80.80498,41.84881],[-80.80512,41.84866],[-80.80525,41.84851],[-80.80539,41.84836],[-80.80553,41.84822],[-80.80554,41.84821],[-80.80601,41.84763],[-80.80615,41.84745],[-80.80628,41.84729],[-80.80653,41.84696],[-80.80687,41.84651],[-80.80698,41.84635],[-80.80734,41.84588],[-80.80745,41.84572],[-80.80767,41.8454],[-80.80802,41.84488],[-80.80831,41.84443],[-80.80842,41.84427],[-80.80853,41.84411],[-80.80858,41.84402],[-80.80863,41.84395],[-80.80881,41.84366],[-80.80882,41.84365],[-80.80881,41.84363],[-80.80876,41.84357],[-80.80876,41.84357],[-80.80867,41.84361],[-80.80846,41.8437],[-80.80846,41.8437],[-80.80843,41.84361]]}}]}