{"type":"FeatureCollection","features":[{"type":"Feature","properties":{"_gpxType":"trk","name":"324 E Fords Ferry Rd - Eddyville Blacktop Rd - Hayes Canyon Campground, Eddyville, IL","coordinateProperties":{},"id":30},"geometry":{"type":"LineString","coordinates":[[-88.15826,37.47278],[-88.15831,37.4728],[-88.1584,37.47281],[-88.15844,37.47282],[-88.15845,37.47282],[-88.15851,37.47281],[-88.15857,37.47278],[-88.15864,37.47274],[-88.15868,37.47271],[-88.15895,37.47248],[-88.15896,37.47247],[-88.15918,37.47229],[-88.1594,37.47208],[-88.15948,37.47196],[-88.15951,37.47185],[-88.1595,37.47177],[-88.15948,37.47165],[-88.15941,37.47138],[-88.1594,37.47134],[-88.15932,37.4711],[-88.15921,37.47089],[-88.15909,37.47071],[-88.15903,37.47063],[-88.15887,37.4704],[-88.15881,37.47022],[-88.15881,37.47022],[-88.15897,37.47016],[-88.15901,37.47014],[-88.15907,37.47012],[-88.15916,37.47007],[-88.1592,37.47005],[-88.15926,37.47],[-88.15935,37.46992],[-88.15946,37.46982],[-88.1595,37.46978],[-88.15965,37.46964],[-88.15965,37.46963],[-88.15979,37.4695],[-88.15982,37.46947],[-88.15987,37.4694],[-88.1599,37.46934],[-88.15991,37.46931],[-88.15996,37.46924],[-88.15997,37.46918],[-88.15997,37.46915],[-88.16,37.46906],[-88.16,37.46895],[-88.15997,37.46882],[-88.15996,37.46874],[-88.15993,37.46864],[-88.15993,37.46851],[-88.15993,37.46851],[-88.16033,37.46835],[-88.16044,37.46831],[-88.16107,37.46803],[-88.16123,37.46795],[-88.16128,37.46793],[-88.16169,37.4677],[-88.16183,37.46764],[-88.16194,37.46758],[-88.1621,37.46752],[-88.16227,37.46747],[-88.16244,37.46743],[-88.16262,37.4674],[-88.16279,37.46739],[-88.1631,37.4674],[-88.16326,37.4674],[-88.16355,37.46742],[-88.16417,37.46747],[-88.16436,37.4675],[-88.16444,37.46754],[-88.16444,37.46754],[-88.1645,37.46759],[-88.16453,37.46766],[-88.16454,37.46787],[-88.16454,37.468],[-88.16453,37.4686],[-88.16453,37.46888],[-88.16453,37.46924],[-88.16453,37.46924],[-88.16475,37.46925],[-88.16498,37.46925],[-88.16521,37.46925],[-88.16538,37.46926],[-88.16577,37.46926],[-88.1662,37.46928],[-88.16639,37.46928],[-88.16685,37.46929],[-88.16704,37.46928],[-88.16713,37.46929],[-88.16747,37.4693],[-88.16766,37.4693],[-88.16789,37.4693],[-88.16812,37.46931],[-88.16845,37.46931],[-88.16857,37.46932],[-88.16879,37.46934],[-88.16896,37.46936],[-88.16908,37.46936],[-88.16908,37.46936],[-88.1693,37.46937],[-88.16976,37.4694],[-88.16997,37.46941],[-88.16999,37.46941],[-88.17021,37.46941],[-88.17042,37.46941],[-88.17044,37.46941],[-88.17045,37.46941],[-88.1706,37.46939],[-88.17069,37.46936],[-88.17077,37.46932],[-88.17094,37.46923],[-88.17105,37.46918],[-88.17113,37.46915],[-88.17153,37.46902],[-88.17162,37.469],[-88.17171,37.46899],[-88.17188,37.46898],[-88.17233,37.46899],[-88.17255,37.46899],[-88.17296,37.46899],[-88.17305,37.46899],[-88.17315,37.469],[-88.17329,37.46901],[-88.17341,37.46901],[-88.17401,37.469],[-88.17418,37.46899],[-88.17435,37.46897],[-88.17463,37.4689],[-88.17477,37.46887],[-88.17485,37.46884],[-88.17505,37.46877],[-88.17526,37.4687],[-88.17568,37.46855],[-88.17609,37.46841],[-88.17622,37.46837],[-88.17631,37.46835],[-88.17639,37.46833],[-88.17653,37.46832],[-88.17657,37.46831],[-88.1768,37.46831],[-88.17706,37.4683],[-88.17729,37.4683],[-88.17738,37.4683],[-88.17751,37.46829],[-88.17774,37.46828],[-88.17797,37.46827],[-88.17819,37.46826],[-88.17829,37.46825],[-88.17842,37.46824],[-88.17887,37.46821],[-88.179,37.4682],[-88.1791,37.4682],[-88.17977,37.46815],[-88.17982,37.46815],[-88.17989,37.46813],[-88.17996,37.46813],[-88.18006,37.46813],[-88.18007,37.46813],[-88.18019,37.46813],[-88.18029,37.46812],[-88.18041,37.46811],[-88.18052,37.46811],[-88.18064,37.4681],[-88.18075,37.4681],[-88.18087,37.46809],[-88.181,37.46808],[-88.18116,37.46806],[-88.18131,37.46801],[-88.18139,37.46796],[-88.18144,37.46793],[-88.18148,37.4679],[-88.18155,37.46784],[-88.18163,37.46776],[-88.18178,37.46763],[-88.18185,37.46757],[-88.18194,37.4675],[-88.18211,37.46735],[-88.18266,37.46691],[-88.1829,37.46673],[-88.18297,37.46668],[-88.18302,37.46664],[-88.18306,37.46661],[-88.18313,37.46655],[-88.18331,37.46639],[-88.18338,37.46635],[-88.18345,37.46631],[-88.18346,37.4663],[-88.18358,37.46627],[-88.18361,37.46626],[-88.18379,37.46621],[-88.1838,37.4662],[-88.18389,37.46619],[-88.18401,37.46618],[-88.18412,37.46616],[-88.18413,37.46616],[-88.18424,37.46615],[-88.18434,37.46614],[-88.18446,37.46612],[-88.18469,37.4661],[-88.1849,37.46606],[-88.18501,37.46604],[-88.18513,37.46602],[-88.18534,37.46597],[-88.18556,37.46592],[-88.18574,37.46588],[-88.18578,37.46588],[-88.18601,37.46585],[-88.18606,37.46585],[-88.18623,37.46584],[-88.1864,37.46583],[-88.18646,37.46583],[-88.18668,37.46583],[-88.18671,37.46583],[-88.18691,37.46582],[-88.18709,37.46582],[-88.18714,37.46581],[-88.18734,37.4658],[-88.18736,37.4658],[-88.18762,37.46576],[-88.18803,37.46571],[-88.18806,37.46571],[-88.18826,37.4657],[-88.18844,37.4657],[-88.1888,37.46586],[-88.18882,37.46587],[-88.18937,37.4661],[-88.18975,37.46627],[-88.18981,37.46631],[-88.19,37.46641],[-88.19016,37.46647],[-88.1902,37.46649],[-88.19067,37.46678],[-88.19072,37.46681],[-88.19101,37.46696],[-88.19125,37.46705],[-88.19146,37.46712],[-88.19169,37.46714],[-88.19186,37.46712],[-88.1919,37.4671],[-88.19197,37.46707],[-88.19224,37.46689],[-88.19226,37.46688],[-88.19243,37.46676],[-88.19257,37.46669],[-88.19279,37.4666],[-88.19283,37.4666],[-88.19305,37.46657],[-88.19327,37.46654],[-88.19328,37.46654],[-88.19371,37.46648],[-88.19372,37.46648],[-88.19435,37.46636],[-88.19438,37.46635],[-88.19505,37.46627],[-88.19506,37.46627],[-88.19528,37.46626],[-88.19548,37.46625],[-88.19551,37.46625],[-88.19596,37.46626],[-88.19642,37.46626],[-88.19664,37.46627],[-88.1968,37.46627],[-88.19687,37.46627],[-88.19709,37.46627],[-88.19732,37.46627],[-88.19741,37.46627],[-88.19755,37.46627],[-88.198,37.46627],[-88.19806,37.46627],[-88.19823,37.46628],[-88.19833,37.46628],[-88.19846,37.46627],[-88.19853,37.46628],[-88.19888,37.46628],[-88.19889,37.46628],[-88.19912,37.46628],[-88.19932,37.46628],[-88.19934,37.46628],[-88.19957,37.46628],[-88.1998,37.46628],[-88.20025,37.46629],[-88.20048,37.46629],[-88.2007,37.4663],[-88.20093,37.4663],[-88.20105,37.4663],[-88.20116,37.4663],[-88.20138,37.46631],[-88.20161,37.46631],[-88.20206,37.46631],[-88.20207,37.46631],[-88.20229,37.46632],[-88.20274,37.46632],[-88.20297,37.46632],[-88.20342,37.46633],[-88.20354,37.46633],[-88.20365,37.46633],[-88.20388,37.46634],[-88.20396,37.46634],[-88.20433,37.4663],[-88.20446,37.46629],[-88.20455,37.46629],[-88.20478,37.46627],[-88.205,37.46625],[-88.20501,37.46625],[-88.20546,37.46624],[-88.20636,37.46625],[-88.20651,37.46626],[-88.20727,37.46627],[-88.2075,37.46628],[-88.20753,37.46628],[-88.20772,37.46627],[-88.20818,37.46627],[-88.2084,37.46627],[-88.20874,37.46626],[-88.20901,37.46628],[-88.20908,37.46628],[-88.20931,37.46629],[-88.20953,37.46629],[-88.20976,37.46629],[-88.21021,37.4663],[-88.21067,37.4663],[-88.2107,37.4663],[-88.21089,37.46631],[-88.21112,37.46632],[-88.21115,37.46633],[-88.21134,37.46636],[-88.21156,37.4664],[-88.21159,37.4664],[-88.21177,37.46647],[-88.21198,37.46654],[-88.21219,37.4666],[-88.2124,37.46667],[-88.21241,37.46668],[-88.2126,37.46675],[-88.21281,37.46683],[-88.21301,37.46691],[-88.21321,37.46699],[-88.21341,37.46708],[-88.21382,37.46724],[-88.21401,37.4673],[-88.21417,37.46736],[-88.21422,37.46738],[-88.21434,37.46741],[-88.21444,37.46743],[-88.21452,37.46744],[-88.21461,37.46745],[-88.21492,37.46744],[-88.21505,37.46744],[-88.21514,37.46743],[-88.21537,37.46741],[-88.2155,37.4674],[-88.21559,37.4674],[-88.2156,37.4674],[-88.21582,37.4674],[-88.21603,37.46741],[-88.21605,37.46741],[-88.21628,37.46742],[-88.2164,37.46743],[-88.2165,37.46744],[-88.21695,37.46747],[-88.21702,37.46748],[-88.2172,37.46747],[-88.21738,37.46745],[-88.2174,37.46744],[-88.21755,37.4674],[-88.2176,37.46737],[-88.2177,37.46732],[-88.21783,37.46723],[-88.21792,37.46712],[-88.21793,37.46711],[-88.21801,37.46698],[-88.21802,37.46696],[-88.21807,37.46685],[-88.21816,37.46644],[-88.2182,37.46626],[-88.21826,37.46601],[-88.21831,37.46587],[-88.21839,37.46574],[-88.21851,37.46563],[-88.21855,37.46562],[-88.21866,37.46556],[-88.21883,37.46552],[-88.21897,37.4655],[-88.21901,37.46549],[-88.21919,37.46547],[-88.21928,37.46546],[-88.21942,37.46545],[-88.21948,37.46545],[-88.21965,37.46543],[-88.21972,37.46543],[-88.21987,37.46542],[-88.2201,37.46541],[-88.22046,37.46539],[-88.22053,37.46539],[-88.22068,37.46538],[-88.22086,37.46537],[-88.22091,37.46537],[-88.22099,37.46537],[-88.22112,37.46538],[-88.22113,37.46538],[-88.22125,37.46541],[-88.22134,37.46544],[-88.22138,37.46546],[-88.22154,37.46552],[-88.22155,37.46553],[-88.22169,37.4656],[-88.22174,37.46562],[-88.22183,37.46568],[-88.22217,37.46591],[-88.22225,37.46597],[-88.22241,37.4661],[-88.22248,37.46616],[-88.22284,37.46652],[-88.22304,37.46672],[-88.22331,37.46701],[-88.2235,37.46725],[-88.22363,37.4674],[-88.22375,37.46755],[-88.22387,37.46767],[-88.224,37.46776],[-88.22408,37.4678],[-88.22416,37.46783],[-88.22428,37.46787],[-88.22433,37.46788],[-88.22451,37.4679],[-88.22465,37.46792],[-88.22518,37.46798],[-88.2254,37.46801],[-88.22563,37.46803],[-88.22585,37.46806],[-88.2261,37.46809],[-88.2263,37.4681],[-88.22654,37.46812],[-88.22698,37.46815],[-88.22699,37.46815],[-88.2272,37.46813],[-88.22743,37.46811],[-88.22744,37.46811],[-88.22765,37.46808],[-88.22788,37.46805],[-88.2281,37.46802],[-88.22833,37.46799],[-88.22855,37.46796],[-88.22877,37.46792],[-88.22899,37.4679],[-88.22921,37.46788],[-88.22922,37.46788],[-88.22945,37.46788],[-88.22966,37.46788],[-88.22967,37.46788],[-88.22984,37.46787],[-88.23001,37.46785],[-88.23019,37.46782],[-88.23033,37.46777],[-88.2306,37.46768],[-88.23074,37.46761],[-88.23075,37.46761],[-88.23091,37.4675],[-88.23108,37.46738],[-88.23125,37.46726],[-88.23143,37.46715],[-88.23143,37.46714],[-88.2316,37.46703],[-88.23177,37.46691],[-88.23192,37.46682],[-88.23195,37.46681],[-88.23215,37.46672],[-88.23235,37.46663],[-88.23254,37.46654],[-88.23274,37.46645],[-88.23294,37.46636],[-88.23313,37.46627],[-88.23333,37.46619],[-88.23347,37.46612],[-88.23353,37.46611],[-88.23375,37.46606],[-88.23391,37.46602],[-88.23397,37.466],[-88.2344,37.46589],[-88.23461,37.46584],[-88.23475,37.4658],[-88.23483,37.46578],[-88.23504,37.46572],[-88.23525,37.46565],[-88.23547,37.46559],[-88.23556,37.46557],[-88.23567,37.46551],[-88.23577,37.46546],[-88.23577,37.46546],[-88.2359,37.46543],[-88.23603,37.46539],[-88.23651,37.4652],[-88.23671,37.46512],[-88.23672,37.46511],[-88.23691,37.46503],[-88.23711,37.46494],[-88.2375,37.46476],[-88.23752,37.46476],[-88.2381,37.4645],[-88.23829,37.46441],[-88.2383,37.46441],[-88.23845,37.46436],[-88.23851,37.46435],[-88.2387,37.4643],[-88.23872,37.46429],[-88.23894,37.46424],[-88.23904,37.46422],[-88.23937,37.46414],[-88.23981,37.46404],[-88.23989,37.46402],[-88.24024,37.46394],[-88.24046,37.46388],[-88.24068,37.46383],[-88.24073,37.46382],[-88.24116,37.46376],[-88.24135,37.46375],[-88.24157,37.46374],[-88.24161,37.46374],[-88.24179,37.46376],[-88.2418,37.46376],[-88.24198,37.46379],[-88.24212,37.46383],[-88.24245,37.46391],[-88.24288,37.46403],[-88.24295,37.46405],[-88.24315,37.46409],[-88.24332,37.46413],[-88.24354,37.46417],[-88.24362,37.46419],[-88.24452,37.46437],[-88.24463,37.4644],[-88.24538,37.46457],[-88.24623,37.46481],[-88.24676,37.46501],[-88.24704,37.46511],[-88.24736,37.46526],[-88.24743,37.46529],[-88.24781,37.46548],[-88.24794,37.46554],[-88.24811,37.46563],[-88.24813,37.46564],[-88.24835,37.46576],[-88.2485,37.46584],[-88.24869,37.46594],[-88.24888,37.46604],[-88.24901,37.46611],[-88.24906,37.46615],[-88.24943,37.46636],[-88.24961,37.46647],[-88.24973,37.46655],[-88.24979,37.46657],[-88.25018,37.46675],[-88.25038,37.46685],[-88.25051,37.46691],[-88.25058,37.46693],[-88.25067,37.46697],[-88.25072,37.46699],[-88.25083,37.46703],[-88.25089,37.46705],[-88.251,37.46707],[-88.25108,37.46708],[-88.25144,37.46707],[-88.25153,37.46707],[-88.25197,37.46701],[-88.25226,37.4669],[-88.25246,37.46682],[-88.2527,37.46669],[-88.25283,37.46661],[-88.25296,37.46654],[-88.2532,37.4664],[-88.25339,37.4663],[-88.25358,37.4662],[-88.25376,37.4661],[-88.25384,37.46607],[-88.25397,37.46603],[-88.254,37.46602],[-88.25418,37.466],[-88.25419,37.466],[-88.25442,37.466],[-88.25505,37.466],[-88.2551,37.466],[-88.25523,37.46599],[-88.25533,37.46598],[-88.25555,37.46596],[-88.25567,37.46594],[-88.25577,37.46592],[-88.25621,37.46584],[-88.25654,37.46578],[-88.25698,37.46571],[-88.25732,37.46566],[-88.25751,37.46564],[-88.25755,37.46563],[-88.25784,37.46559],[-88.25844,37.46553],[-88.25848,37.46552],[-88.25867,37.4655],[-88.25889,37.46548],[-88.25934,37.46542],[-88.25946,37.46541],[-88.25956,37.4654],[-88.25979,37.46538],[-88.25982,37.46538],[-88.26002,37.46538],[-88.26027,37.46538],[-88.26046,37.46543],[-88.26054,37.46545],[-88.26066,37.46551],[-88.2607,37.46552],[-88.26085,37.4656],[-88.26104,37.46571],[-88.26121,37.46581],[-88.26155,37.46606],[-88.26156,37.46607],[-88.26171,37.46618],[-88.26187,37.4663],[-88.2622,37.46652],[-88.26242,37.46663],[-88.26247,37.46664],[-88.26266,37.4667],[-88.26292,37.46675],[-88.26313,37.46677],[-88.26318,37.46678],[-88.26335,37.46678],[-88.26336,37.46678],[-88.26358,37.46678],[-88.26381,37.46677],[-88.26422,37.46676],[-88.26449,37.46675],[-88.26472,37.46674],[-88.26484,37.46674],[-88.26539,37.46671],[-88.26567,37.46671],[-88.26577,37.46671],[-88.26612,37.46669],[-88.26634,37.46668],[-88.26657,37.46667],[-88.26699,37.46664],[-88.26722,37.46662],[-88.26732,37.46661],[-88.26744,37.4666],[-88.26766,37.46657],[-88.2682,37.4665],[-88.26833,37.46648],[-88.26856,37.46645],[-88.26878,37.46642],[-88.269,37.46638],[-88.26922,37.46635],[-88.26945,37.46632],[-88.26951,37.46631],[-88.27034,37.46618],[-88.27056,37.46615],[-88.27084,37.46611],[-88.27145,37.46602],[-88.27168,37.46599],[-88.27172,37.46599],[-88.2719,37.46598],[-88.27217,37.46596],[-88.27235,37.46599],[-88.27261,37.46602],[-88.27286,37.46609],[-88.27289,37.4661],[-88.273,37.46614],[-88.27321,37.46621],[-88.27346,37.4663],[-88.2736,37.46635],[-88.27389,37.46642],[-88.27404,37.46645],[-88.27411,37.46646],[-88.27452,37.46649],[-88.27456,37.4665],[-88.27479,37.46651],[-88.27492,37.46652],[-88.27501,37.46652],[-88.27524,37.46652],[-88.27547,37.46653],[-88.27569,37.46653],[-88.27592,37.46653],[-88.2766,37.46653],[-88.27681,37.46653],[-88.27683,37.46653],[-88.27705,37.46653],[-88.27751,37.46653],[-88.27841,37.46652],[-88.27864,37.46652],[-88.27905,37.46652],[-88.27987,37.46651],[-88.28055,37.4665],[-88.28084,37.4665],[-88.28101,37.4665],[-88.28123,37.4665],[-88.28146,37.46651],[-88.28169,37.46651],[-88.28174,37.46652],[-88.2819,37.46656],[-88.28212,37.46663],[-88.28254,37.46675],[-88.28257,37.46676],[-88.28275,37.46682],[-88.28295,37.4669],[-88.28297,37.46691],[-88.28316,37.46698],[-88.28336,37.46706],[-88.28357,37.46713],[-88.2836,37.46715],[-88.28369,37.46718],[-88.28378,37.46719],[-88.28387,37.46721],[-88.284,37.46722],[-88.28441,37.46724],[-88.28468,37.46727],[-88.28476,37.46729],[-88.28489,37.46733],[-88.28493,37.46734],[-88.28508,37.46741],[-88.28509,37.46741],[-88.28515,37.46746],[-88.28528,37.46755],[-88.28539,37.46766],[-88.2854,37.46767],[-88.28559,37.46798],[-88.2856,37.468],[-88.28563,37.46811],[-88.28564,37.46817],[-88.28565,37.46826],[-88.28566,37.46853],[-88.28566,37.46871],[-88.28566,37.46889],[-88.28566,37.46907],[-88.28567,37.46943],[-88.28567,37.46961],[-88.28567,37.46979],[-88.28567,37.46997],[-88.28567,37.47015],[-88.28567,37.47033],[-88.28568,37.47051],[-88.28568,37.47055],[-88.28568,37.47069],[-88.28571,37.47084],[-88.28578,37.47098],[-88.28582,37.47103],[-88.28594,37.47119],[-88.28594,37.47119],[-88.2864,37.47087],[-88.2868,37.4706],[-88.28697,37.47049],[-88.28787,37.46989],[-88.28797,37.46981],[-88.28814,37.4697],[-88.28839,37.46952],[-88.28853,37.46942],[-88.28868,37.46929],[-88.28886,37.46915],[-88.28912,37.46892],[-88.2893,37.46875],[-88.28946,37.46859],[-88.28946,37.46859],[-88.28955,37.46867],[-88.28958,37.46868],[-88.2896,37.46869],[-88.28962,37.4687],[-88.28966,37.46871],[-88.28971,37.46872],[-88.28981,37.46872],[-88.28982,37.46871],[-88.28991,37.46869],[-88.29002,37.46864],[-88.29003,37.46864],[-88.29023,37.46853],[-88.29039,37.46843],[-88.29057,37.46832],[-88.29075,37.46821],[-88.29127,37.46788],[-88.29129,37.46787],[-88.29156,37.46772],[-88.29171,37.46764],[-88.29202,37.46749],[-88.29235,37.46737],[-88.29269,37.46728],[-88.29286,37.46724],[-88.29321,37.46717],[-88.29356,37.46713],[-88.29379,37.46711],[-88.29391,37.46709],[-88.29469,37.46704],[-88.29499,37.46702],[-88.29514,37.46701],[-88.29535,37.46698],[-88.29553,37.46695],[-88.29554,37.46695],[-88.29571,37.46691],[-88.29588,37.46686],[-88.29614,37.46675],[-88.29617,37.46674],[-88.29624,37.4667],[-88.29634,37.46664],[-88.29641,37.4666],[-88.29652,37.46651],[-88.29654,37.4665],[-88.29666,37.46639],[-88.29677,37.46628],[-88.29687,37.46616],[-88.29697,37.46603],[-88.29711,37.46575],[-88.29714,37.4657],[-88.29721,37.46559],[-88.29731,37.46543],[-88.29731,37.46543],[-88.29738,37.46571],[-88.29739,37.46575],[-88.29743,37.46587],[-88.29744,37.46588],[-88.29758,37.46641],[-88.29763,37.46659],[-88.29775,37.46695],[-88.29786,37.4673],[-88.29832,37.46869],[-88.29872,37.46991],[-88.29878,37.47008],[-88.2989,37.47043],[-88.29896,37.4706],[-88.29907,37.47095],[-88.29913,37.47112],[-88.29914,37.47116],[-88.29924,37.4715],[-88.29928,37.47171],[-88.29931,37.47201],[-88.29932,37.47207],[-88.29932,37.47219],[-88.29932,37.47228],[-88.29932,37.47237],[-88.29931,37.47242],[-88.2993,37.47255],[-88.29926,37.47292],[-88.29925,37.47309],[-88.29924,37.47327],[-88.29923,37.47345],[-88.29923,37.47349],[-88.29924,37.47363],[-88.29924,37.4737],[-88.29926,37.4738],[-88.29929,37.47398],[-88.29932,37.47412],[-88.29933,37.47416],[-88.29952,37.47482],[-88.29954,37.47486],[-88.29959,37.47504],[-88.2997,37.47538],[-88.29974,37.47551],[-88.29975,37.47556],[-88.2998,37.47574],[-88.29983,37.47586],[-88.2999,37.47622],[-88.29991,37.47627],[-88.29992,37.4765],[-88.29992,37.47679],[-88.2999,37.47699],[-88.29988,37.47716],[-88.29988,37.47717],[-88.29985,37.47734],[-88.29983,37.47744],[-88.29978,37.47765],[-88.29976,37.47769],[-88.29955,37.47815],[-88.29939,37.47845],[-88.29917,37.47873],[-88.29879,37.47915],[-88.29875,37.47919],[-88.2982,37.47976],[-88.29806,37.47991],[-88.29802,37.47995],[-88.29792,37.48005],[-88.29765,37.48034],[-88.29751,37.48048],[-88.29724,37.48077],[-88.29719,37.48081],[-88.29683,37.4812],[-88.29674,37.48129],[-88.29669,37.48134],[-88.29633,37.48176],[-88.29631,37.48179],[-88.29598,37.48224],[-88.2955,37.48301],[-88.29547,37.48306],[-88.29497,37.48387],[-88.29486,37.48404],[-88.29477,37.48419],[-88.29455,37.48454],[-88.29455,37.48454],[-88.29479,37.48485],[-88.29481,37.4849],[-88.29488,37.48502],[-88.29497,37.48512],[-88.29506,37.4852],[-88.29513,37.48527],[-88.29516,37.48529],[-88.29535,37.48547],[-88.29547,37.48557],[-88.29559,37.48566],[-88.29566,37.4857],[-88.29574,37.48573],[-88.29579,37.48574],[-88.29593,37.48577],[-88.29613,37.48577],[-88.29628,37.48575],[-88.29636,37.48575],[-88.29663,37.48572],[-88.29681,37.48572],[-88.29686,37.48572],[-88.29726,37.48569],[-88.2977,37.48568],[-88.29809,37.4857],[-88.29813,37.4857],[-88.29817,37.4857],[-88.29856,37.4857],[-88.29889,37.48567],[-88.29942,37.48563],[-88.29952,37.48564],[-88.29967,37.48565],[-88.29986,37.48567],[-88.29997,37.48568],[-88.30012,37.48569],[-88.3004,37.48572],[-88.30042,37.48573],[-88.30064,37.48577],[-88.30079,37.4858],[-88.30086,37.48581],[-88.30095,37.48583],[-88.30108,37.48586],[-88.30129,37.48592],[-88.30149,37.48598],[-88.30151,37.48598],[-88.30187,37.48607],[-88.30194,37.48609],[-88.30197,37.4861],[-88.3023,37.48618],[-88.30234,37.4862],[-88.30237,37.4862],[-88.30258,37.48627],[-88.30264,37.48629],[-88.30278,37.48635],[-88.30307,37.48645],[-88.30356,37.48664],[-88.3036,37.48666],[-88.30407,37.48684],[-88.30425,37.48692],[-88.30457,37.48708],[-88.30462,37.48712],[-88.30476,37.48724],[-88.30487,37.48734],[-88.3049,37.48736],[-88.30509,37.48754],[-88.30517,37.48765],[-88.30518,37.48766],[-88.30526,37.48778],[-88.30531,37.48791],[-88.30533,37.48798],[-88.30536,37.48812],[-88.30538,37.48833],[-88.30538,37.48834],[-88.30541,37.48851],[-88.30542,37.48854],[-88.30548,37.48874],[-88.30553,37.48886],[-88.30556,37.48895],[-88.3056,37.48903],[-88.30566,37.48916],[-88.30576,37.48935],[-88.30577,37.48937],[-88.30584,37.48954],[-88.30584,37.48955],[-88.30589,37.48971],[-88.30591,37.48981],[-88.30592,37.48989],[-88.30595,37.49015],[-88.30594,37.49043],[-88.30592,37.49073],[-88.30593,37.49079],[-88.30593,37.49088],[-88.30596,37.49103],[-88.306,37.49118],[-88.30605,37.49132],[-88.30613,37.49143],[-88.30623,37.49154],[-88.3063,37.49162],[-88.30631,37.49163],[-88.30646,37.49174],[-88.30649,37.49177],[-88.30697,37.4921],[-88.30701,37.49213],[-88.3072,37.49227],[-88.30729,37.49235],[-88.30736,37.49241],[-88.30754,37.49264],[-88.30765,37.49281],[-88.3077,37.49288],[-88.30785,37.49313],[-88.30801,37.49339],[-88.30818,37.49361],[-88.30819,37.49363],[-88.3083,37.49376],[-88.30838,37.49386],[-88.30842,37.49391],[-88.30884,37.49439],[-88.30893,37.4945],[-88.30896,37.49454],[-88.30906,37.49465],[-88.30931,37.49495],[-88.30939,37.49505],[-88.30963,37.49533],[-88.30969,37.4954],[-88.30982,37.49554],[-88.30989,37.49562],[-88.3101,37.49583],[-88.31016,37.4959],[-88.31039,37.49611],[-88.31066,37.4964],[-88.31106,37.49683],[-88.31118,37.49697],[-88.31119,37.49698],[-88.31146,37.49727],[-88.31147,37.49727],[-88.31159,37.49739],[-88.31161,37.4974],[-88.31172,37.49749],[-88.31189,37.49756],[-88.31207,37.49758],[-88.31222,37.49756],[-88.31224,37.49756],[-88.31244,37.49751],[-88.31258,37.49748],[-88.31265,37.49747],[-88.31288,37.49742],[-88.31299,37.4974],[-88.31354,37.49732],[-88.31389,37.49726],[-88.31395,37.49725],[-88.31428,37.4972],[-88.31447,37.49715],[-88.31456,37.49713],[-88.31464,37.49712],[-88.31465,37.49712],[-88.31472,37.49713],[-88.31479,37.49715],[-88.31491,37.49724],[-88.31494,37.49727],[-88.31501,37.49732],[-88.31505,37.49734],[-88.31513,37.49738],[-88.31521,37.49739],[-88.31529,37.49739],[-88.31537,37.49738],[-88.31561,37.49734],[-88.31566,37.49732],[-88.31588,37.49728],[-88.3161,37.49723],[-88.31629,37.49719],[-88.31632,37.49719],[-88.31664,37.49713],[-88.31676,37.49712],[-88.31683,37.49711],[-88.31699,37.4971],[-88.31701,37.4971],[-88.31719,37.49711],[-88.31721,37.49712],[-88.31736,37.49715],[-88.31743,37.49717],[-88.31763,37.49725],[-88.31769,37.49728],[-88.3178,37.49737],[-88.3178,37.49737],[-88.31792,37.49736],[-88.31803,37.49736],[-88.31808,37.49736],[-88.31819,37.49735],[-88.31825,37.49733],[-88.31847,37.49729],[-88.3185,37.49729],[-88.31869,37.49724],[-88.31876,37.49722],[-88.31905,37.49712],[-88.3191,37.4971],[-88.31934,37.49702],[-88.31953,37.49697],[-88.31958,37.49696],[-88.31975,37.49693],[-88.31996,37.49688],[-88.3204,37.49678],[-88.32049,37.49676],[-88.32062,37.49674],[-88.32096,37.49668],[-88.32107,37.49667],[-88.32129,37.49665],[-88.32134,37.49664],[-88.32152,37.49665],[-88.32156,37.49665],[-88.32195,37.4967],[-88.32197,37.4967],[-88.32239,37.49682],[-88.32246,37.49684],[-88.32261,37.49688],[-88.32282,37.49694],[-88.32304,37.497],[-88.32314,37.49702],[-88.32373,37.49714],[-88.32388,37.49716],[-88.32412,37.49719],[-88.32429,37.49722],[-88.32451,37.49726],[-88.3246,37.49727],[-88.32473,37.4973],[-88.32518,37.49737],[-88.32531,37.49739],[-88.32572,37.49748],[-88.32584,37.49751],[-88.32606,37.49755],[-88.32614,37.49756],[-88.32628,37.49758],[-88.3265,37.49762],[-88.32687,37.49768],[-88.32694,37.4977],[-88.32712,37.49775],[-88.32727,37.4978],[-88.32736,37.49783],[-88.32738,37.49784],[-88.32754,37.49794],[-88.3276,37.49798],[-88.32772,37.49806],[-88.3278,37.49811],[-88.32787,37.49816],[-88.32792,37.4982],[-88.32796,37.49824],[-88.32804,37.4983],[-88.32804,37.4983],[-88.32822,37.49825],[-88.32843,37.4982],[-88.3287,37.49815],[-88.32872,37.49815],[-88.32892,37.4981],[-88.32935,37.498],[-88.3297,37.49793],[-88.32978,37.4979],[-88.32979,37.4979],[-88.3302,37.49777],[-88.33021,37.49777],[-88.3306,37.49759],[-88.33096,37.49738],[-88.33128,37.49712],[-88.33144,37.49699],[-88.33146,37.49697],[-88.33162,37.49688],[-88.33166,37.49685],[-88.33193,37.49671],[-88.332,37.49669],[-88.33211,37.49665],[-88.33221,37.49662],[-88.33221,37.49661],[-88.33245,37.49653],[-88.33263,37.49649],[-88.33271,37.49647],[-88.33285,37.49645],[-88.33308,37.49643],[-88.33311,37.49643],[-88.3333,37.49641],[-88.33353,37.49638],[-88.33366,37.49637],[-88.33375,37.49636],[-88.3342,37.49632],[-88.33443,37.4963],[-88.33465,37.49627],[-88.33466,37.49627],[-88.33487,37.49623],[-88.33498,37.49621],[-88.33509,37.49618],[-88.3352,37.49615],[-88.33571,37.49596],[-88.33591,37.49588],[-88.33612,37.49581],[-88.33632,37.49573],[-88.33639,37.4957],[-88.33653,37.49565],[-88.33674,37.49558],[-88.33715,37.49544],[-88.33736,37.49537],[-88.33746,37.49533],[-88.33758,37.49531],[-88.33764,37.4953],[-88.3378,37.49529],[-88.33792,37.49528],[-88.33803,37.49528],[-88.33813,37.49529],[-88.33833,37.49528],[-88.33851,37.49525],[-88.33867,37.49519],[-88.33868,37.49518],[-88.33873,37.49514],[-88.3388,37.49506],[-88.33881,37.49504],[-88.33885,37.49499],[-88.33891,37.49488],[-88.33897,37.49476],[-88.339,37.49471],[-88.33909,37.49454],[-88.3391,37.49452],[-88.33917,37.49442],[-88.3392,37.49439],[-88.33926,37.4943],[-88.33932,37.49424],[-88.33936,37.4942],[-88.33937,37.49418],[-88.33949,37.49407],[-88.33962,37.49397],[-88.33981,37.49382],[-88.33994,37.49372],[-88.34011,37.49359],[-88.34027,37.49347],[-88.34044,37.49335],[-88.3406,37.49322],[-88.34077,37.4931],[-88.3408,37.49307],[-88.34107,37.49283],[-88.3411,37.4928],[-88.34136,37.49255],[-88.3415,37.49241],[-88.34154,37.49237],[-88.34158,37.49232],[-88.34162,37.49227],[-88.34163,37.49226],[-88.34171,37.4921],[-88.34172,37.49209],[-88.34177,37.49197],[-88.34179,37.49189],[-88.34179,37.49189],[-88.3419,37.49189],[-88.342,37.49192],[-88.34204,37.49193],[-88.34218,37.49209],[-88.34224,37.49219],[-88.34225,37.49222],[-88.34228,37.49233],[-88.34228,37.4924],[-88.3423,37.49258],[-88.34231,37.49263],[-88.34233,37.49275],[-88.34233,37.4928],[-88.34237,37.49293],[-88.3424,37.49302],[-88.34247,37.49309],[-88.3425,37.49312],[-88.34272,37.4933],[-88.34279,37.49334],[-88.34298,37.49345],[-88.34302,37.49347],[-88.34316,37.49359],[-88.3433,37.49369],[-88.34339,37.49377],[-88.34344,37.49384],[-88.34347,37.49388],[-88.34352,37.49398],[-88.34353,37.494],[-88.34362,37.49432],[-88.34362,37.49435],[-88.34366,37.49453],[-88.34376,37.49474],[-88.34383,37.49486],[-88.34389,37.49497],[-88.344,37.4952],[-88.34414,37.49549],[-88.34428,37.49574],[-88.34439,37.49584],[-88.34441,37.49587],[-88.34455,37.49597],[-88.34456,37.49598],[-88.34474,37.49606],[-88.34477,37.49608],[-88.34501,37.49618],[-88.34513,37.49624],[-88.34527,37.49631],[-88.34542,37.49643],[-88.34547,37.49648],[-88.34558,37.49659],[-88.3456,37.49663],[-88.34568,37.49678],[-88.34575,37.4969],[-88.34577,37.49695],[-88.34578,37.49696],[-88.34583,37.49702],[-88.34591,37.49707],[-88.34594,37.49708],[-88.34598,37.49709],[-88.34608,37.49711],[-88.34616,37.49711],[-88.3462,37.49711],[-88.34628,37.4971],[-88.34635,37.49706],[-88.34637,37.49705],[-88.34646,37.497],[-88.34676,37.49676],[-88.34689,37.49671],[-88.3469,37.49671],[-88.34699,37.49669],[-88.34706,37.49669],[-88.34711,37.49669],[-88.34714,37.49669],[-88.34724,37.4967],[-88.34731,37.49672],[-88.34733,37.49673],[-88.3474,37.49677],[-88.34744,37.4968],[-88.34751,37.49684],[-88.34753,37.49685],[-88.34759,37.49689],[-88.34769,37.49694],[-88.34771,37.49695],[-88.34786,37.49698],[-88.34791,37.49697],[-88.34812,37.49695],[-88.34814,37.49695],[-88.34837,37.4969],[-88.34853,37.4968],[-88.34854,37.4968],[-88.34871,37.49676],[-88.34876,37.49676],[-88.34883,37.49675],[-88.34893,37.49677],[-88.34898,37.49677],[-88.34927,37.49679],[-88.34943,37.49677],[-88.34959,37.49675],[-88.34984,37.49664],[-88.34985,37.49664],[-88.35017,37.49638],[-88.35033,37.49626],[-88.35039,37.49621],[-88.35046,37.49615],[-88.35049,37.49613],[-88.35065,37.49601],[-88.35082,37.49588],[-88.35093,37.4958],[-88.35098,37.49576],[-88.35118,37.49563],[-88.35134,37.49555],[-88.35157,37.4955],[-88.35159,37.49549],[-88.35172,37.4955],[-88.35179,37.49551],[-88.35192,37.49552],[-88.35212,37.49555],[-88.35223,37.49559],[-88.35227,37.4956],[-88.35242,37.49568],[-88.35244,37.49568],[-88.3526,37.49578],[-88.35278,37.4959],[-88.35305,37.4961],[-88.35312,37.49614],[-88.35313,37.49614],[-88.35329,37.4962],[-88.35346,37.49624],[-88.35355,37.49625],[-88.35393,37.49627],[-88.354,37.49627],[-88.35423,37.49626],[-88.35441,37.49625],[-88.3555,37.49621],[-88.35558,37.49621],[-88.35604,37.49621],[-88.35623,37.4962],[-88.35649,37.49621],[-88.35672,37.49621],[-88.35694,37.49621],[-88.35808,37.49621],[-88.35831,37.49622],[-88.35876,37.49622],[-88.35894,37.49622],[-88.35916,37.49622],[-88.35916,37.49622],[-88.35961,37.49621],[-88.36029,37.4962],[-88.3603,37.4962],[-88.36047,37.49618],[-88.36051,37.49617],[-88.36063,37.49615],[-88.36079,37.49609],[-88.36092,37.49602],[-88.36096,37.49601],[-88.3611,37.49591],[-88.3613,37.49576],[-88.36158,37.49553],[-88.36189,37.49526],[-88.3622,37.495],[-88.36223,37.49498],[-88.3627,37.49464],[-88.36287,37.49452],[-88.36291,37.4945],[-88.36324,37.49431],[-88.36361,37.4941],[-88.36363,37.49409],[-88.3638,37.494],[-88.36399,37.49391],[-88.36457,37.49362],[-88.36495,37.49343],[-88.36525,37.49329],[-88.3655,37.49312],[-88.36585,37.49289],[-88.36594,37.49283],[-88.36609,37.49277],[-88.36625,37.49271],[-88.36641,37.49264],[-88.36656,37.49256],[-88.36671,37.49247],[-88.36681,37.49241],[-88.36706,37.49226],[-88.36714,37.49224],[-88.36731,37.49222],[-88.36749,37.49225],[-88.36766,37.49231],[-88.36783,37.49238],[-88.36807,37.49249],[-88.36824,37.49253],[-88.36842,37.49255],[-88.36846,37.49254],[-88.3686,37.49254],[-88.36869,37.49252],[-88.36877,37.49251],[-88.36891,37.49248],[-88.36912,37.49243],[-88.3693,37.49241],[-88.36948,37.49241],[-88.36966,37.49243],[-88.36992,37.4925],[-88.37,37.49253],[-88.37,37.49253],[-88.37024,37.49263],[-88.37054,37.49278],[-88.37077,37.49287],[-88.37093,37.49292],[-88.37128,37.49297],[-88.3713,37.49298],[-88.37173,37.49303],[-88.37188,37.49305],[-88.37221,37.49309],[-88.3724,37.49311],[-88.37266,37.49313],[-88.37308,37.49315],[-88.37421,37.49322],[-88.37444,37.49323],[-88.37466,37.49324],[-88.37489,37.49325],[-88.3749,37.49325],[-88.37536,37.49329],[-88.37557,37.4933],[-88.37579,37.49331],[-88.37602,37.49332],[-88.37671,37.49335],[-88.37716,37.49334],[-88.37738,37.49332],[-88.37804,37.49326],[-88.3785,37.49321],[-88.37873,37.49319],[-88.37885,37.49318],[-88.3794,37.49314],[-88.37967,37.49312],[-88.37986,37.49313],[-88.38012,37.49314],[-88.38031,37.49315],[-88.38057,37.49317],[-88.38144,37.49324],[-88.38191,37.49328],[-88.38234,37.49332],[-88.38234,37.49332],[-88.38233,37.49322],[-88.38235,37.49302],[-88.38235,37.49296],[-88.38235,37.49279],[-88.38236,37.49171],[-88.38236,37.49135],[-88.38236,37.49113],[-88.38236,37.49081],[-88.38236,37.49063],[-88.38236,37.49045],[-88.38236,37.49001],[-88.38236,37.48991],[-88.38236,37.48952],[-88.38236,37.48934],[-88.38236,37.48919],[-88.38236,37.48916],[-88.38236,37.48898],[-88.38236,37.48883],[-88.38235,37.48826],[-88.38236,37.48808],[-88.38236,37.48754],[-88.38236,37.48684],[-88.38236,37.48682],[-88.38236,37.48667],[-88.38236,37.48664],[-88.38236,37.48649],[-88.38236,37.48646],[-88.38236,37.48595],[-88.38236,37.48592],[-88.38237,37.48538],[-88.38238,37.48523],[-88.38238,37.4852],[-88.38238,37.48505],[-88.38238,37.48502],[-88.38239,37.48487],[-88.38239,37.48474],[-88.3824,37.48448],[-88.38241,37.48433],[-88.38241,37.4843],[-88.38242,37.48415],[-88.38242,37.48412],[-88.38242,37.48397],[-88.38242,37.48394],[-88.38243,37.48388],[-88.38242,37.48358],[-88.38242,37.48354],[-88.38242,37.48347],[-88.38241,37.48325],[-88.38241,37.48311],[-88.38241,37.48293],[-88.38241,37.48289],[-88.38241,37.48239],[-88.38241,37.48221],[-88.38241,37.48217],[-88.38241,37.48216],[-88.38241,37.48203],[-88.38243,37.48149],[-88.38243,37.48131],[-88.38243,37.48127],[-88.38244,37.48113],[-88.38245,37.48059],[-88.38246,37.48041],[-88.38246,37.48038],[-88.38246,37.48023],[-88.38246,37.48005],[-88.38246,37.48002],[-88.38246,37.48001],[-88.38246,37.47987],[-88.38246,37.47984],[-88.38246,37.47915],[-88.38246,37.47912],[-88.38246,37.47897],[-88.38246,37.47894],[-88.38246,37.47884],[-88.38246,37.47879],[-88.38247,37.47876],[-88.38247,37.47861],[-88.38247,37.47843],[-88.38248,37.4784],[-88.38248,37.47825],[-88.38249,37.47789],[-88.38249,37.47786],[-88.38249,37.47771],[-88.3825,37.47762],[-88.3825,37.47753],[-88.3825,37.4775],[-88.3825,37.47735],[-88.3825,37.47728],[-88.38251,37.47717],[-88.38252,37.47693],[-88.38252,37.47663],[-88.38253,37.47627],[-88.38253,37.47624],[-88.38253,37.47609],[-88.38255,37.47555],[-88.38255,37.47537],[-88.38256,37.47501],[-88.38256,37.47498],[-88.38256,37.47491],[-88.38256,37.47483],[-88.38256,37.4748],[-88.38255,37.47448],[-88.38255,37.47448],[-88.38301,37.47446],[-88.38346,37.47445],[-88.38369,37.47444],[-88.38391,37.47444],[-88.38402,37.47443],[-88.38409,37.47444],[-88.38443,37.47445],[-88.38446,37.47445],[-88.3846,37.47445],[-88.38465,37.47445],[-88.38474,37.47444],[-88.38481,37.47442],[-88.38522,37.47429],[-88.3853,37.47427],[-88.38539,37.47424],[-88.38556,37.47421],[-88.38565,37.4742],[-88.38574,37.4742],[-88.38583,37.4742],[-88.38687,37.47421],[-88.38704,37.47421],[-88.38823,37.47421],[-88.38914,37.47422],[-88.38977,37.47422],[-88.39067,37.47423],[-88.39073,37.47423],[-88.39118,37.47422],[-88.39167,37.47422],[-88.39186,37.47421],[-88.39204,37.4742],[-88.39212,37.47419],[-88.3923,37.47415],[-88.39246,37.47409],[-88.39254,37.47406],[-88.3929,37.47389],[-88.39292,37.47389],[-88.39352,37.47358],[-88.39367,37.4735],[-88.39411,37.47326],[-88.39441,37.47311],[-88.39473,37.47297],[-88.39505,37.47283],[-88.39522,37.47278],[-88.39538,37.47273],[-88.39556,37.4727],[-88.39573,37.47267],[-88.39626,37.4726],[-88.39632,37.47259],[-88.39751,37.47245],[-88.39813,37.47238],[-88.39879,37.4723],[-88.39901,37.47227],[-88.39911,37.47226],[-88.40018,37.47214],[-88.40058,37.47209],[-88.40072,37.47207],[-88.40081,37.47207],[-88.40103,37.47208],[-88.40188,37.4721],[-88.4026,37.47213],[-88.40262,37.47213],[-88.40333,37.47217],[-88.40441,37.47226],[-88.40488,37.47228],[-88.40533,37.4723],[-88.40544,37.47231],[-88.40577,37.47233],[-88.40578,37.47233],[-88.406,37.47235],[-88.406,37.47235],[-88.40592,37.47194],[-88.40589,37.47176],[-88.40585,37.47158],[-88.40582,37.47141],[-88.40579,37.47124],[-88.40572,37.47092],[-88.40567,37.47071],[-88.40567,37.4707],[-88.40564,37.47052],[-88.40563,37.47047],[-88.4056,37.47026],[-88.40558,37.47016],[-88.40555,37.47001],[-88.40555,37.46998],[-88.40552,37.46984],[-88.40548,37.4696],[-88.40544,37.46938],[-88.4054,37.4691],[-88.40538,37.46893],[-88.40538,37.46891],[-88.40537,37.46873],[-88.40537,37.46869],[-88.40536,37.46847],[-88.40536,37.46838],[-88.40536,37.46804],[-88.40536,37.46785],[-88.40538,37.46713],[-88.4054,37.46606],[-88.4054,37.4659],[-88.40541,37.46588],[-88.40541,37.46571],[-88.40542,37.46534],[-88.40543,37.46482],[-88.40543,37.4648],[-88.40543,37.46462],[-88.40544,37.46444],[-88.40545,37.46408],[-88.40545,37.4639],[-88.40546,37.46354],[-88.40546,37.46321],[-88.40547,37.46303],[-88.40547,37.46269],[-88.4055,37.46195],[-88.4055,37.46177],[-88.4055,37.46174],[-88.40551,37.46163],[-88.40551,37.4616],[-88.40552,37.46142],[-88.40556,37.4607],[-88.40556,37.4607],[-88.40559,37.46065],[-88.40562,37.46062],[-88.40564,37.46059],[-88.40566,37.46056],[-88.40568,37.46055],[-88.40569,37.46054],[-88.40574,37.4605],[-88.40584,37.46044],[-88.40697,37.46032],[-88.40742,37.46028],[-88.40764,37.46025],[-88.40784,37.46023],[-88.40786,37.46023],[-88.40876,37.46014],[-88.40893,37.46012],[-88.40944,37.46007],[-88.40966,37.46005],[-88.40989,37.46003],[-88.41056,37.45996],[-88.41079,37.45993],[-88.41139,37.45987],[-88.41251,37.45976],[-88.41274,37.45973],[-88.41319,37.45969],[-88.41341,37.45966],[-88.41364,37.45964],[-88.41431,37.45957],[-88.41482,37.45952],[-88.41503,37.4595],[-88.41525,37.45948],[-88.41541,37.45947],[-88.41558,37.45946],[-88.41589,37.45946],[-88.41615,37.45947],[-88.41642,37.4595],[-88.41673,37.45953],[-88.41733,37.45959],[-88.41763,37.45962],[-88.41809,37.45965],[-88.41843,37.45968],[-88.41889,37.4597],[-88.41913,37.4597],[-88.41929,37.4597],[-88.41981,37.45969],[-88.41993,37.45969],[-88.42004,37.45969],[-88.42117,37.45965],[-88.4214,37.45964],[-88.42185,37.45963],[-88.42208,37.45962],[-88.42298,37.45959],[-88.42396,37.45956],[-88.42517,37.45952],[-88.42539,37.45951],[-88.42569,37.4595],[-88.42585,37.45949],[-88.42607,37.45948],[-88.42626,37.45948],[-88.4263,37.45948],[-88.4266,37.45946],[-88.42675,37.45945],[-88.42692,37.45944],[-88.42698,37.45943],[-88.42721,37.45941],[-88.42765,37.45936],[-88.42788,37.45933],[-88.4281,37.4593],[-88.42836,37.45925],[-88.42867,37.45919],[-88.42876,37.45918],[-88.42885,37.45916],[-88.42898,37.45914],[-88.42915,37.4591],[-88.42965,37.45901],[-88.42996,37.45895],[-88.43024,37.45889],[-88.4303,37.45888],[-88.43049,37.45884],[-88.43052,37.45884],[-88.43077,37.45879],[-88.43096,37.45875],[-88.43116,37.45872],[-88.43143,37.45866],[-88.4317,37.45861],[-88.43207,37.45852],[-88.43231,37.45846],[-88.4325,37.45841],[-88.43265,37.45837],[-88.4327,37.45835],[-88.43285,37.4583],[-88.43304,37.45824],[-88.43311,37.45821],[-88.43332,37.45813],[-88.43351,37.45805],[-88.43352,37.45805],[-88.43372,37.45796],[-88.43373,37.45795],[-88.43389,37.45788],[-88.43391,37.45787],[-88.43401,37.45782],[-88.43411,37.45777],[-88.43423,37.45771],[-88.43448,37.45757],[-88.43465,37.45746],[-88.43466,37.45746],[-88.43484,37.45735],[-88.43491,37.4573],[-88.43501,37.45723],[-88.43518,37.45712],[-88.43553,37.45689],[-88.4357,37.45677],[-88.43584,37.45668],[-88.43588,37.45665],[-88.43605,37.45654],[-88.43615,37.45647],[-88.4364,37.4563],[-88.43659,37.45617],[-88.43705,37.45586],[-88.43709,37.45584],[-88.43726,37.45572],[-88.43743,37.45561],[-88.43764,37.45547],[-88.43778,37.45537],[-88.43811,37.45513],[-88.43812,37.45513],[-88.43828,37.45501],[-88.43831,37.45499],[-88.43863,37.45476],[-88.43878,37.45464],[-88.43894,37.45452],[-88.439,37.45448],[-88.43911,37.45439],[-88.43917,37.45434],[-88.43927,37.45427],[-88.43943,37.45414],[-88.43948,37.4541],[-88.43974,37.45388],[-88.4399,37.45375],[-88.44018,37.45352],[-88.44053,37.45324],[-88.44069,37.45311],[-88.44164,37.45234],[-88.4418,37.45221],[-88.44183,37.45219],[-88.44196,37.45208],[-88.44235,37.45176],[-88.44243,37.45169],[-88.44259,37.45157],[-88.44276,37.45143],[-88.44292,37.45131],[-88.44305,37.45121],[-88.44322,37.45109],[-88.44326,37.45107],[-88.4433,37.45105],[-88.44342,37.45097],[-88.44344,37.45096],[-88.44352,37.45091],[-88.44362,37.45086],[-88.44382,37.45077],[-88.44399,37.45069],[-88.44414,37.45063],[-88.44422,37.4506],[-88.44432,37.45056],[-88.44454,37.45049],[-88.44464,37.45046],[-88.44482,37.45041],[-88.44485,37.45041],[-88.44507,37.45036],[-88.44509,37.45035],[-88.44529,37.45031],[-88.44544,37.45027],[-88.44551,37.45026],[-88.44616,37.45011],[-88.44617,37.45011],[-88.44747,37.44981],[-88.44756,37.44979],[-88.44768,37.44976],[-88.44812,37.44967],[-88.44834,37.44962],[-88.44856,37.44957],[-88.44899,37.44947],[-88.44921,37.44942],[-88.45008,37.44923],[-88.45034,37.44917],[-88.45052,37.44913],[-88.45074,37.44908],[-88.45117,37.44898],[-88.45161,37.44888],[-88.45248,37.44868],[-88.4527,37.44863],[-88.45313,37.44853],[-88.45335,37.44848],[-88.45379,37.44838],[-88.45404,37.44833],[-88.45488,37.44814],[-88.45509,37.44809],[-88.4569,37.44768],[-88.45799,37.44743],[-88.4582,37.44738],[-88.45865,37.44728],[-88.45951,37.44709],[-88.45975,37.44703],[-88.46037,37.44689],[-88.46074,37.44681],[-88.46103,37.44673],[-88.46107,37.44672],[-88.46125,37.44667],[-88.4614,37.44663],[-88.46167,37.44655],[-88.46174,37.44653],[-88.46188,37.44648],[-88.46199,37.44645],[-88.46225,37.44636],[-88.4623,37.44634],[-88.46251,37.44627],[-88.46256,37.44625],[-88.46271,37.44619],[-88.46281,37.44615],[-88.46311,37.44603],[-88.46352,37.44586],[-88.46372,37.44578],[-88.46392,37.4457],[-88.46399,37.44567],[-88.46412,37.44562],[-88.46432,37.44553],[-88.46442,37.44549],[-88.46452,37.44545],[-88.46456,37.44543],[-88.46472,37.44536],[-88.4648,37.44533],[-88.46492,37.44528],[-88.46504,37.44522],[-88.46512,37.44519],[-88.46531,37.44511],[-88.46532,37.44511],[-88.46568,37.44496],[-88.46572,37.44494],[-88.46594,37.44485],[-88.46622,37.44473],[-88.46632,37.44469],[-88.46641,37.44465],[-88.46652,37.4446],[-88.46664,37.44455],[-88.46672,37.44452],[-88.46682,37.44447],[-88.46692,37.44443],[-88.467,37.44439],[-88.46711,37.44434],[-88.46716,37.44431],[-88.4673,37.44423],[-88.46738,37.44419],[-88.46748,37.44413],[-88.46755,37.44409],[-88.4677,37.44399],[-88.46784,37.4439],[-88.46794,37.44382],[-88.46817,37.44364],[-88.46829,37.44353],[-88.4684,37.44343],[-88.46907,37.44274],[-88.46929,37.44251],[-88.47105,37.44064],[-88.4712,37.44049],[-88.47157,37.4401],[-88.47219,37.43943],[-88.47243,37.43919],[-88.47272,37.43889],[-88.47465,37.43685],[-88.4763,37.4351],[-88.47671,37.43467],[-88.47739,37.43395],[-88.47752,37.43381],[-88.4778,37.43352],[-88.47807,37.43323],[-88.4782,37.43309],[-88.47875,37.43251],[-88.47888,37.43237],[-88.47902,37.43223],[-88.47915,37.43209],[-88.47915,37.43208],[-88.47957,37.43165],[-88.4797,37.43151],[-88.48011,37.43108],[-88.48039,37.43079],[-88.48056,37.43061],[-88.48107,37.43008],[-88.48121,37.42993],[-88.48135,37.42979],[-88.48146,37.42967],[-88.48148,37.42965],[-88.4823,37.42879],[-88.48274,37.42833],[-88.48326,37.42778],[-88.48339,37.42764],[-88.48489,37.42605],[-88.48516,37.42577],[-88.4853,37.42562],[-88.4857,37.42519],[-88.48579,37.4251],[-88.48597,37.4249],[-88.48611,37.42476],[-88.48624,37.42461],[-88.48626,37.42459],[-88.48642,37.42439],[-88.48654,37.42426],[-88.48661,37.42416],[-88.48674,37.42401],[-88.48678,37.42395],[-88.48685,37.42385],[-88.48692,37.42374],[-88.48705,37.42353],[-88.48711,37.42342],[-88.48728,37.42312],[-88.48741,37.42287],[-88.4875,37.42271],[-88.48754,37.42263],[-88.48758,37.42254],[-88.48774,37.4222],[-88.488,37.42165],[-88.48806,37.42153],[-88.48858,37.42048],[-88.48864,37.42036],[-88.48872,37.42019],[-88.48897,37.41969],[-88.48907,37.41948],[-88.48912,37.41935],[-88.48912,37.41934],[-88.48918,37.41917],[-88.48921,37.41909],[-88.48924,37.419],[-88.48928,37.4189],[-88.4893,37.41883],[-88.48933,37.41868],[-88.48934,37.41865],[-88.48936,37.41853],[-88.4894,37.41835],[-88.48941,37.41829],[-88.48943,37.41811],[-88.48944,37.41797],[-88.48944,37.41794],[-88.48945,37.41776],[-88.48946,37.4174],[-88.48946,37.41722],[-88.48947,37.41704],[-88.48947,37.41703],[-88.48947,37.41686],[-88.48947,37.41668],[-88.48948,37.41578],[-88.48949,37.4156],[-88.48949,37.41542],[-88.4895,37.41488],[-88.4895,37.4147],[-88.48951,37.41417],[-88.48952,37.41345],[-88.48952,37.41327],[-88.48953,37.41318],[-88.48953,37.41303],[-88.48953,37.41255],[-88.48953,37.41237],[-88.48953,37.41219],[-88.48954,37.41205],[-88.48954,37.41183],[-88.48954,37.41165],[-88.48955,37.41093],[-88.48955,37.41075],[-88.48955,37.41057],[-88.48956,37.41039],[-88.48956,37.41021],[-88.48956,37.40967],[-88.48957,37.40929],[-88.48957,37.4091],[-88.48958,37.40874],[-88.48958,37.40838],[-88.48959,37.40802],[-88.48959,37.40748],[-88.48959,37.4073],[-88.4896,37.40694],[-88.4896,37.40691],[-88.4896,37.40676],[-88.48961,37.4064],[-88.48961,37.40622],[-88.48962,37.40586],[-88.48962,37.40564],[-88.48963,37.40514],[-88.48963,37.40469],[-88.48964,37.40362],[-88.48965,37.40344],[-88.48966,37.40236],[-88.48966,37.40236],[-88.49025,37.40234],[-88.4907,37.40233],[-88.49111,37.40233],[-88.49115,37.40233],[-88.49183,37.40232],[-88.49225,37.40232],[-88.49228,37.40232],[-88.49319,37.4023],[-88.49342,37.4023],[-88.49432,37.40229],[-88.495,37.40228],[-88.49728,37.40226],[-88.49887,37.40225],[-88.5004,37.40224],[-88.50142,37.40223],[-88.50267,37.40222],[-88.503,37.40222],[-88.50403,37.40221],[-88.50504,37.40221],[-88.50663,37.4022],[-88.50776,37.40219],[-88.50812,37.40219],[-88.50831,37.40219],[-88.50844,37.4022]]}},{"type":"Feature","properties":{"_gpxType":"trk","name":"324 E Fords Ferry Rd - Eddyville Blacktop Rd - Hayes Canyon Campground, Eddyville, IL","coordinateProperties":{},"id":30},"geometry":{"type":"LineString","coordinates":[[-88.50844,37.4022],[-88.50851,37.40221],[-88.50866,37.40223],[-88.5089,37.40232],[-88.50905,37.4024],[-88.50919,37.40249],[-88.50932,37.40259],[-88.50943,37.4027],[-88.50947,37.40276],[-88.5095,37.40281],[-88.50951,37.40283],[-88.50955,37.40291],[-88.50958,37.40303],[-88.50962,37.40321],[-88.50964,37.40348],[-88.50964,37.40374],[-88.50964,37.40428],[-88.50963,37.40482],[-88.50963,37.4049],[-88.50962,37.40538],[-88.50962,37.40572],[-88.50961,37.4059],[-88.50961,37.40608],[-88.5096,37.40626],[-88.5096,37.40638],[-88.5096,37.40644],[-88.5096,37.40645],[-88.5096,37.40662],[-88.5096,37.40672],[-88.50959,37.40698],[-88.50959,37.40707],[-88.50959,37.40734],[-88.50959,37.40737],[-88.50957,37.4086],[-88.50957,37.40863],[-88.50956,37.4095],[-88.50956,37.40953],[-88.50955,37.40978],[-88.50955,37.40986],[-88.50955,37.41007],[-88.50954,37.41022],[-88.50953,37.41076],[-88.50953,37.41079],[-88.50952,37.41094],[-88.50952,37.41097],[-88.50951,37.4113],[-88.50951,37.41133],[-88.50951,37.41145],[-88.50949,37.41202],[-88.50949,37.41204],[-88.50948,37.41217],[-88.50948,37.41238],[-88.50948,37.4124],[-88.50948,37.41252],[-88.50951,37.41273],[-88.50951,37.41276],[-88.50953,37.41288],[-88.50962,37.41322],[-88.50968,37.41333],[-88.50973,37.41343],[-88.50974,37.41346],[-88.5099,37.41376],[-88.50992,37.41379],[-88.51008,37.41409],[-88.51009,37.41412],[-88.51014,37.4142],[-88.51028,37.41445],[-88.51054,37.41491],[-88.51074,37.41527],[-88.51082,37.4154],[-88.51103,37.41576],[-88.51122,37.41609],[-88.51138,37.41642],[-88.51139,37.41644],[-88.51144,37.41656],[-88.51152,37.41676],[-88.51179,37.41765],[-88.51184,37.41783],[-88.51186,37.41787],[-88.5119,37.418],[-88.51195,37.41818],[-88.51206,37.41853],[-88.51207,37.41856],[-88.51212,37.4187],[-88.51225,37.41904],[-88.5124,37.41937],[-88.5124,37.41938],[-88.51247,37.41955],[-88.51254,37.41972],[-88.51261,37.4199],[-88.51267,37.42008],[-88.51272,37.42024],[-88.51276,37.42042],[-88.51286,37.42077],[-88.51286,37.4208],[-88.51296,37.42117],[-88.51298,37.42125],[-88.51299,37.4213],[-88.51302,37.42143],[-88.5131,37.42178],[-88.51311,37.42183],[-88.51315,37.42201],[-88.51326,37.42247],[-88.51332,37.42272],[-88.51339,37.42302],[-88.51341,37.42307],[-88.51349,37.42343],[-88.51358,37.42378],[-88.51365,37.42408],[-88.51367,37.42413],[-88.51409,37.42585],[-88.51417,37.4262],[-88.51425,37.42655],[-88.5143,37.42677],[-88.51445,37.42749],[-88.51451,37.42772],[-88.51479,37.42891],[-88.51483,37.42909],[-88.51488,37.42927],[-88.51497,37.42962],[-88.51502,37.42984],[-88.51505,37.42997],[-88.51509,37.43015],[-88.51525,37.43083],[-88.5153,37.43101],[-88.51539,37.43135],[-88.51549,37.43198],[-88.51552,37.43207],[-88.51558,37.43225],[-88.51562,37.43238],[-88.51567,37.4326],[-88.51573,37.43285],[-88.51586,37.43306],[-88.5159,37.4331],[-88.51604,37.43322],[-88.51625,37.43332],[-88.51635,37.43337],[-88.51671,37.43345],[-88.5169,37.43347],[-88.51714,37.4335],[-88.51734,37.43352],[-88.51749,37.43354],[-88.51756,37.43356],[-88.51814,37.43374],[-88.51851,37.43396],[-88.51871,37.43412],[-88.51887,37.43424],[-88.51888,37.43425],[-88.51903,37.43437],[-88.51913,37.43445],[-88.51916,37.43451],[-88.51918,37.43455],[-88.51925,37.43467],[-88.51928,37.43474],[-88.51941,37.43508],[-88.51944,37.43519],[-88.51957,37.43572],[-88.51959,37.4358],[-88.51961,37.43589],[-88.51966,37.43616],[-88.5197,37.43652],[-88.51971,37.43679],[-88.51971,37.43689],[-88.51971,37.43717],[-88.51971,37.43771],[-88.51971,37.43789],[-88.51972,37.43878],[-88.51972,37.43914],[-88.51972,37.4395],[-88.51972,37.43968],[-88.51972,37.43986],[-88.51972,37.44004],[-88.51972,37.44008],[-88.51972,37.44076],[-88.51972,37.44114],[-88.51972,37.44166],[-88.51973,37.44185],[-88.51975,37.44221],[-88.51979,37.44256],[-88.51984,37.44274],[-88.5199,37.44298],[-88.51995,37.44308],[-88.52011,37.44347],[-88.52021,37.44371],[-88.52028,37.44388],[-88.52033,37.44401],[-88.52057,37.44456],[-88.52063,37.44471],[-88.52077,37.44507],[-88.52086,37.44536],[-88.52088,37.4454],[-88.52094,37.44574],[-88.52097,37.44607],[-88.521,37.44643],[-88.521,37.44661],[-88.52103,37.44758],[-88.52104,37.44797],[-88.52106,37.44835],[-88.52108,37.44847],[-88.52112,37.44864],[-88.52125,37.449],[-88.52134,37.44917],[-88.52141,37.44929],[-88.52155,37.44949],[-88.52161,37.44957],[-88.52187,37.44982],[-88.52197,37.44991],[-88.52199,37.44993],[-88.52214,37.4501],[-88.52274,37.4505],[-88.52301,37.45067],[-88.52319,37.45078],[-88.52426,37.45144],[-88.52451,37.4516],[-88.5248,37.45177],[-88.52498,37.45188],[-88.52534,37.4521],[-88.52552,37.45221],[-88.52559,37.45225],[-88.52715,37.45308],[-88.52721,37.45311],[-88.5278,37.45339],[-88.52799,37.45348],[-88.52818,37.45358],[-88.52835,37.45366],[-88.52875,37.45383],[-88.52933,37.45408],[-88.52934,37.45409],[-88.52954,37.45418],[-88.52973,37.45427],[-88.52993,37.45436],[-88.5301,37.45444],[-88.53012,37.45445],[-88.53043,37.45462],[-88.53117,37.45518],[-88.53142,37.45543],[-88.53174,37.45574],[-88.53207,37.45616],[-88.53221,37.45635],[-88.5325,37.45679],[-88.53272,37.45711],[-88.53293,37.45743],[-88.53325,37.45791],[-88.53356,37.45838],[-88.53389,37.45888],[-88.53398,37.45902],[-88.53408,37.4592],[-88.53416,37.45935],[-88.53425,37.45953],[-88.53431,37.45969],[-88.53438,37.45988],[-88.53448,37.46023],[-88.5346,37.46111],[-88.53463,37.4613],[-88.53467,37.46182],[-88.5347,37.46218],[-88.53475,37.46272],[-88.5348,37.46308],[-88.5349,37.46342],[-88.53491,37.46343],[-88.53505,37.46376],[-88.53505,37.46377],[-88.53523,37.4641],[-88.53544,37.46441],[-88.53558,37.46456],[-88.5357,37.4647],[-88.53604,37.46495],[-88.53605,37.46496],[-88.53636,37.4652],[-88.53686,37.46558],[-88.53725,37.46587],[-88.53754,37.46605],[-88.53877,37.46685],[-88.53895,37.46696],[-88.54141,37.46855],[-88.54194,37.46889],[-88.54221,37.46907],[-88.54292,37.46952],[-88.54298,37.46956],[-88.54309,37.46963],[-88.54345,37.46986],[-88.54404,37.47023],[-88.54451,37.47054],[-88.54508,37.4709],[-88.54591,37.47144],[-88.54626,37.47167],[-88.54644,37.47179],[-88.54646,37.4718],[-88.54679,37.47201],[-88.54749,37.47247],[-88.54766,37.47258],[-88.54767,37.47258],[-88.54784,37.4727],[-88.54802,37.47281],[-88.54821,37.47294],[-88.54851,37.47319],[-88.54882,37.47345],[-88.54885,37.47348],[-88.54906,37.47368],[-88.54923,37.47388],[-88.54928,37.47394],[-88.54935,37.47406],[-88.54946,37.47422],[-88.54967,37.47453],[-88.54978,37.47469],[-88.54993,37.47492],[-88.55032,37.47548],[-88.55054,37.4758],[-88.5506,37.47589],[-88.55084,37.4762],[-88.5509,37.47626],[-88.55104,37.4764],[-88.55112,37.47649],[-88.55134,37.47667],[-88.55165,37.47688],[-88.55168,37.4769],[-88.55187,37.477],[-88.55202,37.47708],[-88.55206,37.4771],[-88.55226,37.47718],[-88.55241,37.47725],[-88.55246,37.47727],[-88.55258,37.47731],[-88.55267,37.47734],[-88.55274,37.47736],[-88.55288,37.4774],[-88.55291,37.47741],[-88.5531,37.47745],[-88.55334,37.47749],[-88.55379,37.47753],[-88.554,37.47753],[-88.5549,37.4775],[-88.55513,37.4775],[-88.55535,37.47748],[-88.55738,37.47737],[-88.55762,37.47737],[-88.55772,37.47736],[-88.5584,37.47733],[-88.55885,37.47731],[-88.55919,37.4773],[-88.5593,37.4773],[-88.55992,37.4773],[-88.56053,37.47736],[-88.56088,37.47742],[-88.56115,37.47747],[-88.56175,37.47763],[-88.5618,37.47764],[-88.56188,37.47766],[-88.56196,37.47769],[-88.56217,37.47775],[-88.56231,37.47779],[-88.56238,37.47782],[-88.56258,37.4779],[-88.5627,37.47795],[-88.56278,37.47799],[-88.56298,37.47807],[-88.5631,37.47812],[-88.56356,37.47833],[-88.56357,37.47834],[-88.56384,37.47852],[-88.56452,37.479],[-88.56474,37.47919],[-88.56489,37.47932],[-88.56504,37.47946],[-88.56518,37.4796],[-88.56519,37.47961],[-88.56543,37.4799],[-88.56566,37.48019],[-88.56592,37.48051],[-88.56604,37.48066],[-88.56629,37.48096],[-88.56639,37.48109],[-88.56641,37.48111],[-88.56703,37.48187],[-88.56713,37.48199],[-88.56722,37.48211],[-88.5673,37.4822],[-88.56792,37.48295],[-88.56805,37.4831],[-88.56806,37.48312],[-88.56817,37.48325],[-88.56829,37.4834],[-88.56864,37.48383],[-88.56866,37.48386],[-88.56878,37.48401],[-88.56916,37.48446],[-88.5694,37.48476],[-88.56965,37.48506],[-88.5699,37.48537],[-88.57027,37.48582],[-88.57051,37.48612],[-88.57088,37.48657],[-88.57101,37.48672],[-88.57113,37.48687],[-88.5713,37.48708],[-88.57155,37.48739],[-88.57167,37.48754],[-88.5718,37.48769],[-88.57204,37.48799],[-88.57229,37.48829],[-88.57238,37.48839],[-88.57263,37.48869],[-88.57271,37.48877],[-88.57281,37.48888],[-88.57289,37.48897],[-88.57318,37.48925],[-88.57371,37.48969],[-88.5741,37.49002],[-88.5748,37.4906],[-88.57496,37.49073],[-88.57503,37.49078],[-88.57528,37.49099],[-88.57559,37.49125],[-88.57622,37.49177],[-88.57653,37.49202],[-88.57669,37.49215],[-88.57688,37.49231],[-88.57716,37.49255],[-88.57778,37.49307],[-88.5778,37.49308],[-88.57857,37.49371],[-88.57873,37.49384],[-88.57873,37.49385],[-88.57935,37.49436],[-88.57972,37.49467],[-88.57998,37.49488],[-88.58017,37.49503],[-88.58053,37.49527],[-88.58076,37.49541],[-88.58109,37.49557],[-88.5814,37.49569],[-88.58256,37.49603],[-88.58268,37.49606],[-88.58342,37.49626],[-88.58397,37.49641],[-88.58406,37.49644],[-88.58428,37.4965],[-88.58526,37.49677],[-88.58571,37.49692],[-88.58581,37.49696],[-88.58605,37.49708],[-88.58605,37.49708],[-88.58632,37.49725],[-88.58639,37.4973],[-88.58642,37.49733],[-88.58693,37.49787],[-88.58702,37.498],[-88.58714,37.49823],[-88.58722,37.4984],[-88.58723,37.49851],[-88.58723,37.49857],[-88.58726,37.49887],[-88.58726,37.49911],[-88.58727,37.49929],[-88.58727,37.49971],[-88.58727,37.49983],[-88.58727,37.50016],[-88.58726,37.50063],[-88.58726,37.50099],[-88.58726,37.50114],[-88.58725,37.50135],[-88.58725,37.50153],[-88.58724,37.50186],[-88.58724,37.50227],[-88.58724,37.50228],[-88.58724,37.5024],[-88.58724,37.50272],[-88.58724,37.50344],[-88.58723,37.50433],[-88.58723,37.50434],[-88.58723,37.5048],[-88.58722,37.50509],[-88.58722,37.5052],[-88.58726,37.50734],[-88.58721,37.50769],[-88.58716,37.50804],[-88.58708,37.5084],[-88.58692,37.5091],[-88.58691,37.50911],[-88.58669,37.50979],[-88.58655,37.51033],[-88.5865,37.51049],[-88.58644,37.51084],[-88.58644,37.51114]]}}]}