{"type":"FeatureCollection","features":[{"type":"Feature","properties":{"_gpxType":"trk","name":"Hayes Canyon Campground, Eddyville, IL - Simpson, IL - 1590 Goreville Rd - Tacoma Lake Rd - 5320 Giant City Rd - 208 E Oak St, Carbondale, IL 62901","coordinateProperties":{},"id":31},"geometry":{"type":"LineString","coordinates":[[-88.58653,37.51198],[-88.58648,37.51158],[-88.58644,37.5112],[-88.58644,37.51084],[-88.5865,37.51049],[-88.58655,37.51033],[-88.58669,37.50979],[-88.58691,37.50911],[-88.58692,37.5091],[-88.58708,37.5084],[-88.58716,37.50804],[-88.58721,37.50769],[-88.58726,37.50734],[-88.58722,37.5052],[-88.58722,37.50509],[-88.58723,37.5048],[-88.58723,37.50434],[-88.58723,37.50433],[-88.58724,37.50344],[-88.58724,37.50272],[-88.58724,37.5024],[-88.58724,37.50228],[-88.58724,37.50227],[-88.58724,37.50186],[-88.58725,37.50153],[-88.58725,37.50135],[-88.58726,37.50114],[-88.58726,37.50099],[-88.58726,37.50063],[-88.58727,37.50016],[-88.58727,37.49983],[-88.58727,37.49971],[-88.58727,37.49929],[-88.58726,37.49911],[-88.58726,37.49887],[-88.58723,37.49857],[-88.58723,37.49851],[-88.58722,37.4984],[-88.58714,37.49823],[-88.58702,37.498],[-88.58693,37.49787],[-88.58642,37.49733],[-88.58639,37.4973],[-88.58632,37.49725],[-88.58605,37.49708],[-88.58605,37.49708],[-88.58627,37.49679],[-88.58659,37.49637],[-88.58687,37.496],[-88.58697,37.49587],[-88.58698,37.49585],[-88.58719,37.49558],[-88.58734,37.49539],[-88.58734,37.49538],[-88.58742,37.49526],[-88.58744,37.49523],[-88.58756,37.49507],[-88.58778,37.49476],[-88.58781,37.49473],[-88.5879,37.49461],[-88.58799,37.49449],[-88.58802,37.49445],[-88.58817,37.49426],[-88.58864,37.49363],[-88.5889,37.49329],[-88.58925,37.49283],[-88.58937,37.49267],[-88.58948,37.49252],[-88.58972,37.49221],[-88.58981,37.49209],[-88.59009,37.49171],[-88.59021,37.49155],[-88.59044,37.49125],[-88.59056,37.49109],[-88.59079,37.49078],[-88.59081,37.49076],[-88.59096,37.49054],[-88.59102,37.49047],[-88.59148,37.48987],[-88.59161,37.4897],[-88.59173,37.48955],[-88.592,37.48919],[-88.59208,37.48909],[-88.59242,37.48862],[-88.59248,37.48855],[-88.59274,37.48819],[-88.59304,37.48779],[-88.59315,37.48763],[-88.59327,37.48748],[-88.59346,37.48722],[-88.59396,37.48655],[-88.59435,37.48605],[-88.59479,37.48548],[-88.59491,37.48532],[-88.59514,37.48502],[-88.59521,37.48493],[-88.59607,37.48378],[-88.59619,37.48362],[-88.597,37.48254],[-88.59733,37.48211],[-88.59735,37.48208],[-88.59748,37.48193],[-88.59768,37.48169],[-88.59807,37.4813],[-88.59849,37.48093],[-88.59893,37.48058],[-88.59909,37.48047],[-88.5994,37.48026],[-88.59979,37.48002],[-88.5999,37.47996],[-88.59998,37.47991],[-88.60042,37.47968],[-88.60074,37.47953],[-88.60096,37.47943],[-88.60134,37.47927],[-88.60152,37.4792],[-88.60154,37.47919],[-88.60175,37.47912],[-88.6021,37.47901],[-88.60217,37.47899],[-88.60269,37.47884],[-88.60277,37.47882],[-88.60329,37.47871],[-88.60359,37.47866],[-88.6039,37.4786],[-88.60582,37.47833],[-88.60605,37.4783],[-88.60627,37.47826],[-88.60636,37.47825],[-88.60693,37.47815],[-88.60697,37.47814],[-88.60715,37.4781],[-88.60757,37.47801],[-88.60759,37.478],[-88.6078,37.47795],[-88.60817,37.47786],[-88.60866,37.47771],[-88.60875,37.47768],[-88.60929,37.47751],[-88.60933,37.47749],[-88.60949,37.47743],[-88.6097,37.47735],[-88.60989,37.47728],[-88.61045,37.47705],[-88.6109,37.47685],[-88.61268,37.47606],[-88.61288,37.47598],[-88.61308,37.47589],[-88.61328,37.4758],[-88.6148,37.47512],[-88.61534,37.47488],[-88.61545,37.47483],[-88.61589,37.47464],[-88.61605,37.47457],[-88.61625,37.47449],[-88.61644,37.4744],[-88.61664,37.4743],[-88.61697,37.47414],[-88.6172,37.474],[-88.61738,37.4739],[-88.61747,37.47385],[-88.61772,37.47366],[-88.61793,37.47351],[-88.61825,37.47323],[-88.61835,37.47315],[-88.61835,37.47314],[-88.61849,37.473],[-88.61863,37.47286],[-88.61873,37.47275],[-88.61876,37.47271],[-88.61884,37.47262],[-88.61888,37.47256],[-88.619,37.47241],[-88.61906,37.47233],[-88.61911,37.47225],[-88.61921,37.47209],[-88.61931,37.47192],[-88.61933,37.47189],[-88.61947,37.47159],[-88.61955,37.47142],[-88.61961,37.47125],[-88.61965,37.47115],[-88.61968,37.47108],[-88.61973,37.47095],[-88.61975,37.4709],[-88.6199,37.47047],[-88.61994,37.47039],[-88.62007,37.47004],[-88.62009,37.46999],[-88.62029,37.46952],[-88.62048,37.46921],[-88.62056,37.46906],[-88.62058,37.46904],[-88.62069,37.46889],[-88.62071,37.46886],[-88.62089,37.46864],[-88.62109,37.46842],[-88.62129,37.46824],[-88.62152,37.46805],[-88.62153,37.46804],[-88.62172,37.46789],[-88.62198,37.46772],[-88.62204,37.46769],[-88.62222,37.46758],[-88.62273,37.4673],[-88.62317,37.46709],[-88.62375,37.46681],[-88.62394,37.46671],[-88.62433,37.46653],[-88.62452,37.46643],[-88.62472,37.46634],[-88.62491,37.46625],[-88.62588,37.46578],[-88.62652,37.46546],[-88.62762,37.46493],[-88.62781,37.46483],[-88.628,37.46474],[-88.62819,37.46465],[-88.62839,37.46455],[-88.62858,37.46446],[-88.62877,37.46436],[-88.62897,37.46427],[-88.62916,37.46417],[-88.62983,37.46385],[-88.63021,37.46366],[-88.63049,37.46353],[-88.63112,37.46322],[-88.6312,37.46318],[-88.63183,37.46289],[-88.6319,37.46286],[-88.63211,37.46278],[-88.6323,37.4627],[-88.63231,37.4627],[-88.63251,37.46262],[-88.6327,37.46255],[-88.63272,37.46254],[-88.63292,37.46247],[-88.63329,37.46234],[-88.63334,37.46233],[-88.63364,37.46224],[-88.63403,37.46213],[-88.6342,37.4621],[-88.63438,37.46205],[-88.63441,37.46204],[-88.63485,37.46195],[-88.63486,37.46195],[-88.63507,37.46191],[-88.63525,37.46188],[-88.63529,37.46187],[-88.63574,37.4618],[-88.63586,37.46178],[-88.63596,37.46177],[-88.63647,37.46171],[-88.63656,37.4617],[-88.6371,37.46166],[-88.63755,37.46164],[-88.63774,37.46163],[-88.63778,37.46163],[-88.63823,37.46163],[-88.63839,37.46163],[-88.63846,37.46163],[-88.64027,37.46169],[-88.64095,37.46171],[-88.64163,37.46173],[-88.64186,37.46174],[-88.64208,37.46174],[-88.64274,37.46176],[-88.64344,37.46179],[-88.64367,37.4618],[-88.64389,37.4618],[-88.64435,37.46182],[-88.64457,37.46183],[-88.64458,37.46183],[-88.64503,37.46184],[-88.64525,37.46185],[-88.64576,37.46186],[-88.64678,37.4619],[-88.64746,37.46192],[-88.64814,37.46194],[-88.64832,37.46194],[-88.64837,37.46195],[-88.6486,37.46195],[-88.64882,37.46196],[-88.6495,37.46198],[-88.64973,37.46199],[-88.64995,37.462],[-88.65018,37.46201],[-88.65063,37.46202],[-88.65086,37.46203],[-88.65131,37.46204],[-88.65222,37.46207],[-88.65245,37.46208],[-88.65324,37.4621],[-88.6551,37.46216],[-88.65543,37.46217],[-88.65602,37.46219],[-88.65668,37.46221],[-88.65693,37.46222],[-88.6576,37.46224],[-88.65763,37.46224],[-88.65827,37.46226],[-88.65829,37.46226],[-88.6585,37.46227],[-88.65865,37.46227],[-88.65895,37.46228],[-88.65982,37.46231],[-88.66089,37.46234],[-88.66146,37.46236],[-88.66168,37.46237],[-88.66222,37.46238],[-88.66258,37.46236],[-88.66261,37.46236],[-88.66295,37.46234],[-88.66331,37.46229],[-88.6637,37.46222],[-88.66396,37.46216],[-88.66396,37.46216],[-88.66412,37.4623],[-88.66419,37.46235],[-88.66429,37.4624],[-88.66445,37.46244],[-88.66464,37.46246],[-88.66473,37.46246],[-88.66506,37.46248],[-88.66518,37.46248],[-88.66541,37.46249],[-88.66695,37.46253],[-88.66753,37.46255],[-88.66838,37.46258],[-88.66866,37.46258],[-88.6691,37.4626],[-88.66978,37.46262],[-88.67,37.46263],[-88.67023,37.46264],[-88.67045,37.46265],[-88.67159,37.46269],[-88.67181,37.46269],[-88.67204,37.4627],[-88.67266,37.46272],[-88.67381,37.46276],[-88.67427,37.46277],[-88.67558,37.46276],[-88.67595,37.46275],[-88.67618,37.46274],[-88.6764,37.46274],[-88.67663,37.46273],[-88.67681,37.46272],[-88.67686,37.46272],[-88.67708,37.46271],[-88.67753,37.46268],[-88.67776,37.46267],[-88.67799,37.46266],[-88.67805,37.46265],[-88.67821,37.46264],[-88.67911,37.46259],[-88.67979,37.46254],[-88.68047,37.4625],[-88.6816,37.46244],[-88.68177,37.46243],[-88.68183,37.46243],[-88.68205,37.46241],[-88.68228,37.4624],[-88.68296,37.46236],[-88.68431,37.46228],[-88.68454,37.46227],[-88.68476,37.46226],[-88.6853,37.46223],[-88.68639,37.46216],[-88.6864,37.46215],[-88.68707,37.46211],[-88.68708,37.46211],[-88.68731,37.4621],[-88.68753,37.46208],[-88.68844,37.46202],[-88.68954,37.46196],[-88.69138,37.46181],[-88.69403,37.46164],[-88.69493,37.46159],[-88.69706,37.46148],[-88.69791,37.46144],[-88.69796,37.46143],[-88.69836,37.46141],[-88.69871,37.46139],[-88.69905,37.46136],[-88.70039,37.46128],[-88.70085,37.46124],[-88.70089,37.46124],[-88.70112,37.46122],[-88.70209,37.46116],[-88.70224,37.46115],[-88.70243,37.46113],[-88.70247,37.46113],[-88.70269,37.46112],[-88.70293,37.4611],[-88.70334,37.4611],[-88.70348,37.46109],[-88.70402,37.46107],[-88.70404,37.46106],[-88.70416,37.46106],[-88.70447,37.46104],[-88.70449,37.46104],[-88.7047,37.46103],[-88.70472,37.46103],[-88.70515,37.46101],[-88.70517,37.46101],[-88.70523,37.46101],[-88.70537,37.461],[-88.70595,37.46097],[-88.7065,37.46094],[-88.70653,37.46094],[-88.70676,37.46093],[-88.70744,37.46089],[-88.70831,37.46085],[-88.70887,37.46083],[-88.70909,37.46081],[-88.71,37.46077],[-88.71073,37.46073],[-88.71161,37.46069],[-88.71242,37.46062],[-88.71307,37.4606],[-88.71308,37.4606],[-88.7133,37.46058],[-88.71353,37.46057],[-88.71357,37.46057],[-88.71375,37.46056],[-88.71398,37.46055],[-88.7142,37.46054],[-88.71443,37.46053],[-88.71491,37.4605],[-88.71524,37.46049],[-88.71534,37.46049],[-88.71553,37.46049],[-88.71556,37.46049],[-88.71588,37.46049],[-88.71602,37.4605],[-88.71611,37.4605],[-88.71624,37.46051],[-88.71638,37.46053],[-88.71669,37.46056],[-88.71673,37.46057],[-88.71691,37.4606],[-88.71713,37.46063],[-88.71714,37.46063],[-88.7178,37.46074],[-88.71786,37.46075],[-88.71802,37.46078],[-88.71817,37.4608],[-88.71848,37.46084],[-88.71877,37.46087],[-88.71892,37.46088],[-88.71894,37.46088],[-88.71914,37.46088],[-88.71915,37.46088],[-88.71937,37.46088],[-88.71955,37.46088],[-88.7196,37.46088],[-88.71973,37.46088],[-88.71982,37.46087],[-88.71988,37.46087],[-88.72005,37.46086],[-88.72006,37.46086],[-88.72022,37.46084],[-88.72059,37.4608],[-88.72072,37.46078],[-88.72095,37.46075],[-88.72117,37.46073],[-88.72139,37.4607],[-88.72184,37.46064],[-88.72221,37.46059],[-88.72283,37.46051],[-88.72306,37.46049],[-88.72328,37.46046],[-88.7235,37.46043],[-88.72373,37.4604],[-88.72395,37.46037],[-88.72417,37.46034],[-88.72507,37.46023],[-88.72525,37.46021],[-88.72529,37.4602],[-88.72552,37.46017],[-88.72641,37.46005],[-88.72648,37.46005],[-88.72686,37.46],[-88.72708,37.45997],[-88.72731,37.45995],[-88.72749,37.45993],[-88.72753,37.45992],[-88.72776,37.4599],[-88.72798,37.45988],[-88.72813,37.45986],[-88.72843,37.45984],[-88.72865,37.45983],[-88.72908,37.4598],[-88.72927,37.4598],[-88.7298,37.45979],[-88.72997,37.45978],[-88.73048,37.45978],[-88.73087,37.45978],[-88.73132,37.4598],[-88.73149,37.4598],[-88.73217,37.45984],[-88.73221,37.45984],[-88.73265,37.45988],[-88.73307,37.45993],[-88.7333,37.45996],[-88.73352,37.45998],[-88.73354,37.45998],[-88.73374,37.46001],[-88.73397,37.46004],[-88.73398,37.46004],[-88.73419,37.46007],[-88.73442,37.46011],[-88.73463,37.46015],[-88.73529,37.46027],[-88.7353,37.46027],[-88.73551,37.46031],[-88.73573,37.46036],[-88.73595,37.46041],[-88.73616,37.46045],[-88.73617,37.46045],[-88.73661,37.46056],[-88.73683,37.46061],[-88.73702,37.46066],[-88.73704,37.46067],[-88.73725,37.46073],[-88.73744,37.46078],[-88.73768,37.46085],[-88.73789,37.46092],[-88.7381,37.46098],[-88.73827,37.46104],[-88.73831,37.46105],[-88.73852,37.46112],[-88.73859,37.46114],[-88.73873,37.46119],[-88.73894,37.46126],[-88.739,37.46129],[-88.73935,37.46142],[-88.73948,37.46147],[-88.73955,37.46149],[-88.73975,37.46157],[-88.7398,37.46159],[-88.73995,37.46166],[-88.7402,37.46176],[-88.74051,37.46189],[-88.74075,37.462],[-88.74082,37.46204],[-88.74094,37.4621],[-88.74099,37.46212],[-88.74124,37.46224],[-88.74152,37.46238],[-88.74163,37.46244],[-88.74171,37.46248],[-88.74204,37.46265],[-88.74209,37.46268],[-88.74227,37.46278],[-88.74236,37.46283],[-88.74246,37.46288],[-88.74264,37.46298],[-88.74294,37.46315],[-88.74306,37.46324],[-88.74326,37.46336],[-88.74377,37.46369],[-88.74382,37.46373],[-88.74399,37.46384],[-88.74416,37.46395],[-88.74429,37.46404],[-88.74434,37.46407],[-88.74438,37.4641],[-88.74485,37.46442],[-88.74498,37.46451],[-88.7455,37.46486],[-88.74568,37.46496],[-88.74587,37.46507],[-88.74618,37.46525],[-88.74626,37.46529],[-88.74641,37.46536],[-88.74657,37.46541],[-88.74658,37.46542],[-88.74674,37.46547],[-88.74691,37.46552],[-88.74701,37.46554],[-88.74727,37.4656],[-88.74745,37.46563],[-88.74746,37.46563],[-88.74783,37.46567],[-88.74814,37.46568],[-88.74832,37.46568],[-88.7485,37.46567],[-88.74873,37.46565],[-88.74885,37.46564],[-88.74895,37.46563],[-88.74899,37.46563],[-88.74965,37.46556],[-88.75,37.46554],[-88.75008,37.46554],[-88.75012,37.46554],[-88.75018,37.46554],[-88.75031,37.46554],[-88.75034,37.46554],[-88.75036,37.46554],[-88.75053,37.46555],[-88.75071,37.46556],[-88.75089,37.46558],[-88.75115,37.46563],[-88.75132,37.46566],[-88.75149,37.46571],[-88.75174,37.46578],[-88.75205,37.46588],[-88.75207,37.46589],[-88.7525,37.46604],[-88.75279,37.46614],[-88.75328,37.46632],[-88.75346,37.46638],[-88.7537,37.46646],[-88.75393,37.46655],[-88.75424,37.46666],[-88.75463,37.4668],[-88.75482,37.46687],[-88.75502,37.46694],[-88.75516,37.46698],[-88.75529,37.46703],[-88.75529,37.46703],[-88.75529,37.46721],[-88.75529,37.46727]]}},{"type":"Feature","properties":{"_gpxType":"trk","name":"Hayes Canyon Campground, Eddyville, IL - Simpson, IL - 1590 Goreville Rd - Tacoma Lake Rd - 5320 Giant City Rd - 208 E Oak St, Carbondale, IL 62901","coordinateProperties":{},"id":31},"geometry":{"type":"LineString","coordinates":[[-88.75529,37.46727],[-88.75529,37.46721],[-88.75529,37.46703],[-88.75529,37.46703],[-88.75546,37.46708],[-88.75563,37.46712],[-88.75589,37.46718],[-88.75606,37.46721],[-88.75623,37.46723],[-88.75641,37.46725],[-88.75659,37.46727],[-88.75677,37.46727],[-88.75727,37.46728],[-88.75819,37.46728],[-88.75865,37.46729],[-88.75875,37.46729],[-88.75886,37.46729],[-88.75933,37.46729],[-88.75954,37.46729],[-88.75965,37.46729],[-88.75978,37.46729],[-88.76001,37.46729],[-88.76022,37.46729],[-88.76023,37.46729],[-88.76041,37.46729],[-88.76046,37.46729],[-88.76125,37.46732],[-88.76227,37.46732],[-88.76249,37.46732],[-88.76521,37.46733],[-88.76635,37.46734],[-88.76725,37.46734],[-88.76839,37.46734],[-88.7688,37.46734],[-88.7702,37.46734],[-88.77043,37.46735],[-88.77133,37.46735],[-88.77179,37.46735],[-88.77246,37.46735],[-88.7745,37.46736],[-88.77544,37.46736],[-88.77564,37.46736],[-88.77586,37.46736],[-88.77691,37.46736],[-88.77691,37.46736],[-88.7768,37.46768],[-88.7768,37.46769],[-88.77676,37.46786],[-88.77675,37.46789],[-88.77666,37.46821],[-88.77661,37.46839],[-88.7766,37.46841],[-88.77651,37.46874],[-88.7764,37.46913],[-88.77626,37.46961],[-88.77626,37.46964],[-88.77611,37.47015],[-88.77605,37.47034],[-88.77602,37.47042],[-88.77598,37.47051],[-88.77593,37.47061],[-88.7759,37.47066],[-88.77586,37.47072],[-88.77579,37.47083],[-88.77571,37.47093],[-88.77558,37.47108],[-88.77554,37.47112],[-88.77541,37.47126],[-88.77516,37.47154],[-88.77488,37.47185],[-88.77465,37.47211],[-88.77451,37.47225],[-88.7745,37.47227],[-88.77445,37.47233],[-88.7744,37.47239],[-88.77436,37.47246],[-88.7743,37.47258],[-88.77427,37.47268],[-88.77425,37.47276],[-88.77424,37.47281],[-88.77423,37.47288],[-88.77422,37.473],[-88.77421,37.47316],[-88.77421,37.47323],[-88.77421,37.47334],[-88.77421,37.47352],[-88.77422,37.47355],[-88.77422,37.4737],[-88.77422,37.47388],[-88.77422,37.47406],[-88.77422,37.47474],[-88.77422,37.47496],[-88.77423,37.4755],[-88.77423,37.47604],[-88.77423,37.47704],[-88.77424,37.4774],[-88.77424,37.47758],[-88.77424,37.47772],[-88.77424,37.47821],[-88.77424,37.4783],[-88.77423,37.47843],[-88.7742,37.47864],[-88.77419,37.4787],[-88.77414,37.47887],[-88.77412,37.47894],[-88.77404,37.47917],[-88.77401,37.47929],[-88.774,37.47931],[-88.77395,37.47946],[-88.7739,37.4796],[-88.77382,37.47984],[-88.77376,37.47998],[-88.77369,37.48015],[-88.77365,37.48025],[-88.77359,37.48038],[-88.77354,37.48049],[-88.77351,37.48054],[-88.77342,37.48071],[-88.77334,37.48085],[-88.77325,37.48098],[-88.77311,37.4812],[-88.77304,37.4813],[-88.77292,37.48146],[-88.77279,37.48164],[-88.77275,37.48171],[-88.77272,37.48177],[-88.77269,37.48182],[-88.77264,37.48191],[-88.7726,37.48202],[-88.77258,37.4821],[-88.77258,37.48211],[-88.77256,37.48217],[-88.77255,37.48221],[-88.77255,37.48226],[-88.77254,37.48229],[-88.77254,37.4823],[-88.77253,37.48237],[-88.77253,37.48244],[-88.77253,37.48247],[-88.77254,37.48251],[-88.77254,37.48258],[-88.77256,37.48268],[-88.7726,37.48294],[-88.77267,37.4833],[-88.7727,37.48344],[-88.77271,37.48348],[-88.77274,37.48366],[-88.77277,37.48384],[-88.77279,37.48393],[-88.77281,37.48402],[-88.77284,37.48419],[-88.77289,37.48435],[-88.77296,37.4845],[-88.77303,37.4846],[-88.77307,37.48465],[-88.77309,37.48467],[-88.77318,37.48476],[-88.77332,37.48487],[-88.77346,37.48495],[-88.77359,37.48501],[-88.7737,37.48505],[-88.77377,37.48507],[-88.77386,37.48509],[-88.77395,37.4851],[-88.77401,37.48512],[-88.77409,37.48512],[-88.77417,37.48513],[-88.77425,37.48513],[-88.77438,37.48513],[-88.77446,37.48512],[-88.77468,37.48511],[-88.77497,37.48509],[-88.77514,37.48508],[-88.77559,37.48505],[-88.77626,37.485],[-88.77636,37.485],[-88.77694,37.48495],[-88.77778,37.48489],[-88.7783,37.48487],[-88.77875,37.48484],[-88.77902,37.48484],[-88.77953,37.48486],[-88.77966,37.48486],[-88.7806,37.48489],[-88.78079,37.4849],[-88.78101,37.4849],[-88.78144,37.48492],[-88.78147,37.48492],[-88.7816,37.48492],[-88.7818,37.48493],[-88.78193,37.48493],[-88.78215,37.48496],[-88.78216,37.48496],[-88.78245,37.485],[-88.78259,37.48503],[-88.78268,37.48506],[-88.78295,37.48514],[-88.78318,37.48523],[-88.7834,37.48535],[-88.78343,37.48537],[-88.78358,37.48546],[-88.78376,37.48556],[-88.78379,37.48558],[-88.78412,37.48578],[-88.78431,37.48589],[-88.78446,37.48598],[-88.78485,37.48621],[-88.78503,37.48632],[-88.7852,37.48642],[-88.78521,37.48643],[-88.78582,37.48679],[-88.78594,37.48686],[-88.78612,37.48697],[-88.78618,37.48701],[-88.7863,37.48708],[-88.78642,37.48715],[-88.78647,37.48719],[-88.78668,37.48733],[-88.78686,37.48748],[-88.78696,37.48757],[-88.78705,37.48765],[-88.7871,37.48771],[-88.78718,37.48779],[-88.78731,37.48794],[-88.78743,37.48812],[-88.78755,37.48829],[-88.78763,37.48844],[-88.7877,37.48857],[-88.78776,37.48872],[-88.7878,37.48887],[-88.78785,37.48909],[-88.78788,37.48928],[-88.7879,37.48948],[-88.78787,37.4902],[-88.78785,37.49069],[-88.78784,37.49092],[-88.78784,37.49108],[-88.78785,37.49119],[-88.78786,37.49132],[-88.78787,37.49139],[-88.78788,37.49146],[-88.7879,37.49154],[-88.78792,37.4916],[-88.788,37.4918],[-88.78806,37.49191],[-88.78809,37.49197],[-88.78813,37.49203],[-88.78821,37.49212],[-88.78826,37.49219],[-88.78833,37.49225],[-88.78841,37.49234],[-88.78848,37.4924],[-88.78853,37.49245],[-88.78861,37.49251],[-88.7887,37.49258],[-88.78897,37.49278],[-88.78914,37.4929],[-88.78945,37.49313],[-88.7898,37.49339],[-88.79036,37.4938],[-88.79063,37.494],[-88.79079,37.49413],[-88.79096,37.49425],[-88.79102,37.4943],[-88.79128,37.49448],[-88.79129,37.4945],[-88.79141,37.49459],[-88.79145,37.49462],[-88.79154,37.4947],[-88.7916,37.49476],[-88.79163,37.4948],[-88.79172,37.49489],[-88.79177,37.49496],[-88.79182,37.49503],[-88.79187,37.49511],[-88.79196,37.49525],[-88.79201,37.49535],[-88.79204,37.49544],[-88.79206,37.4955],[-88.79209,37.49562],[-88.79211,37.49569],[-88.79212,37.49577],[-88.79213,37.49582],[-88.79213,37.49591],[-88.79214,37.49595],[-88.79214,37.49598],[-88.79214,37.49613],[-88.79214,37.49614],[-88.79214,37.49631],[-88.79213,37.49667],[-88.79212,37.49698],[-88.79211,37.49739],[-88.7921,37.49787],[-88.79209,37.49829],[-88.79209,37.49841],[-88.79209,37.49862],[-88.7921,37.49877],[-88.7921,37.49883],[-88.79211,37.49889],[-88.79215,37.49905],[-88.79217,37.49912],[-88.79219,37.49918],[-88.79221,37.49923],[-88.79224,37.4993],[-88.7923,37.4994],[-88.79233,37.49945],[-88.79236,37.49949],[-88.79241,37.49956],[-88.79247,37.49963],[-88.79253,37.4997],[-88.79258,37.49976],[-88.79263,37.4998],[-88.79273,37.49988],[-88.7928,37.49995],[-88.79288,37.49999],[-88.79291,37.50001],[-88.79295,37.50004],[-88.79301,37.50007],[-88.79308,37.50011],[-88.79309,37.50011],[-88.79316,37.50015],[-88.79325,37.50018],[-88.79331,37.50021],[-88.79339,37.50024],[-88.79348,37.50027],[-88.7936,37.5003],[-88.79373,37.50033],[-88.79384,37.50035],[-88.79397,37.50036],[-88.79404,37.50037],[-88.79415,37.50038],[-88.79422,37.50038],[-88.79433,37.50039],[-88.79463,37.5004],[-88.79533,37.50042],[-88.7959,37.50044],[-88.79613,37.50045],[-88.79658,37.50046],[-88.79681,37.50047],[-88.79703,37.50048],[-88.79774,37.5005],[-88.79817,37.50052],[-88.79862,37.50053],[-88.79923,37.50055],[-88.79991,37.50058],[-88.80065,37.5006],[-88.8011,37.50062],[-88.80155,37.50064],[-88.80223,37.50066],[-88.80369,37.50071],[-88.80424,37.50073],[-88.80502,37.50076],[-88.80537,37.50077],[-88.80601,37.50079],[-88.80628,37.5008],[-88.8065,37.50081],[-88.80696,37.50082],[-88.80718,37.50083],[-88.80809,37.50086],[-88.80831,37.50087],[-88.80877,37.50089],[-88.80899,37.50089],[-88.80945,37.50091],[-88.81035,37.50094],[-88.81081,37.50096],[-88.8118,37.50099],[-88.81222,37.50101],[-88.81244,37.50101],[-88.81267,37.50102],[-88.8129,37.50103],[-88.81358,37.50106],[-88.81403,37.50107],[-88.81404,37.50107],[-88.81516,37.50111],[-88.81561,37.50112],[-88.81584,37.50113],[-88.81601,37.50114],[-88.81607,37.50114],[-88.81637,37.50115],[-88.81684,37.50117],[-88.81695,37.50118],[-88.8171,37.50119],[-88.81718,37.5012],[-88.81728,37.50122],[-88.8174,37.50123],[-88.81751,37.50126],[-88.81762,37.50129],[-88.81764,37.50129],[-88.81772,37.50132],[-88.81781,37.50135],[-88.81789,37.50138],[-88.81799,37.50142],[-88.81808,37.50146],[-88.81815,37.50149],[-88.81824,37.50155],[-88.81832,37.50159],[-88.81841,37.50165],[-88.81852,37.50173],[-88.81856,37.50177],[-88.8186,37.5018],[-88.81869,37.50188],[-88.81875,37.50194],[-88.81881,37.50201],[-88.81885,37.50205],[-88.8189,37.50212],[-88.81895,37.50219],[-88.81901,37.50228],[-88.81907,37.50239],[-88.81915,37.50254],[-88.81923,37.50272],[-88.81926,37.5028],[-88.8193,37.50289],[-88.81942,37.50314],[-88.81947,37.50324],[-88.81958,37.50347],[-88.81963,37.50355],[-88.81968,37.50363],[-88.81974,37.50373],[-88.81982,37.50386],[-88.81994,37.50402],[-88.82005,37.50417],[-88.82015,37.50428],[-88.82025,37.5044],[-88.82031,37.50446],[-88.82036,37.50451],[-88.82045,37.50461],[-88.82049,37.50465],[-88.8206,37.50474],[-88.8206,37.50475],[-88.8207,37.50484],[-88.82075,37.50488],[-88.8209,37.50501],[-88.82106,37.50514],[-88.82147,37.50548],[-88.82151,37.50551],[-88.82163,37.50561],[-88.82164,37.50562],[-88.82178,37.50574],[-88.82179,37.50575],[-88.8224,37.50627],[-88.82257,37.50641],[-88.82272,37.50653],[-88.82273,37.50654],[-88.82303,37.50679],[-88.82304,37.5068],[-88.82318,37.50692],[-88.8232,37.50693],[-88.82389,37.50752],[-88.82585,37.50915],[-88.82647,37.50967],[-88.82663,37.5098],[-88.82679,37.50993],[-88.8271,37.51019],[-88.82783,37.5108],[-88.82804,37.51097],[-88.82866,37.5115],[-88.82881,37.51163],[-88.82959,37.51228],[-88.82986,37.51251],[-88.83013,37.51273],[-88.83032,37.5129],[-88.83032,37.5129],[-88.8304,37.51295],[-88.83052,37.51305],[-88.83064,37.51315],[-88.83078,37.51328],[-88.83093,37.51341],[-88.83124,37.51367],[-88.83141,37.51381],[-88.83188,37.5142],[-88.83235,37.51459],[-88.83236,37.5146],[-88.83251,37.51472],[-88.83267,37.51484],[-88.83273,37.51489],[-88.83284,37.51496],[-88.833,37.51509],[-88.83317,37.51521],[-88.8335,37.51545],[-88.83367,37.51557],[-88.8339,37.51573],[-88.83407,37.51583],[-88.83454,37.51614],[-88.83489,37.51635],[-88.83518,37.51652],[-88.83525,37.51656],[-88.83543,37.51667],[-88.83598,37.51699],[-88.83616,37.5171],[-88.83647,37.51728],[-88.83689,37.51753],[-88.8369,37.51753],[-88.83726,37.51774],[-88.83744,37.51785],[-88.83762,37.51796],[-88.83777,37.51805],[-88.8378,37.51807],[-88.83798,37.5182],[-88.83818,37.51835],[-88.83836,37.51851],[-88.83843,37.51858],[-88.83854,37.5187],[-88.83856,37.51873],[-88.83872,37.51896],[-88.83878,37.51905],[-88.83885,37.51918],[-88.83889,37.51928],[-88.83898,37.51948],[-88.83901,37.51962],[-88.83903,37.51969],[-88.83904,37.5198],[-88.83905,37.5199],[-88.83905,37.52011],[-88.83903,37.52032],[-88.83903,37.52034],[-88.83887,37.52136],[-88.83886,37.52141],[-88.8388,37.52198],[-88.83879,37.52213],[-88.83877,37.52231],[-88.83876,37.52249],[-88.83875,37.52267],[-88.83873,37.52283],[-88.83873,37.52285],[-88.83872,37.52325],[-88.83872,37.52351],[-88.83872,37.52369],[-88.83877,37.52457],[-88.83877,37.52464],[-88.83879,37.52496],[-88.83881,37.52509],[-88.83885,37.52521],[-88.83887,37.52526],[-88.83889,37.52535],[-88.83895,37.52548],[-88.83903,37.52562],[-88.83911,37.52573],[-88.83925,37.52591],[-88.83926,37.52593],[-88.8393,37.52597],[-88.83941,37.52607],[-88.8395,37.52615],[-88.83967,37.52628],[-88.83981,37.52636],[-88.83981,37.52637],[-88.83996,37.52644],[-88.84,37.52646],[-88.84011,37.52651],[-88.8402,37.52655],[-88.84027,37.52658],[-88.84041,37.52662],[-88.84043,37.52663],[-88.8406,37.52667],[-88.84078,37.5267],[-88.84096,37.52672],[-88.84114,37.52673],[-88.8415,37.52674],[-88.84153,37.52674],[-88.84175,37.52673],[-88.84221,37.52672],[-88.84262,37.52671],[-88.84285,37.5267],[-88.84286,37.5267],[-88.8433,37.52669],[-88.84353,37.52668],[-88.84398,37.52667],[-88.84421,37.52666],[-88.84445,37.52665],[-88.84534,37.52663],[-88.84535,37.52663],[-88.84557,37.52663],[-88.8458,37.52662],[-88.84602,37.52662],[-88.8461,37.52662],[-88.84738,37.52658],[-88.84746,37.52658],[-88.84803,37.52656],[-88.84806,37.52656],[-88.84821,37.52655],[-88.84829,37.52655],[-88.84831,37.52655],[-88.84844,37.52655],[-88.84852,37.52656],[-88.8486,37.52657],[-88.84878,37.52659],[-88.84896,37.52663],[-88.84914,37.52669],[-88.84929,37.52677],[-88.84935,37.52681],[-88.84943,37.52686],[-88.84956,37.52696],[-88.84963,37.52704],[-88.84967,37.5271],[-88.84974,37.52719],[-88.84978,37.52729],[-88.84982,37.52741],[-88.84983,37.52742],[-88.84986,37.52758],[-88.84987,37.52762],[-88.84991,37.52795],[-88.85001,37.52884],[-88.85021,37.53058],[-88.85024,37.53081],[-88.85025,37.53087],[-88.85028,37.53116],[-88.8503,37.53133],[-88.85032,37.53152],[-88.85032,37.53155],[-88.85036,37.53177],[-88.8504,37.53199],[-88.85043,37.53207],[-88.85047,37.5322],[-88.85057,37.53239],[-88.85064,37.53252],[-88.85067,37.53256],[-88.85073,37.53264],[-88.85079,37.53271],[-88.85087,37.5328],[-88.85094,37.53287],[-88.85105,37.53297],[-88.85118,37.53308],[-88.8513,37.53316],[-88.85145,37.53325],[-88.85162,37.53332],[-88.85173,37.53337],[-88.85186,37.53341],[-88.8519,37.53342],[-88.85212,37.53348],[-88.85258,37.53359],[-88.85259,37.53359],[-88.85357,37.53379],[-88.85423,37.53392],[-88.85459,37.53399],[-88.85483,37.53406],[-88.85505,37.53413],[-88.85521,37.53421],[-88.85531,37.53427],[-88.85536,37.5343],[-88.85537,37.5343],[-88.85545,37.53437],[-88.85552,37.53443],[-88.85557,37.53448],[-88.85563,37.53455],[-88.85573,37.53468],[-88.85576,37.53473],[-88.85581,37.53481],[-88.85585,37.5349],[-88.85587,37.53494],[-88.85589,37.53502],[-88.8559,37.53508],[-88.85591,37.53522],[-88.85592,37.53536],[-88.85591,37.53556],[-88.8559,37.53574],[-88.85589,37.53598],[-88.85589,37.5361],[-88.85588,37.53628],[-88.85588,37.53634],[-88.85587,37.53652],[-88.85587,37.53663],[-88.85586,37.53682],[-88.85586,37.53703],[-88.85589,37.53719],[-88.85592,37.53731],[-88.85596,37.53744],[-88.85604,37.53757],[-88.85608,37.53764],[-88.85611,37.53769],[-88.85614,37.53773],[-88.85618,37.53777],[-88.85624,37.53784],[-88.85627,37.53788],[-88.85628,37.53789],[-88.85635,37.53796],[-88.8564,37.538],[-88.85647,37.53806],[-88.85652,37.5381],[-88.85653,37.53811],[-88.8566,37.53815],[-88.85667,37.5382],[-88.85674,37.53823],[-88.85681,37.53827],[-88.8569,37.53831],[-88.85703,37.53836],[-88.8572,37.53841],[-88.85735,37.53843],[-88.85753,37.53846],[-88.85755,37.53846],[-88.85779,37.53848],[-88.85807,37.5385],[-88.85822,37.5385],[-88.8583,37.53851],[-88.85849,37.53853],[-88.85857,37.53855],[-88.85866,37.53857],[-88.85874,37.5386],[-88.85887,37.53865],[-88.8589,37.53866],[-88.85894,37.53868],[-88.85904,37.53874],[-88.85917,37.53884],[-88.85929,37.53895],[-88.85939,37.53907],[-88.8594,37.53907],[-88.85946,37.53918],[-88.85947,37.53919],[-88.85949,37.53923],[-88.85952,37.53933],[-88.85956,37.53947],[-88.85958,37.53962],[-88.85959,37.54007],[-88.85959,37.54009],[-88.85959,37.54013],[-88.85959,37.54023],[-88.85959,37.54025],[-88.8596,37.54033],[-88.85962,37.54042],[-88.85963,37.54048],[-88.85963,37.5405],[-88.85967,37.5406],[-88.85967,37.54061],[-88.85969,37.54066],[-88.8597,37.54069],[-88.85973,37.54074],[-88.85975,37.54077],[-88.85982,37.54087],[-88.85987,37.54092],[-88.85992,37.54098],[-88.86001,37.54106],[-88.86004,37.54109],[-88.86006,37.5411],[-88.86018,37.54118],[-88.86033,37.54126],[-88.86037,37.54127],[-88.86049,37.54132],[-88.86058,37.54134],[-88.86065,37.54136],[-88.86091,37.5414],[-88.86117,37.54141],[-88.86133,37.54141],[-88.86156,37.54141],[-88.86178,37.54141],[-88.86201,37.54141],[-88.86224,37.54141],[-88.86269,37.5414],[-88.86291,37.5414],[-88.86305,37.5414],[-88.86314,37.5414],[-88.86451,37.54139],[-88.86519,37.54139],[-88.86535,37.54139],[-88.86557,37.54139],[-88.86625,37.54139],[-88.86693,37.54138],[-88.86761,37.54138],[-88.86815,37.54138],[-88.8692,37.54138],[-88.86957,37.54137],[-88.86966,37.54137],[-88.86994,37.54138],[-88.8704,37.54138],[-88.87062,37.54138],[-88.87074,37.54138],[-88.8713,37.54138],[-88.87156,37.54138],[-88.87175,37.54138],[-88.87198,37.54138],[-88.87221,37.54138],[-88.87232,37.54138],[-88.87243,37.54138],[-88.87266,37.54138],[-88.87311,37.54137],[-88.87343,37.54137],[-88.87357,37.54137],[-88.87402,37.54137],[-88.87418,37.54137],[-88.87425,37.54137],[-88.8744,37.54137],[-88.87448,37.54137],[-88.87463,37.54136],[-88.8747,37.54135],[-88.87476,37.54135],[-88.87495,37.54132],[-88.87511,37.54129],[-88.87536,37.54123],[-88.87562,37.54115],[-88.87574,37.54111],[-88.87594,37.54103],[-88.87623,37.54092],[-88.87643,37.54084],[-88.87664,37.54076],[-88.87689,37.54067],[-88.87705,37.5406],[-88.87726,37.54053],[-88.87731,37.5405],[-88.87746,37.54045],[-88.87754,37.54042],[-88.87787,37.54029],[-88.87815,37.54018],[-88.8784,37.54009],[-88.87851,37.54005],[-88.87862,37.54002],[-88.87877,37.53998],[-88.87889,37.53994],[-88.87891,37.53994],[-88.87901,37.53991],[-88.87915,37.53987],[-88.87941,37.53981],[-88.87968,37.53975],[-88.87994,37.5397],[-88.88008,37.53968],[-88.88021,37.53966],[-88.88045,37.53963],[-88.88074,37.5396],[-88.88075,37.5396],[-88.88097,37.53959],[-88.88125,37.53957],[-88.88143,37.53956],[-88.88165,37.53954],[-88.88188,37.53953],[-88.88211,37.53951],[-88.88247,37.53949],[-88.88282,37.53947],[-88.88301,37.53946],[-88.88324,37.53944],[-88.88346,37.53943],[-88.88369,37.53942],[-88.8837,37.53942],[-88.88391,37.5394],[-88.88437,37.53937],[-88.88504,37.53933],[-88.8854,37.53931],[-88.8856,37.5393],[-88.88583,37.53928],[-88.88606,37.53927],[-88.88628,37.53926],[-88.88687,37.53922],[-88.88741,37.53919],[-88.88743,37.53919],[-88.88764,37.53917],[-88.88779,37.53916],[-88.88787,37.53916],[-88.88803,37.53915],[-88.88809,37.53914],[-88.88845,37.53912],[-88.88932,37.53907],[-88.88954,37.53906],[-88.88977,37.53904],[-88.89011,37.53902],[-88.89022,37.53902],[-88.89067,37.53899],[-88.8909,37.53897],[-88.89226,37.53889],[-88.89226,37.53888],[-88.89253,37.53887],[-88.89281,37.53887],[-88.89294,37.53887],[-88.89308,37.53887],[-88.89335,37.53888],[-88.89358,37.5389],[-88.89374,37.53892],[-88.89386,37.53893],[-88.89416,37.53897],[-88.89553,37.53916],[-88.89597,37.53922],[-88.8962,37.53925],[-88.89709,37.53938],[-88.89729,37.53941],[-88.89741,37.53942],[-88.89754,37.53944],[-88.89756,37.53944],[-88.89768,37.53945],[-88.89776,37.53946],[-88.89781,37.53946],[-88.89794,37.53946],[-88.89799,37.53946],[-88.89807,37.53946],[-88.89819,37.53945],[-88.89833,37.53944],[-88.89844,37.53942],[-88.89846,37.53942],[-88.8986,37.53939],[-88.89866,37.53938],[-88.89871,37.53936],[-88.8988,37.53934],[-88.89893,37.5393],[-88.89905,37.53926],[-88.89916,37.53921],[-88.89947,37.53911],[-88.8997,37.53902],[-88.90034,37.53878],[-88.90091,37.53857],[-88.90096,37.53855],[-88.90116,37.53847],[-88.90254,37.53796],[-88.90317,37.53772],[-88.90362,37.53755],[-88.90424,37.53732],[-88.90527,37.53694],[-88.90568,37.53679],[-88.90609,37.53664],[-88.9063,37.53656],[-88.90671,37.53641],[-88.90766,37.53606],[-88.90786,37.53598],[-88.90868,37.53568],[-88.90889,37.5356],[-88.90991,37.53522],[-88.91012,37.53514],[-88.91145,37.53465],[-88.91156,37.53461],[-88.91217,37.53438],[-88.91244,37.53428],[-88.91259,37.53423],[-88.91269,37.5342],[-88.91292,37.53412],[-88.91301,37.53409],[-88.9132,37.53404],[-88.91338,37.53399],[-88.91345,37.53397],[-88.91353,37.53395],[-88.91371,37.53391],[-88.91387,37.53388],[-88.91397,37.53386],[-88.91409,37.53383],[-88.91424,37.53381],[-88.91431,37.5338],[-88.9145,37.53377],[-88.91476,37.53374],[-88.91503,37.53371],[-88.91512,37.53371],[-88.9153,37.5337],[-88.91566,37.53368],[-88.9163,37.53366],[-88.91675,37.53364],[-88.91698,37.53363],[-88.91743,37.53361],[-88.91766,37.53361],[-88.91879,37.53356],[-88.91898,37.53356],[-88.91927,37.53354],[-88.91962,37.53353],[-88.92007,37.53351],[-88.92036,37.5335],[-88.9213,37.53348],[-88.92158,37.53347],[-88.92274,37.53346],[-88.92297,37.53346],[-88.92342,37.53345],[-88.92365,37.53344],[-88.92388,37.53344],[-88.9241,37.53344],[-88.92433,37.53343],[-88.92456,37.53343],[-88.92479,37.53342],[-88.92501,37.53342],[-88.92524,37.53341],[-88.9255,37.53341],[-88.92569,37.5334],[-88.92606,37.5334],[-88.9263,37.53342],[-88.92642,37.53342],[-88.92649,37.53343],[-88.9266,37.53344],[-88.92671,37.53345],[-88.92682,37.53347],[-88.92694,37.53349],[-88.92705,37.53351],[-88.92714,37.53353],[-88.92724,37.53355],[-88.92735,37.53358],[-88.9275,37.53363],[-88.92785,37.53375],[-88.9285,37.53396],[-88.92915,37.53419],[-88.92999,37.53448],[-88.93082,37.53476],[-88.93103,37.53483],[-88.93117,37.53488],[-88.93144,37.53498],[-88.93186,37.53512],[-88.93207,37.5352],[-88.93227,37.53527],[-88.93248,37.53534],[-88.93291,37.53549],[-88.93333,37.53563],[-88.93389,37.53583],[-88.9343,37.53597],[-88.93451,37.53604],[-88.93493,37.53619],[-88.93513,37.53626],[-88.93555,37.5364],[-88.93659,37.53676],[-88.93825,37.53734],[-88.93867,37.53748],[-88.93908,37.53763],[-88.94012,37.53799],[-88.94033,37.53806],[-88.94054,37.53813],[-88.94075,37.5382],[-88.94095,37.53827],[-88.94142,37.53843],[-88.94183,37.53858],[-88.94204,37.53865],[-88.94225,37.53872],[-88.94246,37.53879],[-88.94264,37.53885],[-88.94312,37.53903],[-88.94332,37.53909],[-88.94351,37.53916],[-88.94365,37.5392],[-88.94396,37.53931],[-88.94399,37.53932],[-88.94406,37.53935],[-88.94448,37.53949],[-88.94461,37.53954],[-88.94469,37.53957],[-88.94476,37.5396],[-88.94489,37.53964],[-88.94507,37.5397],[-88.94531,37.53978],[-88.94544,37.53983],[-88.94552,37.53986],[-88.94555,37.53987],[-88.94614,37.54007],[-88.9467,37.54024],[-88.94678,37.54026],[-88.94691,37.5403],[-88.94701,37.54033],[-88.94713,37.54036],[-88.9472,37.54038],[-88.94731,37.54041],[-88.94734,37.54042],[-88.94742,37.54044],[-88.94755,37.54048],[-88.94763,37.5405],[-88.94777,37.54054],[-88.94785,37.54056],[-88.94794,37.54058],[-88.94798,37.5406],[-88.94806,37.54062],[-88.94828,37.54067],[-88.94841,37.54071],[-88.94849,37.54073],[-88.94865,37.54077],[-88.94871,37.54079],[-88.94892,37.54085],[-88.9497,37.54105],[-88.94995,37.54112],[-88.95134,37.54149],[-88.95148,37.54153],[-88.95202,37.54167],[-88.95218,37.54171],[-88.95245,37.54178],[-88.95266,37.54185],[-88.95271,37.54186],[-88.95287,37.54191],[-88.95307,37.54196],[-88.95309,37.54197],[-88.9533,37.54203],[-88.9535,37.54208],[-88.95351,37.54208],[-88.95435,37.54231],[-88.95437,37.54232],[-88.95464,37.54239],[-88.95523,37.54254],[-88.95545,37.5426],[-88.95546,37.5426],[-88.95566,37.54266],[-88.95575,37.54268],[-88.95588,37.54272],[-88.95607,37.54277],[-88.95609,37.54278],[-88.95631,37.54283],[-88.95639,37.54285],[-88.95653,37.54289],[-88.95659,37.5429],[-88.95674,37.54294],[-88.95693,37.54299],[-88.95696,37.54299],[-88.95728,37.54306],[-88.9574,37.54308],[-88.95762,37.54311],[-88.9578,37.54313],[-88.95785,37.54314],[-88.95816,37.54317],[-88.9583,37.54318],[-88.95851,37.54319],[-88.95873,37.5432],[-88.95887,37.54319],[-88.95898,37.54319],[-88.95905,37.54319],[-88.95922,37.54318],[-88.95958,37.54315],[-88.95965,37.54315],[-88.95993,37.54312],[-88.9601,37.54309],[-88.96032,37.54305],[-88.96036,37.54305],[-88.96079,37.54295],[-88.96112,37.54286],[-88.9614,37.54277],[-88.96161,37.5427],[-88.96177,37.54264],[-88.96182,37.54263],[-88.96202,37.54255],[-88.96233,37.54242],[-88.96242,37.54238],[-88.96304,37.54214],[-88.96384,37.54182],[-88.96385,37.54181],[-88.96416,37.5417],[-88.96441,37.54161],[-88.96463,37.54155],[-88.96489,37.54147],[-88.9649,37.54147],[-88.96502,37.54144],[-88.96531,37.54137],[-88.96557,37.54132],[-88.96592,37.54126],[-88.96617,37.54123],[-88.96627,37.54122],[-88.9664,37.54121],[-88.96662,37.54119],[-88.96697,37.54117],[-88.96707,37.54117],[-88.9673,37.54116],[-88.9675,37.54116],[-88.96753,37.54116],[-88.96775,37.54116],[-88.9682,37.54116],[-88.96821,37.54116],[-88.96834,37.54116],[-88.96858,37.54117],[-88.96858,37.54117],[-88.96858,37.5417],[-88.96857,37.54296],[-88.96858,37.54343],[-88.96858,37.54354],[-88.96859,37.54363],[-88.96863,37.54413],[-88.96865,37.54431],[-88.96867,37.54446],[-88.96869,37.54461],[-88.96871,37.5447],[-88.96877,37.54499],[-88.96878,37.54507],[-88.96881,37.54516],[-88.96885,37.54532],[-88.96891,37.54553],[-88.96896,37.54569],[-88.96901,37.54582],[-88.96901,37.54583],[-88.96905,37.54592],[-88.96909,37.54604],[-88.96921,37.54633],[-88.96932,37.54655],[-88.96943,37.54678],[-88.96948,37.54686],[-88.96952,37.54695],[-88.96961,37.5471],[-88.96971,37.54727],[-88.96991,37.54756],[-88.96999,37.54769],[-88.9703,37.54811],[-88.9707,37.54865],[-88.97077,37.54875],[-88.9709,37.54893],[-88.97098,37.54904],[-88.97108,37.54918],[-88.97135,37.54956],[-88.97142,37.54968],[-88.9715,37.5498],[-88.97163,37.55004],[-88.97172,37.55023],[-88.97175,37.5503],[-88.97179,37.5504],[-88.97185,37.5506],[-88.97192,37.55085],[-88.97196,37.55102],[-88.97199,37.55125],[-88.97201,37.55147],[-88.97202,37.55157],[-88.97203,37.55175],[-88.97208,37.55271],[-88.97213,37.55367],[-88.97214,37.55389],[-88.97215,37.55418],[-88.97217,37.55464],[-88.9722,37.5552],[-88.97222,37.55564],[-88.97222,37.55564],[-88.97245,37.55563],[-88.9726,37.55563],[-88.97265,37.55562],[-88.97277,37.55561],[-88.97327,37.55559],[-88.97382,37.55557],[-88.97437,37.55555],[-88.97493,37.55552],[-88.97508,37.55551],[-88.97523,37.55551],[-88.97538,37.5555],[-88.97542,37.5555],[-88.97572,37.5555],[-88.97584,37.5555],[-88.97588,37.5555],[-88.97606,37.5555],[-88.9761,37.5555],[-88.97629,37.55551],[-88.9763,37.55552],[-88.97644,37.55553],[-88.97666,37.55555],[-88.97696,37.55558],[-88.97719,37.55563],[-88.97736,37.55567],[-88.97755,37.55571],[-88.97771,37.55575],[-88.97787,37.5558],[-88.97788,37.55581],[-88.97791,37.55582],[-88.97807,37.55587],[-88.97812,37.55589],[-88.97823,37.55593],[-88.97844,37.55601],[-88.97849,37.55604],[-88.97867,37.55611],[-88.97911,37.55632],[-88.97911,37.55632],[-88.97925,37.55639],[-88.97955,37.55654],[-88.97969,37.55661],[-88.97989,37.55669],[-88.98,37.55674],[-88.98009,37.55677],[-88.98021,37.55682],[-88.98075,37.557],[-88.98112,37.55708],[-88.98151,37.55716],[-88.98168,37.55718],[-88.98189,37.55721],[-88.98205,37.55722],[-88.98216,37.55723],[-88.98228,37.55724],[-88.98246,37.55725],[-88.98273,37.55725],[-88.98317,37.55726],[-88.98339,37.55726],[-88.9834,37.55726],[-88.98385,37.55725],[-88.98468,37.55723],[-88.98557,37.55722],[-88.98603,37.55722],[-88.98636,37.55721],[-88.9875,37.55719],[-88.98773,37.55719],[-88.98795,37.55719],[-88.98841,37.55718],[-88.98863,37.55718],[-88.98886,37.55718],[-88.98909,37.55717],[-88.98931,37.55717],[-88.98977,37.55716],[-88.99023,37.55715],[-88.9907,37.55714],[-88.99093,37.55714],[-88.99138,37.55713],[-88.99161,37.55712],[-88.99297,37.55709],[-88.99342,37.55708],[-88.99354,37.55708],[-88.99365,37.55708],[-88.99433,37.55706],[-88.99456,37.55706],[-88.99478,37.55705],[-88.99501,37.55705],[-88.99524,37.55704],[-88.99546,37.55704],[-88.99592,37.55703],[-88.99615,37.55702],[-88.99637,37.55702],[-88.9966,37.55701],[-88.99683,37.55701],[-88.99705,37.557],[-88.99728,37.557],[-88.9974,37.557],[-88.99762,37.55699],[-88.99782,37.55699],[-88.99805,37.55698],[-88.99871,37.55697],[-88.99896,37.55696],[-88.99918,37.55696],[-89.00032,37.55693],[-89.00055,37.55693],[-89.00077,37.55692],[-89.00123,37.55691],[-89.00145,37.55691],[-89.00166,37.5569],[-89.00213,37.55689],[-89.00236,37.55689],[-89.00304,37.55687],[-89.00327,37.55687],[-89.00349,37.55686],[-89.00395,37.55685],[-89.00409,37.55685],[-89.00417,37.55685],[-89.0044,37.55684],[-89.00463,37.55684],[-89.00506,37.55683],[-89.00531,37.55683],[-89.00554,37.55683],[-89.00569,37.55683],[-89.00667,37.55682],[-89.00735,37.55681],[-89.00758,37.55681],[-89.00838,37.55679],[-89.00871,37.55679],[-89.00894,37.55679],[-89.00917,37.55678],[-89.00939,37.55678],[-89.00962,37.55678],[-89.00985,37.55678],[-89.0103,37.55677],[-89.01053,37.55677],[-89.01075,37.55676],[-89.01098,37.55676],[-89.01143,37.55675],[-89.01203,37.55674],[-89.01476,37.55665],[-89.01586,37.55661],[-89.01677,37.55658],[-89.01798,37.55655],[-89.01813,37.55654],[-89.01971,37.55648],[-89.0203,37.55646],[-89.02053,37.55646],[-89.02121,37.55644],[-89.02143,37.55644],[-89.02168,37.55644],[-89.02211,37.55642],[-89.02257,37.5564],[-89.02279,37.55639],[-89.02301,37.55638],[-89.02302,37.55638],[-89.02325,37.55637],[-89.02354,37.55636],[-89.02384,37.55633],[-89.02414,37.55628],[-89.02437,37.55624],[-89.02459,37.5562],[-89.02464,37.55619],[-89.02481,37.55615],[-89.02494,37.55611],[-89.02502,37.55609],[-89.02523,37.55602],[-89.02525,37.55601],[-89.02544,37.55595],[-89.02564,37.55588],[-89.02571,37.55585],[-89.02585,37.5558],[-89.0261,37.55571],[-89.02652,37.55558],[-89.02669,37.55553],[-89.0269,37.55547],[-89.027,37.55544],[-89.02712,37.55541],[-89.02734,37.55537],[-89.02742,37.55535],[-89.02756,37.55533],[-89.02778,37.55529],[-89.02793,37.55526],[-89.028,37.55525],[-89.02823,37.55523],[-89.02829,37.55522],[-89.02846,37.55521],[-89.02872,37.5552],[-89.02891,37.55519],[-89.02908,37.55519],[-89.02914,37.55519],[-89.02931,37.5552],[-89.02936,37.5552],[-89.02945,37.5552],[-89.02959,37.55521],[-89.02981,37.55523],[-89.02986,37.55524],[-89.03002,37.55525],[-89.03017,37.55527],[-89.03039,37.55531],[-89.03047,37.55532],[-89.03058,37.55534],[-89.03077,37.55538],[-89.03089,37.55542],[-89.03102,37.55545],[-89.03117,37.55549],[-89.03131,37.55553],[-89.03239,37.55582],[-89.03249,37.55584],[-89.0326,37.55587],[-89.03261,37.55587],[-89.03272,37.5559],[-89.03279,37.55592],[-89.03282,37.55593],[-89.03284,37.55594],[-89.03285,37.55594],[-89.03297,37.55597],[-89.03302,37.55599],[-89.03325,37.55605],[-89.03337,37.55608],[-89.03389,37.55622],[-89.03395,37.55624],[-89.03406,37.55626],[-89.03418,37.55629],[-89.03428,37.55631],[-89.03438,37.55633],[-89.03448,37.55635],[-89.03463,37.55637],[-89.03493,37.5564],[-89.03513,37.5564],[-89.03524,37.5564],[-89.03536,37.55639],[-89.03539,37.55639],[-89.03545,37.55639],[-89.03557,37.55638],[-89.03561,37.55637],[-89.03578,37.55635],[-89.03583,37.55633],[-89.03599,37.5563],[-89.03632,37.55621],[-89.03664,37.5561],[-89.03693,37.55597],[-89.03724,37.55579],[-89.03742,37.55566],[-89.03759,37.55555],[-89.0376,37.55554],[-89.03776,37.55543],[-89.0381,37.55519],[-89.03815,37.55516],[-89.03827,37.55507],[-89.03844,37.55495],[-89.03853,37.55489],[-89.03862,37.55484],[-89.0388,37.55473],[-89.03884,37.5547],[-89.03899,37.55463],[-89.03911,37.55457],[-89.03931,37.55449],[-89.03939,37.55447],[-89.0396,37.5544],[-89.03962,37.55439],[-89.03984,37.55433],[-89.03994,37.55431],[-89.04001,37.5543],[-89.04012,37.55428],[-89.04029,37.55425],[-89.04041,37.55424],[-89.04052,37.55423],[-89.04071,37.55422],[-89.04084,37.55421],[-89.04096,37.55421],[-89.04096,37.5542],[-89.04108,37.5542],[-89.04118,37.5542],[-89.04128,37.5542],[-89.04151,37.55419],[-89.04234,37.55419],[-89.04302,37.5542],[-89.0437,37.55422],[-89.04416,37.55422],[-89.0442,37.55422],[-89.04454,37.55422],[-89.04461,37.55421],[-89.04483,37.55419],[-89.04494,37.55419],[-89.04506,37.55417],[-89.04528,37.55414],[-89.0453,37.55413],[-89.0455,37.5541],[-89.04573,37.55407],[-89.04621,37.55399],[-89.04652,37.55395]]}},{"type":"Feature","properties":{"_gpxType":"trk","name":"Hayes Canyon Campground, Eddyville, IL - Simpson, IL - 1590 Goreville Rd - Tacoma Lake Rd - 5320 Giant City Rd - 208 E Oak St, Carbondale, IL 62901","coordinateProperties":{},"id":31},"geometry":{"type":"LineString","coordinates":[[-89.04652,37.55395],[-89.04663,37.55393],[-89.04685,37.55393],[-89.04693,37.55393],[-89.04712,37.55394],[-89.0473,37.55397],[-89.04751,37.55402],[-89.04759,37.55403],[-89.04773,37.55407],[-89.04816,37.55419],[-89.04837,37.55425],[-89.04859,37.55431],[-89.04865,37.55432],[-89.0488,37.55436],[-89.04902,37.55442],[-89.04959,37.55457],[-89.04967,37.5546],[-89.04974,37.55463],[-89.04982,37.55467],[-89.04982,37.55467],[-89.04985,37.55471],[-89.04987,37.55475],[-89.04989,37.5548],[-89.0499,37.55484],[-89.0499,37.55485],[-89.0499,37.55493],[-89.04988,37.55525],[-89.04987,37.55538],[-89.04986,37.55556],[-89.04982,37.5561],[-89.04981,37.55628],[-89.04979,37.55664],[-89.04978,37.55682],[-89.04977,37.55692],[-89.04975,37.55718],[-89.04974,37.55736],[-89.0497,37.55807],[-89.04968,37.55825],[-89.04967,37.55843],[-89.04966,37.55861],[-89.04965,37.55879],[-89.04964,37.55895],[-89.04964,37.55897],[-89.04959,37.55951],[-89.04958,37.55969],[-89.04955,37.55999],[-89.0495,37.56053],[-89.04947,37.56085],[-89.04944,37.5612],[-89.04943,37.56136],[-89.04943,37.56138],[-89.04942,37.56149],[-89.04941,37.56156],[-89.04939,37.56164],[-89.04937,37.56173],[-89.04937,37.56174],[-89.04932,37.56191],[-89.04931,37.56192],[-89.04927,37.56205],[-89.04921,37.56221],[-89.04912,37.56243],[-89.04905,37.5626],[-89.04905,37.56261],[-89.049,37.56272],[-89.04898,37.56277],[-89.04892,37.56294],[-89.04892,37.56295],[-89.0489,37.56305],[-89.04888,37.56312],[-89.04887,37.56317],[-89.04885,37.5633],[-89.04885,37.56331],[-89.04884,37.56348],[-89.04883,37.56348],[-89.04881,37.56384],[-89.04879,37.5642],[-89.04878,37.56427],[-89.04873,37.56491],[-89.04873,37.56497],[-89.04872,37.56509],[-89.04871,37.56527],[-89.04869,37.56545],[-89.04868,37.56563],[-89.04867,37.56581],[-89.04866,37.56599],[-89.04865,37.56615],[-89.04863,37.56632],[-89.04863,37.56635],[-89.04859,37.56663],[-89.04857,37.56671],[-89.04856,37.56676],[-89.04853,37.56683],[-89.0485,37.56688],[-89.0485,37.5669],[-89.04846,37.56697],[-89.04842,37.56705],[-89.04841,37.56705],[-89.04836,37.56713],[-89.04827,37.56726],[-89.04821,37.56735],[-89.0482,37.56736],[-89.04814,37.56743],[-89.04785,37.56777],[-89.04781,37.5678],[-89.04768,37.56795],[-89.04768,37.56796],[-89.0476,37.56805],[-89.04753,37.56814],[-89.04742,37.56834],[-89.04738,37.56843],[-89.04735,37.56849],[-89.04731,37.56861],[-89.04725,37.56878],[-89.04721,37.56888],[-89.04713,37.56913],[-89.04707,37.56929],[-89.04707,37.5693],[-89.04702,37.56947],[-89.04697,37.56965],[-89.04694,37.56973],[-89.04686,37.57],[-89.04681,37.57017],[-89.04678,37.57028],[-89.04676,37.57035],[-89.04673,37.57049],[-89.04672,37.57053],[-89.04669,37.57071],[-89.04669,37.57072],[-89.04668,37.57088],[-89.04667,37.57091],[-89.04666,37.5711],[-89.04664,37.5716],[-89.04663,37.57178],[-89.04663,37.57196],[-89.04662,37.57214],[-89.04661,37.57232],[-89.04661,37.5725],[-89.0466,37.57268],[-89.0466,37.57286],[-89.04659,37.57304],[-89.04659,37.57313],[-89.04659,37.57322],[-89.04659,37.57335],[-89.0466,37.57343],[-89.04661,37.5735],[-89.04663,37.57358],[-89.04667,37.5737],[-89.04673,37.57382],[-89.04678,37.57388],[-89.04685,37.57397],[-89.04689,37.574],[-89.04694,37.57405],[-89.0471,37.57418],[-89.04715,37.57422],[-89.04737,37.57439],[-89.04747,37.57449],[-89.04755,37.57458],[-89.04757,37.5746],[-89.04765,37.5747],[-89.04771,37.5748],[-89.04777,37.57493],[-89.0478,37.57501],[-89.04783,37.57507],[-89.04783,37.57509],[-89.04786,37.5752],[-89.04787,37.57525],[-89.04788,37.5753],[-89.04789,37.57543],[-89.0479,37.57557],[-89.04791,37.57561],[-89.04792,37.57579],[-89.04793,37.57597],[-89.04795,37.57615],[-89.04796,37.57632],[-89.04797,37.57643],[-89.04798,37.5765],[-89.04799,37.57668],[-89.048,37.57686],[-89.04804,37.5774],[-89.04806,37.57758],[-89.04807,37.57776],[-89.04808,37.57794],[-89.0481,37.57812],[-89.04811,37.5783],[-89.04811,37.57834],[-89.04812,37.57848],[-89.04813,37.57866],[-89.04814,37.57884],[-89.04814,37.57902],[-89.04815,37.57903],[-89.04814,37.5793],[-89.04812,37.57956],[-89.04811,37.57963],[-89.0481,37.57974],[-89.04807,37.58003],[-89.04804,37.58027],[-89.04802,37.58045],[-89.048,37.58063],[-89.04797,37.58081],[-89.04786,37.58171],[-89.04782,37.58206],[-89.0478,37.58223],[-89.04777,37.58242],[-89.04774,37.58268],[-89.04773,37.58278],[-89.04772,37.5829],[-89.04772,37.58296],[-89.04772,37.58306],[-89.04773,37.5832],[-89.04774,37.58328],[-89.04777,37.58347],[-89.04781,37.58367],[-89.04782,37.58369],[-89.04788,37.5839],[-89.04792,37.58402],[-89.04798,37.5842],[-89.048,37.58426],[-89.04823,37.58495],[-89.04834,37.58524],[-89.0484,37.58541],[-89.04852,37.58576],[-89.0487,37.58628],[-89.04876,37.58645],[-89.04895,37.58697],[-89.04895,37.58699],[-89.04898,37.58707],[-89.04916,37.58759],[-89.04919,37.58768],[-89.04922,37.58776],[-89.04934,37.58811],[-89.04946,37.58846],[-89.04964,37.58898],[-89.04971,37.5892],[-89.04995,37.58989],[-89.05001,37.59007],[-89.05015,37.59049],[-89.05042,37.59128],[-89.05048,37.59146],[-89.05054,37.59163],[-89.0506,37.5918],[-89.05066,37.59198],[-89.05072,37.59215],[-89.05078,37.59232],[-89.05092,37.59275],[-89.05095,37.59285],[-89.05101,37.59302],[-89.05104,37.59316],[-89.05105,37.5932],[-89.05106,37.59331],[-89.05106,37.59338],[-89.05106,37.59339],[-89.05106,37.59346],[-89.05105,37.59356],[-89.05104,37.59374],[-89.05103,37.59385],[-89.05103,37.59392],[-89.05101,37.59417],[-89.05101,37.59428],[-89.05101,37.5945],[-89.05101,37.59463],[-89.05099,37.59533],[-89.05099,37.59535],[-89.05099,37.59553],[-89.051,37.59571],[-89.051,37.59587],[-89.05099,37.59613],[-89.05099,37.59631],[-89.05098,37.59649],[-89.05098,37.59667],[-89.05098,37.59667],[-89.05096,37.59703],[-89.05096,37.59714],[-89.05094,37.59757],[-89.05093,37.59775],[-89.05093,37.59778],[-89.05092,37.59793],[-89.05091,37.59829],[-89.0509,37.59847],[-89.0509,37.59865],[-89.05089,37.59879],[-89.05088,37.59901],[-89.05087,37.59937],[-89.05086,37.59955],[-89.05085,37.59976],[-89.05084,37.59994],[-89.05083,37.60032],[-89.05081,37.6005],[-89.05081,37.60056],[-89.05081,37.60068],[-89.0508,37.60086],[-89.05079,37.60104],[-89.05078,37.60122],[-89.05078,37.60129],[-89.05076,37.60158],[-89.05076,37.60176],[-89.05075,37.60194],[-89.05074,37.60212],[-89.05073,37.60229],[-89.0507,37.60299],[-89.0507,37.60301],[-89.05069,37.60319],[-89.05069,37.60322],[-89.05069,37.60337],[-89.05068,37.60355],[-89.05068,37.60356],[-89.05068,37.60391],[-89.05068,37.60399],[-89.05068,37.60427],[-89.05067,37.60445],[-89.05067,37.60463],[-89.05067,37.60481],[-89.05067,37.60499],[-89.05067,37.60517],[-89.05067,37.60521],[-89.05066,37.60535],[-89.05066,37.60545],[-89.05065,37.60553],[-89.05065,37.60571],[-89.05065,37.60589],[-89.05064,37.60607],[-89.05064,37.60625],[-89.05064,37.60643],[-89.05063,37.60661],[-89.05063,37.60679],[-89.05063,37.60697],[-89.05062,37.60714],[-89.05062,37.60715],[-89.05062,37.60747],[-89.05062,37.60763],[-89.05062,37.60765],[-89.05062,37.60767],[-89.05061,37.60781],[-89.05061,37.60799],[-89.05061,37.60801],[-89.05061,37.60817],[-89.05061,37.60819],[-89.05061,37.60831],[-89.0506,37.60835],[-89.0506,37.60873],[-89.0506,37.60889],[-89.0506,37.60891],[-89.05059,37.60907],[-89.05059,37.60909],[-89.05059,37.60924],[-89.05059,37.60925],[-89.05059,37.60927],[-89.05059,37.60943],[-89.05059,37.60945],[-89.05059,37.60961],[-89.05059,37.6097],[-89.05059,37.60979],[-89.05059,37.60981],[-89.05058,37.60997],[-89.05058,37.61017],[-89.05058,37.61025],[-89.05058,37.61033],[-89.05058,37.61035],[-89.05058,37.61051],[-89.05057,37.61066],[-89.05057,37.61069],[-89.05057,37.61071],[-89.05057,37.61087],[-89.05057,37.61089],[-89.05056,37.61099],[-89.05056,37.61125],[-89.05055,37.61141],[-89.05055,37.61161],[-89.05054,37.61177],[-89.05054,37.61197],[-89.05053,37.61214],[-89.05053,37.61231],[-89.05052,37.61262],[-89.05052,37.61267],[-89.05051,37.61295],[-89.05051,37.61303],[-89.05051,37.61321],[-89.05051,37.61327],[-89.05051,37.61339],[-89.05051,37.61357],[-89.05051,37.61369],[-89.05051,37.61375],[-89.0505,37.61393],[-89.0505,37.61411],[-89.0505,37.61447],[-89.0505,37.61465],[-89.0505,37.61483],[-89.0505,37.61484],[-89.05049,37.61501],[-89.05049,37.61519],[-89.05048,37.61533],[-89.05048,37.61537],[-89.05048,37.61573],[-89.05047,37.61586],[-89.05047,37.6159],[-89.05047,37.61608],[-89.05047,37.61612],[-89.05046,37.61644],[-89.05046,37.6168],[-89.05045,37.61698],[-89.05045,37.61712],[-89.05045,37.61716],[-89.05044,37.61734],[-89.05044,37.61744],[-89.05044,37.61752],[-89.05044,37.6177],[-89.05043,37.61806],[-89.05042,37.61816],[-89.05042,37.61824],[-89.05042,37.6186],[-89.05042,37.61896],[-89.05041,37.61924],[-89.05041,37.61932],[-89.05041,37.6195],[-89.0504,37.61972],[-89.0504,37.62008],[-89.0504,37.6201],[-89.05039,37.62026],[-89.05039,37.62044],[-89.05039,37.62062],[-89.05039,37.62098],[-89.05039,37.62116],[-89.05038,37.62134],[-89.05038,37.62153],[-89.05038,37.62167],[-89.05038,37.62203],[-89.05038,37.62211],[-89.05038,37.62236],[-89.05038,37.62239],[-89.05039,37.62251],[-89.0504,37.62256],[-89.05042,37.62269],[-89.05044,37.62274],[-89.05046,37.62283],[-89.05049,37.62292],[-89.05051,37.623],[-89.05055,37.62309],[-89.05058,37.62316],[-89.05062,37.62326],[-89.05066,37.62334],[-89.05074,37.62351],[-89.05081,37.62365],[-89.05092,37.62384],[-89.05093,37.62385],[-89.05105,37.62402],[-89.05114,37.62416],[-89.05116,37.62418],[-89.05125,37.62431],[-89.05133,37.62442],[-89.05137,37.62447],[-89.05147,37.6246],[-89.05148,37.62462],[-89.0516,37.62477],[-89.05164,37.62482],[-89.05172,37.62493],[-89.05185,37.62511],[-89.05206,37.62539],[-89.0521,37.62545],[-89.05218,37.62555],[-89.05229,37.6257],[-89.05276,37.62634],[-89.05285,37.62646],[-89.05285,37.62646],[-89.05297,37.62641],[-89.053,37.62641],[-89.05308,37.6264],[-89.05324,37.6264],[-89.05368,37.62641],[-89.05391,37.62641],[-89.05436,37.62642],[-89.055,37.62644],[-89.05531,37.62644],[-89.05534,37.62644],[-89.05648,37.62647],[-89.05716,37.62648],[-89.05784,37.6265],[-89.05807,37.6265],[-89.05852,37.62651],[-89.05898,37.62652],[-89.0592,37.62652],[-89.05966,37.62653],[-89.06007,37.62654],[-89.06098,37.62655],[-89.06128,37.62655],[-89.06211,37.62656],[-89.06302,37.62658],[-89.06317,37.62658],[-89.06336,37.62658],[-89.06344,37.62657],[-89.06348,37.62657],[-89.06353,37.62657],[-89.06371,37.62654],[-89.06382,37.62651],[-89.06386,37.6265],[-89.06401,37.62644],[-89.06414,37.62637],[-89.06426,37.62628],[-89.06428,37.62627],[-89.06441,37.62612],[-89.06445,37.62608],[-89.06452,37.62596],[-89.06458,37.62583],[-89.06459,37.62579],[-89.06465,37.62562],[-89.06471,37.62545],[-89.06475,37.62534],[-89.06478,37.62528],[-89.06481,37.62522],[-89.06487,37.6251],[-89.06496,37.62498],[-89.06498,37.62495],[-89.06505,37.62488],[-89.06513,37.62482],[-89.06516,37.62479],[-89.06527,37.62473],[-89.06531,37.62471],[-89.0654,37.62467],[-89.06551,37.62463],[-89.06555,37.62462],[-89.06571,37.62458],[-89.06588,37.62454],[-89.06617,37.62449],[-89.06639,37.62446],[-89.06662,37.62442],[-89.06684,37.62438],[-89.06706,37.62434],[-89.06735,37.62429],[-89.06752,37.62427],[-89.06771,37.62425],[-89.06789,37.62425],[-89.06796,37.62425],[-89.06818,37.62427],[-89.06845,37.62428],[-89.06863,37.62428],[-89.06864,37.62428],[-89.0688,37.62427],[-89.06898,37.62424],[-89.06916,37.62419],[-89.06929,37.62415],[-89.06935,37.62413],[-89.06991,37.62392],[-89.07012,37.62384],[-89.07053,37.62369],[-89.07073,37.62361],[-89.07114,37.62346],[-89.0715,37.62336],[-89.07171,37.62329],[-89.07235,37.6231],[-89.07277,37.62298],[-89.0732,37.62285],[-89.07345,37.62277],[-89.07363,37.62273],[-89.07365,37.62272],[-89.07383,37.62266],[-89.07405,37.6226],[-89.07426,37.62253],[-89.07434,37.62251],[-89.07447,37.62247],[-89.07469,37.62241],[-89.07471,37.6224],[-89.07489,37.62236],[-89.07491,37.62236],[-89.07505,37.62233],[-89.07524,37.62231],[-89.07542,37.6223],[-89.0756,37.62229],[-89.07578,37.62229],[-89.07596,37.62231],[-89.07615,37.62233],[-89.07633,37.62236],[-89.07637,37.62237],[-89.07653,37.6224],[-89.07659,37.62242],[-89.07673,37.62245],[-89.07692,37.62251],[-89.07701,37.62254],[-89.07711,37.62258],[-89.07721,37.62263],[-89.07741,37.62271],[-89.07746,37.62274],[-89.07761,37.6228],[-89.078,37.62298],[-89.07817,37.62306],[-89.0782,37.62307],[-89.07832,37.62315],[-89.07837,37.62319],[-89.07845,37.62325],[-89.07852,37.62332],[-89.07855,37.62335],[-89.07864,37.62348],[-89.07871,37.62362],[-89.0788,37.62381],[-89.07888,37.62398],[-89.07892,37.62405],[-89.07896,37.62415],[-89.07905,37.62432],[-89.07912,37.62447],[-89.0792,37.62461],[-89.07923,37.62464],[-89.07929,37.62473],[-89.07936,37.62479],[-89.0794,37.62484],[-89.07954,37.62493],[-89.07968,37.62501],[-89.07985,37.62507],[-89.08003,37.62513],[-89.08013,37.62515],[-89.08034,37.6252],[-89.08039,37.62521],[-89.08056,37.62526],[-89.08056,37.62527],[-89.08071,37.62532],[-89.08087,37.6254],[-89.08095,37.62546],[-89.08102,37.62551],[-89.08142,37.62585],[-89.08146,37.62587],[-89.08161,37.62599],[-89.08176,37.62608],[-89.08193,37.62617],[-89.08196,37.62618],[-89.08212,37.62624],[-89.08216,37.62625],[-89.08237,37.62633],[-89.08258,37.6264],[-89.08279,37.62647],[-89.08321,37.62661],[-89.08341,37.62668],[-89.08346,37.6267],[-89.08364,37.62676],[-89.08366,37.62677],[-89.08393,37.62688],[-89.08404,37.62692],[-89.08405,37.62693],[-89.08423,37.62701],[-89.08441,37.62709],[-89.08451,37.62715],[-89.08458,37.62718],[-89.08475,37.62728],[-89.08491,37.62738],[-89.08505,37.62748],[-89.08521,37.6276],[-89.0853,37.62768],[-89.08566,37.62798],[-89.08592,37.62821],[-89.08638,37.62861],[-89.08668,37.62887],[-89.08681,37.62898],[-89.08699,37.62914],[-89.08709,37.62922],[-89.08715,37.62926],[-89.08724,37.62933],[-89.08733,37.62938],[-89.08741,37.62943],[-89.08758,37.62952],[-89.08775,37.62961],[-89.08792,37.62968],[-89.08809,37.62975],[-89.0881,37.62975],[-89.08828,37.62981],[-89.08831,37.62982],[-89.08874,37.62995],[-89.08884,37.62998],[-89.08895,37.63001],[-89.0892,37.63009],[-89.0894,37.63016],[-89.08958,37.63024],[-89.08977,37.63032],[-89.08995,37.6304],[-89.08996,37.63041],[-89.09013,37.6305],[-89.09033,37.63062],[-89.09046,37.6307],[-89.09062,37.63082],[-89.09086,37.631],[-89.09103,37.63112],[-89.09119,37.63125],[-89.09137,37.63138],[-89.09143,37.63143],[-89.09147,37.63146],[-89.09159,37.63155],[-89.09163,37.63159],[-89.09164,37.63159],[-89.09191,37.63181],[-89.09196,37.63184],[-89.09207,37.63193],[-89.09212,37.63197],[-89.09224,37.63206],[-89.09229,37.6321],[-89.09245,37.63223],[-89.09262,37.63236],[-89.09272,37.63244],[-89.09278,37.63248],[-89.09295,37.63259],[-89.09307,37.63267],[-89.09322,37.63277],[-89.09329,37.63281],[-89.09352,37.633],[-89.09361,37.63307],[-89.09377,37.63319],[-89.09409,37.63345],[-89.09426,37.63357],[-89.0944,37.63368],[-89.09442,37.6337],[-89.09456,37.63379],[-89.09477,37.63393],[-89.09486,37.63399],[-89.09495,37.63404],[-89.09503,37.63408],[-89.09532,37.63424],[-89.09551,37.63433],[-89.0957,37.63443],[-89.09589,37.63453],[-89.0959,37.63453],[-89.09623,37.63472],[-89.09626,37.63474],[-89.09639,37.63482],[-89.09642,37.63484],[-89.09656,37.63496],[-89.09674,37.63511],[-89.09707,37.63543],[-89.09712,37.63548],[-89.09771,37.63604],[-89.09779,37.63612],[-89.098,37.63632],[-89.09842,37.63674],[-89.0985,37.63682],[-89.09884,37.63717],[-89.09887,37.6372],[-89.09928,37.6376]]}},{"type":"Feature","properties":{"_gpxType":"trk","name":"Hayes Canyon Campground, Eddyville, IL - Simpson, IL - 1590 Goreville Rd - Tacoma Lake Rd - 5320 Giant City Rd - 208 E Oak St, Carbondale, IL 62901","coordinateProperties":{},"id":31},"geometry":{"type":"LineString","coordinates":[[-89.09928,37.6376],[-89.09942,37.63774],[-89.09954,37.63787],[-89.09962,37.63795],[-89.09968,37.63802],[-89.0999,37.63827],[-89.09994,37.63831],[-89.10003,37.63841],[-89.10011,37.63851],[-89.10018,37.63862],[-89.10019,37.63862],[-89.10024,37.63874],[-89.10026,37.63879],[-89.10029,37.63887],[-89.10031,37.63901],[-89.10031,37.63915],[-89.10029,37.6393],[-89.10026,37.63943],[-89.10022,37.63949],[-89.10019,37.63956],[-89.10012,37.63965],[-89.1001,37.63968],[-89.09999,37.63979],[-89.09998,37.63979],[-89.09994,37.63983],[-89.09987,37.6399],[-89.09983,37.63993],[-89.09963,37.64012],[-89.09939,37.64034],[-89.09938,37.64035],[-89.09907,37.64057],[-89.09906,37.64057],[-89.09891,37.6407],[-89.09876,37.64083],[-89.09863,37.64095],[-89.0985,37.64109],[-89.09848,37.64111],[-89.09838,37.64122],[-89.09827,37.64136],[-89.09825,37.64139],[-89.09823,37.64141],[-89.09816,37.6415],[-89.09814,37.64154],[-89.09812,37.64157],[-89.09807,37.64164],[-89.09804,37.6417],[-89.09802,37.64173],[-89.098,37.64177],[-89.09793,37.6419],[-89.09793,37.64191],[-89.09783,37.64202],[-89.09783,37.64219],[-89.0978,37.64232],[-89.09779,37.64238],[-89.09778,37.64243],[-89.09776,37.64256],[-89.09776,37.6426],[-89.09774,37.64274],[-89.09774,37.64278],[-89.09772,37.64292],[-89.09772,37.64296],[-89.09771,37.64303],[-89.0977,37.6431],[-89.09769,37.64314],[-89.09766,37.64327],[-89.09765,37.64337],[-89.09764,37.64358],[-89.09764,37.64359],[-89.09763,37.64376],[-89.09761,37.64394],[-89.09761,37.64398],[-89.09771,37.64422],[-89.09776,37.64428],[-89.0978,37.64434],[-89.09799,37.64447],[-89.09809,37.64451],[-89.09819,37.64454],[-89.09844,37.64459],[-89.09867,37.64454],[-89.09875,37.64453],[-89.09897,37.64449],[-89.09898,37.64449],[-89.09919,37.64444],[-89.09927,37.64442],[-89.0994,37.64439],[-89.09958,37.64435],[-89.09962,37.64434],[-89.1001,37.64425],[-89.10028,37.64421],[-89.1006,37.64413],[-89.10072,37.6441],[-89.10113,37.64402],[-89.10116,37.64402],[-89.10147,37.64403],[-89.1016,37.64408],[-89.1017,37.64412],[-89.10194,37.64429],[-89.10211,37.64443],[-89.10213,37.64444],[-89.10234,37.64455],[-89.10252,37.64453],[-89.10254,37.64453],[-89.10272,37.64445],[-89.10288,37.6444],[-89.10293,37.6444],[-89.10301,37.64441],[-89.10338,37.6445],[-89.10377,37.6446],[-89.1038,37.64461],[-89.10418,37.64474],[-89.10421,37.64476],[-89.10439,37.64487],[-89.10457,37.64507],[-89.10462,37.64518],[-89.1047,37.64533],[-89.10485,37.64575],[-89.10489,37.64605],[-89.1049,37.64612],[-89.1048,37.6464],[-89.10475,37.64656],[-89.10474,37.64662],[-89.10475,37.64674],[-89.10476,37.64682],[-89.10483,37.64704],[-89.10494,37.64722],[-89.10496,37.64724],[-89.10508,37.6474],[-89.10508,37.6474],[-89.106,37.64694],[-89.10624,37.64683],[-89.10648,37.64674],[-89.10671,37.64666],[-89.10695,37.64659],[-89.10703,37.64656],[-89.10719,37.64652],[-89.10724,37.64651],[-89.10746,37.64646],[-89.10769,37.64642],[-89.10813,37.64634],[-89.10847,37.64628],[-89.10857,37.64626],[-89.10874,37.64621],[-89.10899,37.64612],[-89.1092,37.64602],[-89.10937,37.64593],[-89.10942,37.64591],[-89.10955,37.64582],[-89.10961,37.64577],[-89.10971,37.64569],[-89.10978,37.64563],[-89.10995,37.64546],[-89.11011,37.64529],[-89.11024,37.64514],[-89.11039,37.64497],[-89.11051,37.64484],[-89.11052,37.64482],[-89.11065,37.64468],[-89.11092,37.64439],[-89.11099,37.64431],[-89.11105,37.64424],[-89.11118,37.6441],[-89.11132,37.64395],[-89.11152,37.64372],[-89.11172,37.64352],[-89.11187,37.64337],[-89.11202,37.64324],[-89.11204,37.64322],[-89.11224,37.64308],[-89.11237,37.64302],[-89.11243,37.64298],[-89.11256,37.64292],[-89.11263,37.64288],[-89.11287,37.64281],[-89.11298,37.64278],[-89.1131,37.64275],[-89.1132,37.64273],[-89.11334,37.64271],[-89.11342,37.6427],[-89.11359,37.64268],[-89.11383,37.64268],[-89.11387,37.64268],[-89.11405,37.6427],[-89.1141,37.6427],[-89.11428,37.64273],[-89.11454,37.64277],[-89.115,37.64285],[-89.11523,37.64289],[-89.11548,37.64293],[-89.11602,37.64301],[-89.11612,37.64302],[-89.11658,37.64308],[-89.11687,37.64309],[-89.11702,37.6431],[-89.11725,37.64311],[-89.1177,37.64313],[-89.11773,37.64314],[-89.11815,37.64316],[-89.11861,37.64318],[-89.11877,37.64318],[-89.11883,37.64319],[-89.11906,37.6432],[-89.11952,37.64322],[-89.11979,37.64323],[-89.1201,37.64325],[-89.12047,37.64326],[-89.12069,37.64327],[-89.12092,37.64327],[-89.12115,37.64328],[-89.1213,37.64329],[-89.12137,37.64329],[-89.1216,37.6433],[-89.12251,37.64332],[-89.12288,37.64332],[-89.12316,37.64333],[-89.12361,37.64334],[-89.12382,37.64335],[-89.12458,37.64338],[-89.12498,37.6434],[-89.12503,37.6434],[-89.12549,37.64343],[-89.12566,37.64344],[-89.12617,37.64347],[-89.12633,37.64348],[-89.12639,37.64348],[-89.12656,37.64349],[-89.12667,37.6435],[-89.12685,37.64351],[-89.12701,37.64352],[-89.12722,37.64352],[-89.12724,37.64352],[-89.12728,37.64352],[-89.12751,37.64353],[-89.12774,37.64353],[-89.12783,37.64353],[-89.1286,37.64353],[-89.12865,37.64353],[-89.12909,37.64353],[-89.1291,37.64353],[-89.12933,37.64353],[-89.12981,37.64354],[-89.12991,37.64354],[-89.1305,37.64356],[-89.13053,37.64356],[-89.13076,37.64357],[-89.13121,37.64359],[-89.13144,37.6436],[-89.13166,37.6436],[-89.13189,37.64361],[-89.1321,37.64362],[-89.13239,37.64363],[-89.13246,37.64364],[-89.13255,37.64365],[-89.13257,37.64365],[-89.13265,37.64366],[-89.13276,37.64367],[-89.1328,37.64368],[-89.13292,37.6437],[-89.13309,37.64374],[-89.1334,37.64383],[-89.13344,37.64385],[-89.13359,37.64391],[-89.13374,37.64398],[-89.13389,37.64406],[-89.13391,37.64407],[-89.13407,37.64417],[-89.13421,37.64428],[-89.13423,37.6443],[-89.13438,37.64443],[-89.13452,37.64458],[-89.13453,37.64459],[-89.13471,37.64478],[-89.13484,37.64492],[-89.13498,37.64508],[-89.1351,37.64521],[-89.13519,37.64531],[-89.13521,37.64533],[-89.13537,37.6455],[-89.13547,37.64558],[-89.13547,37.64559],[-89.1356,37.64569],[-89.13577,37.6458],[-89.13597,37.64591],[-89.13619,37.64602],[-89.1366,37.64624],[-89.13773,37.64684],[-89.13789,37.64694],[-89.13806,37.64703],[-89.13827,37.64715],[-89.13858,37.64731],[-89.13888,37.64743],[-89.13907,37.64751],[-89.13933,37.64758],[-89.1394,37.64759],[-89.13957,37.64763],[-89.13973,37.64766],[-89.14002,37.64769],[-89.14022,37.64771],[-89.14027,37.64771],[-89.14051,37.64772],[-89.14085,37.64774],[-89.14091,37.64774],[-89.1413,37.64776],[-89.14152,37.64778],[-89.14172,37.6478],[-89.14181,37.64781],[-89.142,37.64784],[-89.14213,37.64787],[-89.14225,37.64789],[-89.14241,37.64793],[-89.14268,37.64801],[-89.14269,37.64801],[-89.14289,37.64807],[-89.14293,37.64809],[-89.1431,37.64815],[-89.14343,37.6483],[-89.14368,37.64843],[-89.14369,37.64843],[-89.14387,37.64853],[-89.14389,37.64854],[-89.14406,37.64864],[-89.14409,37.64866],[-89.14436,37.64881],[-89.14474,37.64902],[-89.14507,37.64921],[-89.14517,37.64926],[-89.14528,37.64932],[-89.14536,37.64935],[-89.14556,37.64944],[-89.14557,37.64944],[-89.1459,37.64954],[-89.14599,37.64955],[-89.14617,37.64959],[-89.14646,37.64961],[-89.14676,37.6496],[-89.14699,37.64958],[-89.14718,37.64955],[-89.14737,37.64951],[-89.14754,37.64945],[-89.14767,37.6494],[-89.14781,37.64934],[-89.14798,37.64926],[-89.14799,37.64925],[-89.14807,37.6492],[-89.14819,37.64912],[-89.14823,37.64909],[-89.14829,37.64905],[-89.14834,37.64901],[-89.14841,37.64895],[-89.14846,37.6489],[-89.14848,37.64888],[-89.14854,37.64882],[-89.14862,37.64874],[-89.14875,37.64859],[-89.149,37.64832],[-89.14926,37.64802],[-89.14954,37.64771],[-89.14962,37.64762],[-89.14967,37.64756],[-89.14969,37.64754],[-89.1498,37.64742],[-89.1498,37.64741],[-89.14991,37.6473],[-89.15,37.64719],[-89.15011,37.64707],[-89.1502,37.64695],[-89.15031,37.64682],[-89.15038,37.64673],[-89.15046,37.64662],[-89.15064,37.6464],[-89.15072,37.64629],[-89.15074,37.64625],[-89.15086,37.64609],[-89.15091,37.64603],[-89.15097,37.64594],[-89.1511,37.64575],[-89.15118,37.64562],[-89.1512,37.6456],[-89.15127,37.6455],[-89.15129,37.64546],[-89.15139,37.6453],[-89.15142,37.64527],[-89.1515,37.64514],[-89.15155,37.64507],[-89.15161,37.64498],[-89.15168,37.64488],[-89.15171,37.64482],[-89.15173,37.6448],[-89.15185,37.64463],[-89.15189,37.64458],[-89.15192,37.64455],[-89.15195,37.64452],[-89.152,37.64447],[-89.15203,37.64444],[-89.15207,37.6444],[-89.15212,37.64435],[-89.15215,37.64433],[-89.15222,37.64427],[-89.15229,37.64422],[-89.15241,37.64414],[-89.15251,37.64408],[-89.15257,37.64405],[-89.15271,37.64397],[-89.1528,37.64393],[-89.15289,37.6439],[-89.15295,37.64388],[-89.15308,37.64383],[-89.15314,37.64382],[-89.15328,37.64378],[-89.15333,37.64377],[-89.15348,37.64374],[-89.15362,37.64373],[-89.15374,37.64372],[-89.15387,37.64371],[-89.15412,37.64371],[-89.15435,37.64371],[-89.15444,37.64371],[-89.15478,37.64372],[-89.1548,37.64372],[-89.15528,37.64373],[-89.15582,37.64374],[-89.15639,37.64375],[-89.15672,37.64376],[-89.15722,37.64376],[-89.15745,37.64377],[-89.1579,37.64377],[-89.15879,37.64379],[-89.15925,37.64381],[-89.16016,37.64384],[-89.16038,37.64384],[-89.16084,37.64386],[-89.16106,37.64387],[-89.16128,37.64387],[-89.16152,37.64388],[-89.16175,37.64389],[-89.16178,37.64389],[-89.1625,37.64391],[-89.1625,37.64391],[-89.16249,37.64445],[-89.16249,37.64456],[-89.16247,37.64535],[-89.16247,37.64546],[-89.16247,37.64553],[-89.16246,37.64589],[-89.16246,37.646],[-89.16246,37.64607],[-89.16245,37.64643],[-89.16245,37.64651],[-89.16245,37.64654],[-89.16245,37.64661],[-89.16246,37.64683],[-89.16248,37.64709],[-89.16249,37.64723],[-89.16252,37.64747],[-89.16256,37.64765],[-89.16258,37.64776],[-89.1626,37.64783],[-89.16266,37.648],[-89.16267,37.64804],[-89.16272,37.64817],[-89.16275,37.64827],[-89.16278,37.64835],[-89.16282,37.64845],[-89.16286,37.64852],[-89.16293,37.64867],[-89.16303,37.64885],[-89.16306,37.64891],[-89.16312,37.64901],[-89.16315,37.64908],[-89.16326,37.64926],[-89.1634,37.6495],[-89.16347,37.64963],[-89.16355,37.64976],[-89.16369,37.65002],[-89.1638,37.65021],[-89.16393,37.65042],[-89.16394,37.65044],[-89.16402,37.65058],[-89.16404,37.65061],[-89.16418,37.65084],[-89.16428,37.651],[-89.16434,37.65108],[-89.16445,37.65122],[-89.16455,37.65134],[-89.1646,37.65139],[-89.16468,37.65147],[-89.16474,37.65153],[-89.16482,37.6516],[-89.16501,37.65177],[-89.16504,37.65179],[-89.16516,37.65189],[-89.16521,37.65192],[-89.1653,37.65199],[-89.16538,37.65204],[-89.16548,37.65211],[-89.16562,37.65219],[-89.16574,37.65225],[-89.16577,37.65226],[-89.16589,37.65233],[-89.16593,37.65235],[-89.16612,37.65243],[-89.16613,37.65244],[-89.16628,37.65249],[-89.16643,37.65255],[-89.16657,37.6526],[-89.16675,37.65265],[-89.16692,37.65269],[-89.16718,37.65276],[-89.16719,37.65276],[-89.1674,37.65281],[-89.16741,37.65281],[-89.16764,37.65287],[-89.16791,37.65293],[-89.16819,37.653],[-89.16845,37.65306],[-89.16846,37.65306],[-89.16867,37.65311],[-89.1687,37.65311],[-89.1689,37.65316],[-89.1691,37.65321],[-89.16921,37.65324],[-89.16932,37.65326],[-89.16965,37.65334],[-89.16983,37.65339],[-89.16998,37.65344],[-89.17012,37.65349],[-89.17014,37.65349],[-89.17028,37.65356],[-89.17041,37.65362],[-89.17054,37.6537],[-89.1706,37.65373],[-89.17061,37.65374],[-89.17076,37.65383],[-89.17096,37.65401],[-89.17108,37.65412],[-89.17131,37.65441],[-89.17138,37.65451],[-89.17144,37.6546],[-89.17147,37.65467],[-89.17158,37.65493],[-89.17162,37.65509],[-89.17164,37.65521],[-89.17165,37.65533],[-89.17166,37.6556],[-89.17165,37.6563],[-89.17165,37.65659],[-89.17163,37.6572],[-89.17162,37.65772],[-89.1716,37.65883],[-89.17159,37.65898],[-89.17159,37.65912],[-89.17157,37.65934],[-89.17157,37.65949],[-89.17155,37.65989],[-89.17155,37.66018],[-89.17153,37.66061],[-89.17152,37.66092],[-89.17152,37.66093],[-89.17152,37.66125],[-89.17149,37.66189],[-89.17147,37.66235],[-89.17146,37.66256]]}},{"type":"Feature","properties":{"_gpxType":"trk","name":"Hayes Canyon Campground, Eddyville, IL - Simpson, IL - 1590 Goreville Rd - Tacoma Lake Rd - 5320 Giant City Rd - 208 E Oak St, Carbondale, IL 62901","coordinateProperties":{},"id":31},"geometry":{"type":"LineString","coordinates":[[-89.17146,37.66256],[-89.17143,37.66339],[-89.17143,37.66357],[-89.17141,37.66402],[-89.1714,37.66447],[-89.17139,37.66457],[-89.17137,37.66589],[-89.17135,37.66673],[-89.17135,37.66691],[-89.17134,37.66727],[-89.17133,37.66745],[-89.17133,37.66763],[-89.17131,37.66853],[-89.17131,37.66894],[-89.17131,37.6693],[-89.17131,37.66966],[-89.17131,37.66984],[-89.1713,37.6702],[-89.1713,37.67038],[-89.1713,37.67074],[-89.1713,37.67092],[-89.1713,37.67095],[-89.1713,37.6711],[-89.17132,37.67194],[-89.17132,37.67211],[-89.17132,37.67219],[-89.17132,37.67229],[-89.17133,37.67247],[-89.17136,37.67299],[-89.17138,37.67342],[-89.17138,37.67355],[-89.1714,37.67389],[-89.17141,37.67414],[-89.17142,37.67427],[-89.17144,37.6745],[-89.17146,37.67472],[-89.17154,37.67524],[-89.17154,37.67526],[-89.17157,37.67543],[-89.1716,37.67558],[-89.17168,37.67595],[-89.17183,37.67654],[-89.17186,37.67664],[-89.17194,37.67689],[-89.17213,37.67742],[-89.17241,37.67812],[-89.17249,37.6783],[-89.17255,37.67842],[-89.17261,37.67859],[-89.17268,37.67877],[-89.17284,37.6792],[-89.17295,37.67946],[-89.17302,37.67963],[-89.17316,37.67999],[-89.17326,37.68023],[-89.1733,37.68033],[-89.17338,37.68052],[-89.17348,37.68076],[-89.17357,37.68099],[-89.17364,37.68118],[-89.17389,37.68179],[-89.1741,37.6823],[-89.17452,37.68335],[-89.17466,37.68366],[-89.17479,37.68399],[-89.17488,37.68422],[-89.17494,37.68439],[-89.17497,37.68446],[-89.17506,37.68467],[-89.17508,37.68473],[-89.17515,37.6849],[-89.17526,37.68515],[-89.1753,37.68524],[-89.17567,37.68617],[-89.17578,37.68644],[-89.17599,37.68696],[-89.17606,37.68713],[-89.17607,37.68715],[-89.17631,37.68773],[-89.17652,37.68827],[-89.17671,37.68874],[-89.17678,37.68891],[-89.17699,37.68942],[-89.17706,37.68959],[-89.17711,37.68973],[-89.1772,37.68994],[-89.17727,37.69011],[-89.17735,37.69031],[-89.17748,37.69062],[-89.1776,37.69093],[-89.17768,37.69113],[-89.17774,37.69126],[-89.17775,37.69131],[-89.17783,37.69148],[-89.17787,37.69158],[-89.1779,37.69165],[-89.17797,37.69182],[-89.17804,37.69199],[-89.17831,37.69267],[-89.17838,37.69285],[-89.17845,37.69302],[-89.17847,37.69306],[-89.17852,37.69319],[-89.17859,37.69336],[-89.17863,37.69344],[-89.17872,37.69365],[-89.17884,37.69389],[-89.17905,37.69427],[-89.17913,37.69442],[-89.17916,37.69448],[-89.17923,37.69459],[-89.17924,37.6946],[-89.17926,37.69464],[-89.17932,37.69471],[-89.17942,37.69486],[-89.17966,37.69521],[-89.17977,37.69537],[-89.17987,37.69552],[-89.17991,37.69559],[-89.18004,37.69577],[-89.18013,37.6959],[-89.18018,37.69598],[-89.18024,37.69606],[-89.18029,37.69614],[-89.18042,37.69633],[-89.18045,37.69638],[-89.1805,37.69646],[-89.18053,37.6965],[-89.18056,37.69654],[-89.18083,37.69693],[-89.18104,37.69723],[-89.18129,37.69762],[-89.18132,37.69767],[-89.18168,37.69819],[-89.18212,37.69883],[-89.18256,37.69949],[-89.18311,37.70028],[-89.18317,37.70037],[-89.18334,37.70062],[-89.18343,37.70075],[-89.18349,37.70082],[-89.18371,37.70115],[-89.18387,37.70139],[-89.18399,37.70156],[-89.18415,37.70181],[-89.18423,37.70192],[-89.18442,37.7022],[-89.18477,37.70271],[-89.18488,37.70288],[-89.18495,37.70299],[-89.18498,37.70304],[-89.18508,37.7032],[-89.18516,37.70337],[-89.18521,37.70347],[-89.18524,37.70354],[-89.18529,37.70364],[-89.18537,37.70388],[-89.18547,37.70425],[-89.18552,37.70448],[-89.18554,37.70464],[-89.18555,37.70473],[-89.18555,37.70505],[-89.18555,37.70539],[-89.18554,37.70554],[-89.18553,37.7058],[-89.18553,37.7059],[-89.1855,37.70698],[-89.18549,37.7076],[-89.18548,37.70789],[-89.18547,37.70832],[-89.18547,37.70832],[-89.18579,37.70832],[-89.18625,37.70832],[-89.18648,37.70833],[-89.18661,37.70833],[-89.18684,37.70833],[-89.18693,37.70833],[-89.18739,37.70833],[-89.18752,37.70833],[-89.18761,37.70833],[-89.18875,37.70834],[-89.18888,37.70834],[-89.18898,37.70834],[-89.19002,37.70834],[-89.19024,37.70837],[-89.19045,37.70841],[-89.19069,37.70845],[-89.19091,37.70849],[-89.191,37.70851],[-89.19113,37.70853],[-89.19134,37.70856],[-89.19135,37.70856],[-89.19158,37.70859],[-89.19167,37.7086],[-89.19203,37.70865],[-89.19213,37.70867],[-89.19225,37.7087],[-89.1924,37.70873],[-89.19267,37.70881],[-89.19268,37.70881],[-89.19297,37.70887],[-89.19312,37.70889],[-89.19313,37.70889],[-89.19325,37.70891],[-89.19359,37.70895],[-89.19425,37.709],[-89.19426,37.70901],[-89.19494,37.70907],[-89.19517,37.70911],[-89.19533,37.70916],[-89.19541,37.70918],[-89.19547,37.7092],[-89.19554,37.70923],[-89.19567,37.70927],[-89.19568,37.70928],[-89.19574,37.70931],[-89.19594,37.7094],[-89.19606,37.70947],[-89.19612,37.7095],[-89.19618,37.70954],[-89.19624,37.70957],[-89.1963,37.70962],[-89.19641,37.70969],[-89.19648,37.70973],[-89.19667,37.70986],[-89.19676,37.70992],[-89.19682,37.70997],[-89.19706,37.7102],[-89.19724,37.71039],[-89.1974,37.71055],[-89.19745,37.71061],[-89.19758,37.71075],[-89.19766,37.71086],[-89.19776,37.711],[-89.1978,37.71107],[-89.19783,37.71113],[-89.19786,37.71119],[-89.19792,37.71129],[-89.19796,37.71138],[-89.19809,37.7117],[-89.19831,37.71226],[-89.1984,37.7125],[-89.19851,37.71278],[-89.19856,37.7129],[-89.19857,37.71293],[-89.19868,37.71315],[-89.19873,37.71323],[-89.19873,37.71324],[-89.19881,37.71335],[-89.19884,37.71339],[-89.19895,37.71352],[-89.19911,37.71368],[-89.19924,37.71382],[-89.19949,37.71407],[-89.19971,37.71433],[-89.19984,37.71453],[-89.19992,37.71471],[-89.19996,37.7148],[-89.20005,37.71499],[-89.20012,37.71516],[-89.20018,37.71529],[-89.2002,37.71533],[-89.20024,37.71541],[-89.20027,37.71545],[-89.2003,37.71548],[-89.20031,37.71549],[-89.20035,37.71554],[-89.20043,37.71562],[-89.20052,37.71565],[-89.20059,37.71567],[-89.20066,37.71569],[-89.20075,37.7157],[-89.20091,37.71571],[-89.20094,37.71571],[-89.20135,37.71572],[-89.20158,37.71572],[-89.20176,37.71572],[-89.20205,37.71572],[-89.2026,37.71571],[-89.20269,37.71572],[-89.20345,37.71572],[-89.20376,37.71572],[-89.20431,37.71572],[-89.20437,37.71572],[-89.20506,37.71571],[-89.20556,37.71572],[-89.20567,37.71572],[-89.20609,37.71572],[-89.20613,37.71572],[-89.20649,37.71572],[-89.20694,37.71573],[-89.20785,37.71573],[-89.20831,37.71574],[-89.20855,37.71574],[-89.20889,37.71573],[-89.20889,37.71573],[-89.2089,37.71601],[-89.20888,37.71659],[-89.20888,37.71675],[-89.20887,37.71677],[-89.20885,37.71748],[-89.20885,37.71758],[-89.20885,37.71795],[-89.20884,37.71831],[-89.20884,37.71836],[-89.20884,37.71849],[-89.20884,37.71854],[-89.20883,37.71867],[-89.20881,37.71944],[-89.2088,37.7199],[-89.2088,37.72038],[-89.20879,37.72086],[-89.20878,37.72118],[-89.20878,37.72128],[-89.20877,37.72153],[-89.20876,37.72192],[-89.20875,37.72221],[-89.20875,37.72231],[-89.20874,37.72281],[-89.20873,37.72304],[-89.20873,37.72305],[-89.20872,37.72331],[-89.20872,37.72332],[-89.20871,37.7236],[-89.2087,37.72434],[-89.20869,37.72453],[-89.20867,37.72545],[-89.20866,37.7259],[-89.20865,37.72611],[-89.20864,37.72643],[-89.20864,37.72674],[-89.20863,37.72696],[-89.20863,37.7272],[-89.20862,37.72743],[-89.2086,37.72787],[-89.20855,37.72805],[-89.20854,37.72813],[-89.20853,37.72824],[-89.20853,37.72833],[-89.20853,37.72845],[-89.20854,37.72851],[-89.20856,37.72887],[-89.20856,37.72905],[-89.20857,37.72982],[-89.20857,37.72982],[-89.20903,37.7298],[-89.20959,37.72977],[-89.20993,37.72974],[-89.21085,37.72967],[-89.21154,37.7296],[-89.21312,37.72946],[-89.21334,37.72944],[-89.214,37.72939],[-89.2145,37.72936],[-89.21456,37.72935]]}}]}