{"type":"FeatureCollection","features":[{"type":"Feature","properties":{"_gpxType":"trk","name":"405 West Pecan Street, Carbondale, IL - Poplar @ Mill (West Side) - 5424 Chautauqua Rd - 40 Co Rd 9 - 2301 Co Rd 9 - 6011 Neunert Rd - 4355 Indian Ridge Rd - 280 Little Levee Rd - St. Nicholas Landmark, Ferry Street, Chester, IL","coordinateProperties":{},"id":34},"geometry":{"type":"LineString","coordinates":[[-89.22145,37.72968],[-89.22157,37.72967],[-89.22225,37.72962],[-89.22248,37.7296],[-89.22248,37.7296],[-89.22242,37.72926],[-89.2224,37.72909],[-89.22234,37.72873],[-89.22232,37.72844],[-89.22229,37.72819],[-89.22225,37.72778],[-89.22222,37.72758],[-89.22217,37.72724],[-89.22211,37.72679],[-89.22201,37.72582],[-89.22189,37.72482],[-89.22179,37.72428],[-89.22179,37.72425],[-89.22176,37.72411],[-89.22173,37.72393],[-89.22161,37.72304],[-89.22158,37.72268],[-89.22158,37.72266],[-89.22154,37.7223],[-89.22154,37.72224],[-89.22149,37.72178],[-89.22147,37.7216],[-89.22145,37.72145],[-89.22141,37.7211],[-89.22139,37.72092],[-89.22136,37.7206],[-89.22131,37.72024],[-89.2213,37.72022],[-89.22128,37.72004],[-89.22128,37.72002],[-89.22126,37.7199]]}},{"type":"Feature","properties":{"_gpxType":"trk","name":"405 West Pecan Street, Carbondale, IL - Poplar @ Mill (West Side) - 5424 Chautauqua Rd - 40 Co Rd 9 - 2301 Co Rd 9 - 6011 Neunert Rd - 4355 Indian Ridge Rd - 280 Little Levee Rd - St. Nicholas Landmark, Ferry Street, Chester, IL","coordinateProperties":{},"id":34},"geometry":{"type":"LineString","coordinates":[[-89.22126,37.7199],[-89.22123,37.71972],[-89.22121,37.71951],[-89.22119,37.71943],[-89.22119,37.71933],[-89.22118,37.7192],[-89.22115,37.71903],[-89.22114,37.71901],[-89.22114,37.71901],[-89.22119,37.71891],[-89.22124,37.71883],[-89.22128,37.71878],[-89.22132,37.71872],[-89.22137,37.71862],[-89.22141,37.71854],[-89.22164,37.71821],[-89.22177,37.71802],[-89.22177,37.71797],[-89.22178,37.71792],[-89.2218,37.7179],[-89.22183,37.71787],[-89.22186,37.71784],[-89.22186,37.7178],[-89.22185,37.71774],[-89.22184,37.71763],[-89.2218,37.7172],[-89.22179,37.71718],[-89.22178,37.71715],[-89.22178,37.71715],[-89.22185,37.71715],[-89.22185,37.71715],[-89.22186,37.717],[-89.22187,37.71682],[-89.22187,37.7168],[-89.22189,37.71675],[-89.22192,37.71664],[-89.22197,37.71641],[-89.22199,37.71634],[-89.22201,37.71629],[-89.22201,37.71629],[-89.22215,37.7162],[-89.22216,37.71619],[-89.22237,37.71609],[-89.22237,37.71609],[-89.22238,37.716],[-89.22239,37.71597],[-89.22244,37.71589],[-89.22244,37.71588],[-89.22252,37.71579],[-89.22267,37.71572],[-89.2227,37.71572],[-89.22295,37.71564],[-89.22295,37.71564],[-89.22294,37.71567],[-89.22293,37.71569],[-89.22293,37.7157],[-89.22294,37.71572],[-89.22295,37.71573],[-89.22296,37.71574],[-89.22297,37.71574],[-89.22306,37.71575],[-89.22307,37.71574],[-89.22308,37.71574],[-89.22311,37.71571],[-89.2232,37.71564],[-89.22321,37.71563],[-89.22323,37.71563],[-89.22326,37.71563],[-89.22334,37.71563],[-89.2235,37.71562],[-89.22361,37.7156],[-89.22362,37.7156],[-89.22378,37.71561],[-89.22392,37.71561],[-89.22406,37.71562],[-89.22407,37.71562],[-89.22414,37.71563],[-89.22419,37.71564],[-89.22422,37.71565],[-89.22426,37.71565],[-89.22433,37.71565],[-89.22442,37.71565],[-89.22442,37.71565],[-89.22443,37.71569],[-89.22444,37.71571],[-89.22446,37.71573],[-89.22447,37.71575],[-89.22464,37.71585],[-89.22471,37.71589],[-89.22473,37.71589],[-89.22487,37.71594],[-89.22491,37.71595],[-89.22491,37.71595],[-89.22497,37.71599],[-89.22498,37.71599],[-89.22505,37.71605],[-89.22511,37.71613],[-89.22525,37.71631],[-89.22525,37.71631],[-89.22531,37.71631],[-89.2256,37.7163],[-89.2257,37.71629],[-89.2259,37.71628],[-89.22606,37.71623],[-89.22618,37.71616],[-89.22624,37.71612],[-89.2263,37.71606],[-89.22632,37.71603],[-89.22636,37.71598],[-89.2264,37.71589],[-89.22645,37.7158],[-89.22652,37.71571],[-89.2266,37.71565],[-89.22671,37.71558],[-89.22683,37.71554],[-89.22694,37.71552],[-89.22715,37.71551],[-89.22722,37.71551],[-89.2273,37.71551],[-89.2276,37.71551],[-89.2279,37.71552],[-89.22881,37.71552],[-89.22956,37.71553],[-89.23031,37.71554],[-89.2314,37.71556],[-89.23212,37.71557],[-89.23299,37.71558],[-89.23403,37.7156],[-89.23417,37.7156],[-89.23425,37.71561],[-89.23537,37.71563],[-89.23582,37.71564],[-89.23605,37.71564],[-89.23628,37.71565],[-89.23648,37.71565],[-89.23655,37.71565],[-89.23687,37.71565],[-89.23746,37.71567],[-89.23746,37.71567],[-89.23747,37.71568],[-89.23748,37.71569],[-89.23749,37.71569],[-89.2375,37.7157],[-89.23751,37.7157],[-89.23752,37.71571],[-89.23754,37.71571],[-89.23755,37.71571],[-89.23756,37.71572],[-89.23758,37.71572],[-89.23759,37.71572],[-89.2376,37.71572],[-89.23762,37.71572],[-89.23763,37.71572],[-89.23764,37.71571],[-89.23766,37.71571],[-89.23767,37.71571],[-89.23768,37.7157],[-89.23769,37.7157],[-89.2377,37.7157],[-89.23837,37.71565],[-89.23881,37.71568],[-89.23904,37.71569],[-89.23927,37.71569],[-89.24018,37.71569],[-89.2404,37.71569],[-89.24063,37.71569],[-89.24115,37.71569],[-89.24131,37.7157],[-89.24154,37.71571],[-89.24215,37.71573],[-89.24309,37.71573],[-89.24338,37.71573],[-89.24346,37.71573],[-89.24528,37.71572],[-89.24661,37.71573],[-89.24805,37.71575],[-89.24931,37.71577],[-89.24963,37.71578],[-89.24989,37.71579],[-89.25145,37.71581],[-89.25179,37.71581],[-89.25303,37.71582],[-89.25312,37.71582],[-89.25402,37.71583],[-89.25417,37.71583],[-89.25465,37.71584],[-89.25513,37.71585],[-89.25603,37.71586],[-89.25703,37.71587],[-89.2574,37.71588],[-89.25763,37.71588],[-89.25825,37.71589],[-89.25926,37.71589],[-89.26061,37.71592],[-89.26084,37.71593],[-89.26175,37.71595],[-89.26197,37.71596],[-89.2629,37.71598],[-89.26313,37.71598],[-89.26336,37.71599],[-89.26404,37.716],[-89.26427,37.716],[-89.26472,37.71601],[-89.26495,37.71602],[-89.2654,37.71603],[-89.26563,37.71603],[-89.26577,37.71603],[-89.26586,37.71604],[-89.26631,37.71604],[-89.26654,37.71605],[-89.26677,37.71605],[-89.26699,37.71605],[-89.26717,37.71606],[-89.26722,37.71606],[-89.26728,37.71606],[-89.26745,37.71607],[-89.26768,37.71608],[-89.26823,37.7161],[-89.26833,37.7161],[-89.26858,37.71611],[-89.26881,37.71612],[-89.26995,37.71615],[-89.27017,37.71616],[-89.2704,37.71617],[-89.27057,37.71617],[-89.27131,37.7162],[-89.27154,37.71621],[-89.27176,37.71622],[-89.27199,37.71623],[-89.27267,37.71626],[-89.2729,37.71627],[-89.27313,37.71627],[-89.27335,37.71628],[-89.27368,37.7163],[-89.27381,37.7163],[-89.27418,37.71632],[-89.27449,37.71634],[-89.27471,37.71636],[-89.27497,37.71637],[-89.27565,37.7164],[-89.27588,37.71641],[-89.2761,37.71642],[-89.27633,37.71643],[-89.27648,37.71644],[-89.27656,37.71644],[-89.27678,37.71645],[-89.27701,37.71646],[-89.27723,37.71647],[-89.27746,37.71648],[-89.27769,37.71649],[-89.27859,37.71654],[-89.27882,37.71655],[-89.27904,37.71656],[-89.27995,37.7166],[-89.28018,37.71661],[-89.2804,37.71662],[-89.28063,37.71663],[-89.28108,37.71665],[-89.28116,37.71665],[-89.28131,37.71666],[-89.28176,37.71669],[-89.28199,37.71671],[-89.28209,37.71671],[-89.28232,37.71673],[-89.28234,37.71673],[-89.28255,37.71674],[-89.28257,37.71674],[-89.28269,37.71675],[-89.28278,37.71676],[-89.28279,37.71676],[-89.283,37.71676],[-89.28323,37.71677],[-89.28325,37.71677],[-89.28346,37.71678],[-89.28347,37.71678],[-89.28349,37.71678],[-89.28369,37.71679],[-89.2837,37.71679],[-89.28392,37.7168],[-89.28393,37.7168],[-89.28406,37.71681],[-89.28415,37.71681],[-89.28418,37.71682],[-89.28437,37.71684],[-89.28438,37.71684],[-89.2846,37.71687],[-89.28465,37.71688],[-89.28482,37.7169],[-89.28528,37.71695],[-89.28551,37.71697],[-89.28575,37.71697],[-89.28598,37.71697],[-89.2862,37.71697],[-89.28643,37.71697],[-89.28655,37.71697],[-89.28688,37.71695],[-89.28689,37.71695],[-89.28711,37.71693],[-89.28734,37.71691],[-89.28756,37.7169],[-89.28779,37.71688],[-89.28802,37.71686],[-89.28824,37.71684],[-89.28847,37.71682],[-89.28856,37.71682],[-89.2887,37.71681],[-89.28915,37.71678],[-89.28938,37.71676],[-89.2896,37.71675],[-89.28983,37.71673],[-89.29006,37.71672],[-89.29028,37.71671],[-89.29051,37.71669],[-89.29074,37.71668],[-89.29096,37.71666],[-89.29119,37.71665],[-89.29142,37.71663],[-89.29164,37.71662],[-89.29187,37.7166],[-89.2921,37.71659],[-89.29232,37.71658],[-89.29255,37.71656],[-89.293,37.71653],[-89.29323,37.71652],[-89.29346,37.7165],[-89.29368,37.71649],[-89.29391,37.71647],[-89.29414,37.71646],[-89.29459,37.71643],[-89.29482,37.71642],[-89.29504,37.7164],[-89.29527,37.71639],[-89.2955,37.71637],[-89.29572,37.71636],[-89.29608,37.71636],[-89.29631,37.71636],[-89.29654,37.71636],[-89.29658,37.71636],[-89.29676,37.71636],[-89.29699,37.71636],[-89.29722,37.71636],[-89.29767,37.71636],[-89.29798,37.71636],[-89.2982,37.71636],[-89.29841,37.71636],[-89.29843,37.71636],[-89.29889,37.71637],[-89.29911,37.71637],[-89.29927,37.71637],[-89.29934,37.71637],[-89.29957,37.71638],[-89.2998,37.71638],[-89.3001,37.71639],[-89.30025,37.71638],[-89.30034,37.71633],[-89.30038,37.71629],[-89.3004,37.71625],[-89.30043,37.7162],[-89.30043,37.71615],[-89.30043,37.7161],[-89.30044,37.71556],[-89.30044,37.71539],[-89.30044,37.71538],[-89.30044,37.71516],[-89.30044,37.7148],[-89.30043,37.71437],[-89.30044,37.71415],[-89.30044,37.71397],[-89.30045,37.71379],[-89.30045,37.71352],[-89.30045,37.71334],[-89.30045,37.71298],[-89.30045,37.7128],[-89.30045,37.71244],[-89.30045,37.71226],[-89.30045,37.71208],[-89.30046,37.7119],[-89.30046,37.71172],[-89.30046,37.71154],[-89.30046,37.71136],[-89.30046,37.71118],[-89.30046,37.711],[-89.30046,37.71091],[-89.30046,37.71082],[-89.30046,37.71064],[-89.30046,37.71046],[-89.30046,37.71028],[-89.30046,37.70994],[-89.30046,37.70992],[-89.30047,37.70974],[-89.30048,37.70969],[-89.30051,37.70958],[-89.30052,37.70956],[-89.30059,37.70942],[-89.3006,37.7094],[-89.30073,37.70925],[-89.30098,37.70908],[-89.30108,37.70902],[-89.30113,37.709],[-89.30124,37.70898],[-89.3013,37.70897],[-89.3014,37.70896],[-89.30153,37.70896],[-89.30162,37.70895],[-89.30198,37.70895],[-89.30221,37.70895],[-89.30263,37.70894],[-89.30289,37.70894],[-89.30305,37.70894]]}},{"type":"Feature","properties":{"_gpxType":"trk","name":"405 West Pecan Street, Carbondale, IL - Poplar @ Mill (West Side) - 5424 Chautauqua Rd - 40 Co Rd 9 - 2301 Co Rd 9 - 6011 Neunert Rd - 4355 Indian Ridge Rd - 280 Little Levee Rd - St. Nicholas Landmark, Ferry Street, Chester, IL","coordinateProperties":{},"id":34},"geometry":{"type":"LineString","coordinates":[[-89.30305,37.70894],[-89.30312,37.70894],[-89.30334,37.70894],[-89.30374,37.70893],[-89.3038,37.70893],[-89.30425,37.70894],[-89.30448,37.70895],[-89.30471,37.70895],[-89.30501,37.70896],[-89.30537,37.70896],[-89.3056,37.70896],[-89.30574,37.70897],[-89.30582,37.70897],[-89.30605,37.70897],[-89.30651,37.70897],[-89.30655,37.70897],[-89.30696,37.70898],[-89.30764,37.70898],[-89.30771,37.70898],[-89.30787,37.70898],[-89.3081,37.70899],[-89.30832,37.70899],[-89.30844,37.70899],[-89.30855,37.70899],[-89.30878,37.70899],[-89.30901,37.70899],[-89.30923,37.709],[-89.30946,37.709],[-89.30992,37.709],[-89.31029,37.70901],[-89.31051,37.70901],[-89.31094,37.70901],[-89.31097,37.70902],[-89.31256,37.70903],[-89.3137,37.70904],[-89.31392,37.70904],[-89.31425,37.70903],[-89.3144,37.70903],[-89.3145,37.70904],[-89.31458,37.70906],[-89.3146,37.70907],[-89.31464,37.70909],[-89.31469,37.70913],[-89.31474,37.70918],[-89.31475,37.70925],[-89.31475,37.70933],[-89.31475,37.70938],[-89.31473,37.70956],[-89.31469,37.70984],[-89.31468,37.70992],[-89.31467,37.71008],[-89.31464,37.71028],[-89.31465,37.71034],[-89.31468,37.71041],[-89.31472,37.71044],[-89.31472,37.71045],[-89.31481,37.71049],[-89.3149,37.71049],[-89.31513,37.71051],[-89.31538,37.71051],[-89.31552,37.71051],[-89.31561,37.71051],[-89.31584,37.71052],[-89.31664,37.71055],[-89.3172,37.71057],[-89.31743,37.71058],[-89.31765,37.71059],[-89.31841,37.71063],[-89.31856,37.71063],[-89.31879,37.71064],[-89.31902,37.71065],[-89.31924,37.71065],[-89.3197,37.71067],[-89.3197,37.71067],[-89.31992,37.71067],[-89.3201,37.71067],[-89.32083,37.7107],[-89.32096,37.71071],[-89.32205,37.71077],[-89.3225,37.7108],[-89.32273,37.71082],[-89.32284,37.71082],[-89.32295,37.71082],[-89.32364,37.71083],[-89.32386,37.71084],[-89.32388,37.71084],[-89.32432,37.71084],[-89.32455,37.71083],[-89.32468,37.71083],[-89.32477,37.71083],[-89.32545,37.71081],[-89.32568,37.7108],[-89.32591,37.71079],[-89.32614,37.71078],[-89.32636,37.71077],[-89.32659,37.71076],[-89.32682,37.71076],[-89.32703,37.71075],[-89.32703,37.71075],[-89.32703,37.71021],[-89.32703,37.70949],[-89.32703,37.70949],[-89.32709,37.70943],[-89.3272,37.70939],[-89.32745,37.70934],[-89.32811,37.70934],[-89.32925,37.70934],[-89.32993,37.70934],[-89.33039,37.70934],[-89.33061,37.70934],[-89.33126,37.70934],[-89.33129,37.70933],[-89.33139,37.7093],[-89.33151,37.70921],[-89.3316,37.70906],[-89.33158,37.70819],[-89.33158,37.70783],[-89.33158,37.70765],[-89.33157,37.70747],[-89.33157,37.70729],[-89.33157,37.70711],[-89.33156,37.70689],[-89.33158,37.70639],[-89.33158,37.70626],[-89.33159,37.70621],[-89.3316,37.70603],[-89.3316,37.70601],[-89.33167,37.70586],[-89.33171,37.7058],[-89.33185,37.70553],[-89.33205,37.70516],[-89.33211,37.70503],[-89.33216,37.70492],[-89.33223,37.7047],[-89.33224,37.70444],[-89.33221,37.70434],[-89.33219,37.70423],[-89.33217,37.70417],[-89.33211,37.70399],[-89.33209,37.70392],[-89.33206,37.70382],[-89.33202,37.70364],[-89.33203,37.70354],[-89.33207,37.70347],[-89.33208,37.70345],[-89.33218,37.70336],[-89.33223,37.70335],[-89.33236,37.70331],[-89.33253,37.70327],[-89.33267,37.70325],[-89.33289,37.70321],[-89.33333,37.70312],[-89.33385,37.70302],[-89.33429,37.70292],[-89.33443,37.70289],[-89.33451,37.70287],[-89.33465,37.70285],[-89.33473,37.70283],[-89.33494,37.70277],[-89.33497,37.70276],[-89.33516,37.70271],[-89.33537,37.70264],[-89.33553,37.70259],[-89.33561,37.70258],[-89.33602,37.70242],[-89.33622,37.70235],[-89.33642,37.70227],[-89.33654,37.70223],[-89.33668,37.70218],[-89.33675,37.70216],[-89.33696,37.70208],[-89.33713,37.70202],[-89.33716,37.70201],[-89.33738,37.70196],[-89.33751,37.70193],[-89.3376,37.70192],[-89.33783,37.7019],[-89.33789,37.7019],[-89.33815,37.70189],[-89.33851,37.7019],[-89.33851,37.7019],[-89.33852,37.70159],[-89.33852,37.70155],[-89.33852,37.70141],[-89.33852,37.70123],[-89.33851,37.70087],[-89.3385,37.70069],[-89.3385,37.70051],[-89.3385,37.70033],[-89.33848,37.69979],[-89.33848,37.6997],[-89.33849,37.69961],[-89.3385,37.69946],[-89.3385,37.69942],[-89.33851,37.69928],[-89.33851,37.69925],[-89.33852,37.6991],[-89.33852,37.69907],[-89.33852,37.69899],[-89.33853,37.69892],[-89.33854,37.69889],[-89.33856,37.69874],[-89.33859,37.69856],[-89.33859,37.69854],[-89.3386,37.69849],[-89.33862,37.69836],[-89.33865,37.6982],[-89.33866,37.69818],[-89.33868,37.69803],[-89.33869,37.698],[-89.3387,37.69796],[-89.33869,37.69785],[-89.33869,37.69782],[-89.33867,37.69776],[-89.33865,37.69767],[-89.33865,37.69765],[-89.33862,37.69749],[-89.33862,37.69748],[-89.33857,37.69732],[-89.33856,37.69729],[-89.33852,37.69714],[-89.33852,37.69712],[-89.33847,37.69694],[-89.33845,37.69686],[-89.33843,37.69679],[-89.33833,37.69641],[-89.3383,37.69626],[-89.33829,37.69624],[-89.33825,37.69607],[-89.33813,37.69564],[-89.33812,37.69552],[-89.33817,37.69543],[-89.33822,37.6954],[-89.33824,37.69538],[-89.33831,37.69535],[-89.33839,37.69535],[-89.33866,37.69534],[-89.34025,37.69533],[-89.34028,37.69533],[-89.34073,37.69532],[-89.34107,37.69532],[-89.34116,37.69532],[-89.34119,37.69532],[-89.34138,37.69532],[-89.34161,37.69532],[-89.34164,37.69532],[-89.34207,37.69532],[-89.34232,37.69531],[-89.34275,37.69531],[-89.34289,37.69531],[-89.34297,37.69529],[-89.34298,37.69529],[-89.34309,37.6952],[-89.34313,37.69514],[-89.34317,37.69506],[-89.34318,37.69499],[-89.34318,37.69496],[-89.3432,37.69489],[-89.34323,37.69481],[-89.34326,37.69476],[-89.34333,37.69472],[-89.3434,37.69467],[-89.34352,37.69465],[-89.34359,37.69464],[-89.34361,37.69464],[-89.34364,37.69464],[-89.34384,37.69465],[-89.34387,37.69465],[-89.34409,37.69465],[-89.34429,37.69466],[-89.34432,37.69466],[-89.34467,37.69466],[-89.34478,37.69467],[-89.34497,37.69467],[-89.345,37.69467],[-89.34543,37.69469],[-89.34546,37.69469],[-89.34565,37.69469],[-89.34568,37.69469],[-89.34588,37.6947],[-89.34614,37.69471],[-89.34626,37.69471],[-89.34634,37.69471],[-89.34637,37.69471],[-89.34679,37.69472],[-89.34682,37.69472],[-89.34702,37.69472],[-89.34705,37.69473],[-89.34747,37.69473],[-89.3475,37.69473],[-89.3477,37.69474],[-89.34773,37.69474],[-89.34815,37.69475],[-89.34818,37.69475],[-89.34838,37.69475],[-89.34841,37.69475],[-89.34861,37.69476],[-89.34864,37.69476],[-89.34883,37.69476],[-89.34887,37.69476],[-89.34906,37.69477],[-89.34909,37.69477],[-89.3491,37.69477],[-89.34932,37.69477],[-89.34952,37.69477],[-89.34955,37.69477],[-89.34959,37.69478],[-89.3502,37.69476],[-89.35023,37.69476],[-89.35043,37.69476],[-89.35046,37.69476],[-89.35049,37.69476],[-89.35065,37.69475],[-89.35068,37.69474],[-89.35094,37.69473],[-89.35113,37.69468],[-89.35126,37.69464],[-89.35137,37.69458],[-89.35146,37.69453],[-89.35149,37.69448],[-89.35156,37.69439],[-89.35158,37.69434],[-89.35161,37.6943],[-89.35164,37.69421],[-89.35165,37.69417],[-89.35165,37.69415],[-89.3517,37.69382],[-89.35172,37.69371],[-89.35176,37.69342],[-89.35183,37.69324],[-89.35185,37.6932],[-89.35185,37.69318],[-89.35187,37.69315],[-89.35189,37.69313],[-89.3519,37.69312],[-89.35193,37.69309],[-89.35205,37.69301],[-89.35206,37.69301],[-89.35226,37.69295],[-89.3525,37.69292],[-89.3525,37.69292],[-89.35253,37.69294],[-89.35262,37.69299],[-89.35272,37.69304],[-89.35284,37.6931],[-89.35292,37.69314],[-89.35311,37.69323],[-89.35331,37.69332],[-89.3535,37.69341],[-89.35389,37.6936],[-89.35402,37.69366],[-89.35432,37.6938],[-89.35447,37.69388],[-89.35463,37.69396],[-89.35484,37.6941],[-89.35513,37.69434],[-89.35515,37.69436],[-89.35533,37.69454],[-89.35543,37.69464],[-89.3557,37.69493],[-89.35584,37.69507],[-89.35611,37.69535],[-89.35639,37.69564],[-89.35689,37.6962],[-89.35692,37.69623],[-89.35751,37.69686],[-89.3576,37.69694],[-89.35761,37.69695],[-89.3578,37.69715],[-89.35788,37.69723],[-89.35793,37.69727],[-89.35803,37.69733],[-89.35816,37.69739],[-89.3583,37.69742],[-89.35845,37.69744],[-89.35863,37.69745],[-89.35871,37.69747],[-89.35889,37.6975],[-89.35913,37.69758],[-89.35914,37.69758],[-89.35931,37.69765],[-89.3595,37.69776],[-89.35971,37.69788],[-89.36044,37.69832],[-89.36051,37.69836],[-89.36093,37.69857],[-89.36166,37.69893],[-89.36172,37.69896],[-89.36198,37.69907],[-89.36254,37.69932],[-89.36282,37.69949],[-89.3633,37.69977],[-89.36352,37.69992],[-89.3637,37.70003],[-89.36409,37.70028],[-89.3642,37.70034],[-89.36433,37.70039],[-89.36445,37.70042],[-89.36446,37.70042],[-89.36464,37.70042],[-89.36484,37.70039],[-89.36512,37.70032],[-89.36529,37.70028],[-89.36555,37.70021],[-89.36572,37.70017],[-89.36599,37.70012],[-89.366,37.70012],[-89.36628,37.7001],[-89.36658,37.70011],[-89.36689,37.70015],[-89.36734,37.70021],[-89.36767,37.70024],[-89.36821,37.70029],[-89.36828,37.7003],[-89.36896,37.70035],[-89.36919,37.70037],[-89.36987,37.70042],[-89.37008,37.70044],[-89.37051,37.7005],[-89.37051,37.7005],[-89.37054,37.70086],[-89.37055,37.70094],[-89.37055,37.70158],[-89.37054,37.70169],[-89.37055,37.70179],[-89.37056,37.70189],[-89.37057,37.70195],[-89.3706,37.70212],[-89.37075,37.70219],[-89.3708,37.70221],[-89.37097,37.70225],[-89.37101,37.70226],[-89.37132,37.70231],[-89.37154,37.70239],[-89.37182,37.70256],[-89.37185,37.70258],[-89.37203,37.70269],[-89.37217,37.70279],[-89.37232,37.70289],[-89.37234,37.70291],[-89.37249,37.70305],[-89.37259,37.70319],[-89.37261,37.70326],[-89.37265,37.70336],[-89.37268,37.70364],[-89.37269,37.70397],[-89.37271,37.70427],[-89.37276,37.70487],[-89.3727,37.70556],[-89.3727,37.70559],[-89.3726,37.70626],[-89.37255,37.70666],[-89.37248,37.70725],[-89.37246,37.70738],[-89.37244,37.70747],[-89.37244,37.70756],[-89.37245,37.70782],[-89.37246,37.70791],[-89.37252,37.70805],[-89.37259,37.70826],[-89.37268,37.7085],[-89.37277,37.70878],[-89.37282,37.70893],[-89.37287,37.70913],[-89.37291,37.70928],[-89.37309,37.70967],[-89.37312,37.70972],[-89.37336,37.71],[-89.37346,37.7101],[-89.37364,37.71024],[-89.37367,37.71027],[-89.37373,37.71035],[-89.37379,37.71045],[-89.37382,37.71055],[-89.37386,37.71074],[-89.3739,37.7109],[-89.37392,37.71114],[-89.37399,37.71145],[-89.37408,37.71162],[-89.37415,37.71174],[-89.37427,37.7119],[-89.37441,37.71204],[-89.37445,37.71207],[-89.37461,37.71219],[-89.37462,37.7122],[-89.37479,37.7123],[-89.37497,37.71241],[-89.3753,37.71266],[-89.37534,37.71269],[-89.37539,37.71279],[-89.37545,37.71293],[-89.37546,37.713],[-89.37547,37.71305],[-89.37556,37.71352],[-89.37557,37.71354],[-89.37563,37.71373],[-89.37573,37.71407],[-89.37576,37.71416],[-89.37579,37.71424],[-89.37585,37.71442],[-89.37594,37.71469],[-89.37595,37.71486],[-89.37593,37.71496],[-89.37585,37.71506],[-89.3758,37.71509],[-89.37564,37.71516],[-89.37532,37.71523],[-89.3748,37.71533],[-89.37467,37.71536],[-89.37466,37.71537],[-89.3745,37.71542],[-89.37438,37.71549],[-89.37434,37.71557],[-89.37431,37.7157],[-89.37436,37.71608],[-89.37436,37.7161],[-89.37444,37.71637],[-89.37445,37.71646],[-89.37445,37.71652],[-89.37446,37.71666],[-89.37442,37.71681],[-89.37439,37.71695],[-89.37431,37.71721],[-89.37414,37.71786],[-89.3741,37.71804],[-89.37407,37.71817],[-89.37389,37.71889],[-89.37389,37.71892],[-89.37389,37.71928],[-89.3739,37.71959],[-89.37384,37.72018],[-89.37382,37.72039],[-89.37377,37.72071],[-89.3737,37.7211],[-89.37368,37.72143],[-89.37368,37.72151],[-89.37374,37.72197],[-89.3738,37.72236],[-89.37383,37.7225],[-89.37393,37.72303],[-89.37406,37.72375],[-89.37412,37.7241],[-89.37415,37.72425],[-89.37429,37.72517],[-89.37431,37.72535],[-89.37432,37.72539],[-89.37435,37.72556],[-89.37432,37.72572],[-89.37416,37.72588],[-89.37401,37.72596],[-89.37401,37.72596],[-89.3744,37.7261],[-89.37443,37.72611],[-89.37487,37.7262],[-89.3752,37.72627],[-89.37531,37.72629],[-89.37553,37.72634],[-89.37575,37.72639],[-89.37597,37.72643],[-89.37662,37.72657],[-89.37684,37.72662],[-89.37706,37.72666],[-89.37728,37.72671],[-89.3775,37.72675],[-89.37783,37.72682],[-89.37869,37.72699],[-89.37882,37.72703],[-89.37904,37.72709],[-89.37921,37.72714],[-89.37925,37.72715],[-89.37942,37.72722],[-89.37959,37.72726],[-89.37982,37.72729],[-89.38012,37.72729],[-89.38027,37.72728],[-89.38034,37.72728],[-89.3805,37.72726],[-89.38081,37.72722],[-89.38097,37.72718],[-89.38108,37.72715],[-89.38118,37.72714],[-89.38153,37.72706],[-89.38195,37.72701],[-89.38198,37.72701],[-89.38241,37.727],[-89.38267,37.727],[-89.38312,37.727],[-89.38323,37.727],[-89.38335,37.727],[-89.38403,37.72702],[-89.38449,37.72703],[-89.38472,37.72704],[-89.38494,37.72703],[-89.38539,37.72707],[-89.38582,37.72704],[-89.38582,37.72704],[-89.38585,37.7271],[-89.38589,37.72713],[-89.3861,37.72724],[-89.38616,37.72728],[-89.38625,37.72735],[-89.38646,37.72754],[-89.38669,37.72785],[-89.3867,37.72786],[-89.38684,37.72805],[-89.38692,37.72816],[-89.38693,37.72817],[-89.38703,37.72831],[-89.38703,37.72832],[-89.38704,37.72833],[-89.38726,37.72863],[-89.38727,37.72864],[-89.38746,37.72891],[-89.38761,37.7291],[-89.38772,37.72925],[-89.38773,37.72926],[-89.38798,37.72958],[-89.38806,37.72972],[-89.38807,37.72973],[-89.38813,37.72982],[-89.38818,37.72987],[-89.38818,37.72988],[-89.38828,37.72998],[-89.38832,37.73002],[-89.38849,37.73015],[-89.3885,37.73016],[-89.38866,37.73024],[-89.38878,37.73028],[-89.38888,37.73029],[-89.3889,37.73029],[-89.38892,37.73029],[-89.38904,37.7303],[-89.38911,37.73028],[-89.38927,37.73025],[-89.38938,37.73022],[-89.38954,37.73018],[-89.38955,37.73017],[-89.38976,37.73011],[-89.38985,37.73008],[-89.39018,37.72997],[-89.39066,37.72981],[-89.39127,37.72962],[-89.39165,37.72951],[-89.39167,37.72951],[-89.39172,37.7295],[-89.39188,37.72948],[-89.39205,37.72948],[-89.39219,37.7295],[-89.39234,37.72954],[-89.39248,37.72961],[-89.39258,37.72971],[-89.39263,37.72978],[-89.39264,37.72979],[-89.39266,37.72983],[-89.39271,37.72993],[-89.39275,37.73011],[-89.39275,37.7304],[-89.39276,37.7305],[-89.39276,37.73063],[-89.39279,37.73072],[-89.39285,37.73079],[-89.39289,37.73082],[-89.39289,37.73083],[-89.39292,37.73085],[-89.39301,37.73091],[-89.39316,37.73098],[-89.39338,37.73101],[-89.39351,37.73102],[-89.3943,37.73094],[-89.39465,37.73093],[-89.39481,37.73095],[-89.39505,37.73099],[-89.39531,37.73105],[-89.39541,37.73107],[-89.39564,37.73111],[-89.3958,37.7311],[-89.39596,37.73106],[-89.39597,37.73106],[-89.39598,37.73106],[-89.39616,37.73096],[-89.39625,37.73088],[-89.3963,37.73082],[-89.39638,37.73072],[-89.39642,37.73063],[-89.39649,37.73046],[-89.39655,37.73038],[-89.39663,37.73032],[-89.39676,37.73024],[-89.3969,37.73021],[-89.39706,37.73021],[-89.39722,37.73025],[-89.39738,37.73036],[-89.39778,37.73093],[-89.39784,37.73103],[-89.39811,37.73153],[-89.39812,37.73155],[-89.39819,37.73173],[-89.39825,37.73187],[-89.39837,37.73215],[-89.39842,37.73229],[-89.39844,37.73239],[-89.39846,37.73249],[-89.39849,37.73274],[-89.3985,37.73276],[-89.3985,37.73292],[-89.3985,37.73336],[-89.39851,37.73359],[-89.39852,37.73366],[-89.39857,37.73375],[-89.39862,37.7338],[-89.39871,37.73388],[-89.39884,37.73396],[-89.39898,37.73403],[-89.39918,37.73412],[-89.3994,37.73421],[-89.39956,37.73431],[-89.3996,37.73434],[-89.39969,37.7344],[-89.39972,37.73443],[-89.39977,37.73448],[-89.39982,37.73459],[-89.3999,37.73482],[-89.39995,37.73491],[-89.39995,37.73506],[-89.39999,37.73518],[-89.40005,37.73532],[-89.40012,37.73548],[-89.40017,37.73564],[-89.40018,37.73576],[-89.40016,37.73584],[-89.40007,37.73605],[-89.39996,37.73616],[-89.39994,37.73618],[-89.39978,37.73623],[-89.3996,37.73628],[-89.39934,37.73636],[-89.39911,37.7364],[-89.39898,37.73643],[-89.39849,37.73652],[-89.39836,37.73657],[-89.39825,37.73663],[-89.39815,37.73671],[-89.39807,37.73678],[-89.39805,37.73682],[-89.39798,37.73709],[-89.39798,37.73718],[-89.39799,37.73765],[-89.39797,37.73801],[-89.39796,37.73803],[-89.39796,37.73815],[-89.39795,37.73869],[-89.39794,37.73923],[-89.39793,37.73941],[-89.39793,37.73959],[-89.39792,37.73977],[-89.39792,37.74013],[-89.39791,37.74031],[-89.39791,37.74049],[-89.3979,37.74067],[-89.3979,37.74085],[-89.3979,37.74103],[-89.39789,37.74121],[-89.39788,37.74157],[-89.39788,37.74175],[-89.39787,37.74247],[-89.39786,37.74265],[-89.39785,37.74319],[-89.39783,37.74408],[-89.39783,37.74426],[-89.39782,37.74444],[-89.39781,37.74516],[-89.39781,37.74518],[-89.3978,37.7457],[-89.3978,37.74606],[-89.3978,37.74624],[-89.3978,37.74631],[-89.39779,37.74646],[-89.39777,37.7465],[-89.39772,37.74667],[-89.39766,37.74685],[-89.39749,37.74718],[-89.39749,37.74718],[-89.39765,37.7472],[-89.39843,37.74731],[-89.39856,37.74733],[-89.39888,37.74737],[-89.39977,37.74749],[-89.40027,37.74756],[-89.40083,37.74764],[-89.40087,37.74764],[-89.40119,37.74768],[-89.40172,37.74776],[-89.40193,37.7478],[-89.40199,37.74781],[-89.40216,37.74783],[-89.40257,37.74789],[-89.40304,37.74795],[-89.40326,37.74799],[-89.40394,37.74808],[-89.40421,37.74812],[-89.40442,37.74815],[-89.40464,37.74818],[-89.40486,37.74821],[-89.40509,37.74824],[-89.40513,37.74824],[-89.40531,37.74826],[-89.40554,37.74826],[-89.40555,37.74826],[-89.40577,37.74825],[-89.40589,37.74824],[-89.40594,37.74823],[-89.406,37.74822],[-89.40612,37.74819],[-89.40614,37.74819],[-89.40631,37.74814],[-89.40643,37.74809],[-89.40645,37.74808],[-89.40661,37.74801],[-89.40677,37.74794],[-89.40692,37.74786],[-89.40711,37.74776],[-89.40739,37.74761],[-89.40744,37.74759],[-89.40776,37.74742],[-89.40787,37.74736],[-89.40796,37.74732],[-89.40809,37.74725],[-89.40846,37.74705],[-89.40863,37.74697],[-89.40872,37.74692],[-89.40873,37.74692],[-89.40899,37.74678],[-89.4091,37.74672],[-89.40923,37.74665],[-89.40951,37.74651],[-89.40974,37.74639],[-89.40985,37.74632],[-89.40988,37.74631],[-89.41001,37.74622],[-89.41003,37.74621],[-89.41017,37.74612],[-89.4102,37.74609],[-89.41029,37.74603],[-89.41031,37.746],[-89.41044,37.7459],[-89.41044,37.74589],[-89.41055,37.74578],[-89.41064,37.74568],[-89.4107,37.74562],[-89.41078,37.74553],[-89.4109,37.7454],[-89.41125,37.74499],[-89.4113,37.74494],[-89.41149,37.74473],[-89.41176,37.74442],[-89.41182,37.74436],[-89.41189,37.74428],[-89.41192,37.74425],[-89.41195,37.74421],[-89.41212,37.74402],[-89.41221,37.74391],[-89.41228,37.74384],[-89.41231,37.7438],[-89.41244,37.74367],[-89.41258,37.74352],[-89.41262,37.74348],[-89.41271,37.74339],[-89.41285,37.74328],[-89.41298,37.74319],[-89.41313,37.74308],[-89.41333,37.74297],[-89.41352,37.74286],[-89.41385,37.74268],[-89.41463,37.74224],[-89.41466,37.74222],[-89.4156,37.74171],[-89.41723,37.74079],[-89.41797,37.74037],[-89.41811,37.74029],[-89.41854,37.74004],[-89.41882,37.73988],[-89.41906,37.73975],[-89.41923,37.73964],[-89.4194,37.73953],[-89.41942,37.73951],[-89.41955,37.73941],[-89.41958,37.73938],[-89.41972,37.73926],[-89.41984,37.73915],[-89.41996,37.73903],[-89.42017,37.73883],[-89.4204,37.73862],[-89.4206,37.73841],[-89.42063,37.73839],[-89.42075,37.73827],[-89.42089,37.73813],[-89.42109,37.73795],[-89.42127,37.7378],[-89.42149,37.73764],[-89.42167,37.73755],[-89.42181,37.73748],[-89.4219,37.73744],[-89.42201,37.73739],[-89.42217,37.73733],[-89.42222,37.73731],[-89.42236,37.73727],[-89.42257,37.73722],[-89.42278,37.73718],[-89.42298,37.73716],[-89.42317,37.73715],[-89.42339,37.73714],[-89.42356,37.73715],[-89.42375,37.73717],[-89.42393,37.73719],[-89.42415,37.73723],[-89.42422,37.73725],[-89.42436,37.73728],[-89.42459,37.73736],[-89.42486,37.73746],[-89.42511,37.73759],[-89.42541,37.73776],[-89.4256,37.73786],[-89.42573,37.73794],[-89.42652,37.73839],[-89.4266,37.73844],[-89.4267,37.7385],[-89.42688,37.73861],[-89.42707,37.73871],[-89.42739,37.7389],[-89.42762,37.73903],[-89.4278,37.73914],[-89.42799,37.73924],[-89.42817,37.73935],[-89.42835,37.73945],[-89.42872,37.73966],[-89.42891,37.73977],[-89.42904,37.73985],[-89.42909,37.73988],[-89.42928,37.73998],[-89.42962,37.74018],[-89.43016,37.74049],[-89.43019,37.74051],[-89.43038,37.74061],[-89.4305,37.74068],[-89.43057,37.74071],[-89.43074,37.7408],[-89.43076,37.74081],[-89.43096,37.74089],[-89.43107,37.74094],[-89.43117,37.74097],[-89.43131,37.74102],[-89.43151,37.74107],[-89.4317,37.74112],[-89.432,37.74118],[-89.43224,37.74122],[-89.43245,37.74124],[-89.43275,37.74124],[-89.43294,37.74124],[-89.43299,37.74124],[-89.43318,37.74122],[-89.43349,37.74119],[-89.43362,37.74118],[-89.43379,37.74116],[-89.43406,37.74113],[-89.43407,37.74113],[-89.43424,37.74111],[-89.43428,37.74111],[-89.43429,37.74111],[-89.4345,37.74109],[-89.43475,37.74109],[-89.43476,37.74109],[-89.43498,37.7411],[-89.43514,37.74112],[-89.43531,37.74114],[-89.43542,37.74116],[-89.43565,37.74121],[-89.43584,37.74125],[-89.43615,37.74134],[-89.43644,37.74142],[-89.43665,37.74149],[-89.4368,37.74153],[-89.43707,37.74161],[-89.43756,37.74176],[-89.43814,37.74193],[-89.43857,37.74207],[-89.43892,37.74217],[-89.43899,37.74219],[-89.43909,37.74222],[-89.43921,37.74224],[-89.43924,37.74224],[-89.43937,37.74225],[-89.43951,37.74226],[-89.43965,37.74225],[-89.43981,37.74223],[-89.4399,37.74221],[-89.4401,37.74216],[-89.44024,37.74211],[-89.44032,37.74209],[-89.44039,37.74206],[-89.44049,37.742],[-89.44058,37.74195],[-89.44067,37.74189],[-89.4407,37.74187],[-89.44082,37.74178],[-89.44114,37.74152],[-89.44142,37.7413],[-89.44167,37.74111],[-89.44201,37.74086],[-89.44216,37.74075],[-89.4424,37.74059],[-89.44256,37.7405],[-89.44291,37.74028],[-89.44305,37.74019],[-89.44332,37.73998],[-89.44357,37.73977],[-89.44389,37.73951],[-89.44412,37.73932],[-89.44492,37.73867],[-89.44539,37.73829],[-89.44555,37.73816],[-89.4465,37.7374],[-89.44651,37.73739],[-89.44699,37.737],[-89.44762,37.73649],[-89.44778,37.73637],[-89.44778,37.73636],[-89.44787,37.73629],[-89.44826,37.73599],[-89.44843,37.73586],[-89.44858,37.73573],[-89.44859,37.73573],[-89.44923,37.73522],[-89.44925,37.7352],[-89.4497,37.73484],[-89.44987,37.73471],[-89.45052,37.7342],[-89.45056,37.73417],[-89.45085,37.73394],[-89.45116,37.73369],[-89.45144,37.73347],[-89.45194,37.73308],[-89.45212,37.73294],[-89.45213,37.73293],[-89.45235,37.73276],[-89.45254,37.73261],[-89.45285,37.73236],[-89.45294,37.7323],[-89.45295,37.73229],[-89.45356,37.73179],[-89.45357,37.73178],[-89.45381,37.73159],[-89.45414,37.73133],[-89.45421,37.73127],[-89.45432,37.73119],[-89.45441,37.73111],[-89.45448,37.73106],[-89.45462,37.73095],[-89.45527,37.73044],[-89.4564,37.72956],[-89.45849,37.72791],[-89.46103,37.72591],[-89.46241,37.72481],[-89.46295,37.72438],[-89.46311,37.72425],[-89.46318,37.72419],[-89.46325,37.72414],[-89.46327,37.72412],[-89.46329,37.72411],[-89.46334,37.72408],[-89.46345,37.72402],[-89.46354,37.72398],[-89.46368,37.7239],[-89.46368,37.7239],[-89.4637,37.72357],[-89.46372,37.72337],[-89.46373,37.72323],[-89.46377,37.72299],[-89.4638,37.72284],[-89.46384,37.72268],[-89.46388,37.72252],[-89.46394,37.72229],[-89.46395,37.72227],[-89.46399,37.72214],[-89.46407,37.72191],[-89.46413,37.72174],[-89.46418,37.72161],[-89.46423,37.72152],[-89.46428,37.72142],[-89.46443,37.72111],[-89.4645,37.72098],[-89.46462,37.72079],[-89.46484,37.72042],[-89.46493,37.72028],[-89.46524,37.7198],[-89.46534,37.71964],[-89.46545,37.71948],[-89.46788,37.71566],[-89.46816,37.71523],[-89.46841,37.71482],[-89.46866,37.71436],[-89.46875,37.71417],[-89.4689,37.71384],[-89.46904,37.7135],[-89.46916,37.71318],[-89.46928,37.71275],[-89.46944,37.71217],[-89.46985,37.71056],[-89.47008,37.70967],[-89.47018,37.70933],[-89.47047,37.70819],[-89.47056,37.70783],[-89.47061,37.70766],[-89.47084,37.70678],[-89.47102,37.70607],[-89.47106,37.70592],[-89.47107,37.7059],[-89.47121,37.70533],[-89.47166,37.70361],[-89.47167,37.70358],[-89.47171,37.70343],[-89.47175,37.70325],[-89.47198,37.7024],[-89.47207,37.70202],[-89.47218,37.70161],[-89.47229,37.70119],[-89.4726,37.69999],[-89.4726,37.69999],[-89.47284,37.7001],[-89.47296,37.70015],[-89.4731,37.70023],[-89.4732,37.7003],[-89.47328,37.70036],[-89.47333,37.70041]]}},{"type":"Feature","properties":{"_gpxType":"trk","name":"405 West Pecan Street, Carbondale, IL - Poplar @ Mill (West Side) - 5424 Chautauqua Rd - 40 Co Rd 9 - 2301 Co Rd 9 - 6011 Neunert Rd - 4355 Indian Ridge Rd - 280 Little Levee Rd - St. Nicholas Landmark, Ferry Street, Chester, IL","coordinateProperties":{},"id":34},"geometry":{"type":"LineString","coordinates":[[-89.47333,37.70041],[-89.47337,37.70044],[-89.47346,37.70053],[-89.47354,37.70063],[-89.47358,37.7007],[-89.47365,37.70081],[-89.47368,37.70087],[-89.4737,37.70094],[-89.47372,37.70104],[-89.47374,37.70115],[-89.47378,37.7014],[-89.47379,37.70149],[-89.47385,37.70189],[-89.47386,37.70202],[-89.47387,37.70207],[-89.47391,37.70238],[-89.47393,37.70253],[-89.47396,37.70274],[-89.47398,37.70292],[-89.474,37.70306],[-89.47406,37.70345],[-89.47408,37.70363],[-89.4741,37.7038],[-89.4741,37.70381],[-89.47413,37.70399],[-89.47415,37.70417],[-89.4742,37.70453],[-89.47428,37.70505],[-89.47431,37.70515],[-89.47437,37.70535],[-89.4744,37.70541],[-89.47448,37.70558],[-89.4745,37.70563],[-89.47457,37.70574],[-89.47464,37.70587],[-89.47479,37.70605],[-89.4748,37.70606],[-89.47492,37.7062],[-89.47542,37.70681],[-89.47579,37.70725],[-89.47579,37.70726],[-89.47631,37.70787],[-89.47681,37.70845],[-89.47721,37.70888],[-89.47736,37.70902],[-89.47753,37.70919],[-89.47765,37.7093],[-89.47777,37.7094],[-89.47797,37.70956],[-89.47828,37.70981],[-89.47872,37.71011],[-89.4788,37.71017],[-89.47886,37.71021],[-89.47989,37.71086],[-89.48003,37.71095],[-89.48022,37.71107],[-89.48031,37.71112],[-89.48052,37.71125],[-89.48166,37.71194],[-89.48202,37.71216],[-89.48257,37.7125],[-89.48378,37.71319],[-89.48385,37.71323],[-89.48385,37.71323],[-89.48555,37.71419],[-89.48644,37.71475],[-89.4868,37.71497],[-89.48719,37.71521],[-89.48821,37.71584],[-89.48859,37.71607],[-89.4897,37.71675],[-89.48986,37.71683],[-89.48999,37.71688],[-89.49008,37.71691],[-89.4901,37.71691],[-89.4903,37.71697],[-89.49041,37.717],[-89.49053,37.71702],[-89.49068,37.71704],[-89.49089,37.71706],[-89.49106,37.71706],[-89.49121,37.71705],[-89.49133,37.71704],[-89.49144,37.71703],[-89.4915,37.71702],[-89.49166,37.71699],[-89.49173,37.71698],[-89.49194,37.71691],[-89.4922,37.71681],[-89.4924,37.7167],[-89.49245,37.71665],[-89.4928,37.71637],[-89.49291,37.71626],[-89.49334,37.71583],[-89.49362,37.71555],[-89.4939,37.71527],[-89.49477,37.71439],[-89.49477,37.71439],[-89.49772,37.71142],[-89.49857,37.71057],[-89.49927,37.70987],[-89.49983,37.7093],[-89.49988,37.70925],[-89.50012,37.70902],[-89.50044,37.70869],[-89.50075,37.70837],[-89.50102,37.70811],[-89.50122,37.70793],[-89.50137,37.70782],[-89.50142,37.70778],[-89.50158,37.70767],[-89.50187,37.70751],[-89.50198,37.70747],[-89.50205,37.70744],[-89.50242,37.70731],[-89.50273,37.70723],[-89.503,37.70717],[-89.50327,37.70715],[-89.50334,37.70714],[-89.5037,37.70714],[-89.50406,37.70714],[-89.50546,37.70714],[-89.5071,37.70716],[-89.50774,37.70716],[-89.50778,37.70716],[-89.50946,37.70717],[-89.5096,37.70717],[-89.50982,37.70717],[-89.51005,37.70717],[-89.51324,37.7072],[-89.51428,37.70721],[-89.51473,37.70721],[-89.51499,37.70722],[-89.51521,37.70723],[-89.51565,37.70726],[-89.51603,37.70731],[-89.5162,37.70733],[-89.51641,37.70736],[-89.51662,37.70741],[-89.51687,37.70747],[-89.51712,37.70754],[-89.51738,37.70762],[-89.51741,37.70763],[-89.51817,37.70788],[-89.51916,37.70821],[-89.51944,37.70831],[-89.51947,37.70832],[-89.5201,37.70853],[-89.52031,37.7086],[-89.52094,37.70881],[-89.52128,37.70892],[-89.52177,37.70909],[-89.52191,37.70914],[-89.52231,37.7093],[-89.52259,37.70941],[-89.52272,37.70947],[-89.52298,37.70959],[-89.52335,37.70977],[-89.52336,37.70978],[-89.52356,37.70988],[-89.52385,37.71003],[-89.52394,37.71008],[-89.52421,37.71022],[-89.52458,37.71042],[-89.52469,37.71048],[-89.52489,37.71059],[-89.52539,37.71084],[-89.52573,37.71099],[-89.52602,37.71111],[-89.52631,37.71122],[-89.52668,37.71134],[-89.52744,37.7116],[-89.52751,37.71162],[-89.5278,37.71172],[-89.52905,37.71213],[-89.52989,37.71241],[-89.53115,37.71282],[-89.53464,37.71395]]}},{"type":"Feature","properties":{"_gpxType":"trk","name":"405 West Pecan Street, Carbondale, IL - Poplar @ Mill (West Side) - 5424 Chautauqua Rd - 40 Co Rd 9 - 2301 Co Rd 9 - 6011 Neunert Rd - 4355 Indian Ridge Rd - 280 Little Levee Rd - St. Nicholas Landmark, Ferry Street, Chester, IL","coordinateProperties":{},"id":34},"geometry":{"type":"LineString","coordinates":[[-89.53464,37.71395],[-89.53578,37.71432],[-89.53622,37.71446],[-89.53654,37.71457],[-89.53679,37.71467],[-89.537,37.71477],[-89.53723,37.7149],[-89.53737,37.71499],[-89.53751,37.71509],[-89.53773,37.71528],[-89.53796,37.71552],[-89.53815,37.71574],[-89.53842,37.71606],[-89.53913,37.71691],[-89.53915,37.71693],[-89.53957,37.71742],[-89.5398,37.71767],[-89.53989,37.71776],[-89.54016,37.71804],[-89.54035,37.71821],[-89.54061,37.71845],[-89.54075,37.71858],[-89.54126,37.719],[-89.54145,37.71915],[-89.54187,37.71946],[-89.54229,37.71974],[-89.54259,37.71994],[-89.54338,37.72043],[-89.54347,37.72048],[-89.54384,37.7207],[-89.54456,37.72113],[-89.54487,37.7213],[-89.54493,37.72134],[-89.54516,37.72147],[-89.54536,37.72161],[-89.54545,37.72169],[-89.54553,37.72175],[-89.54569,37.72192],[-89.54581,37.7221],[-89.54586,37.72222],[-89.5459,37.72231],[-89.54594,37.72248],[-89.54594,37.72248],[-89.54608,37.72251],[-89.54614,37.72251],[-89.54753,37.72251],[-89.54883,37.72251],[-89.5504,37.72251],[-89.55268,37.7225],[-89.5529,37.7225],[-89.55511,37.7225],[-89.5596,37.72248],[-89.55983,37.72248],[-89.56255,37.72248],[-89.56392,37.72247],[-89.56437,37.72247],[-89.569,37.72249],[-89.57087,37.72253],[-89.57286,37.72257],[-89.57314,37.72257],[-89.57377,37.72259],[-89.57468,37.7226],[-89.57582,37.72262],[-89.57806,37.72267],[-89.57884,37.72268],[-89.57926,37.72269],[-89.57952,37.7227],[-89.57964,37.7227],[-89.57975,37.72271],[-89.57985,37.72272],[-89.57995,37.72273],[-89.58014,37.72276],[-89.58031,37.72279],[-89.5805,37.72284],[-89.58054,37.72285],[-89.58066,37.72289],[-89.5809,37.72297],[-89.58106,37.72304],[-89.58129,37.72316],[-89.58148,37.72327],[-89.58159,37.72334],[-89.58178,37.72348],[-89.582,37.72368],[-89.58201,37.72369],[-89.5822,37.7239],[-89.58231,37.72404],[-89.58243,37.72421],[-89.5825,37.72434],[-89.58258,37.72451],[-89.58264,37.72471],[-89.58269,37.72491],[-89.58272,37.72509],[-89.58273,37.72535],[-89.58274,37.72568],[-89.58274,37.72734]]}},{"type":"Feature","properties":{"_gpxType":"trk","name":"405 West Pecan Street, Carbondale, IL - Poplar @ Mill (West Side) - 5424 Chautauqua Rd - 40 Co Rd 9 - 2301 Co Rd 9 - 6011 Neunert Rd - 4355 Indian Ridge Rd - 280 Little Levee Rd - St. Nicholas Landmark, Ferry Street, Chester, IL","coordinateProperties":{},"id":34},"geometry":{"type":"LineString","coordinates":[[-89.58274,37.72734],[-89.58274,37.72898],[-89.58273,37.73017],[-89.58273,37.73042],[-89.58273,37.73123],[-89.58273,37.73177],[-89.58274,37.73319],[-89.58274,37.73367],[-89.58274,37.73418],[-89.58274,37.73457],[-89.58274,37.73521],[-89.58274,37.73607],[-89.58273,37.73731],[-89.58271,37.73814],[-89.58269,37.73891],[-89.58268,37.73935],[-89.58267,37.73953],[-89.58267,37.73959],[-89.58266,37.73979],[-89.58267,37.74007],[-89.58267,37.74007],[-89.58281,37.74009],[-89.58303,37.74014],[-89.58318,37.74018],[-89.58342,37.74026],[-89.58355,37.74033],[-89.58361,37.74037],[-89.58367,37.74045],[-89.58378,37.74061],[-89.58383,37.7407],[-89.58394,37.74086],[-89.58415,37.74118],[-89.58426,37.74134],[-89.58456,37.74183],[-89.58484,37.74223],[-89.58556,37.7432],[-89.5856,37.74325],[-89.58584,37.74356],[-89.58643,37.74433],[-89.5869,37.74494],[-89.58705,37.74513],[-89.58763,37.74585],[-89.58776,37.746],[-89.58857,37.74699],[-89.58891,37.74735],[-89.58928,37.74769],[-89.58981,37.74814],[-89.59044,37.74867],[-89.59095,37.74911],[-89.59153,37.74959],[-89.59155,37.7496],[-89.59183,37.74981],[-89.59209,37.74996],[-89.59244,37.75012],[-89.59255,37.75017],[-89.59348,37.75047],[-89.59369,37.75054],[-89.59594,37.75128],[-89.59771,37.75188],[-89.59836,37.75208],[-89.59992,37.75251],[-89.6001,37.75256],[-89.60029,37.75262],[-89.60052,37.7527],[-89.60113,37.7529],[-89.60302,37.75352],[-89.6031,37.75354],[-89.60383,37.75381],[-89.60435,37.7541],[-89.60486,37.75444],[-89.60492,37.75448],[-89.60525,37.75473],[-89.60666,37.75578],[-89.60674,37.75584],[-89.60707,37.75608],[-89.60807,37.75682],[-89.60874,37.75733],[-89.60885,37.75742]]}},{"type":"Feature","properties":{"_gpxType":"trk","name":"405 West Pecan Street, Carbondale, IL - Poplar @ Mill (West Side) - 5424 Chautauqua Rd - 40 Co Rd 9 - 2301 Co Rd 9 - 6011 Neunert Rd - 4355 Indian Ridge Rd - 280 Little Levee Rd - St. Nicholas Landmark, Ferry Street, Chester, IL","coordinateProperties":{},"id":34},"geometry":{"type":"LineString","coordinates":[[-89.60885,37.75742],[-89.60889,37.75746],[-89.60904,37.75762],[-89.6091,37.75772],[-89.60917,37.75785],[-89.60919,37.75801],[-89.60916,37.75877],[-89.60914,37.75913],[-89.60917,37.75928],[-89.60919,37.7593],[-89.60926,37.7594],[-89.60938,37.7595],[-89.60954,37.75956],[-89.60975,37.75958],[-89.61109,37.75959],[-89.61136,37.75958],[-89.61187,37.75959],[-89.61323,37.75959],[-89.61346,37.75959],[-89.61452,37.7596],[-89.61505,37.7596],[-89.61665,37.7596],[-89.61687,37.7596],[-89.61725,37.7596],[-89.61847,37.75961],[-89.61884,37.7596],[-89.61952,37.75959],[-89.61952,37.75959],[-89.62004,37.76019],[-89.62012,37.76028],[-89.62017,37.76034],[-89.62069,37.76092],[-89.62072,37.76095],[-89.62104,37.76118],[-89.62147,37.76148],[-89.62216,37.76191],[-89.62226,37.76197],[-89.6234,37.76266],[-89.6237,37.76284],[-89.62423,37.76318],[-89.62474,37.76348],[-89.62478,37.7635],[-89.62515,37.76371],[-89.62523,37.76376],[-89.62534,37.76381],[-89.62576,37.764],[-89.62629,37.76414],[-89.62638,37.76416],[-89.62686,37.76423],[-89.62705,37.76425],[-89.62736,37.76428],[-89.62816,37.7644],[-89.62839,37.76443],[-89.62871,37.76448],[-89.63013,37.76466],[-89.63018,37.76467],[-89.63107,37.76477],[-89.63167,37.76484],[-89.63249,37.7649],[-89.63363,37.76495],[-89.63432,37.76498],[-89.63538,37.765],[-89.6363,37.76498],[-89.63634,37.76498],[-89.63745,37.76492],[-89.63812,37.76487],[-89.63874,37.76482],[-89.6397,37.76476],[-89.63996,37.76474],[-89.64107,37.76468],[-89.64129,37.76467],[-89.64164,37.76465],[-89.64263,37.7646],[-89.64296,37.76459],[-89.64348,37.76457],[-89.6447,37.76453],[-89.64652,37.76447],[-89.64655,37.76447],[-89.64772,37.76442],[-89.64856,37.76439],[-89.65048,37.76431],[-89.65152,37.76426],[-89.65333,37.76417],[-89.65333,37.76417],[-89.65354,37.76431],[-89.65355,37.76432],[-89.65356,37.76433],[-89.65376,37.7646],[-89.65401,37.76494],[-89.65403,37.76495],[-89.65423,37.76523],[-89.65424,37.76524],[-89.65426,37.76526],[-89.65438,37.76541],[-89.6545,37.76557],[-89.65457,37.76571],[-89.65458,37.76573],[-89.65462,37.76582],[-89.65465,37.76605],[-89.65467,37.76661],[-89.65467,37.76663],[-89.65468,37.76681],[-89.6547,37.76753],[-89.6547,37.76786]]}},{"type":"Feature","properties":{"_gpxType":"trk","name":"405 West Pecan Street, Carbondale, IL - Poplar @ Mill (West Side) - 5424 Chautauqua Rd - 40 Co Rd 9 - 2301 Co Rd 9 - 6011 Neunert Rd - 4355 Indian Ridge Rd - 280 Little Levee Rd - St. Nicholas Landmark, Ferry Street, Chester, IL","coordinateProperties":{},"id":34},"geometry":{"type":"LineString","coordinates":[[-89.6547,37.76786],[-89.65471,37.76806],[-89.65474,37.76895],[-89.65474,37.76897],[-89.65474,37.76901],[-89.65474,37.76931],[-89.65474,37.76941],[-89.65469,37.76962],[-89.65462,37.76984],[-89.65461,37.76987],[-89.65448,37.77012],[-89.65445,37.77017],[-89.65444,37.77019],[-89.65417,37.77068],[-89.65405,37.77088],[-89.654,37.77099],[-89.65399,37.77101],[-89.65365,37.77166],[-89.65364,37.77168],[-89.65356,37.77182],[-89.65324,37.77232],[-89.65324,37.77233],[-89.65314,37.77247],[-89.65272,37.7731],[-89.65271,37.77312],[-89.65249,37.77343],[-89.65221,37.77386],[-89.65174,37.77457],[-89.65157,37.77486],[-89.65156,37.77487],[-89.65148,37.77501],[-89.65126,37.77554],[-89.65125,37.77555],[-89.6512,37.77567],[-89.6509,37.77639],[-89.6509,37.77641],[-89.65089,37.77644],[-89.65081,37.77674],[-89.6508,37.77676],[-89.6508,37.77678],[-89.65058,37.77819],[-89.65055,37.77836],[-89.65045,37.77898],[-89.65037,37.77943],[-89.6503,37.77984],[-89.65017,37.78078],[-89.65015,37.78153],[-89.65015,37.78157],[-89.65015,37.78158],[-89.65014,37.7818],[-89.65012,37.78266],[-89.65012,37.78268],[-89.65013,37.78283],[-89.65015,37.78332],[-89.65017,37.78383],[-89.65024,37.78425],[-89.65038,37.78485],[-89.65049,37.78515],[-89.65061,37.78549],[-89.65076,37.78583],[-89.65076,37.78584],[-89.65091,37.78618],[-89.65094,37.78623],[-89.65116,37.78667],[-89.65133,37.78701],[-89.65163,37.78747],[-89.65164,37.78749],[-89.65165,37.78749],[-89.65181,37.78773],[-89.65197,37.78796],[-89.65198,37.78797],[-89.65254,37.78875],[-89.65314,37.7895],[-89.65315,37.78951],[-89.65345,37.78988],[-89.65367,37.79009],[-89.65368,37.79009],[-89.65396,37.79035],[-89.65429,37.79062],[-89.65445,37.79075],[-89.65459,37.79086],[-89.65524,37.79134],[-89.65583,37.79165],[-89.65624,37.79184],[-89.65658,37.79199],[-89.65664,37.79202],[-89.65684,37.79209],[-89.65705,37.79218],[-89.65707,37.79218],[-89.65746,37.79229],[-89.65747,37.79229],[-89.6577,37.79233],[-89.6579,37.79236],[-89.65815,37.79236],[-89.65815,37.79236],[-89.6586,37.7933],[-89.65884,37.7938],[-89.65898,37.79408],[-89.659,37.79414],[-89.65917,37.79448],[-89.65935,37.79484],[-89.65949,37.79516],[-89.65968,37.79554],[-89.65974,37.79565],[-89.65981,37.79582],[-89.66028,37.79683],[-89.66058,37.79748],[-89.66098,37.79836],[-89.66106,37.79855],[-89.66133,37.79905],[-89.66151,37.79935],[-89.66167,37.79962],[-89.66189,37.8],[-89.66193,37.80008],[-89.66209,37.80033],[-89.66229,37.80065],[-89.66249,37.80097],[-89.6626,37.80113],[-89.66267,37.80123],[-89.66271,37.80129],[-89.66282,37.80142],[-89.66322,37.80188],[-89.66348,37.80218],[-89.66373,37.80248],[-89.66438,37.80322],[-89.66451,37.80337],[-89.66464,37.80352],[-89.66473,37.80362],[-89.6653,37.80425],[-89.66543,37.80439],[-89.66577,37.80477],[-89.66583,37.80483],[-89.66597,37.80497],[-89.66625,37.80526],[-89.66633,37.80534],[-89.66654,37.80553],[-89.66678,37.80575],[-89.66684,37.80581],[-89.66744,37.80634],[-89.66799,37.80683],[-89.66805,37.80688],[-89.6685,37.80729],[-89.66886,37.80761],[-89.669,37.80773],[-89.66925,37.80796],[-89.66955,37.80823],[-89.66962,37.80829],[-89.66992,37.80859],[-89.66996,37.80863],[-89.6703,37.80891],[-89.67044,37.80902],[-89.67088,37.80927],[-89.67165,37.80963],[-89.67227,37.80994],[-89.67227,37.80994],[-89.67241,37.81009],[-89.67253,37.8102],[-89.67261,37.81028],[-89.67266,37.81038],[-89.6727,37.81052],[-89.67271,37.81074],[-89.67272,37.81079],[-89.67271,37.8111],[-89.67268,37.81253],[-89.67266,37.81307],[-89.67264,37.81397],[-89.67263,37.81433],[-89.67259,37.81597],[-89.67256,37.81795],[-89.67255,37.81887],[-89.67254,37.81903],[-89.67254,37.82011],[-89.67254,37.82029],[-89.67254,37.82119],[-89.67254,37.82137],[-89.67254,37.82262],[-89.67254,37.8228],[-89.67254,37.82316],[-89.67254,37.82324],[-89.67251,37.82375],[-89.67251,37.82375],[-89.6726,37.82398],[-89.67262,37.82428],[-89.67263,37.82442],[-89.67263,37.82442],[-89.67231,37.82467],[-89.67215,37.8248],[-89.67208,37.82485],[-89.67183,37.82503],[-89.67181,37.82504],[-89.67165,37.82516],[-89.67152,37.82528],[-89.67137,37.8254],[-89.67136,37.82541],[-89.67125,37.8255],[-89.67095,37.82582],[-89.67069,37.82613],[-89.67061,37.82622],[-89.67056,37.82628],[-89.67045,37.8264],[-89.67042,37.82643],[-89.67041,37.82643],[-89.67024,37.8265],[-89.67007,37.82655],[-89.66985,37.82661],[-89.66964,37.82667],[-89.66963,37.82667],[-89.66948,37.82673],[-89.66935,37.82683],[-89.6693,37.8269],[-89.6693,37.8269],[-89.66992,37.82712],[-89.67054,37.82736],[-89.67084,37.82748],[-89.67144,37.82775],[-89.67177,37.82791],[-89.67217,37.8281],[-89.67221,37.82813],[-89.6724,37.82823],[-89.67241,37.82823],[-89.67249,37.82827],[-89.67284,37.82846],[-89.6733,37.82873],[-89.6737,37.82897],[-89.67405,37.82919],[-89.67414,37.82925],[-89.67422,37.8293],[-89.67423,37.8293],[-89.67441,37.82941],[-89.67481,37.82967],[-89.67511,37.82985],[-89.67535,37.82998],[-89.67552,37.83006],[-89.67574,37.83016],[-89.67592,37.83023],[-89.67609,37.83029],[-89.67612,37.8303],[-89.67636,37.83037],[-89.67687,37.83051],[-89.67741,37.83064],[-89.67761,37.8307],[-89.67782,37.83075],[-89.67863,37.83096],[-89.68005,37.83133],[-89.68027,37.83138],[-89.68045,37.83143],[-89.68067,37.83149],[-89.6807,37.83149],[-89.68113,37.83161],[-89.68153,37.83171],[-89.68156,37.83172],[-89.6824,37.83193],[-89.68249,37.83196],[-89.68326,37.83217],[-89.68355,37.83225],[-89.68383,37.83235],[-89.68437,37.83254],[-89.68491,37.83276],[-89.68512,37.83285],[-89.68517,37.83288],[-89.68543,37.833],[-89.68576,37.83316],[-89.68592,37.83324],[-89.68633,37.83346],[-89.68668,37.83364],[-89.68743,37.83405],[-89.6875,37.83408],[-89.68823,37.83448],[-89.68896,37.83487],[-89.68934,37.83506],[-89.68991,37.83536],[-89.6901,37.83545],[-89.69081,37.83579],[-89.6912,37.83598],[-89.6914,37.83607],[-89.69158,37.83616],[-89.6918,37.83626],[-89.69218,37.83644],[-89.69256,37.83663],[-89.69315,37.83691],[-89.69351,37.83708],[-89.69365,37.83714],[-89.69386,37.83725],[-89.69407,37.83735],[-89.69429,37.83746],[-89.6945,37.83755],[-89.69472,37.83766],[-89.69491,37.83775],[-89.69497,37.83778],[-89.69524,37.83791],[-89.69525,37.83791],[-89.69542,37.83801],[-89.69544,37.83801],[-89.69562,37.8381],[-89.69563,37.83811],[-89.69576,37.83817],[-89.69581,37.8382],[-89.69582,37.8382],[-89.69601,37.83829],[-89.6962,37.83838],[-89.69621,37.83838],[-89.6964,37.83847],[-89.69655,37.83854],[-89.69668,37.8386],[-89.69679,37.83866],[-89.69692,37.83873],[-89.69698,37.83875],[-89.69716,37.83884],[-89.69718,37.83885],[-89.69735,37.83892],[-89.69756,37.83903],[-89.69771,37.8391],[-89.69776,37.83912],[-89.69796,37.83922],[-89.6981,37.83929],[-89.69815,37.83931],[-89.69825,37.83936],[-89.69834,37.83941],[-89.69853,37.8395],[-89.69867,37.83957],[-89.69893,37.83969],[-89.69912,37.83978],[-89.69947,37.83994],[-89.69958,37.83999],[-89.7005,37.84042],[-89.70133,37.8408],[-89.70141,37.84083],[-89.70173,37.84097],[-89.70203,37.84111],[-89.70246,37.84129],[-89.7025,37.84131],[-89.70266,37.84138],[-89.70286,37.84146],[-89.70302,37.84152],[-89.70319,37.84157],[-89.70353,37.84168],[-89.70371,37.84173],[-89.70373,37.84174],[-89.70394,37.8418],[-89.70427,37.8419],[-89.70457,37.842],[-89.70478,37.84209],[-89.70497,37.84218],[-89.70499,37.84218],[-89.70513,37.84225],[-89.70516,37.84227],[-89.70527,37.84233],[-89.70548,37.84245],[-89.7059,37.8427],[-89.70597,37.84274],[-89.70622,37.84289],[-89.70654,37.84308],[-89.70694,37.84332],[-89.70726,37.84351],[-89.70749,37.84364],[-89.70756,37.84368],[-89.70784,37.84383],[-89.70802,37.84391],[-89.70806,37.84393],[-89.70821,37.844],[-89.70823,37.84401],[-89.70826,37.84402],[-89.70841,37.84409],[-89.70845,37.84411],[-89.70846,37.84411],[-89.70874,37.84424],[-89.70901,37.84435],[-89.70905,37.84437],[-89.70925,37.84445],[-89.70945,37.84454],[-89.70965,37.84463],[-89.70981,37.84469],[-89.70985,37.84471],[-89.71025,37.84489],[-89.71026,37.84489],[-89.71112,37.84526],[-89.712,37.84565],[-89.71205,37.84567],[-89.71245,37.84584],[-89.7126,37.84591],[-89.71265,37.84593],[-89.71305,37.8461],[-89.7132,37.84616],[-89.71345,37.84627],[-89.71405,37.84653],[-89.7142,37.8466],[-89.71425,37.84662],[-89.71444,37.84671],[-89.71464,37.84679],[-89.71484,37.84688],[-89.71496,37.84694],[-89.71532,37.8471],[-89.71578,37.84732],[-89.71582,37.84734],[-89.71597,37.84741],[-89.71602,37.84743],[-89.71621,37.84752],[-89.71648,37.84765],[-89.71682,37.84781],[-89.71759,37.84819],[-89.71824,37.84853],[-89.71833,37.84858],[-89.71848,37.84865],[-89.71853,37.84867],[-89.71878,37.8488],[-89.71944,37.84916],[-89.71966,37.84927],[-89.71985,37.84937],[-89.72007,37.84949],[-89.72042,37.84967],[-89.72075,37.84985],[-89.7208,37.84987],[-89.72099,37.84997],[-89.72151,37.85025],[-89.72155,37.85028],[-89.72249,37.85078],[-89.72258,37.85083],[-89.72325,37.85118],[-89.72344,37.85129],[-89.72358,37.85136],[-89.72363,37.85139],[-89.72392,37.85154],[-89.724,37.85159],[-89.72453,37.85187],[-89.72491,37.85207],[-89.72529,37.85228],[-89.7257,37.85249],[-89.72604,37.85265],[-89.72641,37.85283],[-89.72667,37.85293],[-89.72848,37.85371],[-89.73195,37.85517],[-89.7323,37.85532],[-89.73234,37.85533],[-89.7329,37.85557],[-89.73311,37.85566],[-89.73331,37.85574],[-89.73342,37.85579],[-89.73351,37.85582],[-89.73448,37.85623],[-89.73541,37.85663],[-89.73644,37.85706],[-89.73733,37.85743],[-89.73752,37.85751],[-89.73753,37.85752],[-89.73814,37.85777],[-89.73915,37.85819],[-89.73955,37.85836],[-89.73975,37.85844],[-89.73994,37.85854],[-89.74013,37.85864],[-89.74016,37.85866],[-89.74031,37.85874],[-89.74033,37.85875],[-89.74068,37.85895],[-89.7407,37.85896],[-89.74119,37.85925],[-89.7414,37.85937],[-89.74142,37.85938],[-89.74155,37.85946],[-89.74159,37.85949],[-89.74166,37.85954],[-89.7418,37.85964],[-89.74196,37.85977],[-89.74214,37.8599],[-89.74238,37.86005],[-89.74271,37.86025],[-89.74281,37.86031],[-89.74295,37.86039],[-89.74299,37.86041],[-89.7431,37.86047],[-89.74318,37.86051],[-89.74342,37.86063],[-89.74369,37.86077],[-89.74396,37.8609],[-89.74405,37.86094],[-89.74412,37.86099],[-89.74414,37.861],[-89.7443,37.8611],[-89.74432,37.86111],[-89.74442,37.86116],[-89.7447,37.86131],[-89.74546,37.8617],[-89.7456,37.86177],[-89.74585,37.86189],[-89.74603,37.86197],[-89.74604,37.86198],[-89.74644,37.86216],[-89.74689,37.86237],[-89.74763,37.8627],[-89.74775,37.86275],[-89.74862,37.86313],[-89.74863,37.86313],[-89.74983,37.86364],[-89.75069,37.86401],[-89.75111,37.86419],[-89.75118,37.86422],[-89.75131,37.86428],[-89.75155,37.86439],[-89.75188,37.86454],[-89.75232,37.86476],[-89.75255,37.86487],[-89.75266,37.86493],[-89.75325,37.86523],[-89.75405,37.86568],[-89.75436,37.86585],[-89.75454,37.86596],[-89.75565,37.86659],[-89.75576,37.86666],[-89.75683,37.86727],[-89.75731,37.86756],[-89.75748,37.86766],[-89.75769,37.86778],[-89.75813,37.86804],[-89.75833,37.86814],[-89.75841,37.86819],[-89.75859,37.86829],[-89.75915,37.86861],[-89.7597,37.86893],[-89.75995,37.86907],[-89.76078,37.86954],[-89.76105,37.86969],[-89.76108,37.86971],[-89.76129,37.86983],[-89.76144,37.86992],[-89.76145,37.86993],[-89.76146,37.86994],[-89.76155,37.87],[-89.76174,37.87012],[-89.76189,37.87022],[-89.76197,37.87028],[-89.76206,37.87034],[-89.7622,37.87044],[-89.76242,37.8706],[-89.76249,37.87065],[-89.76264,37.87076],[-89.76277,37.87085],[-89.76323,37.87119],[-89.76349,37.87139],[-89.7646,37.87222],[-89.76543,37.87283],[-89.76625,37.87345],[-89.76686,37.87391],[-89.76708,37.87407],[-89.76758,37.87444],[-89.76784,37.87463],[-89.76791,37.87468],[-89.76808,37.8748],[-89.76842,37.87505],[-89.76849,37.87509],[-89.76875,37.87529],[-89.76893,37.87543],[-89.76908,37.87554],[-89.7696,37.87593],[-89.76974,37.87604],[-89.77073,37.87678],[-89.77079,37.87682],[-89.77123,37.87715],[-89.77163,37.87744],[-89.77196,37.87769],[-89.77246,37.87806],[-89.77247,37.87807],[-89.77303,37.87846],[-89.77348,37.87877],[-89.77351,37.87879],[-89.77366,37.87889],[-89.77383,37.879],[-89.77393,37.87907],[-89.77401,37.87912],[-89.77436,37.87934],[-89.77454,37.87945],[-89.77479,37.87961],[-89.77508,37.87979],[-89.77512,37.87981],[-89.7754,37.87998],[-89.77544,37.88],[-89.77588,37.88026],[-89.77618,37.88043],[-89.77674,37.88074],[-89.77719,37.88098],[-89.77764,37.88122],[-89.77808,37.88144],[-89.77854,37.88166],[-89.77875,37.88177],[-89.77899,37.88188],[-89.77923,37.882],[-89.77963,37.88218],[-89.78003,37.88235],[-89.78022,37.88244],[-89.78035,37.8825],[-89.78082,37.8827],[-89.78142,37.88297],[-89.78221,37.88332],[-89.78222,37.88332],[-89.78241,37.8834],[-89.78301,37.88367],[-89.78361,37.88393],[-89.78381,37.88402],[-89.78389,37.88405],[-89.78478,37.88443],[-89.78519,37.88461],[-89.78534,37.88468],[-89.78558,37.88479],[-89.78593,37.88495],[-89.78607,37.88501],[-89.78648,37.8852],[-89.78648,37.8852],[-89.78653,37.88508],[-89.78655,37.88501],[-89.78655,37.88495],[-89.78654,37.88481],[-89.78653,37.8847],[-89.78653,37.88463],[-89.78652,37.88457],[-89.78652,37.88447],[-89.78652,37.88439],[-89.78653,37.88424],[-89.78655,37.88409],[-89.78658,37.88398],[-89.7866,37.88391],[-89.78664,37.88378],[-89.78673,37.8836],[-89.78674,37.88357],[-89.78684,37.88342],[-89.78685,37.88341],[-89.78693,37.88329],[-89.78696,37.88326],[-89.78697,37.88325],[-89.78705,37.88315],[-89.78706,37.88314],[-89.78709,37.88311],[-89.78716,37.88304],[-89.78721,37.88299],[-89.78724,37.88297],[-89.78733,37.88289],[-89.78736,37.88288],[-89.7874,37.88285],[-89.78743,37.88283],[-89.78755,37.88275],[-89.78758,37.88273],[-89.78766,37.88268],[-89.78772,37.88265],[-89.78778,37.88262],[-89.78791,37.88256],[-89.78796,37.88254],[-89.78811,37.88248],[-89.78812,37.88248],[-89.78817,37.88246],[-89.7883,37.88242],[-89.78842,37.88239],[-89.78856,37.88236],[-89.7886,37.88235],[-89.78874,37.88233],[-89.78877,37.88233],[-89.78883,37.88232],[-89.78888,37.88232],[-89.78905,37.8823],[-89.78906,37.8823],[-89.7893,37.8823],[-89.78947,37.88231],[-89.78963,37.88232],[-89.78973,37.88234],[-89.78978,37.88235],[-89.78989,37.88237],[-89.79007,37.88242],[-89.79019,37.88245],[-89.79035,37.88251],[-89.79038,37.88252],[-89.79091,37.88269],[-89.79101,37.88272],[-89.79117,37.88277],[-89.79122,37.88279],[-89.79143,37.88286],[-89.79196,37.88303],[-89.79201,37.88305],[-89.79238,37.88316],[-89.79259,37.88323],[-89.7928,37.8833],[-89.79301,37.88337],[-89.79307,37.88338],[-89.79462,37.88388],[-89.79491,37.88398],[-89.79494,37.88399],[-89.79512,37.88404],[-89.79518,37.88406],[-89.79524,37.88408],[-89.79554,37.88418],[-89.79575,37.88425],[-89.79597,37.88432],[-89.79644,37.88447],[-89.79717,37.8847],[-89.7975,37.88481],[-89.79778,37.88491],[-89.79813,37.88502],[-89.79834,37.88509],[-89.79844,37.88512],[-89.79895,37.88528],[-89.79918,37.88536],[-89.79939,37.88542],[-89.79968,37.88552],[-89.80007,37.88566],[-89.80048,37.88581],[-89.80064,37.88587],[-89.80076,37.88592],[-89.80085,37.88595],[-89.80125,37.88611],[-89.80127,37.88612],[-89.80246,37.88661],[-89.80307,37.88686],[-89.80327,37.88695],[-89.80368,37.88711],[-89.80433,37.88739],[-89.80467,37.88753],[-89.80485,37.88761],[-89.80515,37.88775],[-89.80534,37.88784],[-89.80547,37.88791],[-89.80559,37.88797],[-89.80566,37.88801],[-89.80581,37.88809],[-89.80597,37.88819],[-89.80602,37.88823],[-89.80625,37.88837],[-89.80638,37.88845],[-89.80651,37.88853],[-89.80656,37.88857],[-89.80666,37.88863],[-89.80682,37.88873],[-89.80696,37.88881],[-89.80719,37.88893],[-89.80735,37.889],[-89.8076,37.88909],[-89.80792,37.8892],[-89.80812,37.88927],[-89.80842,37.88939],[-89.80861,37.88946],[-89.80867,37.88949],[-89.80874,37.88952],[-89.8089,37.88959],[-89.809,37.88964],[-89.80935,37.88982],[-89.80958,37.88993],[-89.80966,37.88997],[-89.81004,37.89015],[-89.8101,37.89018],[-89.81017,37.89021],[-89.81037,37.89029],[-89.8104,37.89031],[-89.81121,37.89066],[-89.8114,37.89075],[-89.81155,37.89083],[-89.8116,37.89085],[-89.8118,37.89095],[-89.81198,37.89105],[-89.81212,37.89113],[-89.81229,37.89122],[-89.81231,37.89123],[-89.81243,37.8913],[-89.81244,37.8913],[-89.81252,37.89135],[-89.81272,37.89146],[-89.81286,37.89155],[-89.81288,37.89156],[-89.81298,37.89162],[-89.81304,37.89166],[-89.81305,37.89167],[-89.81314,37.89173],[-89.81355,37.89199],[-89.81357,37.89201],[-89.8137,37.89209],[-89.81386,37.89218],[-89.81397,37.89221],[-89.81405,37.89224],[-89.81412,37.89225],[-89.81417,37.89226],[-89.81428,37.89227],[-89.81442,37.89228],[-89.81455,37.8923],[-89.81466,37.89231],[-89.81468,37.89232],[-89.81477,37.89233],[-89.81488,37.89236],[-89.81502,37.89242],[-89.81518,37.89249],[-89.81529,37.89255],[-89.81567,37.89275],[-89.81574,37.89279],[-89.81599,37.89293],[-89.81604,37.89296],[-89.81611,37.89299],[-89.8163,37.8931],[-89.81634,37.89312],[-89.81672,37.89332],[-89.81693,37.89344],[-89.81711,37.89353],[-89.81743,37.89371],[-89.81762,37.89381],[-89.8183,37.89417],[-89.81894,37.89451],[-89.82035,37.89529],[-89.82052,37.89538],[-89.82109,37.89569],[-89.8211,37.8957],[-89.82166,37.89601],[-89.82215,37.89625],[-89.8222,37.89628],[-89.82246,37.89641],[-89.82259,37.89648],[-89.82304,37.8967],[-89.82323,37.8968],[-89.82351,37.89693],[-89.82362,37.89699],[-89.82381,37.89708],[-89.82388,37.89712],[-89.82471,37.89758],[-89.82474,37.8976],[-89.82493,37.8977],[-89.82605,37.89832],[-89.82606,37.89832],[-89.82679,37.89874],[-89.82685,37.89878],[-89.82716,37.89896],[-89.82741,37.89911],[-89.82786,37.89939],[-89.82822,37.89964],[-89.8284,37.89975],[-89.82887,37.90006],[-89.82909,37.90022],[-89.82915,37.90026],[-89.82955,37.90055],[-89.83009,37.90095],[-89.83025,37.90108],[-89.83062,37.90135],[-89.83068,37.90139],[-89.83074,37.90145],[-89.8308,37.90152],[-89.83085,37.9016],[-89.8309,37.90172],[-89.83091,37.90175],[-89.83095,37.90184],[-89.83098,37.90192],[-89.83101,37.90197],[-89.83107,37.90204],[-89.8311,37.90208],[-89.83117,37.90215],[-89.83152,37.90247],[-89.83154,37.9025],[-89.83181,37.90275],[-89.83181,37.90275],[-89.83168,37.9027],[-89.83161,37.90267],[-89.83152,37.90262],[-89.83143,37.90255],[-89.83134,37.90247],[-89.83121,37.90238],[-89.83108,37.90228],[-89.83096,37.90216],[-89.83092,37.90211],[-89.83083,37.90201],[-89.83071,37.90186],[-89.83063,37.90176],[-89.83058,37.90171],[-89.83053,37.90165],[-89.83043,37.90158],[-89.8304,37.90155],[-89.83027,37.90145],[-89.82965,37.90099],[-89.82951,37.90089],[-89.82909,37.90063],[-89.82897,37.90055],[-89.82891,37.90051]]}}]}