{"type":"FeatureCollection","features":[{"type":"Feature","properties":{"_gpxType":"trk","name":"111 Ferry St - 194 State Hwy H - 24403 US-61 - 24363 State Rd Z - 18042 State Hwy B - Al's Place Bike Hostel, 11 N Franklin St, Farmington, MO 63640","coordinateProperties":{},"id":35},"geometry":{"type":"LineString","coordinates":[[-89.82902,37.90058],[-89.82909,37.90063],[-89.82951,37.90089],[-89.82965,37.90099],[-89.83027,37.90145],[-89.8304,37.90155],[-89.83043,37.90158],[-89.83053,37.90165],[-89.83058,37.90171],[-89.83063,37.90176],[-89.83071,37.90186],[-89.83083,37.90201],[-89.83092,37.90211],[-89.83096,37.90216],[-89.83108,37.90228],[-89.83121,37.90238],[-89.83134,37.90247],[-89.83143,37.90255],[-89.83152,37.90262],[-89.83161,37.90267],[-89.83168,37.9027],[-89.83181,37.90275],[-89.83204,37.90297],[-89.8321,37.90301],[-89.8322,37.90309],[-89.83243,37.90326],[-89.83327,37.90387],[-89.83344,37.904],[-89.8336,37.90412],[-89.8336,37.90412],[-89.83347,37.90426],[-89.8332,37.90455],[-89.83294,37.90481],[-89.83294,37.90481],[-89.83288,37.90501],[-89.83286,37.90511],[-89.83285,37.90517],[-89.83284,37.9052],[-89.83284,37.90525],[-89.83284,37.90531],[-89.83284,37.90536],[-89.83285,37.90541],[-89.83286,37.90547],[-89.83288,37.90554],[-89.83291,37.90562],[-89.83301,37.90585],[-89.83303,37.90587],[-89.83307,37.90593],[-89.83312,37.906],[-89.83315,37.90603],[-89.83316,37.90604],[-89.83329,37.90618],[-89.83329,37.90618],[-89.83352,37.90594],[-89.83392,37.90552],[-89.83438,37.90505],[-89.83453,37.9049],[-89.83461,37.90481],[-89.83464,37.90478],[-89.83473,37.9047],[-89.83478,37.90464],[-89.83492,37.9045],[-89.83506,37.90435],[-89.8353,37.90412],[-89.83545,37.90398],[-89.83552,37.90391],[-89.83559,37.90384],[-89.83574,37.9037],[-89.83588,37.90356],[-89.83593,37.90351],[-89.83602,37.90342],[-89.83617,37.90328],[-89.83631,37.90314],[-89.83659,37.90286],[-89.83674,37.90272],[-89.83688,37.90258],[-89.83702,37.90244],[-89.83716,37.9023],[-89.83716,37.9023],[-89.83752,37.90196],[-89.83766,37.90182],[-89.83795,37.90154],[-89.83809,37.9014],[-89.83823,37.90126],[-89.83838,37.90112],[-89.83852,37.90098],[-89.83866,37.90084],[-89.83881,37.9007],[-89.83895,37.90056],[-89.83932,37.90021],[-89.83938,37.90014],[-89.83953,37.9],[-89.83967,37.89986],[-89.84004,37.89951],[-89.84011,37.89945],[-89.84038,37.89919],[-89.84039,37.89917],[-89.84054,37.89903],[-89.84061,37.89895],[-89.84068,37.89889],[-89.84082,37.89875],[-89.84097,37.89861],[-89.84102,37.89856],[-89.84104,37.89853],[-89.84111,37.89847],[-89.84114,37.89844],[-89.84117,37.8984],[-89.84118,37.89839],[-89.84133,37.89824],[-89.84145,37.8981],[-89.84151,37.89803],[-89.84156,37.89797],[-89.84157,37.89795],[-89.84169,37.8978],[-89.84174,37.89772],[-89.84187,37.89753],[-89.84199,37.89734],[-89.84209,37.89715],[-89.84216,37.89704],[-89.84223,37.89687],[-89.84232,37.89667],[-89.8424,37.89644],[-89.84246,37.89621],[-89.84248,37.89612],[-89.84252,37.89598],[-89.84255,37.89577],[-89.84257,37.89561],[-89.84257,37.89559],[-89.84258,37.8955],[-89.84259,37.89541],[-89.84259,37.89534],[-89.8426,37.89504],[-89.84258,37.89484],[-89.84255,37.89457],[-89.84252,37.89435],[-89.84247,37.89416],[-89.84242,37.89398],[-89.84236,37.89377],[-89.8423,37.8936],[-89.84224,37.89345],[-89.84216,37.89329],[-89.84211,37.89318],[-89.84208,37.89312],[-89.84205,37.89306],[-89.84166,37.89231],[-89.84142,37.89183],[-89.84127,37.89156],[-89.84072,37.89048],[-89.84037,37.88982],[-89.84003,37.88915],[-89.83994,37.88898],[-89.83988,37.88886],[-89.83968,37.88848],[-89.83967,37.88846],[-89.8396,37.88832],[-89.83925,37.88765],[-89.83917,37.88748],[-89.83882,37.88682],[-89.83822,37.88565],[-89.83818,37.88557],[-89.83789,37.88501],[-89.83755,37.88435],[-89.83729,37.88383],[-89.83718,37.88362],[-89.83709,37.88343],[-89.83709,37.88341],[-89.83701,37.88324],[-89.83695,37.88311],[-89.83678,37.88273],[-89.83663,37.88236],[-89.83597,37.88061],[-89.83578,37.88014],[-89.8357,37.87992],[-89.83562,37.87975],[-89.83553,37.87956],[-89.83546,37.87942],[-89.83535,37.87922],[-89.83531,37.87914],[-89.83529,37.87911],[-89.83512,37.87881],[-89.83506,37.87871],[-89.83494,37.87852],[-89.83481,37.87832],[-89.83463,37.87806],[-89.83431,37.87757],[-89.83427,37.87752],[-89.83399,37.87703],[-89.83385,37.87676],[-89.83383,37.87671],[-89.83373,37.87652],[-89.83368,37.8764],[-89.8335,37.87599],[-89.83338,37.87567],[-89.83329,37.87545],[-89.83323,37.87529],[-89.8331,37.87497],[-89.83305,37.87485],[-89.83292,37.87452],[-89.83264,37.87381],[-89.83249,37.87345],[-89.83237,37.87315],[-89.83218,37.87266],[-89.83201,37.87223],[-89.83182,37.87175],[-89.83163,37.87126],[-89.8316,37.87119],[-89.83157,37.87113],[-89.83147,37.87084],[-89.83139,37.87061],[-89.83128,37.87027],[-89.83118,37.86996],[-89.83115,37.86984],[-89.83105,37.86951],[-89.83098,37.86925],[-89.83095,37.8691],[-89.83082,37.86855],[-89.83077,37.86831],[-89.8307,37.86789],[-89.8306,37.86723],[-89.83055,37.86678],[-89.83054,37.86657],[-89.83051,37.86627],[-89.83049,37.86603],[-89.83048,37.8658],[-89.83047,37.86561],[-89.83047,37.86535],[-89.83047,37.86502],[-89.83051,37.86312],[-89.83053,37.86204],[-89.83054,37.86159],[-89.83055,37.86137],[-89.83057,37.86107],[-89.8306,37.86069],[-89.83068,37.86015],[-89.83073,37.85983],[-89.83079,37.85951],[-89.83089,37.85907],[-89.83103,37.85853],[-89.83116,37.85809],[-89.83122,37.85792],[-89.83127,37.85778],[-89.83153,37.85702],[-89.83183,37.85617],[-89.83194,37.85584],[-89.83201,37.85565],[-89.83235,37.85468],[-89.83242,37.85449],[-89.83242,37.85449],[-89.83364,37.85465],[-89.8337,37.85466],[-89.83439,37.85475],[-89.83496,37.85482],[-89.83517,37.85484],[-89.83572,37.85491],[-89.83585,37.85493],[-89.8363,37.85498],[-89.83649,37.85501]]}},{"type":"Feature","properties":{"_gpxType":"trk","name":"111 Ferry St - 194 State Hwy H - 24403 US-61 - 24363 State Rd Z - 18042 State Hwy B - Al's Place Bike Hostel, 11 N Franklin St, Farmington, MO 63640","coordinateProperties":{},"id":35},"geometry":{"type":"LineString","coordinates":[[-89.83649,37.85501],[-89.8374,37.85512],[-89.83742,37.85513],[-89.83808,37.85521],[-89.83854,37.85527],[-89.83877,37.8553],[-89.83926,37.85536],[-89.84012,37.85547],[-89.84034,37.85549],[-89.84034,37.8555],[-89.84057,37.85552],[-89.84169,37.85566],[-89.84181,37.85568],[-89.84192,37.85569],[-89.84223,37.85573],[-89.84305,37.85583],[-89.84377,37.85592],[-89.84433,37.85598],[-89.8453,37.85609],[-89.84552,37.85612],[-89.8461,37.85619],[-89.84633,37.85621],[-89.8471,37.8563],[-89.84772,37.85637],[-89.84869,37.85648],[-89.85004,37.85663],[-89.85027,37.85666],[-89.8505,37.85668],[-89.85088,37.85673],[-89.85169,37.85682],[-89.85207,37.85686],[-89.8523,37.85689],[-89.85298,37.85697],[-89.85306,37.85698],[-89.854,37.85709],[-89.8541,37.8571],[-89.85433,37.85712],[-89.85456,37.85715],[-89.85537,37.85724],[-89.85568,37.85728],[-89.85605,37.85731],[-89.85645,37.85736],[-89.85681,37.8574],[-89.85688,37.85741],[-89.85704,37.85742],[-89.85708,37.85743],[-89.85728,37.85744],[-89.85767,37.85748],[-89.85789,37.85749],[-89.85824,37.85751],[-89.85862,37.85753],[-89.85893,37.85755],[-89.85973,37.85758],[-89.86049,37.8576],[-89.86084,37.85761],[-89.86124,37.85763],[-89.86261,37.85768],[-89.86446,37.85774],[-89.86671,37.85783],[-89.86693,37.85784],[-89.86741,37.85786],[-89.86796,37.85788],[-89.86807,37.85788],[-89.86875,37.8579],[-89.86898,37.85791],[-89.86906,37.85792],[-89.86989,37.85795],[-89.87012,37.85795],[-89.87015,37.85796],[-89.87035,37.85796],[-89.87045,37.85797],[-89.87057,37.85797],[-89.87097,37.85799],[-89.87126,37.858],[-89.87148,37.85801],[-89.87194,37.85802],[-89.87249,37.85804],[-89.8732,37.85807],[-89.87343,37.85808],[-89.87399,37.8581],[-89.87495,37.85814],[-89.87502,37.85814],[-89.87525,37.85815],[-89.87548,37.85816],[-89.87591,37.85817],[-89.87676,37.8582],[-89.87707,37.85821],[-89.87776,37.85824],[-89.87784,37.85824],[-89.87844,37.85826],[-89.8792,37.85829],[-89.88018,37.85833],[-89.88026,37.85833],[-89.88071,37.85835],[-89.88128,37.85837],[-89.88151,37.85838],[-89.88181,37.85839],[-89.88242,37.85841],[-89.88264,37.85842],[-89.88287,37.85843],[-89.88373,37.85846],[-89.88401,37.85847],[-89.88521,37.85851],[-89.88583,37.85853],[-89.88606,37.85854],[-89.8866,37.85856],[-89.88717,37.85858],[-89.88742,37.85859],[-89.8881,37.85861],[-89.88811,37.85861],[-89.88833,37.85862],[-89.88879,37.85864],[-89.88947,37.85867],[-89.88977,37.85868],[-89.88993,37.85869],[-89.89038,37.8587],[-89.89061,37.85871],[-89.89066,37.85872],[-89.89117,37.85873],[-89.89129,37.85874],[-89.89152,37.85874],[-89.89165,37.85874],[-89.89175,37.85874],[-89.89185,37.85874],[-89.89208,37.85873],[-89.89225,37.85872],[-89.89253,37.85868],[-89.89284,37.85863],[-89.89309,37.85857],[-89.89324,37.85852],[-89.89338,37.85847],[-89.8936,37.85839],[-89.89378,37.85832],[-89.89412,37.85818],[-89.89439,37.85805],[-89.8947,37.8579],[-89.8949,37.85781],[-89.89579,37.8574],[-89.89615,37.85723],[-89.8967,37.85698],[-89.89679,37.85694],[-89.89698,37.85684],[-89.89732,37.85668],[-89.89765,37.85654],[-89.8979,37.85644],[-89.89798,37.85641],[-89.89807,37.85638],[-89.89826,37.85631],[-89.8984,37.85627],[-89.89848,37.85625],[-89.89862,37.85622],[-89.89879,37.85619],[-89.89884,37.85618],[-89.89899,37.85615],[-89.8992,37.85613],[-89.89929,37.85613],[-89.89932,37.85612],[-89.89944,37.85612],[-89.89966,37.85612],[-89.90001,37.85612],[-89.9002,37.85613],[-89.90035,37.85613],[-89.90065,37.85616],[-89.901,37.85618],[-89.90181,37.85624],[-89.90226,37.85627],[-89.90249,37.85628],[-89.90294,37.85631],[-89.90317,37.85633],[-89.9034,37.85634],[-89.90362,37.85635],[-89.90385,37.85637],[-89.90401,37.85638],[-89.9043,37.8564],[-89.90467,37.85643],[-89.90517,37.85646],[-89.9054,37.85647],[-89.90567,37.85649],[-89.90573,37.8565],[-89.90632,37.85653],[-89.90641,37.85653],[-89.90661,37.85654],[-89.90694,37.85655],[-89.90709,37.85655],[-89.90752,37.85655],[-89.908,37.85654],[-89.90805,37.85654],[-89.90823,37.85654],[-89.90825,37.85654],[-89.90842,37.85653],[-89.90859,37.85652],[-89.9088,37.85651],[-89.9091,37.85649],[-89.90969,37.85644],[-89.91027,37.85639],[-89.91199,37.85624],[-89.91229,37.85621],[-89.91267,37.85618],[-89.91313,37.85613],[-89.91335,37.85612],[-89.91358,37.8561],[-89.9138,37.85608],[-89.91403,37.85606],[-89.91428,37.85604],[-89.91493,37.85598],[-89.91516,37.85596],[-89.91607,37.85588],[-89.91629,37.85586],[-89.91666,37.85583],[-89.91701,37.8558],[-89.91717,37.85579],[-89.91739,37.85578],[-89.91743,37.85578],[-89.91758,37.85578],[-89.91779,37.85578],[-89.91797,37.85579],[-89.91811,37.85581],[-89.91812,37.85581],[-89.91823,37.85583],[-89.91833,37.85585],[-89.91843,37.85587],[-89.91852,37.85588],[-89.91855,37.85589],[-89.91862,37.85591],[-89.91875,37.85595],[-89.91893,37.856],[-89.91904,37.85604],[-89.91916,37.85609],[-89.91929,37.85616],[-89.91937,37.8562],[-89.91951,37.85627],[-89.91956,37.8563],[-89.91968,37.85637],[-89.91974,37.85641],[-89.92003,37.85659],[-89.92021,37.85668],[-89.92029,37.85673],[-89.92037,37.85677],[-89.9205,37.85683],[-89.9207,37.85692],[-89.92091,37.857],[-89.92117,37.8571],[-89.92119,37.85711],[-89.92132,37.85715],[-89.92138,37.85717],[-89.92159,37.85723],[-89.92163,37.85724],[-89.92181,37.85728],[-89.92198,37.85732],[-89.92203,37.85732],[-89.92213,37.85734],[-89.92225,37.85736],[-89.92234,37.85737],[-89.92248,37.85739],[-89.92251,37.85739],[-89.92275,37.85741],[-89.92301,37.85742],[-89.92333,37.85741],[-89.92339,37.85741],[-89.92362,37.85739],[-89.92368,37.85738],[-89.92384,37.85736],[-89.92405,37.85733],[-89.92406,37.85733],[-89.92426,37.85729],[-89.92429,37.85729],[-89.92439,37.85726],[-89.92473,37.85718],[-89.92515,37.85707],[-89.92554,37.85697],[-89.92606,37.85683],[-89.92633,37.85676],[-89.92676,37.85664],[-89.92685,37.85661],[-89.92765,37.8564],[-89.92784,37.85635],[-89.92806,37.85629],[-89.92822,37.85625],[-89.92827,37.85623],[-89.92849,37.85618],[-89.929,37.85604],[-89.92914,37.85601],[-89.92928,37.85599],[-89.92958,37.85595],[-89.92959,37.85595],[-89.92981,37.85594],[-89.92987,37.85593],[-89.93005,37.85593],[-89.93019,37.85594],[-89.93041,37.85596],[-89.93054,37.85597],[-89.93072,37.856],[-89.93092,37.85604],[-89.93111,37.85609],[-89.93115,37.85611],[-89.93121,37.85612],[-89.93136,37.85618],[-89.93151,37.85623],[-89.9317,37.85632],[-89.93193,37.85643],[-89.93232,37.85662],[-89.93243,37.85668],[-89.9327,37.85681],[-89.93294,37.85693],[-89.93324,37.85708],[-89.93328,37.8571],[-89.93347,37.8572],[-89.93362,37.85727],[-89.93404,37.85748],[-89.93405,37.85749],[-89.93424,37.85758],[-89.93428,37.8576],[-89.93451,37.85771],[-89.93463,37.85777],[-89.93477,37.85784],[-89.935,37.85797],[-89.93501,37.85797],[-89.9352,37.85809],[-89.93537,37.8582],[-89.93554,37.85831],[-89.93557,37.85834],[-89.93571,37.85844],[-89.93596,37.85863],[-89.93614,37.85877],[-89.93653,37.85907],[-89.93764,37.85996],[-89.93801,37.86025],[-89.93861,37.8607],[-89.93936,37.86128],[-89.93942,37.86133],[-89.93993,37.86174],[-89.94023,37.86197],[-89.94033,37.86204],[-89.94044,37.86213],[-89.9408,37.8624],[-89.94104,37.86259],[-89.94128,37.86278],[-89.94136,37.86285],[-89.94152,37.86298],[-89.94167,37.86311],[-89.94172,37.86315],[-89.94192,37.86333],[-89.94193,37.86335],[-89.94197,37.86339],[-89.94223,37.86364],[-89.94225,37.86367],[-89.94233,37.86376],[-89.9424,37.86383],[-89.94252,37.86396],[-89.9426,37.86405],[-89.94265,37.86411],[-89.94287,37.86434],[-89.94292,37.8644],[-89.94319,37.8647],[-89.94326,37.86478],[-89.94331,37.86484],[-89.94345,37.86498],[-89.94353,37.86508],[-89.94366,37.86522],[-89.94371,37.86528],[-89.94384,37.86542],[-89.94392,37.86552],[-89.94397,37.86557],[-89.94399,37.86559],[-89.94411,37.86572],[-89.94445,37.8661],[-89.9445,37.86616],[-89.9453,37.86706],[-89.94607,37.8679],[-89.94634,37.86819],[-89.94641,37.86827],[-89.94713,37.86907],[-89.94753,37.86951],[-89.94766,37.86965],[-89.94781,37.86982],[-89.94781,37.86982],[-89.94843,37.86934],[-89.94876,37.86909],[-89.94931,37.86867],[-89.94978,37.86831]]}},{"type":"Feature","properties":{"_gpxType":"trk","name":"111 Ferry St - 194 State Hwy H - 24403 US-61 - 24363 State Rd Z - 18042 State Hwy B - Al's Place Bike Hostel, 11 N Franklin St, Farmington, MO 63640","coordinateProperties":{},"id":35},"geometry":{"type":"LineString","coordinates":[[-89.94978,37.86831],[-89.94983,37.86828],[-89.94997,37.86817],[-89.95013,37.86805],[-89.95046,37.8678],[-89.95067,37.86764],[-89.95099,37.86739],[-89.95124,37.8672],[-89.95139,37.86709],[-89.9514,37.86708],[-89.95156,37.86696],[-89.95172,37.86684],[-89.9519,37.86671],[-89.95201,37.86664],[-89.95207,37.86659],[-89.95238,37.86641],[-89.9525,37.86634],[-89.95253,37.86633],[-89.95259,37.8663],[-89.95268,37.86625],[-89.95269,37.86625],[-89.95272,37.86623],[-89.95282,37.86618],[-89.95288,37.86615],[-89.95292,37.86614],[-89.95293,37.86613],[-89.95304,37.86608],[-89.95312,37.86605],[-89.9532,37.86601],[-89.95328,37.86598],[-89.95332,37.86597],[-89.95333,37.86596],[-89.95345,37.86592],[-89.95349,37.8659],[-89.95366,37.86583],[-89.95373,37.86581],[-89.95386,37.86576],[-89.95389,37.86574],[-89.9541,37.86566],[-89.95414,37.86565],[-89.9543,37.86558],[-89.95444,37.86553],[-89.95471,37.86543],[-89.95511,37.86527],[-89.95534,37.86517],[-89.95545,37.86512],[-89.95552,37.86509],[-89.9556,37.86505],[-89.95566,37.86502],[-89.9557,37.865],[-89.95573,37.86497],[-89.95589,37.86488],[-89.95597,37.86483],[-89.95603,37.86479],[-89.95605,37.86477],[-89.95615,37.8647],[-89.9562,37.86466],[-89.95622,37.86465],[-89.95626,37.86461],[-89.9563,37.86458],[-89.95635,37.86453],[-89.95646,37.86443],[-89.95653,37.86436],[-89.9566,37.86429],[-89.9567,37.86417],[-89.95672,37.86415],[-89.95673,37.86414],[-89.95676,37.8641],[-89.95681,37.86403],[-89.95684,37.86399],[-89.95687,37.86395],[-89.95692,37.86388],[-89.95695,37.86383],[-89.95697,37.86379],[-89.95706,37.86364],[-89.95713,37.86349],[-89.95718,37.86338],[-89.95728,37.86314],[-89.95744,37.86277],[-89.95749,37.86264],[-89.95754,37.86254],[-89.95771,37.86213],[-89.95772,37.86212],[-89.9578,37.86193],[-89.95789,37.86175],[-89.95794,37.86166],[-89.95795,37.86162],[-89.95796,37.86161],[-89.95799,37.86155],[-89.95803,37.86148],[-89.95808,37.8614],[-89.95829,37.86106],[-89.95835,37.86097],[-89.95846,37.86082],[-89.95868,37.8605],[-89.95927,37.85963],[-89.9594,37.85944],[-89.95958,37.8592],[-89.95958,37.8592],[-89.95969,37.85924],[-89.95976,37.85928],[-89.95984,37.85931],[-89.95994,37.85936],[-89.96001,37.8594],[-89.9602,37.8595],[-89.9604,37.8596],[-89.96077,37.8598],[-89.96096,37.8599],[-89.96105,37.85995],[-89.96115,37.86],[-89.96123,37.86004],[-89.96134,37.8601],[-89.96143,37.86014],[-89.96154,37.86018],[-89.96155,37.86018],[-89.96163,37.86021],[-89.96173,37.86024],[-89.96185,37.86026],[-89.96196,37.86028],[-89.96206,37.86029],[-89.96216,37.8603],[-89.96226,37.8603],[-89.96237,37.8603],[-89.96243,37.8603],[-89.9625,37.86029],[-89.96262,37.86027],[-89.96266,37.86027],[-89.96273,37.86025],[-89.96283,37.86023],[-89.96289,37.86021],[-89.96296,37.86018],[-89.96311,37.86012],[-89.96319,37.86008],[-89.96326,37.86003],[-89.96343,37.85992],[-89.96347,37.8599],[-89.9636,37.85981],[-89.96379,37.85968],[-89.96446,37.8592],[-89.96495,37.85885],[-89.96506,37.85878],[-89.96523,37.85866],[-89.9654,37.85854],[-89.9655,37.85846],[-89.96556,37.85842],[-89.96579,37.85826],[-89.9659,37.85818],[-89.96598,37.85811],[-89.96616,37.85797],[-89.96624,37.85788],[-89.96635,37.85777],[-89.96645,37.85763],[-89.9665,37.85756],[-89.96656,37.85747],[-89.96657,37.85745],[-89.96666,37.85729],[-89.96677,37.85702],[-89.96687,37.85673],[-89.96692,37.8566],[-89.96698,37.85643],[-89.96702,37.85632],[-89.96708,37.85617],[-89.96717,37.85597],[-89.96733,37.8557],[-89.9674,37.85559],[-89.96747,37.85548],[-89.96751,37.85543],[-89.96767,37.85522],[-89.96774,37.85513],[-89.96797,37.85482],[-89.96822,37.85447],[-89.96836,37.85424],[-89.9684,37.85418],[-89.96845,37.85407],[-89.96848,37.85401],[-89.96852,37.85392],[-89.96855,37.85384],[-89.96855,37.85383],[-89.96858,37.85373],[-89.96862,37.8536],[-89.96865,37.85349],[-89.96868,37.85332],[-89.9687,37.85314],[-89.96872,37.85296],[-89.96873,37.8528],[-89.96875,37.85254],[-89.96878,37.85226],[-89.9688,37.85203],[-89.96881,37.8519],[-89.96884,37.85164],[-89.96885,37.85154],[-89.96887,37.85133],[-89.9689,37.85108],[-89.96891,37.85101],[-89.96893,37.85092],[-89.96897,37.85072],[-89.96898,37.85065],[-89.96901,37.85047],[-89.96902,37.85045],[-89.96909,37.85012],[-89.96912,37.84994],[-89.96916,37.84976],[-89.96918,37.84969],[-89.9692,37.84959],[-89.96924,37.84941],[-89.96931,37.84909],[-89.96931,37.84905],[-89.96935,37.84888],[-89.96938,37.84877],[-89.96939,37.8487],[-89.96941,37.84864],[-89.96945,37.84851],[-89.96949,37.8484],[-89.96952,37.84835],[-89.96956,37.84827],[-89.96961,37.84819],[-89.96963,37.84816],[-89.96977,37.84798],[-89.96982,37.84792],[-89.96986,37.84789],[-89.9699,37.84785],[-89.97001,37.84776],[-89.97017,37.84765],[-89.97031,37.84757],[-89.97037,37.84754],[-89.97044,37.84751],[-89.97059,37.84745],[-89.97074,37.8474],[-89.97078,37.84739],[-89.97082,37.84738],[-89.97097,37.84735],[-89.97101,37.84735],[-89.97117,37.84733],[-89.97123,37.84732],[-89.97137,37.84732],[-89.97146,37.84732],[-89.97157,37.84732],[-89.9718,37.84736],[-89.97204,37.84741],[-89.97212,37.84744],[-89.97233,37.8475],[-89.97248,37.84756],[-89.97251,37.84758],[-89.9727,37.84765],[-89.97311,37.84783],[-89.97323,37.84788],[-89.97341,37.84796],[-89.97365,37.84805],[-89.97382,37.84811],[-89.97404,37.84819],[-89.97445,37.84831],[-89.97471,37.84839],[-89.97492,37.84845],[-89.97513,37.84851],[-89.97535,37.84857],[-89.97577,37.8487],[-89.97599,37.84876],[-89.97605,37.84878],[-89.9762,37.84883],[-89.97641,37.84889],[-89.97663,37.84895],[-89.97684,37.84901],[-89.97727,37.84914],[-89.97748,37.8492],[-89.97791,37.84933],[-89.97798,37.84935],[-89.97832,37.84944],[-89.97855,37.84949],[-89.97856,37.84949],[-89.9788,37.84953],[-89.97901,37.84954],[-89.97913,37.84955],[-89.97924,37.84955],[-89.9794,37.84954],[-89.97969,37.84951],[-89.97972,37.8495],[-89.98013,37.84944],[-89.98056,37.84937],[-89.9808,37.84933],[-89.981,37.8493],[-89.98111,37.84929],[-89.98121,37.84929],[-89.98131,37.84929],[-89.98133,37.84929],[-89.98146,37.8493],[-89.98165,37.84935],[-89.98188,37.84939],[-89.98191,37.84939],[-89.98198,37.84939],[-89.98208,37.84942],[-89.98241,37.8495],[-89.98263,37.84956],[-89.98278,37.8496],[-89.98285,37.84962],[-89.98306,37.84968],[-89.98328,37.84973],[-89.98337,37.84976],[-89.98349,37.84979],[-89.98371,37.84985],[-89.98414,37.84996],[-89.98429,37.85],[-89.98436,37.85002],[-89.98457,37.85007],[-89.98479,37.85013],[-89.98501,37.85019],[-89.98525,37.85025],[-89.98543,37.8503],[-89.98554,37.85033],[-89.98564,37.85036],[-89.98572,37.85039],[-89.98582,37.85043],[-89.98586,37.85044],[-89.98593,37.85046],[-89.98606,37.85052],[-89.98618,37.85057],[-89.98626,37.85061],[-89.98629,37.85062],[-89.98639,37.85067],[-89.98649,37.85072],[-89.98657,37.85077],[-89.98664,37.85081],[-89.9867,37.85085],[-89.98696,37.851],[-89.987,37.85103],[-89.9876,37.8514],[-89.98772,37.85147],[-89.98781,37.85152],[-89.98787,37.85155],[-89.98791,37.85157],[-89.98794,37.85159],[-89.98804,37.85164],[-89.9881,37.85167],[-89.98818,37.8517],[-89.9883,37.85175],[-89.98841,37.85179],[-89.98851,37.85182],[-89.98855,37.85183],[-89.98867,37.85186],[-89.98873,37.85187],[-89.98882,37.85189],[-89.98895,37.85191],[-89.98898,37.85192],[-89.98913,37.85194],[-89.98923,37.85195],[-89.98936,37.85197],[-89.98947,37.85197],[-89.98959,37.85198],[-89.98963,37.85197],[-89.98975,37.85197],[-89.98986,37.85197],[-89.99001,37.85196],[-89.99008,37.85195],[-89.99025,37.85194],[-89.99048,37.85192],[-89.99071,37.85189],[-89.99093,37.85187],[-89.99113,37.85185],[-89.99116,37.85184],[-89.99136,37.85182],[-89.99138,37.85182],[-89.99155,37.8518],[-89.99168,37.85179],[-89.99178,37.85177],[-89.99187,37.85175],[-89.99196,37.85173],[-89.99205,37.85171],[-89.99207,37.85171],[-89.99215,37.85168],[-89.99223,37.85166],[-89.99235,37.85162],[-89.99243,37.85159],[-89.99251,37.85155],[-89.99261,37.8515],[-89.99266,37.85147],[-89.99275,37.85142],[-89.99281,37.85138],[-89.99284,37.85136],[-89.99288,37.85134],[-89.99295,37.85128],[-89.993,37.85124],[-89.99302,37.85123],[-89.99313,37.85112],[-89.99323,37.85101],[-89.99328,37.85095],[-89.9933,37.85092],[-89.99339,37.85079],[-89.99348,37.85063],[-89.99355,37.85046],[-89.99356,37.85045],[-89.99361,37.85033],[-89.99363,37.85029],[-89.99372,37.85009],[-89.99377,37.84999],[-89.99379,37.84995],[-89.99384,37.84988],[-89.9939,37.8498],[-89.99392,37.84977],[-89.99398,37.84971],[-89.99403,37.84965],[-89.99405,37.84963],[-89.99419,37.84953],[-89.9942,37.84953],[-89.99427,37.84948],[-89.99438,37.84943],[-89.99439,37.84943],[-89.99459,37.84936],[-89.9946,37.84936],[-89.99477,37.84933],[-89.99492,37.84931],[-89.99519,37.84929],[-89.99527,37.84928],[-89.9955,37.84927],[-89.99573,37.84925],[-89.99596,37.84923],[-89.99618,37.84922],[-89.99641,37.8492],[-89.99664,37.84918],[-89.99678,37.84917],[-89.99686,37.84916],[-89.99717,37.84914],[-89.99731,37.84912],[-89.9974,37.84911],[-89.99754,37.84909],[-89.99761,37.84908],[-89.99776,37.84905],[-89.99797,37.84901],[-89.99798,37.84901],[-89.99833,37.84892],[-89.99866,37.84883],[-89.99896,37.84873],[-89.99905,37.8487],[-89.99925,37.84862],[-89.99939,37.84856],[-89.99946,37.84853],[-89.99966,37.84845],[-89.99986,37.84836],[-90.00006,37.84828],[-90.00022,37.84821],[-90.00057,37.84805],[-90.00065,37.84801],[-90.00078,37.84795],[-90.00084,37.84791],[-90.00101,37.84782],[-90.0011,37.84775],[-90.00133,37.84758],[-90.00143,37.84751],[-90.00144,37.84751],[-90.0016,37.84739],[-90.00175,37.84729],[-90.00192,37.84717],[-90.00211,37.84702],[-90.00212,37.84701],[-90.00221,37.84695],[-90.00233,37.84686],[-90.00236,37.84684],[-90.00251,37.84674],[-90.0029,37.84643],[-90.003,37.84635],[-90.00317,37.84623],[-90.00327,37.84616],[-90.00333,37.84611],[-90.00337,37.84608],[-90.00343,37.84603],[-90.00349,37.84597],[-90.00351,37.84595],[-90.00357,37.84588],[-90.00363,37.84581],[-90.00367,37.84573],[-90.00373,37.84561],[-90.00378,37.8455],[-90.00379,37.84549],[-90.00383,37.84537],[-90.00387,37.84519],[-90.00392,37.84496],[-90.00396,37.84482],[-90.004,37.84466],[-90.00406,37.84449],[-90.00411,37.84437],[-90.00415,37.84427],[-90.00417,37.84423],[-90.00425,37.84408],[-90.00435,37.84393],[-90.00445,37.8438],[-90.0045,37.84373],[-90.00458,37.84364],[-90.00468,37.84354],[-90.00475,37.84346],[-90.00484,37.84338],[-90.00487,37.84336],[-90.00489,37.84334],[-90.00494,37.8433],[-90.00505,37.84321],[-90.00517,37.84313],[-90.0052,37.84311],[-90.00528,37.84305],[-90.00535,37.84301],[-90.00545,37.84296],[-90.00555,37.8429],[-90.00568,37.84284],[-90.00578,37.8428],[-90.0059,37.84275],[-90.00597,37.84273],[-90.00606,37.84269],[-90.00631,37.84261],[-90.00648,37.84255],[-90.00746,37.84224],[-90.00754,37.84222],[-90.00775,37.84215],[-90.00783,37.84213],[-90.00796,37.84208],[-90.0086,37.84188],[-90.00902,37.84175],[-90.00977,37.84152],[-90.01049,37.84128],[-90.01056,37.84125],[-90.01072,37.84119],[-90.01087,37.84113],[-90.01099,37.84107],[-90.01126,37.84094],[-90.01172,37.84068],[-90.01172,37.84068],[-90.01181,37.84082]]}},{"type":"Feature","properties":{"_gpxType":"trk","name":"111 Ferry St - 194 State Hwy H - 24403 US-61 - 24363 State Rd Z - 18042 State Hwy B - Al's Place Bike Hostel, 11 N Franklin St, Farmington, MO 63640","coordinateProperties":{},"id":35},"geometry":{"type":"LineString","coordinates":[[-90.01181,37.84082],[-90.01172,37.84068],[-90.01172,37.84068],[-90.01202,37.8405],[-90.01208,37.84047],[-90.01243,37.84026],[-90.01245,37.84025],[-90.01317,37.83982],[-90.01332,37.83973],[-90.01335,37.83971],[-90.01354,37.8396],[-90.01362,37.83955],[-90.01372,37.83949],[-90.0139,37.83938],[-90.01413,37.83925],[-90.01436,37.83913],[-90.01446,37.83907],[-90.01464,37.83898],[-90.01484,37.83888],[-90.01499,37.83881],[-90.01524,37.8387],[-90.01577,37.83847],[-90.01597,37.83838],[-90.01634,37.83822],[-90.01684,37.83802],[-90.01725,37.83784],[-90.01784,37.83759],[-90.01815,37.83744],[-90.01851,37.83727],[-90.01851,37.83727],[-90.01884,37.83744],[-90.01889,37.83747],[-90.01891,37.83748],[-90.01896,37.8375],[-90.01907,37.83755],[-90.0193,37.83767],[-90.01987,37.83797],[-90.0202,37.83813],[-90.0203,37.83819],[-90.02055,37.83831],[-90.02093,37.8385],[-90.02098,37.83852],[-90.02148,37.83876],[-90.02169,37.83886],[-90.02176,37.83889],[-90.02188,37.83895],[-90.02212,37.83905],[-90.02228,37.83911],[-90.02236,37.83914],[-90.02243,37.83917],[-90.02277,37.83929],[-90.0228,37.8393],[-90.0234,37.83952],[-90.0236,37.8396],[-90.02388,37.8397],[-90.02407,37.83977],[-90.02421,37.83983],[-90.0244,37.83991],[-90.02451,37.83997],[-90.02453,37.83998],[-90.02473,37.84008],[-90.02489,37.84017],[-90.02506,37.84026],[-90.02556,37.84054],[-90.02581,37.84069],[-90.02587,37.84073],[-90.02617,37.84092],[-90.02647,37.84112],[-90.02651,37.84115],[-90.0267,37.84128],[-90.02695,37.84147],[-90.02708,37.84156],[-90.0272,37.84165],[-90.02724,37.84168],[-90.0274,37.84179],[-90.0276,37.84191],[-90.02763,37.84193],[-90.02767,37.84196],[-90.02815,37.84222],[-90.02853,37.84242],[-90.02872,37.84253],[-90.02888,37.84262],[-90.02891,37.84263],[-90.02968,37.84304],[-90.03004,37.84324],[-90.03039,37.84343],[-90.03056,37.84353],[-90.0307,37.84361],[-90.03075,37.84364],[-90.03083,37.8437],[-90.03103,37.84384],[-90.03112,37.84392],[-90.03121,37.84399],[-90.03134,37.84413],[-90.03144,37.84424],[-90.03145,37.84426],[-90.03153,37.84437],[-90.03156,37.84442],[-90.03161,37.84449],[-90.03168,37.8446],[-90.03172,37.84468],[-90.03177,37.84479],[-90.03181,37.84491],[-90.03186,37.84503],[-90.0319,37.84519],[-90.03192,37.84526],[-90.03192,37.84529],[-90.03193,37.84537],[-90.03194,37.84543],[-90.03195,37.84555],[-90.03195,37.84573],[-90.03193,37.84595],[-90.03192,37.84607],[-90.03192,37.8462],[-90.0319,37.84635],[-90.03189,37.84648],[-90.03187,37.8466],[-90.03187,37.84663],[-90.03183,37.84688],[-90.0318,37.84705],[-90.03178,37.84716],[-90.03175,37.8473],[-90.03172,37.84752],[-90.03166,37.84787],[-90.03165,37.84794],[-90.03162,37.84823],[-90.03159,37.84841],[-90.03159,37.84842],[-90.03155,37.84872],[-90.03155,37.84877],[-90.03151,37.84909],[-90.03148,37.84931],[-90.03145,37.84948],[-90.03144,37.84957],[-90.03142,37.84972],[-90.03139,37.8499],[-90.03139,37.84992],[-90.03137,37.85008],[-90.03135,37.85032],[-90.03133,37.85044],[-90.0313,37.8507],[-90.03129,37.8508],[-90.03128,37.85086],[-90.03125,37.85108],[-90.03121,37.85133],[-90.03121,37.85138],[-90.03119,37.85151],[-90.03116,37.85169],[-90.03114,37.85181],[-90.03113,37.85194],[-90.03112,37.85202],[-90.03112,37.85205],[-90.03112,37.85211],[-90.03113,37.85221],[-90.03114,37.85223],[-90.03115,37.85233],[-90.03117,37.8524],[-90.03118,37.85241],[-90.0312,37.85247],[-90.03124,37.85258],[-90.03125,37.8526],[-90.03128,37.85267],[-90.03131,37.85273],[-90.03133,37.85274],[-90.03137,37.85282],[-90.03143,37.85289],[-90.03144,37.8529],[-90.03154,37.85304],[-90.0318,37.85334],[-90.03205,37.85366],[-90.03212,37.85374],[-90.03223,37.8539],[-90.03229,37.85402],[-90.03234,37.85413],[-90.03236,37.85419],[-90.03238,37.85423],[-90.0324,37.85431],[-90.03241,37.85437],[-90.03243,37.85444],[-90.03245,37.85455],[-90.03246,37.85462],[-90.03246,37.85473],[-90.03246,37.85474],[-90.03246,37.85483],[-90.03245,37.85491],[-90.03242,37.85508],[-90.03242,37.8551],[-90.03239,37.85526],[-90.03233,37.85562],[-90.0323,37.8558],[-90.03228,37.85589],[-90.03224,37.85615],[-90.03211,37.85687],[-90.03206,37.85713],[-90.03204,37.85722],[-90.03195,37.85765],[-90.03194,37.85775],[-90.03193,37.85778],[-90.03192,37.85788],[-90.03193,37.858],[-90.03196,37.85811],[-90.03196,37.85814],[-90.03201,37.85826],[-90.03202,37.85828],[-90.03204,37.85832],[-90.03209,37.85839],[-90.03212,37.85844],[-90.03218,37.85853],[-90.03222,37.85857],[-90.03224,37.8586],[-90.03228,37.85864],[-90.03237,37.85871],[-90.03239,37.85873],[-90.03271,37.85898],[-90.03271,37.85899],[-90.03298,37.85923],[-90.03301,37.85926],[-90.03316,37.85941],[-90.03336,37.85963],[-90.03353,37.85985],[-90.03356,37.85989],[-90.03365,37.86],[-90.03387,37.86032],[-90.03396,37.86045],[-90.03409,37.86063],[-90.03441,37.86111],[-90.03441,37.86111],[-90.03516,37.86076],[-90.03586,37.86043],[-90.03688,37.85997],[-90.03736,37.85974],[-90.03789,37.85949],[-90.03807,37.85941],[-90.03829,37.85931],[-90.03845,37.85925],[-90.03859,37.85918],[-90.0388,37.85908],[-90.03896,37.859],[-90.0391,37.85892],[-90.03922,37.85885],[-90.03936,37.85876],[-90.03949,37.85867],[-90.03959,37.8586],[-90.0396,37.85859],[-90.0397,37.85852],[-90.0398,37.85845],[-90.03988,37.85839],[-90.03996,37.85832],[-90.04003,37.85827],[-90.0401,37.85821],[-90.04017,37.85815],[-90.04023,37.8581],[-90.04035,37.85799],[-90.04042,37.85793],[-90.04052,37.85783],[-90.04055,37.85779],[-90.04061,37.85772],[-90.04069,37.85763],[-90.04092,37.85736],[-90.04106,37.85719],[-90.0412,37.85703],[-90.0413,37.85691],[-90.04142,37.85678],[-90.04149,37.8567],[-90.04154,37.85665],[-90.04162,37.85658],[-90.04167,37.85654],[-90.0417,37.85651],[-90.04182,37.85642],[-90.04195,37.85633],[-90.04204,37.85628],[-90.04212,37.85623],[-90.04222,37.85617],[-90.04239,37.85608],[-90.04262,37.85595],[-90.04268,37.85592],[-90.04284,37.85584],[-90.043,37.85577],[-90.04314,37.85573],[-90.04319,37.85571],[-90.0433,37.85569],[-90.04339,37.85567],[-90.04345,37.85567],[-90.04352,37.85566],[-90.04364,37.85567],[-90.04377,37.85568],[-90.04387,37.85569],[-90.04396,37.8557],[-90.04412,37.85574],[-90.04431,37.85578],[-90.04451,37.85583],[-90.0447,37.85589],[-90.04505,37.85601],[-90.0452,37.85607],[-90.04546,37.85617],[-90.04562,37.85623],[-90.04604,37.85641],[-90.04619,37.85647],[-90.04645,37.85658],[-90.0467,37.85669],[-90.04685,37.85676],[-90.04698,37.85681],[-90.04709,37.85686],[-90.04726,37.85693],[-90.04734,37.85695],[-90.04745,37.85699],[-90.04754,37.85702],[-90.04758,37.85703],[-90.04766,37.85706],[-90.04773,37.85708],[-90.0478,37.85709],[-90.04791,37.85712],[-90.048,37.85713],[-90.04809,37.85715],[-90.04821,37.85716],[-90.0483,37.85717],[-90.04842,37.85718],[-90.04851,37.85718],[-90.04863,37.85719],[-90.0487,37.85719],[-90.04881,37.8572],[-90.04893,37.85721],[-90.04898,37.85721],[-90.0492,37.85722],[-90.04944,37.85724],[-90.04964,37.85725],[-90.04983,37.85726],[-90.05,37.85727],[-90.05006,37.85727],[-90.0502,37.85728],[-90.0504,37.85729],[-90.05058,37.85729],[-90.05077,37.85729],[-90.05089,37.85729],[-90.051,37.85729],[-90.05109,37.85729],[-90.0512,37.85728],[-90.05125,37.85728],[-90.05142,37.85727],[-90.05166,37.85726],[-90.05188,37.85725],[-90.05195,37.85724],[-90.0522,37.85722],[-90.05256,37.8572],[-90.05298,37.85718],[-90.05312,37.85717],[-90.05329,37.85715],[-90.05423,37.85709],[-90.05435,37.85708],[-90.05465,37.85706],[-90.05477,37.85705],[-90.05486,37.85705],[-90.05498,37.85704],[-90.05509,37.85702],[-90.05518,37.85701],[-90.05526,37.857],[-90.05535,37.85698],[-90.05552,37.85694],[-90.05568,37.85689],[-90.0558,37.85685],[-90.05597,37.85678],[-90.05603,37.85675],[-90.05609,37.85672],[-90.05615,37.85669],[-90.05626,37.85663],[-90.05632,37.85659],[-90.05638,37.85655],[-90.05644,37.8565],[-90.05649,37.85646],[-90.05652,37.85644],[-90.05658,37.85639],[-90.05663,37.85633],[-90.05669,37.85627],[-90.05673,37.85623],[-90.05677,37.85618],[-90.0568,37.85614],[-90.05686,37.85607],[-90.05689,37.85603],[-90.05691,37.856],[-90.05694,37.85594],[-90.057,37.85583],[-90.05705,37.85574],[-90.05711,37.85561],[-90.05717,37.85548],[-90.05722,37.85535],[-90.05725,37.8553],[-90.0573,37.85518],[-90.05758,37.85449],[-90.05766,37.85429],[-90.05775,37.8541],[-90.05781,37.85395],[-90.05784,37.85388],[-90.05793,37.85368],[-90.05796,37.85361],[-90.05798,37.85354],[-90.05805,37.85339],[-90.05811,37.85324],[-90.05813,37.8532],[-90.05819,37.85307],[-90.05824,37.85296],[-90.05825,37.85293],[-90.05827,37.85289],[-90.0583,37.85282],[-90.05839,37.85267],[-90.05843,37.85261],[-90.05846,37.85257],[-90.0585,37.85251],[-90.05854,37.85246],[-90.0586,37.8524],[-90.05867,37.85233],[-90.05876,37.85225],[-90.05884,37.85219],[-90.05889,37.85215],[-90.05896,37.8521],[-90.05899,37.85207],[-90.05905,37.85204],[-90.05914,37.85198],[-90.05926,37.85192],[-90.05945,37.85182],[-90.05959,37.85174],[-90.05976,37.85165],[-90.05994,37.85156],[-90.06012,37.85146],[-90.06018,37.85142],[-90.06026,37.85138],[-90.06033,37.85134],[-90.06053,37.85124],[-90.06056,37.85122],[-90.06128,37.85083],[-90.06181,37.85055],[-90.06241,37.85023],[-90.06278,37.85003],[-90.06351,37.84964],[-90.06418,37.8493],[-90.0643,37.84924],[-90.06483,37.84898],[-90.06567,37.84859],[-90.06586,37.8485],[-90.06632,37.84829],[-90.06722,37.84788],[-90.06724,37.84787],[-90.06744,37.84778],[-90.06819,37.84744],[-90.06883,37.84714],[-90.0704,37.84643],[-90.07087,37.84622],[-90.07095,37.84618],[-90.07107,37.84613],[-90.0713,37.84604],[-90.07149,37.84597],[-90.07177,37.84587],[-90.07186,37.84584],[-90.072,37.84579],[-90.07219,37.84573],[-90.07238,37.84568],[-90.07268,37.84561],[-90.07326,37.84547],[-90.07417,37.84525],[-90.07461,37.84515],[-90.07679,37.84465],[-90.07752,37.84448],[-90.07857,37.84424],[-90.0791,37.84412],[-90.08024,37.84384],[-90.08075,37.8437],[-90.08108,37.84358],[-90.08138,37.84348],[-90.08161,37.8434],[-90.08177,37.84335],[-90.08195,37.8433],[-90.08209,37.84327],[-90.0822,37.84325],[-90.08233,37.84323],[-90.08247,37.84322],[-90.08259,37.84322],[-90.08274,37.84321],[-90.08285,37.84322],[-90.08308,37.84323],[-90.08327,37.84325],[-90.0835,37.84329],[-90.0836,37.84331],[-90.08376,37.84335],[-90.0839,37.8434],[-90.08395,37.84343],[-90.084,37.84345],[-90.08406,37.84349],[-90.08413,37.84353],[-90.0842,37.84357],[-90.08426,37.84362],[-90.08432,37.84368],[-90.0844,37.84376],[-90.08451,37.84389],[-90.08462,37.84404],[-90.08479,37.84425],[-90.08484,37.84431],[-90.08494,37.8444],[-90.08499,37.84445],[-90.085,37.84446],[-90.08507,37.84451],[-90.08514,37.84456],[-90.08515,37.84457],[-90.08523,37.84463],[-90.08533,37.84469],[-90.08542,37.84474],[-90.08548,37.84478],[-90.08562,37.84484],[-90.0858,37.84492],[-90.08604,37.84501],[-90.08634,37.84511],[-90.08674,37.84526],[-90.08716,37.8454],[-90.0882,37.84577],[-90.08855,37.84591],[-90.08875,37.84597],[-90.08898,37.84605],[-90.08941,37.84621],[-90.08961,37.84629],[-90.08979,37.84637],[-90.09016,37.84653],[-90.09048,37.84668],[-90.09077,37.84683],[-90.091,37.84696],[-90.09118,37.84707],[-90.09135,37.8472],[-90.09148,37.8473],[-90.09155,37.84736],[-90.09164,37.84743],[-90.09169,37.84748],[-90.09195,37.84771],[-90.09254,37.84825],[-90.09283,37.84852],[-90.09287,37.84855],[-90.09313,37.84878],[-90.09338,37.84898],[-90.09392,37.84939],[-90.09409,37.8495],[-90.09423,37.84961],[-90.09441,37.84972],[-90.09462,37.84984],[-90.0948,37.84992],[-90.09496,37.84999],[-90.09515,37.85006],[-90.09525,37.85009],[-90.09529,37.85011],[-90.09545,37.85016],[-90.09554,37.85018],[-90.09568,37.85021],[-90.09582,37.85024],[-90.09595,37.85027],[-90.09609,37.85028],[-90.09626,37.85031],[-90.09666,37.85035],[-90.097,37.85037],[-90.09711,37.85039],[-90.09723,37.85041],[-90.09735,37.85043],[-90.09751,37.85047],[-90.09762,37.8505],[-90.09773,37.85054],[-90.09793,37.85063],[-90.09809,37.8507],[-90.09826,37.8508],[-90.09837,37.85088],[-90.09844,37.85094],[-90.09857,37.85105],[-90.0987,37.85119],[-90.0989,37.85144],[-90.09975,37.85254],[-90.0999,37.85273],[-90.10003,37.8529],[-90.10045,37.85342],[-90.10087,37.85394],[-90.10121,37.85435],[-90.10135,37.85452],[-90.10146,37.85467],[-90.10158,37.85482],[-90.10169,37.85496],[-90.10182,37.85512],[-90.10216,37.85554],[-90.10231,37.85572],[-90.10253,37.85598],[-90.10289,37.85643],[-90.10293,37.85647],[-90.10302,37.85656],[-90.1031,37.85664],[-90.10311,37.85665],[-90.10318,37.8567],[-90.10325,37.85675],[-90.1033,37.85679],[-90.10343,37.85686],[-90.10349,37.8569],[-90.10359,37.85694],[-90.10368,37.85698],[-90.10379,37.85703],[-90.10386,37.85705],[-90.10397,37.85708],[-90.10408,37.85711],[-90.10421,37.85713],[-90.10434,37.85715],[-90.10443,37.85716],[-90.10464,37.85717],[-90.10483,37.85719],[-90.10492,37.8572],[-90.10494,37.8572],[-90.10506,37.85721],[-90.10514,37.85723],[-90.10521,37.85723],[-90.10535,37.85726],[-90.10546,37.85727],[-90.10569,37.85732],[-90.10586,37.85736],[-90.10602,37.8574],[-90.10603,37.8574],[-90.10625,37.85745],[-90.10626,37.85745],[-90.10656,37.85753],[-90.10679,37.85759],[-90.10694,37.85763],[-90.10711,37.85767],[-90.1072,37.85769],[-90.10735,37.85774],[-90.10759,37.85781],[-90.10769,37.85785],[-90.10785,37.8579],[-90.10805,37.85798],[-90.10829,37.85808],[-90.10842,37.85814],[-90.10874,37.85831],[-90.10892,37.8584],[-90.10929,37.8586],[-90.10956,37.85876],[-90.10966,37.85882],[-90.1098,37.8589],[-90.10987,37.85895],[-90.10997,37.85901],[-90.11014,37.85915],[-90.11034,37.85931],[-90.11092,37.85982],[-90.11112,37.85997],[-90.11125,37.86007],[-90.1113,37.86011],[-90.11138,37.86016],[-90.11145,37.86021],[-90.11158,37.86029],[-90.11175,37.86038],[-90.1118,37.8604],[-90.11189,37.86045],[-90.11205,37.86052],[-90.11215,37.86056],[-90.1123,37.86062],[-90.11249,37.86068],[-90.1126,37.86071],[-90.11273,37.86074],[-90.11293,37.86079],[-90.11312,37.86082],[-90.11314,37.86082],[-90.11336,37.86086],[-90.11364,37.86089],[-90.11399,37.86093],[-90.11428,37.86096],[-90.11457,37.86099],[-90.11487,37.86103],[-90.11505,37.86105],[-90.11512,37.86106],[-90.11532,37.86108],[-90.11628,37.86117],[-90.11628,37.86117],[-90.11637,37.86057],[-90.11639,37.86045],[-90.11639,37.86038],[-90.1164,37.86028],[-90.11641,37.86021],[-90.1164,37.86019]]}},{"type":"Feature","properties":{"_gpxType":"trk","name":"111 Ferry St - 194 State Hwy H - 24403 US-61 - 24363 State Rd Z - 18042 State Hwy B - Al's Place Bike Hostel, 11 N Franklin St, Farmington, MO 63640","coordinateProperties":{},"id":35},"geometry":{"type":"LineString","coordinates":[[-90.1164,37.86019],[-90.1164,37.86006],[-90.11638,37.85994],[-90.11636,37.85983],[-90.11633,37.85974],[-90.11632,37.8597],[-90.11624,37.85951],[-90.11614,37.85931],[-90.11603,37.85911],[-90.11598,37.85901],[-90.11597,37.85898],[-90.11591,37.85887],[-90.11586,37.85874],[-90.11583,37.85867],[-90.11583,37.85866],[-90.1158,37.85857],[-90.11578,37.85845],[-90.11577,37.85834],[-90.11577,37.85831],[-90.11576,37.85823],[-90.11577,37.85812],[-90.11578,37.85798],[-90.11581,37.85782],[-90.11584,37.85766],[-90.11591,37.85726],[-90.11595,37.85709],[-90.11597,37.85696],[-90.11611,37.85625],[-90.11624,37.85552],[-90.11631,37.85517],[-90.11634,37.85505],[-90.11637,37.85488],[-90.1164,37.85478],[-90.11645,37.85466],[-90.11653,37.85451],[-90.11669,37.85426],[-90.11676,37.85417],[-90.11682,37.85408],[-90.11691,37.85399],[-90.11701,37.8539],[-90.11704,37.85387],[-90.1171,37.85382],[-90.11718,37.85376],[-90.1172,37.85375],[-90.11726,37.85371],[-90.11734,37.85366],[-90.11741,37.85361],[-90.1176,37.85352],[-90.11777,37.85345],[-90.11786,37.85341],[-90.11802,37.85336],[-90.11817,37.85332],[-90.11832,37.85329],[-90.11841,37.85327],[-90.11844,37.85326],[-90.11857,37.85324],[-90.11873,37.85323],[-90.11886,37.85321],[-90.11897,37.8532],[-90.11909,37.85319],[-90.11924,37.85317],[-90.11951,37.85314],[-90.11964,37.85312],[-90.11976,37.8531],[-90.11986,37.85307],[-90.11997,37.85303],[-90.12004,37.85301],[-90.12021,37.85294],[-90.12032,37.85288],[-90.12049,37.85277],[-90.12053,37.85273],[-90.12059,37.85269],[-90.12067,37.85262],[-90.12078,37.8525],[-90.12088,37.85238],[-90.12096,37.85225],[-90.12102,37.85216],[-90.1211,37.85196],[-90.12115,37.8518],[-90.12117,37.85174],[-90.12119,37.85167],[-90.12122,37.85156],[-90.12131,37.85121],[-90.12136,37.85103],[-90.12145,37.85068],[-90.12147,37.85061],[-90.12155,37.85033],[-90.12158,37.85022],[-90.12161,37.85015],[-90.12166,37.84998],[-90.12169,37.8499],[-90.12172,37.84981],[-90.12176,37.84971],[-90.12179,37.84963],[-90.12187,37.84946],[-90.12195,37.8493],[-90.12198,37.84924],[-90.1221,37.84902],[-90.12213,37.84897],[-90.12224,37.84881],[-90.12234,37.84865],[-90.12235,37.84864],[-90.12245,37.84849],[-90.12255,37.84833],[-90.12265,37.84817],[-90.12273,37.84805],[-90.12284,37.84787],[-90.12291,37.84772],[-90.12298,37.84758],[-90.123,37.84751],[-90.12302,37.84745],[-90.12306,37.84733],[-90.12308,37.84726],[-90.12313,37.84701],[-90.12338,37.84585],[-90.12361,37.84475],[-90.12363,37.84464],[-90.12385,37.84361],[-90.12388,37.84351],[-90.12396,37.84315],[-90.12401,37.84298],[-90.12403,37.8429],[-90.12412,37.84265],[-90.1242,37.84246],[-90.12428,37.84229],[-90.12435,37.84211],[-90.12442,37.84195],[-90.1245,37.84178],[-90.12457,37.84161],[-90.12465,37.84144],[-90.12466,37.8414],[-90.12472,37.84127],[-90.12488,37.84093],[-90.12492,37.84083],[-90.12518,37.84025],[-90.12526,37.84008],[-90.1253,37.83998],[-90.12533,37.83991],[-90.12539,37.83978],[-90.12541,37.83975],[-90.12547,37.83964],[-90.12553,37.83952],[-90.12561,37.83941],[-90.12565,37.83936],[-90.12578,37.83923],[-90.12585,37.83916],[-90.12595,37.83909],[-90.12597,37.83908],[-90.1261,37.83899],[-90.12615,37.83897],[-90.12623,37.83892],[-90.1264,37.83885],[-90.12652,37.8388],[-90.12655,37.8388],[-90.12665,37.83876],[-90.12697,37.83866],[-90.12746,37.83851],[-90.12789,37.83838],[-90.12818,37.83829],[-90.12824,37.83827],[-90.12845,37.8382],[-90.12857,37.83816],[-90.12917,37.83798],[-90.1293,37.83794],[-90.12949,37.83789],[-90.12952,37.83788],[-90.12972,37.83784],[-90.12974,37.83783],[-90.12996,37.83779],[-90.12998,37.83779],[-90.13018,37.83776],[-90.1302,37.83776],[-90.13058,37.83772],[-90.13086,37.8377],[-90.13096,37.8377],[-90.13177,37.83765],[-90.13207,37.83762],[-90.13222,37.8376],[-90.13224,37.83759],[-90.13244,37.83755],[-90.13246,37.83755],[-90.13258,37.83751],[-90.13267,37.83748],[-90.13271,37.83747],[-90.13286,37.8374],[-90.13287,37.8374],[-90.13302,37.83732],[-90.13305,37.83729],[-90.13314,37.83724],[-90.13322,37.83718],[-90.13322,37.83717],[-90.13333,37.83707],[-90.13349,37.83689],[-90.13362,37.83673],[-90.13381,37.83648],[-90.13399,37.83625],[-90.13415,37.83603],[-90.13424,37.83592],[-90.13439,37.83572],[-90.1344,37.8357],[-90.13458,37.83546],[-90.13462,37.83541],[-90.13474,37.83526],[-90.13482,37.83515],[-90.13497,37.83498],[-90.13512,37.83482],[-90.13533,37.83465],[-90.13545,37.83456],[-90.13551,37.83452],[-90.13562,37.83444],[-90.13573,37.83437],[-90.1358,37.83433],[-90.13591,37.83427],[-90.13624,37.83412],[-90.13639,37.83406],[-90.13658,37.83397],[-90.13691,37.83382],[-90.13738,37.83362],[-90.13773,37.83346],[-90.13817,37.83326],[-90.13838,37.83317],[-90.1385,37.8331],[-90.13856,37.83307],[-90.13866,37.83301],[-90.1388,37.83291],[-90.13896,37.83277],[-90.13906,37.83266],[-90.13913,37.83257],[-90.13924,37.83241],[-90.13932,37.83226],[-90.13939,37.8321],[-90.13943,37.83196],[-90.13944,37.8319],[-90.13946,37.83184],[-90.13947,37.83172],[-90.13947,37.83169],[-90.13947,37.83159],[-90.13946,37.83149],[-90.13945,37.83139],[-90.13942,37.83131],[-90.1394,37.83123],[-90.13936,37.83114],[-90.13931,37.83102],[-90.1393,37.83099],[-90.13921,37.83086],[-90.13911,37.83071],[-90.13901,37.83061],[-90.13894,37.83054],[-90.13888,37.83048],[-90.13875,37.83038],[-90.13864,37.8303],[-90.13813,37.82994],[-90.13766,37.82962],[-90.13697,37.82915],[-90.13689,37.8291],[-90.1368,37.82903],[-90.13667,37.82895],[-90.13663,37.82891],[-90.13646,37.82879],[-90.13642,37.82876],[-90.1363,37.82866],[-90.13622,37.8286],[-90.13615,37.82853],[-90.13605,37.82845],[-90.13587,37.82825],[-90.13577,37.82809],[-90.1357,37.82795],[-90.13566,37.82785],[-90.13564,37.82777],[-90.13562,37.82766],[-90.13562,37.82756],[-90.13562,37.82753],[-90.13563,37.82743],[-90.13564,37.82738],[-90.13565,37.82734],[-90.13567,37.82724],[-90.13572,37.82713],[-90.13577,37.82702],[-90.13582,37.82695],[-90.13593,37.82681],[-90.13606,37.82667],[-90.13609,37.82664],[-90.13628,37.82646],[-90.1365,37.82625],[-90.13672,37.82605],[-90.13678,37.826],[-90.13701,37.82578],[-90.13776,37.8251],[-90.13781,37.82505],[-90.13791,37.82496],[-90.13805,37.82483],[-90.1385,37.82442],[-90.13865,37.82428],[-90.1388,37.82414],[-90.13895,37.82401],[-90.1391,37.82388],[-90.13919,37.8238],[-90.13943,37.82359],[-90.13965,37.82341],[-90.13981,37.82329],[-90.13989,37.82324],[-90.1399,37.82324],[-90.13999,37.82318],[-90.14008,37.82313],[-90.1401,37.82311],[-90.14023,37.82304],[-90.14032,37.82299],[-90.14042,37.82294],[-90.1406,37.82286],[-90.14081,37.82277],[-90.14106,37.82268],[-90.14127,37.8226],[-90.14135,37.82257],[-90.14232,37.82222],[-90.14305,37.82196],[-90.14367,37.82173],[-90.14418,37.82155],[-90.14442,37.82147],[-90.14473,37.82133],[-90.14489,37.82126],[-90.14504,37.82117],[-90.1451,37.82112],[-90.14517,37.82108],[-90.14518,37.82107],[-90.14529,37.82098],[-90.14533,37.82094],[-90.14543,37.82085],[-90.14552,37.82076],[-90.14565,37.82062],[-90.14593,37.8203],[-90.14642,37.8197],[-90.14672,37.81932],[-90.14691,37.81909],[-90.14704,37.81894],[-90.14716,37.81879],[-90.14732,37.8186],[-90.14745,37.81847],[-90.14749,37.81843],[-90.14761,37.81833],[-90.1477,37.81825],[-90.14781,37.81818],[-90.14788,37.81812],[-90.14798,37.81805],[-90.14805,37.818],[-90.14814,37.81795],[-90.14825,37.81789],[-90.14836,37.81783],[-90.14847,37.81777],[-90.14853,37.81774],[-90.14859,37.81772],[-90.14873,37.81766],[-90.14879,37.81763],[-90.14901,37.81755],[-90.14914,37.81749],[-90.14946,37.81738],[-90.14986,37.81723],[-90.15028,37.81708],[-90.15068,37.81694],[-90.15176,37.81655],[-90.15194,37.81649],[-90.15315,37.81605],[-90.15337,37.81598],[-90.15364,37.81586],[-90.15367,37.81585],[-90.15383,37.81576],[-90.15384,37.81576],[-90.15388,37.81573],[-90.15401,37.81565],[-90.15407,37.81562],[-90.15415,37.81555],[-90.15423,37.81548],[-90.15434,37.81536],[-90.15443,37.81526],[-90.15455,37.81507],[-90.15464,37.81488],[-90.15467,37.81478],[-90.15469,37.81469],[-90.1547,37.81455],[-90.15471,37.81454],[-90.15471,37.81449],[-90.15471,37.81436],[-90.15471,37.81429],[-90.15468,37.81418],[-90.15466,37.81407],[-90.15457,37.8138],[-90.15453,37.8137],[-90.15447,37.81356],[-90.15441,37.8134],[-90.1544,37.81339],[-90.15435,37.81327],[-90.15433,37.81322],[-90.15426,37.81305],[-90.15426,37.81304],[-90.15421,37.81284],[-90.15419,37.81269],[-90.15417,37.8125],[-90.15418,37.81232],[-90.15418,37.81227],[-90.15419,37.81214],[-90.15425,37.81192],[-90.15429,37.8118],[-90.15432,37.81173],[-90.15442,37.81154],[-90.15452,37.81141],[-90.15455,37.81137],[-90.15465,37.81126],[-90.15467,37.81124],[-90.15485,37.81111],[-90.15499,37.81102],[-90.15503,37.811],[-90.15518,37.81093],[-90.15526,37.8109],[-90.15539,37.81086],[-90.15543,37.81085],[-90.15561,37.81081],[-90.15565,37.8108],[-90.15584,37.81078],[-90.15585,37.81078],[-90.15602,37.81078],[-90.15634,37.8108],[-90.15652,37.81082],[-90.15663,37.81083],[-90.15674,37.81084],[-90.15697,37.81085],[-90.15701,37.81086],[-90.1572,37.81087],[-90.15741,37.81088],[-90.15742,37.81087],[-90.15762,37.81086],[-90.15765,37.81086],[-90.15787,37.81082],[-90.15814,37.81073],[-90.15828,37.81065],[-90.15832,37.81063],[-90.15844,37.81054],[-90.15852,37.81048],[-90.1586,37.8104],[-90.15867,37.81034],[-90.15874,37.81026],[-90.15877,37.81023],[-90.159,37.80996],[-90.15922,37.8097],[-90.1595,37.80937],[-90.15962,37.80921],[-90.15966,37.80917],[-90.15974,37.80906],[-90.15979,37.80899],[-90.15984,37.8089],[-90.15987,37.80884],[-90.15994,37.80872],[-90.16001,37.80858],[-90.16009,37.8084],[-90.16016,37.80826],[-90.16021,37.80816],[-90.16026,37.80807],[-90.16026,37.80806],[-90.16031,37.80797],[-90.16036,37.8079],[-90.16039,37.80785],[-90.16044,37.80778],[-90.16047,37.80774],[-90.16048,37.80773],[-90.16054,37.80765],[-90.16059,37.80761],[-90.1606,37.8076],[-90.16065,37.80754],[-90.16074,37.80746],[-90.16076,37.80744],[-90.1609,37.80733],[-90.16095,37.80728],[-90.16106,37.80721],[-90.1613,37.80704],[-90.16193,37.80661],[-90.16199,37.80657],[-90.16216,37.80646],[-90.16216,37.80645],[-90.16219,37.80644],[-90.16238,37.8063],[-90.16255,37.80619],[-90.16268,37.80611],[-90.16276,37.80606],[-90.16291,37.80597],[-90.16303,37.80591],[-90.16317,37.80585],[-90.16336,37.80577],[-90.16345,37.80574],[-90.16351,37.80572],[-90.16379,37.80563],[-90.16417,37.80553],[-90.16441,37.80547],[-90.16492,37.80535],[-90.16513,37.80529],[-90.16525,37.80525],[-90.16546,37.80517],[-90.1655,37.80516],[-90.16566,37.80509],[-90.16567,37.80508],[-90.16582,37.805],[-90.16585,37.80498],[-90.16603,37.80487],[-90.16614,37.8048],[-90.1662,37.80475],[-90.16628,37.8047],[-90.16637,37.80464],[-90.1664,37.80462],[-90.16662,37.80446],[-90.16681,37.80432],[-90.16689,37.80423],[-90.16702,37.80415],[-90.16716,37.80405],[-90.16736,37.8039],[-90.16766,37.8037],[-90.16791,37.80352],[-90.16804,37.80344],[-90.16813,37.80338],[-90.16827,37.80329],[-90.16843,37.80319],[-90.16857,37.80311],[-90.16876,37.80301],[-90.16897,37.80292],[-90.169,37.8029],[-90.16916,37.80282],[-90.1693,37.80275],[-90.16939,37.8027],[-90.16959,37.80258],[-90.16966,37.80253],[-90.16971,37.8025],[-90.16985,37.80238],[-90.16997,37.80234],[-90.17018,37.80214],[-90.1704,37.80193],[-90.1705,37.80183],[-90.17064,37.80168],[-90.17074,37.80158],[-90.17101,37.80131],[-90.17118,37.80111],[-90.17143,37.80086],[-90.17199,37.80029],[-90.17229,37.79998],[-90.17241,37.79986],[-90.17247,37.7998],[-90.17265,37.79961],[-90.17269,37.79957],[-90.17284,37.79941],[-90.17319,37.79906],[-90.17324,37.79901],[-90.17338,37.79886],[-90.17352,37.79872],[-90.17354,37.7987],[-90.17366,37.79858],[-90.1739,37.79833],[-90.17424,37.798],[-90.17452,37.79774],[-90.17459,37.79767],[-90.17467,37.7976],[-90.17481,37.79747],[-90.17496,37.79733],[-90.17507,37.79723],[-90.17511,37.79719],[-90.17555,37.79681],[-90.17581,37.79658],[-90.17587,37.79652],[-90.17602,37.79638],[-90.17615,37.79626],[-90.17616,37.79625],[-90.1764,37.79604],[-90.17677,37.7957],[-90.17699,37.79551],[-90.17713,37.79539],[-90.17735,37.79518],[-90.17759,37.79497],[-90.1777,37.79488],[-90.17799,37.79462],[-90.17817,37.79446],[-90.1784,37.79425],[-90.17885,37.79385],[-90.17907,37.79365],[-90.1793,37.79344],[-90.17952,37.79324],[-90.17957,37.7932],[-90.17983,37.79294],[-90.17996,37.79283],[-90.18045,37.79236],[-90.18056,37.79227],[-90.18066,37.79217],[-90.18077,37.79207],[-90.18093,37.79193],[-90.18111,37.79177],[-90.18132,37.79159],[-90.18153,37.79143],[-90.1817,37.7913],[-90.1818,37.79123],[-90.18191,37.79115],[-90.18196,37.79112],[-90.18213,37.791],[-90.18234,37.79087],[-90.18255,37.79073],[-90.18261,37.79069],[-90.18273,37.7906],[-90.18296,37.79046],[-90.18297,37.79044],[-90.18325,37.79027],[-90.18338,37.79019],[-90.18344,37.79015],[-90.18361,37.79005],[-90.18384,37.78992],[-90.18395,37.78987],[-90.18403,37.78982],[-90.18433,37.78967],[-90.18465,37.78951],[-90.18467,37.7895],[-90.18485,37.78941],[-90.18504,37.78932],[-90.18523,37.78922],[-90.1854,37.78914],[-90.18581,37.78893],[-90.186,37.78884],[-90.18618,37.78875],[-90.18619,37.78874],[-90.18639,37.78865],[-90.18658,37.78855],[-90.18685,37.78843],[-90.18698,37.78837],[-90.18701,37.78836],[-90.18732,37.78823],[-90.18738,37.7882],[-90.18758,37.78812],[-90.18779,37.78804],[-90.18819,37.78788],[-90.1886,37.78772],[-90.1887,37.78768],[-90.18901,37.78757],[-90.18921,37.78749],[-90.18942,37.78741],[-90.18962,37.78733],[-90.18983,37.78725],[-90.19003,37.78717],[-90.19005,37.78717],[-90.19024,37.7871],[-90.19044,37.78702],[-90.19067,37.78693],[-90.19106,37.78679],[-90.19127,37.78671],[-90.19147,37.78663],[-90.19164,37.78657],[-90.19229,37.78632],[-90.19237,37.78629],[-90.1925,37.78624],[-90.19292,37.78608],[-90.19312,37.786],[-90.19329,37.78594],[-90.19351,37.78584],[-90.19351,37.78584],[-90.1936,37.78579],[-90.19366,37.78576],[-90.19374,37.78571],[-90.19379,37.78567],[-90.19383,37.78564],[-90.1939,37.78558],[-90.19395,37.78554],[-90.19396,37.78553],[-90.19402,37.78546],[-90.19407,37.78541],[-90.19412,37.78533],[-90.19418,37.78523],[-90.19418,37.78522],[-90.19423,37.78513],[-90.19426,37.78506],[-90.19428,37.78501],[-90.19432,37.78489],[-90.19434,37.78479],[-90.19435,37.7847],[-90.19438,37.78451],[-90.19438,37.78445],[-90.1944,37.78433],[-90.19441,37.78427],[-90.19443,37.78415],[-90.19446,37.78405],[-90.1945,37.78393],[-90.19454,37.78385],[-90.1946,37.78375],[-90.1946,37.78375],[-90.19466,37.78368],[-90.19469,37.78365],[-90.19474,37.7836],[-90.19478,37.78356],[-90.19483,37.78352],[-90.19484,37.78351],[-90.19491,37.78346],[-90.19497,37.78342],[-90.195,37.7834],[-90.19503,37.78338],[-90.1951,37.78334],[-90.19516,37.78331],[-90.19524,37.78328],[-90.19531,37.78325],[-90.1954,37.78322],[-90.19546,37.78319],[-90.19556,37.78316],[-90.19568,37.78312],[-90.1958,37.78308],[-90.19581,37.78308],[-90.19599,37.78302],[-90.19602,37.78301],[-90.19612,37.78298],[-90.19623,37.78294],[-90.19627,37.78293],[-90.19641,37.78288],[-90.19665,37.78281],[-90.19742,37.78256],[-90.19779,37.78243],[-90.19799,37.78236],[-90.19822,37.78228],[-90.19846,37.78218],[-90.19866,37.7821],[-90.19876,37.78207],[-90.19886,37.78202],[-90.19904,37.78195],[-90.19947,37.78178],[-90.19968,37.7817],[-90.19976,37.78166],[-90.19988,37.78162],[-90.20008,37.78153],[-90.20047,37.78137],[-90.20112,37.78111],[-90.20145,37.78098],[-90.20199,37.78076],[-90.20267,37.78049],[-90.2029,37.78039],[-90.20361,37.7801],[-90.20368,37.78008],[-90.20404,37.77993],[-90.20426,37.77984],[-90.20446,37.77977],[-90.20449,37.77976],[-90.20458,37.77972],[-90.20468,37.77969],[-90.2047,37.77968],[-90.20478,37.77966],[-90.2049,37.77962],[-90.20499,37.7796],[-90.20509,37.77957],[-90.2052,37.77955],[-90.2053,37.77953],[-90.20541,37.77951],[-90.20554,37.77949],[-90.20563,37.77948],[-90.20573,37.77946],[-90.2058,37.77946],[-90.20583,37.77945],[-90.20598,37.77944],[-90.20602,37.77944],[-90.20609,37.77944],[-90.20621,37.77944],[-90.20635,37.77944],[-90.20646,37.77944],[-90.20665,37.77945],[-90.20716,37.77947],[-90.20787,37.77951],[-90.20804,37.77952],[-90.20827,37.77953],[-90.20843,37.77953],[-90.20858,37.77952],[-90.20872,37.77952],[-90.20875,37.77952],[-90.20885,37.77951],[-90.20898,37.77949],[-90.2091,37.77948],[-90.20927,37.77945],[-90.20939,37.77943],[-90.20959,37.77938],[-90.20977,37.77933],[-90.20992,37.77928],[-90.20997,37.77926],[-90.21007,37.77923],[-90.21017,37.77919],[-90.2102,37.77917],[-90.21037,37.7791],[-90.21037,37.77909],[-90.21051,37.77903],[-90.21076,37.77891],[-90.2112,37.7787],[-90.21158,37.77851],[-90.21182,37.77839],[-90.21197,37.77831],[-90.21273,37.77791],[-90.2133,37.77761],[-90.214,37.77724],[-90.21406,37.77721],[-90.21425,37.77711],[-90.21489,37.77678],[-90.21516,37.77665],[-90.21554,37.77645],[-90.21598,37.77621],[-90.21624,37.77608],[-90.21636,37.77601],[-90.21749,37.77541],[-90.21763,37.77534],[-90.21768,37.77531],[-90.21787,37.77521],[-90.21806,37.77511],[-90.21812,37.77508],[-90.21837,37.77494],[-90.2186,37.77481],[-90.21861,37.7748],[-90.2188,37.7747],[-90.21905,37.77457],[-90.21947,37.77435],[-90.21976,37.77421],[-90.21999,37.7741],[-90.22007,37.77406],[-90.22021,37.774],[-90.22035,37.77394],[-90.22048,37.7739],[-90.22061,37.77385],[-90.22073,37.77381],[-90.22077,37.7738],[-90.22088,37.77377],[-90.2211,37.77371],[-90.22124,37.77368],[-90.22143,37.77363],[-90.22163,37.77359],[-90.22186,37.77355],[-90.22206,37.77352],[-90.22208,37.77352],[-90.22221,37.7735],[-90.2224,37.77348],[-90.22251,37.77347],[-90.22277,37.77346],[-90.22307,37.77344],[-90.22348,37.77343],[-90.22366,37.77343],[-90.22372,37.77343],[-90.22388,37.77342],[-90.22395,37.77342],[-90.22413,37.77341],[-90.22417,37.77341],[-90.22431,37.77341],[-90.2244,37.7734],[-90.22442,37.7734],[-90.22452,37.77339],[-90.22463,37.77338],[-90.22466,37.77337],[-90.22482,37.77335],[-90.22499,37.77332],[-90.22511,37.77329],[-90.22529,37.77324],[-90.2255,37.77318],[-90.22571,37.7731],[-90.2259,37.77302],[-90.2259,37.77301],[-90.22614,37.7729],[-90.22631,37.7728],[-90.22643,37.77273],[-90.22655,37.77265],[-90.22668,37.77256],[-90.22683,37.77244],[-90.22696,37.77233],[-90.22712,37.77218],[-90.22721,37.77207],[-90.22731,37.77196],[-90.22744,37.77179],[-90.22754,37.77165],[-90.22762,37.77151],[-90.22781,37.77115],[-90.22798,37.77082],[-90.22802,37.77075],[-90.22824,37.77032],[-90.22829,37.77022],[-90.22857,37.76967],[-90.22882,37.76918],[-90.22892,37.769],[-90.22902,37.76884],[-90.22905,37.76879],[-90.22912,37.76868],[-90.22914,37.76864],[-90.22926,37.76846],[-90.22943,37.76823],[-90.22959,37.76804],[-90.22971,37.76791],[-90.22972,37.76789],[-90.22996,37.76765],[-90.23014,37.76749],[-90.23018,37.76745],[-90.23029,37.76736],[-90.23037,37.76729],[-90.23053,37.76717],[-90.23073,37.76702],[-90.23091,37.76691],[-90.23115,37.76676],[-90.23133,37.76666],[-90.23134,37.76665],[-90.23152,37.76657],[-90.23168,37.76649],[-90.23171,37.76647],[-90.23195,37.76637],[-90.23225,37.76624],[-90.23242,37.76619],[-90.23267,37.7661],[-90.23273,37.76608],[-90.23298,37.76601],[-90.23316,37.76597],[-90.23323,37.76595],[-90.23338,37.76592],[-90.2336,37.76587],[-90.23381,37.76584],[-90.23383,37.76584],[-90.23405,37.76581],[-90.23443,37.76578],[-90.23472,37.76576],[-90.23496,37.76576],[-90.23517,37.76575],[-90.23632,37.76575],[-90.23642,37.76575],[-90.23678,37.76576],[-90.23746,37.76576],[-90.23769,37.76576],[-90.23784,37.76576],[-90.23837,37.76576],[-90.2386,37.76576],[-90.23882,37.76576],[-90.23905,37.76576],[-90.23908,37.76576],[-90.23928,37.76576],[-90.23974,37.76576],[-90.23996,37.76576],[-90.24019,37.76576],[-90.24101,37.76576],[-90.24156,37.76576],[-90.24184,37.76576],[-90.24197,37.76576],[-90.24222,37.76577],[-90.24224,37.76577],[-90.24239,37.76578],[-90.24253,37.76579],[-90.24269,37.76581],[-90.24282,37.76583],[-90.24296,37.76586],[-90.24318,37.76591],[-90.24334,37.76595],[-90.24356,37.76602],[-90.24364,37.76605],[-90.24377,37.7661],[-90.24387,37.76613],[-90.24397,37.76618],[-90.24409,37.76623],[-90.24437,37.76635],[-90.24457,37.76644],[-90.24461,37.76645],[-90.24477,37.76652],[-90.24517,37.76669],[-90.2452,37.76671],[-90.24557,37.76687],[-90.24561,37.76689],[-90.24585,37.76698],[-90.24604,37.76706],[-90.24622,37.76713],[-90.24638,37.76717],[-90.24652,37.76721],[-90.24667,37.76725],[-90.24679,37.76727],[-90.24691,37.7673],[-90.2471,37.76732],[-90.24731,37.76735],[-90.24746,37.76736],[-90.24755,37.76736],[-90.24761,37.76736],[-90.24777,37.76736],[-90.24781,37.76736],[-90.248,37.76736],[-90.24805,37.76736],[-90.24823,37.76735],[-90.24837,37.76734],[-90.24868,37.76731],[-90.24891,37.7673],[-90.24908,37.76728],[-90.24936,37.76726],[-90.25003,37.76721],[-90.25041,37.76718],[-90.25132,37.76712],[-90.25161,37.76709],[-90.25189,37.76706],[-90.252,37.76704],[-90.25219,37.76702],[-90.25243,37.76696],[-90.25266,37.7669],[-90.25279,37.76687],[-90.253,37.76679],[-90.25317,37.76672],[-90.25328,37.76667],[-90.25337,37.76663],[-90.25361,37.76651],[-90.25368,37.76647],[-90.25392,37.76632],[-90.25406,37.76622],[-90.25409,37.7662],[-90.25422,37.76609],[-90.2543,37.76602],[-90.2545,37.76583],[-90.25451,37.76581],[-90.25468,37.76562],[-90.2548,37.76545],[-90.25488,37.76534],[-90.25497,37.76519],[-90.25506,37.765],[-90.25511,37.76488],[-90.25513,37.76482],[-90.25518,37.76465],[-90.25525,37.76445],[-90.25538,37.76406],[-90.25542,37.76396],[-90.25547,37.76378],[-90.25563,37.76331],[-90.2557,37.76309],[-90.2557,37.76308],[-90.25576,37.76291],[-90.25597,37.76228],[-90.256,37.76218],[-90.25613,37.76179],[-90.25621,37.76154],[-90.25629,37.76129],[-90.25636,37.76107],[-90.25645,37.76083],[-90.25652,37.76069],[-90.25661,37.76054],[-90.25668,37.76042],[-90.25681,37.76025],[-90.25693,37.76013],[-90.25702,37.76003],[-90.25715,37.75989],[-90.25729,37.75977],[-90.25751,37.75958],[-90.2577,37.75945],[-90.25784,37.75937],[-90.25793,37.75931],[-90.25796,37.7593],[-90.2581,37.75923],[-90.25812,37.75922],[-90.2583,37.75913],[-90.25844,37.75908],[-90.25861,37.75901],[-90.25877,37.75896],[-90.25894,37.75891],[-90.25912,37.75886],[-90.25927,37.75883],[-90.25948,37.75879],[-90.25965,37.75876],[-90.25981,37.75874],[-90.26002,37.75872],[-90.26023,37.75871],[-90.26051,37.75871],[-90.26147,37.75875],[-90.26227,37.75879],[-90.26288,37.75881],[-90.26353,37.75883],[-90.2636,37.75884],[-90.26435,37.75887],[-90.26519,37.7589],[-90.26526,37.7589],[-90.26631,37.75895],[-90.26655,37.75896],[-90.26678,37.75897],[-90.26728,37.759],[-90.26769,37.75901],[-90.26792,37.75902],[-90.26793,37.75902],[-90.26863,37.75905],[-90.26928,37.75908],[-90.26947,37.7591],[-90.26962,37.75911],[-90.26977,37.75913],[-90.26992,37.75915],[-90.27011,37.75919],[-90.27017,37.7592],[-90.27028,37.75923],[-90.27039,37.75926],[-90.2704,37.75926],[-90.27048,37.75929],[-90.27057,37.75932],[-90.27072,37.75937],[-90.27087,37.75943],[-90.27099,37.75948],[-90.2711,37.75954],[-90.2712,37.75959],[-90.2713,37.75964],[-90.27139,37.75969],[-90.27143,37.75971],[-90.27155,37.75979],[-90.27157,37.7598],[-90.27174,37.75991],[-90.2719,37.76002],[-90.27191,37.76003],[-90.27212,37.76017],[-90.27233,37.76032],[-90.27248,37.76041],[-90.2726,37.76049],[-90.27261,37.76049],[-90.27272,37.76056],[-90.2728,37.7606],[-90.27285,37.76063],[-90.27295,37.76067],[-90.27303,37.76071],[-90.27317,37.76077],[-90.2733,37.76082],[-90.27341,37.76086],[-90.27354,37.7609],[-90.27365,37.76093],[-90.27377,37.76096],[-90.27386,37.76099],[-90.27403,37.76102],[-90.27416,37.76104],[-90.27429,37.76106],[-90.27437,37.76107],[-90.27447,37.76108],[-90.27456,37.76109],[-90.27467,37.7611],[-90.27486,37.7611],[-90.27503,37.7611],[-90.27523,37.7611],[-90.27542,37.76109],[-90.27557,37.76108],[-90.27577,37.76106],[-90.27602,37.76104],[-90.27629,37.76101],[-90.27658,37.76098],[-90.27681,37.76096],[-90.27683,37.76095],[-90.2775,37.76089],[-90.27771,37.76087],[-90.27794,37.76084],[-90.27816,37.76082],[-90.27839,37.7608],[-90.27847,37.76079],[-90.27861,37.76077],[-90.27884,37.76075],[-90.27937,37.7607],[-90.27997,37.76064],[-90.2803,37.76061],[-90.28087,37.76055],[-90.2809,37.76054],[-90.2811,37.76053],[-90.28148,37.76049],[-90.28215,37.76042],[-90.28223,37.76042],[-90.28245,37.7604],[-90.2829,37.76035],[-90.28303,37.76034],[-90.28313,37.76033],[-90.28358,37.76029],[-90.28373,37.76027],[-90.28396,37.76025],[-90.28418,37.76023],[-90.28419,37.76022],[-90.28441,37.7602],[-90.28463,37.76018],[-90.28485,37.76016],[-90.28486,37.76016],[-90.28509,37.76013],[-90.28531,37.76011],[-90.28576,37.76005],[-90.2861,37.75999],[-90.2862,37.75997],[-90.28641,37.75994],[-90.28642,37.75993],[-90.28665,37.75989],[-90.28709,37.75981],[-90.28731,37.75977],[-90.28753,37.75974],[-90.28798,37.75966],[-90.2882,37.75962],[-90.28849,37.75956],[-90.28909,37.75945],[-90.28931,37.75941],[-90.28939,37.7594],[-90.28953,37.75937],[-90.28975,37.75933],[-90.28993,37.7593],[-90.28997,37.75929],[-90.2902,37.75925],[-90.29033,37.75923],[-90.29042,37.75921],[-90.29052,37.7592],[-90.29064,37.75918],[-90.29076,37.75916],[-90.29091,37.75914],[-90.29106,37.75913],[-90.29109,37.75913],[-90.29124,37.75912],[-90.29132,37.75911],[-90.29139,37.75911],[-90.29154,37.7591],[-90.29155,37.7591],[-90.29169,37.7591],[-90.29177,37.7591],[-90.29187,37.7591],[-90.292,37.75911],[-90.29206,37.75911],[-90.29221,37.75913],[-90.29236,37.75914],[-90.29245,37.75915],[-90.29252,37.75916],[-90.29267,37.75919],[-90.29268,37.75919],[-90.2929,37.75923],[-90.2931,37.75928],[-90.29311,37.75928],[-90.29328,37.75932],[-90.29333,37.75934],[-90.29354,37.7594],[-90.29357,37.75941],[-90.29379,37.75948],[-90.29413,37.75959],[-90.29417,37.7596],[-90.29439,37.75967],[-90.29442,37.75968],[-90.2946,37.75974],[-90.29481,37.7598],[-90.29495,37.75985],[-90.29502,37.75987],[-90.29523,37.75993],[-90.29555,37.76003],[-90.29601,37.76017],[-90.29608,37.76019],[-90.2963,37.76025],[-90.2964,37.76029],[-90.29651,37.76032],[-90.29672,37.76039],[-90.29684,37.76042],[-90.29693,37.76045],[-90.29714,37.76052],[-90.29723,37.76055],[-90.29748,37.76064],[-90.29756,37.76067],[-90.29776,37.76074],[-90.29777,37.76074],[-90.29797,37.76082],[-90.29798,37.76082],[-90.29821,37.76092],[-90.29843,37.76101],[-90.29898,37.76127],[-90.29964,37.76157],[-90.29977,37.76163],[-90.30016,37.76181],[-90.30108,37.76223],[-90.30147,37.76241],[-90.30176,37.76254],[-90.30201,37.76265],[-90.30344,37.76331],[-90.30403,37.76359],[-90.30422,37.76368],[-90.30454,37.76382],[-90.30476,37.76392],[-90.30536,37.7642],[-90.30572,37.76437],[-90.30623,37.7646],[-90.30663,37.7648],[-90.30681,37.76488],[-90.30722,37.76509],[-90.3075,37.76522],[-90.30767,37.76531],[-90.30769,37.76532],[-90.30788,37.76542],[-90.30807,37.76552],[-90.30837,37.76567],[-90.30845,37.76571],[-90.30884,37.76591],[-90.30912,37.76606],[-90.31045,37.76675],[-90.31049,37.76677],[-90.31064,37.76685],[-90.3108,37.76693],[-90.31083,37.76694],[-90.31102,37.76704],[-90.3114,37.76724],[-90.31145,37.76726],[-90.31178,37.76744],[-90.31197,37.76754],[-90.31199,37.76754],[-90.31218,37.76764],[-90.31236,37.76773],[-90.31237,37.76773],[-90.31255,37.76781],[-90.31276,37.76789],[-90.31278,37.7679],[-90.31294,37.76796],[-90.31297,37.76797],[-90.31314,37.76803],[-90.31318,37.76804],[-90.31335,37.76809],[-90.31339,37.76809],[-90.3135,37.76811],[-90.31365,37.76814],[-90.31389,37.76817],[-90.3142,37.7682],[-90.31429,37.76821],[-90.31452,37.76821],[-90.31467,37.76822],[-90.31543,37.76823],[-90.31642,37.76825],[-90.3169,37.76826],[-90.31735,37.76827],[-90.31758,37.76828],[-90.31818,37.76829],[-90.31886,37.76831],[-90.31909,37.76831],[-90.31953,37.76832],[-90.3197,37.76833],[-90.31993,37.76833],[-90.32019,37.76834],[-90.32038,37.76834],[-90.32061,37.76834],[-90.32107,37.76835],[-90.3212,37.76836],[-90.32129,37.76836],[-90.32152,37.76836],[-90.32169,37.76836],[-90.32175,37.76836],[-90.32195,37.76835],[-90.3222,37.76834],[-90.32243,37.7683],[-90.32257,37.76828],[-90.32271,37.76825],[-90.32302,37.76818],[-90.32369,37.76798],[-90.32437,37.7678],[-90.32445,37.76778],[-90.32467,37.76772],[-90.32553,37.76748],[-90.3267,37.76716],[-90.32725,37.76701],[-90.32747,37.76696],[-90.32801,37.76682],[-90.32833,37.76674],[-90.32855,37.76669],[-90.32858,37.76668],[-90.3288,37.76663],[-90.32924,37.76654],[-90.32942,37.76651],[-90.32961,37.76649],[-90.32973,37.76647],[-90.32986,37.76647],[-90.33002,37.76646],[-90.33014,37.76646],[-90.33017,37.76646],[-90.33065,37.76646],[-90.33101,37.76648],[-90.33215,37.76651],[-90.33306,37.76653],[-90.33351,37.76654],[-90.335,37.76656],[-90.33522,37.76656],[-90.33591,37.76657],[-90.33659,37.76658],[-90.33682,37.76658],[-90.33704,37.76658],[-90.33727,37.76658],[-90.33841,37.76659],[-90.33909,37.7666],[-90.33932,37.7666],[-90.33977,37.76661],[-90.34,37.76661],[-90.34046,37.76661],[-90.34132,37.76662],[-90.34159,37.76662],[-90.34272,37.76663],[-90.34323,37.76664],[-90.34414,37.76665],[-90.3446,37.76665],[-90.34475,37.76665],[-90.34513,37.76665],[-90.34553,37.76665],[-90.34594,37.76665],[-90.34697,37.76665],[-90.3472,37.76664],[-90.34742,37.76664],[-90.34788,37.76664],[-90.34844,37.76663],[-90.34903,37.76663],[-90.34948,37.76663],[-90.35017,37.76663],[-90.35072,37.76663],[-90.35161,37.76662],[-90.35184,37.76662],[-90.35188,37.76662],[-90.35298,37.7666],[-90.35434,37.76659],[-90.3549,37.76658],[-90.35558,37.76657],[-90.35581,37.76657],[-90.35604,37.76657],[-90.35627,37.76657],[-90.35672,37.76656],[-90.35695,37.76656],[-90.35763,37.76656],[-90.35797,37.76655],[-90.35819,37.76655],[-90.35836,37.76655],[-90.3591,37.76654],[-90.35956,37.76654],[-90.35959,37.76654],[-90.36001,37.76654],[-90.36071,37.76653],[-90.36138,37.76653],[-90.36161,37.76653],[-90.36207,37.76652],[-90.36229,37.76652],[-90.36297,37.76652],[-90.36479,37.76651],[-90.36506,37.76651],[-90.36535,37.76651],[-90.36541,37.76651],[-90.36632,37.76653],[-90.36655,37.76653],[-90.36723,37.76654],[-90.36756,37.76654],[-90.36791,37.76655],[-90.36907,37.76656],[-90.36928,37.76656],[-90.36951,37.76657],[-90.36973,37.76657],[-90.36996,37.76657],[-90.37022,37.76658],[-90.37064,37.76658],[-90.37132,37.7666],[-90.37137,37.7666],[-90.37155,37.7666],[-90.37256,37.76662],[-90.37337,37.76663],[-90.3736,37.76663],[-90.3738,37.76663],[-90.37383,37.76663],[-90.37509,37.76665],[-90.37519,37.76665],[-90.37664,37.76666],[-90.37842,37.76669],[-90.37956,37.7667],[-90.38024,37.76671],[-90.38119,37.76672],[-90.3821,37.76673],[-90.38233,37.76674],[-90.38279,37.76674],[-90.38301,37.76674],[-90.38542,37.76677],[-90.3861,37.76678],[-90.38633,37.76679],[-90.38656,37.76679],[-90.38678,37.76679],[-90.38701,37.7668],[-90.38724,37.7668],[-90.38747,37.7668],[-90.38769,37.76681],[-90.38792,37.76681],[-90.38815,37.76681],[-90.38838,37.76682],[-90.3886,37.76682],[-90.38883,37.76682],[-90.38906,37.76683],[-90.38935,37.76683],[-90.38981,37.76684],[-90.39004,37.76684],[-90.39043,37.76685],[-90.39088,37.76685],[-90.39102,37.76686],[-90.39111,37.76685],[-90.39134,37.76685],[-90.3915,37.76685],[-90.39157,37.76685],[-90.39163,37.76684],[-90.39173,37.76684],[-90.39179,37.76683],[-90.39187,37.76683],[-90.39197,37.76682],[-90.39217,37.76679],[-90.39231,37.76676],[-90.39249,37.76673],[-90.39272,37.76668],[-90.3929,37.76664],[-90.39306,37.7666],[-90.3933,37.76655],[-90.3933,37.76655],[-90.39353,37.76671],[-90.39369,37.76682],[-90.39419,37.76719],[-90.39448,37.7674],[-90.3945,37.76742],[-90.39514,37.76793],[-90.39565,37.76836],[-90.39597,37.76866],[-90.39658,37.76923],[-90.39678,37.76942],[-90.39697,37.76962],[-90.39752,37.77023],[-90.39776,37.7705],[-90.39806,37.77086],[-90.39849,37.77141],[-90.39898,37.77201],[-90.39908,37.77214],[-90.39934,37.77247],[-90.39957,37.77277],[-90.3997,37.77293],[-90.40022,37.77356],[-90.40062,37.77407],[-90.40098,37.77452],[-90.40134,37.77498],[-90.40158,37.77529],[-90.4017,37.77544],[-90.40182,37.77559],[-90.40189,37.77568],[-90.40206,37.77589],[-90.40236,37.77626],[-90.40237,37.77627],[-90.40271,37.77666],[-90.4028,37.77677],[-90.40286,37.77686],[-90.40286,37.77686],[-90.40305,37.77708],[-90.4032,37.77728],[-90.40325,37.77736],[-90.40365,37.77741],[-90.40392,37.77744],[-90.40397,37.77745],[-90.40447,37.7775],[-90.40471,37.77752],[-90.40496,37.77755],[-90.40501,37.77755],[-90.40508,37.77754],[-90.40553,37.77759],[-90.40592,37.77763],[-90.40622,37.77766],[-90.40689,37.77773],[-90.40731,37.77778],[-90.40797,37.77785],[-90.40841,37.77789],[-90.40925,37.77798],[-90.41046,37.7781],[-90.41136,37.77819],[-90.41181,37.77823],[-90.4121,37.77826],[-90.41282,37.77832],[-90.4135,37.77838],[-90.41392,37.77843],[-90.41409,37.77845],[-90.41415,37.77845],[-90.41424,37.77847],[-90.41437,37.7785],[-90.41458,37.77857],[-90.41473,37.77866],[-90.41557,37.77918],[-90.41648,37.77971],[-90.41698,37.78001],[-90.41708,37.78006],[-90.41708,37.78006],[-90.41711,37.78009],[-90.41715,37.78013],[-90.41721,37.78018],[-90.41724,37.78023],[-90.41729,37.78037],[-90.41723,37.78061],[-90.41723,37.78061],[-90.41727,37.7807],[-90.41731,37.78074],[-90.41734,37.78076],[-90.41738,37.78079],[-90.41743,37.7808],[-90.41759,37.78085],[-90.41795,37.78088],[-90.41795,37.78088],[-90.41811,37.7809],[-90.41836,37.78092],[-90.41884,37.78097],[-90.4196,37.78105],[-90.41985,37.78107],[-90.42027,37.78112],[-90.42047,37.78114],[-90.4205,37.78114],[-90.42084,37.78118],[-90.42129,37.78122],[-90.42169,37.78125],[-90.42218,37.78131],[-90.42243,37.78133],[-90.42269,37.78136],[-90.42269,37.78136],[-90.42273,37.78114]]}}]}