{"type":"FeatureCollection","features":[{"type":"Feature","properties":{"_gpxType":"trk","name":"Al's Place Bike Hostel, North Franklin Street, Farmington, MO - 2436 Loughboro Rd - Bismarck, MO - 391 Grider Rd - 217 County Rd 96 - Johnson's Shut-Ins State Park Campground, Middle Brook, MO 63656","coordinateProperties":{},"id":36},"geometry":{"type":"LineString","coordinates":[[-90.42273,37.78114],[-90.42281,37.78067],[-90.42281,37.78067],[-90.42326,37.78072],[-90.42349,37.78074],[-90.42435,37.78082],[-90.42522,37.7809],[-90.42539,37.78092],[-90.4256,37.78092],[-90.42568,37.78091],[-90.42576,37.78089],[-90.42587,37.78087],[-90.42603,37.78082],[-90.42621,37.78075],[-90.4271,37.78011],[-90.42753,37.77981],[-90.42764,37.77973],[-90.42833,37.77926],[-90.42892,37.77884],[-90.42981,37.77822],[-90.42985,37.77819],[-90.43019,37.77795],[-90.43053,37.77771],[-90.43077,37.77755],[-90.43145,37.77707],[-90.43149,37.77704],[-90.43162,37.77695],[-90.43186,37.77678],[-90.432,37.77668],[-90.43203,37.77667],[-90.4322,37.77655],[-90.43232,37.77647],[-90.43243,37.77642],[-90.43255,37.77636],[-90.43278,37.77627],[-90.4328,37.77627],[-90.43304,37.77618],[-90.4332,37.77613],[-90.43415,37.77579],[-90.43455,37.77562],[-90.43496,37.77547],[-90.43552,37.77526],[-90.43579,37.77517],[-90.43599,37.77509],[-90.43635,37.77497],[-90.43715,37.77471],[-90.43798,37.77441],[-90.43818,37.77433],[-90.43839,37.77425],[-90.43901,37.77402],[-90.4391,37.77399],[-90.43965,37.77378],[-90.44006,37.77364],[-90.4407,37.77341],[-90.44113,37.77325],[-90.44155,37.7731],[-90.44216,37.77288],[-90.44247,37.77278],[-90.44256,37.77274],[-90.44272,37.77269],[-90.44345,37.77243],[-90.44381,37.77239],[-90.44401,37.7723],[-90.44401,37.7723],[-90.44418,37.77218],[-90.4443,37.77209],[-90.44443,37.77202],[-90.44461,37.77197],[-90.4449,37.77189],[-90.44511,37.77182],[-90.4452,37.77178],[-90.44532,37.77174],[-90.44551,37.77167],[-90.44596,37.77148],[-90.44607,37.77144],[-90.44617,37.7714],[-90.44626,37.77139],[-90.4464,37.77138],[-90.4467,37.77134],[-90.447,37.77123],[-90.44703,37.77121],[-90.44714,37.7711],[-90.4477,37.77089],[-90.44795,37.7708],[-90.44864,37.77055],[-90.44882,37.77048],[-90.44919,37.77036],[-90.44955,37.77023],[-90.44996,37.77009],[-90.45026,37.76999],[-90.45047,37.76991],[-90.45092,37.76976],[-90.45109,37.7697],[-90.4511,37.7697],[-90.45171,37.76948],[-90.45192,37.76941],[-90.45213,37.76933],[-90.45275,37.76912],[-90.45317,37.76897],[-90.45317,37.76897],[-90.45315,37.76905],[-90.45314,37.76917],[-90.45312,37.7693],[-90.45312,37.76933],[-90.45309,37.76951],[-90.45307,37.76965],[-90.45305,37.76975],[-90.45303,37.76986],[-90.45302,37.77],[-90.45299,37.77018],[-90.45299,37.77022],[-90.45297,37.77036],[-90.45294,37.77054],[-90.45288,37.77089],[-90.45286,37.77099],[-90.45284,37.77111],[-90.45283,37.77117],[-90.4528,37.77129],[-90.45276,37.77153],[-90.45271,37.77179],[-90.45269,37.77197],[-90.4526,37.7725],[-90.4526,37.7725],[-90.45305,37.77255],[-90.4535,37.7726],[-90.45373,37.77263],[-90.45418,37.77268],[-90.45441,37.7727],[-90.45486,37.77275],[-90.45508,37.77277],[-90.45531,37.7728],[-90.45553,37.77282],[-90.45576,37.77285],[-90.45666,37.77294],[-90.45711,37.77299],[-90.45756,37.77304],[-90.45801,37.77309],[-90.45824,37.77312],[-90.45846,37.77314],[-90.45929,37.77323],[-90.45977,37.77329],[-90.46,37.77331],[-90.46068,37.77339],[-90.4609,37.77341],[-90.46134,37.77348],[-90.46225,37.77358],[-90.46247,37.77361],[-90.46315,37.77368],[-90.4636,37.77373],[-90.46382,37.77376],[-90.46427,37.77381],[-90.46473,37.77386],[-90.46495,37.77388],[-90.46563,37.77396],[-90.4659,37.77399],[-90.46672,37.77408],[-90.46694,37.7741],[-90.467,37.77411],[-90.46717,37.77413],[-90.46722,37.77414],[-90.46767,37.77419],[-90.46857,37.77429],[-90.4688,37.77431],[-90.46902,37.77434],[-90.46925,37.77436],[-90.4697,37.77441],[-90.46992,37.77444],[-90.4707,37.77452],[-90.47115,37.77458],[-90.47138,37.7746],[-90.47183,37.77466],[-90.47205,37.77468],[-90.47273,37.77477],[-90.4734,37.77485],[-90.4738,37.7749],[-90.4744,37.77496],[-90.47485,37.77501],[-90.47508,37.77503],[-90.4753,37.77506],[-90.47553,37.77509],[-90.47613,37.77515],[-90.47701,37.77523],[-90.47734,37.77527],[-90.47756,37.7753],[-90.47779,37.77533],[-90.47824,37.77538],[-90.47825,37.77538],[-90.47846,37.7754],[-90.4787,37.77543],[-90.47878,37.77544],[-90.47915,37.77548],[-90.47949,37.77552],[-90.4796,37.77553],[-90.47972,37.77554],[-90.47994,37.77557],[-90.48007,37.77558],[-90.48017,37.77559],[-90.48038,37.77562],[-90.48039,37.77562],[-90.48128,37.77573],[-90.48129,37.77573],[-90.4814,37.77574],[-90.48151,37.77576],[-90.48173,37.77581],[-90.48195,37.77585],[-90.48196,37.77585],[-90.48208,37.77587],[-90.48217,37.77589],[-90.48218,37.77589],[-90.48233,37.77591],[-90.4824,37.77591],[-90.48249,37.77591],[-90.48267,37.7759],[-90.48285,37.77587],[-90.48304,37.77585],[-90.48307,37.77584],[-90.48308,37.77584],[-90.4833,37.77581],[-90.48352,37.77579],[-90.48353,37.77579],[-90.48373,37.77576],[-90.48375,37.77576],[-90.48397,37.77574],[-90.48398,37.77574],[-90.4842,37.77572],[-90.48443,37.77571],[-90.48447,37.7757],[-90.48465,37.7757],[-90.48488,37.77571],[-90.48503,37.77571],[-90.48511,37.77571],[-90.48534,37.77572],[-90.48554,37.77573],[-90.48579,37.77574],[-90.48629,37.77579],[-90.4864,37.7758],[-90.48661,37.77582],[-90.48685,37.77585],[-90.48712,37.77588],[-90.48768,37.77594],[-90.48787,37.77597],[-90.48855,37.77605],[-90.48921,37.77611],[-90.48946,37.77614],[-90.48989,37.77618],[-90.49056,37.77628],[-90.49096,37.77633],[-90.49096,37.77633],[-90.49113,37.77628],[-90.49128,37.77624],[-90.49146,37.7762],[-90.49163,37.77615],[-90.49163,37.77615],[-90.49191,37.7761],[-90.49207,37.77606],[-90.49233,37.77601],[-90.49255,37.77596],[-90.49257,37.77595],[-90.49275,37.77591],[-90.49278,37.7759],[-90.49295,37.77587],[-90.493,37.77585],[-90.49322,37.7758],[-90.49328,37.77579],[-90.49344,37.77575],[-90.49359,37.77571],[-90.49391,37.77563],[-90.4941,37.77559],[-90.49431,37.77552],[-90.49452,37.77545],[-90.49471,37.77538],[-90.49483,37.77534],[-90.49496,37.77528],[-90.49505,37.77523],[-90.49519,37.77517],[-90.49534,37.77508],[-90.4954,37.77505],[-90.49548,37.77501],[-90.49559,37.77496],[-90.49574,37.77491],[-90.49587,37.77486],[-90.49596,37.77482],[-90.49604,37.77479],[-90.49612,37.77475],[-90.49621,37.77471],[-90.49629,37.77465],[-90.49639,37.77458],[-90.49643,37.77455],[-90.49644,37.77453],[-90.49652,37.77447],[-90.49663,37.77437],[-90.49672,37.77429],[-90.49686,37.77416],[-90.49705,37.77398],[-90.49721,37.77384],[-90.49733,37.77374],[-90.49749,37.77366],[-90.49769,37.77359],[-90.49771,37.77358],[-90.49822,37.77351],[-90.49846,37.77351],[-90.49858,37.77348],[-90.49867,37.77346],[-90.49874,37.77343],[-90.49878,37.7734],[-90.49881,37.77338],[-90.49893,37.77328],[-90.4992,37.77298],[-90.49933,37.77283],[-90.49939,37.77275],[-90.49958,37.77257],[-90.49961,37.77255],[-90.49972,37.77247],[-90.49979,37.77244],[-90.49985,37.77241],[-90.49999,37.77235],[-90.50017,37.77235],[-90.50024,37.77235],[-90.50042,37.77239],[-90.5006,37.77246],[-90.50076,37.77253],[-90.5008,37.77254],[-90.5012,37.77272],[-90.50131,37.77276],[-90.5014,37.7728],[-90.50175,37.77296],[-90.5018,37.77298],[-90.502,37.77306],[-90.50224,37.77314],[-90.50242,37.77319],[-90.50268,37.77327],[-90.50285,37.77331],[-90.50317,37.77338],[-90.50329,37.7734],[-90.50343,37.77342],[-90.5037,37.77343],[-90.50375,37.77343],[-90.50397,37.77344],[-90.50399,37.77344],[-90.5042,37.77344],[-90.50445,37.77345],[-90.50473,37.77345],[-90.50488,37.77348],[-90.50492,37.77349],[-90.50507,37.77357],[-90.50513,37.7736],[-90.50523,37.7737],[-90.50535,37.77381],[-90.50538,37.77383],[-90.50554,37.77396],[-90.50568,37.77402],[-90.50576,37.77403],[-90.50586,37.77403],[-90.50597,37.77401],[-90.50601,37.774],[-90.50623,37.77395],[-90.50623,37.77395],[-90.50635,37.77409],[-90.50652,37.77426],[-90.50654,37.77428],[-90.50661,37.77434],[-90.50666,37.77438],[-90.50672,37.77442],[-90.50679,37.77447],[-90.50689,37.77453],[-90.50701,37.77458],[-90.50717,37.77464],[-90.5075,37.77477],[-90.50764,37.77482],[-90.50825,37.77505],[-90.5083,37.77507],[-90.50863,37.7752],[-90.50953,37.77553],[-90.50997,37.77569],[-90.51017,37.77577],[-90.51038,37.77584],[-90.5104,37.77585],[-90.51083,37.77601],[-90.51131,37.77619],[-90.51141,37.77622],[-90.51162,37.77629],[-90.51163,37.77629],[-90.51184,37.77634],[-90.51195,37.77636],[-90.51203,37.77637],[-90.51215,37.77639],[-90.51229,37.7764],[-90.51251,37.77643],[-90.51258,37.77644],[-90.51296,37.77648],[-90.51364,37.77656],[-90.5144,37.77663],[-90.51454,37.77664],[-90.51514,37.7767],[-90.51547,37.77674],[-90.51569,37.77677],[-90.51589,37.77681],[-90.51605,37.77685],[-90.51611,37.77686],[-90.51628,37.77691],[-90.51647,37.77696],[-90.51661,37.77702],[-90.51683,37.77711],[-90.51717,37.77726],[-90.51753,37.77743],[-90.51794,37.77762],[-90.51857,37.77792],[-90.51859,37.77793],[-90.51877,37.77801],[-90.51887,37.77805],[-90.51906,37.77812],[-90.51924,37.77817],[-90.5194,37.77821],[-90.51953,37.77823],[-90.51955,37.77823],[-90.51961,37.77824],[-90.5197,37.77824],[-90.51982,37.77825],[-90.51998,37.77824],[-90.51998,37.77824],[-90.51999,37.77821],[-90.52,37.77819],[-90.52003,37.77816],[-90.52024,37.778],[-90.52028,37.77798],[-90.52047,37.77788],[-90.52051,37.77786],[-90.52079,37.77774],[-90.52107,37.77773],[-90.5213,37.77773],[-90.5213,37.77773],[-90.52139,37.77775],[-90.52166,37.77783],[-90.52181,37.77789],[-90.5219,37.77792],[-90.52259,37.77826],[-90.52259,37.77826],[-90.52279,37.77807],[-90.52289,37.77798],[-90.52318,37.7777],[-90.5234,37.7775],[-90.52354,37.77736],[-90.52384,37.77708],[-90.52398,37.77696],[-90.52402,37.77693],[-90.52416,37.77683],[-90.52419,37.77681],[-90.52435,37.77673],[-90.52438,37.77672],[-90.52452,37.77664],[-90.52457,37.77662],[-90.52465,37.77659],[-90.52502,37.77656],[-90.52535,37.77658],[-90.52547,37.77659],[-90.52566,37.77662],[-90.52569,37.77662],[-90.52606,37.77669],[-90.52613,37.77671],[-90.52664,37.77689],[-90.52739,37.77727],[-90.52741,37.77728],[-90.52796,37.7776],[-90.52833,37.77781],[-90.52879,37.77807],[-90.52934,37.77838],[-90.52953,37.77849],[-90.5299,37.7787],[-90.53031,37.77898],[-90.53065,37.77922],[-90.53067,37.77923],[-90.53129,37.77973],[-90.53145,37.77986],[-90.53161,37.77999],[-90.53209,37.78037],[-90.53225,37.7805],[-90.53241,37.78063],[-90.53252,37.78071],[-90.53291,37.781],[-90.53307,37.78112],[-90.5332,37.78116],[-90.53329,37.78118],[-90.5333,37.78118],[-90.53336,37.78118],[-90.53344,37.78117],[-90.53351,37.78115],[-90.53358,37.78112],[-90.53369,37.78108],[-90.53372,37.78107],[-90.53384,37.78102],[-90.53391,37.78098],[-90.53402,37.78092],[-90.53411,37.78089],[-90.5342,37.78084],[-90.5343,37.7808],[-90.53435,37.78078],[-90.53451,37.78072],[-90.53467,37.78067],[-90.53472,37.78066],[-90.53485,37.78062],[-90.53507,37.78061],[-90.53522,37.78061],[-90.5353,37.78061],[-90.53537,37.78061],[-90.53553,37.78061],[-90.53576,37.7806],[-90.53598,37.7806],[-90.53599,37.7806],[-90.53627,37.7806],[-90.53655,37.78061],[-90.53667,37.7806],[-90.5368,37.7806],[-90.53689,37.7806],[-90.53696,37.78059],[-90.53709,37.78056],[-90.53712,37.78056],[-90.53721,37.78053],[-90.5374,37.78044],[-90.53768,37.78026],[-90.53786,37.78015],[-90.53796,37.78009],[-90.53806,37.77998],[-90.53812,37.77992],[-90.53814,37.7799],[-90.53828,37.7797],[-90.53847,37.7794],[-90.53859,37.77918],[-90.53863,37.77909],[-90.5387,37.77892],[-90.53872,37.77886],[-90.53877,37.77875],[-90.53885,37.7786],[-90.53886,37.77858],[-90.53897,37.77844],[-90.53916,37.7783],[-90.53935,37.77822],[-90.53977,37.77813],[-90.53979,37.77812],[-90.54001,37.77808],[-90.54022,37.77804],[-90.54023,37.77804],[-90.54046,37.77805],[-90.54068,37.77801],[-90.54079,37.77799],[-90.54089,37.77794],[-90.54107,37.77786],[-90.54108,37.77785],[-90.54126,37.77773],[-90.54145,37.7776],[-90.5416,37.77749],[-90.54193,37.77725],[-90.54243,37.77688],[-90.54248,37.77684],[-90.5426,37.77676],[-90.54293,37.77651],[-90.54325,37.77627],[-90.54341,37.77614],[-90.54365,37.77594],[-90.54373,37.77589],[-90.54381,37.77583],[-90.5439,37.77577],[-90.54395,37.77574],[-90.54403,37.7757],[-90.54409,37.77567],[-90.54412,37.77566],[-90.54424,37.77562],[-90.54431,37.77561],[-90.54436,37.77559],[-90.54454,37.77557],[-90.54476,37.77556],[-90.54496,37.77555],[-90.54544,37.77552],[-90.54549,37.77552],[-90.54566,37.7755],[-90.54577,37.77549],[-90.54589,37.77548],[-90.54608,37.77545],[-90.54611,37.77545],[-90.54626,37.77542],[-90.54633,37.7754],[-90.54643,37.77538],[-90.54654,37.77534],[-90.54662,37.77531],[-90.54674,37.77525],[-90.54675,37.77525],[-90.54683,37.7752],[-90.5469,37.77514],[-90.54691,37.77513],[-90.54698,37.77506],[-90.54702,37.775],[-90.54704,37.77498],[-90.54711,37.77487],[-90.54727,37.7746],[-90.54741,37.77435],[-90.54753,37.77415],[-90.54771,37.77384],[-90.5479,37.77351],[-90.54803,37.77329],[-90.54837,37.7727],[-90.54847,37.77253],[-90.54855,37.77239],[-90.54856,37.77237],[-90.54861,37.77229],[-90.54865,37.77223],[-90.54867,37.77221],[-90.54876,37.77212],[-90.54882,37.77207],[-90.54893,37.772],[-90.54903,37.77198],[-90.54913,37.77196],[-90.54923,37.77195],[-90.54935,37.77197],[-90.54941,37.77198],[-90.54954,37.77202],[-90.54963,37.77207],[-90.54965,37.77208],[-90.54989,37.77223],[-90.5502,37.77244],[-90.55031,37.7725],[-90.55036,37.77253],[-90.55038,37.77254],[-90.55051,37.7726],[-90.55056,37.77262],[-90.55058,37.77263],[-90.55064,37.77263],[-90.5507,37.77264],[-90.55082,37.77263],[-90.55091,37.77261],[-90.551,37.77258],[-90.55103,37.77257],[-90.55117,37.77252]]}},{"type":"Feature","properties":{"_gpxType":"trk","name":"Al's Place Bike Hostel, North Franklin Street, Farmington, MO - 2436 Loughboro Rd - Bismarck, MO - 391 Grider Rd - 217 County Rd 96 - Johnson's Shut-Ins State Park Campground, Middle Brook, MO 63656","coordinateProperties":{},"id":36},"geometry":{"type":"LineString","coordinates":[[-90.55117,37.77252],[-90.55124,37.7725],[-90.55163,37.77237],[-90.55184,37.7723],[-90.55205,37.77223],[-90.55213,37.7722],[-90.55246,37.77209],[-90.55247,37.77209],[-90.55266,37.77203],[-90.55291,37.772],[-90.55312,37.77199],[-90.55313,37.77199],[-90.55335,37.772],[-90.55366,37.77201],[-90.55382,37.77202],[-90.55386,37.77202],[-90.55403,37.77203],[-90.55404,37.77203],[-90.55427,37.77203],[-90.55428,37.77203],[-90.55444,37.77201],[-90.55463,37.77196],[-90.5547,37.77193],[-90.55475,37.77191],[-90.55499,37.77182],[-90.55511,37.77178],[-90.55528,37.77173],[-90.55582,37.77163],[-90.55583,37.77162],[-90.55594,37.7716],[-90.55604,37.77158],[-90.55712,37.77134],[-90.55736,37.77129],[-90.55743,37.77127],[-90.55757,37.77123],[-90.55758,37.77123],[-90.55818,37.77108],[-90.55843,37.771],[-90.55844,37.771],[-90.55848,37.77099],[-90.55865,37.77094],[-90.55865,37.77093],[-90.55886,37.77087],[-90.55887,37.77087],[-90.55908,37.77081],[-90.55971,37.77062],[-90.55972,37.77062],[-90.55976,37.77061],[-90.56014,37.77049],[-90.56035,37.77043],[-90.56036,37.77043],[-90.56057,37.77036],[-90.56085,37.77027],[-90.56098,37.77023],[-90.56099,37.77023],[-90.56106,37.77021],[-90.56117,37.77018],[-90.56121,37.77017],[-90.5613,37.77014],[-90.56145,37.77007],[-90.56158,37.76997],[-90.56159,37.76997],[-90.56162,37.76995],[-90.56171,37.76985],[-90.5618,37.76971],[-90.56187,37.76955],[-90.56189,37.7695],[-90.56189,37.76949],[-90.56196,37.76927],[-90.56203,37.76905],[-90.56212,37.7688],[-90.56212,37.76879],[-90.56218,37.76863],[-90.56218,37.76862],[-90.56226,37.76843],[-90.56239,37.76824],[-90.56252,37.76813],[-90.56266,37.76803],[-90.56269,37.76801],[-90.56284,37.76791],[-90.56292,37.76786],[-90.56302,37.76781],[-90.56318,37.76771],[-90.56349,37.76755],[-90.56369,37.76746],[-90.56384,37.76741],[-90.564,37.76736],[-90.56422,37.7673],[-90.56443,37.76724],[-90.56444,37.76724],[-90.56465,37.76717],[-90.56479,37.76711],[-90.56502,37.76697],[-90.5651,37.76693],[-90.5652,37.76686],[-90.56538,37.76675],[-90.56589,37.76639],[-90.56596,37.76635],[-90.56623,37.76616],[-90.56647,37.76599],[-90.56668,37.76584],[-90.56679,37.76575],[-90.56688,37.76565],[-90.5669,37.76563],[-90.56698,37.76549],[-90.56701,37.76544],[-90.56708,37.76533],[-90.56709,37.76531],[-90.56716,37.76516],[-90.56719,37.76511],[-90.56728,37.76501],[-90.56738,37.76491],[-90.56743,37.76487],[-90.56753,37.7648],[-90.56775,37.76466],[-90.56792,37.76457],[-90.56816,37.76446],[-90.56819,37.76444],[-90.56836,37.7644],[-90.56838,37.76439],[-90.56851,37.76437],[-90.5686,37.76437],[-90.56869,37.76436],[-90.56883,37.76436],[-90.56889,37.76436],[-90.56905,37.76436],[-90.56996,37.76436],[-90.57023,37.76436],[-90.57065,37.76436],[-90.57133,37.76437],[-90.57156,37.76437],[-90.57201,37.76438],[-90.57224,37.76438],[-90.57247,37.76438],[-90.57357,37.76439],[-90.5736,37.76439],[-90.5745,37.76441],[-90.5751,37.76442],[-90.57598,37.76442],[-90.57607,37.76442],[-90.57653,37.76442],[-90.57666,37.76442],[-90.57676,37.76442],[-90.57744,37.76442],[-90.57812,37.76442],[-90.57826,37.76442],[-90.57835,37.76442],[-90.57858,37.76442],[-90.57871,37.76442],[-90.5788,37.76442],[-90.57894,37.76442],[-90.57903,37.76442],[-90.57917,37.76442],[-90.57926,37.76442],[-90.57939,37.76442],[-90.57949,37.76442],[-90.57971,37.76442],[-90.58017,37.76442],[-90.5803,37.76442],[-90.58053,37.76442],[-90.58085,37.76442],[-90.58099,37.76442],[-90.5819,37.76442],[-90.58212,37.76442],[-90.58258,37.76442],[-90.58284,37.76442],[-90.5833,37.76442],[-90.58393,37.76442],[-90.58438,37.76443],[-90.58624,37.76444],[-90.58643,37.76444],[-90.58666,37.76444],[-90.58734,37.76444],[-90.58848,37.76443],[-90.5887,37.76443],[-90.58893,37.76443],[-90.58916,37.76443],[-90.58939,37.76443],[-90.59001,37.76442],[-90.5903,37.76441],[-90.59075,37.7644],[-90.59122,37.76438],[-90.592,37.76436],[-90.59222,37.76435],[-90.59427,37.76429],[-90.59473,37.76427],[-90.59564,37.76424],[-90.59657,37.76421],[-90.59679,37.76421],[-90.59702,37.7642],[-90.5977,37.76418],[-90.59861,37.76419],[-90.59884,37.76419],[-90.59907,37.7642],[-90.59952,37.7642],[-90.60043,37.76422],[-90.60044,37.76422],[-90.60112,37.76422],[-90.60134,37.76422],[-90.60159,37.76422],[-90.60187,37.76424],[-90.602,37.76429],[-90.60201,37.7643],[-90.60211,37.76435],[-90.60218,37.76442],[-90.60225,37.76455],[-90.60227,37.76471],[-90.60227,37.76494],[-90.60227,37.76512],[-90.60227,37.76545],[-90.60229,37.76566],[-90.6023,37.76584],[-90.60231,37.76587],[-90.60239,37.76595],[-90.60253,37.766],[-90.60266,37.76602],[-90.60332,37.76612],[-90.60333,37.76612],[-90.60356,37.76615],[-90.60378,37.76618],[-90.60401,37.76621],[-90.60486,37.76633],[-90.6049,37.76634],[-90.60524,37.76639],[-90.60535,37.76641],[-90.60584,37.76648],[-90.60602,37.7665],[-90.60623,37.76653],[-90.60636,37.76655],[-90.60647,37.76657],[-90.60653,37.76658],[-90.60663,37.76661],[-90.60667,37.76664],[-90.60668,37.76665],[-90.60673,37.76669],[-90.60676,37.76675],[-90.60678,37.7668],[-90.60678,37.76682],[-90.6068,37.7669],[-90.6068,37.76709],[-90.60677,37.76789],[-90.60677,37.76789],[-90.60745,37.76791],[-90.60791,37.76791],[-90.60813,37.76792],[-90.60859,37.76793],[-90.60882,37.76793],[-90.60973,37.76795],[-90.61125,37.76797],[-90.61229,37.768],[-90.61239,37.768],[-90.61298,37.76802],[-90.61329,37.76803],[-90.61352,37.76803],[-90.6142,37.76804],[-90.61466,37.76805],[-90.61586,37.76806],[-90.61586,37.76806],[-90.61678,37.76808],[-90.61724,37.76808],[-90.61769,37.76809],[-90.61797,37.76809],[-90.61866,37.7681],[-90.61888,37.7681],[-90.61918,37.76811],[-90.62016,37.76812],[-90.62033,37.76813],[-90.62102,37.76815],[-90.62102,37.76815],[-90.62137,37.76855],[-90.62199,37.76937],[-90.62199,37.76937],[-90.62239,37.76919],[-90.62278,37.76901],[-90.6231,37.76887],[-90.62373,37.76855],[-90.62411,37.76836],[-90.62411,37.76836],[-90.62435,37.76867],[-90.62447,37.76882],[-90.62476,37.76921],[-90.62476,37.76921],[-90.62482,37.76918]]}},{"type":"Feature","properties":{"_gpxType":"trk","name":"Al's Place Bike Hostel, North Franklin Street, Farmington, MO - 2436 Loughboro Rd - Bismarck, MO - 391 Grider Rd - 217 County Rd 96 - Johnson's Shut-Ins State Park Campground, Middle Brook, MO 63656","coordinateProperties":{},"id":36},"geometry":{"type":"LineString","coordinates":[[-90.62482,37.76918],[-90.62529,37.76896],[-90.62582,37.76871],[-90.626,37.76863],[-90.62615,37.76855],[-90.62638,37.76844],[-90.62665,37.76831],[-90.62665,37.76831],[-90.62654,37.76815],[-90.62644,37.76802],[-90.62631,37.76784],[-90.62604,37.76746],[-90.62574,37.76712],[-90.62544,37.76669],[-90.62543,37.76667],[-90.62543,37.76666],[-90.62543,37.76663],[-90.62543,37.76659],[-90.62545,37.76652],[-90.62545,37.7665],[-90.62545,37.76648],[-90.62545,37.76645],[-90.62545,37.76643],[-90.62544,37.76642],[-90.62543,37.7664],[-90.62543,37.76638],[-90.62542,37.76635],[-90.6254,37.76633],[-90.62538,37.7663],[-90.62507,37.76582],[-90.62505,37.76579],[-90.62501,37.7657],[-90.62501,37.76567],[-90.625,37.76562],[-90.62498,37.76556],[-90.62498,37.76542],[-90.62498,37.76524],[-90.62498,37.76434],[-90.62498,37.76416],[-90.62497,37.76398],[-90.62497,37.76376],[-90.62498,37.76343],[-90.62497,37.76283],[-90.62498,37.76256],[-90.62499,37.76181],[-90.625,37.76127],[-90.62501,37.76087],[-90.625,37.76051],[-90.625,37.76033],[-90.62499,37.7597],[-90.625,37.7594],[-90.625,37.75922],[-90.625,37.75904],[-90.62501,37.75868],[-90.62502,37.75796],[-90.62502,37.75742],[-90.625,37.75672],[-90.625,37.75672],[-90.625,37.75618],[-90.62501,37.75532],[-90.62499,37.7546],[-90.62499,37.75424],[-90.62498,37.75377],[-90.62497,37.7537],[-90.62496,37.75352],[-90.62495,37.75334],[-90.62493,37.75299],[-90.62493,37.7528],[-90.62491,37.75218],[-90.62491,37.75208],[-90.62491,37.75172],[-90.62491,37.75118],[-90.62491,37.751],[-90.6249,37.7501],[-90.6249,37.74974],[-90.6249,37.74827],[-90.6249,37.74827],[-90.6252,37.74827],[-90.62565,37.74825],[-90.62606,37.74823],[-90.62656,37.74822],[-90.62663,37.74822],[-90.62664,37.74822],[-90.62679,37.74822],[-90.62701,37.74823],[-90.62709,37.74823],[-90.62715,37.74823],[-90.62746,37.74827],[-90.62754,37.74828],[-90.62769,37.7483],[-90.62793,37.74833],[-90.62821,37.74838],[-90.62836,37.7484],[-90.62879,37.74847],[-90.6288,37.74848],[-90.62887,37.74849],[-90.62921,37.74854]]}},{"type":"Feature","properties":{"_gpxType":"trk","name":"Al's Place Bike Hostel, North Franklin Street, Farmington, MO - 2436 Loughboro Rd - Bismarck, MO - 391 Grider Rd - 217 County Rd 96 - Johnson's Shut-Ins State Park Campground, Middle Brook, MO 63656","coordinateProperties":{},"id":36},"geometry":{"type":"LineString","coordinates":[[-90.62921,37.74854],[-90.62925,37.74855],[-90.62947,37.74858],[-90.62954,37.74859],[-90.6297,37.74862],[-90.63119,37.74885],[-90.63164,37.7489],[-90.63184,37.74893],[-90.63186,37.74893],[-90.63204,37.74894],[-90.63247,37.74897],[-90.63254,37.74896],[-90.63344,37.74884],[-90.63404,37.74876],[-90.63471,37.74865],[-90.63515,37.74857],[-90.63537,37.74854],[-90.6356,37.7485],[-90.63671,37.74831],[-90.63693,37.74826],[-90.63734,37.74817],[-90.63778,37.74809],[-90.638,37.74805],[-90.63806,37.74804],[-90.63865,37.74791],[-90.63866,37.74791],[-90.63888,37.74786],[-90.63909,37.7478],[-90.63975,37.74764],[-90.63996,37.74759],[-90.64018,37.74754],[-90.6404,37.74748],[-90.6406,37.74743],[-90.64076,37.7474],[-90.64085,37.74737],[-90.64098,37.74734],[-90.64107,37.74732],[-90.64119,37.74729],[-90.64129,37.74727],[-90.64141,37.74724],[-90.64151,37.74722],[-90.64163,37.74719],[-90.64185,37.74713],[-90.64207,37.74708],[-90.64263,37.74695],[-90.64272,37.74693],[-90.64281,37.74691],[-90.64294,37.74688],[-90.64338,37.74678],[-90.64347,37.74676],[-90.64359,37.74673],[-90.64369,37.74671],[-90.64381,37.74668],[-90.64391,37.74666],[-90.64401,37.74664],[-90.64403,37.74664],[-90.64448,37.74657],[-90.64458,37.74656],[-90.64458,37.74656],[-90.6447,37.74656],[-90.64493,37.74656],[-90.64515,37.74656],[-90.64534,37.74656],[-90.64561,37.74656],[-90.64584,37.74656],[-90.64606,37.74656],[-90.64629,37.74656],[-90.64675,37.74657],[-90.64717,37.74658],[-90.64718,37.74658],[-90.64752,37.74656],[-90.64763,37.74653],[-90.64785,37.74648],[-90.64828,37.74637],[-90.64872,37.74626],[-90.64874,37.74626],[-90.64915,37.74616],[-90.64921,37.74615],[-90.64937,37.74611],[-90.64952,37.74609],[-90.65036,37.74597],[-90.65058,37.74594],[-90.65077,37.74592],[-90.65103,37.74588],[-90.65125,37.74585],[-90.6514,37.74583],[-90.65148,37.74582],[-90.6517,37.7458],[-90.65211,37.74576],[-90.65215,37.74575],[-90.65262,37.74566],[-90.65282,37.74564],[-90.65302,37.74562],[-90.65305,37.74562],[-90.65327,37.74563],[-90.65337,37.74564],[-90.65352,37.74567],[-90.65364,37.74569],[-90.65406,37.7458],[-90.65445,37.7459],[-90.6548,37.74599],[-90.65485,37.746],[-90.65502,37.74604],[-90.65524,37.74608],[-90.65529,37.74609],[-90.65546,37.74611],[-90.65569,37.74613],[-90.65592,37.74615],[-90.65637,37.7462],[-90.65682,37.74624],[-90.65704,37.74627],[-90.6575,37.74631],[-90.65772,37.74633],[-90.65795,37.74635],[-90.65816,37.74637],[-90.65816,37.74637],[-90.65817,37.74598],[-90.65819,37.74565],[-90.6582,37.7453],[-90.65821,37.74512],[-90.65821,37.74494],[-90.65822,37.74476],[-90.65825,37.74416],[-90.65826,37.744],[-90.65828,37.74368],[-90.65832,37.7435],[-90.65833,37.74344],[-90.65835,37.74336],[-90.65836,37.74331],[-90.65838,37.74327],[-90.65841,37.74321],[-90.65844,37.74316],[-90.65845,37.74315],[-90.65852,37.74307],[-90.65857,37.74302],[-90.65864,37.74296],[-90.65873,37.74288],[-90.65878,37.74284],[-90.65886,37.74277],[-90.65901,37.74267],[-90.65919,37.74256],[-90.65924,37.74253],[-90.65943,37.74242],[-90.65948,37.74238],[-90.65961,37.74231],[-90.65976,37.74223],[-90.6598,37.74221],[-90.65993,37.74213],[-90.65998,37.7421],[-90.66016,37.742],[-90.66017,37.74199],[-90.66035,37.74189],[-90.66052,37.74179],[-90.66078,37.74163],[-90.66108,37.74146],[-90.66123,37.74137],[-90.66126,37.74135],[-90.66138,37.74127],[-90.66144,37.74124],[-90.66153,37.74117],[-90.66161,37.74112],[-90.66168,37.74107],[-90.66178,37.74098],[-90.66182,37.74094],[-90.66186,37.74089],[-90.66193,37.7408],[-90.66196,37.74073],[-90.66199,37.74064],[-90.662,37.74057],[-90.66201,37.7405],[-90.66202,37.74041],[-90.66204,37.74005],[-90.66205,37.73979],[-90.66207,37.73943],[-90.6621,37.73904],[-90.66212,37.73878],[-90.66214,37.73852],[-90.66214,37.73845],[-90.66215,37.73833],[-90.66215,37.73827],[-90.66216,37.73814],[-90.66219,37.73773],[-90.66222,37.73732],[-90.66225,37.73701],[-90.66225,37.7369],[-90.66227,37.73664],[-90.66228,37.73648],[-90.66229,37.73636],[-90.66229,37.73622],[-90.66229,37.73611],[-90.66229,37.73593],[-90.66229,37.73521],[-90.66229,37.73513],[-90.6623,37.735],[-90.66232,37.73492],[-90.66239,37.73469],[-90.66259,37.73417],[-90.66266,37.73401],[-90.66273,37.73376],[-90.66278,37.73356],[-90.6628,37.73345],[-90.66281,37.73342],[-90.66282,37.73331],[-90.66282,37.73327],[-90.66282,37.73324],[-90.66283,37.73312],[-90.66285,37.73266],[-90.66285,37.73255],[-90.66285,37.73237],[-90.66286,37.73208],[-90.66286,37.73202],[-90.66288,37.73127],[-90.66288,37.73094],[-90.66289,37.73076],[-90.66289,37.73064],[-90.6629,37.73029],[-90.66294,37.72878],[-90.66296,37.72824],[-90.66297,37.7277],[-90.66298,37.72734],[-90.663,37.72666],[-90.66305,37.72558],[-90.66305,37.72545],[-90.66306,37.72501],[-90.66306,37.72483],[-90.66307,37.72456],[-90.66307,37.72427],[-90.66308,37.72404],[-90.66309,37.72334],[-90.66313,37.72208],[-90.66313,37.72192],[-90.66313,37.72154],[-90.66314,37.72132],[-90.66316,37.72076],[-90.66317,37.72022],[-90.66318,37.72004],[-90.66319,37.71956],[-90.66319,37.71908],[-90.6632,37.71872],[-90.6632,37.71864],[-90.66321,37.718],[-90.66322,37.71782],[-90.66322,37.71746],[-90.66323,37.71728],[-90.66324,37.71656],[-90.66326,37.716],[-90.66327,37.71577],[-90.66327,37.71577],[-90.66328,37.71555],[-90.66328,37.71529],[-90.66329,37.71524],[-90.66329,37.71511],[-90.6633,37.71493],[-90.6633,37.71475],[-90.66332,37.71439],[-90.66334,37.71371],[-90.66334,37.71367],[-90.66335,37.71325],[-90.66336,37.71313],[-90.66336,37.71291],[-90.66336,37.71252],[-90.66336,37.71247],[-90.66337,37.71232],[-90.66337,37.71214],[-90.66338,37.71189],[-90.66339,37.71159],[-90.66339,37.71157],[-90.66339,37.71139],[-90.6634,37.7113],[-90.6634,37.71103],[-90.66341,37.71067],[-90.66341,37.71064],[-90.66342,37.71041],[-90.66342,37.71015],[-90.66343,37.71005],[-90.66345,37.70915],[-90.66345,37.70897],[-90.66346,37.70885],[-90.66346,37.70855],[-90.66346,37.70825],[-90.66347,37.70811],[-90.66349,37.70736],[-90.6635,37.70699],[-90.66351,37.70637],[-90.66353,37.70573],[-90.66355,37.70506],[-90.66356,37.70488],[-90.66358,37.70402],[-90.66359,37.70384],[-90.66361,37.70297],[-90.66363,37.70222],[-90.66364,37.70189],[-90.66364,37.70186],[-90.66364,37.70168],[-90.66367,37.70082],[-90.66368,37.70042],[-90.6637,37.69988],[-90.66371,37.6997],[-90.66371,37.69926],[-90.66371,37.69924],[-90.66372,37.69909],[-90.66373,37.69872],[-90.66375,37.69811],[-90.66376,37.69762],[-90.66377,37.69702],[-90.6638,37.69629],[-90.6638,37.69597],[-90.66383,37.69501],[-90.66384,37.69465],[-90.66387,37.69349],[-90.66388,37.69277],[-90.66389,37.69251],[-90.6639,37.69241],[-90.66391,37.69204],[-90.66391,37.69168],[-90.66392,37.6913],[-90.66392,37.69091],[-90.66393,37.69073],[-90.66393,37.69062],[-90.66395,37.69049],[-90.66395,37.69047],[-90.66396,37.69043],[-90.66397,37.69036],[-90.664,37.69026],[-90.66403,37.69018],[-90.6641,37.69005],[-90.66417,37.68995],[-90.66425,37.68985],[-90.66429,37.68979],[-90.66436,37.68971],[-90.66446,37.68961],[-90.66461,37.6895],[-90.66471,37.68943],[-90.6648,37.68938],[-90.66491,37.68932],[-90.66499,37.68928],[-90.66515,37.68922],[-90.66537,37.68914],[-90.66574,37.68902],[-90.66629,37.68884],[-90.66637,37.68881],[-90.66753,37.68844],[-90.66775,37.68837],[-90.66816,37.68823],[-90.66912,37.68792],[-90.66937,37.68783],[-90.67096,37.68732],[-90.6713,37.68721],[-90.67154,37.68714],[-90.67175,37.68707],[-90.67257,37.6868],[-90.67259,37.68679],[-90.67284,37.68671],[-90.67306,37.68664],[-90.67338,37.68654],[-90.67364,37.68645],[-90.67385,37.68638],[-90.67419,37.68628],[-90.67425,37.68626],[-90.67475,37.68609],[-90.67517,37.68595],[-90.67539,37.68588],[-90.67656,37.68551],[-90.67666,37.68547],[-90.67687,37.6854],[-90.67721,37.68529],[-90.67739,37.68524],[-90.67757,37.68517],[-90.67804,37.685],[-90.67832,37.68488],[-90.67854,37.68478],[-90.67872,37.68469],[-90.67879,37.68465],[-90.67883,37.68463],[-90.67934,37.68433],[-90.67971,37.68412],[-90.67977,37.68408],[-90.68008,37.68391],[-90.68026,37.6838],[-90.68044,37.68369],[-90.6808,37.68349],[-90.68113,37.6833],[-90.68143,37.68312],[-90.68174,37.68294],[-90.68204,37.68277],[-90.68224,37.68266],[-90.6825,37.68251],[-90.68273,37.68239],[-90.68288,37.68231],[-90.68302,37.68225],[-90.68325,37.68216],[-90.68344,37.68211],[-90.68361,37.68206],[-90.68367,37.68205],[-90.68413,37.68196],[-90.68458,37.68187],[-90.68523,37.68174],[-90.68538,37.68171],[-90.68651,37.68149],[-90.68784,37.68124],[-90.68887,37.68105],[-90.68958,37.68091],[-90.69024,37.68079],[-90.69046,37.68075],[-90.6909,37.68067],[-90.69157,37.68055],[-90.6926,37.68036],[-90.69326,37.68024],[-90.69348,37.6802],[-90.69354,37.68018],[-90.69393,37.68011],[-90.69481,37.67995],[-90.69503,37.67991],[-90.69523,37.67988],[-90.69567,37.67981],[-90.69592,37.67977],[-90.69626,37.67971],[-90.69637,37.6797],[-90.69659,37.67967],[-90.69682,37.67964],[-90.69704,37.6796],[-90.69815,37.67945],[-90.69839,37.67942],[-90.6986,37.67939],[-90.69882,37.67936],[-90.69904,37.67933],[-90.69994,37.67921],[-90.70016,37.67918],[-90.70032,37.67915],[-90.70051,37.67912],[-90.70051,37.67912],[-90.70047,37.67901],[-90.70037,37.67893],[-90.70006,37.67874],[-90.6997,37.67851],[-90.69955,37.67842],[-90.69917,37.67818],[-90.6987,37.67791]]}},{"type":"Feature","properties":{"_gpxType":"trk","name":"Al's Place Bike Hostel, North Franklin Street, Farmington, MO - 2436 Loughboro Rd - Bismarck, MO - 391 Grider Rd - 217 County Rd 96 - Johnson's Shut-Ins State Park Campground, Middle Brook, MO 63656","coordinateProperties":{},"id":36},"geometry":{"type":"LineString","coordinates":[[-90.6987,37.67791],[-90.69862,37.67786],[-90.6977,37.67733],[-90.69757,37.67725],[-90.69716,37.677],[-90.69652,37.67662],[-90.69552,37.67603],[-90.6952,37.67585],[-90.69497,37.67571],[-90.69476,37.67559],[-90.69466,37.67553],[-90.69442,37.67539],[-90.69367,37.67494],[-90.6934,37.67479],[-90.6933,37.67473],[-90.69294,37.67451],[-90.69264,37.67433],[-90.69199,37.67395],[-90.69185,37.67387],[-90.69167,37.67376],[-90.69152,37.67367],[-90.69136,37.67357],[-90.69131,37.67354],[-90.69115,37.67344],[-90.69113,37.67342],[-90.69103,37.67333],[-90.69098,37.67329],[-90.69094,37.67325],[-90.69086,37.67314],[-90.69083,37.67309],[-90.69075,37.67293],[-90.69073,37.6728],[-90.69072,37.67272],[-90.69071,37.67252],[-90.69073,37.67244],[-90.69086,37.67186],[-90.69089,37.67173],[-90.69095,37.67152],[-90.69099,37.6713],[-90.691,37.67102],[-90.69099,37.67084],[-90.69097,37.67065],[-90.69094,37.67039],[-90.69089,37.67023],[-90.69072,37.66968],[-90.69067,37.66943],[-90.69067,37.66898],[-90.69068,37.66888],[-90.69069,37.6687],[-90.69072,37.66842],[-90.69071,37.66834],[-90.69066,37.66799],[-90.69065,37.66789],[-90.69059,37.66771],[-90.69054,37.66764],[-90.69032,37.66737],[-90.69015,37.6672],[-90.69012,37.66718],[-90.68983,37.66694],[-90.68957,37.66665],[-90.68955,37.66663],[-90.68946,37.6665],[-90.68937,37.66635],[-90.68923,37.66619],[-90.68915,37.6661],[-90.68884,37.66574],[-90.6888,37.6657],[-90.68857,37.66545],[-90.68849,37.66537],[-90.68832,37.66516],[-90.6882,37.66502],[-90.68784,37.66473],[-90.68772,37.66461],[-90.6876,37.6645],[-90.68743,37.66431],[-90.68729,37.66413],[-90.68718,37.66395],[-90.68714,37.66385],[-90.68698,37.66345],[-90.68686,37.66304],[-90.68684,37.66262],[-90.68682,37.66238],[-90.68682,37.66201],[-90.68681,37.66189],[-90.68682,37.66143],[-90.68683,37.66114],[-90.68683,37.66106],[-90.68684,37.66075],[-90.68681,37.66037],[-90.6868,37.66027],[-90.68672,37.66004],[-90.68659,37.65975],[-90.68656,37.6597],[-90.68643,37.6595],[-90.68619,37.65923],[-90.68615,37.65918],[-90.6859,37.65896],[-90.68583,37.6589],[-90.68574,37.65883],[-90.68558,37.6587],[-90.68543,37.65857],[-90.68531,37.65847],[-90.68511,37.65831],[-90.68469,37.65794],[-90.68451,37.6578],[-90.68434,37.65766],[-90.68415,37.65753],[-90.68398,37.65743],[-90.68397,37.65742],[-90.68379,37.65733],[-90.68359,37.65723],[-90.68341,37.65714],[-90.68308,37.65697],[-90.68304,37.65695],[-90.68255,37.65668],[-90.68236,37.65655],[-90.68214,37.6564],[-90.68196,37.65626],[-90.68176,37.65604],[-90.68173,37.656],[-90.68165,37.65588],[-90.68158,37.65573],[-90.68157,37.65572],[-90.68153,37.65555],[-90.68151,37.65548],[-90.68149,37.65536],[-90.68146,37.65512],[-90.68146,37.65498],[-90.68147,37.65484],[-90.68146,37.6548],[-90.68144,37.65462],[-90.68143,37.65458],[-90.68135,37.6543],[-90.68123,37.654],[-90.68109,37.65377],[-90.68107,37.65373],[-90.68104,37.65366],[-90.68104,37.65366],[-90.68071,37.6533],[-90.68065,37.65322],[-90.68052,37.65306],[-90.68039,37.65292],[-90.6803,37.65282],[-90.68007,37.65252],[-90.6799,37.65231],[-90.67977,37.65216],[-90.67967,37.65204],[-90.67964,37.65202],[-90.67947,37.65182],[-90.67923,37.65151],[-90.67916,37.65142],[-90.67875,37.65092],[-90.67856,37.65068],[-90.67856,37.65068],[-90.67825,37.65053],[-90.67809,37.65045],[-90.67779,37.65033],[-90.67763,37.65031],[-90.67732,37.65027],[-90.67696,37.65025],[-90.67684,37.65024],[-90.67652,37.65023],[-90.67626,37.65023],[-90.67609,37.65023],[-90.67541,37.65021],[-90.67507,37.65021],[-90.67493,37.6502],[-90.67473,37.6502],[-90.67449,37.65019],[-90.67432,37.65019],[-90.67429,37.65019],[-90.67423,37.65018],[-90.67419,37.65014],[-90.67417,37.65],[-90.67417,37.65],[-90.67357,37.64999],[-90.67319,37.64998],[-90.67186,37.64995],[-90.67114,37.64994],[-90.6709,37.64993],[-90.67069,37.64993],[-90.67017,37.64992],[-90.66993,37.64991],[-90.66948,37.6499],[-90.66932,37.6499],[-90.66932,37.6499],[-90.66934,37.6498],[-90.66937,37.6497],[-90.6694,37.64964],[-90.66945,37.64956],[-90.66947,37.64953],[-90.66949,37.64948],[-90.66958,37.64936],[-90.66962,37.64931],[-90.66966,37.64927],[-90.66972,37.64922],[-90.66977,37.64918],[-90.66982,37.64914],[-90.67,37.64901],[-90.67023,37.64888],[-90.67059,37.64868],[-90.67082,37.64855],[-90.67118,37.64835],[-90.67147,37.64819],[-90.67185,37.64799],[-90.6723,37.64774],[-90.67264,37.64756],[-90.67269,37.64754],[-90.67301,37.64735],[-90.67324,37.64719],[-90.67338,37.64709],[-90.67352,37.64696],[-90.67364,37.64686],[-90.67377,37.64674],[-90.67413,37.64642],[-90.67458,37.64602],[-90.67484,37.6458],[-90.67495,37.6457],[-90.67528,37.6454],[-90.67544,37.64526],[-90.67575,37.645],[-90.67585,37.64492],[-90.67601,37.64481],[-90.67619,37.64471],[-90.67632,37.64463],[-90.67642,37.64458],[-90.67651,37.64454],[-90.67668,37.64447],[-90.67686,37.6444],[-90.67704,37.64434],[-90.67726,37.64428],[-90.67739,37.64424],[-90.67751,37.64421],[-90.67766,37.64418],[-90.6778,37.64416],[-90.67797,37.64414],[-90.67804,37.64413],[-90.67821,37.64412],[-90.67853,37.64412],[-90.67887,37.64412],[-90.67917,37.64412],[-90.67968,37.64413],[-90.6801,37.64414],[-90.68039,37.64415],[-90.68081,37.64417],[-90.68119,37.64418],[-90.6814,37.64418],[-90.68164,37.64418],[-90.68194,37.64416],[-90.68216,37.64412],[-90.68217,37.64411],[-90.68229,37.64409],[-90.68242,37.64405],[-90.68258,37.64399],[-90.68264,37.64396],[-90.68272,37.64393],[-90.68282,37.64389],[-90.68295,37.6438],[-90.68311,37.64371],[-90.68338,37.64353],[-90.68351,37.64345],[-90.68373,37.64331],[-90.68401,37.64314],[-90.68429,37.64298],[-90.68453,37.64284],[-90.68477,37.6427],[-90.68496,37.64257],[-90.68514,37.64247],[-90.68534,37.64233],[-90.68535,37.64232],[-90.6855,37.64221],[-90.68557,37.64214],[-90.68563,37.64207],[-90.68576,37.64188],[-90.68584,37.64171],[-90.68605,37.64135],[-90.68619,37.64118],[-90.68633,37.64102],[-90.68647,37.64086],[-90.68664,37.64067],[-90.68683,37.64049],[-90.68686,37.64046],[-90.68706,37.64029],[-90.6872,37.64018],[-90.68738,37.64005],[-90.68755,37.63991],[-90.68772,37.63979],[-90.68776,37.63977],[-90.68786,37.6397],[-90.68802,37.63961],[-90.68805,37.63959],[-90.68831,37.63949],[-90.68861,37.63941],[-90.68885,37.63936],[-90.68916,37.63933],[-90.68936,37.63931],[-90.68973,37.63928],[-90.69002,37.63925],[-90.69025,37.63922],[-90.69037,37.63921],[-90.69069,37.63917],[-90.69094,37.63913],[-90.69134,37.63907],[-90.69159,37.63903],[-90.69191,37.63898],[-90.69215,37.63896],[-90.69238,37.63896],[-90.69259,37.63897],[-90.69279,37.639],[-90.69307,37.63907],[-90.69337,37.63915],[-90.69356,37.6392],[-90.69372,37.63922],[-90.69387,37.63923],[-90.69403,37.63923],[-90.69416,37.63922],[-90.69433,37.63921],[-90.69453,37.63918],[-90.6947,37.63915],[-90.6949,37.63912],[-90.69505,37.6391],[-90.6952,37.63907],[-90.69532,37.63904],[-90.69543,37.639],[-90.69551,37.63897],[-90.69573,37.63885],[-90.6959,37.63875],[-90.69613,37.63861],[-90.69619,37.63857],[-90.69641,37.63843],[-90.69673,37.63824],[-90.69701,37.63807],[-90.6973,37.63792],[-90.69754,37.63781],[-90.69788,37.63769],[-90.69809,37.63762],[-90.6983,37.63755],[-90.69857,37.63744],[-90.69876,37.63733],[-90.69889,37.63725],[-90.69896,37.63721],[-90.69914,37.63708],[-90.69942,37.63688],[-90.6996,37.63675],[-90.69975,37.63665],[-90.69977,37.63661],[-90.69984,37.63655],[-90.69992,37.6365],[-90.69999,37.63645],[-90.70004,37.63642],[-90.70016,37.63635],[-90.7004,37.63623],[-90.70055,37.63616],[-90.70066,37.63612],[-90.70082,37.63607],[-90.70099,37.63603],[-90.70111,37.63601],[-90.70125,37.636],[-90.70137,37.63599],[-90.70147,37.63599],[-90.7016,37.636],[-90.70175,37.63601],[-90.70179,37.63601],[-90.70205,37.63603],[-90.70221,37.63603],[-90.70229,37.63603],[-90.70238,37.63602],[-90.70249,37.63601],[-90.70265,37.63598],[-90.70281,37.63594],[-90.70334,37.63582],[-90.70368,37.63573],[-90.70389,37.63568],[-90.70407,37.63564],[-90.70435,37.63558],[-90.70458,37.63555],[-90.70482,37.63553],[-90.70495,37.63552],[-90.7055,37.63548],[-90.70565,37.63546],[-90.70572,37.63545],[-90.706,37.63542],[-90.70631,37.63537],[-90.70653,37.63534],[-90.70662,37.63534],[-90.7067,37.63534],[-90.70679,37.63534],[-90.70685,37.63535],[-90.70699,37.63536],[-90.70774,37.63546],[-90.70777,37.63547],[-90.70794,37.63549],[-90.70854,37.63553],[-90.70879,37.63554],[-90.70915,37.63553],[-90.70944,37.6355],[-90.70975,37.63548],[-90.70998,37.63549],[-90.71019,37.63554],[-90.71022,37.63555],[-90.71043,37.63561],[-90.71044,37.63562],[-90.71065,37.63569],[-90.71082,37.63574],[-90.71101,37.6358],[-90.71123,37.63584],[-90.71146,37.63587],[-90.71164,37.63587],[-90.71174,37.63587],[-90.71177,37.63587],[-90.7119,37.63586],[-90.71205,37.63583],[-90.71219,37.63581],[-90.71258,37.63572],[-90.71276,37.63568],[-90.71304,37.63562],[-90.71342,37.63557],[-90.71351,37.63556],[-90.71363,37.63555],[-90.71374,37.63553],[-90.71384,37.63552],[-90.71399,37.63549],[-90.71422,37.63543],[-90.71432,37.63539],[-90.71451,37.63533],[-90.71466,37.63526],[-90.71487,37.63516],[-90.71501,37.63507],[-90.71523,37.63493],[-90.71531,37.63488],[-90.71539,37.63484],[-90.71544,37.63481],[-90.71552,37.63476],[-90.71561,37.63473],[-90.71572,37.63469],[-90.71584,37.63466],[-90.71601,37.63462],[-90.71701,37.63448],[-90.71739,37.63442],[-90.71769,37.63436],[-90.71829,37.6342],[-90.71876,37.63408],[-90.71886,37.63405],[-90.71908,37.634],[-90.71909,37.634],[-90.7192,37.63398],[-90.71943,37.63396],[-90.71956,37.63395],[-90.71976,37.63396],[-90.71984,37.63396],[-90.71996,37.63398],[-90.72018,37.63401],[-90.72037,37.63406],[-90.72059,37.63412],[-90.72105,37.63427],[-90.72112,37.63429],[-90.72126,37.63434],[-90.7215,37.63442],[-90.72181,37.6345],[-90.72203,37.63456],[-90.72226,37.63461],[-90.72237,37.63462],[-90.72247,37.63464],[-90.72259,37.63464],[-90.72279,37.63465],[-90.72296,37.63464],[-90.72302,37.63464],[-90.72318,37.63463],[-90.72348,37.63459],[-90.72382,37.63453],[-90.72403,37.6345],[-90.72444,37.63441],[-90.7248,37.63433],[-90.72499,37.63428],[-90.72524,37.63422],[-90.72559,37.63411],[-90.72595,37.63397],[-90.72624,37.63386],[-90.7264,37.63379],[-90.72661,37.6337],[-90.72683,37.63359],[-90.72694,37.63352],[-90.7271,37.6334],[-90.72757,37.63306],[-90.72764,37.63301],[-90.72798,37.63276],[-90.72846,37.63245],[-90.72882,37.63219],[-90.72911,37.63196],[-90.72956,37.63157],[-90.72961,37.63153],[-90.72976,37.63139],[-90.72991,37.63127],[-90.73011,37.63107],[-90.73028,37.63092],[-90.73056,37.63068],[-90.73079,37.63048],[-90.73083,37.63045],[-90.73114,37.63019],[-90.73122,37.63013],[-90.73145,37.62995],[-90.73165,37.62981],[-90.73193,37.62962],[-90.73232,37.62937],[-90.73269,37.62914],[-90.73343,37.62868],[-90.73365,37.62853],[-90.7338,37.62843],[-90.73387,37.62839],[-90.73391,37.62835],[-90.7341,37.62819],[-90.73422,37.62807],[-90.73448,37.62782],[-90.73456,37.62774],[-90.73464,37.62763],[-90.73473,37.62748],[-90.73483,37.62729],[-90.73498,37.62697],[-90.73523,37.62645],[-90.73527,37.62636],[-90.73554,37.62591],[-90.73587,37.62531],[-90.73593,37.62521],[-90.73606,37.625],[-90.73612,37.62493],[-90.73626,37.62475],[-90.73636,37.62465],[-90.73644,37.62458],[-90.73657,37.62448],[-90.73669,37.62439],[-90.73679,37.62433],[-90.73691,37.62425],[-90.73707,37.62418],[-90.73708,37.62418],[-90.73723,37.62411],[-90.73749,37.624],[-90.73788,37.62384],[-90.73885,37.62345],[-90.73923,37.62332],[-90.73938,37.62328],[-90.73969,37.6232],[-90.7399,37.62316],[-90.74026,37.62312],[-90.74064,37.62307],[-90.74084,37.62303],[-90.74118,37.62295],[-90.74147,37.62288],[-90.74184,37.62279],[-90.74218,37.6227],[-90.74256,37.6226],[-90.7429,37.62251],[-90.74323,37.62242],[-90.74353,37.62234],[-90.744,37.62221],[-90.74404,37.6222],[-90.74462,37.62203],[-90.74507,37.6219],[-90.74531,37.62183],[-90.74552,37.62175],[-90.74572,37.62167],[-90.74592,37.62157],[-90.74611,37.62147],[-90.74656,37.62124],[-90.7473,37.62086],[-90.74755,37.62073],[-90.74827,37.62037],[-90.74844,37.62028],[-90.74875,37.62011],[-90.74962,37.61966],[-90.74999,37.61947],[-90.75044,37.61924],[-90.75059,37.61917],[-90.75077,37.61907],[-90.75098,37.61896],[-90.75112,37.61888],[-90.75127,37.61878],[-90.75135,37.61872],[-90.7515,37.6186],[-90.75175,37.6184],[-90.752,37.61819],[-90.75205,37.61814],[-90.7522,37.61802],[-90.75231,37.61792],[-90.75242,37.61783],[-90.75256,37.61773],[-90.7527,37.61764],[-90.75295,37.61752],[-90.75312,37.61745],[-90.7533,37.61738],[-90.75348,37.61733],[-90.75371,37.61729],[-90.75388,37.61726],[-90.75413,37.61724],[-90.75434,37.61722],[-90.75497,37.61716],[-90.75547,37.61712],[-90.75583,37.61709],[-90.7564,37.61704],[-90.7569,37.617],[-90.75708,37.61698],[-90.75726,37.61696],[-90.75746,37.61692],[-90.75759,37.61689],[-90.7577,37.61686],[-90.75786,37.6168],[-90.75801,37.61676],[-90.75869,37.61649],[-90.75931,37.61623],[-90.75942,37.61618],[-90.75959,37.61611],[-90.75978,37.61605],[-90.75993,37.616],[-90.76007,37.61598],[-90.7602,37.61595],[-90.7603,37.61594],[-90.76045,37.61592],[-90.76059,37.61591],[-90.76093,37.6159],[-90.76111,37.61589],[-90.76128,37.61588],[-90.76142,37.61587],[-90.76152,37.61586],[-90.76166,37.61584],[-90.76177,37.61582],[-90.76185,37.6158],[-90.76218,37.61572],[-90.76257,37.61561],[-90.7633,37.6154],[-90.76445,37.61509],[-90.76471,37.61502],[-90.76496,37.61495],[-90.76509,37.61491],[-90.76519,37.61487],[-90.76535,37.61482],[-90.76578,37.61466],[-90.76605,37.61457],[-90.76628,37.61451],[-90.7664,37.61449],[-90.7665,37.61448],[-90.76687,37.61445],[-90.76728,37.61442],[-90.76745,37.61441],[-90.76758,37.6144],[-90.76771,37.61439],[-90.76778,37.61437],[-90.76786,37.61436],[-90.76795,37.61434],[-90.76812,37.61429],[-90.76822,37.61425],[-90.76832,37.6142],[-90.76844,37.61414],[-90.76872,37.61398],[-90.76913,37.61371],[-90.76966,37.61336],[-90.76982,37.61326],[-90.77001,37.61314],[-90.77016,37.61304],[-90.77031,37.61296],[-90.77045,37.61288],[-90.77063,37.61279],[-90.77085,37.61271],[-90.77107,37.61263],[-90.7713,37.61256],[-90.77167,37.61247],[-90.77226,37.61233],[-90.77245,37.61228],[-90.77265,37.61223],[-90.77282,37.61219],[-90.77302,37.61213],[-90.77315,37.61209],[-90.77332,37.61203],[-90.77347,37.61197],[-90.77359,37.61191],[-90.77374,37.61183],[-90.77386,37.61177],[-90.77394,37.61172],[-90.77402,37.61167],[-90.77421,37.61155],[-90.77461,37.61129],[-90.77493,37.61105],[-90.77519,37.61088],[-90.77531,37.6108],[-90.77569,37.61053],[-90.77618,37.61019],[-90.77719,37.60948],[-90.77832,37.60869],[-90.77868,37.60845],[-90.77908,37.60817],[-90.77937,37.60796],[-90.77958,37.60782],[-90.77974,37.60773],[-90.77989,37.60765],[-90.78019,37.6075],[-90.78027,37.60747],[-90.78056,37.60734],[-90.78252,37.60652],[-90.78349,37.60611],[-90.7848,37.60558],[-90.78491,37.60553],[-90.78511,37.60544],[-90.78564,37.60522],[-90.7857,37.60519],[-90.78601,37.60507],[-90.78652,37.60486],[-90.78684,37.60472],[-90.78878,37.60391],[-90.78886,37.60387],[-90.78918,37.60374],[-90.78939,37.60365],[-90.7896,37.60356],[-90.78976,37.60348],[-90.78987,37.60341],[-90.78998,37.60334],[-90.79014,37.60323],[-90.79033,37.60307],[-90.7904,37.603],[-90.79048,37.60291],[-90.79056,37.60282],[-90.79065,37.60271],[-90.79073,37.60259],[-90.79088,37.60235],[-90.79095,37.60223],[-90.79101,37.60212],[-90.79115,37.60188],[-90.79126,37.6017],[-90.79138,37.60155],[-90.79145,37.60144],[-90.79156,37.60129],[-90.79168,37.60114],[-90.79178,37.60105],[-90.79189,37.60093],[-90.79199,37.60084],[-90.79211,37.60074],[-90.79225,37.60064],[-90.79253,37.60046],[-90.79264,37.6004],[-90.79313,37.60012],[-90.79365,37.59981],[-90.79395,37.59964],[-90.79409,37.59955],[-90.79422,37.59946],[-90.7943,37.5994],[-90.79455,37.59922],[-90.79468,37.59913],[-90.79486,37.59899],[-90.7963,37.59786],[-90.79633,37.59784],[-90.79662,37.59759],[-90.79667,37.59753],[-90.79679,37.59738],[-90.79685,37.59729],[-90.7969,37.5972],[-90.79695,37.5971],[-90.79701,37.5969],[-90.79703,37.59681],[-90.79705,37.59659],[-90.79708,37.59622],[-90.7971,37.59555],[-90.7971,37.59551],[-90.79711,37.59536],[-90.79714,37.59518],[-90.79716,37.59508],[-90.79719,37.59499],[-90.79724,37.59488],[-90.79729,37.5948],[-90.79734,37.59471],[-90.7974,37.59463],[-90.79748,37.59455],[-90.79756,37.59447],[-90.79763,37.59441],[-90.79772,37.59435],[-90.79782,37.59429],[-90.79798,37.59422],[-90.79809,37.59418],[-90.79843,37.59406],[-90.79883,37.59394],[-90.79903,37.59388],[-90.79924,37.59381],[-90.79953,37.5937],[-90.79963,37.59366],[-90.79972,37.59361],[-90.79987,37.59352],[-90.8,37.59343],[-90.8001,37.59334],[-90.80018,37.59326],[-90.80027,37.59316],[-90.80035,37.59304],[-90.80036,37.59303],[-90.80045,37.59288],[-90.80053,37.5927],[-90.80067,37.59237],[-90.80092,37.59178],[-90.80112,37.59129],[-90.80119,37.59117],[-90.80129,37.59101],[-90.80132,37.59097],[-90.80139,37.59089],[-90.80143,37.59085],[-90.80151,37.59078],[-90.80159,37.59071],[-90.80177,37.59059],[-90.80199,37.59046],[-90.80229,37.5903],[-90.8026,37.59014],[-90.80273,37.59007],[-90.80301,37.58992],[-90.80335,37.58973],[-90.8036,37.58959],[-90.80391,37.58939],[-90.8041,37.58926],[-90.80437,37.58903],[-90.8046,37.5888],[-90.80477,37.58862],[-90.80486,37.58851],[-90.80495,37.58839],[-90.80506,37.58823],[-90.8051,37.58814],[-90.80516,37.58801],[-90.8052,37.58792],[-90.80521,37.58789],[-90.80525,37.58773],[-90.80526,37.5877],[-90.80527,37.58761],[-90.80528,37.58753],[-90.80529,37.58743],[-90.8053,37.58733],[-90.80531,37.58709],[-90.80545,37.58475],[-90.8055,37.58384],[-90.80551,37.58371],[-90.80554,37.58333],[-90.80565,37.58298],[-90.80573,37.5828],[-90.80577,37.58271],[-90.80586,37.58257],[-90.80593,37.58246],[-90.80607,37.58229],[-90.80614,37.5822],[-90.80626,37.58209],[-90.80636,37.58199],[-90.80649,37.58188],[-90.80661,37.58179],[-90.80681,37.58167],[-90.80694,37.58159],[-90.80706,37.58152],[-90.80723,37.58145],[-90.80767,37.58128],[-90.80797,37.58118],[-90.8084,37.58104],[-90.8087,37.58094],[-90.80874,37.58093],[-90.81033,37.5804],[-90.81049,37.58035],[-90.81087,37.58022],[-90.81124,37.5801],[-90.81251,37.57968],[-90.81317,37.57947],[-90.81364,37.57932],[-90.81433,37.5791],[-90.81472,37.57897],[-90.81524,37.57879],[-90.81545,37.57871],[-90.8157,37.57859],[-90.81585,37.57851],[-90.81595,37.57845],[-90.81609,37.57836],[-90.81619,37.57829],[-90.81632,37.57818],[-90.81642,37.57809],[-90.81674,37.57777],[-90.81678,37.57772],[-90.81719,37.5773],[-90.81742,37.57708],[-90.8178,37.57674],[-90.81808,37.57651],[-90.8183,37.57632],[-90.81916,37.57562],[-90.81983,37.57506],[-90.82035,37.57464],[-90.82129,37.57387],[-90.82217,37.57315],[-90.82451,37.57122],[-90.82511,37.57073],[-90.82581,37.57013],[-90.82591,37.57003],[-90.82599,37.56994],[-90.82609,37.56984],[-90.82619,37.56973],[-90.82632,37.56956],[-90.82641,37.56943],[-90.82662,37.56915],[-90.82677,37.56891],[-90.82692,37.5687],[-90.82725,37.5682],[-90.82749,37.56786],[-90.82753,37.5678],[-90.82792,37.56735],[-90.82812,37.56715],[-90.82819,37.56708],[-90.82825,37.56703],[-90.82833,37.56696],[-90.8285,37.56682],[-90.82876,37.56662],[-90.82887,37.56653],[-90.82941,37.56614],[-90.82982,37.56586],[-90.82998,37.56576],[-90.83023,37.56558],[-90.83048,37.5654],[-90.83097,37.56506],[-90.83122,37.56489],[-90.83144,37.56473],[-90.83169,37.56455],[-90.83181,37.56447],[-90.83187,37.56442],[-90.83225,37.56415],[-90.83293,37.56371],[-90.83401,37.56302],[-90.8343,37.56284],[-90.83434,37.56281],[-90.83459,37.56265],[-90.83482,37.5625],[-90.83498,37.56237],[-90.83523,37.56214],[-90.83552,37.56186],[-90.83568,37.5617],[-90.8358,37.56158],[-90.83585,37.56153],[-90.83609,37.56128],[-90.83637,37.561],[-90.8367,37.56066],[-90.83696,37.56039],[-90.83709,37.56025],[-90.83714,37.56019],[-90.83724,37.56006],[-90.83731,37.55997],[-90.83748,37.55973],[-90.83762,37.55952],[-90.83781,37.55923],[-90.83806,37.55886],[-90.83836,37.5584],[-90.83848,37.55822],[-90.83864,37.55798],[-90.83887,37.55764],[-90.8389,37.55759],[-90.83904,37.55737],[-90.83939,37.55682],[-90.83958,37.55655],[-90.83971,37.55636],[-90.83993,37.55604],[-90.84007,37.55583],[-90.84035,37.5554],[-90.84056,37.55507],[-90.84085,37.55465],[-90.84095,37.5545],[-90.841,37.55442],[-90.84106,37.55434],[-90.84114,37.55421],[-90.8414,37.55382],[-90.84152,37.55367],[-90.84172,37.55342],[-90.84203,37.55306],[-90.8421,37.55298],[-90.8423,37.55273],[-90.84237,37.55265],[-90.84248,37.55254],[-90.84264,37.55239],[-90.84283,37.55223],[-90.84297,37.55212],[-90.84312,37.55198],[-90.84335,37.55181],[-90.84344,37.55173],[-90.84354,37.55166],[-90.84373,37.55153],[-90.84378,37.55149],[-90.84388,37.55142],[-90.84411,37.55127],[-90.8443,37.55115],[-90.8445,37.55103],[-90.84489,37.55081],[-90.84506,37.55072],[-90.84534,37.55058],[-90.84554,37.55049],[-90.84602,37.55028],[-90.84614,37.55023],[-90.84615,37.55022],[-90.84657,37.55007],[-90.84667,37.55003],[-90.84743,37.54979],[-90.84871,37.54941],[-90.85027,37.54894],[-90.85151,37.54856],[-90.85151,37.54856],[-90.85154,37.54884],[-90.85154,37.54955],[-90.85154,37.54961],[-90.85153,37.55022],[-90.85154,37.55041],[-90.85153,37.55092],[-90.85153,37.5511],[-90.85153,37.55116],[-90.85153,37.55128],[-90.85153,37.5513],[-90.85153,37.55146],[-90.85153,37.55182],[-90.85153,37.55192],[-90.85152,37.55216],[-90.85152,37.55236],[-90.85152,37.55262],[-90.85152,37.5529],[-90.85152,37.55307],[-90.85152,37.55332],[-90.85152,37.55354],[-90.85151,37.55398],[-90.85151,37.55407],[-90.85152,37.55434],[-90.85152,37.55453],[-90.85152,37.55471],[-90.85154,37.55497],[-90.85155,37.55506],[-90.85158,37.55524],[-90.85159,37.5553],[-90.8516,37.55541],[-90.85161,37.55559],[-90.85163,37.55585],[-90.85166,37.55609],[-90.85167,37.55619],[-90.85172,37.55649],[-90.85176,37.55679],[-90.85178,37.557],[-90.85179,37.5572],[-90.85179,37.55721],[-90.85179,37.55739],[-90.85179,37.55741],[-90.85174,37.55771],[-90.85174,37.55774],[-90.8517,37.55804],[-90.85169,37.5581],[-90.85169,37.55811],[-90.85163,37.55841],[-90.8516,37.55855],[-90.85158,37.55864],[-90.85155,37.55881],[-90.85155,37.55881],[-90.85183,37.55885],[-90.85204,37.55887],[-90.85216,37.55889],[-90.85222,37.5589],[-90.85225,37.55891],[-90.85233,37.55892],[-90.85243,37.55894],[-90.85245,37.55894],[-90.85252,37.55895],[-90.85261,37.55895],[-90.85264,37.55895],[-90.85267,37.55895],[-90.85288,37.55894],[-90.8529,37.55894],[-90.85306,37.55894],[-90.85308,37.55894],[-90.85315,37.55894],[-90.8532,37.55897],[-90.8532,37.55897],[-90.85324,37.55898],[-90.85328,37.55904],[-90.8533,37.55906],[-90.85334,37.55916],[-90.85334,37.55917],[-90.85336,37.55922],[-90.85337,37.55929],[-90.85339,37.55953],[-90.85341,37.55974],[-90.85345,37.55989],[-90.85349,37.55989],[-90.85357,37.55988],[-90.85365,37.55988],[-90.85373,37.55988],[-90.85381,37.55988],[-90.85387,37.55988],[-90.85403,37.55989],[-90.85419,37.55992],[-90.85433,37.55995],[-90.85449,37.56001],[-90.85463,37.56005],[-90.85477,37.56009],[-90.85487,37.56011],[-90.85488,37.56011],[-90.85505,37.56013],[-90.85555,37.56018],[-90.85587,37.56021],[-90.85614,37.56023],[-90.85624,37.56024],[-90.85634,37.56025],[-90.85634,37.56026],[-90.8566,37.56029],[-90.8568,37.56034],[-90.85684,37.56035],[-90.85708,37.56041],[-90.85722,37.56046],[-90.85723,37.56046],[-90.85739,37.56053],[-90.85743,37.56054],[-90.85752,37.56058],[-90.85762,37.56063],[-90.85763,37.56063],[-90.85778,37.56071],[-90.85781,37.56073],[-90.8579,37.56078],[-90.85803,37.56086],[-90.85818,37.56094],[-90.85823,37.561],[-90.85826,37.56103],[-90.85828,37.56106],[-90.85832,37.56114],[-90.85832,37.56114],[-90.85832,37.56115],[-90.85832,37.56116],[-90.85832,37.56117],[-90.85832,37.56118],[-90.85832,37.56119],[-90.85833,37.56119],[-90.85833,37.5612],[-90.85834,37.5612],[-90.85834,37.56121],[-90.85835,37.56121],[-90.85835,37.56122],[-90.85836,37.56122],[-90.85837,37.56123],[-90.85838,37.56123],[-90.85839,37.56124],[-90.8584,37.56124],[-90.85841,37.56125],[-90.85842,37.56125],[-90.85843,37.56125],[-90.85844,37.56126],[-90.85845,37.56126],[-90.85846,37.56126],[-90.85847,37.56126],[-90.85856,37.5613],[-90.85859,37.56132],[-90.85862,37.56133],[-90.85868,37.56138],[-90.8589,37.56181],[-90.85895,37.56191],[-90.859,37.56198],[-90.85905,37.56204],[-90.85905,37.56205],[-90.85911,37.56209],[-90.85917,37.56212],[-90.85924,37.56216],[-90.85933,37.56219],[-90.85944,37.56221],[-90.85956,37.56222],[-90.85963,37.56222],[-90.85971,37.56222],[-90.85981,37.5622],[-90.85997,37.56217],[-90.8601,37.56215],[-90.86023,37.56214],[-90.86035,37.56212],[-90.86046,37.56212],[-90.86058,37.56212],[-90.86075,37.56212],[-90.86095,37.56213],[-90.86118,37.56214],[-90.86122,37.56215],[-90.86133,37.56215],[-90.86147,37.56216],[-90.86161,37.56214],[-90.86172,37.56213],[-90.86183,37.5621],[-90.86194,37.56205],[-90.86205,37.56201],[-90.8622,37.56193],[-90.86239,37.56183],[-90.86253,37.56177],[-90.86271,37.56169],[-90.86291,37.56162],[-90.86312,37.56158],[-90.86328,37.56156],[-90.86341,37.56156],[-90.86353,37.56156],[-90.86373,37.56158],[-90.86385,37.5616],[-90.86405,37.56163],[-90.86425,37.56166],[-90.86435,37.56168],[-90.86446,37.56167],[-90.86456,37.56166],[-90.86456,37.56166],[-90.86456,37.56167],[-90.86458,37.56171],[-90.86462,37.56176],[-90.86467,37.56179],[-90.86469,37.5618]]}}]}