{"type":"FeatureCollection","features":[{"type":"Feature","properties":{"_gpxType":"trk","name":"Unnamed Road - Ellington, MO 63638","coordinateProperties":{},"id":37},"geometry":{"type":"LineString","coordinates":[[-90.87008,37.55938],[-90.87007,37.55936],[-90.87007,37.55931],[-90.87008,37.55925],[-90.87008,37.55921],[-90.87008,37.55918],[-90.87006,37.55914],[-90.87004,37.55909],[-90.87001,37.55906],[-90.86998,37.55904],[-90.86993,37.55901],[-90.86986,37.55899],[-90.86977,37.55897],[-90.86966,37.55897],[-90.86952,37.55898],[-90.8694,37.559],[-90.86926,37.55903],[-90.86925,37.55904],[-90.86895,37.5591],[-90.86874,37.55915],[-90.86857,37.55921],[-90.86845,37.55927],[-90.86837,37.55931],[-90.8682,37.55939],[-90.86805,37.55946],[-90.86786,37.55952],[-90.8678,37.55954],[-90.86766,37.55958],[-90.86751,37.55961],[-90.86729,37.55966],[-90.86706,37.55969],[-90.86684,37.55972],[-90.8667,37.55976],[-90.86662,37.55978],[-90.86628,37.55989],[-90.86618,37.55992],[-90.86602,37.55998],[-90.86592,37.56004],[-90.86579,37.56013],[-90.86564,37.56027],[-90.86553,37.56043],[-90.8655,37.5605],[-90.8655,37.5605],[-90.86549,37.56049],[-90.86547,37.56049],[-90.86544,37.56049],[-90.86542,37.5605],[-90.86539,37.56051],[-90.86537,37.56053],[-90.86535,37.56055],[-90.86534,37.56057],[-90.86534,37.56058],[-90.86534,37.5606],[-90.86534,37.56063],[-90.86535,37.56065],[-90.86536,37.56067],[-90.86538,37.56069],[-90.86542,37.5607],[-90.86543,37.5607],[-90.86539,37.56087],[-90.86533,37.56105],[-90.86529,37.56117],[-90.86524,37.56128],[-90.86519,37.56134],[-90.86513,37.56139],[-90.86512,37.56141],[-90.86503,37.56149],[-90.86494,37.56154],[-90.86485,37.56158],[-90.86475,37.56162],[-90.86468,37.56164],[-90.86457,37.56166],[-90.86456,37.56166],[-90.86446,37.56167],[-90.86435,37.56168],[-90.86425,37.56166],[-90.86405,37.56163],[-90.86385,37.5616],[-90.86373,37.56158],[-90.86353,37.56156],[-90.86341,37.56156],[-90.86328,37.56156],[-90.86312,37.56158],[-90.86291,37.56162],[-90.86271,37.56169],[-90.86253,37.56177],[-90.86239,37.56183],[-90.8622,37.56193],[-90.86205,37.56201],[-90.86194,37.56205],[-90.86183,37.5621],[-90.86172,37.56213],[-90.86161,37.56214],[-90.86147,37.56216],[-90.86133,37.56215],[-90.86122,37.56215],[-90.86118,37.56214],[-90.86095,37.56213],[-90.86075,37.56212],[-90.86058,37.56212],[-90.86046,37.56212],[-90.86035,37.56212],[-90.86023,37.56214],[-90.8601,37.56215],[-90.85997,37.56217],[-90.85981,37.5622],[-90.85971,37.56222],[-90.85963,37.56222],[-90.85956,37.56222],[-90.85944,37.56221],[-90.85933,37.56219],[-90.85924,37.56216],[-90.85917,37.56212],[-90.85911,37.56209],[-90.85905,37.56205],[-90.85905,37.56204],[-90.859,37.56198],[-90.85895,37.56191],[-90.8589,37.56181],[-90.85868,37.56138],[-90.85867,37.56132],[-90.85865,37.56129],[-90.85864,37.56126],[-90.85862,37.56123],[-90.85859,37.56119],[-90.85859,37.56119],[-90.85859,37.56118],[-90.8586,37.56118],[-90.8586,37.56117],[-90.8586,37.56116],[-90.8586,37.56115],[-90.8586,37.56114],[-90.8586,37.56113],[-90.8586,37.56112],[-90.8586,37.56111],[-90.85859,37.56111],[-90.85859,37.5611],[-90.85859,37.56109],[-90.85858,37.56109],[-90.85857,37.56108],[-90.85856,37.56107],[-90.85855,37.56106],[-90.85854,37.56106],[-90.85854,37.56105],[-90.85853,37.56105],[-90.85852,37.56105],[-90.85851,37.56104],[-90.8585,37.56104],[-90.85849,37.56104],[-90.85848,37.56104],[-90.85847,37.56104],[-90.85846,37.56104],[-90.85845,37.56104],[-90.85844,37.56104],[-90.85843,37.56104],[-90.85842,37.56104],[-90.85837,37.56101],[-90.85833,37.56099],[-90.85829,37.56098],[-90.85818,37.56094],[-90.85803,37.56086],[-90.8579,37.56078],[-90.85781,37.56073],[-90.85778,37.56071],[-90.85763,37.56063],[-90.85762,37.56063],[-90.85752,37.56058],[-90.85743,37.56054],[-90.85739,37.56053],[-90.85723,37.56046],[-90.85722,37.56046],[-90.85708,37.56041],[-90.85684,37.56035],[-90.8568,37.56034],[-90.8566,37.56029],[-90.85634,37.56026],[-90.85634,37.56025],[-90.85634,37.56025],[-90.85624,37.56024],[-90.85614,37.56023],[-90.85587,37.56021],[-90.85555,37.56018],[-90.85505,37.56013],[-90.85488,37.56011],[-90.85487,37.56011],[-90.85477,37.56009],[-90.85463,37.56005],[-90.85449,37.56001],[-90.85433,37.55995],[-90.85425,37.5599],[-90.85407,37.55985],[-90.85393,37.5598],[-90.85386,37.55979],[-90.85379,37.55977],[-90.85366,37.55975],[-90.85349,37.55974],[-90.85341,37.55974],[-90.85336,37.55974],[-90.85323,37.55976],[-90.85308,37.5598],[-90.8528,37.55989],[-90.8525,37.56003],[-90.85241,37.56006],[-90.85237,37.56007],[-90.85217,37.56011],[-90.85151,37.56009],[-90.85149,37.5601],[-90.85139,37.56012],[-90.85139,37.56012],[-90.85142,37.5598],[-90.85142,37.55976],[-90.85145,37.55951],[-90.85146,37.55937],[-90.85149,37.55914],[-90.85151,37.55904],[-90.85155,37.55881],[-90.85158,37.55864],[-90.8516,37.55855],[-90.85163,37.55841],[-90.85169,37.55811],[-90.85169,37.5581],[-90.8517,37.55804],[-90.85174,37.55774],[-90.85174,37.55771],[-90.85179,37.55741],[-90.85179,37.55739],[-90.85179,37.55721],[-90.85179,37.5572],[-90.85178,37.557],[-90.85176,37.55679],[-90.85172,37.55649],[-90.85167,37.55619],[-90.85166,37.55609],[-90.85163,37.55585],[-90.85161,37.55559],[-90.8516,37.55541],[-90.85159,37.5553],[-90.85158,37.55524],[-90.85155,37.55506],[-90.85154,37.55497],[-90.85152,37.55471],[-90.85152,37.55453],[-90.85152,37.55434],[-90.85151,37.55407],[-90.85151,37.55398],[-90.85152,37.55354],[-90.85152,37.55332],[-90.85152,37.55307],[-90.85152,37.5529],[-90.85152,37.55262],[-90.85152,37.55236],[-90.85152,37.55216],[-90.85153,37.55192],[-90.85153,37.55182],[-90.85153,37.55146],[-90.85153,37.5513],[-90.85153,37.55128],[-90.85153,37.55116],[-90.85153,37.5511],[-90.85153,37.55092],[-90.85154,37.55041],[-90.85153,37.55022],[-90.85154,37.54961],[-90.85154,37.54955],[-90.85154,37.54884],[-90.85151,37.54856],[-90.85151,37.54856],[-90.85208,37.54836],[-90.85237,37.54824],[-90.85298,37.54798],[-90.85317,37.54789],[-90.85376,37.54761],[-90.85388,37.54755],[-90.8542,37.54737],[-90.85447,37.54721],[-90.85456,37.54716],[-90.85471,37.54706],[-90.85489,37.54693],[-90.85533,37.54662],[-90.85564,37.54639],[-90.85594,37.54615],[-90.85609,37.54601],[-90.85637,37.54577],[-90.85656,37.54558],[-90.85692,37.5452],[-90.85716,37.54492],[-90.85728,37.54478],[-90.8574,37.54463],[-90.8578,37.54406],[-90.85795,37.54383],[-90.85798,37.54377],[-90.85836,37.54312],[-90.85856,37.54279],[-90.85894,37.54214],[-90.85917,37.54176],[-90.85944,37.5413],[-90.85967,37.54091],[-90.85976,37.54075],[-90.86008,37.54019],[-90.86023,37.53993],[-90.86038,37.53968],[-90.86052,37.53944],[-90.8608,37.53895],[-90.86088,37.53881],[-90.86129,37.53814],[-90.86166,37.53748],[-90.86167,37.53746],[-90.8618,37.53724],[-90.86191,37.53703],[-90.86197,37.53689],[-90.86201,37.53679],[-90.86206,37.53664],[-90.86207,37.53662],[-90.86212,37.53641],[-90.86216,37.53621],[-90.86219,37.53604],[-90.8622,37.53593],[-90.86221,37.53588],[-90.86221,37.53575],[-90.86222,37.53557],[-90.86221,37.53543],[-90.86219,37.53531],[-90.86218,37.53519],[-90.86216,37.5351],[-90.86214,37.53498],[-90.8621,37.53481],[-90.86205,37.53467],[-90.86198,37.53448],[-90.86189,37.5343],[-90.86177,37.53404],[-90.86175,37.53401],[-90.86167,37.53384],[-90.86132,37.53318],[-90.86132,37.53317],[-90.86119,37.53292],[-90.86094,37.53247],[-90.86089,37.53235],[-90.86088,37.53234],[-90.86074,37.53205],[-90.86038,37.53137],[-90.86037,37.53135],[-90.86037,37.53134],[-90.86002,37.53066],[-90.85943,37.52954],[-90.85883,37.52838],[-90.85855,37.52785],[-90.85847,37.52769],[-90.85839,37.52755],[-90.85777,37.52636],[-90.85752,37.52588],[-90.85752,37.52586],[-90.85744,37.52569],[-90.85737,37.52553],[-90.85726,37.52527],[-90.85715,37.52501],[-90.85709,37.52484],[-90.85684,37.52414],[-90.85678,37.52397],[-90.85678,37.52396],[-90.85672,37.52376],[-90.85668,37.52357],[-90.85665,37.52336],[-90.85664,37.52321],[-90.85665,37.52299],[-90.85667,37.52286],[-90.8567,37.52274],[-90.85672,37.52267],[-90.85683,37.52238],[-90.85693,37.52221],[-90.85711,37.52193],[-90.85713,37.5219],[-90.85741,37.52151],[-90.85784,37.52091],[-90.8584,37.52012],[-90.85854,37.51992],[-90.85867,37.51975],[-90.85876,37.51964],[-90.85896,37.51945],[-90.85913,37.51931],[-90.85926,37.51922],[-90.85937,37.51915],[-90.85948,37.51909],[-90.85965,37.51899],[-90.85973,37.51896],[-90.85994,37.51886],[-90.86012,37.51879],[-90.86037,37.51869],[-90.86131,37.51832],[-90.86273,37.51776],[-90.86295,37.51767],[-90.86355,37.51744],[-90.86387,37.51731],[-90.86394,37.51727],[-90.86405,37.51721],[-90.86431,37.51707],[-90.86444,37.51698],[-90.8647,37.5168],[-90.86489,37.51666],[-90.86522,37.51641],[-90.86583,37.51594],[-90.86617,37.51566],[-90.86639,37.5155],[-90.86675,37.51522],[-90.86706,37.51498],[-90.86766,37.51451],[-90.8679,37.51432],[-90.86835,37.51398],[-90.86873,37.51368],[-90.86971,37.51294],[-90.86987,37.51281],[-90.86997,37.51274],[-90.87045,37.51235],[-90.87066,37.51217],[-90.87075,37.51209],[-90.87081,37.51203],[-90.87091,37.51193],[-90.8711,37.51171],[-90.87126,37.51152],[-90.87133,37.51144],[-90.87144,37.5113],[-90.87144,37.51129],[-90.87151,37.51119],[-90.87193,37.51061],[-90.87226,37.51016],[-90.87246,37.50988],[-90.87257,37.50973],[-90.87264,37.50963],[-90.87291,37.50926],[-90.873,37.50912],[-90.87302,37.5091],[-90.87336,37.50863],[-90.87347,37.50848],[-90.87374,37.5081],[-90.87381,37.50801],[-90.87392,37.50786],[-90.87428,37.50735],[-90.87462,37.50688],[-90.87464,37.50687],[-90.87496,37.50641],[-90.87511,37.5062],[-90.87528,37.50596],[-90.87576,37.50531],[-90.87597,37.50501],[-90.87639,37.50444],[-90.87675,37.50391],[-90.8768,37.50384],[-90.87693,37.50364],[-90.877,37.50351],[-90.87715,37.50319],[-90.87722,37.50303],[-90.87733,37.50273],[-90.87737,37.5026],[-90.87744,37.50231],[-90.87748,37.50215],[-90.87751,37.50189],[-90.87753,37.50176],[-90.87753,37.50168],[-90.87754,37.50132],[-90.87754,37.50098],[-90.87754,37.50065],[-90.87754,37.50008],[-90.87754,37.49975],[-90.87754,37.49936],[-90.87755,37.49916],[-90.87757,37.49893],[-90.87757,37.49892],[-90.87761,37.49871],[-90.87765,37.49849],[-90.8777,37.49831],[-90.87775,37.49812],[-90.87784,37.49786],[-90.87791,37.49769],[-90.87798,37.49753],[-90.87822,37.49691],[-90.87841,37.49644],[-90.87852,37.49623],[-90.87864,37.496],[-90.87867,37.49593],[-90.87876,37.49579],[-90.87884,37.49568],[-90.87897,37.49552],[-90.87908,37.49539],[-90.87918,37.49529],[-90.87933,37.49515],[-90.87939,37.4951],[-90.8795,37.49501],[-90.8797,37.49487],[-90.87984,37.49479],[-90.88016,37.49461],[-90.8804,37.49449],[-90.88067,37.49437],[-90.88093,37.49424],[-90.88124,37.49408],[-90.88133,37.49403],[-90.88154,37.49391],[-90.88163,37.49385],[-90.88176,37.49375],[-90.88191,37.49362],[-90.88198,37.49354],[-90.88206,37.49346],[-90.88219,37.49328],[-90.88231,37.49309],[-90.88241,37.49288],[-90.88247,37.49272],[-90.88251,37.49258],[-90.88256,37.49226],[-90.88266,37.49171],[-90.88274,37.49119],[-90.88285,37.49047],[-90.88286,37.49038],[-90.88288,37.4903],[-90.88289,37.49026],[-90.88293,37.49012],[-90.88295,37.49003],[-90.88302,37.48984],[-90.88308,37.48972],[-90.88317,37.48952],[-90.88322,37.48943],[-90.88336,37.4892],[-90.88342,37.48912],[-90.88351,37.489],[-90.88364,37.48883],[-90.88374,37.48872],[-90.88383,37.48863],[-90.88406,37.4884],[-90.88412,37.48835],[-90.88427,37.48822],[-90.88455,37.488],[-90.88482,37.48781],[-90.88532,37.48744],[-90.88539,37.48738],[-90.88555,37.48726],[-90.88568,37.48716],[-90.8859,37.48696],[-90.88595,37.48691],[-90.88611,37.48674],[-90.88618,37.48665],[-90.88624,37.48657],[-90.88636,37.48642],[-90.88643,37.48632],[-90.88652,37.48615],[-90.88658,37.48605],[-90.88668,37.48587],[-90.88674,37.48573],[-90.8868,37.48557],[-90.8869,37.48529],[-90.88691,37.48524],[-90.88706,37.48475],[-90.88719,37.48438],[-90.8873,37.48404],[-90.88767,37.48289],[-90.88784,37.48236],[-90.88798,37.48191],[-90.88805,37.48171],[-90.88821,37.48128],[-90.88828,37.48111],[-90.88834,37.48099],[-90.88841,37.48087],[-90.8885,37.4807],[-90.88854,37.48062],[-90.88861,37.4805],[-90.88863,37.48046],[-90.88872,37.48029],[-90.88879,37.48018],[-90.88893,37.47994],[-90.88904,37.47974],[-90.88939,37.47915],[-90.88954,37.47901],[-90.88959,37.47897],[-90.88964,37.47894],[-90.88981,37.47884],[-90.88992,37.47877],[-90.89003,37.47872],[-90.8901,37.47869],[-90.89015,37.47867],[-90.89026,37.47863],[-90.89037,37.4786],[-90.89044,37.47858],[-90.89059,37.47856],[-90.89071,37.47855],[-90.89073,37.47854],[-90.89086,37.47853],[-90.89096,37.47853],[-90.891,37.47853],[-90.89109,37.47854],[-90.89119,37.47854],[-90.89129,37.47855],[-90.89138,37.47857],[-90.89141,37.47857],[-90.89148,37.47859],[-90.89155,37.47861],[-90.89164,37.47864],[-90.89174,37.47868],[-90.89176,37.47868],[-90.89178,37.47868],[-90.89179,37.47868],[-90.8918,37.47868],[-90.89182,37.47868],[-90.89183,37.47867],[-90.89183,37.47867],[-90.89235,37.47901],[-90.89253,37.47913],[-90.89258,37.47916],[-90.89306,37.47947],[-90.89311,37.4795],[-90.8937,37.47989],[-90.89405,37.48013],[-90.89434,37.48031],[-90.89446,37.48038],[-90.89458,37.48047],[-90.89484,37.48063],[-90.89506,37.48077],[-90.89526,37.4809],[-90.89534,37.48095],[-90.89546,37.48102],[-90.89563,37.48112],[-90.89585,37.48122],[-90.89594,37.48126],[-90.89605,37.4813],[-90.89614,37.48134],[-90.89625,37.48138],[-90.89637,37.48141],[-90.89649,37.48146],[-90.89667,37.4815],[-90.89676,37.48152],[-90.89685,37.48154],[-90.89702,37.48157],[-90.89712,37.48158],[-90.89721,37.4816],[-90.89738,37.48162],[-90.89748,37.48162],[-90.89758,37.48162],[-90.8977,37.48163],[-90.89781,37.48163],[-90.89801,37.48162],[-90.89811,37.48162],[-90.89818,37.48161],[-90.89835,37.4816],[-90.89843,37.48159],[-90.89852,37.48157],[-90.89875,37.48153],[-90.8989,37.4815],[-90.89897,37.48148],[-90.89906,37.48146],[-90.89909,37.48145],[-90.89914,37.48143],[-90.89921,37.48141],[-90.89928,37.48139],[-90.8994,37.48134],[-90.89953,37.48129],[-90.89958,37.48127],[-90.89966,37.48124],[-90.89972,37.48121],[-90.89979,37.48118],[-90.89991,37.48113],[-90.90006,37.48105],[-90.90034,37.48091],[-90.90072,37.48071],[-90.90114,37.48048],[-90.90124,37.48043],[-90.90203,37.48002],[-90.90296,37.47954],[-90.90336,37.47932],[-90.90397,37.47902],[-90.90437,37.47882],[-90.90554,37.47821],[-90.90559,37.47818],[-90.90573,37.47811],[-90.90587,37.47803],[-90.90607,37.47792],[-90.90669,37.47757],[-90.9068,37.47751],[-90.90712,37.47732],[-90.90737,37.47717],[-90.90774,37.47694],[-90.90846,37.47651],[-90.90882,37.47629],[-90.909,37.47618],[-90.90918,37.47607],[-90.90939,37.47595],[-90.91,37.47558],[-90.91057,37.47524],[-90.91079,37.47511],[-90.91112,37.47491],[-90.91166,37.47458],[-90.91186,37.47445],[-90.91222,37.47424],[-90.9124,37.47413],[-90.91298,37.47378],[-90.91312,37.47369],[-90.91409,37.47311],[-90.91445,37.4729],[-90.91464,37.47279],[-90.91472,37.47274],[-90.91482,37.47268],[-90.91572,37.47214],[-90.91609,37.47192],[-90.91644,37.47172],[-90.91677,37.47153],[-90.91693,37.47144],[-90.9171,37.47135],[-90.91722,37.47129],[-90.91732,37.47124],[-90.91741,37.4712],[-90.9175,37.47115],[-90.91768,37.47107],[-90.918,37.47094],[-90.91809,37.4709],[-90.91828,37.47083],[-90.91875,37.47066],[-90.9191,37.47053],[-90.91912,37.47052],[-90.92008,37.47018],[-90.9207,37.46996],[-90.92114,37.46981],[-90.92118,37.46979],[-90.92176,37.46959],[-90.92197,37.46951],[-90.92205,37.46948],[-90.92279,37.46922],[-90.923,37.46914],[-90.92341,37.469],[-90.92408,37.46876],[-90.92422,37.46871],[-90.92436,37.46866],[-90.92481,37.46848],[-90.92492,37.46844],[-90.92501,37.4684],[-90.92509,37.46836],[-90.92516,37.46832],[-90.92523,37.46829],[-90.92524,37.46828],[-90.92532,37.46823],[-90.92539,37.46819],[-90.92541,37.46818],[-90.92547,37.46814],[-90.92554,37.4681],[-90.9256,37.46805],[-90.92566,37.46801],[-90.92572,37.46797],[-90.92578,37.46792],[-90.92585,37.46786],[-90.92593,37.46779],[-90.92602,37.46772],[-90.92606,37.46768],[-90.92613,37.46762],[-90.92622,37.46755],[-90.92635,37.46744],[-90.92637,37.46742],[-90.92652,37.46729],[-90.92673,37.46711],[-90.92704,37.46684],[-90.92714,37.46676],[-90.92723,37.4667],[-90.92731,37.46664],[-90.92737,37.46659],[-90.92747,37.46652],[-90.92754,37.46647],[-90.92774,37.46633],[-90.92781,37.46628],[-90.928,37.46615],[-90.92816,37.46605],[-90.9284,37.46589],[-90.92852,37.46581],[-90.92867,37.46572],[-90.92869,37.46571],[-90.92883,37.46563],[-90.92887,37.46561],[-90.92892,37.46558],[-90.92906,37.4655],[-90.92907,37.4655],[-90.92925,37.46541],[-90.92941,37.46533],[-90.92944,37.46531],[-90.92963,37.46521],[-90.93019,37.46493],[-90.93021,37.46492],[-90.93039,37.46482],[-90.93058,37.46472],[-90.93073,37.46465],[-90.93087,37.46457],[-90.93096,37.46452],[-90.93106,37.46446],[-90.93132,37.4643],[-90.9315,37.46419],[-90.93186,37.46397],[-90.93203,37.46386],[-90.93221,37.46375],[-90.93274,37.46341],[-90.93287,37.46334],[-90.9331,37.46319],[-90.93328,37.46308],[-90.9333,37.46307],[-90.93346,37.46297],[-90.93364,37.46286],[-90.9337,37.46282],[-90.93381,37.46275],[-90.93399,37.46264],[-90.9347,37.46219],[-90.93488,37.46208],[-90.93506,37.46197],[-90.93524,37.46186],[-90.93534,37.46179],[-90.93542,37.46175],[-90.93559,37.46164],[-90.93596,37.46141],[-90.93613,37.46131],[-90.93633,37.46119],[-90.93649,37.46109],[-90.93682,37.46092],[-90.93694,37.46086],[-90.93706,37.46081],[-90.93719,37.46077],[-90.93734,37.46071],[-90.93748,37.46067],[-90.93749,37.46067],[-90.93761,37.46063],[-90.9377,37.46061],[-90.93775,37.4606],[-90.93792,37.46055],[-90.93804,37.46053],[-90.93814,37.4605],[-90.93817,37.4605],[-90.93834,37.46046],[-90.93836,37.46046],[-90.93851,37.46043],[-90.93858,37.46041],[-90.93864,37.4604],[-90.9388,37.46037],[-90.93912,37.46031],[-90.93957,37.46023],[-90.93966,37.46022],[-90.93979,37.46019],[-90.9399,37.46017],[-90.94013,37.46012],[-90.94044,37.46004],[-90.94078,37.45995],[-90.94087,37.45992],[-90.941,37.45988],[-90.94114,37.45982],[-90.94127,37.45978],[-90.94128,37.45977],[-90.94146,37.45969],[-90.94159,37.45964],[-90.94179,37.45954],[-90.94201,37.45942],[-90.94224,37.45929],[-90.94243,37.45919],[-90.94261,37.45909],[-90.9428,37.45899],[-90.94299,37.45889],[-90.94317,37.45878],[-90.94336,37.45868],[-90.94421,37.45822],[-90.94485,37.45786],[-90.94503,37.45776],[-90.94507,37.45774],[-90.94522,37.45766],[-90.94535,37.45759],[-90.94541,37.45756],[-90.94552,37.4575],[-90.9456,37.45746],[-90.94598,37.45726],[-90.94616,37.45716],[-90.94654,37.45695],[-90.94691,37.45675],[-90.94697,37.45671],[-90.94728,37.45654],[-90.94743,37.45646],[-90.94747,37.45644],[-90.94784,37.45624],[-90.9489,37.45566],[-90.95001,37.45505],[-90.95069,37.45468],[-90.95076,37.45464],[-90.95131,37.45435],[-90.95186,37.45405],[-90.95224,37.45384],[-90.95243,37.45374],[-90.95307,37.45339],[-90.95336,37.45324],[-90.95341,37.45321],[-90.95355,37.45314],[-90.95381,37.45301],[-90.95394,37.45295],[-90.95406,37.4529],[-90.95414,37.45286],[-90.95454,37.45269],[-90.95484,37.45256],[-90.95493,37.45252],[-90.95509,37.45246],[-90.95513,37.45244],[-90.95534,37.45236],[-90.95538,37.45234],[-90.95599,37.45209],[-90.9565,37.45189],[-90.95701,37.45168],[-90.95721,37.4516],[-90.95724,37.45159],[-90.95741,37.45152],[-90.95742,37.45151],[-90.95759,37.45144],[-90.9576,37.45143],[-90.95777,37.45135],[-90.95794,37.45126],[-90.95799,37.45124],[-90.95806,37.4512],[-90.9582,37.45112],[-90.95834,37.45104],[-90.95848,37.45095],[-90.9586,37.45087],[-90.95873,37.45078],[-90.95886,37.45068],[-90.95887,37.45067],[-90.95896,37.4506],[-90.95904,37.45053],[-90.95914,37.45045],[-90.95924,37.45035],[-90.95934,37.45026],[-90.95944,37.45016],[-90.95947,37.45014],[-90.95959,37.45001],[-90.9597,37.44988],[-90.95977,37.4498],[-90.95978,37.44978],[-90.95989,37.44964],[-90.95993,37.44959],[-90.96013,37.44934],[-90.96025,37.44918],[-90.9606,37.44872],[-90.96099,37.44822],[-90.96115,37.44801],[-90.96122,37.4479],[-90.96124,37.44787],[-90.96133,37.44774],[-90.96142,37.44763],[-90.96151,37.44749],[-90.96161,37.44733],[-90.9617,37.44717],[-90.9618,37.44698],[-90.96183,37.44694],[-90.96189,37.44681],[-90.96197,37.44666],[-90.96207,37.44643],[-90.96217,37.44619],[-90.96222,37.44605],[-90.9623,37.44582],[-90.96235,37.44564],[-90.96243,37.44534],[-90.96245,37.44527],[-90.96246,37.44519],[-90.96249,37.44507],[-90.96251,37.44495],[-90.96253,37.44484],[-90.96255,37.44473],[-90.96256,37.44464],[-90.96258,37.44446],[-90.96259,37.44433],[-90.96259,37.44426],[-90.96261,37.44406],[-90.96262,37.44396],[-90.96262,37.44395],[-90.96262,37.44385],[-90.96262,37.44375],[-90.96262,37.44365],[-90.96262,37.44359],[-90.96261,37.44354],[-90.9626,37.44348],[-90.96259,37.44339],[-90.96258,37.44323],[-90.96255,37.44298],[-90.96254,37.44288],[-90.96252,37.44274],[-90.96246,37.44249],[-90.96236,37.44192],[-90.96233,37.44176],[-90.96228,37.44149],[-90.96226,37.44128],[-90.96225,37.44102],[-90.96225,37.44065],[-90.96226,37.43942],[-90.96227,37.43898],[-90.96227,37.43854],[-90.96227,37.43838],[-90.96226,37.43827],[-90.96226,37.43817],[-90.96225,37.43812],[-90.96225,37.43807],[-90.96225,37.43804],[-90.96224,37.438],[-90.96222,37.4379],[-90.9622,37.43779],[-90.96217,37.43766],[-90.96215,37.43757],[-90.96211,37.43747],[-90.96208,37.43737],[-90.96203,37.43727],[-90.962,37.43719],[-90.96196,37.43712],[-90.96192,37.43705],[-90.96187,37.43697],[-90.96181,37.43688],[-90.96175,37.43678],[-90.96168,37.43669],[-90.96163,37.43663],[-90.96161,37.4366],[-90.96155,37.43653],[-90.96148,37.43646],[-90.96135,37.43634],[-90.96128,37.43629],[-90.96116,37.43621],[-90.96103,37.43612],[-90.96093,37.43606],[-90.96086,37.43603],[-90.9608,37.436],[-90.96066,37.43595],[-90.96049,37.4359],[-90.96043,37.43588],[-90.96036,37.43587],[-90.96024,37.43584],[-90.96017,37.43583],[-90.9601,37.43582],[-90.96001,37.43581],[-90.95993,37.4358],[-90.9598,37.43579],[-90.95954,37.43578],[-90.95928,37.43578],[-90.95915,37.43578],[-90.9586,37.43577],[-90.95839,37.43577],[-90.95823,37.43576],[-90.9581,37.43575],[-90.95802,37.43574],[-90.95793,37.43572],[-90.95788,37.4357],[-90.95783,37.43569],[-90.95779,37.43567],[-90.95775,37.43565],[-90.95769,37.43562],[-90.95766,37.4356],[-90.95763,37.43558],[-90.95758,37.43553],[-90.9575,37.43545],[-90.95747,37.43541],[-90.95744,37.43535],[-90.95743,37.43533],[-90.95741,37.4353],[-90.9574,37.43526],[-90.95739,37.43523],[-90.95738,37.4352],[-90.95738,37.43517],[-90.95737,37.43514],[-90.95737,37.4351],[-90.95736,37.43497],[-90.95736,37.43477],[-90.95739,37.43382],[-90.9574,37.43335],[-90.95745,37.43293],[-90.95746,37.43284],[-90.95747,37.4326],[-90.95748,37.4325],[-90.9575,37.43237],[-90.95751,37.43207],[-90.95753,37.43182],[-90.95757,37.43111],[-90.95759,37.43086],[-90.9576,37.43075],[-90.95761,37.43062],[-90.95763,37.43049],[-90.95765,37.43039],[-90.95768,37.4303],[-90.95768,37.43028],[-90.95772,37.43019],[-90.95776,37.4301],[-90.9578,37.43004],[-90.95782,37.43],[-90.95786,37.42994],[-90.95792,37.42986],[-90.95798,37.42978],[-90.95804,37.42971],[-90.9581,37.42965],[-90.95837,37.42935],[-90.95848,37.42919],[-90.9585,37.42915],[-90.95852,37.4291],[-90.95854,37.42907],[-90.95855,37.42904],[-90.95856,37.42903],[-90.95856,37.42901],[-90.95857,37.42898],[-90.95858,37.42894],[-90.95859,37.42889],[-90.9586,37.42885],[-90.95865,37.4285],[-90.95868,37.42832],[-90.95869,37.42825],[-90.95871,37.42818],[-90.95872,37.42813],[-90.95874,37.42806],[-90.95875,37.42806],[-90.95875,37.42804],[-90.95876,37.428],[-90.95879,37.42795],[-90.95881,37.4279],[-90.95884,37.42785],[-90.95888,37.42779],[-90.95891,37.42774],[-90.95892,37.42773],[-90.959,37.42763],[-90.95908,37.42751],[-90.95919,37.42739],[-90.95925,37.42733],[-90.95938,37.42718],[-90.95951,37.42704],[-90.95965,37.42689],[-90.95974,37.4268],[-90.95979,37.42675],[-90.95991,37.42661],[-90.95992,37.4266],[-90.95996,37.42655],[-90.96001,37.42649],[-90.96003,37.42645],[-90.96006,37.42641],[-90.96011,37.42631],[-90.96017,37.4262],[-90.96019,37.42614],[-90.9602,37.42611],[-90.96022,37.42608],[-90.96026,37.42594],[-90.96033,37.42573],[-90.96037,37.42559],[-90.96042,37.42542],[-90.96047,37.42524],[-90.96052,37.42507],[-90.96055,37.42498],[-90.96061,37.42476],[-90.96072,37.42436],[-90.96078,37.42419],[-90.96083,37.42401],[-90.96093,37.42364],[-90.96097,37.42352],[-90.9611,37.42311],[-90.96115,37.42294],[-90.96119,37.42283],[-90.96122,37.42271],[-90.96128,37.42249],[-90.9613,37.42241],[-90.96135,37.42223],[-90.96135,37.42221],[-90.96145,37.42188],[-90.96152,37.42166],[-90.96156,37.42151],[-90.96161,37.42134],[-90.96162,37.42127],[-90.96164,37.42121],[-90.96164,37.42116],[-90.96164,37.42114],[-90.96165,37.42109],[-90.96165,37.42105],[-90.96166,37.42098],[-90.96166,37.42092],[-90.96166,37.42087],[-90.96166,37.42064],[-90.96166,37.42044],[-90.96166,37.42028],[-90.96165,37.42026],[-90.96165,37.42008],[-90.96165,37.4199],[-90.96164,37.41972],[-90.96164,37.41936],[-90.96164,37.41918],[-90.96164,37.41849],[-90.96163,37.41792],[-90.96163,37.4177],[-90.96165,37.41741],[-90.96167,37.41728],[-90.96167,37.41723],[-90.96168,37.41721],[-90.96169,37.41712],[-90.9617,37.417],[-90.96171,37.4169],[-90.96172,37.4168],[-90.96172,37.41668],[-90.96172,37.41647],[-90.96172,37.41614],[-90.96172,37.41575],[-90.96172,37.41562],[-90.96172,37.41508],[-90.96172,37.41494],[-90.96172,37.41483],[-90.96172,37.41472],[-90.96173,37.41459],[-90.96173,37.41446],[-90.96174,37.41432],[-90.96177,37.41408],[-90.96179,37.41399],[-90.9618,37.4139],[-90.96182,37.4138],[-90.96184,37.41366],[-90.96188,37.41348],[-90.96194,37.41326],[-90.962,37.41306],[-90.96204,37.41293],[-90.96208,37.41282],[-90.96212,37.41271],[-90.96216,37.41261],[-90.96221,37.41248],[-90.96229,37.41229],[-90.96249,37.41187],[-90.96249,37.41186],[-90.96262,37.41158],[-90.96264,37.41153],[-90.96272,37.41135],[-90.96287,37.41102],[-90.96304,37.41067],[-90.96328,37.41017],[-90.96344,37.40983],[-90.96353,37.40967],[-90.96371,37.40929],[-90.96376,37.40918],[-90.96381,37.40909],[-90.96392,37.40884],[-90.96402,37.40864],[-90.96407,37.40855],[-90.96411,37.40846],[-90.96416,37.40835],[-90.9642,37.40826],[-90.96423,37.40817],[-90.96427,37.40808],[-90.96431,37.40796],[-90.96434,37.40784],[-90.96436,37.40776],[-90.96439,37.40763],[-90.96441,37.40754],[-90.96443,37.40744],[-90.96445,37.4073],[-90.96448,37.40698],[-90.9645,37.4069],[-90.9645,37.40684],[-90.96451,37.40679],[-90.96452,37.4067],[-90.96453,37.40657],[-90.96454,37.40646],[-90.96456,37.40629],[-90.96458,37.40605],[-90.96458,37.40589],[-90.96459,37.40573],[-90.9646,37.40551],[-90.96461,37.4053],[-90.96461,37.40519],[-90.96462,37.40465],[-90.96463,37.40441],[-90.96462,37.4038],[-90.96461,37.40344],[-90.96461,37.40337],[-90.96461,37.40326],[-90.96461,37.40312],[-90.9646,37.40282],[-90.96459,37.40261],[-90.96459,37.40254],[-90.96459,37.40249],[-90.96458,37.4024],[-90.96458,37.4023],[-90.96458,37.40205],[-90.96458,37.40183],[-90.96459,37.40171],[-90.9646,37.40131],[-90.96462,37.40093],[-90.96462,37.40073],[-90.96463,37.40066],[-90.96464,37.40039],[-90.96464,37.40035],[-90.96466,37.40014],[-90.96467,37.40003],[-90.9647,37.39967],[-90.96471,37.39953],[-90.96472,37.39949],[-90.96473,37.39935],[-90.96474,37.39925],[-90.96475,37.39913],[-90.96476,37.39912],[-90.96477,37.39902],[-90.96477,37.39895],[-90.96479,37.39884],[-90.96479,37.39876],[-90.9648,37.3987],[-90.96481,37.3986],[-90.96482,37.3985],[-90.96483,37.39843],[-90.96483,37.39841],[-90.96484,37.39835],[-90.96485,37.39824],[-90.96486,37.39818],[-90.96488,37.39808],[-90.9649,37.39799],[-90.96492,37.3979],[-90.96492,37.39788],[-90.96497,37.39752],[-90.965,37.39734],[-90.96502,37.39717],[-90.96506,37.39693],[-90.96511,37.3966],[-90.96517,37.39627],[-90.96518,37.39619],[-90.96522,37.39598],[-90.96526,37.39567],[-90.96534,37.39506],[-90.9654,37.39464],[-90.96543,37.39442],[-90.96544,37.39431],[-90.96546,37.39421],[-90.96548,37.39407],[-90.9655,37.39394],[-90.96553,37.39379],[-90.96555,37.39366],[-90.96559,37.39354],[-90.96565,37.39335],[-90.96569,37.3932],[-90.9657,37.39318],[-90.96576,37.39302],[-90.96582,37.39286],[-90.96582,37.39285],[-90.96588,37.39271],[-90.96589,37.39268],[-90.96594,37.39255],[-90.96601,37.3924],[-90.96609,37.39224],[-90.9662,37.39202],[-90.96621,37.39201],[-90.9663,37.39185],[-90.96632,37.39182],[-90.96645,37.39161],[-90.9667,37.3912],[-90.9668,37.39104],[-90.96682,37.39101],[-90.9669,37.3909],[-90.96703,37.39069],[-90.96719,37.39044],[-90.96771,37.38959],[-90.96783,37.3894],[-90.96795,37.38921],[-90.96807,37.38902],[-90.96831,37.38864],[-90.96844,37.38844],[-90.96855,37.38825],[-90.96861,37.38815],[-90.96871,37.38798],[-90.96904,37.38745],[-90.96923,37.38715],[-90.96936,37.38696],[-90.96951,37.38673],[-90.9697,37.38645],[-90.96996,37.38603],[-90.97008,37.38584],[-90.9702,37.38566],[-90.97026,37.38556],[-90.97033,37.38544],[-90.97041,37.38531],[-90.97046,37.38522],[-90.97052,37.3851],[-90.97061,37.38493],[-90.97069,37.38477],[-90.97074,37.38466],[-90.97075,37.38464],[-90.97078,37.38457],[-90.97082,37.38449],[-90.97086,37.38439],[-90.97089,37.38431],[-90.97092,37.38423],[-90.97094,37.38416],[-90.97097,37.3841],[-90.97099,37.38402],[-90.97101,37.38395],[-90.97104,37.38387],[-90.97106,37.38378],[-90.97108,37.38372],[-90.9711,37.38365],[-90.97111,37.38359],[-90.97113,37.38353],[-90.97115,37.38345],[-90.97116,37.38339],[-90.97118,37.38329],[-90.9712,37.38321],[-90.97121,37.38314],[-90.97122,37.38307],[-90.97125,37.38288],[-90.97126,37.38276],[-90.97128,37.38258],[-90.97129,37.38233],[-90.9713,37.38217],[-90.9713,37.38197],[-90.97131,37.38162],[-90.97132,37.38127],[-90.97132,37.38123],[-90.97132,37.38115],[-90.97133,37.38019],[-90.97134,37.37983],[-90.97134,37.37965],[-90.97136,37.37865],[-90.97137,37.37828],[-90.97138,37.3773],[-90.97139,37.37624],[-90.97141,37.37567],[-90.97142,37.37513],[-90.97143,37.3749],[-90.97145,37.37463],[-90.97145,37.37449],[-90.97145,37.37431],[-90.97146,37.3742],[-90.97146,37.37395],[-90.97145,37.37376],[-90.97145,37.37354],[-90.97145,37.37342],[-90.97144,37.37332],[-90.97146,37.37295],[-90.97146,37.37278],[-90.97145,37.37257],[-90.97145,37.37241],[-90.97143,37.37224],[-90.97143,37.37215],[-90.97143,37.37203],[-90.97144,37.37187],[-90.97144,37.37179],[-90.97145,37.3717],[-90.97146,37.37147],[-90.97147,37.3713],[-90.97148,37.37113],[-90.97149,37.37089],[-90.9715,37.37057],[-90.97151,37.37034],[-90.97151,37.37017],[-90.97152,37.36999],[-90.97152,37.36993],[-90.97153,37.36981],[-90.97153,37.36972],[-90.97153,37.36963],[-90.97153,37.36953],[-90.97153,37.36945],[-90.97153,37.36944],[-90.97153,37.36933],[-90.97152,37.3692],[-90.97151,37.36908],[-90.9715,37.36899],[-90.97149,37.36891],[-90.97148,37.36884],[-90.97146,37.36869],[-90.97141,37.36846],[-90.97137,37.36831],[-90.97132,37.36818],[-90.97127,37.36804],[-90.97124,37.36797],[-90.97121,37.36789],[-90.97116,37.36779],[-90.97112,37.36772],[-90.97107,37.36764],[-90.97096,37.36744],[-90.97082,37.36721],[-90.97075,37.3671],[-90.97069,37.36699],[-90.97065,37.36692],[-90.9706,37.36682],[-90.97041,37.36649],[-90.97031,37.36633],[-90.97028,37.36627],[-90.97015,37.36606],[-90.96985,37.36557],[-90.96966,37.36528],[-90.96947,37.36499],[-90.96935,37.36479],[-90.96921,37.36456],[-90.96907,37.36429],[-90.96881,37.36383],[-90.96864,37.36354],[-90.96853,37.36335],[-90.96847,37.36325],[-90.96838,37.3631],[-90.96829,37.36297],[-90.96817,37.36277],[-90.96817,37.36276],[-90.96808,37.36261],[-90.968,37.36243],[-90.96795,37.36232],[-90.96791,37.36221],[-90.96786,37.36209],[-90.96782,37.36197],[-90.9678,37.36189],[-90.96777,37.36174],[-90.96774,37.36158],[-90.96772,37.36146],[-90.96771,37.36129],[-90.9677,37.36116],[-90.9677,37.36102],[-90.9677,37.36099],[-90.96771,37.36084],[-90.96772,37.36072],[-90.96774,37.36061],[-90.96784,37.3602],[-90.96799,37.35961],[-90.96802,37.35948],[-90.96815,37.35896],[-90.96817,37.3589],[-90.96821,37.35873],[-90.96821,37.3587],[-90.96825,37.35856],[-90.96826,37.35853],[-90.96839,37.358],[-90.96846,37.35773],[-90.9685,37.35758],[-90.96858,37.35723],[-90.96861,37.3571],[-90.96872,37.35667],[-90.96882,37.35625],[-90.96886,37.35609],[-90.96888,37.35599],[-90.96895,37.35571],[-90.96905,37.35528],[-90.96912,37.35502],[-90.96939,37.35396],[-90.96942,37.35381],[-90.96954,37.35338],[-90.96967,37.35284],[-90.96976,37.35252],[-90.96984,37.35221],[-90.96992,37.35193],[-90.96998,37.35167],[-90.97002,37.35153],[-90.97007,37.35131],[-90.97012,37.35107],[-90.97017,37.35088],[-90.97022,37.35064],[-90.97031,37.3502],[-90.97035,37.34996],[-90.97038,37.34977],[-90.97041,37.34952],[-90.97043,37.34931],[-90.97045,37.34914],[-90.97047,37.34891],[-90.97052,37.34795],[-90.97053,37.34786],[-90.97053,37.34777],[-90.97053,37.34753],[-90.97054,37.34741],[-90.97055,37.34723],[-90.97056,37.34691],[-90.97057,37.34669],[-90.97057,37.34668],[-90.97058,37.34646],[-90.97059,37.34622],[-90.9706,37.34594],[-90.97061,37.34562],[-90.97061,37.34561],[-90.97062,37.34542],[-90.97062,37.34526],[-90.97063,37.3451],[-90.97063,37.34496],[-90.97064,37.34485],[-90.97065,37.34471],[-90.97066,37.34458],[-90.97068,37.34444],[-90.9707,37.3443],[-90.97072,37.34419],[-90.97077,37.344],[-90.9708,37.34389],[-90.97082,37.34383],[-90.97084,37.34377],[-90.97089,37.34366],[-90.97093,37.34356],[-90.97101,37.34339],[-90.97109,37.34325],[-90.97114,37.34316],[-90.97125,37.343],[-90.97134,37.34287],[-90.97136,37.34284],[-90.97144,37.34274],[-90.97148,37.34269],[-90.97154,37.34262],[-90.97173,37.34241],[-90.97191,37.34223],[-90.97202,37.34211],[-90.97275,37.34135],[-90.97317,37.34091],[-90.97339,37.34068],[-90.9735,37.34058],[-90.97361,37.34046],[-90.97368,37.34038],[-90.97382,37.34023],[-90.97395,37.34011],[-90.97408,37.33997],[-90.97421,37.33985],[-90.97435,37.33972],[-90.97446,37.33963],[-90.9746,37.33953],[-90.97468,37.33947],[-90.97485,37.33937],[-90.97498,37.3393],[-90.97511,37.33924],[-90.97524,37.33919],[-90.97536,37.33914],[-90.97546,37.3391],[-90.97553,37.33908],[-90.97565,37.33905],[-90.97567,37.33904],[-90.97577,37.33901],[-90.97588,37.33899],[-90.97589,37.33899],[-90.97604,37.33896],[-90.97611,37.33895],[-90.97614,37.33894],[-90.97622,37.33893],[-90.9763,37.33892],[-90.97633,37.33891],[-90.97639,37.33891],[-90.97648,37.3389],[-90.97656,37.3389],[-90.97657,37.3389],[-90.97666,37.33889],[-90.97686,37.33889],[-90.97712,37.3389],[-90.97746,37.33891],[-90.97808,37.33894],[-90.97849,37.33896],[-90.97879,37.33897],[-90.97903,37.33898],[-90.97904,37.33898],[-90.97919,37.33898],[-90.97934,37.33898],[-90.97944,37.33897],[-90.97949,37.33897],[-90.97958,37.33896],[-90.9797,37.33895],[-90.97983,37.33894],[-90.97997,37.33891],[-90.98011,37.33888],[-90.9803,37.33884],[-90.98047,37.33879],[-90.9806,37.33874],[-90.98072,37.3387],[-90.98085,37.33864],[-90.98092,37.3386],[-90.98102,37.33856],[-90.98114,37.33849],[-90.98126,37.33842],[-90.98143,37.33831],[-90.98155,37.33821],[-90.98164,37.33814],[-90.98174,37.33805],[-90.98183,37.33796],[-90.98185,37.33793],[-90.98191,37.33787],[-90.98197,37.33779],[-90.98205,37.33769],[-90.9821,37.33763],[-90.98212,37.3376],[-90.9822,37.33747],[-90.98225,37.33738],[-90.98229,37.3373],[-90.98233,37.33721],[-90.98236,37.33713],[-90.9824,37.33702],[-90.98245,37.33687],[-90.98249,37.33671],[-90.98254,37.33644],[-90.98263,37.33596],[-90.98279,37.33503],[-90.98282,37.33489],[-90.98291,37.33436],[-90.98301,37.33382],[-90.98303,37.33369],[-90.98314,37.33306],[-90.98328,37.33232],[-90.98336,37.33189],[-90.98336,37.33188],[-90.98346,37.33135],[-90.98351,37.33103],[-90.98357,37.33077],[-90.9836,37.33064],[-90.98364,37.33046],[-90.98368,37.33027],[-90.98377,37.32993],[-90.98383,37.32972],[-90.98391,37.3294],[-90.98393,37.32931],[-90.98393,37.3293],[-90.98395,37.32923],[-90.98401,37.32896],[-90.98406,37.3287],[-90.98408,37.32852],[-90.98409,37.32844],[-90.98411,37.32833],[-90.98411,37.32827],[-90.98412,37.32819],[-90.98413,37.32809],[-90.98413,37.32799],[-90.98413,37.32787],[-90.98413,37.3278],[-90.98413,37.32777],[-90.98413,37.32768],[-90.98413,37.32759],[-90.98413,37.3275],[-90.98412,37.32738],[-90.98411,37.32727],[-90.98411,37.32726],[-90.98411,37.32717],[-90.98409,37.32705],[-90.98409,37.32697],[-90.98408,37.32691],[-90.98408,37.3269],[-90.98407,37.32685],[-90.98405,37.32672],[-90.98405,37.3267],[-90.98402,37.32655],[-90.984,37.32647],[-90.98397,37.3263],[-90.98394,37.3262],[-90.98392,37.3261],[-90.98389,37.32598],[-90.98385,37.32585],[-90.98382,37.32577],[-90.98378,37.32565],[-90.98373,37.3255],[-90.98366,37.32534],[-90.98358,37.32513],[-90.98347,37.32489],[-90.98335,37.32467],[-90.98334,37.32464],[-90.98321,37.32441],[-90.98317,37.32434],[-90.98313,37.32429],[-90.98307,37.32418],[-90.98306,37.32417],[-90.98298,37.32404],[-90.9829,37.32392],[-90.98281,37.3238],[-90.98269,37.32364],[-90.98257,37.32348],[-90.98247,37.32337],[-90.98237,37.32324],[-90.9822,37.32306],[-90.98211,37.32296],[-90.98205,37.3229],[-90.98193,37.32278],[-90.98177,37.32262],[-90.98154,37.32242],[-90.98128,37.3222],[-90.98084,37.32183],[-90.98044,37.32149],[-90.98007,37.32117],[-90.97985,37.32098],[-90.97964,37.3208],[-90.97961,37.32077],[-90.97948,37.32066],[-90.97946,37.32064],[-90.97937,37.32057],[-90.97927,37.32048],[-90.97915,37.32038],[-90.97908,37.32032],[-90.97899,37.32025],[-90.97894,37.32021],[-90.97877,37.32006],[-90.97851,37.31984],[-90.97821,37.31958],[-90.97809,37.31948],[-90.97805,37.31945],[-90.97798,37.31939],[-90.9779,37.31932],[-90.97783,37.31926],[-90.97775,37.31918],[-90.97769,37.31914],[-90.9776,37.31905],[-90.97758,37.31903],[-90.97746,37.31891],[-90.9774,37.31884],[-90.97729,37.31873],[-90.97719,37.31862],[-90.97706,37.31845],[-90.977,37.31838],[-90.97693,37.31828],[-90.97686,37.31817],[-90.97679,37.31808],[-90.97674,37.31799],[-90.97673,37.31797],[-90.97667,37.31788],[-90.97662,37.31779],[-90.97656,37.31768],[-90.9765,37.31755],[-90.97646,37.31746],[-90.97634,37.31719],[-90.97625,37.31699],[-90.97618,37.31682],[-90.97566,37.31561],[-90.97553,37.31531],[-90.97538,37.31497],[-90.97511,37.31434],[-90.97487,37.31373],[-90.97478,37.31348],[-90.97473,37.31332],[-90.97467,37.31315],[-90.97462,37.31295],[-90.97459,37.31285],[-90.97456,37.31277],[-90.97454,37.31267],[-90.97452,37.31258],[-90.97451,37.31256],[-90.97439,37.31204],[-90.97424,37.31139],[-90.9741,37.31082],[-90.97409,37.31075],[-90.97403,37.31052],[-90.974,37.3104],[-90.97396,37.31022],[-90.97388,37.30987],[-90.97387,37.30984],[-90.97383,37.30969],[-90.97379,37.30952],[-90.97377,37.30942],[-90.97375,37.30934],[-90.97371,37.30916],[-90.97363,37.30881],[-90.97362,37.30879],[-90.97354,37.30846],[-90.97352,37.30835],[-90.97344,37.30799],[-90.97342,37.30792],[-90.97338,37.30774],[-90.97332,37.30749],[-90.97329,37.30739],[-90.97325,37.30722],[-90.97325,37.30721],[-90.97325,37.30719],[-90.97319,37.30695],[-90.97312,37.30666],[-90.97308,37.30645],[-90.97302,37.30622],[-90.97301,37.30615],[-90.97297,37.30598],[-90.97293,37.3058],[-90.97292,37.30577],[-90.97289,37.30562],[-90.97284,37.30544],[-90.97279,37.30527],[-90.97277,37.30521],[-90.97271,37.30499],[-90.97265,37.30484],[-90.97262,37.30475],[-90.97258,37.30465],[-90.9725,37.30446],[-90.97247,37.30441],[-90.97242,37.3043],[-90.97239,37.30424],[-90.97234,37.30413],[-90.97231,37.30408],[-90.97223,37.30394],[-90.97222,37.30391],[-90.97216,37.3038],[-90.97213,37.30375],[-90.97212,37.30374],[-90.97198,37.30352],[-90.97185,37.3033],[-90.97182,37.30327],[-90.97182,37.30326],[-90.97168,37.30307],[-90.97136,37.30268],[-90.97107,37.30232],[-90.97073,37.30189],[-90.97052,37.30164],[-90.97011,37.30117],[-90.97009,37.30115],[-90.96983,37.30084],[-90.96961,37.30056],[-90.96959,37.30053],[-90.9695,37.30039],[-90.96948,37.30037],[-90.96935,37.30023],[-90.96933,37.3002],[-90.96912,37.29994],[-90.96886,37.29962],[-90.96875,37.29949],[-90.96844,37.29911],[-90.96812,37.29872],[-90.96809,37.29867],[-90.96786,37.2984],[-90.96755,37.29802],[-90.96749,37.29795],[-90.96726,37.29766],[-90.96629,37.29648],[-90.96627,37.29646],[-90.96616,37.29633],[-90.96593,37.29605],[-90.96578,37.29586],[-90.96555,37.29558],[-90.96553,37.29555],[-90.96516,37.2951],[-90.96493,37.29482],[-90.96479,37.29465],[-90.96472,37.29457],[-90.96468,37.29452],[-90.96454,37.29435],[-90.9645,37.2943],[-90.96443,37.29422],[-90.96436,37.29413],[-90.96429,37.29405],[-90.96423,37.29396],[-90.96408,37.29378],[-90.96405,37.29374],[-90.96392,37.29359],[-90.96373,37.29335],[-90.9636,37.29319],[-90.96357,37.29316],[-90.96356,37.29314],[-90.96352,37.2931],[-90.96345,37.293],[-90.96334,37.29285],[-90.96331,37.29281],[-90.96324,37.29272],[-90.9631,37.29252],[-90.96288,37.29217],[-90.96277,37.29197],[-90.9627,37.29184],[-90.96267,37.29178],[-90.96262,37.29167],[-90.96256,37.29154],[-90.96237,37.29109],[-90.96217,37.29055],[-90.96205,37.29026],[-90.96186,37.28978],[-90.96162,37.28917],[-90.96154,37.289],[-90.96144,37.28873],[-90.96132,37.28844],[-90.96123,37.28822],[-90.96115,37.28804],[-90.96105,37.28782],[-90.96097,37.28767],[-90.96087,37.2875],[-90.96081,37.2874],[-90.96079,37.28738],[-90.96073,37.28727],[-90.96071,37.28724],[-90.96063,37.28712],[-90.96053,37.28699],[-90.96041,37.28683],[-90.96029,37.28669],[-90.96016,37.28655],[-90.96001,37.28641],[-90.95973,37.28615],[-90.95948,37.28595],[-90.95917,37.2857],[-90.95883,37.28542],[-90.95834,37.28503],[-90.95825,37.28495],[-90.95807,37.28479],[-90.95787,37.28462],[-90.95778,37.28453],[-90.95777,37.28452],[-90.95767,37.28442],[-90.95754,37.28427],[-90.95745,37.28416],[-90.95736,37.28403],[-90.95728,37.28389],[-90.95723,37.28379],[-90.95718,37.28369],[-90.95714,37.28359],[-90.9571,37.28349],[-90.95707,37.2834],[-90.957,37.28318],[-90.95693,37.2829],[-90.95685,37.28255],[-90.95675,37.28214],[-90.95664,37.2817],[-90.95654,37.28135],[-90.95648,37.28107],[-90.95637,37.28064],[-90.95628,37.28025],[-90.95618,37.27987],[-90.95612,37.27964],[-90.95608,37.27946],[-90.95604,37.27929],[-90.95601,37.27915],[-90.95599,37.27903],[-90.95596,37.27882],[-90.95595,37.27868],[-90.95594,37.27855],[-90.95594,37.27837],[-90.95595,37.27828],[-90.95595,37.27825],[-90.95596,37.27809],[-90.95598,37.27795],[-90.95599,37.27792],[-90.95604,37.27768],[-90.95606,37.27759],[-90.95607,37.27757],[-90.95611,37.27743],[-90.95616,37.27727],[-90.95619,37.2772],[-90.95627,37.27699],[-90.95639,37.27676],[-90.95649,37.27659],[-90.95657,37.27646],[-90.95665,37.27633],[-90.95673,37.27623],[-90.95685,37.27608],[-90.95689,37.27604],[-90.95702,37.27589],[-90.95716,37.27573],[-90.95725,37.27564],[-90.9574,37.2755],[-90.95756,37.27533],[-90.95768,37.27522],[-90.95809,37.27482],[-90.95857,37.27439],[-90.95871,37.27427],[-90.95902,37.27399],[-90.95987,37.27318],[-90.96017,37.2729],[-90.96032,37.27276],[-90.96041,37.27267],[-90.96061,37.27249],[-90.96076,37.27235],[-90.96114,37.27199],[-90.96134,37.2718],[-90.96149,37.27166],[-90.96158,37.27158],[-90.96188,37.27128],[-90.96207,37.27108],[-90.96221,37.27093],[-90.96233,37.2708],[-90.96233,37.27079],[-90.96242,37.27067],[-90.96244,37.27065],[-90.96253,37.2705],[-90.96259,37.2704],[-90.96266,37.27028],[-90.96272,37.27015],[-90.96278,37.26999],[-90.96281,37.26992],[-90.96285,37.26978],[-90.96287,37.2697],[-90.96289,37.2696],[-90.96292,37.26946],[-90.96293,37.26932],[-90.96294,37.26923],[-90.96294,37.26908],[-90.96294,37.26897],[-90.96293,37.26889],[-90.96292,37.26881],[-90.96289,37.26865],[-90.96282,37.26826],[-90.96268,37.26758],[-90.96247,37.26658],[-90.96238,37.26616],[-90.96231,37.26581],[-90.9622,37.26528],[-90.962,37.26433],[-90.96194,37.26409],[-90.96191,37.26392],[-90.96178,37.26332],[-90.96177,37.26325],[-90.96174,37.26314],[-90.96168,37.26285],[-90.96167,37.26279],[-90.96164,37.26261],[-90.96163,37.2626],[-90.9616,37.26243],[-90.9616,37.26231],[-90.96159,37.26225],[-90.96159,37.2622],[-90.9616,37.26207],[-90.9616,37.26203],[-90.96161,37.26189],[-90.96163,37.26175],[-90.96166,37.26162],[-90.96169,37.26149],[-90.96173,37.26138],[-90.96177,37.26129],[-90.96181,37.2612],[-90.96186,37.26111],[-90.96191,37.26103],[-90.96196,37.26095],[-90.96204,37.26083],[-90.96213,37.26072],[-90.96218,37.26066],[-90.96233,37.26047],[-90.96238,37.26042],[-90.96248,37.2603],[-90.96251,37.26027],[-90.96264,37.26013],[-90.96292,37.25984],[-90.96329,37.25947],[-90.96366,37.25907],[-90.9638,37.25893],[-90.96391,37.2588],[-90.96393,37.25878],[-90.96407,37.25864],[-90.9642,37.25849],[-90.96487,37.25777],[-90.965,37.25762],[-90.96518,37.25743],[-90.96528,37.25733],[-90.96537,37.25722],[-90.96547,37.25708],[-90.9655,37.25703],[-90.96555,37.25696],[-90.96559,37.25689],[-90.96574,37.25652],[-90.96579,37.25639],[-90.96585,37.25617],[-90.96588,37.25604],[-90.96592,37.25592],[-90.96595,37.25576],[-90.96599,37.25546],[-90.96601,37.2553],[-90.96608,37.25475],[-90.96609,37.25466],[-90.96613,37.25439],[-90.96618,37.25402],[-90.9662,37.25385],[-90.96627,37.25331],[-90.9663,37.2531],[-90.96633,37.25286],[-90.96635,37.25265],[-90.96637,37.25248],[-90.96638,37.2524],[-90.96639,37.25231],[-90.96639,37.25224],[-90.96639,37.25221],[-90.9664,37.25206],[-90.9664,37.25196],[-90.96639,37.25188],[-90.96639,37.25187],[-90.96638,37.25175],[-90.96637,37.2517],[-90.96637,37.25167],[-90.96635,37.25155],[-90.96633,37.25147],[-90.96631,37.25139],[-90.96629,37.2513],[-90.96625,37.2512],[-90.9662,37.25106],[-90.9661,37.25084],[-90.96589,37.25039],[-90.96581,37.25024],[-90.96563,37.24989],[-90.96544,37.2495],[-90.96541,37.24943],[-90.96539,37.24938],[-90.96532,37.24917],[-90.96529,37.24904],[-90.96526,37.24892],[-90.96523,37.24871],[-90.96521,37.24851],[-90.96522,37.24833],[-90.96524,37.24814],[-90.96526,37.248],[-90.9653,37.24785],[-90.96531,37.24779],[-90.96535,37.24767],[-90.96536,37.24762],[-90.9654,37.24749],[-90.96541,37.24744],[-90.96557,37.24692],[-90.96563,37.24675],[-90.9657,37.24652],[-90.96583,37.24613],[-90.96583,37.24612],[-90.96589,37.24591],[-90.96598,37.24559],[-90.96598,37.24559],[-90.96631,37.2456],[-90.96641,37.2456],[-90.96643,37.2456],[-90.96651,37.24558],[-90.96665,37.24554],[-90.96679,37.24546],[-90.96689,37.2454],[-90.96716,37.24518],[-90.96764,37.2448],[-90.96769,37.24476],[-90.96789,37.24456],[-90.96805,37.24442],[-90.96832,37.24413],[-90.96849,37.24385],[-90.96855,37.24362],[-90.96858,37.24343],[-90.96859,37.24337],[-90.96871,37.24256],[-90.9688,37.24172]]}}]}