{"type":"FeatureCollection","features":[{"type":"Feature","properties":{"_gpxType":"trk","name":"Ellington, MO 63638 - Hawkins House Bed & Breakfast, Main Street, Eminence, MO","coordinateProperties":{},"id":38},"geometry":{"type":"LineString","coordinates":[[-90.9688,37.24172],[-90.96882,37.24162],[-90.96882,37.24162],[-90.96904,37.2416],[-90.96944,37.24161],[-90.96989,37.2416],[-90.97006,37.24159],[-90.97036,37.24158],[-90.97045,37.24157],[-90.97081,37.24158],[-90.97104,37.24158],[-90.97108,37.24158],[-90.97134,37.2416],[-90.97168,37.24162],[-90.97228,37.24164],[-90.97239,37.24165],[-90.97301,37.24166],[-90.97323,37.24165],[-90.97343,37.24163],[-90.97361,37.24161],[-90.97405,37.24155],[-90.97449,37.24147],[-90.97511,37.24136],[-90.97589,37.24122],[-90.97606,37.2412],[-90.97616,37.24119],[-90.97639,37.24117],[-90.97661,37.24117],[-90.97684,37.24116],[-90.97751,37.24114],[-90.97773,37.24114],[-90.97797,37.24113],[-90.97819,37.24112],[-90.97864,37.2411],[-90.97887,37.24109],[-90.97906,37.24108],[-90.97971,37.24103],[-90.97993,37.24102],[-90.98021,37.24099],[-90.98057,37.24095],[-90.98102,37.24091],[-90.98111,37.2409],[-90.98146,37.24085],[-90.98178,37.2408],[-90.98212,37.24075],[-90.98235,37.24072],[-90.98297,37.24063],[-90.98357,37.24054],[-90.98381,37.24051],[-90.98429,37.24044],[-90.98477,37.24036],[-90.98495,37.24032],[-90.98511,37.24029],[-90.9853,37.24025],[-90.98547,37.2402],[-90.9857,37.24014],[-90.98604,37.24003],[-90.98642,37.2399],[-90.98671,37.23982],[-90.98683,37.23978],[-90.98692,37.23975],[-90.98702,37.23972],[-90.98714,37.2397],[-90.9872,37.23968],[-90.98729,37.23966],[-90.98742,37.23964],[-90.98772,37.2396],[-90.98792,37.23958],[-90.98803,37.23957],[-90.98825,37.23956],[-90.98867,37.23954],[-90.98915,37.23951],[-90.98938,37.23949],[-90.98962,37.23948],[-90.99019,37.23945],[-90.99028,37.23944],[-90.99044,37.23943],[-90.9905,37.23942],[-90.99064,37.23941],[-90.99073,37.23939],[-90.99081,37.23938],[-90.99092,37.23936],[-90.99104,37.23934],[-90.99116,37.2393],[-90.99117,37.2393],[-90.99131,37.23926],[-90.99144,37.23921],[-90.99157,37.23915],[-90.99168,37.23909],[-90.99178,37.23904],[-90.99197,37.23894],[-90.99242,37.23862],[-90.99248,37.23858],[-90.99302,37.23818],[-90.99358,37.23777],[-90.99418,37.23732],[-90.99454,37.23705],[-90.99467,37.23695],[-90.99484,37.23683],[-90.99499,37.23673],[-90.99501,37.23671],[-90.99517,37.2366],[-90.99532,37.2365],[-90.99545,37.23642],[-90.99556,37.23636],[-90.99569,37.2363],[-90.99573,37.23628],[-90.99598,37.23615],[-90.99632,37.23602],[-90.99644,37.23597],[-90.99667,37.2359],[-90.99683,37.23585],[-90.99695,37.23582],[-90.99701,37.23581],[-90.99717,37.23577],[-90.99784,37.23563],[-90.99848,37.2355],[-90.9986,37.23547],[-90.99892,37.23541],[-90.99935,37.23532],[-90.99946,37.2353],[-90.99957,37.23527],[-91.00001,37.23518],[-91.00023,37.23514],[-91.00026,37.23513],[-91.00131,37.23491],[-91.00132,37.23491],[-91.00154,37.23487],[-91.0018,37.23481],[-91.00228,37.23471],[-91.00268,37.23462],[-91.00299,37.23455],[-91.00307,37.23453],[-91.00322,37.23449],[-91.00328,37.23448],[-91.00347,37.23442],[-91.00377,37.23433],[-91.00398,37.23425],[-91.00424,37.23416],[-91.00435,37.23411],[-91.0044,37.2341],[-91.00456,37.23402],[-91.0048,37.23391],[-91.00513,37.23375],[-91.00552,37.23356],[-91.00571,37.23347],[-91.00669,37.23298],[-91.00699,37.23284],[-91.00795,37.23237],[-91.0087,37.232],[-91.00878,37.23196],[-91.00938,37.23166],[-91.00978,37.23146],[-91.01017,37.23126],[-91.01069,37.23097],[-91.0108,37.23092],[-91.01098,37.23081],[-91.01119,37.23069],[-91.01175,37.23035],[-91.01207,37.23017],[-91.01225,37.23005],[-91.01266,37.22979],[-91.01311,37.22952],[-91.01319,37.22946],[-91.0137,37.22914],[-91.01434,37.22873],[-91.01472,37.22849],[-91.01557,37.22795],[-91.01558,37.22794],[-91.01576,37.22784],[-91.01598,37.2277],[-91.0161,37.22764],[-91.01624,37.22757],[-91.01639,37.2275],[-91.01657,37.22743],[-91.01673,37.22737],[-91.01712,37.22724],[-91.01755,37.22709],[-91.01778,37.227],[-91.01788,37.22696],[-91.01798,37.2269],[-91.01812,37.22683],[-91.01835,37.22671],[-91.01903,37.2263],[-91.01947,37.22605],[-91.01993,37.22579],[-91.02057,37.22549],[-91.02126,37.2252],[-91.02195,37.22495],[-91.02254,37.22477],[-91.023,37.22465],[-91.02302,37.22464],[-91.02336,37.22456],[-91.02345,37.22454],[-91.02404,37.22442],[-91.0246,37.22433],[-91.02517,37.22424],[-91.02576,37.22415],[-91.02624,37.22409],[-91.02662,37.22406],[-91.02689,37.22405],[-91.02704,37.22406],[-91.02718,37.22406],[-91.02742,37.22409],[-91.02768,37.22414],[-91.02791,37.22419],[-91.02822,37.22427],[-91.02842,37.22432],[-91.02863,37.22438],[-91.02893,37.22447],[-91.02919,37.22453],[-91.02936,37.22457],[-91.02951,37.2246],[-91.02968,37.22462],[-91.02972,37.22463],[-91.02986,37.22464],[-91.03004,37.22464],[-91.03025,37.22464],[-91.03046,37.22463],[-91.03064,37.22462],[-91.03084,37.22459],[-91.03088,37.22459],[-91.03119,37.22454],[-91.03218,37.22441],[-91.03312,37.22429],[-91.03367,37.22421],[-91.03388,37.22418],[-91.03403,37.22417],[-91.03415,37.22416],[-91.03438,37.22416],[-91.03457,37.22417],[-91.0347,37.22419],[-91.0349,37.22423],[-91.03506,37.22429],[-91.03521,37.22435],[-91.03536,37.22442],[-91.03548,37.22449],[-91.03559,37.22456],[-91.03571,37.22466],[-91.03583,37.22476],[-91.03587,37.22481],[-91.03596,37.22491],[-91.03605,37.22503],[-91.0361,37.22513],[-91.03616,37.22525],[-91.03624,37.22543],[-91.03625,37.22546],[-91.03644,37.22598],[-91.0366,37.22645],[-91.03671,37.22673],[-91.03675,37.22681],[-91.03684,37.22698],[-91.03687,37.22703],[-91.03694,37.22714],[-91.037,37.22724],[-91.03714,37.22742],[-91.0373,37.22763],[-91.03748,37.22783],[-91.03767,37.22802],[-91.0378,37.22814],[-91.03795,37.22827],[-91.03812,37.2284],[-91.03832,37.22854],[-91.03853,37.22867],[-91.03869,37.22876],[-91.03875,37.2288],[-91.03887,37.22886],[-91.03895,37.2289],[-91.03914,37.22899],[-91.03926,37.22905],[-91.03941,37.22911],[-91.03965,37.22921],[-91.03984,37.22927],[-91.04009,37.22935],[-91.04028,37.2294],[-91.04052,37.22945],[-91.04075,37.2295],[-91.04117,37.22957],[-91.04147,37.22961],[-91.04177,37.22965],[-91.04199,37.22968],[-91.04223,37.22971],[-91.04248,37.22973],[-91.04274,37.22976],[-91.043,37.22978],[-91.04325,37.22979],[-91.04409,37.22984],[-91.04464,37.22985],[-91.04501,37.22985],[-91.04529,37.22984],[-91.04536,37.22984],[-91.04552,37.22983],[-91.04665,37.22978],[-91.04769,37.22973],[-91.04813,37.2297],[-91.04888,37.22965],[-91.04903,37.22964],[-91.04925,37.22962],[-91.04934,37.22961],[-91.04948,37.22959],[-91.04963,37.22956],[-91.04968,37.22955],[-91.04978,37.22953],[-91.0499,37.22949],[-91.05003,37.22945],[-91.0503,37.22933],[-91.05046,37.22924],[-91.05077,37.22905],[-91.05084,37.229],[-91.05093,37.22894],[-91.05117,37.22876],[-91.05133,37.22864],[-91.0515,37.22851],[-91.05156,37.22847],[-91.05167,37.22839],[-91.05183,37.22827],[-91.05207,37.22811],[-91.05218,37.22804],[-91.0522,37.22802],[-91.0523,37.22796],[-91.05235,37.22792],[-91.05245,37.22786],[-91.05254,37.22782],[-91.05268,37.22775],[-91.05273,37.22773],[-91.05284,37.22768],[-91.05293,37.22765],[-91.05298,37.22763],[-91.05313,37.22759],[-91.05314,37.22758],[-91.05336,37.22753],[-91.05358,37.22748],[-91.05376,37.22746],[-91.05405,37.22743],[-91.05523,37.22733],[-91.05556,37.2273],[-91.05579,37.22728],[-91.05581,37.22728],[-91.05617,37.22724],[-91.05646,37.22721],[-91.05674,37.22717],[-91.05696,37.22713],[-91.0572,37.22709],[-91.05747,37.22704],[-91.05756,37.22703],[-91.05795,37.22695],[-91.05883,37.22679],[-91.05957,37.22663],[-91.0598,37.22658],[-91.06018,37.22651],[-91.06024,37.2265],[-91.06042,37.22647],[-91.06069,37.22641],[-91.06187,37.22618],[-91.06237,37.22608],[-91.06295,37.22596],[-91.06302,37.22594],[-91.06317,37.2259],[-91.06324,37.22588],[-91.06333,37.22586],[-91.06345,37.22584],[-91.0636,37.22581],[-91.06381,37.22576],[-91.06382,37.22576],[-91.06404,37.22572],[-91.06411,37.2257],[-91.06415,37.22569],[-91.06426,37.22567],[-91.06433,37.22565],[-91.06446,37.22562],[-91.06464,37.22557],[-91.06483,37.22551],[-91.06495,37.22546],[-91.06505,37.22543],[-91.06527,37.22533],[-91.06549,37.22523],[-91.0656,37.22517],[-91.06566,37.22514],[-91.0664,37.22473],[-91.06667,37.2246],[-91.06672,37.22458],[-91.06683,37.22453],[-91.06701,37.22445],[-91.06707,37.22443],[-91.06712,37.22441],[-91.0672,37.22438],[-91.06733,37.22434],[-91.06739,37.22433],[-91.06749,37.2243],[-91.06753,37.22429],[-91.06769,37.22426],[-91.0679,37.22423],[-91.06799,37.22422],[-91.06808,37.2242],[-91.0682,37.2242],[-91.06834,37.22419],[-91.06838,37.22419],[-91.06852,37.22419],[-91.0686,37.2242],[-91.06866,37.2242],[-91.06873,37.2242],[-91.06883,37.22421],[-91.06892,37.22422],[-91.06905,37.22424],[-91.06909,37.22425],[-91.06911,37.22425],[-91.06935,37.2243],[-91.06954,37.22436],[-91.06964,37.22439],[-91.06975,37.22442],[-91.06987,37.22446],[-91.0699,37.22448],[-91.06996,37.2245],[-91.07011,37.22455],[-91.07016,37.22457],[-91.07021,37.22459],[-91.07043,37.22466],[-91.07052,37.22469],[-91.07058,37.22471],[-91.07074,37.22478],[-91.07078,37.22479],[-91.07099,37.22487],[-91.07113,37.22492],[-91.07119,37.22494],[-91.07139,37.22502],[-91.07154,37.22507],[-91.07202,37.22523],[-91.07233,37.22533],[-91.0726,37.22541],[-91.07265,37.22542],[-91.07279,37.22545],[-91.07289,37.22548],[-91.07301,37.2255],[-91.07326,37.22555],[-91.0736,37.22561],[-91.07368,37.22562],[-91.07389,37.22565],[-91.0739,37.22565],[-91.07404,37.22567],[-91.07412,37.22568],[-91.07432,37.2257],[-91.07434,37.2257],[-91.07435,37.2257],[-91.07457,37.22572],[-91.07466,37.22572],[-91.07494,37.22573],[-91.07502,37.22573],[-91.07524,37.22574],[-91.07525,37.22574],[-91.07563,37.22574],[-91.07592,37.22571],[-91.076,37.22571],[-91.07614,37.22569],[-91.07615,37.22569],[-91.0762,37.22568],[-91.07636,37.22565],[-91.07637,37.22565],[-91.07646,37.22563],[-91.07658,37.2256],[-91.07659,37.2256],[-91.07666,37.22558],[-91.0768,37.22554],[-91.07686,37.22552],[-91.077,37.22546],[-91.07702,37.22545],[-91.07716,37.22539],[-91.07726,37.22534],[-91.07738,37.22527],[-91.07744,37.22523],[-91.07755,37.22516],[-91.07756,37.22516],[-91.07758,37.22514],[-91.07772,37.22504],[-91.07772,37.22503],[-91.07773,37.22503],[-91.07782,37.22494],[-91.07787,37.2249],[-91.07795,37.22483],[-91.07801,37.22476],[-91.07802,37.22474],[-91.07811,37.22462],[-91.07812,37.22461],[-91.07813,37.2246],[-91.07821,37.22447],[-91.07823,37.22445],[-91.07823,37.22444],[-91.07829,37.22433],[-91.07832,37.22428],[-91.0784,37.22411],[-91.07848,37.22395],[-91.07849,37.22394],[-91.07851,37.22389],[-91.07856,37.22378],[-91.07864,37.22361],[-91.07872,37.22344],[-91.0788,37.22327],[-91.07881,37.22323],[-91.07887,37.2231],[-91.07888,37.2231],[-91.07895,37.22294],[-91.07895,37.22293],[-91.0791,37.2226],[-91.07926,37.22226],[-91.07927,37.22226],[-91.07933,37.22211],[-91.07942,37.22192],[-91.0795,37.22175],[-91.07958,37.22159],[-91.07958,37.22158],[-91.07983,37.22109],[-91.08006,37.22054],[-91.08021,37.2202],[-91.08022,37.22019],[-91.08029,37.22003],[-91.08037,37.21985],[-91.08046,37.21967],[-91.08052,37.21952],[-91.08053,37.21952],[-91.08056,37.21943],[-91.08084,37.21885],[-91.08084,37.21884],[-91.08092,37.21867],[-91.08099,37.21851],[-91.08103,37.21844],[-91.08107,37.21834],[-91.08115,37.21817],[-91.08148,37.21743],[-91.08154,37.21732],[-91.08154,37.21731],[-91.08162,37.21716],[-91.08164,37.21712],[-91.08171,37.217],[-91.08171,37.21699],[-91.0818,37.21686],[-91.08188,37.21675],[-91.08194,37.21669],[-91.08196,37.21666],[-91.08206,37.21657],[-91.08218,37.21647],[-91.08225,37.21643],[-91.08234,37.21637],[-91.08243,37.21632],[-91.08244,37.21632],[-91.08247,37.2163],[-91.08262,37.21622],[-91.08263,37.21622],[-91.08266,37.2162],[-91.08281,37.21613],[-91.08282,37.21613],[-91.08295,37.21606],[-91.08301,37.21604],[-91.0832,37.21595],[-91.08321,37.21594],[-91.08339,37.21586],[-91.08339,37.21585],[-91.08349,37.2158],[-91.08358,37.21575],[-91.08363,37.21572],[-91.08375,37.21563],[-91.08376,37.21563],[-91.08387,37.21553],[-91.0839,37.2155],[-91.08391,37.2155],[-91.08396,37.21545],[-91.08402,37.21538],[-91.08405,37.21535],[-91.08412,37.21526],[-91.08428,37.21505],[-91.08432,37.21499],[-91.08439,37.2149],[-91.08439,37.21489],[-91.08448,37.21476],[-91.0845,37.21474],[-91.0845,37.21473],[-91.08461,37.21458],[-91.08465,37.21452],[-91.08471,37.21442],[-91.08473,37.21439],[-91.08482,37.21426],[-91.08483,37.21426],[-91.08504,37.21395],[-91.08504,37.21394],[-91.08521,37.2137],[-91.08526,37.21363],[-91.08537,37.21348],[-91.08548,37.21332],[-91.08548,37.21331],[-91.0855,37.21328],[-91.08559,37.21316],[-91.08564,37.21308],[-91.0857,37.213],[-91.0858,37.21285],[-91.08588,37.21273],[-91.08602,37.21253],[-91.08618,37.21231],[-91.08638,37.21206],[-91.08658,37.21174],[-91.08664,37.21165],[-91.08669,37.21158],[-91.0868,37.21142],[-91.08681,37.21141],[-91.08691,37.21127],[-91.08702,37.21111],[-91.08723,37.21079],[-91.08734,37.21064],[-91.08741,37.21053],[-91.08745,37.21048],[-91.08767,37.21016],[-91.08778,37.21001],[-91.08789,37.20985],[-91.088,37.20969],[-91.08811,37.20953],[-91.08822,37.20938],[-91.08833,37.20922],[-91.08844,37.20906],[-91.08865,37.20875],[-91.08876,37.20859],[-91.08887,37.20843],[-91.08898,37.20828],[-91.08902,37.20822],[-91.08909,37.20812],[-91.08918,37.20799],[-91.08932,37.20781],[-91.08943,37.2077],[-91.08951,37.20763],[-91.08962,37.20754],[-91.08965,37.20751],[-91.08978,37.20741],[-91.08981,37.20739],[-91.08998,37.20728],[-91.09014,37.20719],[-91.09032,37.20709],[-91.09038,37.20706],[-91.09051,37.20699],[-91.0907,37.2069],[-91.0909,37.2068],[-91.09126,37.20662],[-91.09149,37.20651],[-91.09164,37.20643],[-91.09192,37.20627],[-91.09219,37.20611],[-91.09229,37.20606],[-91.09237,37.20601],[-91.09255,37.20589],[-91.09264,37.20583],[-91.09312,37.20552],[-91.09324,37.20543],[-91.09336,37.20535],[-91.09356,37.20519],[-91.0937,37.20508],[-91.09403,37.20481],[-91.0942,37.20467],[-91.09439,37.20451],[-91.09479,37.20414],[-91.09509,37.20386],[-91.09531,37.20364],[-91.09537,37.20358],[-91.09565,37.20329],[-91.09575,37.20319],[-91.09578,37.20315],[-91.09627,37.20258],[-91.09647,37.20233],[-91.09665,37.20209],[-91.09668,37.20206],[-91.09677,37.20194],[-91.09678,37.20192],[-91.09687,37.20179],[-91.09687,37.20178],[-91.09696,37.20167],[-91.09699,37.20163],[-91.09709,37.20147],[-91.0972,37.20131],[-91.0974,37.201],[-91.09762,37.20063],[-91.0977,37.2005],[-91.09779,37.20034],[-91.09804,37.19991],[-91.09808,37.19985],[-91.09817,37.19969],[-91.09825,37.19956],[-91.0984,37.19932],[-91.09848,37.19921],[-91.09854,37.19913],[-91.09862,37.19906],[-91.09869,37.19899],[-91.09889,37.19883],[-91.09905,37.19872],[-91.09929,37.19859],[-91.09955,37.19848],[-91.09989,37.19835],[-91.0999,37.19835],[-91.1001,37.19827],[-91.1003,37.1982],[-91.10057,37.1981],[-91.10093,37.19795],[-91.10123,37.19782],[-91.10143,37.19773],[-91.10176,37.19756],[-91.10188,37.1975],[-91.10207,37.19739],[-91.1021,37.19737],[-91.10236,37.19721],[-91.10242,37.19717],[-91.10252,37.19711],[-91.1026,37.19706],[-91.10264,37.19702],[-91.10292,37.19681],[-91.10314,37.19665],[-91.10325,37.19656],[-91.10341,37.19643],[-91.10352,37.19634],[-91.10372,37.19618],[-91.10388,37.19605],[-91.10424,37.19575],[-91.10446,37.1956],[-91.10458,37.19553],[-91.10477,37.19542],[-91.10501,37.19531],[-91.10513,37.19526],[-91.10539,37.19517],[-91.1055,37.19514],[-91.10567,37.19508],[-91.10614,37.19496],[-91.10658,37.19485],[-91.10727,37.19468],[-91.10755,37.19461],[-91.10788,37.19456],[-91.10816,37.19453],[-91.10818,37.19453],[-91.10863,37.19452],[-91.10898,37.19452],[-91.10905,37.19452],[-91.10951,37.19451],[-91.10965,37.19451],[-91.10988,37.19449],[-91.10991,37.19449],[-91.1101,37.19448],[-91.11028,37.19447],[-91.11074,37.19442],[-91.11078,37.19442],[-91.111,37.19438],[-91.11119,37.19434],[-91.11122,37.19434],[-91.11144,37.1943],[-91.11166,37.19426],[-91.11176,37.19424],[-91.11231,37.19412],[-91.11233,37.19412],[-91.11253,37.19408],[-91.11262,37.19407],[-91.11305,37.19399],[-91.11342,37.19392],[-91.11343,37.19392],[-91.11364,37.19391],[-91.11375,37.1939],[-91.11387,37.1939],[-91.11409,37.19389],[-91.11416,37.19389],[-91.11432,37.1939],[-91.11454,37.1939],[-91.11477,37.19391],[-91.11479,37.19391],[-91.11499,37.19393],[-91.11516,37.19395],[-91.11544,37.19398],[-91.11582,37.19402],[-91.11611,37.19405],[-91.11631,37.19407],[-91.11634,37.19407],[-91.11665,37.19408],[-91.11693,37.19408],[-91.11701,37.19407],[-91.11723,37.19406],[-91.11724,37.19406],[-91.11746,37.19403],[-91.11754,37.19402],[-91.11768,37.19399],[-91.11784,37.19397],[-91.1179,37.19395],[-91.1181,37.19389],[-91.11811,37.19389],[-91.11848,37.19376],[-91.11867,37.19369],[-91.11889,37.19358],[-91.11892,37.19357],[-91.1191,37.19346],[-91.11928,37.19335],[-91.11933,37.19332],[-91.11946,37.19324],[-91.11963,37.19313],[-91.11981,37.19301],[-91.11998,37.1929],[-91.12016,37.19278],[-91.12029,37.1927],[-91.12033,37.19267],[-91.12117,37.19212],[-91.12138,37.19199],[-91.12156,37.19187],[-91.12173,37.19176],[-91.12184,37.19169],[-91.12191,37.19165],[-91.12221,37.19147],[-91.12253,37.19129],[-91.12277,37.19117],[-91.12284,37.19114],[-91.12302,37.19105],[-91.12325,37.19094],[-91.12342,37.19088],[-91.12384,37.19074],[-91.12474,37.19047],[-91.12475,37.19047],[-91.12516,37.19034],[-91.12528,37.1903],[-91.12579,37.19015],[-91.126,37.19009],[-91.12608,37.19006],[-91.12621,37.19002],[-91.12658,37.18991],[-91.12664,37.1899],[-91.12685,37.18983],[-91.12727,37.1897],[-91.12734,37.18968],[-91.12748,37.18964],[-91.12769,37.18958],[-91.1279,37.18952],[-91.12791,37.18951],[-91.12811,37.18945],[-91.12867,37.18928],[-91.12874,37.18925],[-91.12896,37.18919],[-91.12914,37.18913],[-91.12917,37.18912],[-91.12938,37.18906],[-91.12959,37.189],[-91.12968,37.18897],[-91.1298,37.18894],[-91.13036,37.18877],[-91.13107,37.18855],[-91.13126,37.18849],[-91.13128,37.18849],[-91.13149,37.18842],[-91.13166,37.18837],[-91.1317,37.18836],[-91.13191,37.1883],[-91.13212,37.18823],[-91.1323,37.18818],[-91.13269,37.18809],[-91.13299,37.18804],[-91.13304,37.18804],[-91.13322,37.18803],[-91.13332,37.18802],[-91.13344,37.18802],[-91.13354,37.18802],[-91.13367,37.18803],[-91.13375,37.18804],[-91.13389,37.18806],[-91.13401,37.18807],[-91.13427,37.18813],[-91.13433,37.18815],[-91.13437,37.18816],[-91.13453,37.18822],[-91.13474,37.1883],[-91.13482,37.18833],[-91.13515,37.18845],[-91.1353,37.18851],[-91.13575,37.1887],[-91.13595,37.18878],[-91.13595,37.18879],[-91.13615,37.18887],[-91.13676,37.18912],[-91.13695,37.1892],[-91.13715,37.18929],[-91.13734,37.18937],[-91.13754,37.18946],[-91.13766,37.1895],[-91.13774,37.18954],[-91.13814,37.18971],[-91.13834,37.18979],[-91.13854,37.18987],[-91.13894,37.19004],[-91.13902,37.19007],[-91.13914,37.19013],[-91.13934,37.19021],[-91.13954,37.19029],[-91.13994,37.19046],[-91.14009,37.19052],[-91.14034,37.19063],[-91.14074,37.1908],[-91.1409,37.19087],[-91.14119,37.19101],[-91.14131,37.19109],[-91.14142,37.19116],[-91.14148,37.1912],[-91.14165,37.19132],[-91.14183,37.19149],[-91.142,37.19169],[-91.14201,37.1917],[-91.14211,37.19184],[-91.1422,37.19196],[-91.14223,37.192],[-91.14233,37.19216],[-91.14255,37.19247],[-91.14277,37.19278],[-91.14289,37.19294],[-91.14302,37.19309],[-91.14304,37.19312],[-91.14315,37.19323],[-91.14328,37.19338],[-91.14332,37.19342],[-91.14343,37.19351],[-91.14358,37.19363],[-91.14359,37.19364],[-91.14392,37.19389],[-91.14395,37.1939],[-91.1441,37.194],[-91.14434,37.19414],[-91.14447,37.19421],[-91.14474,37.19434],[-91.14485,37.19439],[-91.14505,37.19447],[-91.14525,37.19456],[-91.14542,37.19463],[-91.14545,37.19464],[-91.14566,37.19471],[-91.14583,37.19477],[-91.14608,37.19485],[-91.14619,37.19488],[-91.14629,37.19491],[-91.14671,37.19504],[-91.14678,37.19506],[-91.14715,37.19512],[-91.14737,37.19516],[-91.14757,37.19519],[-91.14759,37.19519],[-91.14782,37.19523],[-91.14804,37.19526],[-91.1482,37.19529],[-91.14826,37.19529],[-91.14848,37.19531],[-91.14871,37.19533],[-91.14886,37.19534],[-91.14893,37.19534],[-91.14916,37.19535],[-91.14938,37.19536],[-91.14961,37.19537],[-91.14999,37.19538],[-91.15052,37.19539],[-91.15074,37.19539],[-91.15144,37.19539],[-91.15209,37.19535],[-91.15232,37.19534],[-91.15263,37.19532],[-91.15276,37.1953],[-91.15299,37.19526],[-91.15321,37.19523],[-91.15332,37.19521],[-91.15343,37.19519],[-91.15365,37.19514],[-91.15386,37.19509],[-91.15408,37.19504],[-91.15417,37.19502],[-91.15429,37.19499],[-91.15451,37.19492],[-91.15466,37.19488],[-91.15513,37.19472],[-91.15532,37.19466],[-91.15534,37.19465],[-91.15554,37.19457],[-91.15575,37.1945],[-91.15595,37.19442],[-91.15607,37.19438],[-91.15616,37.19435],[-91.15636,37.19427],[-91.15657,37.1942],[-91.15677,37.19412],[-91.15688,37.19408],[-91.15698,37.19405],[-91.1572,37.194],[-91.15741,37.19394],[-91.15763,37.19389],[-91.15766,37.19388],[-91.15785,37.19384],[-91.15808,37.1938],[-91.15829,37.19377],[-91.15857,37.19373],[-91.15896,37.19371],[-91.15903,37.19371],[-91.1594,37.1937],[-91.1603,37.19367],[-91.16052,37.19366],[-91.16075,37.19365],[-91.16098,37.19364],[-91.16099,37.19364],[-91.1612,37.19363],[-91.16188,37.19361],[-91.1621,37.1936],[-91.16233,37.19359],[-91.16323,37.19356],[-91.16346,37.19355],[-91.16368,37.19354],[-91.16391,37.19353],[-91.16413,37.19352],[-91.16436,37.19351],[-91.16458,37.19351],[-91.16482,37.1935],[-91.16526,37.19348],[-91.16549,37.19347],[-91.16566,37.19347],[-91.16571,37.19347],[-91.16594,37.19346],[-91.16616,37.19345],[-91.16684,37.19343],[-91.16707,37.19342],[-91.16713,37.19342],[-91.16729,37.19341],[-91.16752,37.1934],[-91.16774,37.19339],[-91.16796,37.19338],[-91.16797,37.19338],[-91.16819,37.19337],[-91.16842,37.19335],[-91.1685,37.19334],[-91.16864,37.19332],[-91.16886,37.19329],[-91.16899,37.19328],[-91.16908,37.19325],[-91.1693,37.19319],[-91.16952,37.19312],[-91.17001,37.1929],[-91.17038,37.19269],[-91.17065,37.19249],[-91.17082,37.19236],[-91.17099,37.1922],[-91.17105,37.19215],[-91.17118,37.192],[-91.17119,37.192],[-91.1713,37.19185],[-91.17143,37.1917],[-91.17207,37.19075],[-91.17284,37.1896],[-91.17289,37.1895],[-91.17329,37.18891],[-91.17346,37.18863],[-91.17356,37.18848],[-91.17377,37.18816],[-91.17385,37.18804],[-91.17398,37.18784],[-91.17404,37.18776],[-91.17417,37.18752],[-91.17426,37.18735],[-91.17434,37.18722],[-91.17447,37.18703],[-91.1745,37.187],[-91.1746,37.18688],[-91.1747,37.18677],[-91.17489,37.18659],[-91.17512,37.18644],[-91.17523,37.18638],[-91.17537,37.1863],[-91.17542,37.18627],[-91.17553,37.18622],[-91.17576,37.18611],[-91.17601,37.18603],[-91.17623,37.18598],[-91.17624,37.18597],[-91.17656,37.18591],[-91.17764,37.18574],[-91.178,37.18567],[-91.17822,37.18563],[-91.17844,37.18559],[-91.17931,37.18543],[-91.18018,37.18526],[-91.1804,37.18522],[-91.18111,37.18509],[-91.18128,37.18505],[-91.1814,37.18503],[-91.1815,37.185],[-91.18166,37.18496],[-91.18209,37.18482],[-91.18213,37.1848],[-91.18235,37.1847],[-91.18269,37.1845],[-91.18282,37.18443],[-91.18301,37.18425],[-91.18303,37.18422],[-91.18314,37.1841],[-91.18326,37.18395],[-91.18362,37.18342],[-91.18374,37.18314],[-91.18383,37.18288],[-91.18385,37.18279],[-91.1839,37.18259],[-91.18396,37.18226],[-91.18399,37.18213],[-91.18402,37.18167],[-91.18403,37.18155],[-91.18407,37.18118],[-91.18412,37.18083],[-91.18416,37.1805],[-91.18427,37.17994],[-91.18434,37.17958],[-91.18439,37.17929],[-91.1846,37.17767],[-91.18462,37.17752],[-91.18478,37.17658],[-91.18482,37.17643],[-91.18487,37.17625],[-91.18489,37.17615],[-91.18495,37.17598],[-91.18503,37.17573],[-91.18506,37.17565],[-91.18532,37.17507],[-91.18582,37.17406],[-91.1859,37.17389],[-91.18597,37.17374],[-91.18625,37.1732],[-91.18631,37.17306],[-91.18639,37.17289],[-91.18644,37.17279],[-91.18657,37.17256],[-91.18677,37.17219],[-91.18684,37.17206],[-91.18692,37.1719],[-91.187,37.17173],[-91.18718,37.1714],[-91.18736,37.17107],[-91.18736,37.17106],[-91.18744,37.1709],[-91.18762,37.17049],[-91.18767,37.17039],[-91.18782,37.17005],[-91.18795,37.16974],[-91.18797,37.16971],[-91.18824,37.16923],[-91.18833,37.16905],[-91.18842,37.16889],[-91.18852,37.1687],[-91.18876,37.1683],[-91.1891,37.16786],[-91.18934,37.16759],[-91.18953,37.16741],[-91.18975,37.16723],[-91.19004,37.16701],[-91.19043,37.16677],[-91.1907,37.16664],[-91.19097,37.16653],[-91.19134,37.1664],[-91.19207,37.16611],[-91.19327,37.16564],[-91.19328,37.16564],[-91.19348,37.16555],[-91.19403,37.16531],[-91.19428,37.16522],[-91.19443,37.16518],[-91.19449,37.16515],[-91.19469,37.16507],[-91.19542,37.16477],[-91.1957,37.16467],[-91.19579,37.16463],[-91.19611,37.16451],[-91.19619,37.16447],[-91.19651,37.16434],[-91.197,37.16409],[-91.19726,37.16394],[-91.1974,37.16386],[-91.19743,37.16383],[-91.19778,37.1636],[-91.1978,37.16359],[-91.19841,37.16316],[-91.19929,37.16254],[-91.20064,37.16156],[-91.20249,37.16024],[-91.20357,37.15947],[-91.20383,37.15928],[-91.20468,37.15868],[-91.20501,37.15845],[-91.20509,37.15839],[-91.20536,37.15822],[-91.20541,37.15818],[-91.20591,37.1579],[-91.2061,37.1578],[-91.20683,37.15738],[-91.20739,37.15707],[-91.2074,37.15706],[-91.20754,37.15694],[-91.20765,37.15684],[-91.20788,37.15659],[-91.20793,37.1565],[-91.20806,37.15628],[-91.20818,37.15586],[-91.20818,37.15582],[-91.20817,37.15564],[-91.20816,37.15523],[-91.20814,37.1551],[-91.20811,37.15492],[-91.20801,37.1542],[-91.20797,37.1539],[-91.208,37.15367],[-91.20803,37.15336],[-91.20813,37.15314],[-91.20847,37.15268],[-91.20861,37.15254],[-91.20869,37.15246],[-91.2092,37.15199],[-91.20947,37.15175],[-91.20981,37.15146],[-91.21042,37.15093],[-91.21102,37.1504],[-91.21103,37.1504],[-91.21164,37.14987],[-91.21201,37.14955],[-91.21213,37.14945],[-91.21228,37.14933],[-91.21238,37.14926],[-91.21248,37.14921],[-91.21255,37.14917],[-91.21263,37.14913],[-91.21268,37.14911],[-91.21275,37.14908],[-91.21293,37.14901],[-91.213,37.14899],[-91.21308,37.14897],[-91.21312,37.14896],[-91.21318,37.14895],[-91.21329,37.14893],[-91.21337,37.14892],[-91.21345,37.14891],[-91.21355,37.14891],[-91.21364,37.1489],[-91.21374,37.1489],[-91.21383,37.14891],[-91.21393,37.14892],[-91.21401,37.14892],[-91.21412,37.14894],[-91.21421,37.14895],[-91.21444,37.149],[-91.21485,37.14909],[-91.21489,37.14909],[-91.21553,37.14924],[-91.21567,37.14926],[-91.21588,37.14931],[-91.21596,37.14933],[-91.21608,37.14934],[-91.21617,37.14936],[-91.21627,37.14937],[-91.21635,37.14937],[-91.21642,37.14937],[-91.2165,37.14937],[-91.21665,37.14937],[-91.2168,37.14935],[-91.21691,37.14933],[-91.21697,37.14932],[-91.21702,37.14931],[-91.21712,37.14928],[-91.21723,37.14925],[-91.21733,37.14921],[-91.21743,37.14916],[-91.21751,37.14913],[-91.21762,37.14907],[-91.21768,37.14903],[-91.21782,37.14895],[-91.21787,37.14891],[-91.21812,37.14874],[-91.21838,37.14856],[-91.21839,37.14856],[-91.2189,37.14822],[-91.219,37.14815],[-91.21923,37.148],[-91.21934,37.14793],[-91.21941,37.14788],[-91.21949,37.14784],[-91.21958,37.14779],[-91.21961,37.14777],[-91.21966,37.14775],[-91.21979,37.14769],[-91.21994,37.14763],[-91.22001,37.1476],[-91.22008,37.14758],[-91.22024,37.14752],[-91.22036,37.14748],[-91.22051,37.14745],[-91.22067,37.14741],[-91.22085,37.14737],[-91.22086,37.14737],[-91.22101,37.14735],[-91.22112,37.14734],[-91.22121,37.14733],[-91.22128,37.14732],[-91.22131,37.14732],[-91.2214,37.14731],[-91.22156,37.14731],[-91.22162,37.1473],[-91.22179,37.14731],[-91.22194,37.14731],[-91.22206,37.14732],[-91.22221,37.14733],[-91.22225,37.14734],[-91.22243,37.14736],[-91.22244,37.14736],[-91.22283,37.14739],[-91.22333,37.14745],[-91.22378,37.14749],[-91.22389,37.14751],[-91.22429,37.14755],[-91.22445,37.14757],[-91.22453,37.14757],[-91.2247,37.14759],[-91.22485,37.14761],[-91.22506,37.14764],[-91.22518,37.14766],[-91.22528,37.14769],[-91.22533,37.1477],[-91.22539,37.14771],[-91.22552,37.14775],[-91.22555,37.14776],[-91.22562,37.14779],[-91.2257,37.14781],[-91.22579,37.14785],[-91.22591,37.1479],[-91.22603,37.14796],[-91.22637,37.14813],[-91.22657,37.14823],[-91.22672,37.1483],[-91.22685,37.14835],[-91.22701,37.1484],[-91.22718,37.14846],[-91.22731,37.14849],[-91.22734,37.1485],[-91.22743,37.14852],[-91.22755,37.14855],[-91.22781,37.1486],[-91.22793,37.14862],[-91.228,37.14863],[-91.22802,37.14863],[-91.22819,37.14865],[-91.22842,37.14866],[-91.22865,37.14866],[-91.2289,37.14866],[-91.22898,37.14866],[-91.22958,37.14865],[-91.22975,37.14865],[-91.2298,37.14865],[-91.22996,37.14864],[-91.23006,37.14864],[-91.23014,37.14863],[-91.23029,37.14861],[-91.23036,37.1486],[-91.23043,37.14859],[-91.23053,37.14857],[-91.23066,37.14853],[-91.23081,37.14848],[-91.23089,37.14844],[-91.23093,37.14843],[-91.23108,37.14835],[-91.23111,37.14833],[-91.23123,37.14825],[-91.23147,37.14806],[-91.23153,37.148],[-91.23161,37.14793],[-91.2317,37.14783],[-91.23178,37.14772],[-91.23184,37.14764],[-91.2319,37.14754],[-91.23194,37.14747],[-91.23197,37.14741],[-91.23201,37.14733],[-91.23204,37.14725],[-91.23209,37.14708],[-91.23227,37.14658],[-91.23236,37.14635],[-91.23244,37.14615],[-91.23244,37.14614],[-91.23261,37.14571],[-91.23265,37.14563],[-91.23269,37.14554],[-91.23272,37.14549],[-91.23276,37.14545],[-91.23282,37.14538],[-91.23287,37.14534],[-91.23289,37.14532],[-91.23294,37.14528],[-91.233,37.14523],[-91.23308,37.14519],[-91.23319,37.14514],[-91.23332,37.14509],[-91.23339,37.14508],[-91.23347,37.14506],[-91.23355,37.14505],[-91.2336,37.14505],[-91.23365,37.14504],[-91.2337,37.14504],[-91.23376,37.14505],[-91.23381,37.14505],[-91.23392,37.14506],[-91.23407,37.14508],[-91.23424,37.1451],[-91.23458,37.14515],[-91.23483,37.14519],[-91.23504,37.1452],[-91.23526,37.14522],[-91.23541,37.14522],[-91.23551,37.14522],[-91.23559,37.14522],[-91.23573,37.14521],[-91.23576,37.14521],[-91.23598,37.14519],[-91.23613,37.14517],[-91.23625,37.14515],[-91.2364,37.14512],[-91.23659,37.14507],[-91.2367,37.14504],[-91.23683,37.145],[-91.23694,37.14496],[-91.23707,37.14491],[-91.23718,37.14486],[-91.23736,37.14478],[-91.23752,37.14468],[-91.23766,37.14461],[-91.23778,37.14453],[-91.23786,37.14448],[-91.2381,37.14429],[-91.2384,37.14402],[-91.23841,37.14401],[-91.23853,37.14391],[-91.23876,37.14373],[-91.23904,37.14357],[-91.23909,37.14355],[-91.23924,37.14348],[-91.23939,37.14344],[-91.23955,37.14339],[-91.23978,37.14334],[-91.24004,37.14331],[-91.24048,37.14326],[-91.24061,37.14324],[-91.24078,37.14322],[-91.24084,37.14322],[-91.24103,37.14319],[-91.24165,37.14311],[-91.24186,37.14309],[-91.24196,37.14308],[-91.24208,37.14308],[-91.24219,37.14307],[-91.24228,37.14308],[-91.2424,37.14308],[-91.24257,37.14309],[-91.2429,37.14315],[-91.24305,37.14318],[-91.24318,37.1432],[-91.24319,37.14321],[-91.24338,37.14325],[-91.24361,37.14331],[-91.24373,37.14335],[-91.24386,37.14339],[-91.24398,37.14342],[-91.24413,37.14347],[-91.24419,37.1435],[-91.24425,37.14352],[-91.2443,37.14354],[-91.24442,37.14359],[-91.24445,37.14361],[-91.24452,37.14364],[-91.24459,37.14369],[-91.2447,37.14375],[-91.24475,37.14378],[-91.24484,37.14384],[-91.24511,37.14409],[-91.24523,37.14419],[-91.24545,37.14445],[-91.24558,37.14463],[-91.24587,37.14507],[-91.24618,37.14553],[-91.24676,37.14636],[-91.24694,37.14664],[-91.24699,37.14671],[-91.24706,37.14683],[-91.2471,37.14694],[-91.24711,37.14696],[-91.24715,37.14706],[-91.24719,37.14717],[-91.24721,37.14731],[-91.24722,37.14741],[-91.24722,37.14758],[-91.24722,37.14767],[-91.24721,37.14785],[-91.24721,37.14793],[-91.24719,37.14821],[-91.24718,37.14823],[-91.24715,37.1487],[-91.24715,37.14875],[-91.24713,37.14891],[-91.24712,37.14911],[-91.24712,37.14913],[-91.24712,37.14929],[-91.24713,37.14941],[-91.24715,37.14952],[-91.24718,37.14964],[-91.24719,37.14968],[-91.24721,37.14976],[-91.24735,37.15004],[-91.2474,37.15012],[-91.24742,37.15015],[-91.24744,37.15019],[-91.24751,37.15027],[-91.24759,37.15036],[-91.24768,37.15044],[-91.24775,37.1505],[-91.24787,37.1506],[-91.24804,37.15071],[-91.2481,37.15075],[-91.24817,37.15079],[-91.24824,37.15083],[-91.24831,37.15086],[-91.24838,37.15089],[-91.2484,37.1509],[-91.24849,37.15093],[-91.24856,37.15095],[-91.24858,37.15096],[-91.24865,37.15098],[-91.24873,37.15101],[-91.24883,37.15104],[-91.24891,37.15105],[-91.24903,37.15108],[-91.24913,37.15109],[-91.24921,37.1511],[-91.24929,37.15111],[-91.2494,37.15111],[-91.2495,37.15111],[-91.2496,37.15111],[-91.24967,37.1511],[-91.24975,37.15109],[-91.24995,37.15106],[-91.25011,37.15104],[-91.25032,37.15099],[-91.25099,37.15082],[-91.25207,37.15055],[-91.25231,37.15049],[-91.25279,37.15038],[-91.25302,37.15033],[-91.25315,37.1503],[-91.25324,37.15028],[-91.25342,37.15026],[-91.25364,37.15024],[-91.25387,37.15023],[-91.25412,37.15024],[-91.25434,37.15025],[-91.25456,37.15027],[-91.25475,37.1503],[-91.25493,37.15033],[-91.25494,37.15033],[-91.25512,37.15037],[-91.25516,37.15038],[-91.25527,37.15041],[-91.25544,37.15046],[-91.25562,37.15053],[-91.25579,37.15059],[-91.25591,37.15065],[-91.25605,37.15072],[-91.25619,37.15079],[-91.25635,37.15088],[-91.25645,37.15094],[-91.25676,37.15113],[-91.25689,37.15121],[-91.25704,37.1513],[-91.25714,37.15136],[-91.25725,37.15142],[-91.25735,37.15147],[-91.25746,37.15151],[-91.25763,37.15157],[-91.25781,37.15162],[-91.25795,37.15165],[-91.25806,37.15166],[-91.25824,37.15169],[-91.25838,37.1517],[-91.25858,37.15172],[-91.25877,37.15172],[-91.25894,37.15171],[-91.25911,37.1517],[-91.25928,37.15167],[-91.25946,37.15164],[-91.25962,37.1516],[-91.25975,37.15156],[-91.25991,37.1515],[-91.26006,37.15144],[-91.26009,37.15143],[-91.26026,37.15136],[-91.26038,37.1513],[-91.26085,37.15112],[-91.26114,37.15102],[-91.26134,37.15097],[-91.26158,37.15092],[-91.26182,37.15088],[-91.26197,37.15087],[-91.26215,37.15086],[-91.26234,37.15086],[-91.2625,37.15087],[-91.26271,37.1509],[-91.26291,37.15094],[-91.26306,37.15098],[-91.26317,37.15101],[-91.26339,37.15108],[-91.26363,37.15118],[-91.26386,37.15129],[-91.26397,37.15135],[-91.26405,37.15139],[-91.26438,37.15156],[-91.26477,37.15176],[-91.26508,37.15192],[-91.26551,37.15213],[-91.26584,37.1523],[-91.26666,37.15273],[-91.26708,37.15295],[-91.26756,37.1532],[-91.26765,37.15325],[-91.26822,37.15354],[-91.26855,37.15372],[-91.2686,37.15374],[-91.2694,37.15415],[-91.27035,37.15464],[-91.27072,37.15484],[-91.27114,37.15505],[-91.27139,37.15518],[-91.27149,37.15522],[-91.27155,37.15525],[-91.27175,37.15533],[-91.27189,37.15538],[-91.27196,37.1554],[-91.27217,37.15547],[-91.2724,37.15554],[-91.27264,37.15559],[-91.27286,37.15564],[-91.27296,37.15566],[-91.27308,37.15568],[-91.27329,37.1557],[-91.2735,37.15573],[-91.27371,37.15574],[-91.27386,37.15575],[-91.27406,37.15575],[-91.27419,37.15575],[-91.27435,37.15575],[-91.2746,37.15573],[-91.27475,37.15572],[-91.27493,37.1557],[-91.27508,37.15568],[-91.27526,37.15566],[-91.27556,37.15561],[-91.27583,37.15555],[-91.27602,37.15549],[-91.27627,37.15541],[-91.27647,37.15534],[-91.27649,37.15533],[-91.27667,37.15525],[-91.27672,37.15523],[-91.27693,37.15513],[-91.27711,37.15503],[-91.27723,37.15495],[-91.27733,37.1549],[-91.27741,37.15485],[-91.27753,37.15477],[-91.27775,37.15462],[-91.27792,37.15449],[-91.27798,37.15445],[-91.27808,37.15437],[-91.27816,37.15431],[-91.27825,37.15422],[-91.27834,37.15413],[-91.27859,37.15385],[-91.27863,37.1538],[-91.27875,37.15365],[-91.27885,37.15353],[-91.27901,37.15327],[-91.27907,37.15317],[-91.27912,37.15308],[-91.27916,37.153],[-91.27925,37.15284],[-91.27928,37.15278],[-91.27942,37.15251],[-91.27946,37.15241],[-91.27957,37.15223],[-91.2796,37.15217],[-91.27966,37.15206],[-91.27969,37.15201],[-91.27976,37.15191],[-91.27986,37.15178],[-91.27996,37.15166],[-91.28013,37.15152],[-91.28023,37.15144],[-91.28034,37.15137],[-91.28046,37.1513],[-91.28056,37.15124],[-91.28066,37.1512],[-91.28082,37.15114],[-91.28117,37.15104],[-91.28146,37.15098],[-91.2818,37.15092],[-91.28203,37.1509],[-91.28235,37.15089],[-91.2825,37.15089],[-91.28264,37.1509],[-91.28277,37.1509],[-91.28292,37.15092],[-91.28321,37.15096],[-91.28349,37.15101],[-91.28371,37.15106],[-91.28388,37.15111],[-91.28505,37.15137],[-91.28519,37.15141],[-91.28538,37.15145],[-91.28557,37.15148],[-91.28571,37.1515],[-91.28588,37.15153],[-91.28605,37.15154],[-91.28607,37.15154],[-91.28622,37.15154],[-91.28639,37.15155],[-91.28659,37.15154],[-91.28687,37.15154],[-91.28719,37.15153],[-91.28757,37.15153],[-91.28799,37.15152],[-91.28842,37.15149],[-91.28864,37.15148],[-91.28886,37.15145],[-91.28912,37.15142],[-91.28915,37.15142],[-91.2899,37.15133],[-91.29023,37.1513],[-91.29049,37.15127],[-91.29072,37.15124],[-91.29104,37.1512],[-91.29105,37.1512],[-91.29109,37.1512],[-91.29126,37.15118],[-91.29127,37.15118],[-91.29145,37.15117],[-91.29156,37.15117],[-91.29167,37.15117],[-91.29179,37.15118],[-91.29193,37.1512],[-91.2921,37.15123],[-91.29233,37.15128],[-91.2925,37.15133],[-91.29259,37.15135],[-91.29269,37.15137],[-91.29287,37.15142],[-91.29311,37.15148],[-91.29333,37.15153],[-91.2936,37.15157],[-91.29375,37.15158],[-91.29399,37.15158],[-91.29415,37.15157],[-91.29436,37.15155],[-91.29458,37.15152],[-91.295,37.15143],[-91.29531,37.15138],[-91.29603,37.15123],[-91.29642,37.15115],[-91.29668,37.1511],[-91.29681,37.15108],[-91.29697,37.15106],[-91.29719,37.15104],[-91.29727,37.15104],[-91.29737,37.15104],[-91.29755,37.15106],[-91.29766,37.15106],[-91.29781,37.15109],[-91.29795,37.15112],[-91.29804,37.15114],[-91.29813,37.15116],[-91.29822,37.15119],[-91.29832,37.15123],[-91.29845,37.15128],[-91.29855,37.15133],[-91.29867,37.15138],[-91.29895,37.15154],[-91.29915,37.15164],[-91.29972,37.15194],[-91.29976,37.15196],[-91.29991,37.15203],[-91.30008,37.15212],[-91.30025,37.15219],[-91.30042,37.15226],[-91.3005,37.15229],[-91.30055,37.15231],[-91.3007,37.15235],[-91.30072,37.15235],[-91.30117,37.15245],[-91.30137,37.15249],[-91.30167,37.15255],[-91.30178,37.15257],[-91.30191,37.1526],[-91.30203,37.15263],[-91.3022,37.15268],[-91.30224,37.15269],[-91.30231,37.15271],[-91.30248,37.15279],[-91.30264,37.15287],[-91.3028,37.15298],[-91.30282,37.15299],[-91.30291,37.15306],[-91.30297,37.15311],[-91.30309,37.15322],[-91.30325,37.15338],[-91.30336,37.15348],[-91.30349,37.15361],[-91.30361,37.15373],[-91.30379,37.15389],[-91.30384,37.15393],[-91.30387,37.15396],[-91.30396,37.15402],[-91.30404,37.15407],[-91.30411,37.15412],[-91.30419,37.15416],[-91.30429,37.15421],[-91.30438,37.15424],[-91.30444,37.15427],[-91.30464,37.15432],[-91.30474,37.15433],[-91.30484,37.15434],[-91.30502,37.15436],[-91.30522,37.15435],[-91.30527,37.15435],[-91.30535,37.15434],[-91.30545,37.15433],[-91.30558,37.1543],[-91.30571,37.15427],[-91.30598,37.15421],[-91.30614,37.15417],[-91.3065,37.15408],[-91.3067,37.15404],[-91.30698,37.15398],[-91.30701,37.15398],[-91.30727,37.15393],[-91.30743,37.15391],[-91.30756,37.15389],[-91.30774,37.15387],[-91.30804,37.15385],[-91.30828,37.15384],[-91.30856,37.15384],[-91.30876,37.15384],[-91.3088,37.15384],[-91.309,37.15385],[-91.30921,37.15387],[-91.3094,37.15389],[-91.30953,37.1539],[-91.30976,37.15393],[-91.31036,37.15403],[-91.31052,37.15405],[-91.31065,37.15406],[-91.31072,37.15407],[-91.3108,37.15407],[-91.3109,37.15407],[-91.31104,37.15406],[-91.31113,37.15405],[-91.31121,37.15404],[-91.31135,37.15401],[-91.31144,37.15398],[-91.3116,37.15393],[-91.31168,37.15389],[-91.31187,37.15381],[-91.31206,37.15369],[-91.31217,37.15361],[-91.31228,37.15353],[-91.31245,37.15341],[-91.31273,37.15318],[-91.3129,37.15305],[-91.31311,37.15288],[-91.31322,37.15278],[-91.31336,37.15264],[-91.31341,37.15258],[-91.31347,37.15251],[-91.31351,37.15243],[-91.31354,37.15239],[-91.31356,37.15235],[-91.31359,37.15228],[-91.31363,37.15219],[-91.31366,37.15209],[-91.31367,37.15205],[-91.31371,37.15189],[-91.31377,37.15154],[-91.31378,37.15147],[-91.31382,37.15133],[-91.31387,37.15121],[-91.31391,37.15113],[-91.31398,37.15101],[-91.31406,37.15089],[-91.31412,37.1508],[-91.31419,37.15071],[-91.31431,37.15059],[-91.31443,37.15047],[-91.31459,37.15033],[-91.31472,37.15023],[-91.31488,37.15011],[-91.31489,37.15011],[-91.31525,37.14985],[-91.31535,37.14978],[-91.31539,37.14975],[-91.31553,37.14965],[-91.31559,37.1496],[-91.31566,37.14954],[-91.31574,37.14947],[-91.31583,37.14939],[-91.3159,37.14932],[-91.316,37.14921],[-91.31607,37.14912],[-91.31611,37.14905],[-91.31625,37.14884],[-91.31643,37.14858],[-91.31649,37.14849],[-91.31658,37.14836],[-91.31668,37.14824],[-91.31674,37.14816],[-91.31681,37.1481],[-91.31689,37.14804],[-91.31695,37.148],[-91.31699,37.14797],[-91.31709,37.14791],[-91.31713,37.14789],[-91.31715,37.14789],[-91.31721,37.14786],[-91.31728,37.14784],[-91.31737,37.14782],[-91.31745,37.1478],[-91.31753,37.14779],[-91.3176,37.14779],[-91.31773,37.14778],[-91.31788,37.14779],[-91.31802,37.1478],[-91.31827,37.14782],[-91.31844,37.14784],[-91.31992,37.14801],[-91.32081,37.14811],[-91.32179,37.14822],[-91.32232,37.14828],[-91.32318,37.14837],[-91.32357,37.14842],[-91.32389,37.14845],[-91.32411,37.14848],[-91.32484,37.14856],[-91.32523,37.1486],[-91.32537,37.14862],[-91.32545,37.14863],[-91.32553,37.14863],[-91.32566,37.14864],[-91.32585,37.14864],[-91.32599,37.14863],[-91.3261,37.14862],[-91.32618,37.14861],[-91.32628,37.14859],[-91.32635,37.14857],[-91.32655,37.14851],[-91.32666,37.14846],[-91.32672,37.14844],[-91.32686,37.14837],[-91.32687,37.14837],[-91.32697,37.14831],[-91.32705,37.14826],[-91.32713,37.14821],[-91.32727,37.14811],[-91.32748,37.14795],[-91.32785,37.14766],[-91.32804,37.14752],[-91.32813,37.14745],[-91.32846,37.1472],[-91.32904,37.14679],[-91.3292,37.14667],[-91.32959,37.14639],[-91.32971,37.14632],[-91.32987,37.14623],[-91.33003,37.14615],[-91.33023,37.14607],[-91.3303,37.14604],[-91.33035,37.14602],[-91.3305,37.14598],[-91.33051,37.14597],[-91.33064,37.14594],[-91.33077,37.14591],[-91.33091,37.14588],[-91.33104,37.14586],[-91.33118,37.14585],[-91.33142,37.14583],[-91.33155,37.14582],[-91.33169,37.14582],[-91.33186,37.14583],[-91.33204,37.14584],[-91.33213,37.14585],[-91.33228,37.14588],[-91.33241,37.1459],[-91.33248,37.14591],[-91.33258,37.14594],[-91.33277,37.14601],[-91.33289,37.14606],[-91.33302,37.14612],[-91.33318,37.14621],[-91.33329,37.14628],[-91.33341,37.14638],[-91.33349,37.14646],[-91.33362,37.1466],[-91.33366,37.14665],[-91.33375,37.14677],[-91.33391,37.14701],[-91.33402,37.1472],[-91.33422,37.14752],[-91.33432,37.14766],[-91.33445,37.14782],[-91.33456,37.14794],[-91.33466,37.14803],[-91.33474,37.14809],[-91.33484,37.14815],[-91.33493,37.1482],[-91.33501,37.14824],[-91.33509,37.14828],[-91.3352,37.14832],[-91.33533,37.14836],[-91.33534,37.14837],[-91.33543,37.14839],[-91.33553,37.14841],[-91.33563,37.14842],[-91.33578,37.14842],[-91.33585,37.14843],[-91.33593,37.14842],[-91.33607,37.14841],[-91.3363,37.14838],[-91.33696,37.14828],[-91.33755,37.14819],[-91.33781,37.14815],[-91.33803,37.14813],[-91.33828,37.14811],[-91.33852,37.1481],[-91.3388,37.14809],[-91.33909,37.14808],[-91.33925,37.14809],[-91.33951,37.1481],[-91.33969,37.14812],[-91.33982,37.14813],[-91.34013,37.14817],[-91.3406,37.14824],[-91.34088,37.14828],[-91.34107,37.1483],[-91.34132,37.14834],[-91.34152,37.14836],[-91.34171,37.14837],[-91.34189,37.14838],[-91.34206,37.14837],[-91.34216,37.14836],[-91.34224,37.14836],[-91.34238,37.14833],[-91.34245,37.14832],[-91.34255,37.14829],[-91.34272,37.14823],[-91.34303,37.14812],[-91.34329,37.14801],[-91.34368,37.14787],[-91.34383,37.14782],[-91.34398,37.14777],[-91.34427,37.1477],[-91.34447,37.14765],[-91.34471,37.14761],[-91.3449,37.14759],[-91.34518,37.14757],[-91.34533,37.14756],[-91.3455,37.14755],[-91.34565,37.14755],[-91.34577,37.14755],[-91.34595,37.14757],[-91.34631,37.14761],[-91.34664,37.14767],[-91.34708,37.14777],[-91.34723,37.14781],[-91.34738,37.14785],[-91.34788,37.14805],[-91.34838,37.14828],[-91.34871,37.14841],[-91.34889,37.14848],[-91.34912,37.14857],[-91.34978,37.14878],[-91.35021,37.1489],[-91.35052,37.14898],[-91.35095,37.14911],[-91.35115,37.14917],[-91.35136,37.14923],[-91.35144,37.14926],[-91.35182,37.14937],[-91.35219,37.1495],[-91.3522,37.1495],[-91.35237,37.14956],[-91.35253,37.14962],[-91.3526,37.14965],[-91.3527,37.14969],[-91.3528,37.14974],[-91.35284,37.14976],[-91.35294,37.14981],[-91.35299,37.14984],[-91.35318,37.14994],[-91.35374,37.15024],[-91.35389,37.15032],[-91.35395,37.15034],[-91.35401,37.15037],[-91.3541,37.1504],[-91.35424,37.15044],[-91.35426,37.15045],[-91.35437,37.15048],[-91.35453,37.15051],[-91.35465,37.15052],[-91.35484,37.15053],[-91.35516,37.15054],[-91.35555,37.15055],[-91.35578,37.15055],[-91.356,37.15055],[-91.35623,37.15056],[-91.35688,37.15057],[-91.35733,37.15057],[-91.35756,37.15058],[-91.35782,37.15058],[-91.35782,37.15058],[-91.35779,37.15004],[-91.35777,37.14964],[-91.35776,37.14928],[-91.35775,37.14902],[-91.35775,37.14878],[-91.35775,37.14878],[-91.35747,37.14879]]}}]}