{"type":"FeatureCollection","features":[{"type":"Feature","properties":{"_gpxType":"trk","name":"Hide-A-Way Lakes Campground, South Ridge Road West, Ashtabula, OH - 7150 Oakfield North Rd NW - Paradise Lakes Family Campground, Housel Craft Road, Bristolville, OH","coordinateProperties":{},"id":4},"geometry":{"type":"LineString","coordinates":[[-80.80836,41.84374],[-80.80846,41.8437],[-80.80867,41.84361],[-80.80876,41.84357],[-80.80876,41.84357],[-80.80872,41.8435],[-80.80871,41.84347],[-80.8087,41.84343],[-80.80871,41.84339],[-80.80873,41.84335],[-80.80878,41.8433],[-80.8089,41.84322],[-80.80893,41.84319],[-80.80903,41.84305],[-80.8092,41.84279],[-80.80972,41.84198],[-80.80995,41.84161],[-80.81043,41.84084],[-80.81053,41.84067],[-80.81076,41.84029],[-80.81129,41.83944],[-80.81133,41.83937],[-80.81164,41.83888],[-80.81184,41.83855],[-80.81214,41.83806],[-80.81265,41.83724],[-80.81322,41.83631],[-80.81332,41.83619],[-80.8134,41.83611],[-80.81345,41.83602],[-80.81347,41.83594],[-80.81351,41.83584],[-80.8136,41.8357],[-80.81366,41.83561],[-80.8138,41.83539],[-80.81387,41.83529],[-80.81437,41.83447],[-80.81466,41.83402],[-80.81488,41.83366],[-80.81559,41.83251],[-80.81569,41.83235],[-80.81599,41.83186],[-80.81629,41.83137],[-80.81639,41.83121],[-80.81649,41.83104],[-80.8166,41.83088],[-80.8168,41.83055],[-80.8169,41.83039],[-80.817,41.83023],[-80.8171,41.83006],[-80.81781,41.82892],[-80.81827,41.82817],[-80.81862,41.82761],[-80.81882,41.82729],[-80.81923,41.82664],[-80.81954,41.82615],[-80.82026,41.82501],[-80.82036,41.82485],[-80.82087,41.82403],[-80.82131,41.82334],[-80.82172,41.82268],[-80.82199,41.82225],[-80.8223,41.82176],[-80.8228,41.82094],[-80.82311,41.82045],[-80.82321,41.82029],[-80.82361,41.81964],[-80.82371,41.81948],[-80.82412,41.81882],[-80.82432,41.8185],[-80.82463,41.81801],[-80.82483,41.81768],[-80.82523,41.81703],[-80.82533,41.81686],[-80.82544,41.8167],[-80.82544,41.81669],[-80.82554,41.81654],[-80.82594,41.81588],[-80.82615,41.81556],[-80.82635,41.81523],[-80.82665,41.81474],[-80.82686,41.81442],[-80.82726,41.81376],[-80.82736,41.8136],[-80.82746,41.81344],[-80.82757,41.81327],[-80.82767,41.81311],[-80.82777,41.81295],[-80.82797,41.81262],[-80.82807,41.81246],[-80.82817,41.81229],[-80.82828,41.81213],[-80.82838,41.81197],[-80.82848,41.8118],[-80.82878,41.81131],[-80.82885,41.8112],[-80.82888,41.81115],[-80.82899,41.81099],[-80.82909,41.81082],[-80.82919,41.81066],[-80.82929,41.8105],[-80.8296,41.81001],[-80.8297,41.80985],[-80.8298,41.80968],[-80.8299,41.80952],[-80.83001,41.80936],[-80.83042,41.80871],[-80.83052,41.80854],[-80.83062,41.80838],[-80.83123,41.8074],[-80.83133,41.80724],[-80.83144,41.80708],[-80.83154,41.80691],[-80.83195,41.80626],[-80.83215,41.80594],[-80.83245,41.80545],[-80.83246,41.80545],[-80.83256,41.80528],[-80.83266,41.80512],[-80.83286,41.80479],[-80.83296,41.80463],[-80.83297,41.80461],[-80.83306,41.80447],[-80.83316,41.8043],[-80.83326,41.80414],[-80.83336,41.80398],[-80.83343,41.80387],[-80.83346,41.80381],[-80.83376,41.80332],[-80.83389,41.80307],[-80.83398,41.8029],[-80.83408,41.80274],[-80.83418,41.80258],[-80.83428,41.80242],[-80.83439,41.80226],[-80.83459,41.80193],[-80.83466,41.80182],[-80.83469,41.80177],[-80.83479,41.8016],[-80.83499,41.80127],[-80.83509,41.80111],[-80.83516,41.80099],[-80.8357,41.80013],[-80.83577,41.80001],[-80.83589,41.7998],[-80.83599,41.79964],[-80.83607,41.79951],[-80.8363,41.79915],[-80.8364,41.79899],[-80.83661,41.79866],[-80.83671,41.7985],[-80.83706,41.79796],[-80.83722,41.79766],[-80.83731,41.79752],[-80.83741,41.79735],[-80.83746,41.79727],[-80.83751,41.79719],[-80.83752,41.79718],[-80.83761,41.79704],[-80.83761,41.79703],[-80.83782,41.7967],[-80.83786,41.79663],[-80.83789,41.79659],[-80.83792,41.79654],[-80.83803,41.79638],[-80.83824,41.79605],[-80.83854,41.79556],[-80.83864,41.7954],[-80.83875,41.79524],[-80.83895,41.79491],[-80.83905,41.79475],[-80.83915,41.79459],[-80.83946,41.7941],[-80.83954,41.79397],[-80.83965,41.79377],[-80.83967,41.79372],[-80.83975,41.7936],[-80.84035,41.79262],[-80.84076,41.79197],[-80.84086,41.79181],[-80.84146,41.79083],[-80.84156,41.79066],[-80.84177,41.79034],[-80.84187,41.79017],[-80.84197,41.79001],[-80.84207,41.78984],[-80.84217,41.78968],[-80.84227,41.78952],[-80.84257,41.78903],[-80.84267,41.78886],[-80.84278,41.7887],[-80.84288,41.78854],[-80.84308,41.78821],[-80.84326,41.78793],[-80.84358,41.78739],[-80.84368,41.78723],[-80.84398,41.78674],[-80.84419,41.78641],[-80.84469,41.7856],[-80.84489,41.78527],[-80.84499,41.78511],[-80.84529,41.78461],[-80.84569,41.78396],[-80.846,41.78347],[-80.8462,41.78314],[-80.8463,41.78298],[-80.8464,41.78282],[-80.8465,41.78265],[-80.8466,41.78249],[-80.8467,41.78233],[-80.8468,41.78216],[-80.84681,41.78215],[-80.8469,41.782],[-80.84692,41.78196],[-80.847,41.78184],[-80.8471,41.78167],[-80.84721,41.78151],[-80.84724,41.78145],[-80.84764,41.7808],[-80.84785,41.78047],[-80.84815,41.77999],[-80.84845,41.7795],[-80.84856,41.77933],[-80.84866,41.77917],[-80.84876,41.77901],[-80.84886,41.77884],[-80.84906,41.77852],[-80.84937,41.77803],[-80.84938,41.77801],[-80.84947,41.77786],[-80.84967,41.77754],[-80.85003,41.77694],[-80.85006,41.77688],[-80.85016,41.77671],[-80.8504,41.77628],[-80.8507,41.77573],[-80.8508,41.77555],[-80.8509,41.77538],[-80.85109,41.77505],[-80.85115,41.77495],[-80.85125,41.77472],[-80.85144,41.77427],[-80.85146,41.7742],[-80.85153,41.77403],[-80.8516,41.77386],[-80.85167,41.77368],[-80.85168,41.77367],[-80.85173,41.77351],[-80.85185,41.77311],[-80.85187,41.77298],[-80.85191,41.7727],[-80.85192,41.77237],[-80.85193,41.77196],[-80.85192,41.77181],[-80.8519,41.77124],[-80.85184,41.77088],[-80.85182,41.77071],[-80.85178,41.77049],[-80.8517,41.76997],[-80.85159,41.76946],[-80.85156,41.76932],[-80.85155,41.76928],[-80.85145,41.76893],[-80.8514,41.76877],[-80.85125,41.76829],[-80.851,41.76776],[-80.85073,41.76722],[-80.85068,41.76711],[-80.85013,41.76606],[-80.85002,41.76588],[-80.84973,41.76535],[-80.84965,41.76521],[-80.84946,41.76488],[-80.84937,41.76471],[-80.84928,41.76455],[-80.84882,41.76372],[-80.84874,41.76357],[-80.84808,41.76239],[-80.84799,41.76222],[-80.84789,41.76206],[-80.8478,41.76189],[-80.84777,41.76183],[-80.84753,41.76139],[-80.84744,41.76122],[-80.84727,41.76089],[-80.84709,41.76055],[-80.847,41.76039],[-80.84691,41.76022],[-80.84682,41.76005],[-80.84673,41.75988],[-80.84665,41.75972],[-80.84652,41.75949],[-80.8464,41.75921],[-80.84632,41.75904],[-80.84624,41.75887],[-80.84617,41.75872],[-80.84604,41.75835],[-80.84598,41.75818],[-80.84592,41.758],[-80.84589,41.75792],[-80.84586,41.75783],[-80.84574,41.75748],[-80.84569,41.75731],[-80.84563,41.75713],[-80.84557,41.75696],[-80.8455,41.75675],[-80.84546,41.75661],[-80.8454,41.75643],[-80.84529,41.75608],[-80.84523,41.75591],[-80.84515,41.75566],[-80.84508,41.75538],[-80.84503,41.7552],[-80.84498,41.75503],[-80.84497,41.75497],[-80.84486,41.7545],[-80.84478,41.75414],[-80.84476,41.75402],[-80.84474,41.75396],[-80.84466,41.75361],[-80.84464,41.75351],[-80.8446,41.75328],[-80.84462,41.75317],[-80.84462,41.75307],[-80.84462,41.75304],[-80.84459,41.75292],[-80.8445,41.75255],[-80.84446,41.75233],[-80.84444,41.75203],[-80.84442,41.75173],[-80.84432,41.75072],[-80.84428,41.75023],[-80.84426,41.74978],[-80.84426,41.74969],[-80.84428,41.749],[-80.84429,41.74861],[-80.84431,41.74807],[-80.84431,41.74795],[-80.84431,41.74771],[-80.84432,41.74735],[-80.84433,41.74717],[-80.84433,41.74702],[-80.84434,41.74681],[-80.84434,41.74646],[-80.84435,41.74592],[-80.84436,41.74556],[-80.84438,41.74466],[-80.8444,41.74394],[-80.84441,41.7434],[-80.84441,41.74322],[-80.84442,41.74268],[-80.84443,41.74232],[-80.84445,41.74142],[-80.84445,41.74127],[-80.84445,41.74124],[-80.84447,41.74052],[-80.84449,41.73998],[-80.8445,41.73962],[-80.84452,41.73872],[-80.84455,41.73798],[-80.84457,41.73702],[-80.84457,41.73666],[-80.8446,41.73546],[-80.8446,41.73522],[-80.84461,41.73486],[-80.84462,41.7345],[-80.84464,41.73396],[-80.84464,41.73378],[-80.84465,41.73342],[-80.84466,41.73306],[-80.84467,41.73288],[-80.84467,41.7327],[-80.84468,41.73252],[-80.84468,41.73234],[-80.8447,41.73162],[-80.84471,41.73144],[-80.84473,41.73072],[-80.84474,41.73036],[-80.84474,41.73018],[-80.84475,41.72964],[-80.84476,41.72952],[-80.84477,41.72892],[-80.84477,41.72856],[-80.84478,41.7282],[-80.84479,41.72784],[-80.8448,41.72712],[-80.84481,41.72677],[-80.84481,41.72659],[-80.84481,41.72641],[-80.84482,41.72605],[-80.84482,41.72569],[-80.84483,41.72533],[-80.84483,41.72515],[-80.84484,41.72479],[-80.84485,41.72425],[-80.84485,41.72407],[-80.84486,41.72371],[-80.84486,41.72358],[-80.84487,41.72317],[-80.84487,41.72299],[-80.84487,41.72281],[-80.84487,41.72227],[-80.84488,41.72209],[-80.84488,41.72191],[-80.84488,41.72173],[-80.84488,41.72155],[-80.84488,41.7215],[-80.84488,41.72145],[-80.84489,41.72127],[-80.84489,41.72109],[-80.84489,41.72091],[-80.84489,41.72073],[-80.8449,41.72055],[-80.8449,41.72037],[-80.84491,41.71965],[-80.84491,41.71929],[-80.84492,41.71911],[-80.84492,41.71875],[-80.84493,41.71839],[-80.84493,41.71834],[-80.84493,41.71821],[-80.84493,41.71803],[-80.84494,41.71785],[-80.84495,41.71749],[-80.84496,41.71677],[-80.84496,41.71659],[-80.84497,41.71641],[-80.84497,41.71605],[-80.84498,41.71567],[-80.84499,41.71522],[-80.845,41.7146],[-80.845,41.71451],[-80.84501,41.71433],[-80.84501,41.71415],[-80.84502,41.71397],[-80.84504,41.71343],[-80.84505,41.71307],[-80.84507,41.71271],[-80.84507,41.71256],[-80.84507,41.71253],[-80.84508,41.71217],[-80.84508,41.71199],[-80.8451,41.71145],[-80.8451,41.71127],[-80.84511,41.71109],[-80.84511,41.71091],[-80.84512,41.71055],[-80.84512,41.71037],[-80.84513,41.71019],[-80.84513,41.71001],[-80.84514,41.70965],[-80.84514,41.70947],[-80.84515,41.70911],[-80.84516,41.70875],[-80.84517,41.70839],[-80.84518,41.70803],[-80.84518,41.70785],[-80.84519,41.70749],[-80.84521,41.70676],[-80.84521,41.70659],[-80.84522,41.70587],[-80.84522,41.70515],[-80.84523,41.70461],[-80.84523,41.70443],[-80.84524,41.7039],[-80.84524,41.70336],[-80.84526,41.7021],[-80.84526,41.70138],[-80.84526,41.7012],[-80.84527,41.70102],[-80.84527,41.70089],[-80.84527,41.70084],[-80.84528,41.7003],[-80.84528,41.70012],[-80.84528,41.69994],[-80.84528,41.69976],[-80.84529,41.69958],[-80.84529,41.6994],[-80.84529,41.69922],[-80.84529,41.69904],[-80.8453,41.69868],[-80.84531,41.69832],[-80.84531,41.69814],[-80.84531,41.69796],[-80.84531,41.69778],[-80.84532,41.6976],[-80.84532,41.69724],[-80.84532,41.69706],[-80.84533,41.69688],[-80.84533,41.6967],[-80.84533,41.69652],[-80.84534,41.6958],[-80.84534,41.69562],[-80.84535,41.69526],[-80.84535,41.69497],[-80.84536,41.6949],[-80.84536,41.69472],[-80.84537,41.694],[-80.8454,41.69274],[-80.84542,41.69185],[-80.84543,41.69149],[-80.84543,41.69131],[-80.84545,41.69041],[-80.84545,41.69005],[-80.84546,41.68969],[-80.84547,41.68951],[-80.84547,41.68922],[-80.84548,41.68879],[-80.84548,41.68861],[-80.84548,41.68843],[-80.84548,41.68825],[-80.84548,41.68807],[-80.84549,41.68753],[-80.84549,41.68735],[-80.84549,41.68717],[-80.84549,41.68699],[-80.8455,41.68663],[-80.8455,41.68591],[-80.84551,41.68555],[-80.84551,41.68519],[-80.84552,41.68465],[-80.84552,41.68447],[-80.84552,41.68429],[-80.84552,41.68411],[-80.84553,41.68357],[-80.84553,41.68337],[-80.84554,41.68249],[-80.84554,41.68231],[-80.84554,41.68213],[-80.84554,41.68195],[-80.84555,41.68159],[-80.84555,41.68141],[-80.84555,41.68123],[-80.84555,41.68105],[-80.84555,41.68069],[-80.84555,41.68051],[-80.84556,41.68033],[-80.84556,41.68015],[-80.84556,41.67997],[-80.84556,41.67979],[-80.84557,41.67926],[-80.84557,41.67908],[-80.84557,41.6789],[-80.84557,41.67854],[-80.84558,41.67818],[-80.84558,41.67764],[-80.84558,41.67748],[-80.84559,41.67692],[-80.8456,41.67638],[-80.8456,41.67602],[-80.84561,41.67566],[-80.84561,41.67548],[-80.84561,41.6753],[-80.84561,41.67512],[-80.84561,41.67494],[-80.84562,41.67458],[-80.84562,41.67422],[-80.84563,41.67386],[-80.84563,41.67368],[-80.84563,41.6735],[-80.84563,41.67332],[-80.84564,41.67296],[-80.84564,41.67278],[-80.84564,41.6726],[-80.84565,41.67242],[-80.84565,41.67224],[-80.84565,41.67206],[-80.84565,41.6717],[-80.84566,41.6716],[-80.84566,41.67062],[-80.84566,41.67044],[-80.84567,41.66954],[-80.84567,41.66936],[-80.84567,41.669],[-80.84568,41.66846],[-80.84568,41.66828],[-80.84568,41.6681],[-80.84568,41.66774],[-80.84569,41.66756],[-80.84569,41.66738],[-80.84569,41.66684],[-80.84569,41.66636],[-80.8457,41.66619],[-80.8457,41.66579],[-80.8457,41.66565],[-80.84571,41.66529],[-80.84571,41.66511],[-80.84573,41.66421],[-80.84573,41.66403],[-80.84574,41.66367],[-80.84575,41.66331],[-80.84576,41.66242],[-80.84578,41.66188],[-80.84578,41.66188],[-80.84594,41.66187],[-80.84617,41.66185],[-80.84662,41.66174],[-80.84763,41.6615],[-80.84784,41.66145],[-80.84871,41.66124],[-80.84898,41.66118],[-80.84927,41.66111],[-80.84993,41.66095],[-80.85037,41.66085],[-80.85047,41.66083],[-80.85058,41.66083],[-80.8507,41.66083],[-80.85106,41.66092],[-80.85106,41.66092],[-80.85123,41.66069],[-80.85149,41.66035],[-80.85152,41.66032],[-80.85173,41.66004],[-80.85173,41.66004],[-80.85083,41.65978],[-80.8507,41.65974],[-80.85061,41.65972],[-80.85037,41.65967],[-80.85034,41.65966],[-80.84968,41.65951],[-80.84945,41.65946],[-80.84938,41.65944],[-80.84922,41.65941],[-80.84807,41.65914],[-80.84761,41.65903],[-80.8458,41.65861],[-80.8458,41.65861],[-80.8458,41.6585],[-80.8458,41.65794],[-80.8458,41.65758],[-80.84581,41.6574],[-80.84581,41.65704],[-80.84581,41.65693],[-80.84581,41.6565],[-80.84582,41.65632],[-80.84582,41.65614],[-80.84582,41.65596],[-80.84582,41.65578],[-80.84583,41.6556],[-80.84583,41.65524],[-80.84583,41.65506],[-80.84583,41.65488],[-80.84584,41.6547],[-80.84584,41.65452],[-80.84584,41.65416],[-80.84585,41.65398],[-80.84585,41.6538],[-80.84585,41.65362],[-80.84585,41.65344],[-80.84585,41.65326],[-80.84586,41.65308],[-80.84586,41.6529],[-80.84586,41.65254],[-80.84587,41.65218],[-80.84587,41.652],[-80.84587,41.6517],[-80.84588,41.65128],[-80.84588,41.6511],[-80.84588,41.65074],[-80.84588,41.65056],[-80.84588,41.65038],[-80.84589,41.64984],[-80.84589,41.64966],[-80.84589,41.64895],[-80.84589,41.64859],[-80.8459,41.64843],[-80.8459,41.64841],[-80.8459,41.64823],[-80.8459,41.64805],[-80.84591,41.64769],[-80.84591,41.64733],[-80.84592,41.64697],[-80.84592,41.64661],[-80.84592,41.64636],[-80.84593,41.64607],[-80.84593,41.64589],[-80.84593,41.64571],[-80.84593,41.64535],[-80.84593,41.64499],[-80.84593,41.64427],[-80.84594,41.64391],[-80.84594,41.64373],[-80.84594,41.64319],[-80.84594,41.64247],[-80.84595,41.64175],[-80.84595,41.64157],[-80.84595,41.64139],[-80.84596,41.64031],[-80.84596,41.64022],[-80.84596,41.64013],[-80.84595,41.63941],[-80.84595,41.63905],[-80.84595,41.63869],[-80.84595,41.63761],[-80.84595,41.63725],[-80.84595,41.63654],[-80.84595,41.63636],[-80.84595,41.636],[-80.84595,41.63564],[-80.84595,41.63528],[-80.84595,41.63511],[-80.84595,41.6344],[-80.84595,41.63422],[-80.84595,41.63332],[-80.84594,41.63261],[-80.84594,41.63243],[-80.84594,41.63207],[-80.84594,41.63153],[-80.84594,41.63135],[-80.84594,41.63117],[-80.84594,41.63045],[-80.84594,41.63009],[-80.84594,41.62917],[-80.84593,41.62901],[-80.84593,41.62847],[-80.84592,41.62811],[-80.84592,41.62793],[-80.84592,41.62775],[-80.84591,41.62739],[-80.84591,41.62703],[-80.8459,41.62613],[-80.84589,41.62577],[-80.84589,41.62559],[-80.84589,41.62523],[-80.84588,41.62487],[-80.84588,41.62469],[-80.84588,41.62451],[-80.84588,41.62433],[-80.84587,41.62397],[-80.84587,41.62361],[-80.84586,41.62335],[-80.84586,41.62289],[-80.84585,41.62253],[-80.84585,41.62235],[-80.84585,41.62217],[-80.84585,41.62199],[-80.84583,41.62127],[-80.84583,41.62091],[-80.84582,41.6202],[-80.84582,41.61952],[-80.84581,41.61916],[-80.84581,41.61899],[-80.84581,41.61845],[-80.84581,41.61791],[-80.84581,41.61749],[-80.8458,41.61737],[-80.8458,41.61683],[-80.8458,41.61647],[-80.84579,41.61557],[-80.84579,41.61539],[-80.84578,41.61485],[-80.84578,41.61449],[-80.84578,41.61431],[-80.84578,41.61413],[-80.84577,41.61377],[-80.84577,41.61359],[-80.84577,41.61323],[-80.84577,41.61305],[-80.84576,41.61269],[-80.84576,41.61251],[-80.84576,41.61233],[-80.84576,41.61179],[-80.84575,41.61154],[-80.84575,41.61125],[-80.84575,41.61071],[-80.84575,41.61053],[-80.84575,41.61035],[-80.84574,41.60999],[-80.84574,41.60963],[-80.84573,41.60873],[-80.84573,41.60837],[-80.84572,41.60765],[-80.84572,41.60747],[-80.84572,41.60729],[-80.84572,41.60711],[-80.84571,41.60622],[-80.84571,41.60572],[-80.84572,41.6055],[-80.84573,41.60506],[-80.84573,41.60496],[-80.84573,41.60478],[-80.84572,41.60442],[-80.84572,41.60406],[-80.8457,41.60334],[-80.84569,41.60262],[-80.84567,41.60118],[-80.84567,41.601],[-80.84565,41.6],[-80.84565,41.59938],[-80.84564,41.5992],[-80.84564,41.59884],[-80.84564,41.59866],[-80.84564,41.59848],[-80.84564,41.5983],[-80.84564,41.59812],[-80.84563,41.59776],[-80.84563,41.59758],[-80.84563,41.5974],[-80.84563,41.59722],[-80.84563,41.59668],[-80.84562,41.5965],[-80.84562,41.59632],[-80.84562,41.5956],[-80.84562,41.59542],[-80.84561,41.59524],[-80.84561,41.59506],[-80.84561,41.59434],[-80.84561,41.59416],[-80.8456,41.59407],[-80.8456,41.59398],[-80.8456,41.59327],[-80.84559,41.59219],[-80.84559,41.59201],[-80.84557,41.59082],[-80.84557,41.59069],[-80.84557,41.59063],[-80.84557,41.59028],[-80.84555,41.58884],[-80.84555,41.58866],[-80.84554,41.58758],[-80.84553,41.58686],[-80.84553,41.58679],[-80.84553,41.5865],[-80.84553,41.5856],[-80.84553,41.58542],[-80.84553,41.58488],[-80.84553,41.5847],[-80.84553,41.58309],[-80.84553,41.58183],[-80.84553,41.58165],[-80.84553,41.58094],[-80.84555,41.57913],[-80.84555,41.57895],[-80.84555,41.57859],[-80.84556,41.57805],[-80.84556,41.57787],[-80.84556,41.57769],[-80.84557,41.57751],[-80.84557,41.57679],[-80.84558,41.57626],[-80.84558,41.5759],[-80.84559,41.57572],[-80.84559,41.57554],[-80.8456,41.57536],[-80.84561,41.57518],[-80.84562,41.575],[-80.84566,41.57434],[-80.84567,41.57428],[-80.8457,41.57392],[-80.84571,41.57387],[-80.84574,41.57375],[-80.84578,41.57357],[-80.84579,41.57349],[-80.84588,41.57303],[-80.84593,41.57274],[-80.8461,41.57215],[-80.8462,41.5718],[-80.84621,41.57175],[-80.84639,41.57109],[-80.84649,41.57074],[-80.84651,41.57067],[-80.8466,41.57039],[-80.8467,41.57012],[-80.84682,41.56969],[-80.84687,41.56952],[-80.84697,41.56916],[-80.84702,41.56899],[-80.84707,41.56881],[-80.84723,41.56828],[-80.84733,41.56793],[-80.84738,41.56776],[-80.84743,41.56758],[-80.84764,41.56688],[-80.84769,41.5667],[-80.84789,41.566],[-80.84795,41.56578],[-80.84812,41.56529],[-80.84821,41.56495],[-80.84827,41.56474],[-80.8483,41.56459],[-80.84831,41.56454],[-80.84835,41.56424],[-80.84837,41.56406],[-80.8484,41.56388],[-80.84843,41.56365],[-80.84844,41.56352],[-80.84844,41.56334],[-80.84845,41.56316],[-80.84846,41.56298],[-80.84847,41.5628],[-80.84848,41.56262],[-80.84849,41.56242],[-80.84848,41.56208],[-80.84847,41.5619],[-80.84846,41.56154],[-80.84845,41.561],[-80.84844,41.56082],[-80.84844,41.56028],[-80.84843,41.55992],[-80.84842,41.55938],[-80.84842,41.5592],[-80.84842,41.55902],[-80.84842,41.55872],[-80.84842,41.55866],[-80.84841,41.55849],[-80.84841,41.55759],[-80.84841,41.55705],[-80.84841,41.55687],[-80.8484,41.55622],[-80.84839,41.5555],[-80.84838,41.55514],[-80.84838,41.55496],[-80.84837,41.55424],[-80.84836,41.55352],[-80.84836,41.55334],[-80.84836,41.55285],[-80.84835,41.55226],[-80.84835,41.5519],[-80.84833,41.55101],[-80.84832,41.55011],[-80.84832,41.54993],[-80.84832,41.54957],[-80.84831,41.54921],[-80.84831,41.54885],[-80.84831,41.54831],[-80.8483,41.54795],[-80.8483,41.54759],[-80.8483,41.54707],[-80.8483,41.54705],[-80.84829,41.54651],[-80.84829,41.54633],[-80.84829,41.54561],[-80.84829,41.54525],[-80.84829,41.54507],[-80.84828,41.54435],[-80.84828,41.54417],[-80.84828,41.54345],[-80.84828,41.54309],[-80.84827,41.54273],[-80.84827,41.54255],[-80.84827,41.54237],[-80.84827,41.54201],[-80.84826,41.54115],[-80.84826,41.54111],[-80.84826,41.54093],[-80.84826,41.54057],[-80.84826,41.54039],[-80.84826,41.54021],[-80.84825,41.53985],[-80.84825,41.53913],[-80.84825,41.53877],[-80.84825,41.53859],[-80.84824,41.53806],[-80.84824,41.5377],[-80.84824,41.53734],[-80.84823,41.53644],[-80.84823,41.53626],[-80.84822,41.53554],[-80.84822,41.53545],[-80.84822,41.53509],[-80.84822,41.53419],[-80.84822,41.53401],[-80.84822,41.53293],[-80.84822,41.53204],[-80.84822,41.53168],[-80.84822,41.5315],[-80.84822,41.53096],[-80.84823,41.53006],[-80.84823,41.5297],[-80.84823,41.52955],[-80.8482,41.52808],[-80.84819,41.52718],[-80.84818,41.52664],[-80.84816,41.52574],[-80.84813,41.52376],[-80.84813,41.52368],[-80.84812,41.52322],[-80.84812,41.52268],[-80.8481,41.52178],[-80.84809,41.52116],[-80.84808,41.52062],[-80.84808,41.52022],[-80.84807,41.5199],[-80.84806,41.51918],[-80.84805,41.51846],[-80.84804,41.51774],[-80.84804,41.51738],[-80.84804,41.51612],[-80.84804,41.5154],[-80.84804,41.51523],[-80.84804,41.51505],[-80.84805,41.51487],[-80.84805,41.51469],[-80.84805,41.51451],[-80.84805,41.51433],[-80.84805,41.51415],[-80.84805,41.51325],[-80.84805,41.51289],[-80.84805,41.51271],[-80.84805,41.51253],[-80.84806,41.51191],[-80.84805,41.51181],[-80.84805,41.51145],[-80.84805,41.51091],[-80.84805,41.51055],[-80.84805,41.51037],[-80.84804,41.50947],[-80.84804,41.50893],[-80.84803,41.50839],[-80.84803,41.50821],[-80.84803,41.50761],[-80.84802,41.50662],[-80.84802,41.50644],[-80.84802,41.50595],[-80.84801,41.50554],[-80.84801,41.50518],[-80.84801,41.50482],[-80.84801,41.5041],[-80.848,41.50374],[-80.848,41.50356],[-80.848,41.50338],[-80.848,41.5032],[-80.848,41.50304],[-80.848,41.50266],[-80.84801,41.50248],[-80.84801,41.5023],[-80.84801,41.50206],[-80.84805,41.50158],[-80.84808,41.50126],[-80.84815,41.50069],[-80.84819,41.50042],[-80.84823,41.50015],[-80.84835,41.49944],[-80.84838,41.49926],[-80.84847,41.49873],[-80.8485,41.49854],[-80.84854,41.49837],[-80.84862,41.49801],[-80.84864,41.49791],[-80.84865,41.49783],[-80.84867,41.49765],[-80.84872,41.49737],[-80.84878,41.49694],[-80.8488,41.49676],[-80.84882,41.49667],[-80.84885,41.49603],[-80.84889,41.4955],[-80.84892,41.49508],[-80.84895,41.49461],[-80.84895,41.49454],[-80.84895,41.49443],[-80.84895,41.49425],[-80.84895,41.49407],[-80.84895,41.49389],[-80.84895,41.49317],[-80.84896,41.49281],[-80.84896,41.4921],[-80.84896,41.49173],[-80.84896,41.49119],[-80.84896,41.49065],[-80.84896,41.49011],[-80.84896,41.48993],[-80.84896,41.48975],[-80.84896,41.48957],[-80.84897,41.48921],[-80.84897,41.48903],[-80.84896,41.48864],[-80.84897,41.48831],[-80.84897,41.48813],[-80.84897,41.48759],[-80.84897,41.48723],[-80.84897,41.48669],[-80.84898,41.48561],[-80.84898,41.48525],[-80.84898,41.48471],[-80.84898,41.48417],[-80.84898,41.48381],[-80.84898,41.48363],[-80.84898,41.48309],[-80.84899,41.48291],[-80.84899,41.48279],[-80.84899,41.48219],[-80.84899,41.48148],[-80.84899,41.4813],[-80.84899,41.48076],[-80.84899,41.47993],[-80.84899,41.47986],[-80.84899,41.47968],[-80.84899,41.4795],[-80.84899,41.47914],[-80.84899,41.47896],[-80.84899,41.47878],[-80.84899,41.4786],[-80.84899,41.47824],[-80.84899,41.47788],[-80.84899,41.4777],[-80.84899,41.47752],[-80.849,41.47716],[-80.849,41.47698],[-80.849,41.47694],[-80.849,41.4768],[-80.849,41.47662],[-80.849,41.47626],[-80.849,41.47608],[-80.849,41.47572],[-80.849,41.47536],[-80.849,41.47518],[-80.849,41.475],[-80.849,41.47447],[-80.849,41.47411],[-80.849,41.47375],[-80.849,41.47357],[-80.849,41.47339],[-80.849,41.47321],[-80.849,41.47303],[-80.849,41.47285],[-80.849,41.47267],[-80.849,41.47249],[-80.849,41.47231],[-80.849,41.47177],[-80.849,41.47159],[-80.849,41.47141],[-80.849,41.47109],[-80.849,41.47087],[-80.84901,41.47051],[-80.84901,41.46997],[-80.84901,41.46961],[-80.84902,41.46907],[-80.84902,41.46817],[-80.84902,41.46799],[-80.84903,41.46781],[-80.84903,41.46763],[-80.84903,41.46745],[-80.84903,41.46727],[-80.84903,41.46709],[-80.84903,41.46655],[-80.84904,41.46583],[-80.84904,41.46565],[-80.84904,41.46529],[-80.84904,41.46518],[-80.84904,41.46457],[-80.84904,41.46403],[-80.84904,41.46385],[-80.84904,41.46313],[-80.84904,41.46259],[-80.84904,41.46169],[-80.84904,41.46111],[-80.84904,41.46075],[-80.84904,41.4606],[-80.84904,41.46057],[-80.84904,41.46042],[-80.84903,41.45949],[-80.84903,41.45926],[-80.84903,41.45916],[-80.84904,41.45898],[-80.84904,41.45877],[-80.84904,41.45862],[-80.84904,41.45859],[-80.84904,41.45826],[-80.84904,41.45823],[-80.84904,41.4579],[-80.84904,41.45772],[-80.84904,41.45769],[-80.84904,41.45754],[-80.84904,41.45751],[-80.84905,41.45734],[-80.84905,41.45718],[-80.84905,41.45698],[-80.84905,41.45646],[-80.84905,41.45626],[-80.84905,41.4561],[-80.84905,41.45592],[-80.84906,41.45556],[-80.84906,41.45554],[-80.84906,41.45538],[-80.84906,41.455],[-80.84906,41.45484],[-80.84906,41.45482],[-80.84906,41.45466],[-80.84906,41.4543],[-80.84907,41.45376],[-80.84907,41.45358],[-80.84907,41.45344],[-80.84907,41.45322],[-80.84907,41.45321],[-80.84907,41.45286],[-80.84907,41.45285],[-80.84907,41.45268],[-80.84907,41.45231],[-80.84907,41.45214],[-80.84907,41.45197],[-80.84907,41.45195],[-80.84907,41.45177],[-80.84907,41.45161],[-80.84907,41.45125],[-80.84907,41.45105],[-80.84907,41.45071],[-80.84907,41.45053],[-80.84907,41.45015],[-80.84907,41.44981],[-80.84907,41.44909],[-80.84907,41.44873],[-80.84907,41.44872],[-80.84907,41.44837],[-80.84907,41.44819],[-80.84907,41.44818],[-80.84907,41.44757],[-80.84907,41.44747],[-80.84907,41.44746],[-80.84907,41.44729],[-80.84908,41.44711],[-80.84908,41.4471],[-80.84908,41.44693],[-80.84909,41.44657],[-80.84909,41.44656],[-80.84909,41.44639],[-80.84909,41.44638],[-80.8491,41.44621],[-80.8491,41.4462],[-80.8491,41.44603],[-80.84911,41.44567],[-80.84911,41.44549],[-80.84912,41.44531],[-80.84912,41.44513],[-80.84912,41.44495],[-80.84913,41.44488],[-80.84912,41.44477],[-80.84911,41.44423],[-80.84911,41.44405],[-80.84911,41.44387],[-80.8491,41.44351],[-80.8491,41.44334],[-80.8491,41.44315],[-80.84911,41.44279],[-80.84911,41.44262],[-80.84911,41.44261],[-80.84911,41.44243],[-80.84911,41.44225],[-80.84911,41.44207],[-80.84911,41.44189],[-80.84911,41.44171],[-80.84911,41.44166],[-80.84911,41.44153],[-80.8491,41.44099],[-80.8491,41.44063],[-80.8491,41.44027],[-80.84909,41.43938],[-80.84909,41.43937],[-80.84909,41.43866],[-80.84909,41.43865],[-80.84908,41.43758],[-80.84908,41.43757],[-80.84907,41.43709],[-80.84907,41.43647],[-80.84907,41.43631],[-80.84907,41.43598],[-80.84907,41.43559],[-80.84907,41.43557],[-80.84907,41.43539],[-80.84906,41.43451],[-80.84906,41.43448],[-80.84906,41.43431],[-80.84905,41.43359],[-80.84905,41.43324],[-80.84905,41.43323],[-80.84905,41.43288],[-80.84905,41.43287],[-80.84904,41.43269],[-80.84904,41.43234],[-80.84904,41.43233],[-80.84904,41.43198],[-80.84904,41.43197],[-80.84904,41.43162],[-80.84904,41.43161],[-80.84903,41.43144],[-80.84903,41.43143],[-80.84903,41.43125],[-80.84903,41.43108],[-80.84903,41.43107],[-80.84903,41.43036],[-80.84902,41.43018],[-80.84902,41.43017],[-80.84902,41.43007],[-80.84902,41.43],[-80.84901,41.42964],[-80.84901,41.42963],[-80.849,41.42946],[-80.849,41.42928],[-80.849,41.42927],[-80.84897,41.42848],[-80.84896,41.42837],[-80.84894,41.4282],[-80.84894,41.42819],[-80.84885,41.4273],[-80.84884,41.42715],[-80.84872,41.4264],[-80.8487,41.42623],[-80.84867,41.42605],[-80.84866,41.42597],[-80.84864,41.42587],[-80.84855,41.42533],[-80.84855,41.42533],[-80.84807,41.42534],[-80.84803,41.42534],[-80.84783,41.42534],[-80.84772,41.42534],[-80.84759,41.42534],[-80.84735,41.42534],[-80.84649,41.42533],[-80.84615,41.42533],[-80.84579,41.42533],[-80.84532,41.42533],[-80.84532,41.42533],[-80.84532,41.42515],[-80.84532,41.42497],[-80.84532,41.42479],[-80.84532,41.42461],[-80.84532,41.42443],[-80.84532,41.42425],[-80.84533,41.42407],[-80.84533,41.42389],[-80.84533,41.42371],[-80.84533,41.42335],[-80.84533,41.42317],[-80.84533,41.42311],[-80.84534,41.42263],[-80.84534,41.42245],[-80.84534,41.42227],[-80.84534,41.42209],[-80.84534,41.42191],[-80.84535,41.42173],[-80.84535,41.42156],[-80.84535,41.42155],[-80.84535,41.42137],[-80.84535,41.42119],[-80.84536,41.42083],[-80.84536,41.42036],[-80.84536,41.42029],[-80.84536,41.42011],[-80.84536,41.4198]]}},{"type":"Feature","properties":{"_gpxType":"trk","name":"Hide-A-Way Lakes Campground, South Ridge Road West, Ashtabula, OH - 7150 Oakfield North Rd NW - Paradise Lakes Family Campground, Housel Craft Road, Bristolville, OH","coordinateProperties":{},"id":4},"geometry":{"type":"LineString","coordinates":[[-80.84536,41.4198],[-80.84535,41.41972],[-80.84536,41.41939],[-80.84536,41.41921],[-80.84537,41.41903],[-80.84537,41.41885],[-80.84537,41.41867],[-80.84538,41.41849],[-80.84539,41.41778],[-80.8454,41.41735],[-80.8454,41.41735],[-80.84609,41.41722],[-80.8464,41.41716],[-80.84679,41.41708],[-80.84709,41.41701],[-80.84743,41.41695],[-80.84771,41.41689],[-80.84822,41.41679],[-80.84822,41.41679],[-80.84822,41.41661],[-80.84822,41.41625],[-80.84822,41.41607],[-80.84822,41.41606],[-80.84822,41.41589],[-80.84823,41.41571],[-80.84823,41.41553],[-80.84824,41.41535],[-80.84824,41.41517],[-80.84825,41.41499],[-80.84825,41.41481],[-80.84826,41.41463],[-80.84826,41.41445],[-80.84827,41.41433],[-80.84827,41.41427],[-80.84827,41.4141],[-80.84827,41.41392],[-80.84827,41.41374],[-80.84827,41.41356],[-80.84827,41.41338],[-80.84827,41.4132],[-80.84827,41.41266],[-80.84827,41.41248],[-80.84827,41.4123],[-80.84827,41.41212],[-80.84827,41.41176],[-80.84827,41.4114],[-80.84826,41.41122],[-80.84826,41.41068],[-80.84826,41.4105],[-80.84826,41.41032],[-80.84826,41.40996],[-80.84826,41.40978],[-80.84825,41.40897],[-80.84825,41.40862],[-80.84825,41.40819],[-80.84825,41.40808],[-80.84826,41.40772],[-80.84826,41.40754],[-80.84826,41.40736],[-80.84826,41.40733],[-80.84826,41.40682],[-80.84826,41.40646],[-80.84826,41.40628],[-80.84826,41.4061],[-80.84827,41.40556],[-80.84827,41.4052],[-80.84827,41.40502],[-80.84827,41.40466],[-80.84827,41.40448],[-80.84827,41.4043],[-80.84827,41.40412],[-80.84827,41.40376],[-80.84827,41.40304],[-80.84827,41.40268],[-80.84827,41.40232],[-80.84827,41.40214],[-80.84827,41.40196],[-80.84827,41.40178],[-80.84827,41.4016],[-80.84828,41.40157],[-80.84827,41.40124],[-80.84827,41.40106],[-80.84827,41.40088],[-80.84827,41.40052],[-80.84827,41.40034],[-80.84827,41.40016],[-80.84827,41.39962],[-80.84827,41.39908],[-80.84826,41.39854],[-80.84826,41.39836],[-80.84826,41.39818],[-80.84826,41.39782],[-80.84826,41.3971],[-80.84826,41.39638],[-80.84825,41.39573],[-80.84826,41.39477],[-80.84827,41.39333],[-80.84827,41.39315],[-80.84828,41.39189],[-80.84828,41.39171],[-80.84828,41.39153],[-80.84828,41.39135],[-80.84828,41.39063],[-80.84826,41.38986],[-80.84826,41.38964],[-80.84827,41.38874],[-80.84827,41.38856],[-80.84827,41.38838],[-80.84828,41.38748],[-80.84829,41.3873],[-80.8483,41.3864],[-80.8483,41.38586],[-80.84831,41.3855],[-80.84832,41.38461],[-80.84832,41.38443],[-80.84833,41.38407],[-80.84833,41.38398],[-80.84833,41.38353],[-80.84833,41.38335],[-80.84833,41.38317],[-80.84833,41.38299],[-80.84833,41.38281],[-80.84832,41.38227],[-80.84832,41.38191],[-80.84832,41.38173],[-80.84832,41.38155],[-80.84832,41.38065],[-80.84832,41.38047],[-80.84832,41.38029],[-80.84832,41.38011],[-80.84832,41.37993],[-80.84832,41.37975],[-80.84832,41.37972],[-80.84832,41.37921],[-80.84831,41.37903],[-80.84831,41.37885],[-80.84831,41.37867],[-80.84831,41.37826],[-80.84831,41.37813],[-80.84831,41.37795],[-80.84831,41.37777],[-80.84832,41.37705],[-80.84833,41.37687],[-80.84833,41.37669],[-80.84833,41.37633],[-80.84834,41.37597],[-80.84834,41.37579],[-80.84834,41.37561],[-80.84834,41.37543],[-80.84835,41.37489],[-80.84835,41.37471],[-80.84836,41.37435],[-80.84836,41.37399],[-80.84836,41.37381],[-80.84837,41.37345],[-80.84837,41.37327],[-80.84837,41.37309],[-80.84838,41.37291],[-80.84838,41.37255],[-80.84838,41.37249],[-80.84837,41.3722],[-80.84837,41.37202],[-80.84836,41.37148],[-80.84835,41.37132],[-80.84836,41.37094],[-80.84836,41.37058],[-80.84836,41.3704],[-80.84836,41.37004],[-80.84837,41.36914],[-80.84837,41.36896],[-80.84837,41.36878],[-80.84837,41.36842],[-80.84837,41.36806],[-80.84838,41.36734],[-80.84838,41.36698],[-80.84838,41.36675],[-80.84839,41.36644],[-80.8484,41.36628],[-80.84839,41.36572],[-80.84839,41.36568],[-80.84839,41.36554],[-80.84839,41.36536],[-80.84839,41.36506],[-80.84839,41.365],[-80.84838,41.36482],[-80.84838,41.36464],[-80.84838,41.36455],[-80.84833,41.3642],[-80.84831,41.3641],[-80.84828,41.36393],[-80.84824,41.36372],[-80.84824,41.36372],[-80.84906,41.3637],[-80.84949,41.3637],[-80.84973,41.3637],[-80.85068,41.36369],[-80.85084,41.36369],[-80.85092,41.36369],[-80.8522,41.36367],[-80.8526,41.36366],[-80.85284,41.36366],[-80.8538,41.36363],[-80.85508,41.3636],[-80.85524,41.3636],[-80.85618,41.36358],[-80.85859,41.36357],[-80.85926,41.36356],[-80.85926,41.36356],[-80.85924,41.36361]]}}]}