{"type":"FeatureCollection","features":[{"type":"Feature","properties":{"_gpxType":"trk","name":"Hawkins House Bed & Breakfast, Main Street, Eminence, MO - Houston Municipal Swimming Pool, North King Street, Houston, MO","coordinateProperties":{},"id":40},"geometry":{"type":"LineString","coordinates":[[-91.35747,37.14879],[-91.35775,37.14878],[-91.35775,37.14878],[-91.35775,37.14902],[-91.35776,37.14928],[-91.35777,37.14964],[-91.35779,37.15004],[-91.35782,37.15058],[-91.35782,37.15058],[-91.35798,37.15058],[-91.35843,37.15057],[-91.3591,37.15056],[-91.35928,37.15056],[-91.35951,37.15056],[-91.35973,37.15055],[-91.36041,37.15055],[-91.36064,37.15054],[-91.36109,37.15054],[-91.36176,37.15053],[-91.36207,37.15053],[-91.36246,37.15053],[-91.36258,37.15053],[-91.36288,37.15052],[-91.36317,37.15052],[-91.36342,37.15051],[-91.36359,37.15051],[-91.36381,37.1505],[-91.36396,37.15049],[-91.36407,37.15048],[-91.36428,37.15045],[-91.36442,37.15043],[-91.36456,37.15041],[-91.36471,37.15039],[-91.36492,37.15034],[-91.36522,37.15028],[-91.36551,37.1502],[-91.36579,37.15011],[-91.36591,37.15007],[-91.36607,37.15001],[-91.36621,37.14995],[-91.36647,37.14984],[-91.36681,37.14969],[-91.36725,37.14949],[-91.36729,37.14947],[-91.36756,37.14935],[-91.36784,37.14922],[-91.3679,37.14919],[-91.3682,37.14905],[-91.36841,37.14895],[-91.36842,37.14894],[-91.36853,37.14889],[-91.36865,37.14883],[-91.36875,37.14878],[-91.36888,37.1487],[-91.36899,37.14863],[-91.36908,37.14857],[-91.36915,37.14852],[-91.36918,37.1485],[-91.36928,37.14841],[-91.36938,37.14832],[-91.36945,37.14825],[-91.36948,37.14822],[-91.36958,37.14812],[-91.36968,37.14799],[-91.36971,37.14796],[-91.3698,37.14783],[-91.36988,37.14772],[-91.37008,37.14744],[-91.37021,37.14726],[-91.37035,37.14705],[-91.37048,37.14686],[-91.37056,37.14675],[-91.37063,37.14665],[-91.3707,37.14656],[-91.37078,37.14647],[-91.37086,37.14639],[-91.37095,37.14631],[-91.37104,37.14623],[-91.37115,37.14615],[-91.37125,37.14608],[-91.37137,37.14601],[-91.37146,37.14596],[-91.37157,37.14591],[-91.37167,37.14586],[-91.3718,37.14582],[-91.37193,37.14578],[-91.37209,37.14574],[-91.37226,37.14571],[-91.37228,37.14571],[-91.37238,37.14569],[-91.37256,37.14568],[-91.37277,37.14567],[-91.373,37.14567],[-91.37339,37.14566],[-91.37392,37.14566],[-91.37432,37.14566],[-91.37476,37.14566],[-91.37521,37.14565],[-91.37572,37.14566],[-91.37615,37.14567],[-91.37634,37.14567],[-91.37655,37.14569],[-91.37666,37.1457],[-91.37683,37.14572],[-91.37705,37.14575],[-91.37719,37.14577],[-91.37732,37.14579],[-91.3775,37.14583],[-91.37769,37.14587],[-91.37803,37.14596],[-91.37862,37.1461],[-91.37928,37.14625],[-91.37944,37.14629],[-91.37975,37.14637],[-91.38017,37.14647],[-91.38055,37.14656],[-91.38088,37.14664],[-91.38114,37.14669],[-91.38136,37.14674],[-91.38153,37.14677],[-91.38177,37.1468],[-91.38195,37.14683],[-91.38218,37.14684],[-91.38239,37.14685],[-91.38262,37.14686],[-91.38284,37.14686],[-91.38313,37.14685],[-91.3835,37.14684],[-91.38457,37.14681],[-91.38467,37.14681],[-91.3857,37.14678],[-91.38619,37.14677],[-91.38686,37.14676],[-91.38687,37.14676],[-91.387,37.14675],[-91.3872,37.14675],[-91.38722,37.14675],[-91.38744,37.14674],[-91.38767,37.14673],[-91.38781,37.14673],[-91.38798,37.14671],[-91.38815,37.1467],[-91.38831,37.14668],[-91.38845,37.14666],[-91.38861,37.14663],[-91.38865,37.14662],[-91.38875,37.14661],[-91.38894,37.14657],[-91.38909,37.14654],[-91.38923,37.1465],[-91.38926,37.1465],[-91.38931,37.14648],[-91.38942,37.14645],[-91.38961,37.14641],[-91.38986,37.14635],[-91.39017,37.14627],[-91.39053,37.14618],[-91.39076,37.14612],[-91.39081,37.1461],[-91.39097,37.14606],[-91.39103,37.14604],[-91.39135,37.14596],[-91.3914,37.14594],[-91.39159,37.14589],[-91.39161,37.14589],[-91.39177,37.14585],[-91.3919,37.14582],[-91.39203,37.14579],[-91.39214,37.14577],[-91.39227,37.14575],[-91.39237,37.14574],[-91.3925,37.14572],[-91.39262,37.14571],[-91.39271,37.14571],[-91.39272,37.14571],[-91.39283,37.1457],[-91.39295,37.1457],[-91.39309,37.1457],[-91.3932,37.14571],[-91.39329,37.14571],[-91.39336,37.14572],[-91.39345,37.14573],[-91.39356,37.14574],[-91.3937,37.14575],[-91.39384,37.14577],[-91.39387,37.14577],[-91.39406,37.1458],[-91.39429,37.14583],[-91.3945,37.14586],[-91.39451,37.14586],[-91.39465,37.14588],[-91.39495,37.14591],[-91.39517,37.14594],[-91.39519,37.14594],[-91.39544,37.14597],[-91.39564,37.146],[-91.39584,37.14601],[-91.39596,37.14601],[-91.39606,37.14601],[-91.39618,37.14601],[-91.3963,37.14601],[-91.39638,37.146],[-91.39649,37.14599],[-91.39655,37.14598],[-91.39669,37.14595],[-91.39675,37.14593],[-91.39684,37.1459],[-91.39696,37.14586],[-91.39707,37.14581],[-91.39718,37.14576],[-91.39729,37.1457],[-91.39741,37.14563],[-91.39751,37.14556],[-91.39761,37.14547],[-91.39768,37.14541],[-91.3977,37.14538],[-91.39777,37.14531],[-91.39785,37.14522],[-91.39794,37.14511],[-91.39801,37.14499],[-91.3981,37.14482],[-91.39818,37.14462],[-91.39818,37.14461],[-91.3983,37.14435],[-91.39847,37.14382],[-91.39849,37.14375],[-91.39853,37.14365],[-91.39857,37.14354],[-91.39862,37.14345],[-91.39867,37.14337],[-91.39871,37.14329],[-91.39879,37.14319],[-91.39887,37.1431],[-91.39888,37.14309],[-91.39896,37.14301],[-91.39902,37.14296],[-91.39909,37.14291],[-91.39918,37.14283],[-91.39932,37.14274],[-91.39935,37.14272],[-91.39941,37.14269],[-91.39954,37.14262],[-91.39957,37.14261],[-91.39969,37.14255],[-91.39985,37.14249],[-91.39994,37.14246],[-91.40002,37.14244],[-91.40016,37.14241],[-91.40021,37.1424],[-91.40046,37.14235],[-91.40082,37.14229],[-91.40104,37.14226],[-91.40132,37.14222],[-91.40191,37.14214],[-91.40237,37.14208],[-91.40311,37.14197],[-91.40405,37.14183],[-91.40432,37.14176],[-91.40436,37.14175],[-91.40496,37.14166],[-91.40565,37.14156],[-91.40591,37.14152],[-91.40654,37.14142],[-91.40658,37.14142],[-91.4068,37.14139],[-91.40682,37.14139],[-91.40708,37.14137],[-91.4073,37.14136],[-91.40748,37.14136],[-91.40756,37.14137],[-91.4077,37.14138],[-91.40778,37.14139],[-91.40798,37.14142],[-91.40824,37.14148],[-91.40848,37.14154],[-91.40869,37.14161],[-91.40892,37.1417],[-91.40936,37.1419],[-91.4097,37.14206],[-91.40996,37.14217],[-91.41016,37.14224],[-91.41027,37.14227],[-91.41037,37.14229],[-91.4105,37.14232],[-91.4106,37.14233],[-91.41066,37.14234],[-91.41083,37.14234],[-91.41084,37.14234],[-91.41103,37.14233],[-91.41116,37.14232],[-91.41129,37.1423],[-91.41146,37.14226],[-91.41149,37.14225],[-91.41158,37.14223],[-91.4117,37.14219],[-91.41171,37.14218],[-91.41184,37.14213],[-91.41195,37.14207],[-91.41214,37.14195],[-91.41225,37.14187],[-91.41242,37.14176],[-91.41294,37.14141],[-91.41307,37.14132],[-91.41322,37.14123],[-91.41342,37.14112],[-91.4136,37.14103],[-91.41384,37.14093],[-91.41388,37.14092],[-91.41398,37.14088],[-91.41409,37.14085],[-91.41412,37.14085],[-91.41425,37.14082],[-91.41444,37.14078],[-91.41464,37.14074],[-91.41497,37.1407],[-91.41548,37.14063],[-91.4159,37.14058],[-91.41626,37.14052],[-91.41651,37.14047],[-91.41668,37.14043],[-91.41689,37.14038],[-91.41716,37.14029],[-91.41738,37.14019],[-91.41758,37.1401],[-91.41784,37.13995],[-91.418,37.13987],[-91.41847,37.13961],[-91.41867,37.13952],[-91.41887,37.13943],[-91.41902,37.13937],[-91.41907,37.13935],[-91.41925,37.13929],[-91.41928,37.13928],[-91.41948,37.13921],[-91.41949,37.13921],[-91.41969,37.13916],[-91.41988,37.13913],[-91.41992,37.13912],[-91.42014,37.13909],[-91.42037,37.13906],[-91.42051,37.13904],[-91.42059,37.13903],[-91.42081,37.13901],[-91.42103,37.13898],[-91.42173,37.1389],[-91.4224,37.13882],[-91.42284,37.13877],[-91.42351,37.13869],[-91.42374,37.13866],[-91.42396,37.13864],[-91.42441,37.13858],[-91.42552,37.13845],[-91.42575,37.13843],[-91.42581,37.13842],[-91.42597,37.13841],[-91.42611,37.1384],[-91.42627,37.1384],[-91.42642,37.1384],[-91.42643,37.1384],[-91.42657,37.13841],[-91.42665,37.13841],[-91.42686,37.13843],[-91.42704,37.13846],[-91.4272,37.13849],[-91.42746,37.13855],[-91.42753,37.13857],[-91.42771,37.13862],[-91.42774,37.13863],[-91.42795,37.13869],[-91.42816,37.13876],[-91.42829,37.1388],[-91.42837,37.13883],[-91.42858,37.13889],[-91.42879,37.13896],[-91.429,37.13903],[-91.42941,37.13916],[-91.42983,37.1393],[-91.4301,37.13938],[-91.43046,37.13949],[-91.43068,37.13956],[-91.43089,37.13962],[-91.43103,37.13966],[-91.43152,37.13981],[-91.43152,37.13982],[-91.43173,37.13988],[-91.43189,37.13994],[-91.43209,37.14002],[-91.43214,37.14003],[-91.4323,37.1401],[-91.43234,37.14012],[-91.43253,37.14021],[-91.43254,37.14021],[-91.4327,37.14029],[-91.43272,37.1403],[-91.43285,37.14037],[-91.4329,37.14041],[-91.43305,37.1405],[-91.43337,37.14072],[-91.43358,37.14088],[-91.43375,37.14101],[-91.4338,37.14105],[-91.43404,37.14124],[-91.43454,37.14161],[-91.43483,37.14182],[-91.4349,37.14186],[-91.43505,37.14196],[-91.43508,37.14197],[-91.43524,37.14206],[-91.43527,37.14208],[-91.43539,37.14214],[-91.43557,37.14222],[-91.43566,37.14225],[-91.43576,37.14229],[-91.43593,37.14235],[-91.43611,37.1424],[-91.43633,37.14246],[-91.43651,37.14249],[-91.43661,37.14251],[-91.43673,37.14252],[-91.43683,37.14254],[-91.43695,37.14255],[-91.43703,37.14256],[-91.43718,37.14256],[-91.43725,37.14257],[-91.4374,37.14257],[-91.43763,37.14257],[-91.43785,37.14257],[-91.43853,37.14256],[-91.43855,37.14255],[-91.43876,37.14255],[-91.43898,37.14255],[-91.43919,37.14254],[-91.43921,37.14254],[-91.43943,37.14254],[-91.43966,37.14254],[-91.43989,37.14254],[-91.43997,37.14254],[-91.44011,37.14254],[-91.44034,37.14255],[-91.4404,37.14255],[-91.44077,37.14257],[-91.44094,37.14258],[-91.44097,37.14259],[-91.44101,37.14259],[-91.44107,37.1426],[-91.4413,37.14264],[-91.44146,37.14267],[-91.4416,37.1427],[-91.44167,37.14272],[-91.44175,37.14275],[-91.4419,37.1428],[-91.44215,37.14289],[-91.44235,37.14298],[-91.4425,37.14305],[-91.44266,37.14314],[-91.44286,37.14326],[-91.44302,37.14337],[-91.44317,37.14347],[-91.44328,37.14357],[-91.44339,37.14367],[-91.44351,37.1438],[-91.44361,37.14392],[-91.4437,37.14403],[-91.4439,37.14431],[-91.44404,37.14458],[-91.44413,37.14476],[-91.44418,37.14493],[-91.44424,37.14514],[-91.44428,37.14532],[-91.4443,37.14554],[-91.4443,37.14577],[-91.44429,37.14598],[-91.44428,37.14604],[-91.44426,37.14618],[-91.44423,37.14633],[-91.44417,37.14651],[-91.44409,37.14671],[-91.44402,37.14688],[-91.44401,37.1469],[-91.44394,37.14703],[-91.44388,37.14713],[-91.44384,37.14719],[-91.44368,37.14745],[-91.44351,37.14771],[-91.44343,37.14785],[-91.44282,37.14878],[-91.44265,37.14905],[-91.44254,37.14925],[-91.44248,37.14939],[-91.44243,37.14954],[-91.44243,37.14955],[-91.4424,37.1497],[-91.44237,37.14985],[-91.44236,37.15003],[-91.44236,37.15015],[-91.44235,37.15026],[-91.44237,37.15044],[-91.44238,37.15053],[-91.44241,37.15065],[-91.44245,37.15079],[-91.44249,37.15089],[-91.44252,37.15097],[-91.44256,37.15106],[-91.44258,37.1511],[-91.44265,37.15124],[-91.44275,37.15139],[-91.4428,37.15148],[-91.4429,37.1516],[-91.44299,37.15171],[-91.44312,37.15184],[-91.44315,37.15187],[-91.44341,37.15209],[-91.44355,37.15221],[-91.44376,37.15237],[-91.44391,37.15249],[-91.44404,37.15257],[-91.44416,37.15263],[-91.44428,37.15269],[-91.4444,37.15274],[-91.4445,37.15278],[-91.44461,37.15281],[-91.44475,37.15284],[-91.44486,37.15286],[-91.44496,37.15288],[-91.44505,37.15288],[-91.44506,37.15288],[-91.44519,37.15289],[-91.44528,37.15289],[-91.44532,37.15288],[-91.44544,37.15287],[-91.44555,37.15286],[-91.44566,37.15284],[-91.44578,37.15282],[-91.4459,37.15278],[-91.44602,37.15274],[-91.44614,37.15269],[-91.44616,37.15268],[-91.44632,37.15261],[-91.44649,37.15251],[-91.4467,37.15239],[-91.44678,37.15234],[-91.44688,37.15229],[-91.4471,37.15217],[-91.44726,37.15209],[-91.44731,37.15207],[-91.4474,37.15203],[-91.4475,37.152],[-91.44765,37.15196],[-91.44768,37.15195],[-91.44776,37.15194],[-91.44787,37.15192],[-91.4479,37.15191],[-91.44801,37.15191],[-91.44813,37.15191],[-91.44826,37.15191],[-91.44835,37.15192],[-91.44837,37.15193],[-91.44851,37.15195],[-91.44857,37.15197],[-91.44867,37.152],[-91.44878,37.15203],[-91.44884,37.15206],[-91.44895,37.15211],[-91.44907,37.15218],[-91.44916,37.15223],[-91.44934,37.15233],[-91.44938,37.15236],[-91.44967,37.15253],[-91.4497,37.15255],[-91.44988,37.15265],[-91.45007,37.15276],[-91.45008,37.15276],[-91.45025,37.15286],[-91.45031,37.1529],[-91.45043,37.15297],[-91.45053,37.15303],[-91.45061,37.15308],[-91.4507,37.15312],[-91.4508,37.15317],[-91.45085,37.1532],[-91.451,37.15326],[-91.45105,37.15328],[-91.4512,37.15334],[-91.45133,37.15338],[-91.45141,37.1534],[-91.45148,37.15342],[-91.45158,37.15344],[-91.45163,37.15345],[-91.45168,37.15345],[-91.45179,37.15347],[-91.45189,37.15348],[-91.452,37.15348],[-91.45214,37.15348],[-91.45226,37.15347],[-91.45236,37.15346],[-91.45248,37.15344],[-91.45253,37.15343],[-91.45259,37.15342],[-91.45272,37.15339],[-91.45274,37.15339],[-91.45295,37.15334],[-91.45296,37.15334],[-91.45311,37.15331],[-91.45327,37.15327],[-91.45344,37.15323],[-91.45357,37.1532],[-91.45361,37.15319],[-91.45371,37.15316],[-91.45382,37.15312],[-91.45383,37.15312],[-91.45393,37.15308],[-91.45401,37.15304],[-91.45402,37.15303],[-91.45409,37.15298],[-91.45418,37.15291],[-91.45426,37.15284],[-91.45433,37.15277],[-91.45434,37.15277],[-91.45442,37.15268],[-91.45448,37.15258],[-91.45456,37.15247],[-91.45457,37.15246],[-91.45465,37.15235],[-91.45469,37.15232],[-91.45471,37.15229],[-91.45478,37.15223],[-91.45483,37.15218],[-91.45486,37.15216],[-91.45496,37.1521],[-91.45501,37.15207],[-91.45505,37.15205],[-91.45517,37.152],[-91.45521,37.15199],[-91.45524,37.15198],[-91.45535,37.15195],[-91.45543,37.15193],[-91.45544,37.15193],[-91.45553,37.15192],[-91.45563,37.15191],[-91.45565,37.15191],[-91.45574,37.1519],[-91.45584,37.1519],[-91.45587,37.1519],[-91.45605,37.1519],[-91.4561,37.1519],[-91.45622,37.1519],[-91.45633,37.15189],[-91.45641,37.15189],[-91.45653,37.15188],[-91.45655,37.15188],[-91.45666,37.15186],[-91.45677,37.15184],[-91.45679,37.15184],[-91.45701,37.15179],[-91.45721,37.15174],[-91.45722,37.15174],[-91.45742,37.15169],[-91.45743,37.15169],[-91.45764,37.15165],[-91.45773,37.15164],[-91.45784,37.15163],[-91.45786,37.15162],[-91.45799,37.15162],[-91.45809,37.15161],[-91.45814,37.15161],[-91.45829,37.15162],[-91.45832,37.15162],[-91.45847,37.15163],[-91.45863,37.15165],[-91.45876,37.15167],[-91.4588,37.15168],[-91.45899,37.15172],[-91.4592,37.15176],[-91.45928,37.15178],[-91.45942,37.15181],[-91.45952,37.15183],[-91.45963,37.15185],[-91.45979,37.15189],[-91.46001,37.15192],[-91.46024,37.15196],[-91.4603,37.15196],[-91.46045,37.15198],[-91.46068,37.152],[-91.46093,37.15201],[-91.46116,37.15202],[-91.4612,37.15202],[-91.46142,37.15202],[-91.46165,37.15203],[-91.46167,37.15203],[-91.46187,37.15203],[-91.46222,37.15203],[-91.46232,37.15203],[-91.46255,37.15203],[-91.46273,37.15204],[-91.463,37.15204],[-91.46318,37.15204],[-91.46323,37.15204],[-91.46345,37.15204],[-91.46365,37.15204],[-91.4639,37.15204],[-91.46397,37.15204],[-91.4642,37.15204],[-91.46458,37.15204],[-91.46481,37.15203],[-91.46497,37.15202],[-91.4651,37.15201],[-91.46528,37.152],[-91.46545,37.15198],[-91.46548,37.15197],[-91.46561,37.15196],[-91.4657,37.15194],[-91.46576,37.15193],[-91.46591,37.15191],[-91.46592,37.15191],[-91.46609,37.15187],[-91.46614,37.15186],[-91.46627,37.15183],[-91.46636,37.15181],[-91.46643,37.15179],[-91.46657,37.15175],[-91.46672,37.15171],[-91.46687,37.15165],[-91.46701,37.15161],[-91.46715,37.15155],[-91.46719,37.15154],[-91.46732,37.15149],[-91.4674,37.15146],[-91.46751,37.15142],[-91.4676,37.15138],[-91.46778,37.15131],[-91.4678,37.1513],[-91.46807,37.15119],[-91.46833,37.15109],[-91.46854,37.151],[-91.4686,37.15097],[-91.46878,37.1509],[-91.46906,37.15078],[-91.46928,37.15069],[-91.4694,37.15064],[-91.46949,37.1506],[-91.4696,37.15055],[-91.46972,37.1505],[-91.46991,37.15043],[-91.47014,37.15034],[-91.47021,37.15031],[-91.47033,37.15026],[-91.47041,37.15023],[-91.47053,37.15017],[-91.47061,37.15015],[-91.47072,37.1501],[-91.47081,37.15006],[-91.47091,37.15002],[-91.47101,37.14998],[-91.47109,37.14995],[-91.47121,37.1499],[-91.4713,37.14986],[-91.4714,37.14981],[-91.47149,37.14977],[-91.4716,37.14972],[-91.47169,37.14968],[-91.4719,37.14956],[-91.4721,37.14945],[-91.47227,37.14935],[-91.47239,37.14926],[-91.4725,37.14918],[-91.47252,37.14916],[-91.47261,37.1491],[-91.47266,37.14905],[-91.4727,37.14902],[-91.47279,37.14895],[-91.47282,37.14892],[-91.47289,37.14886],[-91.47297,37.14879],[-91.47306,37.1487],[-91.47311,37.14865],[-91.4732,37.14856],[-91.4734,37.14837],[-91.47343,37.14835],[-91.47354,37.14824],[-91.47364,37.14814],[-91.47368,37.1481],[-91.47383,37.14796],[-91.47385,37.14794],[-91.47397,37.14782],[-91.47409,37.14769],[-91.47411,37.14768],[-91.47438,37.14741],[-91.47467,37.14711],[-91.47509,37.14669],[-91.47517,37.14662],[-91.47524,37.14655],[-91.47538,37.14641],[-91.47552,37.14627],[-91.47558,37.14622],[-91.47574,37.14608],[-91.47583,37.146],[-91.47591,37.14592],[-91.476,37.14586],[-91.4761,37.14579],[-91.47615,37.14576],[-91.4762,37.14573],[-91.47628,37.14568],[-91.47633,37.14566],[-91.47638,37.14563],[-91.47652,37.14557],[-91.47653,37.14557],[-91.47668,37.14552],[-91.47674,37.1455],[-91.47681,37.14548],[-91.47694,37.14545],[-91.47696,37.14545],[-91.47706,37.14542],[-91.47717,37.1454],[-91.47728,37.14539],[-91.47739,37.14538],[-91.4774,37.14538],[-91.47752,37.14538],[-91.47762,37.14538],[-91.47765,37.14538],[-91.47779,37.14539],[-91.47792,37.14541],[-91.47804,37.14543],[-91.47807,37.14544],[-91.47817,37.14546],[-91.47828,37.1455],[-91.4783,37.1455],[-91.47843,37.14555],[-91.47855,37.1456],[-91.47868,37.14567],[-91.47882,37.14575],[-91.47886,37.14577],[-91.47896,37.14584],[-91.47909,37.14594],[-91.4792,37.14604],[-91.47938,37.14623],[-91.47945,37.14631],[-91.47959,37.14646],[-91.47962,37.14649],[-91.47979,37.14668],[-91.47997,37.14687],[-91.48008,37.14697],[-91.48022,37.14709],[-91.48031,37.14717],[-91.48043,37.14726],[-91.48054,37.14734],[-91.48066,37.14741],[-91.48079,37.14749],[-91.48091,37.14756],[-91.48104,37.14762],[-91.48118,37.14769],[-91.48136,37.14777],[-91.48151,37.14782],[-91.48165,37.14787],[-91.4818,37.14791],[-91.48196,37.14795],[-91.48214,37.14799],[-91.48229,37.14802],[-91.48231,37.14802],[-91.48242,37.14804],[-91.48251,37.14806],[-91.48253,37.14806],[-91.48254,37.14806],[-91.48274,37.14809],[-91.48295,37.14813],[-91.4832,37.14817],[-91.4834,37.1482],[-91.48358,37.14823],[-91.48364,37.14824],[-91.48386,37.14827],[-91.48406,37.1483],[-91.48408,37.14831],[-91.48417,37.14832],[-91.48428,37.14834],[-91.4843,37.14834],[-91.48451,37.14837],[-91.48453,37.14837],[-91.48473,37.1484],[-91.48475,37.14841],[-91.48492,37.14843],[-91.48519,37.14847],[-91.48561,37.14854],[-91.48563,37.14854],[-91.48564,37.14854],[-91.48585,37.14858],[-91.48606,37.14861],[-91.4865,37.14867],[-91.48651,37.14868],[-91.48672,37.14871],[-91.48673,37.14871],[-91.48718,37.14878],[-91.48722,37.14878],[-91.48739,37.14881],[-91.4874,37.14881],[-91.48761,37.14884],[-91.48762,37.14885],[-91.48783,37.14888],[-91.48784,37.14888],[-91.48809,37.14892],[-91.4885,37.14898],[-91.48872,37.14902],[-91.48894,37.14905],[-91.48916,37.14908],[-91.48961,37.14915],[-91.48964,37.14916],[-91.48983,37.14918],[-91.49049,37.14928],[-91.49116,37.14939],[-91.4916,37.14946],[-91.49182,37.14949],[-91.49204,37.14952],[-91.49271,37.14963],[-91.49293,37.14966],[-91.49315,37.14969],[-91.49381,37.1498],[-91.49404,37.14983],[-91.49447,37.1499],[-91.49448,37.1499],[-91.49558,37.15008],[-91.49581,37.15011],[-91.49592,37.15013],[-91.49603,37.15014],[-91.49612,37.15015],[-91.4963,37.15017],[-91.49648,37.15019],[-91.49666,37.15019],[-91.4967,37.15019],[-91.49684,37.1502],[-91.49705,37.15019],[-91.49721,37.15018],[-91.49738,37.15015],[-91.49755,37.15012],[-91.49766,37.1501],[-91.49767,37.15009],[-91.49779,37.15006],[-91.49792,37.15002],[-91.49805,37.14998],[-91.49809,37.14997],[-91.49819,37.14993],[-91.49832,37.14989],[-91.4985,37.14981],[-91.49885,37.14967],[-91.4989,37.14965],[-91.4993,37.14949],[-91.49991,37.14925],[-91.50011,37.14916],[-91.50072,37.14893],[-91.50077,37.14891],[-91.50112,37.14877],[-91.50121,37.14873],[-91.50132,37.14869],[-91.50142,37.14866],[-91.50153,37.14862],[-91.50163,37.14858],[-91.50174,37.14855],[-91.50185,37.14851],[-91.50195,37.14848],[-91.50204,37.14846],[-91.50226,37.1484],[-91.50238,37.14838],[-91.50245,37.14836],[-91.50266,37.14832],[-91.50282,37.14829],[-91.50285,37.14829],[-91.50305,37.14826],[-91.50324,37.14824],[-91.50345,37.14822],[-91.50349,37.14822],[-91.50366,37.14821],[-91.50385,37.1482],[-91.50406,37.14819],[-91.50434,37.14819],[-91.50439,37.14819],[-91.50466,37.14819],[-91.50484,37.14819],[-91.50507,37.1482],[-91.50552,37.1482],[-91.50574,37.1482],[-91.50597,37.1482],[-91.50631,37.14821],[-91.50687,37.14821],[-91.5071,37.14821],[-91.50726,37.14822],[-91.50819,37.14823],[-91.50823,37.14823],[-91.50866,37.14824],[-91.50936,37.14826],[-91.50958,37.14826],[-91.50981,37.14827],[-91.51004,37.14827],[-91.51049,37.14828],[-91.51071,37.14828],[-91.51139,37.1483],[-91.51162,37.1483],[-91.51184,37.14831],[-91.51207,37.14831],[-91.51319,37.14833],[-91.51455,37.14836],[-91.51477,37.14836],[-91.515,37.14837],[-91.5159,37.14839],[-91.51676,37.1484],[-91.5168,37.14841],[-91.51716,37.14842],[-91.51739,37.14843],[-91.51748,37.14843],[-91.51757,37.14844],[-91.5177,37.14845],[-91.51776,37.14846],[-91.51788,37.14847],[-91.51793,37.14848],[-91.51799,37.14849],[-91.51809,37.14851],[-91.51825,37.14854],[-91.51839,37.14857],[-91.51854,37.14861],[-91.51867,37.14865],[-91.5188,37.1487],[-91.51899,37.14877],[-91.51916,37.14884],[-91.51936,37.14895],[-91.51956,37.14906],[-91.51975,37.14918],[-91.51991,37.14929],[-91.52025,37.14953],[-91.52041,37.14965],[-91.52058,37.14977],[-91.52083,37.14996],[-91.5213,37.1503],[-91.52229,37.15104],[-91.52329,37.15177],[-91.52379,37.15213],[-91.52395,37.15226],[-91.52445,37.15262],[-91.52495,37.15299],[-91.52527,37.15321],[-91.52547,37.15333],[-91.52564,37.15345],[-91.52618,37.15377],[-91.52623,37.1538],[-91.52652,37.15396],[-91.52655,37.15398],[-91.52673,37.15409],[-91.52739,37.15447],[-91.52765,37.15461],[-91.52798,37.1548],[-91.52853,37.15511],[-91.52871,37.15522],[-91.52945,37.15564],[-91.52952,37.15568],[-91.52963,37.15574],[-91.53099,37.15652],[-91.53159,37.15685],[-91.53237,37.1573],[-91.53279,37.15754],[-91.53289,37.1576],[-91.53297,37.15765],[-91.53308,37.15772],[-91.53328,37.15786],[-91.53347,37.158],[-91.53348,37.15801],[-91.53363,37.15814],[-91.53369,37.15819],[-91.53378,37.15827],[-91.53384,37.15833],[-91.53392,37.15841],[-91.53403,37.15851],[-91.53406,37.15855],[-91.53421,37.1587],[-91.53433,37.15884],[-91.53442,37.15895],[-91.53454,37.15911],[-91.53457,37.15914],[-91.53457,37.15915],[-91.53464,37.15924],[-91.53468,37.15931],[-91.53474,37.15939],[-91.53478,37.15946],[-91.53482,37.15953],[-91.5349,37.15967],[-91.53501,37.15989],[-91.53511,37.16013],[-91.53511,37.16014],[-91.53518,37.16031],[-91.5352,37.16033],[-91.53526,37.16048],[-91.53532,37.16064],[-91.53546,37.16098],[-91.53547,37.16099],[-91.53547,37.161],[-91.53553,37.16116],[-91.53574,37.16167],[-91.53575,37.1617],[-91.53581,37.16184],[-91.53581,37.16185],[-91.53606,37.16244],[-91.53616,37.16269],[-91.53616,37.1627],[-91.53623,37.16287],[-91.5363,37.16304],[-91.53658,37.1637],[-91.53658,37.16372],[-91.53666,37.16389],[-91.53666,37.1639],[-91.53673,37.16406],[-91.5368,37.16423],[-91.5368,37.16424],[-91.53685,37.16436],[-91.53701,37.16475],[-91.53706,37.16488],[-91.53708,37.16492],[-91.53722,37.16526],[-91.53729,37.16543],[-91.53736,37.1656],[-91.53736,37.16561],[-91.53759,37.16611],[-91.53771,37.16639],[-91.53774,37.16645],[-91.53783,37.16661],[-91.53787,37.16669],[-91.53803,37.16694],[-91.53811,37.16707],[-91.53813,37.16709],[-91.53814,37.1671],[-91.53824,37.16725],[-91.53825,37.16725],[-91.53826,37.16727],[-91.53836,37.16741],[-91.53845,37.16754],[-91.53847,37.16756],[-91.53859,37.1677],[-91.5386,37.16772],[-91.53872,37.16786],[-91.53882,37.16798],[-91.53885,37.16801],[-91.53899,37.16816],[-91.53904,37.16821],[-91.53913,37.16829],[-91.53913,37.1683],[-91.5392,37.16837],[-91.53927,37.16843],[-91.53941,37.16857],[-91.53942,37.16857],[-91.53954,37.16869],[-91.53956,37.16871],[-91.53971,37.16885],[-91.53999,37.16912],[-91.54008,37.1692],[-91.54014,37.16926],[-91.54029,37.16939],[-91.54029,37.1694],[-91.54039,37.16949],[-91.54044,37.16953],[-91.54058,37.16967],[-91.54059,37.16967],[-91.54073,37.1698],[-91.54088,37.16994],[-91.5409,37.16995],[-91.54123,37.17024],[-91.54136,37.17033],[-91.54153,37.17045],[-91.54155,37.17047],[-91.5417,37.17055],[-91.54179,37.1706],[-91.54186,37.17063],[-91.54204,37.17071],[-91.54227,37.1708],[-91.54251,37.17088],[-91.54261,37.1709],[-91.54274,37.17093],[-91.54278,37.17094],[-91.54283,37.17095],[-91.54296,37.17097],[-91.54298,37.17097],[-91.54305,37.17098],[-91.54318,37.17099],[-91.54343,37.171],[-91.54363,37.17101],[-91.54365,37.17101],[-91.54372,37.17104],[-91.54372,37.17104],[-91.54435,37.17094],[-91.54487,37.17086],[-91.54488,37.17086],[-91.54527,37.17078],[-91.54532,37.17077],[-91.54617,37.17062],[-91.5462,37.17061],[-91.54664,37.17054],[-91.54708,37.17046],[-91.54774,37.17035],[-91.5484,37.17024],[-91.54937,37.17008],[-91.54951,37.17006],[-91.54959,37.17005],[-91.54968,37.17003],[-91.55099,37.16981],[-91.5515,37.16972],[-91.55157,37.16971],[-91.5518,37.16967],[-91.55231,37.16959],[-91.55248,37.16956],[-91.55312,37.16945],[-91.55334,37.16941],[-91.55394,37.1693],[-91.554,37.16929],[-91.55444,37.16922],[-91.55488,37.16914],[-91.55599,37.16896],[-91.55621,37.16892],[-91.55731,37.16873],[-91.55798,37.16862],[-91.55877,37.1685],[-91.55897,37.16847],[-91.559,37.16846],[-91.55929,37.16842],[-91.55944,37.1684],[-91.55965,37.16837],[-91.55989,37.16835],[-91.56005,37.16833],[-91.56011,37.16832],[-91.56048,37.16829],[-91.56077,37.16827],[-91.56101,37.16825],[-91.56114,37.16825],[-91.56123,37.16824],[-91.56146,37.16823],[-91.5616,37.16823],[-91.56169,37.16823],[-91.56191,37.16823],[-91.56221,37.16822],[-91.56236,37.16823],[-91.56259,37.16823],[-91.56304,37.16823],[-91.56321,37.16823],[-91.56327,37.16823],[-91.56349,37.16824],[-91.56417,37.16825],[-91.56439,37.16826],[-91.56448,37.16826],[-91.56462,37.16826],[-91.56507,37.16827],[-91.56552,37.16828],[-91.5662,37.1683],[-91.56642,37.16831],[-91.56665,37.16831],[-91.56688,37.16832],[-91.5671,37.16832],[-91.568,37.16834],[-91.56845,37.16835],[-91.56936,37.16838],[-91.56941,37.16838],[-91.56958,37.16838],[-91.56981,37.16839],[-91.57003,37.16839],[-91.57021,37.16839],[-91.57026,37.16839],[-91.57049,37.1684],[-91.57094,37.16841],[-91.57116,37.16842],[-91.57162,37.16843],[-91.57206,37.16844],[-91.57229,37.16844],[-91.57344,37.16847],[-91.5741,37.16848],[-91.57455,37.16849],[-91.57477,37.1685],[-91.57536,37.16851],[-91.57613,37.16853],[-91.57655,37.16854],[-91.57678,37.16855],[-91.57687,37.16855],[-91.577,37.16856],[-91.57722,37.16857],[-91.57732,37.16857],[-91.57745,37.16857],[-91.57781,37.16858],[-91.57831,37.16859],[-91.57845,37.16859],[-91.57858,37.1686],[-91.57867,37.1686],[-91.5788,37.1686],[-91.57903,37.16861],[-91.57912,37.16861],[-91.57913,37.16861],[-91.57926,37.16861],[-91.57948,37.16862],[-91.57959,37.16862],[-91.57993,37.16863],[-91.58025,37.16863],[-91.58026,37.16863],[-91.58039,37.16864],[-91.58048,37.16864],[-91.5805,37.16864],[-91.58123,37.16865],[-91.5819,37.16866],[-91.58206,37.16867],[-91.58225,37.16867],[-91.58315,37.1687],[-91.5836,37.16871],[-91.58393,37.16871],[-91.58416,37.16872],[-91.58428,37.16872],[-91.58479,37.16874],[-91.58619,37.16877],[-91.58631,37.16877],[-91.58642,37.16877],[-91.58654,37.16878],[-91.58716,37.16879],[-91.58732,37.16879],[-91.58744,37.1688],[-91.58754,37.1688],[-91.58767,37.1688],[-91.58789,37.16881],[-91.588,37.16881],[-91.58834,37.16881],[-91.58867,37.16882],[-91.58902,37.16883],[-91.58957,37.16884],[-91.59048,37.16886],[-91.5906,37.16887],[-91.5907,37.16887],[-91.59093,37.16887],[-91.59105,37.16888],[-91.59138,37.16888],[-91.5915,37.16889],[-91.59159,37.16889],[-91.59183,37.1689],[-91.59195,37.1689],[-91.59218,37.1689],[-91.59228,37.16891],[-91.5924,37.16891],[-91.59251,37.16891],[-91.59421,37.16895],[-91.59431,37.16895],[-91.59443,37.16896],[-91.59454,37.16896],[-91.59466,37.16896],[-91.59526,37.16898],[-91.59594,37.16899],[-91.59617,37.169],[-91.59662,37.16901],[-91.59684,37.16902],[-91.59707,37.16902],[-91.5982,37.16905],[-91.5989,37.16907],[-91.5992,37.16907],[-91.59981,37.16909],[-91.60003,37.16909],[-91.60011,37.1691],[-91.60026,37.1691],[-91.60139,37.16914],[-91.6014,37.16914],[-91.60161,37.16915],[-91.60206,37.16916],[-91.60246,37.16917],[-91.60251,37.16917],[-91.60274,37.16918],[-91.6035,37.1692],[-91.60418,37.16922],[-91.6044,37.16922],[-91.60451,37.16922],[-91.60553,37.16926],[-91.60576,37.16926],[-91.60621,37.16928],[-91.60643,37.16929],[-91.60666,37.16929],[-91.60689,37.1693],[-91.60711,37.16931],[-91.60734,37.16932],[-91.60761,37.16932],[-91.60801,37.16934],[-91.60815,37.16934],[-91.60824,37.16934],[-91.60857,37.16935],[-91.60869,37.16936],[-91.60895,37.16937],[-91.60914,37.16937],[-91.60937,37.16938],[-91.60959,37.16938],[-91.60982,37.16939],[-91.61011,37.1694],[-91.61027,37.1694],[-91.61059,37.16941],[-91.61099,37.16942],[-91.61141,37.16943],[-91.61207,37.16945],[-91.61222,37.16946],[-91.61252,37.16946],[-91.61275,37.16947],[-91.61307,37.16947],[-91.6132,37.16948],[-91.61343,37.16948],[-91.61365,37.16949],[-91.61382,37.16949],[-91.61437,37.16951],[-91.61452,37.16952],[-91.61477,37.16953],[-91.61478,37.16953],[-91.61496,37.16955],[-91.615,37.16955],[-91.6151,37.16957],[-91.61524,37.16958],[-91.61536,37.1696],[-91.61557,37.16963],[-91.61579,37.16967],[-91.61589,37.16969],[-91.6159,37.1697],[-91.61614,37.16975],[-91.61632,37.1698],[-91.61647,37.16984],[-91.61675,37.16993],[-91.61698,37.17002],[-91.61729,37.17014],[-91.61748,37.17023],[-91.6176,37.17028],[-91.61764,37.1703],[-91.61778,37.17037],[-91.61793,37.17045],[-91.61804,37.17051],[-91.61814,37.17057],[-91.61816,37.17058],[-91.61833,37.17069],[-91.61834,37.17069],[-91.61855,37.17083],[-91.61868,37.17093],[-91.61879,37.171],[-91.61885,37.17105],[-91.61901,37.17116],[-91.61922,37.17132],[-91.61943,37.17147],[-91.61952,37.17153],[-91.61983,37.17175],[-91.62002,37.17189],[-91.62019,37.17201],[-91.62136,37.17286],[-91.62192,37.17326],[-91.62242,37.17362],[-91.62276,37.17386],[-91.6231,37.17409],[-91.62344,37.17434],[-91.62412,37.17482],[-91.62441,37.17503],[-91.62495,37.17542],[-91.62498,37.17545],[-91.62512,37.17554],[-91.62546,37.17578],[-91.62557,37.17586],[-91.62563,37.1759],[-91.6258,37.17602],[-91.62587,37.17607],[-91.6261,37.17622],[-91.62615,37.17625],[-91.62623,37.1763],[-91.62632,37.17636],[-91.62636,37.17638],[-91.62646,37.17644],[-91.62659,37.17651],[-91.6267,37.17657],[-91.62671,37.17657],[-91.62685,37.17664],[-91.627,37.17672],[-91.62714,37.17678],[-91.62727,37.17683],[-91.62728,37.17684],[-91.62741,37.17689],[-91.62751,37.17693],[-91.62764,37.17698],[-91.62769,37.17699],[-91.6278,37.17703],[-91.6279,37.17706],[-91.62794,37.17707],[-91.62805,37.17711],[-91.62811,37.17712],[-91.62816,37.17714],[-91.6283,37.17717],[-91.62844,37.1772],[-91.62854,37.17723],[-91.62864,37.17725],[-91.62876,37.17727],[-91.62892,37.1773],[-91.62914,37.17732],[-91.62942,37.17736],[-91.62965,37.17737],[-91.62988,37.17738],[-91.62995,37.17739],[-91.6301,37.17739],[-91.63024,37.17739],[-91.63098,37.1774],[-91.63346,37.17744],[-91.63368,37.17744],[-91.63558,37.17747],[-91.63709,37.17749],[-91.63783,37.1775],[-91.63829,37.17751],[-91.63841,37.17751],[-91.63851,37.17751],[-91.63919,37.17752],[-91.63931,37.17752],[-91.64089,37.17755],[-91.64099,37.17755],[-91.64179,37.17756],[-91.6419,37.17757],[-91.64216,37.17757],[-91.64247,37.17757],[-91.64257,37.17757],[-91.64303,37.17758],[-91.64314,37.17758],[-91.64337,37.17759],[-91.64472,37.1776],[-91.64517,37.17761],[-91.64518,37.17761],[-91.64557,37.17763],[-91.6458,37.17764],[-91.64585,37.17764],[-91.64608,37.17767],[-91.64631,37.17769],[-91.64652,37.17771],[-91.64661,37.17772],[-91.64688,37.17776],[-91.64735,37.17785],[-91.64772,37.17794],[-91.64803,37.17801],[-91.64845,37.17813],[-91.64891,37.17829],[-91.64908,37.17835],[-91.64923,37.1784],[-91.64949,37.17849],[-91.6497,37.17857],[-91.65011,37.17872],[-91.65052,37.17886],[-91.65072,37.17894],[-91.65078,37.17896],[-91.65093,37.17901],[-91.65134,37.17916],[-91.65155,37.17924],[-91.65175,37.17931],[-91.65205,37.17942],[-91.65229,37.1795],[-91.65249,37.17955],[-91.65263,37.17958],[-91.65276,37.1796],[-91.65281,37.17961],[-91.653,37.17964],[-91.65303,37.17964],[-91.65321,37.17965],[-91.65351,37.17966],[-91.65441,37.17965],[-91.65476,37.17964],[-91.65486,37.17964],[-91.65531,37.17964],[-91.65631,37.17962],[-91.65745,37.17961],[-91.65763,37.17961],[-91.65808,37.17961],[-91.65842,37.17961],[-91.65846,37.1796],[-91.65891,37.1796],[-91.65892,37.1796],[-91.65913,37.17959],[-91.65936,37.17959],[-91.65959,37.17958],[-91.65975,37.17958],[-91.65997,37.17958],[-91.65998,37.17958],[-91.66042,37.17957],[-91.66043,37.17957],[-91.66065,37.17957],[-91.66087,37.17957],[-91.66133,37.17957],[-91.6616,37.17956],[-91.66205,37.17955],[-91.66227,37.17955],[-91.66227,37.17955],[-91.66246,37.1796],[-91.66267,37.17967],[-91.66277,37.17969],[-91.663,37.18],[-91.66323,37.18031],[-91.66329,37.18039],[-91.66383,37.18112],[-91.66442,37.1819],[-91.66459,37.18211],[-91.66471,37.18225],[-91.66483,37.1824],[-91.66507,37.18267],[-91.66541,37.18302],[-91.66562,37.18324],[-91.66591,37.18351],[-91.66595,37.18356],[-91.66605,37.18365],[-91.66608,37.18368],[-91.6662,37.18379],[-91.66634,37.18392],[-91.66666,37.1842],[-91.66681,37.18432],[-91.66702,37.18449],[-91.66716,37.18461],[-91.6677,37.18501],[-91.66792,37.18517],[-91.66794,37.18518],[-91.66825,37.18539],[-91.66843,37.18552],[-91.66875,37.18573],[-91.66895,37.18585],[-91.6692,37.186],[-91.66932,37.18607],[-91.66957,37.18622],[-91.67024,37.18659],[-91.67096,37.18695],[-91.67143,37.18717],[-91.67177,37.18732],[-91.67216,37.18747],[-91.67297,37.18778],[-91.67358,37.18802],[-91.67419,37.18825],[-91.67561,37.1888],[-91.67582,37.18887],[-91.67784,37.18965],[-91.67874,37.18999],[-91.67952,37.19029],[-91.68035,37.19062],[-91.68091,37.19084],[-91.68094,37.19085],[-91.68114,37.19093],[-91.68199,37.19125],[-91.68229,37.19135],[-91.68248,37.19141],[-91.68278,37.1915],[-91.68299,37.19156],[-91.68314,37.1916],[-91.68335,37.19165],[-91.68353,37.19168],[-91.68378,37.19173],[-91.68413,37.19179],[-91.68429,37.19181],[-91.68459,37.19185],[-91.68485,37.19187],[-91.68521,37.1919],[-91.68532,37.19191],[-91.68553,37.19192],[-91.6858,37.19193],[-91.68607,37.19194],[-91.68668,37.19196],[-91.6869,37.19197],[-91.68728,37.19198],[-91.6882,37.19201],[-91.68842,37.19202],[-91.68978,37.19207],[-91.69048,37.19209],[-91.69116,37.19211],[-91.69139,37.19212],[-91.69161,37.19213],[-91.69206,37.19214],[-91.69229,37.19215],[-91.69251,37.19216],[-91.69296,37.19217],[-91.69319,37.19218],[-91.69364,37.1922],[-91.69387,37.1922],[-91.69522,37.19225],[-91.6959,37.19227],[-91.69631,37.19228],[-91.69778,37.19233],[-91.69801,37.19234],[-91.69891,37.19236],[-91.69986,37.1924],[-91.70008,37.1924],[-91.70069,37.19242],[-91.70098,37.19243],[-91.70175,37.19246],[-91.70189,37.19247],[-91.70211,37.19248],[-91.70256,37.1925],[-91.70328,37.19254],[-91.70334,37.19255],[-91.70383,37.19259],[-91.70401,37.19261],[-91.70429,37.19265],[-91.70446,37.19267],[-91.70485,37.19273],[-91.70541,37.19282],[-91.70578,37.19289],[-91.706,37.19293],[-91.70604,37.19294],[-91.70676,37.1931],[-91.7073,37.19323],[-91.70742,37.19326],[-91.70752,37.19329],[-91.70794,37.19341],[-91.70826,37.19351],[-91.70856,37.1936],[-91.7087,37.19364],[-91.70896,37.19373],[-91.70924,37.19383],[-91.70952,37.19393],[-91.70973,37.19401],[-91.70999,37.19411],[-91.71054,37.19434],[-91.71073,37.19442],[-91.71096,37.19453],[-91.71127,37.19467],[-91.71165,37.19485],[-91.71185,37.19495],[-91.71204,37.19505],[-91.71223,37.19515],[-91.71236,37.19522],[-91.71241,37.19525],[-91.71268,37.1954],[-91.71278,37.19546],[-91.71299,37.19559],[-91.71332,37.19579],[-91.71335,37.1958],[-91.71368,37.19601],[-91.7137,37.19603],[-91.71395,37.19619],[-91.71448,37.19657],[-91.71452,37.1966],[-91.71464,37.19669],[-91.71488,37.19687],[-91.7153,37.1972],[-91.71533,37.19723],[-91.71547,37.19734],[-91.71567,37.19752],[-91.71586,37.19768],[-91.71601,37.19782],[-91.71653,37.19831],[-91.71689,37.19866],[-91.71715,37.19891],[-91.71755,37.1993],[-91.71772,37.19946],[-91.7181,37.19984],[-91.71811,37.19984],[-91.71825,37.19998],[-91.71854,37.20026],[-91.71877,37.20047],[-91.71895,37.20065],[-91.71906,37.20075],[-91.71931,37.20099],[-91.71939,37.20107],[-91.71968,37.20135],[-91.71991,37.20156],[-91.72019,37.20184],[-91.72068,37.20231],[-91.72153,37.20313],[-91.72154,37.20315],[-91.72183,37.20343],[-91.72197,37.20357],[-91.72226,37.20384],[-91.72269,37.20426],[-91.72284,37.2044],[-91.72312,37.20467],[-91.72327,37.20481],[-91.72341,37.20495],[-91.7237,37.20523],[-91.72384,37.20537],[-91.72399,37.20551],[-91.72413,37.20565],[-91.72427,37.20578],[-91.72485,37.20634],[-91.72499,37.20648],[-91.72514,37.20662],[-91.72528,37.20675],[-91.72557,37.20703],[-91.72604,37.20749],[-91.72684,37.20825],[-91.7285,37.20985],[-91.72901,37.21034],[-91.72912,37.21044],[-91.72956,37.21088],[-91.7298,37.21111],[-91.73039,37.21167],[-91.73053,37.21181],[-91.73068,37.21195],[-91.73082,37.21209],[-91.73096,37.21223],[-91.73111,37.21237],[-91.73154,37.21278],[-91.73183,37.21306],[-91.73197,37.2132],[-91.73212,37.21334],[-91.73226,37.21347],[-91.7324,37.21361],[-91.73298,37.21417],[-91.73312,37.21431],[-91.73327,37.21445],[-91.7337,37.21486],[-91.73384,37.215],[-91.73399,37.21514],[-91.73413,37.21528],[-91.73485,37.21597],[-91.73514,37.21625],[-91.73528,37.21639],[-91.73542,37.21652],[-91.73571,37.2168],[-91.73658,37.21763],[-91.73694,37.21797],[-91.73703,37.21806],[-91.73732,37.21834],[-91.7379,37.2189],[-91.73818,37.21917],[-91.73833,37.21931],[-91.73876,37.21973],[-91.7389,37.21987],[-91.74063,37.22153],[-91.74077,37.22167],[-91.74092,37.22181],[-91.74121,37.22209],[-91.74164,37.2225],[-91.74178,37.22264],[-91.74192,37.22278],[-91.74207,37.22292],[-91.74236,37.22319],[-91.7425,37.22333],[-91.74264,37.22347],[-91.74308,37.22389],[-91.74322,37.22403],[-91.74336,37.22417],[-91.74351,37.2243],[-91.74365,37.22444],[-91.7438,37.22458],[-91.74394,37.22472],[-91.74408,37.22486],[-91.74452,37.22527],[-91.74471,37.22546],[-91.74498,37.22572],[-91.74509,37.22583],[-91.74524,37.22597],[-91.74549,37.22622],[-91.74586,37.22658],[-91.74602,37.22673],[-91.74633,37.22703],[-91.74664,37.22732],[-91.74689,37.22756],[-91.74699,37.22766],[-91.74704,37.2277],[-91.74733,37.22798],[-91.74761,37.22825],[-91.74776,37.22839],[-91.7479,37.22853],[-91.74798,37.22861],[-91.74805,37.22867],[-91.74819,37.22881],[-91.74833,37.22895],[-91.74862,37.22923],[-91.74886,37.22946],[-91.74891,37.2295],[-91.74905,37.22964],[-91.7492,37.22978],[-91.74932,37.22989],[-91.74963,37.2302],[-91.74999,37.23055],[-91.75006,37.23061],[-91.7502,37.23075],[-91.75035,37.23089],[-91.7507,37.23122],[-91.75107,37.23158],[-91.7515,37.23199],[-91.75207,37.23255],[-91.75213,37.2326],[-91.75236,37.23283],[-91.7526,37.23306],[-91.75265,37.2331],[-91.75303,37.23348],[-91.75316,37.2336],[-91.75341,37.23385],[-91.75361,37.23403],[-91.75385,37.23426],[-91.7543,37.23467],[-91.7545,37.23484],[-91.75476,37.23506],[-91.755,37.23526],[-91.75505,37.23529],[-91.75521,37.23542],[-91.75529,37.23548],[-91.75537,37.23554],[-91.75554,37.23566],[-91.75558,37.23569],[-91.7557,37.23578],[-91.75587,37.23591],[-91.75616,37.2361],[-91.75651,37.23634],[-91.75663,37.23641],[-91.7568,37.23652],[-91.75691,37.23659],[-91.75698,37.23663],[-91.75723,37.23678],[-91.75752,37.23696],[-91.75758,37.23699],[-91.75771,37.23706],[-91.75787,37.23715],[-91.75808,37.23726],[-91.75832,37.23738],[-91.75841,37.23742],[-91.75861,37.23751],[-91.75862,37.23752],[-91.7588,37.2376],[-91.759,37.23769],[-91.75912,37.23775],[-91.75939,37.23787],[-91.75946,37.2379],[-91.75977,37.23803],[-91.75979,37.23804],[-91.75999,37.23812],[-91.76019,37.2382],[-91.76021,37.23821],[-91.76082,37.23845],[-91.761,37.23852],[-91.76118,37.23859],[-91.76141,37.23868],[-91.76202,37.23891],[-91.76264,37.23913],[-91.76311,37.2393],[-91.76393,37.23961],[-91.76414,37.23969],[-91.76517,37.24007],[-91.76536,37.24014],[-91.76557,37.24022],[-91.76577,37.2403],[-91.76638,37.24053],[-91.76659,37.2406],[-91.76781,37.24107],[-91.76835,37.24126],[-91.76835,37.24127],[-91.76876,37.24141],[-91.7689,37.24146],[-91.76916,37.24156],[-91.76998,37.24187],[-91.77019,37.24195],[-91.77039,37.24202],[-91.7708,37.24217],[-91.77223,37.24271],[-91.77243,37.24278],[-91.77244,37.24279],[-91.77264,37.24286],[-91.77285,37.24294],[-91.77305,37.24302],[-91.77342,37.24315],[-91.77346,37.24317],[-91.77367,37.24325],[-91.7751,37.24378],[-91.77569,37.244],[-91.77692,37.24446],[-91.77707,37.24451],[-91.77829,37.24497],[-91.77898,37.24523],[-91.77929,37.24535],[-91.77945,37.2454],[-91.77962,37.24546],[-91.7798,37.24551],[-91.78,37.24556],[-91.78012,37.24558],[-91.78024,37.2456],[-91.78041,37.24562],[-91.78052,37.24562],[-91.78069,37.24563],[-91.78077,37.24563],[-91.7812,37.24564],[-91.78227,37.24566],[-91.78363,37.24569],[-91.7841,37.2457],[-91.78471,37.24571],[-91.78516,37.24571],[-91.78539,37.24572],[-91.78584,37.24573],[-91.78666,37.24574],[-91.78674,37.24574],[-91.78765,37.24576],[-91.78813,37.24577],[-91.78832,37.24578],[-91.789,37.24579],[-91.78975,37.24581],[-91.78983,37.24581],[-91.78998,37.24581],[-91.79178,37.24585],[-91.79224,37.24586],[-91.79286,37.24587],[-91.79291,37.24587],[-91.79336,37.24588],[-91.79404,37.24589],[-91.7954,37.24592],[-91.79698,37.24594],[-91.79783,37.24596],[-91.79809,37.24596],[-91.79866,37.24597],[-91.79888,37.24598],[-91.79896,37.24599],[-91.79899,37.24599],[-91.7991,37.24599],[-91.79918,37.246],[-91.79923,37.246],[-91.79936,37.24601],[-91.79951,37.24603],[-91.79963,37.24605],[-91.79965,37.24606],[-91.79976,37.24608],[-91.79985,37.2461],[-91.79994,37.24612],[-91.80006,37.24615],[-91.80023,37.2462],[-91.80034,37.24623],[-91.80044,37.24626],[-91.80052,37.2463],[-91.80069,37.24637],[-91.80071,37.24638],[-91.80088,37.24646],[-91.80095,37.24649],[-91.80126,37.24665],[-91.80154,37.24679],[-91.80173,37.24689],[-91.80174,37.24689],[-91.80206,37.24705],[-91.80221,37.24713],[-91.80243,37.24722],[-91.80266,37.24731],[-91.80272,37.24733],[-91.80287,37.24739],[-91.80292,37.2474],[-91.80303,37.24744],[-91.80314,37.24746],[-91.80318,37.24748],[-91.80331,37.24751],[-91.80342,37.24753],[-91.80356,37.24755],[-91.80365,37.24757],[-91.80374,37.24758],[-91.80386,37.24759],[-91.80402,37.2476],[-91.80407,37.24761],[-91.80422,37.24761],[-91.80425,37.24761],[-91.8044,37.24761],[-91.80451,37.2476],[-91.80472,37.24759],[-91.80492,37.24757],[-91.80506,37.24754],[-91.80513,37.24753],[-91.80521,37.24751],[-91.80526,37.2475],[-91.80554,37.24744],[-91.80567,37.2474],[-91.80568,37.2474],[-91.80588,37.24734],[-91.80596,37.24731],[-91.80608,37.24726],[-91.8061,37.24725],[-91.80622,37.24721],[-91.80635,37.24715],[-91.80648,37.24709],[-91.80649,37.24708],[-91.80661,37.24702],[-91.80678,37.24693],[-91.80703,37.2468],[-91.80723,37.24669],[-91.80724,37.24669],[-91.80747,37.24656],[-91.80768,37.24644],[-91.80798,37.24628],[-91.80854,37.24597],[-91.80863,37.24592],[-91.80891,37.24577],[-91.8091,37.24567],[-91.80934,37.24554],[-91.80947,37.24546],[-91.80984,37.24527],[-91.81002,37.24517],[-91.81021,37.24508],[-91.81036,37.245],[-91.81052,37.24493],[-91.81061,37.24489],[-91.81071,37.24486],[-91.81084,37.24481],[-91.81097,37.24478],[-91.81109,37.24475],[-91.8112,37.24473],[-91.81126,37.24472],[-91.81129,37.24471],[-91.81142,37.24469],[-91.81148,37.24469],[-91.8115,37.24468],[-91.81165,37.24467],[-91.81173,37.24467],[-91.81185,37.24467],[-91.81193,37.24467],[-91.81199,37.24467],[-91.81209,37.24468],[-91.81216,37.24469],[-91.81223,37.24469],[-91.81235,37.24471],[-91.81238,37.24472],[-91.81242,37.24473],[-91.8125,37.24474],[-91.81259,37.24477],[-91.81273,37.2448],[-91.81281,37.24483],[-91.81285,37.24484],[-91.81294,37.24487],[-91.81302,37.2449],[-91.81306,37.24492],[-91.81322,37.24499],[-91.81333,37.24505],[-91.8134,37.24509],[-91.81348,37.24513],[-91.8136,37.24521],[-91.8137,37.24528],[-91.81382,37.24538],[-91.8139,37.24545],[-91.81392,37.24548],[-91.81402,37.24558],[-91.81403,37.2456],[-91.8141,37.24569],[-91.81418,37.24579],[-91.81426,37.24591],[-91.81432,37.24602],[-91.81435,37.24607],[-91.81438,37.24614],[-91.81442,37.24624],[-91.81443,37.24628],[-91.81447,37.24639],[-91.81447,37.24642],[-91.81449,37.24649],[-91.81451,37.24659],[-91.81452,37.24666],[-91.81453,37.24673],[-91.81453,37.24683],[-91.81453,37.24689],[-91.81453,37.24696],[-91.81453,37.24701],[-91.81451,37.24716],[-91.81448,37.24727],[-91.81447,37.24731],[-91.81444,37.2474],[-91.81441,37.24748],[-91.81436,37.24759],[-91.81433,37.24765],[-91.81432,37.24768],[-91.81428,37.24776],[-91.81419,37.2479],[-91.81414,37.24798],[-91.8141,37.24804],[-91.81403,37.24814],[-91.81401,37.24816],[-91.81354,37.24879],[-91.81345,37.24891],[-91.81333,37.24906],[-91.81322,37.24921],[-91.81314,37.24931],[-91.8131,37.24937],[-91.81308,37.2494],[-91.81303,37.24946],[-91.81299,37.24953],[-91.81294,37.24961],[-91.81291,37.24965],[-91.81289,37.24969],[-91.81284,37.2498],[-91.8128,37.24986],[-91.81277,37.24995],[-91.81274,37.25003],[-91.81272,37.25009],[-91.8127,37.25016],[-91.81268,37.25025],[-91.81267,37.25034],[-91.81266,37.25042],[-91.81265,37.25051],[-91.81265,37.25056],[-91.81265,37.25062],[-91.81266,37.25072],[-91.81266,37.25077],[-91.81267,37.25083],[-91.81269,37.25091],[-91.8127,37.25097],[-91.81271,37.25102],[-91.81272,37.25105],[-91.81274,37.25114],[-91.81279,37.25127],[-91.81281,37.25132],[-91.81285,37.25141],[-91.81289,37.2515],[-91.8129,37.2515],[-91.81294,37.25159],[-91.81298,37.25165],[-91.81304,37.25174],[-91.81311,37.25182],[-91.81316,37.25188],[-91.81322,37.25195],[-91.81327,37.252],[-91.81332,37.25204],[-91.81335,37.25208],[-91.81338,37.2521],[-91.81341,37.25213],[-91.81353,37.25222],[-91.81364,37.2523],[-91.81377,37.25238],[-91.81388,37.25244],[-91.81389,37.25245],[-91.814,37.2525],[-91.81414,37.25257],[-91.81424,37.25261],[-91.8144,37.25267],[-91.81453,37.2527],[-91.81461,37.25273],[-91.81471,37.25275],[-91.81478,37.25277],[-91.81485,37.25278],[-91.81498,37.2528],[-91.81511,37.25282],[-91.81515,37.25282],[-91.8152,37.25283],[-91.81534,37.25283],[-91.81546,37.25283],[-91.81554,37.25283],[-91.81565,37.25283],[-91.8157,37.25282],[-91.81575,37.25282],[-91.8158,37.25282],[-91.81591,37.2528],[-91.816,37.25279],[-91.81605,37.25278],[-91.81614,37.25277],[-91.81621,37.25275],[-91.81627,37.25274],[-91.81633,37.25273],[-91.81648,37.25269],[-91.81668,37.25264],[-91.8167,37.25264],[-91.81703,37.25256],[-91.81735,37.25247],[-91.81738,37.25247],[-91.81756,37.25242],[-91.81799,37.25231],[-91.8208,37.2516],[-91.82123,37.25149],[-91.8221,37.25127],[-91.82231,37.25122],[-91.82253,37.25116],[-91.82339,37.25095],[-91.8236,37.25089],[-91.82382,37.25084],[-91.82403,37.25078],[-91.82425,37.25073],[-91.82446,37.25067],[-91.82554,37.2504],[-91.82575,37.25034],[-91.82619,37.25023],[-91.82683,37.25007],[-91.82788,37.2498],[-91.8282,37.24973],[-91.82834,37.2497],[-91.82836,37.24969],[-91.82859,37.24965],[-91.82878,37.24962],[-91.82883,37.24962],[-91.82907,37.2496],[-91.82923,37.24959],[-91.8293,37.24958],[-91.82954,37.24958],[-91.82974,37.24958],[-91.82991,37.24959],[-91.83016,37.2496],[-91.83026,37.24961],[-91.83027,37.24961],[-91.83049,37.24964],[-91.8305,37.24964],[-91.83062,37.24966],[-91.83072,37.24968],[-91.83089,37.24972],[-91.83102,37.24975],[-91.83115,37.24978],[-91.83122,37.2498],[-91.83136,37.24985],[-91.83145,37.24987],[-91.83157,37.24992],[-91.83177,37.24999],[-91.83178,37.24999],[-91.83196,37.25007],[-91.83198,37.25008],[-91.83212,37.25014],[-91.83223,37.25019],[-91.83235,37.25025],[-91.83251,37.25035],[-91.83263,37.25042],[-91.83275,37.2505],[-91.83287,37.25059],[-91.83289,37.2506],[-91.833,37.25068],[-91.83305,37.25073],[-91.8331,37.25077],[-91.8332,37.25086],[-91.83323,37.25088],[-91.83333,37.25097],[-91.83341,37.25105],[-91.83363,37.25128],[-91.83389,37.25155],[-91.83437,37.25206],[-91.83457,37.25227],[-91.83475,37.25247],[-91.83487,37.2526],[-91.83506,37.2528],[-91.83553,37.2533],[-91.83578,37.25358],[-91.83579,37.25359],[-91.83603,37.25384],[-91.83622,37.25404],[-91.83642,37.25425],[-91.83651,37.25434],[-91.83661,37.25445],[-91.83667,37.25451],[-91.83674,37.25459],[-91.83677,37.25462],[-91.83685,37.2547],[-91.83691,37.25477],[-91.83712,37.25498],[-91.83729,37.25516],[-91.83735,37.25524],[-91.83742,37.25531],[-91.8375,37.25539],[-91.83769,37.25559],[-91.83783,37.25574],[-91.83784,37.25575],[-91.83802,37.25594],[-91.83828,37.25622],[-91.83842,37.25638],[-91.83856,37.25653],[-91.83866,37.25664],[-91.83889,37.25688],[-91.83922,37.25724],[-91.83943,37.25747],[-91.83948,37.25752],[-91.83957,37.25761],[-91.8396,37.25764],[-91.83973,37.25778],[-91.83988,37.25794],[-91.84008,37.25814],[-91.84025,37.25831],[-91.84042,37.25846],[-91.84061,37.25861],[-91.84079,37.25874],[-91.84092,37.25882],[-91.84093,37.25883],[-91.84099,37.25887],[-91.8411,37.25893],[-91.84122,37.25899],[-91.84133,37.25905],[-91.84145,37.25911],[-91.84157,37.25916],[-91.84167,37.25921],[-91.8418,37.25926],[-91.84188,37.25929],[-91.84194,37.25931],[-91.84209,37.25936],[-91.84214,37.25937],[-91.84222,37.2594],[-91.8423,37.25942],[-91.84241,37.25945],[-91.84251,37.25948],[-91.8427,37.25952],[-91.84273,37.25953],[-91.84296,37.25958],[-91.84332,37.25965],[-91.84374,37.25974],[-91.84382,37.25976],[-91.84407,37.25981],[-91.84448,37.25989],[-91.84465,37.25992],[-91.84489,37.25997],[-91.84536,37.26006],[-91.84544,37.26007],[-91.84558,37.2601],[-91.84579,37.26015],[-91.84584,37.26016],[-91.84608,37.26021],[-91.84623,37.26026],[-91.84643,37.26032],[-91.8466,37.26039],[-91.84675,37.26045],[-91.84684,37.26049],[-91.8469,37.26052],[-91.84701,37.26058],[-91.84713,37.26064],[-91.84728,37.26073],[-91.84739,37.2608],[-91.84745,37.26084],[-91.84755,37.26092],[-91.84759,37.26095],[-91.84771,37.26105],[-91.84786,37.26118],[-91.84786,37.26119],[-91.84799,37.26131],[-91.84812,37.26146],[-91.8482,37.26156],[-91.84828,37.26166],[-91.84834,37.26175],[-91.84841,37.26186],[-91.84848,37.26198],[-91.84855,37.26211],[-91.84862,37.26226],[-91.84867,37.26239],[-91.84871,37.26254],[-91.84876,37.26273],[-91.84879,37.2629],[-91.8488,37.26313],[-91.84879,37.2634],[-91.84879,37.2637],[-91.84874,37.2649],[-91.84871,37.26562],[-91.84868,37.26631],[-91.84867,37.26647],[-91.84867,37.26648],[-91.84866,37.2671],[-91.84863,37.26792],[-91.8486,37.26852],[-91.84858,37.26918],[-91.84855,37.26999],[-91.84853,37.27052],[-91.8485,37.27143],[-91.84849,37.27173],[-91.84849,37.27177],[-91.84848,37.27195],[-91.84848,37.27204],[-91.84848,37.27213],[-91.84847,37.27241],[-91.84846,37.27249],[-91.84846,37.27261],[-91.84846,37.27267],[-91.84845,37.27283],[-91.84844,37.27318],[-91.84843,37.27329],[-91.84843,37.27329],[-91.84929,37.27328],[-91.85016,37.27326],[-91.85059,37.27325],[-91.85092,37.27324],[-91.85097,37.27324],[-91.8514,37.27324],[-91.8516,37.27324],[-91.85182,37.27324],[-91.85188,37.27324],[-91.85227,37.27324],[-91.85244,37.27325],[-91.85323,37.27326],[-91.85408,37.27328],[-91.85476,37.27329],[-91.85589,37.27332],[-91.85611,37.27332],[-91.85668,37.27334],[-91.85702,37.27334],[-91.85724,37.27335],[-91.85793,37.27337],[-91.85815,37.27337],[-91.85927,37.2734],[-91.86044,37.27342],[-91.86067,37.27343],[-91.86101,37.27344],[-91.86248,37.27346],[-91.86293,37.27347],[-91.86316,37.27347],[-91.86376,37.27348],[-91.86458,37.2735],[-91.86466,37.2735],[-91.86512,37.27351],[-91.86534,37.27351],[-91.86557,37.27351],[-91.86579,37.27352],[-91.86586,37.27352],[-91.86602,37.27352],[-91.86647,37.27353],[-91.8667,37.27353],[-91.86681,37.27353],[-91.86715,37.27354],[-91.8676,37.27354],[-91.8685,37.27356],[-91.86873,37.27356],[-91.86895,37.27357],[-91.8694,37.27358],[-91.87053,37.2736],[-91.87076,37.2736],[-91.87099,37.27361],[-91.87144,37.27361],[-91.87278,37.27363],[-91.873,37.27363],[-91.87316,37.27364],[-91.87391,37.27364],[-91.87413,37.27364],[-91.87481,37.27365],[-91.87602,37.27366],[-91.8767,37.27367],[-91.87715,37.27368],[-91.87737,37.27368],[-91.8776,37.27368],[-91.87783,37.27369],[-91.87896,37.2737],[-91.87918,37.2737],[-91.87958,37.27371],[-91.87996,37.27372],[-91.88086,37.27374],[-91.88109,37.27374],[-91.88131,37.27374],[-91.88154,37.27375],[-91.88177,37.27375],[-91.88199,37.27376],[-91.88224,37.27376],[-91.88312,37.27378],[-91.8837,37.2738],[-91.88425,37.2738],[-91.88448,37.27381],[-91.88449,37.27381],[-91.88504,37.27382],[-91.88515,37.27383],[-91.88524,37.27384],[-91.8854,37.27386],[-91.88554,37.27388],[-91.88567,37.2739],[-91.88579,37.27393],[-91.88606,37.274],[-91.88612,37.27402],[-91.88625,37.27407],[-91.88642,37.27414],[-91.88652,37.27418],[-91.88665,37.27423],[-91.88684,37.27431],[-91.88693,37.27434],[-91.88712,37.27442],[-91.88713,37.27443],[-91.8873,37.2745],[-91.88733,37.27451],[-91.88756,37.2746],[-91.88772,37.27467],[-91.88773,37.27467],[-91.88786,37.27472],[-91.88793,37.27475],[-91.8882,37.27484],[-91.88862,37.27496],[-91.88878,37.27499],[-91.88885,37.27501],[-91.88908,37.27504],[-91.88923,37.27506],[-91.88968,37.27511],[-91.8899,37.27512],[-91.89005,37.27513],[-91.89032,37.27516],[-91.89057,37.27518],[-91.8906,37.27518],[-91.8908,37.27519],[-91.8909,37.2752],[-91.89125,37.27523],[-91.89133,37.27524],[-91.89172,37.27527],[-91.89192,37.27529],[-91.89206,37.2753],[-91.89237,37.27532],[-91.89244,37.27533],[-91.89282,37.27536],[-91.89305,37.27538],[-91.89317,37.2754],[-91.89326,37.27541],[-91.89327,37.27541],[-91.89337,37.27543],[-91.89349,37.27545],[-91.8935,37.27545],[-91.89359,37.27547],[-91.89366,37.27549],[-91.89372,37.27551],[-91.89383,37.27555],[-91.8939,37.27558],[-91.89397,37.27561],[-91.89406,37.27565],[-91.89417,37.27571],[-91.89426,37.27577],[-91.89438,37.27586],[-91.89448,37.27594],[-91.89467,37.2761],[-91.89478,37.27621],[-91.89493,37.27634],[-91.89536,37.27676],[-91.89563,37.277],[-91.89578,37.27714],[-91.89593,37.27725],[-91.89611,37.27735],[-91.89617,37.27738],[-91.89628,37.27743],[-91.89644,37.2775],[-91.8966,37.27755],[-91.89673,37.27758],[-91.89692,37.27761],[-91.897,37.27762],[-91.89709,37.27763],[-91.89724,37.27763],[-91.89744,37.27764],[-91.89773,37.27764],[-91.89801,37.27765],[-91.89824,37.27765],[-91.89869,37.27766],[-91.89873,37.27767],[-91.89892,37.27767],[-91.8996,37.27768],[-91.90041,37.27769],[-91.90073,37.2777],[-91.90095,37.2777],[-91.90163,37.27771],[-91.90254,37.27772],[-91.90272,37.27772],[-91.90276,37.27772],[-91.90299,37.27773],[-91.90344,37.27773],[-91.90431,37.27775],[-91.90454,37.27775],[-91.90499,37.27776],[-91.9068,37.27778],[-91.90694,37.27779],[-91.90702,37.27779],[-91.90833,37.2778],[-91.90838,37.2778],[-91.90883,37.27781],[-91.90906,37.27781],[-91.90999,37.27782],[-91.91154,37.27783],[-91.91183,37.27783],[-91.9126,37.27784],[-91.91305,37.27785],[-91.91418,37.27788],[-91.91498,37.27789],[-91.91611,37.27792],[-91.91633,37.27792],[-91.91656,37.27793],[-91.91658,37.27793],[-91.91678,37.27794],[-91.919,37.27799],[-91.91927,37.278],[-91.91948,37.27801],[-91.91949,37.27801],[-91.91979,37.27803],[-91.91994,37.27806],[-91.92003,37.27807],[-91.92023,37.27812],[-91.92044,37.27819],[-91.92057,37.27825],[-91.92065,37.27829],[-91.92086,37.27841],[-91.92104,37.27856],[-91.9212,37.27874],[-91.92131,37.27888],[-91.92138,37.27901],[-91.92145,37.27915],[-91.92148,37.27925],[-91.92149,37.27928],[-91.92152,37.27943],[-91.92154,37.27958],[-91.92154,37.2797],[-91.92153,37.27997],[-91.92151,37.28033],[-91.92148,37.28123],[-91.92147,37.28169],[-91.92145,37.28229],[-91.92144,37.28247],[-91.92141,37.28379],[-91.9214,37.28391],[-91.92135,37.28534],[-91.92133,37.28588],[-91.92132,37.28616],[-91.92131,37.28668],[-91.92132,37.28689],[-91.92133,37.28696],[-91.92135,37.2871],[-91.92141,37.28733],[-91.92144,37.28743],[-91.92147,37.28752],[-91.92148,37.28753],[-91.92151,37.28759],[-91.92154,37.28766],[-91.92161,37.28777],[-91.92168,37.28788],[-91.92173,37.28795],[-91.92179,37.28803],[-91.9219,37.28815],[-91.92191,37.28816],[-91.92202,37.28827],[-91.92216,37.28838],[-91.92221,37.28841],[-91.92229,37.28847],[-91.92244,37.28857],[-91.92253,37.28862],[-91.92268,37.28869],[-91.92276,37.28873],[-91.92281,37.28875],[-91.92295,37.28881],[-91.92309,37.28886],[-91.92329,37.28891],[-91.92343,37.28894],[-91.9236,37.28898],[-91.92394,37.28901],[-91.92424,37.28903],[-91.92467,37.28904],[-91.92495,37.28905],[-91.92518,37.28906],[-91.9254,37.28906],[-91.92541,37.28906],[-91.92563,37.28907],[-91.92586,37.28908],[-91.92588,37.28908],[-91.92638,37.28909],[-91.92654,37.28909],[-91.92675,37.2891],[-91.92676,37.2891],[-91.92699,37.2891],[-91.92716,37.2891],[-91.92721,37.2891],[-91.92744,37.2891],[-91.9278,37.2891],[-91.92838,37.28909],[-91.92906,37.28909],[-91.92959,37.28908],[-91.92982,37.28908],[-91.93004,37.28908],[-91.93027,37.28908],[-91.93028,37.28908],[-91.93049,37.28908],[-91.93072,37.28907],[-91.93095,37.28907],[-91.93117,37.28907],[-91.93126,37.28907],[-91.9314,37.28907],[-91.93208,37.28907],[-91.93213,37.28907],[-91.93263,37.28908],[-91.93276,37.28908],[-91.93343,37.2891],[-91.93479,37.28912],[-91.93502,37.28913],[-91.93627,37.28915],[-91.93785,37.28919],[-91.93808,37.28919],[-91.93853,37.28921],[-91.93868,37.28921],[-91.93876,37.28921],[-91.93965,37.28923],[-91.94051,37.28924],[-91.94078,37.28924],[-91.941,37.28924],[-91.94198,37.28924],[-91.94222,37.28925],[-91.94252,37.28925],[-91.94274,37.28925],[-91.9432,37.28926],[-91.94342,37.28926],[-91.94387,37.28926],[-91.944,37.28926],[-91.94478,37.28927],[-91.94497,37.28927],[-91.94523,37.28928],[-91.94556,37.28928],[-91.94591,37.28928],[-91.94612,37.28929],[-91.94654,37.28929],[-91.94681,37.28931],[-91.94704,37.28933],[-91.94724,37.28936],[-91.94741,37.28939],[-91.94748,37.28941],[-91.94752,37.28942],[-91.94765,37.28946],[-91.94777,37.28951],[-91.94789,37.28956],[-91.94808,37.28966],[-91.94816,37.28971],[-91.94828,37.2898],[-91.9484,37.28991],[-91.94853,37.29004],[-91.94862,37.29015],[-91.94867,37.29022],[-91.94873,37.29032],[-91.94881,37.29047],[-91.94886,37.29059],[-91.94889,37.2907],[-91.94892,37.29083],[-91.94893,37.29098],[-91.94894,37.29113],[-91.94894,37.29115],[-91.94893,37.29167],[-91.94892,37.29205],[-91.94889,37.29277],[-91.94889,37.29295],[-91.94888,37.29313],[-91.94886,37.29367],[-91.94885,37.29402],[-91.94884,37.29439],[-91.94884,37.29457],[-91.94883,37.29475],[-91.94883,37.29493],[-91.94882,37.29529],[-91.94879,37.29619],[-91.94878,37.29655],[-91.94876,37.29729],[-91.94875,37.29783],[-91.94873,37.29819],[-91.94873,37.29837],[-91.94872,37.29863],[-91.94871,37.29891],[-91.94871,37.29909],[-91.9487,37.29929],[-91.94869,37.29978],[-91.94868,37.29998],[-91.94867,37.30012],[-91.94865,37.30034],[-91.94857,37.30128],[-91.94854,37.30162],[-91.94851,37.30197],[-91.94848,37.3024],[-91.94846,37.30287],[-91.94843,37.30341],[-91.94841,37.30383],[-91.9484,37.3042],[-91.94839,37.30438],[-91.94838,37.30456],[-91.94837,37.30492],[-91.94835,37.30564],[-91.94832,37.30636],[-91.94829,37.3073],[-91.94827,37.30768],[-91.94827,37.30786],[-91.94824,37.3084],[-91.94824,37.30846],[-91.94824,37.30858],[-91.94825,37.3087],[-91.94825,37.30876],[-91.94827,37.30892],[-91.94827,37.30893],[-91.94831,37.30913],[-91.94838,37.30936],[-91.94855,37.30982],[-91.9486,37.30998],[-91.94888,37.31073],[-91.949,37.31101],[-91.94912,37.31123],[-91.94926,37.31145],[-91.94939,37.31166],[-91.94955,37.31189],[-91.94962,37.31197],[-91.94971,37.31209],[-91.94974,37.31213],[-91.94989,37.31231],[-91.95014,37.31258],[-91.95051,37.31299],[-91.95136,37.31385],[-91.95185,37.31435],[-91.95224,37.31477],[-91.95269,37.31522],[-91.95288,37.31542],[-91.95302,37.31555],[-91.95303,37.31556],[-91.95319,37.31569],[-91.95334,37.31581],[-91.95336,37.31582],[-91.95355,37.31595],[-91.95375,37.31608],[-91.95401,37.31621],[-91.95424,37.31631],[-91.9545,37.3164],[-91.95477,37.31648],[-91.9548,37.31649],[-91.95506,37.31655],[-91.95536,37.3166],[-91.95559,37.31662],[-91.95579,37.31663],[-91.95626,37.31665],[-91.95681,37.31666],[-91.95724,37.31667],[-91.95724,37.31667],[-91.95801,37.3167],[-91.95813,37.3167],[-91.95849,37.31671],[-91.95896,37.31672],[-91.95896,37.31672],[-91.95913,37.31682],[-91.95917,37.31685],[-91.9592,37.31688],[-91.95929,37.31697],[-91.95915,37.31765],[-91.95901,37.3183],[-91.95895,37.31859],[-91.95893,37.3187],[-91.95886,37.31905],[-91.95881,37.31929],[-91.95881,37.31929],[-91.95877,37.31956],[-91.95919,37.31957],[-91.95939,37.31957],[-91.95958,37.31957],[-91.96037,37.31958],[-91.96059,37.31959],[-91.96068,37.31959],[-91.96136,37.3196],[-91.96175,37.3196],[-91.9625,37.31961],[-91.96273,37.31962],[-91.96295,37.31962],[-91.96334,37.31962],[-91.96335,37.31962],[-91.96402,37.31963],[-91.96447,37.31963],[-91.96503,37.31964],[-91.96555,37.31963],[-91.96628,37.31964],[-91.96628,37.31964],[-91.96627,37.32],[-91.96625,37.32037],[-91.96624,37.32058],[-91.96623,37.32148],[-91.96623,37.32237],[-91.96622,37.32268],[-91.96619,37.3234],[-91.96617,37.32376],[-91.96616,37.32403],[-91.96616,37.32451],[-91.96614,37.3248],[-91.96613,37.3249],[-91.96613,37.32498],[-91.96613,37.32516],[-91.96615,37.32606],[-91.96615,37.32606],[-91.96609,37.32606],[-91.96609,37.32606],[-91.96609,37.32641],[-91.96609,37.32657],[-91.96607,37.32677],[-91.96605,37.32749],[-91.96605,37.32749],[-91.96557,37.32748],[-91.96444,37.32747],[-91.96376,37.32746]]}}]}