{"type":"FeatureCollection","features":[{"type":"Feature","properties":{"_gpxType":"trk","name":"Houston Municipal Swimming Pool, North King Street, Houston, MO - North Park, Banning Street, Marshfield, MO - 1301 Banning St","coordinateProperties":{},"id":41},"geometry":{"type":"LineString","coordinates":[[-91.96376,37.32746],[-91.96379,37.32675],[-91.96383,37.32602],[-91.96383,37.32602],[-91.96497,37.32604],[-91.9651,37.32605],[-91.96609,37.32606],[-91.96615,37.32606],[-91.96615,37.32606],[-91.96613,37.32516],[-91.96613,37.32498],[-91.96613,37.3249],[-91.96614,37.3248],[-91.96616,37.32451],[-91.96616,37.32403],[-91.96617,37.32376],[-91.96619,37.3234],[-91.96622,37.32268],[-91.96623,37.32237],[-91.96623,37.32148],[-91.96624,37.32058],[-91.96625,37.32037],[-91.96627,37.32],[-91.96628,37.31964],[-91.96628,37.31964],[-91.96636,37.31964],[-91.96702,37.31965],[-91.96792,37.31967],[-91.96827,37.31967],[-91.96866,37.31968],[-91.96899,37.31968],[-91.96953,37.31969],[-91.97047,37.3197],[-91.97111,37.3197],[-91.97139,37.31971],[-91.97152,37.31971],[-91.97187,37.31971],[-91.9721,37.31972],[-91.97278,37.31973],[-91.97356,37.31973],[-91.97365,37.31973],[-91.97416,37.31973],[-91.97433,37.31972],[-91.97456,37.31972],[-91.97497,37.31971],[-91.97522,37.3197],[-91.97531,37.31969],[-91.9756,37.31967],[-91.97577,37.31966],[-91.97596,37.31965],[-91.97599,37.31964],[-91.97622,37.31962],[-91.97633,37.31962],[-91.97648,37.3196],[-91.97664,37.31959],[-91.97678,37.31957],[-91.97699,37.31954],[-91.977,37.31954],[-91.97721,37.31952],[-91.97767,37.31945],[-91.97774,37.31944],[-91.97778,37.31943],[-91.97789,37.31941],[-91.978,37.31939],[-91.97811,37.31937],[-91.97822,37.31935],[-91.97831,37.31934],[-91.97833,37.31933],[-91.97861,37.31929],[-91.97876,37.31926],[-91.97889,37.31924],[-91.9792,37.31918],[-91.97928,37.31917],[-91.97964,37.31911],[-91.97985,37.31907],[-91.97986,37.31907],[-91.98031,37.31899],[-91.98043,37.31897],[-91.98079,37.31891],[-91.98119,37.31884],[-91.98121,37.31884],[-91.98141,37.31881],[-91.98156,37.31878],[-91.98194,37.31872],[-91.98226,37.31866],[-91.9826,37.3186],[-91.98274,37.31858],[-91.98296,37.31854],[-91.98311,37.31852],[-91.98318,37.31851],[-91.9834,37.31847],[-91.98357,37.31844],[-91.98384,37.31839],[-91.98418,37.31834],[-91.98453,37.31828],[-91.98492,37.31821],[-91.98539,37.31813],[-91.98554,37.31811],[-91.98606,37.31802],[-91.98624,37.31799],[-91.9865,37.31794],[-91.98697,37.31787],[-91.9877,37.31775],[-91.98783,37.31773],[-91.98822,37.31766],[-91.9885,37.31763],[-91.98882,37.31759],[-91.98934,37.31755],[-91.98939,37.31755],[-91.98977,37.31754],[-91.98994,37.31754],[-91.9903,37.31754],[-91.99065,37.31756],[-91.99099,37.31759],[-91.99143,37.31763],[-91.99187,37.31771],[-91.99231,37.31778],[-91.99274,37.31785],[-91.99327,37.31795],[-91.99396,37.31807],[-91.9942,37.31812],[-91.99486,37.31824],[-91.99636,37.31851],[-91.99724,37.31867],[-91.99837,37.31887],[-91.99934,37.31905],[-91.99957,37.31909],[-91.99997,37.31915],[-92.00019,37.3192],[-92.00038,37.31923],[-92.00062,37.31927],[-92.00089,37.31934],[-92.00115,37.31941],[-92.0014,37.31949],[-92.00171,37.31962],[-92.002,37.31975],[-92.00231,37.31992],[-92.00251,37.32004],[-92.00272,37.32019],[-92.00292,37.32034],[-92.00318,37.32057],[-92.00332,37.32072],[-92.00345,37.32087],[-92.00347,37.32089],[-92.00362,37.32108],[-92.00372,37.32122],[-92.00382,37.32138],[-92.00388,37.3215],[-92.004,37.32171],[-92.0041,37.3219],[-92.00413,37.322],[-92.00416,37.32208],[-92.00425,37.32248],[-92.0043,37.3228],[-92.00431,37.32292],[-92.00432,37.32318],[-92.00431,37.32334],[-92.00431,37.32354],[-92.00429,37.32369],[-92.00426,37.32396],[-92.00419,37.32427],[-92.00415,37.3244],[-92.0041,37.32457],[-92.00397,37.32491],[-92.00381,37.32525],[-92.00363,37.3256],[-92.00349,37.3259],[-92.00337,37.32613],[-92.00332,37.32626],[-92.00321,37.32649],[-92.00309,37.32676],[-92.00289,37.32711],[-92.00276,37.32735],[-92.00267,37.32753],[-92.00258,37.32771],[-92.00243,37.32804],[-92.00231,37.32829],[-92.00223,37.32851],[-92.00217,37.32872],[-92.00216,37.32875],[-92.00213,37.32896],[-92.00212,37.32919],[-92.00212,37.32926],[-92.00212,37.32944],[-92.00216,37.32967],[-92.00221,37.32991],[-92.00229,37.33014],[-92.00239,37.33039],[-92.00249,37.33058],[-92.0026,37.33075],[-92.00273,37.33094],[-92.00282,37.33104],[-92.00351,37.33177],[-92.00377,37.33204],[-92.00395,37.33227],[-92.0042,37.3326],[-92.00432,37.33275],[-92.00436,37.3328],[-92.00478,37.33337],[-92.005,37.33366],[-92.0051,37.33381],[-92.00528,37.33406],[-92.0055,37.3343],[-92.0056,37.33441],[-92.00573,37.33456],[-92.00574,37.33456],[-92.0059,37.33473],[-92.00619,37.33498],[-92.00641,37.33515],[-92.00666,37.33534],[-92.00667,37.33535],[-92.00682,37.33547],[-92.00697,37.33557],[-92.00732,37.33587],[-92.00751,37.33603],[-92.00767,37.33619],[-92.00784,37.33637],[-92.00797,37.33654],[-92.00812,37.33674],[-92.0082,37.33688],[-92.00832,37.33709],[-92.00858,37.33759],[-92.00864,37.3377],[-92.00902,37.33841],[-92.00946,37.33923],[-92.00973,37.33973],[-92.01017,37.34056],[-92.01021,37.34064],[-92.0105,37.34117],[-92.01059,37.34134],[-92.01075,37.34163],[-92.01087,37.34183],[-92.01094,37.34194],[-92.0111,37.34216],[-92.01121,37.3423],[-92.01139,37.3425],[-92.0114,37.34251],[-92.01152,37.34263],[-92.01165,37.34275],[-92.01182,37.3429],[-92.01198,37.34302],[-92.01217,37.34316],[-92.01235,37.34328],[-92.01247,37.34336],[-92.01256,37.34342],[-92.01278,37.34354],[-92.01283,37.34356],[-92.01301,37.34364],[-92.01322,37.34374],[-92.01331,37.34378],[-92.01342,37.34382],[-92.01361,37.34389],[-92.01399,37.34402],[-92.01405,37.34403],[-92.01424,37.34409],[-92.01448,37.34414],[-92.01467,37.34418],[-92.01488,37.34421],[-92.01503,37.34423],[-92.01529,37.34425],[-92.01532,37.34425],[-92.01578,37.34428],[-92.01618,37.3443],[-92.01623,37.3443],[-92.01668,37.34432],[-92.01783,37.34436],[-92.01811,37.34436],[-92.01875,37.34437],[-92.02041,37.34438],[-92.02087,37.34438],[-92.02177,37.34439],[-92.02245,37.34439],[-92.02435,37.3444],[-92.02457,37.3444],[-92.02503,37.34441],[-92.02548,37.34441],[-92.0257,37.34441],[-92.02729,37.34442],[-92.02755,37.34442],[-92.02798,37.34442],[-92.02911,37.34443],[-92.03001,37.34443],[-92.0305,37.34443],[-92.03069,37.34443],[-92.03115,37.34443],[-92.03137,37.34444],[-92.03149,37.34444],[-92.03205,37.34444],[-92.03228,37.34444],[-92.03246,37.34445],[-92.0325,37.34445],[-92.03273,37.34445],[-92.03283,37.34445],[-92.03296,37.34446],[-92.03309,37.34446],[-92.03318,37.34447],[-92.03325,37.34447],[-92.03338,37.34448],[-92.03362,37.34451],[-92.03389,37.34455],[-92.03406,37.34458],[-92.03416,37.34459],[-92.03428,37.34462],[-92.0344,37.34465],[-92.0346,37.3447],[-92.03478,37.34475],[-92.03507,37.34484],[-92.03513,37.34486],[-92.03531,37.34492],[-92.03555,37.34501],[-92.03558,37.34502],[-92.03575,37.34508],[-92.03613,37.34523],[-92.03642,37.34534],[-92.03684,37.34549],[-92.03691,37.34552],[-92.03748,37.34574],[-92.03829,37.34605],[-92.0384,37.34609],[-92.03882,37.34625],[-92.03901,37.34632],[-92.03994,37.34668],[-92.04019,37.34679],[-92.04033,37.34685],[-92.04049,37.34694],[-92.04062,37.34701],[-92.04075,37.34709],[-92.04093,37.34722],[-92.04102,37.34729],[-92.04109,37.34734],[-92.04121,37.34744],[-92.0413,37.34753],[-92.04133,37.34757],[-92.0414,37.34764],[-92.04149,37.34773],[-92.04158,37.34784],[-92.04171,37.34802],[-92.04179,37.34813],[-92.04184,37.34822],[-92.04191,37.34834],[-92.04199,37.34852],[-92.04204,37.34863],[-92.04206,37.34871],[-92.04209,37.34879],[-92.04213,37.34893],[-92.04216,37.34904],[-92.04218,37.34914],[-92.04218,37.34916],[-92.04222,37.34932],[-92.04229,37.34969],[-92.04231,37.34978],[-92.0424,37.35026],[-92.04252,37.35089],[-92.04255,37.35103],[-92.04257,37.3511],[-92.0426,37.35119],[-92.04264,37.3513],[-92.04268,37.35142],[-92.04275,37.35154],[-92.04282,37.35165],[-92.04291,37.35178],[-92.04306,37.35195],[-92.04315,37.35203],[-92.04322,37.35209],[-92.0433,37.35215],[-92.04337,37.35221],[-92.04349,37.35228],[-92.04369,37.35239],[-92.04385,37.35247],[-92.04398,37.35252],[-92.04412,37.35257],[-92.04428,37.35261],[-92.04441,37.35264],[-92.04455,37.35266],[-92.04469,37.35268],[-92.04483,37.35269],[-92.04497,37.35269],[-92.04509,37.35269],[-92.04551,37.35265],[-92.04598,37.35261],[-92.04667,37.35255],[-92.04688,37.35253],[-92.04711,37.35251],[-92.04733,37.35249],[-92.0489,37.35233],[-92.04899,37.35232],[-92.04913,37.35231],[-92.04935,37.35229],[-92.0498,37.35225],[-92.05047,37.35218],[-92.0507,37.35216],[-92.05092,37.35214],[-92.05137,37.3521],[-92.05182,37.35206],[-92.05184,37.35206],[-92.05205,37.35204],[-92.05295,37.35195],[-92.05303,37.35194],[-92.05343,37.3519],[-92.05432,37.35181],[-92.05455,37.35179],[-92.05477,37.35177],[-92.05491,37.35176],[-92.05664,37.35158],[-92.05814,37.35144],[-92.05971,37.35129],[-92.06122,37.35116],[-92.06144,37.35114],[-92.06189,37.3511],[-92.06233,37.35106],[-92.06257,37.35104],[-92.06302,37.35101],[-92.0631,37.351],[-92.06354,37.351],[-92.06392,37.35102],[-92.06425,37.35104],[-92.06447,37.35106],[-92.06471,37.35108],[-92.06477,37.35109],[-92.06515,37.35114],[-92.06545,37.35119],[-92.0656,37.35121],[-92.06597,37.35127],[-92.06648,37.35137],[-92.06692,37.35146],[-92.06736,37.35154],[-92.06737,37.35154],[-92.06758,37.35158],[-92.06824,37.3517],[-92.06824,37.3517],[-92.06843,37.35145],[-92.06863,37.35117],[-92.06874,37.35101],[-92.06879,37.35093],[-92.06896,37.3507],[-92.06919,37.35039],[-92.06931,37.35023],[-92.06933,37.35021],[-92.06987,37.34945],[-92.06998,37.3493],[-92.06999,37.34929],[-92.07021,37.34899],[-92.07044,37.34868],[-92.07047,37.34863],[-92.07082,37.34815],[-92.07112,37.34774],[-92.07127,37.34755],[-92.07147,37.34728],[-92.07159,37.34713],[-92.0717,37.34699],[-92.07193,37.34674],[-92.07213,37.34655],[-92.07227,37.34641],[-92.07228,37.3464],[-92.07243,37.34627],[-92.07261,37.34613],[-92.07282,37.34597],[-92.073,37.34586],[-92.07319,37.34573],[-92.07335,37.34564],[-92.07346,37.34557],[-92.07353,37.34554],[-92.07373,37.34544],[-92.07377,37.34542],[-92.07422,37.34523],[-92.07432,37.34519],[-92.07453,37.34511],[-92.07454,37.3451],[-92.07474,37.34504],[-92.07503,37.34495],[-92.07537,37.34485],[-92.07543,37.34484],[-92.07559,37.34479],[-92.07591,37.34471],[-92.07625,37.34462],[-92.07651,37.34455],[-92.07679,37.34447],[-92.07701,37.34441],[-92.07814,37.34411],[-92.07936,37.34378],[-92.07958,37.34372],[-92.08001,37.3436],[-92.08011,37.34357],[-92.0803,37.34352],[-92.08139,37.34323],[-92.08143,37.34322],[-92.08161,37.34317],[-92.08182,37.34311],[-92.08204,37.34306],[-92.08225,37.343],[-92.08247,37.34295],[-92.08249,37.34294],[-92.0829,37.34283],[-92.08311,37.34277],[-92.08315,37.34276],[-92.08354,37.34266],[-92.08399,37.34254],[-92.08418,37.34249],[-92.0844,37.34243],[-92.08489,37.34229],[-92.08504,37.34225],[-92.08525,37.34218],[-92.08528,37.34217],[-92.08543,37.34212],[-92.08574,37.34201],[-92.08597,37.34192],[-92.08607,37.34188],[-92.08624,37.3418],[-92.08647,37.34171],[-92.08649,37.3417],[-92.0867,37.3416],[-92.08689,37.34151],[-92.08723,37.34132],[-92.08728,37.3413],[-92.08753,37.34116],[-92.08789,37.34093],[-92.08819,37.34073],[-92.08855,37.34046],[-92.08869,37.34035],[-92.08939,37.33981],[-92.08981,37.33946],[-92.09045,37.33896],[-92.09061,37.33883],[-92.09078,37.33869],[-92.09183,37.33787],[-92.09229,37.33752],[-92.09293,37.33701],[-92.09342,37.33663],[-92.09423,37.33599],[-92.0947,37.33562],[-92.09474,37.33559],[-92.09487,37.3355],[-92.09506,37.33535],[-92.09533,37.33516],[-92.09556,37.33503],[-92.09577,37.33491],[-92.09596,37.33482],[-92.09623,37.33471],[-92.09641,37.33464],[-92.09662,37.33457],[-92.09678,37.33452],[-92.09698,37.33447],[-92.09723,37.33442],[-92.09753,37.33436],[-92.09776,37.33434],[-92.09794,37.33432],[-92.09822,37.33431],[-92.09844,37.33431],[-92.09856,37.3343],[-92.09867,37.3343],[-92.09926,37.3343],[-92.09958,37.3343],[-92.10092,37.33431],[-92.1023,37.33432],[-92.10339,37.33433],[-92.10386,37.33433],[-92.10431,37.33433],[-92.10433,37.33433],[-92.1059,37.33435],[-92.10612,37.33434],[-92.1069,37.33435],[-92.10804,37.33436],[-92.10861,37.33436],[-92.10929,37.33437],[-92.10982,37.33437],[-92.11013,37.33437],[-92.1108,37.33438],[-92.11206,37.3344],[-92.11352,37.33441],[-92.1142,37.33441],[-92.1144,37.33441],[-92.11531,37.33441],[-92.11599,37.33441],[-92.11666,37.33437],[-92.11676,37.33436],[-92.11699,37.33433],[-92.11743,37.33428],[-92.1176,37.33426],[-92.1181,37.33419],[-92.11832,37.33415],[-92.1185,37.33413],[-92.11855,37.33412],[-92.11876,37.33407],[-92.11906,37.33401],[-92.11967,37.33387],[-92.12041,37.33368],[-92.12072,37.3336],[-92.12093,37.33353],[-92.12136,37.33341],[-92.12157,37.33335],[-92.12178,37.33329],[-92.12199,37.33322],[-92.12263,37.33304],[-92.12284,37.33298],[-92.12305,37.33291],[-92.12348,37.33279],[-92.12369,37.33273],[-92.12433,37.33255],[-92.12498,37.3324],[-92.12518,37.33235],[-92.12608,37.33217],[-92.12651,37.33208],[-92.12695,37.33198],[-92.12717,37.33194],[-92.12737,37.3319],[-92.12739,37.33189],[-92.12783,37.3318],[-92.12826,37.33171],[-92.12848,37.33166],[-92.12875,37.33161],[-92.12906,37.33153],[-92.13007,37.33134],[-92.13036,37.33129],[-92.13076,37.33123],[-92.13081,37.33122],[-92.13142,37.33114],[-92.13201,37.33109],[-92.1326,37.33104],[-92.13289,37.33102],[-92.13328,37.33101],[-92.13367,37.331],[-92.13373,37.331],[-92.13418,37.33099],[-92.13509,37.33097],[-92.13576,37.33096],[-92.13599,37.33096],[-92.13622,37.33095],[-92.13712,37.33094],[-92.13735,37.33093],[-92.13736,37.33093],[-92.13757,37.33093],[-92.1378,37.33092],[-92.13825,37.33092],[-92.13848,37.33091],[-92.13961,37.33089],[-92.14051,37.33087],[-92.14074,37.33087],[-92.14119,37.33086],[-92.14142,37.33085],[-92.14164,37.33085],[-92.14187,37.33084],[-92.1421,37.33084],[-92.14277,37.33083],[-92.14376,37.33081],[-92.14421,37.3308],[-92.14466,37.33079],[-92.14469,37.33079],[-92.14489,37.33078],[-92.14511,37.33078],[-92.14534,37.33077],[-92.14579,37.33076],[-92.14624,37.33075],[-92.14645,37.33075],[-92.1467,37.33074],[-92.14715,37.33073],[-92.14759,37.33073],[-92.1476,37.33073],[-92.148,37.33072],[-92.14828,37.33071],[-92.14855,37.33071],[-92.14873,37.3307],[-92.14879,37.33069],[-92.14903,37.33067],[-92.14927,37.33063],[-92.14943,37.3306],[-92.14956,37.33056],[-92.14974,37.33051],[-92.14984,37.33048],[-92.15001,37.33042],[-92.15003,37.33041],[-92.15019,37.33035],[-92.15023,37.33033],[-92.15035,37.33028],[-92.1505,37.33021],[-92.15062,37.33015],[-92.1508,37.33004],[-92.15083,37.33002],[-92.15098,37.32992],[-92.15112,37.32981],[-92.15114,37.3298],[-92.15127,37.32969],[-92.15129,37.32967],[-92.15141,37.32955],[-92.15166,37.32927],[-92.15185,37.32904],[-92.15212,37.32866],[-92.15219,37.32857],[-92.1523,37.32842],[-92.15242,37.32826],[-92.15253,37.32811],[-92.15256,37.32807],[-92.15265,37.32795],[-92.15276,37.3278],[-92.15288,37.32764],[-92.15296,37.32752],[-92.15333,37.32702],[-92.15356,37.32671],[-92.15367,37.32655],[-92.15378,37.3264],[-92.15435,37.32562],[-92.15446,37.32546],[-92.15482,37.32498],[-92.15515,37.32453],[-92.15521,37.32444],[-92.15554,37.32401],[-92.15562,37.32392],[-92.1557,37.32381],[-92.15585,37.32364],[-92.15587,37.32361],[-92.15596,37.32351],[-92.156,37.32347],[-92.15606,37.32341],[-92.15616,37.32331],[-92.15627,37.3232],[-92.15629,37.32319],[-92.15636,37.32313],[-92.15643,37.32307],[-92.15652,37.323],[-92.15659,37.32294],[-92.15677,37.32281],[-92.15679,37.32279],[-92.15695,37.32268],[-92.15711,37.32258],[-92.15724,37.32249],[-92.15729,37.32247],[-92.15746,37.32237],[-92.15775,37.32222],[-92.15794,37.32213],[-92.15812,37.32206],[-92.15831,37.32198],[-92.15845,37.32193],[-92.15854,37.3219],[-92.15876,37.32182],[-92.15902,37.32175],[-92.15916,37.3217],[-92.15934,37.32165],[-92.15937,37.32164],[-92.1598,37.32151],[-92.15999,37.32145],[-92.16043,37.32131],[-92.16057,37.32127],[-92.16085,37.32116],[-92.16104,37.32109],[-92.16126,37.321],[-92.1614,37.32093],[-92.16144,37.32091],[-92.16163,37.32081],[-92.16165,37.32081],[-92.16189,37.32068],[-92.16219,37.32051],[-92.16234,37.32042],[-92.16245,37.32035],[-92.16256,37.32027],[-92.16282,37.32008],[-92.16312,37.31985],[-92.16339,37.31962],[-92.16359,37.31942],[-92.16369,37.31933],[-92.16396,37.31903],[-92.16408,37.31889],[-92.1642,37.31874],[-92.16424,37.31869],[-92.16444,37.31838],[-92.16455,37.31822],[-92.16473,37.31788],[-92.16487,37.31758],[-92.16495,37.31738],[-92.16496,37.31736],[-92.16501,37.31721],[-92.16503,37.31713],[-92.16511,37.31691],[-92.16516,37.31672],[-92.1652,37.31655],[-92.16524,37.31636],[-92.16524,37.31633],[-92.16528,37.31606],[-92.16529,37.31597],[-92.16529,37.31591],[-92.16531,37.31551],[-92.16531,37.31523],[-92.16529,37.31507],[-92.16526,37.31478],[-92.16519,37.31432],[-92.16517,37.31418],[-92.16516,37.31414],[-92.16508,37.31365],[-92.16503,37.31338],[-92.16495,37.31286],[-92.16488,37.31245],[-92.16481,37.31204],[-92.1647,37.31144],[-92.1647,37.31143],[-92.16463,37.31098],[-92.16462,37.3109],[-92.16459,37.31072],[-92.16454,37.31045],[-92.16448,37.31001],[-92.1644,37.30956],[-92.16433,37.30921],[-92.16426,37.30883],[-92.16423,37.3087],[-92.16421,37.30855],[-92.1642,37.30852],[-92.16417,37.30834],[-92.16414,37.30816],[-92.16413,37.30807],[-92.16411,37.30798],[-92.16409,37.30781],[-92.16406,37.30763],[-92.16404,37.30747],[-92.16399,37.30711],[-92.16398,37.30709],[-92.16396,37.30691],[-92.16395,37.3068],[-92.16392,37.3065],[-92.1639,37.30637],[-92.16389,37.30625],[-92.16389,37.30619],[-92.16388,37.30602],[-92.16386,37.30564],[-92.16385,37.30548],[-92.16385,37.3053],[-92.16384,37.30525],[-92.16384,37.30512],[-92.16381,37.30422],[-92.1638,37.30358],[-92.16379,37.3035],[-92.16379,37.30314],[-92.16377,37.30285],[-92.16375,37.30233],[-92.16375,37.30229],[-92.16375,37.30215],[-92.16374,37.30197],[-92.16374,37.30179],[-92.16373,37.3017],[-92.16373,37.30161],[-92.16373,37.30146],[-92.16373,37.30143],[-92.16372,37.30125],[-92.16371,37.30078],[-92.16369,37.30017],[-92.16367,37.29963],[-92.16364,37.29915],[-92.16362,37.29865],[-92.16362,37.29853],[-92.16364,37.29846],[-92.16366,37.2984],[-92.16368,37.29836],[-92.16373,37.29831],[-92.16377,37.29828],[-92.1638,37.29826],[-92.16388,37.29823],[-92.16403,37.29821],[-92.16414,37.2982],[-92.16456,37.2982],[-92.16457,37.2982],[-92.16515,37.29821],[-92.16569,37.29821],[-92.16586,37.29822],[-92.16614,37.29822],[-92.16616,37.29822],[-92.16682,37.29822],[-92.16693,37.29822],[-92.16704,37.29822],[-92.1675,37.29822],[-92.16789,37.29822],[-92.16863,37.29822],[-92.16884,37.29822],[-92.16917,37.29823],[-92.16979,37.29823],[-92.16985,37.29823],[-92.17008,37.29823],[-92.17011,37.29823],[-92.17075,37.29824],[-92.17091,37.29824],[-92.17121,37.29824],[-92.17143,37.29824],[-92.17188,37.29824],[-92.17234,37.29825],[-92.17245,37.29825],[-92.17256,37.29825],[-92.17328,37.29825],[-92.17396,37.29825],[-92.17442,37.29825],[-92.17505,37.29826],[-92.17551,37.29826],[-92.17596,37.29826],[-92.17619,37.29826],[-92.17686,37.29826],[-92.17754,37.29827],[-92.17777,37.29827],[-92.1789,37.29827],[-92.17926,37.29827],[-92.17949,37.29828],[-92.18052,37.29828],[-92.18053,37.29828],[-92.18166,37.29829],[-92.18174,37.29829],[-92.18256,37.2983],[-92.18279,37.2983],[-92.18335,37.2983],[-92.18392,37.29831],[-92.18415,37.29831],[-92.1843,37.29831],[-92.18437,37.29831],[-92.18528,37.29832],[-92.18536,37.29832],[-92.1855,37.29832],[-92.18641,37.29833],[-92.18709,37.29834],[-92.18731,37.29834],[-92.18732,37.29834],[-92.18865,37.29836],[-92.18955,37.29836],[-92.18974,37.29837],[-92.18978,37.29837],[-92.19023,37.29837],[-92.19046,37.29838],[-92.19068,37.29838],[-92.19085,37.29838],[-92.19136,37.29839],[-92.19204,37.2984],[-92.19324,37.29841],[-92.19407,37.29842],[-92.19491,37.29842],[-92.19552,37.29843],[-92.19598,37.29843],[-92.19642,37.29843],[-92.19709,37.29844],[-92.19801,37.29844],[-92.19941,37.29844],[-92.20004,37.29844],[-92.20029,37.29844],[-92.20049,37.29844],[-92.20084,37.29844],[-92.2014,37.29844],[-92.20151,37.29844],[-92.20169,37.29844],[-92.202,37.29844],[-92.20208,37.29844],[-92.20246,37.29844],[-92.20314,37.29844],[-92.20325,37.29844],[-92.20359,37.29844],[-92.20404,37.29844],[-92.20427,37.29844],[-92.20449,37.29844],[-92.20506,37.29844],[-92.20679,37.29845],[-92.20698,37.29845],[-92.2074,37.29846],[-92.20777,37.29846],[-92.20789,37.29846],[-92.20829,37.29846],[-92.20859,37.29846],[-92.20874,37.29845],[-92.20889,37.29845],[-92.20897,37.29845],[-92.20919,37.29846],[-92.20941,37.29846],[-92.20957,37.29847],[-92.20968,37.29848],[-92.20981,37.29849],[-92.20997,37.29852],[-92.21009,37.29855],[-92.21017,37.29857],[-92.21028,37.2986],[-92.21041,37.29865],[-92.21051,37.2987],[-92.21058,37.29874],[-92.21063,37.29877],[-92.2107,37.29881],[-92.21078,37.29886],[-92.21091,37.29898],[-92.21104,37.2991],[-92.21115,37.29923],[-92.21123,37.29936],[-92.21129,37.29946],[-92.21135,37.2996],[-92.21138,37.29967],[-92.2114,37.29975],[-92.21142,37.29983],[-92.21143,37.29992],[-92.21144,37.30003],[-92.21145,37.30016],[-92.21144,37.30053],[-92.21144,37.30065],[-92.21144,37.30066],[-92.21143,37.30139],[-92.21143,37.30155],[-92.21143,37.30174],[-92.21143,37.30175],[-92.21142,37.30238],[-92.21142,37.30264],[-92.21142,37.30318],[-92.21141,37.30344],[-92.2114,37.30378],[-92.2114,37.30392],[-92.2114,37.304],[-92.21141,37.30421],[-92.21141,37.30433],[-92.21145,37.3045],[-92.21149,37.30463],[-92.21155,37.30477],[-92.21161,37.30489],[-92.21166,37.30497],[-92.21168,37.30499],[-92.21178,37.30511],[-92.21179,37.30512],[-92.21186,37.3052],[-92.21199,37.30531],[-92.21209,37.30539],[-92.21221,37.30546],[-92.21236,37.30554],[-92.21249,37.3056],[-92.21262,37.30565],[-92.21272,37.30568],[-92.21287,37.30571],[-92.21303,37.30575],[-92.21317,37.30576],[-92.21333,37.30578],[-92.21334,37.30578],[-92.21362,37.30578],[-92.21517,37.30579],[-92.21582,37.3058],[-92.21705,37.30581],[-92.21755,37.30581],[-92.21818,37.30582],[-92.21851,37.30582],[-92.21886,37.30582],[-92.21909,37.30582],[-92.21999,37.30583],[-92.22045,37.30583],[-92.22225,37.30585],[-92.22231,37.30585],[-92.22271,37.30585],[-92.22285,37.30585],[-92.22311,37.30586],[-92.22346,37.30587],[-92.22362,37.30588],[-92.22384,37.30589],[-92.22402,37.3059],[-92.22425,37.30592],[-92.22451,37.30596],[-92.22472,37.30599],[-92.2249,37.30603],[-92.22517,37.30609],[-92.22538,37.30615],[-92.22555,37.3062],[-92.2256,37.30621],[-92.22585,37.30629],[-92.22608,37.30637],[-92.22617,37.30641],[-92.22634,37.30648],[-92.22637,37.3065],[-92.22657,37.30658],[-92.22664,37.30662],[-92.22676,37.30668],[-92.22691,37.30676],[-92.22695,37.30678],[-92.22713,37.30688],[-92.2272,37.30692],[-92.22744,37.30708],[-92.22772,37.30729],[-92.22781,37.30736],[-92.22805,37.30755],[-92.22828,37.30775],[-92.22844,37.30788],[-92.22854,37.30797],[-92.22892,37.30829],[-92.22921,37.30853],[-92.22948,37.30876],[-92.23023,37.30941],[-92.23028,37.30946],[-92.23059,37.30971],[-92.23087,37.30995],[-92.23101,37.31007],[-92.23158,37.31055],[-92.2318,37.31074],[-92.23241,37.31127],[-92.23257,37.3114],[-92.23268,37.3115],[-92.23318,37.31192],[-92.23344,37.31214],[-92.23384,37.31247],[-92.2339,37.31252],[-92.23413,37.31268],[-92.23431,37.3128],[-92.23456,37.31296],[-92.23477,37.31309],[-92.23505,37.31325],[-92.23539,37.31343],[-92.23562,37.31355],[-92.23563,37.31355],[-92.23581,37.31364],[-92.23595,37.3137],[-92.23628,37.31384],[-92.23649,37.31393],[-92.23671,37.31402],[-92.23739,37.31431],[-92.23838,37.31474],[-92.23858,37.31482],[-92.23918,37.31508],[-92.23955,37.31522],[-92.23976,37.3153],[-92.24002,37.31539],[-92.2404,37.31549],[-92.24067,37.31554],[-92.24093,37.31558],[-92.24116,37.31561],[-92.24146,37.31563],[-92.24161,37.31564],[-92.24173,37.31564],[-92.242,37.31564],[-92.24206,37.31564],[-92.24223,37.31562],[-92.24245,37.3156],[-92.24277,37.31556],[-92.24295,37.31552],[-92.24312,37.31549],[-92.24317,37.31548],[-92.24349,37.3154],[-92.2436,37.31538],[-92.24404,37.31527],[-92.24438,37.31519],[-92.24447,37.31517],[-92.24469,37.31512],[-92.24488,37.31508],[-92.24512,37.31502],[-92.2453,37.31498],[-92.24591,37.31484],[-92.24624,37.31479],[-92.24639,37.31477],[-92.24644,37.31476],[-92.2465,37.31476],[-92.24664,37.31475],[-92.24678,37.31476],[-92.24689,37.31476],[-92.24702,37.31478],[-92.24711,37.3148],[-92.24757,37.31492],[-92.2477,37.31496],[-92.24778,37.31498],[-92.24885,37.31527],[-92.24907,37.31533],[-92.24908,37.31533],[-92.24993,37.31555],[-92.25031,37.31565],[-92.25094,37.31581],[-92.25122,37.31588],[-92.25127,37.31589],[-92.25144,37.31592],[-92.25176,37.31599],[-92.2521,37.31606],[-92.25253,37.31614],[-92.25254,37.31614],[-92.25298,37.31621],[-92.25307,37.31623],[-92.25343,37.31628],[-92.25346,37.31629],[-92.25368,37.31631],[-92.25404,37.31636],[-92.25462,37.31642],[-92.25485,37.31645],[-92.25507,37.31647],[-92.25682,37.31667],[-92.25753,37.31675],[-92.25776,37.31678],[-92.25798,37.3168],[-92.25823,37.31683],[-92.25865,37.31688],[-92.25933,37.31695],[-92.25955,37.31697],[-92.25964,37.31698],[-92.25977,37.31699],[-92.26,37.31701],[-92.26013,37.31703],[-92.26022,37.31703],[-92.26045,37.31705],[-92.26058,37.31705],[-92.26068,37.31706],[-92.26106,37.31707],[-92.26135,37.31708],[-92.26153,37.31708],[-92.26158,37.31708],[-92.26203,37.31708],[-92.26226,37.31708],[-92.26248,37.31708],[-92.26259,37.31708],[-92.26294,37.31709],[-92.26299,37.3171],[-92.26314,37.31711],[-92.26316,37.31711],[-92.26335,37.31713],[-92.26339,37.31713],[-92.26352,37.31715],[-92.26361,37.31716],[-92.26379,37.31718],[-92.26407,37.31724],[-92.26441,37.31732],[-92.26448,37.31734],[-92.2647,37.3174],[-92.26473,37.3174],[-92.26491,37.31746],[-92.26504,37.3175],[-92.26512,37.31753],[-92.26522,37.31757],[-92.26535,37.31762],[-92.26553,37.3177],[-92.26572,37.31778],[-92.26591,37.31786],[-92.26611,37.31797],[-92.26629,37.31806],[-92.26661,37.31824],[-92.26699,37.31844],[-92.26704,37.31847],[-92.26723,37.31857],[-92.26747,37.3187],[-92.26783,37.31887],[-92.26821,37.31904],[-92.26859,37.31916],[-92.26909,37.31928],[-92.26927,37.31931],[-92.26941,37.31933],[-92.2695,37.31934],[-92.26972,37.31936],[-92.27017,37.31938],[-92.2706,37.31937],[-92.2707,37.31936],[-92.27086,37.31935],[-92.27107,37.31933],[-92.2716,37.31927],[-92.27279,37.31913],[-92.27294,37.31911],[-92.27428,37.31894],[-92.27493,37.31886],[-92.27588,37.31874],[-92.27602,37.31873],[-92.27644,37.31867],[-92.27667,37.31864],[-92.27745,37.31855],[-92.27756,37.31853],[-92.27778,37.31851],[-92.2789,37.31837],[-92.28003,37.31823],[-92.28026,37.3182],[-92.28097,37.31811],[-92.28115,37.31809],[-92.28137,37.31806],[-92.28151,37.31804],[-92.28178,37.318],[-92.28195,37.31797],[-92.28209,37.31795],[-92.28226,37.31791],[-92.28248,37.31786],[-92.28274,37.31779],[-92.28291,37.31775],[-92.28314,37.31768],[-92.28353,37.31756],[-92.28374,37.31749],[-92.28382,37.31746],[-92.28394,37.31741],[-92.28408,37.31736],[-92.28435,37.31725],[-92.28453,37.31717],[-92.28469,37.3171],[-92.28493,37.31698],[-92.28507,37.31691],[-92.28531,37.3168],[-92.2857,37.31659],[-92.28587,37.3165],[-92.28607,37.31639],[-92.28626,37.31629],[-92.2863,37.31627],[-92.28645,37.31619],[-92.28664,37.31609],[-92.28682,37.31599],[-92.28701,37.31589],[-92.2872,37.31579],[-92.28739,37.31569],[-92.28754,37.31561],[-92.28758,37.31559],[-92.28776,37.31549],[-92.28795,37.31539],[-92.288,37.31537],[-92.28814,37.3153],[-92.28833,37.3152],[-92.28852,37.3151],[-92.28871,37.315],[-92.28873,37.31498],[-92.28889,37.3149],[-92.28908,37.3148],[-92.28927,37.3147],[-92.28968,37.31448],[-92.29,37.31432],[-92.29024,37.31419],[-92.29043,37.31409],[-92.29052,37.31404],[-92.29062,37.31398],[-92.29081,37.31388],[-92.29088,37.31384],[-92.29099,37.31378],[-92.29118,37.31368],[-92.29136,37.31358],[-92.29137,37.31357],[-92.29155,37.31347],[-92.29165,37.31342],[-92.29184,37.31331],[-92.29213,37.31314],[-92.29228,37.31305],[-92.29245,37.31295],[-92.29246,37.31294],[-92.29264,37.31283],[-92.29275,37.31276],[-92.29281,37.31271],[-92.29299,37.3126],[-92.29325,37.31243],[-92.29334,37.31237],[-92.29341,37.31232],[-92.2935,37.31225],[-92.29361,37.31218],[-92.29382,37.31202],[-92.294,37.31188],[-92.29414,37.31177],[-92.29416,37.31175],[-92.29432,37.31163],[-92.29448,37.3115],[-92.29462,37.31139],[-92.29464,37.31138],[-92.29497,37.31112],[-92.29513,37.311],[-92.29529,37.31087],[-92.29531,37.31085],[-92.29545,37.31075],[-92.29573,37.31053],[-92.29604,37.31029],[-92.29626,37.31012],[-92.29627,37.31012],[-92.29643,37.31],[-92.2966,37.30988],[-92.29666,37.30984],[-92.29688,37.30971],[-92.29696,37.30966],[-92.29714,37.30956],[-92.29715,37.30955],[-92.29743,37.3094],[-92.29766,37.30928],[-92.2979,37.30917],[-92.29805,37.30909],[-92.29809,37.30907],[-92.29829,37.30898],[-92.29848,37.30889],[-92.29918,37.30856],[-92.29926,37.30852],[-92.29946,37.30843],[-92.29965,37.30834],[-92.30082,37.30779],[-92.30102,37.3077],[-92.30179,37.30734],[-92.30274,37.30689],[-92.30306,37.30673],[-92.30332,37.30661],[-92.30345,37.30655],[-92.30361,37.30647],[-92.30384,37.30634],[-92.3041,37.30618],[-92.30424,37.30609],[-92.30432,37.30604],[-92.30442,37.30598],[-92.30447,37.30593],[-92.30458,37.30586],[-92.3047,37.30577],[-92.30475,37.30573],[-92.30492,37.30561],[-92.30493,37.3056],[-92.30508,37.30549],[-92.30521,37.30539],[-92.30524,37.30536],[-92.30541,37.30524],[-92.30549,37.30518],[-92.30557,37.30512],[-92.30577,37.30496],[-92.3059,37.30487],[-92.30606,37.30474],[-92.30607,37.30474],[-92.30623,37.30462],[-92.30663,37.30432],[-92.30696,37.30407],[-92.30712,37.30394],[-92.30728,37.30382],[-92.30766,37.30353],[-92.30843,37.30295],[-92.30859,37.30282],[-92.30875,37.3027],[-92.30881,37.30266],[-92.30908,37.30245],[-92.30924,37.30233],[-92.30974,37.30196],[-92.31006,37.30171],[-92.31023,37.30158],[-92.31029,37.30154],[-92.31053,37.30136],[-92.31056,37.30134],[-92.31071,37.30123],[-92.31078,37.30118],[-92.31088,37.30112],[-92.3109,37.30111],[-92.31105,37.30103],[-92.31109,37.30101],[-92.31124,37.30094],[-92.31142,37.30086],[-92.31149,37.30084],[-92.31161,37.30079],[-92.31169,37.30076],[-92.31172,37.30075],[-92.31188,37.3007],[-92.31207,37.30065],[-92.31226,37.30059],[-92.31248,37.30053],[-92.31271,37.30047],[-92.31301,37.3004],[-92.31335,37.30031],[-92.31437,37.30005],[-92.31439,37.30004],[-92.3148,37.29993],[-92.31522,37.29982],[-92.31544,37.29976],[-92.31565,37.2997],[-92.31587,37.29964],[-92.31592,37.29963],[-92.31608,37.29959],[-92.31694,37.29936],[-92.31716,37.29931],[-92.3178,37.29914],[-92.31848,37.29896],[-92.31859,37.29893],[-92.319,37.29882],[-92.31988,37.29859],[-92.32037,37.29846],[-92.32094,37.29831],[-92.32107,37.29828],[-92.32142,37.29819],[-92.32144,37.29818],[-92.32186,37.29807],[-92.32187,37.29807],[-92.3224,37.29793],[-92.32283,37.29781],[-92.32305,37.29775],[-92.32338,37.29767],[-92.3236,37.29762],[-92.32372,37.29759],[-92.32381,37.29757],[-92.32392,37.29754],[-92.32403,37.29752],[-92.32419,37.29749],[-92.32425,37.29748],[-92.32445,37.29744],[-92.32471,37.29741],[-92.32492,37.29739],[-92.325,37.29738],[-92.32517,37.29737],[-92.32538,37.29735],[-92.32542,37.29735],[-92.32559,37.29735],[-92.32564,37.29735],[-92.32581,37.29735],[-92.32602,37.29736],[-92.32626,37.29738],[-92.32632,37.29738],[-92.3265,37.2974],[-92.32677,37.29743],[-92.32688,37.29744],[-92.3271,37.29747],[-92.32721,37.29749],[-92.32735,37.29751],[-92.32744,37.29752],[-92.32759,37.29754],[-92.32785,37.29758],[-92.32788,37.29759],[-92.32832,37.29766],[-92.32863,37.2977],[-92.32908,37.29777],[-92.32952,37.29784],[-92.32974,37.29787],[-92.33019,37.29794],[-92.33023,37.29795],[-92.33057,37.298],[-92.33063,37.29801],[-92.33076,37.29803],[-92.33093,37.29807],[-92.33109,37.2981],[-92.33124,37.29814],[-92.33128,37.29816],[-92.3314,37.29819],[-92.33154,37.29824],[-92.33169,37.29831],[-92.33177,37.29835],[-92.33183,37.29838],[-92.33193,37.29843],[-92.33217,37.29858],[-92.33238,37.29873],[-92.33257,37.29889],[-92.33266,37.29898],[-92.33273,37.29904],[-92.33285,37.29917],[-92.33294,37.29927],[-92.33316,37.29953],[-92.33323,37.2996],[-92.33326,37.29964],[-92.33337,37.29976],[-92.3335,37.2999],[-92.33363,37.30003],[-92.33381,37.30021],[-92.33396,37.30034],[-92.33408,37.30044],[-92.33409,37.30044],[-92.33418,37.30052],[-92.33424,37.30057],[-92.33431,37.30062],[-92.33441,37.30069],[-92.33443,37.3007],[-92.33453,37.30077],[-92.33459,37.3008],[-92.33468,37.30086],[-92.33486,37.30097],[-92.33495,37.30102],[-92.33505,37.30107],[-92.33514,37.30112],[-92.33518,37.30114],[-92.33548,37.30129],[-92.33552,37.30131],[-92.33585,37.30145],[-92.33588,37.30146],[-92.33608,37.30154],[-92.33609,37.30154],[-92.33629,37.30162],[-92.33641,37.30167],[-92.33664,37.30176],[-92.33676,37.3018],[-92.3369,37.30185],[-92.33693,37.30186],[-92.3371,37.30193],[-92.33712,37.30194],[-92.33729,37.30201],[-92.33751,37.30209],[-92.33769,37.30216],[-92.33788,37.30223],[-92.33792,37.30225],[-92.3381,37.30232],[-92.33832,37.3024],[-92.33851,37.30247],[-92.33888,37.30261],[-92.33903,37.30266],[-92.33915,37.30271],[-92.33929,37.30276],[-92.33949,37.30284],[-92.33955,37.30286],[-92.33972,37.30293],[-92.33975,37.30294],[-92.33996,37.30302],[-92.34009,37.30307],[-92.34034,37.30316],[-92.34037,37.30317],[-92.3407,37.30328],[-92.34078,37.30331],[-92.341,37.30338],[-92.3412,37.30345],[-92.34124,37.30346],[-92.34134,37.30349],[-92.34166,37.30358],[-92.34181,37.30361],[-92.34184,37.30363],[-92.3419,37.30364],[-92.34206,37.30368],[-92.34208,37.30368],[-92.34228,37.30371],[-92.34241,37.30373],[-92.34261,37.30376],[-92.34293,37.30377],[-92.34318,37.30377],[-92.34323,37.30377],[-92.34356,37.30376],[-92.34363,37.30375],[-92.3439,37.30373],[-92.34417,37.30371],[-92.34455,37.30367],[-92.34469,37.30366],[-92.34508,37.30361],[-92.34518,37.30359],[-92.34537,37.30357],[-92.34572,37.30352],[-92.34601,37.30349],[-92.3462,37.30348],[-92.34642,37.30348],[-92.34652,37.30349],[-92.34669,37.30351],[-92.34674,37.30352],[-92.34697,37.30355],[-92.34698,37.30355],[-92.34719,37.30359],[-92.34741,37.30363],[-92.34807,37.30376],[-92.34861,37.30386],[-92.34862,37.30386],[-92.34883,37.30389],[-92.34893,37.3039],[-92.34916,37.30393],[-92.34928,37.30393],[-92.34945,37.30394],[-92.34951,37.30394],[-92.34971,37.30394],[-92.34973,37.30394],[-92.34996,37.30392],[-92.35003,37.30392],[-92.35018,37.3039],[-92.35032,37.30388],[-92.35041,37.30387],[-92.35071,37.30382],[-92.35099,37.30375],[-92.35137,37.30366],[-92.35149,37.30363],[-92.35171,37.30359],[-92.35171,37.30358],[-92.35205,37.30352],[-92.35238,37.30347],[-92.35256,37.30346],[-92.35273,37.30345],[-92.35286,37.30345],[-92.35307,37.30345],[-92.35324,37.30346],[-92.35329,37.30346],[-92.35358,37.30349],[-92.35391,37.30354],[-92.35448,37.30362],[-92.35458,37.30363],[-92.35484,37.30367],[-92.35503,37.30369],[-92.35525,37.30373],[-92.35569,37.30379],[-92.3557,37.30379],[-92.35603,37.30386],[-92.35626,37.30392],[-92.35652,37.30399],[-92.35705,37.30413],[-92.35742,37.30424],[-92.35776,37.30433],[-92.3586,37.30457],[-92.35885,37.30464],[-92.35905,37.30468],[-92.35922,37.30471],[-92.35944,37.30473],[-92.35959,37.30474],[-92.35974,37.30473],[-92.35989,37.30472],[-92.36002,37.3047],[-92.36021,37.30465],[-92.36028,37.30463],[-92.36033,37.30462],[-92.36046,37.30457],[-92.36053,37.30453],[-92.36062,37.30449],[-92.36073,37.30443],[-92.36087,37.30433],[-92.36105,37.30419],[-92.3612,37.30406],[-92.36155,37.30373],[-92.36165,37.30363],[-92.3618,37.3035],[-92.3622,37.30314],[-92.36236,37.30299],[-92.36261,37.30277],[-92.36275,37.30266],[-92.36276,37.30265],[-92.36293,37.30255],[-92.36308,37.30245],[-92.36311,37.30244],[-92.3633,37.30235],[-92.36348,37.30228],[-92.36369,37.30221],[-92.36391,37.30215],[-92.36393,37.30214],[-92.36467,37.30195],[-92.36479,37.30192],[-92.365,37.30186],[-92.36542,37.30175],[-92.36544,37.30175],[-92.36592,37.30163],[-92.36619,37.30158],[-92.3664,37.30154],[-92.36654,37.30151],[-92.3667,37.30149],[-92.3669,37.30146],[-92.36718,37.30142],[-92.36721,37.30142],[-92.36741,37.3014],[-92.36766,37.30139],[-92.36789,37.30138],[-92.36803,37.30137],[-92.36867,37.30136],[-92.36947,37.30134],[-92.36951,37.30134],[-92.3697,37.30133],[-92.36992,37.30132],[-92.37012,37.30132],[-92.37015,37.30132],[-92.37037,37.30131],[-92.3706,37.3013],[-92.37083,37.30129],[-92.37087,37.30129],[-92.37105,37.30129],[-92.37128,37.30128],[-92.3715,37.30127],[-92.37178,37.30126],[-92.37196,37.30126],[-92.37246,37.30124],[-92.37286,37.30123],[-92.37305,37.30123],[-92.37309,37.30123],[-92.37331,37.30122],[-92.37376,37.3012],[-92.37387,37.30119],[-92.37399,37.30119],[-92.37421,37.30118],[-92.37435,37.30117],[-92.37444,37.30116],[-92.37468,37.30114],[-92.37495,37.30111],[-92.37539,37.30106],[-92.37566,37.30103],[-92.3758,37.30101],[-92.37593,37.30099],[-92.37621,37.30094],[-92.37637,37.30092],[-92.37646,37.3009],[-92.3766,37.30088],[-92.37682,37.30084],[-92.37694,37.30082],[-92.37704,37.3008],[-92.37732,37.30075],[-92.37751,37.30071],[-92.37777,37.30065],[-92.3781,37.30059],[-92.37813,37.30058],[-92.37835,37.30054],[-92.37836,37.30054],[-92.37879,37.30045],[-92.37901,37.3004],[-92.37907,37.30039],[-92.37926,37.30035],[-92.37963,37.30029],[-92.37967,37.30028],[-92.3798,37.30026],[-92.37989,37.30024],[-92.37997,37.30023],[-92.38034,37.30017],[-92.38037,37.30017],[-92.38056,37.30014],[-92.38057,37.30014],[-92.38072,37.30012],[-92.38128,37.30005],[-92.38156,37.30003],[-92.38206,37.29998],[-92.38246,37.29995],[-92.38249,37.29995],[-92.38286,37.29993],[-92.38291,37.29993],[-92.38314,37.29992],[-92.38325,37.29992],[-92.38336,37.29992],[-92.3836,37.29992],[-92.38427,37.29992],[-92.3843,37.29992],[-92.38472,37.29993],[-92.38488,37.29993],[-92.38517,37.29993],[-92.3859,37.29994],[-92.3863,37.29995],[-92.38653,37.29995],[-92.38658,37.29995],[-92.38687,37.29995],[-92.38723,37.29996],[-92.38766,37.29997],[-92.38789,37.29997],[-92.38825,37.29998],[-92.38834,37.29998],[-92.3887,37.29999],[-92.38902,37.29999],[-92.38913,37.29999],[-92.38947,37.3],[-92.38964,37.3],[-92.38969,37.30001],[-92.38993,37.30001],[-92.3903,37.30002],[-92.39053,37.30002],[-92.39073,37.30001],[-92.39096,37.30001],[-92.39118,37.29999],[-92.39132,37.29999],[-92.39146,37.29997],[-92.3915,37.29997],[-92.39161,37.29996],[-92.39175,37.29994],[-92.39193,37.29992],[-92.39217,37.29989],[-92.39221,37.29988],[-92.39243,37.29984],[-92.39261,37.29981],[-92.39282,37.29977],[-92.39304,37.29972],[-92.39305,37.29972],[-92.39327,37.29967],[-92.3934,37.29964],[-92.39348,37.29962],[-92.39357,37.29959],[-92.39373,37.29955],[-92.39391,37.2995],[-92.39418,37.29941],[-92.39433,37.29936],[-92.39438,37.29934],[-92.39465,37.29924],[-92.39494,37.29913],[-92.39524,37.29901],[-92.39535,37.29897],[-92.39591,37.29875],[-92.39641,37.29855],[-92.39666,37.29845],[-92.397,37.29832],[-92.39723,37.29822],[-92.3975,37.29811],[-92.39857,37.29768],[-92.39885,37.29757],[-92.39935,37.29737],[-92.39955,37.29729],[-92.3996,37.29727],[-92.40059,37.29688],[-92.40091,37.29675],[-92.40145,37.29654],[-92.40181,37.29639],[-92.40217,37.29625],[-92.40246,37.29614],[-92.40274,37.29602],[-92.4029,37.29595],[-92.40307,37.29587],[-92.40322,37.2958],[-92.40336,37.29573],[-92.40351,37.29565],[-92.40373,37.29554],[-92.40394,37.29542],[-92.40422,37.29526],[-92.40472,37.29496],[-92.40533,37.2946],[-92.40595,37.29425],[-92.40635,37.29401],[-92.40671,37.2938],[-92.40701,37.29363],[-92.40749,37.29335],[-92.40829,37.29289],[-92.40831,37.29287],[-92.40847,37.29278],[-92.40865,37.29267],[-92.40919,37.29236],[-92.4093,37.29229],[-92.40947,37.29219],[-92.40959,37.29211],[-92.40964,37.29207],[-92.40977,37.29198],[-92.40988,37.29189],[-92.40996,37.29182],[-92.41005,37.29175],[-92.41015,37.29166],[-92.41033,37.29147],[-92.41048,37.29131],[-92.41061,37.29115],[-92.41071,37.291],[-92.41079,37.2909],[-92.41087,37.29076],[-92.41098,37.29055],[-92.41104,37.29042],[-92.4111,37.29026],[-92.41116,37.29009],[-92.41119,37.28999],[-92.41123,37.28984],[-92.41127,37.28966],[-92.41129,37.28949],[-92.41129,37.28945],[-92.41131,37.28924],[-92.41132,37.28898],[-92.41132,37.28892],[-92.41132,37.28874],[-92.41133,37.2881],[-92.41133,37.28748],[-92.41134,37.28694],[-92.41135,37.28622],[-92.41135,37.28586],[-92.41135,37.2855],[-92.41136,37.28488],[-92.41137,37.28402],[-92.41138,37.28352],[-92.41138,37.28308],[-92.41139,37.28258],[-92.4114,37.28191],[-92.4114,37.28168],[-92.4114,37.2815],[-92.41141,37.28096],[-92.41143,37.28062],[-92.41144,37.28042],[-92.41144,37.28026],[-92.41144,37.28024],[-92.41146,37.28001],[-92.41147,37.27989],[-92.41149,37.27966],[-92.41152,37.27942],[-92.41161,37.27874],[-92.41168,37.27835],[-92.41172,37.27808],[-92.41177,37.27773],[-92.41184,37.27736],[-92.41191,37.27696],[-92.41192,37.27685],[-92.41196,37.27654],[-92.41202,37.27621],[-92.41205,37.27603],[-92.41208,37.27587],[-92.41209,37.27578],[-92.41211,37.2757],[-92.41215,37.27556],[-92.41219,37.27544],[-92.41223,37.27533],[-92.41231,37.27513],[-92.41238,37.275],[-92.41249,37.2748],[-92.41264,37.27458],[-92.41275,37.27443],[-92.41292,37.27424],[-92.41314,37.27403],[-92.41328,37.27391],[-92.41347,37.27377],[-92.41349,37.27375],[-92.41362,37.27367],[-92.41366,37.27364],[-92.41386,37.27352],[-92.41413,37.27337],[-92.41422,37.27333],[-92.41431,37.27329],[-92.41453,37.2732],[-92.41462,37.27317],[-92.41476,37.27312],[-92.41483,37.2731],[-92.41503,37.27304],[-92.41504,37.27304],[-92.41523,37.27299],[-92.41545,37.27295],[-92.41565,37.27291],[-92.41623,37.27283],[-92.417,37.27271],[-92.4177,37.2726],[-92.41795,37.27257],[-92.41809,37.27255],[-92.41828,37.27253],[-92.41856,37.2725],[-92.41864,37.2725],[-92.41886,37.27249],[-92.41896,37.27249],[-92.41909,37.27249],[-92.41916,37.27248],[-92.41945,37.27248],[-92.41986,37.27249],[-92.41999,37.27249],[-92.42007,37.27249],[-92.42021,37.2725],[-92.42044,37.27252],[-92.42073,37.27253],[-92.4209,37.27254],[-92.42092,37.27254],[-92.42157,37.27258],[-92.42223,37.27263],[-92.42225,37.27263],[-92.42234,37.27263],[-92.42292,37.27267],[-92.4236,37.27271],[-92.42382,37.27272],[-92.424,37.27274],[-92.42428,37.27275],[-92.42473,37.27278],[-92.42524,37.27281],[-92.42559,37.27283],[-92.42609,37.27286],[-92.42624,37.27287],[-92.42637,37.27288],[-92.42654,37.27289],[-92.4266,37.2729],[-92.42672,37.2729],[-92.42709,37.27293],[-92.42727,37.27294],[-92.42738,37.27294],[-92.42772,37.27296],[-92.42796,37.27298],[-92.42817,37.27299],[-92.4284,37.273],[-92.42906,37.27305],[-92.42935,37.27307],[-92.42961,37.27309],[-92.42986,37.27312],[-92.42996,37.27313],[-92.43001,37.27313],[-92.43018,37.27316],[-92.43041,37.27319],[-92.43073,37.27324],[-92.43103,37.27329],[-92.43117,37.27332],[-92.43132,37.27335],[-92.43146,37.27338],[-92.43167,37.27343],[-92.43199,37.27351],[-92.43213,37.27355],[-92.43234,37.27361],[-92.43235,37.27361],[-92.43256,37.27367],[-92.4326,37.27368],[-92.43294,37.27378],[-92.43298,37.2738],[-92.4332,37.27386],[-92.43336,37.27391],[-92.43383,37.27405],[-92.43425,37.27419],[-92.43484,37.27437],[-92.43548,37.27456],[-92.43552,37.27457],[-92.4357,37.27462],[-92.4359,37.27467],[-92.43616,37.27474],[-92.43642,37.27479],[-92.43674,37.27486],[-92.43702,37.2749],[-92.43721,37.27494],[-92.43739,37.27496],[-92.43763,37.27499],[-92.43789,37.27501],[-92.43807,37.27503],[-92.43828,37.27504],[-92.43834,37.27505],[-92.43845,37.27505],[-92.43856,37.27505],[-92.43866,37.27506],[-92.43879,37.27506],[-92.43909,37.27506],[-92.43948,37.27506],[-92.43976,37.27505],[-92.43992,37.27504],[-92.4401,37.27503],[-92.44031,37.27502],[-92.44051,37.275],[-92.44059,37.27499],[-92.44068,37.27498],[-92.4409,37.27495],[-92.44104,37.27494],[-92.44121,37.27491],[-92.44126,37.27491],[-92.44147,37.27487],[-92.44149,37.27487],[-92.44168,37.27483],[-92.44171,37.27483],[-92.44182,37.27481],[-92.44212,37.27474],[-92.44214,37.27474],[-92.44229,37.2747],[-92.44236,37.27469],[-92.44242,37.27467],[-92.44263,37.27462],[-92.44295,37.27453],[-92.44334,37.2744],[-92.44342,37.27438],[-92.44363,37.2743],[-92.44364,37.2743],[-92.44402,37.27416],[-92.44404,37.27415],[-92.44445,37.27398],[-92.44472,37.27386],[-92.44484,37.2738],[-92.44503,37.2737],[-92.44506,37.27369],[-92.44578,37.27331],[-92.4461,37.27312],[-92.44629,37.27302],[-92.44666,37.27281],[-92.44684,37.2727],[-92.44703,37.2726],[-92.44721,37.2725],[-92.4474,37.2724],[-92.44759,37.27229],[-92.44815,37.27199],[-92.44834,37.27189],[-92.44852,37.27179],[-92.44871,37.27168],[-92.44908,37.27147],[-92.44919,37.2714],[-92.44926,37.27137],[-92.44984,37.27106],[-92.45004,37.27094],[-92.45081,37.27051],[-92.45118,37.27031],[-92.45189,37.26991],[-92.45229,37.26968],[-92.45261,37.2695],[-92.45285,37.26937],[-92.45335,37.2691],[-92.45359,37.26896],[-92.45377,37.26885],[-92.45395,37.26875],[-92.45406,37.26868],[-92.45413,37.26864],[-92.4543,37.26852],[-92.45432,37.2685],[-92.45471,37.2682],[-92.45513,37.26788],[-92.45516,37.26785],[-92.45548,37.2676],[-92.45556,37.26753],[-92.45564,37.26748],[-92.45615,37.26712],[-92.45663,37.26674],[-92.4568,37.2666],[-92.45695,37.26649],[-92.45712,37.26637],[-92.45748,37.26612],[-92.45765,37.26603],[-92.45812,37.26578],[-92.45821,37.26573],[-92.45839,37.26562],[-92.45886,37.26536],[-92.45909,37.26525],[-92.45966,37.26496],[-92.46024,37.26465],[-92.46119,37.26417],[-92.46175,37.26386],[-92.46232,37.26358],[-92.46246,37.26351],[-92.46289,37.26328],[-92.46318,37.26313],[-92.4634,37.263],[-92.46344,37.26297],[-92.46359,37.26288],[-92.46362,37.26286],[-92.46374,37.26278],[-92.46391,37.26266],[-92.46396,37.26262],[-92.46411,37.26251],[-92.46413,37.2625],[-92.46427,37.26238],[-92.46443,37.26226],[-92.4646,37.26211],[-92.46479,37.26194],[-92.4649,37.26185],[-92.46506,37.26173],[-92.46522,37.2616],[-92.46529,37.26154],[-92.46552,37.26135],[-92.46564,37.26126],[-92.46583,37.2611],[-92.46607,37.26091],[-92.46639,37.26064],[-92.46643,37.26061],[-92.46686,37.26025],[-92.4672,37.25998],[-92.46734,37.25987],[-92.46748,37.25975],[-92.4675,37.25974],[-92.46769,37.2596],[-92.4679,37.25946],[-92.46807,37.25935],[-92.46824,37.25924],[-92.46844,37.25914],[-92.46854,37.25908],[-92.46865,37.25904],[-92.46876,37.25898],[-92.46889,37.25893],[-92.46903,37.25887],[-92.46921,37.2588],[-92.46944,37.25872],[-92.46964,37.25866],[-92.46991,37.25859],[-92.47006,37.25855],[-92.47013,37.25853],[-92.4704,37.25847],[-92.47063,37.25843],[-92.47086,37.2584],[-92.47105,37.25838],[-92.47128,37.25835],[-92.4715,37.25833],[-92.47181,37.25832],[-92.47183,37.25832],[-92.4721,37.25831],[-92.47252,37.25829],[-92.47322,37.25827],[-92.47391,37.25824],[-92.47488,37.25822],[-92.47518,37.25821],[-92.47541,37.2582],[-92.47619,37.25819],[-92.47656,37.25818],[-92.47691,37.25816],[-92.47699,37.25816],[-92.4771,37.25815],[-92.47723,37.25814],[-92.47735,37.25813],[-92.47766,37.25809],[-92.47793,37.25804],[-92.47794,37.25804],[-92.47806,37.25802],[-92.47816,37.258],[-92.47821,37.25799],[-92.47837,37.25795],[-92.4784,37.25794],[-92.47859,37.2579],[-92.4788,37.25784],[-92.47901,37.25776],[-92.47922,37.25769],[-92.47957,37.25756],[-92.47983,37.25747],[-92.4801,37.25737],[-92.48025,37.25732],[-92.48033,37.25729],[-92.48046,37.25725],[-92.48056,37.25722],[-92.48078,37.25716],[-92.48088,37.25714],[-92.48093,37.25713],[-92.4811,37.25709],[-92.48111,37.25709],[-92.48126,37.25707],[-92.48132,37.25706],[-92.48145,37.25705],[-92.48166,37.25702],[-92.48195,37.257],[-92.48211,37.257],[-92.48216,37.257],[-92.48237,37.257],[-92.48256,37.25701],[-92.4828,37.25701],[-92.48407,37.25703],[-92.48449,37.25703],[-92.48472,37.25703],[-92.48504,37.25704],[-92.48549,37.25704],[-92.48617,37.25706],[-92.48684,37.25707],[-92.48707,37.25707],[-92.4873,37.25707],[-92.48752,37.25708],[-92.48775,37.25708],[-92.48797,37.25708],[-92.4882,37.25709],[-92.4891,37.2571],[-92.48941,37.2571],[-92.48977,37.25711],[-92.48988,37.25711],[-92.49022,37.25711],[-92.49044,37.25712],[-92.49048,37.25712],[-92.49083,37.25712],[-92.49106,37.25712],[-92.49128,37.25711],[-92.49135,37.2571],[-92.49146,37.25709],[-92.49163,37.25708],[-92.49182,37.25705],[-92.49197,37.25703],[-92.49213,37.257],[-92.49225,37.25698],[-92.49239,37.25694],[-92.49252,37.25691],[-92.49265,37.25687],[-92.49267,37.25687],[-92.49285,37.25681],[-92.49303,37.25674],[-92.49332,37.25663],[-92.49353,37.25656],[-92.49371,37.2565],[-92.49391,37.25643],[-92.49425,37.2563],[-92.49438,37.25625],[-92.4946,37.25617],[-92.49523,37.25593],[-92.49537,37.25587],[-92.49539,37.25586],[-92.49549,37.25582],[-92.49568,37.25574],[-92.49579,37.25569],[-92.49585,37.25567],[-92.49602,37.25559],[-92.49617,37.25552],[-92.49635,37.25543],[-92.49651,37.25535],[-92.49657,37.25532],[-92.49667,37.25526],[-92.4968,37.25519],[-92.49693,37.25511],[-92.49698,37.25508],[-92.49711,37.255],[-92.49716,37.25497],[-92.49732,37.25487],[-92.49753,37.25473],[-92.49764,37.25466],[-92.49773,37.2546],[-92.49796,37.25445],[-92.49824,37.25428],[-92.49845,37.25415],[-92.4987,37.25399],[-92.49875,37.25396],[-92.49902,37.2538],[-92.49937,37.2536],[-92.49971,37.25342],[-92.49996,37.2533],[-92.50031,37.25314],[-92.50076,37.25296],[-92.50104,37.25286],[-92.50113,37.25283],[-92.50146,37.25273],[-92.5018,37.25262],[-92.50224,37.25248],[-92.50272,37.25233],[-92.50291,37.25228],[-92.50316,37.2522],[-92.50363,37.25205],[-92.50384,37.25199],[-92.50404,37.25192],[-92.50446,37.25179],[-92.50488,37.25166],[-92.50492,37.25165],[-92.50572,37.25139],[-92.50573,37.25138],[-92.50577,37.25137],[-92.50633,37.2512],[-92.50661,37.25111],[-92.50708,37.25097],[-92.50726,37.25092],[-92.50746,37.25089],[-92.50767,37.25087],[-92.50788,37.25086],[-92.50814,37.25086],[-92.50853,37.25087],[-92.50943,37.2509],[-92.50963,37.25091],[-92.51024,37.25092],[-92.51047,37.25092],[-92.51092,37.25091],[-92.51137,37.25093],[-92.51197,37.25094],[-92.5122,37.25095],[-92.51265,37.25095],[-92.51283,37.25096],[-92.51369,37.25097],[-92.51409,37.25097],[-92.51424,37.25097],[-92.51432,37.25097],[-92.51477,37.25098],[-92.51597,37.251],[-92.51623,37.251],[-92.51661,37.25099],[-92.51668,37.25098],[-92.51691,37.25097],[-92.51696,37.25097],[-92.5173,37.25095],[-92.51797,37.25091],[-92.5187,37.25085],[-92.51889,37.25083],[-92.51988,37.25077],[-92.52011,37.25075],[-92.52033,37.25073],[-92.52129,37.25065],[-92.52189,37.25061],[-92.52212,37.2506],[-92.52229,37.25058],[-92.52249,37.25056],[-92.52251,37.25056],[-92.52274,37.25052],[-92.52282,37.2505],[-92.52319,37.25043],[-92.52339,37.25037],[-92.52373,37.25026],[-92.52394,37.25018],[-92.52409,37.25012],[-92.5243,37.25002],[-92.5245,37.24992],[-92.52471,37.24979],[-92.52472,37.24979],[-92.52484,37.24972],[-92.52505,37.24957],[-92.52522,37.24943],[-92.52535,37.24932],[-92.52552,37.24917],[-92.52554,37.24915],[-92.52566,37.24902],[-92.52568,37.24901],[-92.52579,37.24888],[-92.52591,37.24874],[-92.52591,37.24873],[-92.52601,37.2486],[-92.52614,37.24841],[-92.52625,37.24826],[-92.52631,37.24817],[-92.52652,37.24786],[-92.52679,37.24747],[-92.52729,37.24672],[-92.52775,37.24605],[-92.52786,37.2459],[-92.52797,37.24574],[-92.52806,37.2456],[-92.52872,37.24463],[-92.52878,37.24454],[-92.52904,37.24415],[-92.52915,37.244],[-92.52946,37.24352],[-92.52966,37.24326],[-92.5297,37.24321],[-92.52987,37.24303],[-92.52998,37.24293],[-92.53004,37.24287],[-92.53013,37.2428],[-92.53018,37.24277],[-92.53029,37.24268],[-92.5303,37.24268],[-92.53046,37.24258],[-92.53048,37.24257],[-92.53072,37.24243],[-92.53084,37.24235],[-92.53096,37.24228],[-92.53117,37.24216],[-92.5312,37.24214],[-92.53135,37.24204],[-92.53154,37.24192],[-92.53155,37.24191],[-92.53167,37.24182],[-92.53182,37.24169],[-92.53187,37.24165],[-92.53198,37.24155],[-92.53212,37.24138],[-92.53214,37.24136],[-92.53223,37.24124],[-92.53233,37.24108],[-92.53235,37.24105],[-92.5324,37.24095],[-92.53244,37.24088],[-92.53247,37.24081],[-92.53252,37.24067],[-92.53257,37.24054],[-92.5326,37.24042],[-92.53263,37.24029],[-92.53265,37.24018],[-92.53267,37.24006],[-92.53268,37.24],[-92.53277,37.23938],[-92.53278,37.23929],[-92.53287,37.23875],[-92.53288,37.23869],[-92.53291,37.23848],[-92.53293,37.23835],[-92.53296,37.23819],[-92.53298,37.23806],[-92.533,37.23796],[-92.53303,37.23781],[-92.53306,37.23769],[-92.53307,37.23764],[-92.53312,37.23752],[-92.53313,37.23751],[-92.53316,37.23746],[-92.53322,37.23738],[-92.53323,37.23736],[-92.5333,37.23729],[-92.53342,37.23718],[-92.53354,37.23709],[-92.53363,37.23704],[-92.53375,37.23697],[-92.5339,37.2369],[-92.53404,37.23684],[-92.53412,37.23681],[-92.5343,37.23675],[-92.5345,37.23669],[-92.53475,37.23663],[-92.53518,37.23657],[-92.53564,37.23649],[-92.53586,37.23646],[-92.53602,37.23643],[-92.53667,37.23633],[-92.53719,37.23624],[-92.53751,37.23619],[-92.53839,37.23604],[-92.53868,37.236],[-92.53919,37.23592],[-92.53938,37.23589],[-92.53962,37.23586],[-92.54002,37.23583],[-92.54003,37.23583],[-92.54024,37.23581],[-92.54047,37.23579],[-92.54069,37.23578],[-92.5408,37.23577],[-92.54165,37.23573],[-92.54215,37.2357],[-92.54228,37.2357],[-92.54263,37.23568],[-92.5435,37.23566],[-92.54464,37.2357],[-92.54477,37.23571],[-92.54499,37.23572],[-92.5456,37.23576],[-92.54567,37.23577],[-92.54611,37.23582],[-92.54634,37.23584],[-92.54656,37.23587],[-92.54678,37.2359],[-92.54701,37.23592],[-92.54762,37.23599],[-92.54795,37.23604],[-92.54847,37.2361],[-92.54865,37.23612],[-92.54891,37.23615],[-92.54934,37.23621],[-92.54979,37.23627],[-92.55001,37.23629],[-92.55015,37.23631],[-92.55023,37.23632],[-92.55045,37.23635],[-92.55068,37.23638],[-92.5509,37.23641],[-92.55098,37.23642],[-92.55135,37.23646],[-92.5515,37.23648],[-92.55157,37.23649],[-92.55178,37.23652],[-92.55179,37.23653],[-92.55201,37.23657],[-92.55212,37.2366],[-92.55223,37.23663],[-92.55238,37.23667],[-92.55244,37.23669],[-92.55264,37.23676],[-92.55274,37.2368],[-92.55299,37.23688],[-92.55331,37.23699],[-92.55363,37.2371],[-92.55399,37.23723],[-92.55466,37.23746],[-92.55468,37.23747],[-92.55491,37.23755],[-92.55507,37.23761],[-92.55516,37.23765],[-92.55527,37.2377],[-92.55543,37.23776],[-92.55547,37.23778],[-92.55562,37.23786],[-92.55566,37.23788],[-92.55584,37.23799],[-92.55599,37.23809],[-92.55622,37.23825],[-92.55634,37.23835],[-92.55641,37.23841],[-92.55667,37.23864],[-92.55679,37.23876],[-92.5569,37.23888],[-92.55692,37.2389],[-92.55707,37.23904],[-92.55721,37.23918],[-92.55734,37.2393],[-92.55735,37.23932],[-92.55749,37.23946],[-92.55763,37.2396],[-92.5577,37.23967],[-92.55777,37.23974],[-92.55804,37.24],[-92.55842,37.24038],[-92.55864,37.24062],[-92.55892,37.2409],[-92.55901,37.24098],[-92.55921,37.24118],[-92.55955,37.24151],[-92.55992,37.24188],[-92.56003,37.24199],[-92.56006,37.24202],[-92.56019,37.24216],[-92.56047,37.24244],[-92.56061,37.24259],[-92.56064,37.24261],[-92.56087,37.24285],[-92.56096,37.24295],[-92.56102,37.24302],[-92.56107,37.24308],[-92.56117,37.24321],[-92.56125,37.24333],[-92.56126,37.24335],[-92.56133,37.24347],[-92.56134,37.24349],[-92.56142,37.24363],[-92.56143,37.24365],[-92.56151,37.24382],[-92.56156,37.24392],[-92.56174,37.24429],[-92.56175,37.24433],[-92.56184,37.24449],[-92.56187,37.24457],[-92.56201,37.24485],[-92.56208,37.245],[-92.56217,37.24516],[-92.56222,37.24527],[-92.56225,37.24533],[-92.56236,37.24556],[-92.5625,37.24583],[-92.5626,37.24605],[-92.56275,37.24634],[-92.56288,37.24664],[-92.56294,37.24676],[-92.56305,37.24698],[-92.56316,37.24717],[-92.56321,37.24725],[-92.56327,37.24736],[-92.56336,37.2475],[-92.56347,37.24765],[-92.56358,37.24777],[-92.56366,37.24787],[-92.56374,37.24795],[-92.56396,37.24814],[-92.56403,37.2482],[-92.56412,37.24827],[-92.56434,37.24845],[-92.56443,37.24853],[-92.5649,37.24892],[-92.56505,37.24905],[-92.56521,37.24918],[-92.56567,37.24957],[-92.56588,37.24976],[-92.56598,37.24984],[-92.56613,37.24997],[-92.5664,37.25019],[-92.5666,37.25036],[-92.56675,37.25049],[-92.56688,37.2506],[-92.56716,37.25083],[-92.56738,37.25103],[-92.56781,37.25133],[-92.56925,37.25237],[-92.57097,37.2536],[-92.57117,37.25374],[-92.57131,37.25384],[-92.57148,37.25396],[-92.57167,37.2541],[-92.57218,37.25447],[-92.57231,37.25457],[-92.57248,37.25468],[-92.57249,37.25469],[-92.57269,37.25482],[-92.57291,37.25494],[-92.57306,37.25501],[-92.57318,37.25506],[-92.57333,37.2551],[-92.57349,37.25515],[-92.57358,37.25516],[-92.57387,37.25524],[-92.57411,37.2553],[-92.57425,37.25535],[-92.57446,37.25544],[-92.57458,37.2555],[-92.57461,37.25552],[-92.57484,37.25566],[-92.57499,37.25577],[-92.5753,37.25601],[-92.57559,37.25623],[-92.57599,37.25655],[-92.57627,37.25677],[-92.57643,37.25689],[-92.57645,37.25691],[-92.57675,37.25715],[-92.57692,37.25727],[-92.57713,37.25743],[-92.5774,37.25762],[-92.5776,37.25774],[-92.57762,37.25775],[-92.57779,37.25784],[-92.57784,37.25786],[-92.57811,37.25798],[-92.57838,37.2581],[-92.57851,37.25817],[-92.57864,37.25824],[-92.57877,37.25832],[-92.5789,37.25841],[-92.57901,37.2585],[-92.57912,37.2586],[-92.57921,37.25869],[-92.57951,37.25899],[-92.57963,37.2591],[-92.58014,37.25963],[-92.58025,37.25975],[-92.58127,37.26076],[-92.58211,37.2616],[-92.58246,37.26192],[-92.58263,37.26207],[-92.58272,37.26214],[-92.58275,37.26217],[-92.58288,37.26226],[-92.58293,37.2623],[-92.58315,37.26245],[-92.58329,37.26253],[-92.58351,37.26266],[-92.58368,37.26275],[-92.58378,37.2628],[-92.58383,37.26283],[-92.58398,37.26289],[-92.58434,37.26305],[-92.58499,37.26332],[-92.58525,37.26342],[-92.58543,37.2635],[-92.58559,37.26358],[-92.58572,37.26364],[-92.58592,37.26375],[-92.58636,37.26404],[-92.58661,37.26421],[-92.58678,37.26433],[-92.58707,37.26452],[-92.58728,37.26467],[-92.58749,37.26482],[-92.58768,37.26494],[-92.58787,37.26505],[-92.58806,37.26515],[-92.58814,37.2652],[-92.58821,37.26523],[-92.58835,37.2653],[-92.58852,37.26537],[-92.58869,37.26544],[-92.58889,37.26551],[-92.58909,37.26557],[-92.5893,37.26562],[-92.58959,37.26569],[-92.58981,37.26573],[-92.59013,37.26578],[-92.59054,37.26585],[-92.59091,37.2659],[-92.59142,37.26597],[-92.59216,37.26608],[-92.59257,37.26615],[-92.59299,37.26621],[-92.59388,37.26634],[-92.59481,37.26648],[-92.59532,37.26656],[-92.59554,37.2666],[-92.59575,37.26663],[-92.59658,37.26675],[-92.59684,37.2668],[-92.59706,37.26684],[-92.59723,37.26689],[-92.59742,37.26694],[-92.59752,37.26697],[-92.59764,37.26701],[-92.598,37.26715],[-92.59975,37.26785],[-92.60045,37.26813],[-92.60126,37.26845],[-92.60174,37.26865],[-92.60207,37.26878],[-92.60227,37.26886],[-92.60232,37.26888],[-92.60255,37.26898],[-92.6027,37.26905],[-92.60291,37.26916],[-92.60304,37.26923],[-92.6031,37.26926],[-92.60327,37.26936],[-92.60353,37.26951],[-92.60372,37.26963],[-92.60394,37.26976],[-92.60413,37.26988],[-92.60415,37.26989],[-92.60431,37.26998],[-92.60435,37.27001],[-92.60456,37.27014],[-92.60486,37.27031],[-92.60505,37.27041],[-92.60515,37.27046],[-92.60523,37.2705],[-92.60527,37.27052],[-92.60542,37.27059],[-92.60557,37.27065],[-92.60575,37.27072],[-92.60589,37.27078],[-92.60607,37.27084],[-92.60623,37.27089],[-92.60641,37.27094],[-92.60656,37.27098],[-92.60668,37.27101],[-92.60673,37.27102],[-92.60691,37.27106],[-92.60708,37.27109],[-92.60724,37.27112],[-92.60738,37.27114],[-92.60758,37.27116],[-92.60778,37.27118],[-92.60792,37.27119],[-92.60804,37.27119],[-92.60819,37.2712],[-92.60837,37.2712],[-92.60855,37.2712],[-92.60878,37.27119],[-92.60905,37.27118],[-92.60906,37.27118],[-92.6092,37.27118],[-92.60933,37.27117],[-92.6095,37.27117],[-92.60968,37.27116],[-92.60987,37.27115],[-92.60995,37.27115],[-92.61024,37.27113],[-92.6104,37.27113],[-92.61066,37.27112],[-92.61131,37.2711],[-92.61134,37.27109],[-92.61153,37.27109],[-92.6118,37.27108],[-92.61228,37.27106],[-92.61243,37.27105],[-92.61266,37.27104],[-92.61289,37.27103],[-92.61291,37.27103],[-92.61311,37.27102],[-92.61328,37.27101],[-92.61334,37.27101],[-92.61356,37.271],[-92.61364,37.271],[-92.61379,37.27099],[-92.61388,37.27098],[-92.61401,37.27098],[-92.61402,37.27098],[-92.61416,37.27096],[-92.61428,37.27095],[-92.61437,37.27094],[-92.61446,37.27093],[-92.61448,37.27093],[-92.61462,37.27091],[-92.61468,37.2709],[-92.61475,37.27089],[-92.61486,37.27087],[-92.61502,37.27083],[-92.61512,37.27081],[-92.61522,37.27079],[-92.6154,37.27074],[-92.61558,37.27067],[-92.61568,37.27064],[-92.61582,37.27058],[-92.6159,37.27055],[-92.61595,37.27053],[-92.61601,37.27051],[-92.61611,37.27046],[-92.61615,37.27044],[-92.61619,37.27042],[-92.61634,37.27035],[-92.61637,37.27033],[-92.61651,37.27025],[-92.61653,37.27024],[-92.61664,37.27018],[-92.61671,37.27013],[-92.61672,37.27012],[-92.61686,37.27003],[-92.61704,37.26989],[-92.6171,37.26986],[-92.61721,37.26977],[-92.61733,37.26968],[-92.61753,37.26952],[-92.6176,37.26946],[-92.61795,37.26919],[-92.61817,37.26901],[-92.61825,37.26895],[-92.61842,37.26883],[-92.6187,37.26862],[-92.61901,37.26839],[-92.61938,37.26808],[-92.61951,37.26796],[-92.62013,37.26748],[-92.62014,37.26747],[-92.62031,37.26735],[-92.62047,37.26723],[-92.62048,37.26723],[-92.62082,37.26699],[-92.62087,37.26696],[-92.62118,37.26678],[-92.62133,37.2667],[-92.62173,37.26653],[-92.62201,37.26642],[-92.62221,37.26634],[-92.62226,37.26632],[-92.62277,37.26617],[-92.62285,37.26615],[-92.6232,37.26607],[-92.62328,37.26605],[-92.62376,37.26598],[-92.62395,37.26596],[-92.62417,37.26593],[-92.6248,37.26589],[-92.62528,37.26586],[-92.6253,37.26586],[-92.62553,37.26584],[-92.62575,37.26583],[-92.62597,37.26581],[-92.62598,37.26581],[-92.62688,37.26575],[-92.6271,37.26574],[-92.62722,37.26573],[-92.62755,37.26571],[-92.62836,37.26566],[-92.62868,37.26564],[-92.62893,37.26562],[-92.62958,37.26559],[-92.63003,37.26555],[-92.63048,37.26553],[-92.63071,37.26551],[-92.63183,37.26544],[-92.63228,37.26541],[-92.63318,37.26535],[-92.63409,37.26529],[-92.63499,37.26524],[-92.63521,37.26522],[-92.63544,37.26521],[-92.63634,37.26515],[-92.63656,37.26513],[-92.63679,37.26512],[-92.63701,37.2651],[-92.63724,37.26509],[-92.63746,37.26508],[-92.63792,37.26505],[-92.63814,37.26503],[-92.63837,37.26502],[-92.63949,37.26494],[-92.63972,37.26493],[-92.63994,37.26492],[-92.64129,37.26483],[-92.6422,37.26477],[-92.64242,37.26476],[-92.64287,37.26473],[-92.6431,37.26471],[-92.64332,37.2647],[-92.64422,37.26464],[-92.64445,37.26462],[-92.6449,37.2646],[-92.64502,37.26459],[-92.64512,37.26458],[-92.64535,37.26457],[-92.6458,37.26454],[-92.64599,37.26453],[-92.64656,37.2645],[-92.64671,37.2645],[-92.64691,37.26451],[-92.64709,37.26452],[-92.64733,37.26456],[-92.64756,37.2646],[-92.64768,37.26464],[-92.64788,37.2647],[-92.64793,37.26471],[-92.64809,37.26477],[-92.64826,37.26484],[-92.64835,37.26488],[-92.64856,37.26499],[-92.64872,37.26508],[-92.64882,37.26516],[-92.64884,37.26517],[-92.64887,37.26519],[-92.64913,37.2654],[-92.64927,37.26552],[-92.65059,37.26669],[-92.65075,37.26682],[-92.65105,37.26709],[-92.6512,37.26722],[-92.65135,37.26735],[-92.65151,37.26748],[-92.65162,37.26758],[-92.65166,37.26762],[-92.65181,37.26775],[-92.65196,37.26788],[-92.65212,37.26802],[-92.65258,37.26841],[-92.65349,37.26921],[-92.6538,37.26947],[-92.65421,37.26982],[-92.65512,37.27062],[-92.65586,37.27127],[-92.65616,37.27153],[-92.65632,37.27166],[-92.65647,37.2718],[-92.65678,37.27206],[-92.65769,37.27286],[-92.65785,37.27299],[-92.658,37.27312],[-92.65815,37.27325],[-92.6583,37.27339],[-92.65846,37.27352],[-92.65861,37.27365],[-92.65871,37.27374],[-92.65952,37.27445],[-92.66029,37.27511],[-92.66044,37.27524],[-92.66074,37.27551],[-92.6609,37.27564],[-92.66105,37.27578],[-92.6612,37.27591],[-92.66212,37.27671],[-92.66227,37.27684],[-92.66257,37.2771],[-92.66273,37.27724],[-92.66334,37.27777],[-92.66349,37.2779],[-92.66364,37.27803],[-92.66425,37.27856],[-92.6646,37.27886],[-92.66528,37.27946],[-92.66544,37.27959],[-92.66559,37.27973],[-92.66574,37.27986],[-92.6659,37.27999],[-92.66605,37.28013],[-92.66634,37.28038],[-92.66651,37.28052],[-92.66661,37.28061],[-92.6668,37.28075],[-92.6669,37.28082],[-92.667,37.28089],[-92.66716,37.28098],[-92.66731,37.28106],[-92.66744,37.28112],[-92.66758,37.28118],[-92.66774,37.28124],[-92.66778,37.28125],[-92.66788,37.28128],[-92.66804,37.28132],[-92.66821,37.28136],[-92.66837,37.28138],[-92.66844,37.28139],[-92.66856,37.28141],[-92.66886,37.28143],[-92.66911,37.28144],[-92.67041,37.28146],[-92.6711,37.28147],[-92.67246,37.28148],[-92.67381,37.2815],[-92.67539,37.28152],[-92.67799,37.28155],[-92.67924,37.28156],[-92.67947,37.28157],[-92.68082,37.28159],[-92.68353,37.28162],[-92.68457,37.28163],[-92.68544,37.28164],[-92.68664,37.28166],[-92.68725,37.28167],[-92.68796,37.28168],[-92.68898,37.28169],[-92.69011,37.2817],[-92.69056,37.28171],[-92.69124,37.28172],[-92.69187,37.28172],[-92.6919,37.28172],[-92.69191,37.28172],[-92.69194,37.28172],[-92.69206,37.28173],[-92.69247,37.28173],[-92.69267,37.28174],[-92.69319,37.28176],[-92.6934,37.28177],[-92.69355,37.28178],[-92.69379,37.2818],[-92.6938,37.2818],[-92.69392,37.28181],[-92.69402,37.28183],[-92.69407,37.28184],[-92.69424,37.28188],[-92.69439,37.28192],[-92.69461,37.28201],[-92.69465,37.28202],[-92.69477,37.28208],[-92.69484,37.28211],[-92.69497,37.28218],[-92.69558,37.28253],[-92.69563,37.28256],[-92.69576,37.28264],[-92.69613,37.28285],[-92.69616,37.28287],[-92.69631,37.28296],[-92.69644,37.28303],[-92.69667,37.28317],[-92.69704,37.28338],[-92.69729,37.28352],[-92.69777,37.28381],[-92.6979,37.28388],[-92.69795,37.28391],[-92.69814,37.28402],[-92.6982,37.28405],[-92.69836,37.28413],[-92.69843,37.28417],[-92.6987,37.28432],[-92.69888,37.28443],[-92.69899,37.28449],[-92.69923,37.28463],[-92.69946,37.28477],[-92.69964,37.28487],[-92.69973,37.28493],[-92.69987,37.28502],[-92.70013,37.28519],[-92.70017,37.28522],[-92.7003,37.28531],[-92.70041,37.28539],[-92.70067,37.28558],[-92.7008,37.28568],[-92.70097,37.2858],[-92.70115,37.28594],[-92.70144,37.28616],[-92.70173,37.28637],[-92.70193,37.28651],[-92.70228,37.28675],[-92.70229,37.28676],[-92.70263,37.28699],[-92.70297,37.28721],[-92.70334,37.28743],[-92.70362,37.2876],[-92.7039,37.28778],[-92.704,37.28785],[-92.70407,37.28789],[-92.70418,37.28795],[-92.70427,37.288],[-92.70438,37.28804],[-92.70438,37.28805],[-92.7045,37.2881],[-92.70463,37.28814],[-92.70475,37.28818],[-92.70479,37.28819],[-92.70486,37.28821],[-92.705,37.28825],[-92.70518,37.28829],[-92.70522,37.2883],[-92.7054,37.28834],[-92.70544,37.28835],[-92.70571,37.28841],[-92.70609,37.28849],[-92.70644,37.28857],[-92.70702,37.28869],[-92.70723,37.28875],[-92.70734,37.28878],[-92.7075,37.28882],[-92.70753,37.28883],[-92.7077,37.28889],[-92.70794,37.28898],[-92.70817,37.28907],[-92.70829,37.28912],[-92.70838,37.28916],[-92.70853,37.28924],[-92.7087,37.28934],[-92.70871,37.28935],[-92.70884,37.28942],[-92.70889,37.28946],[-92.70895,37.28949],[-92.70904,37.28955],[-92.70915,37.28962],[-92.70925,37.28969],[-92.70937,37.28979],[-92.70954,37.28991],[-92.70957,37.28993],[-92.71012,37.29035],[-92.71022,37.29043],[-92.71038,37.29056],[-92.71047,37.29063],[-92.7106,37.29072],[-92.7107,37.2908],[-92.71079,37.29086],[-92.71088,37.29092],[-92.71097,37.29097],[-92.71105,37.29102],[-92.71114,37.29106],[-92.71121,37.29109],[-92.71132,37.29114],[-92.7114,37.29116],[-92.71147,37.29118],[-92.71148,37.29119],[-92.71161,37.29121],[-92.71173,37.29123],[-92.71181,37.29124],[-92.7119,37.29125],[-92.71202,37.29126],[-92.71213,37.29126],[-92.71225,37.29125],[-92.71232,37.29125],[-92.71237,37.29125],[-92.71239,37.29124],[-92.71247,37.29123],[-92.71258,37.29121],[-92.71268,37.2912],[-92.71281,37.29117],[-92.71283,37.29116],[-92.71305,37.2911],[-92.71316,37.29107],[-92.71342,37.291],[-92.71345,37.29099],[-92.71371,37.29092],[-92.71401,37.29083],[-92.71428,37.29075],[-92.7143,37.29075],[-92.71442,37.29072],[-92.71472,37.29064],[-92.71495,37.29059],[-92.71516,37.29054],[-92.71529,37.29051],[-92.71616,37.29032],[-92.71663,37.29022],[-92.71771,37.28999],[-92.7178,37.28997],[-92.71808,37.28991],[-92.71829,37.28987],[-92.71836,37.28985],[-92.71854,37.2898],[-92.71872,37.28976],[-92.71888,37.28971],[-92.71892,37.2897],[-92.71913,37.28963],[-92.7193,37.28957],[-92.71959,37.28946],[-92.71971,37.28942],[-92.72016,37.28925],[-92.72052,37.28911],[-92.72058,37.28908],[-92.72072,37.28903],[-92.72088,37.28897],[-92.72093,37.28895],[-92.72113,37.28887],[-92.72141,37.28876],[-92.72179,37.28862],[-92.72194,37.28855],[-92.72215,37.28848],[-92.72235,37.2884],[-92.72256,37.28832],[-92.72276,37.28824],[-92.72296,37.28817],[-92.7232,37.28808],[-92.72378,37.28786],[-92.72394,37.2878],[-92.72399,37.28778],[-92.72461,37.28755],[-92.72513,37.28736],[-92.72545,37.28724],[-92.72567,37.28717],[-92.72582,37.28712],[-92.72593,37.28709],[-92.72605,37.28706],[-92.72619,37.28704],[-92.72626,37.28703],[-92.72633,37.28702],[-92.72644,37.28702],[-92.7265,37.28702],[-92.72657,37.28702],[-92.7267,37.28703],[-92.72678,37.28703],[-92.72689,37.28705],[-92.72697,37.28707],[-92.72708,37.28709],[-92.72716,37.28711],[-92.72717,37.28711],[-92.7273,37.28715],[-92.72745,37.28721],[-92.72753,37.28724],[-92.7279,37.28739],[-92.72828,37.28755],[-92.72854,37.28765],[-92.72871,37.2877],[-92.72883,37.28774],[-92.72899,37.28778],[-92.72914,37.28781],[-92.72931,37.28785],[-92.72951,37.28788],[-92.72965,37.28791],[-92.72978,37.28793],[-92.7298,37.28793],[-92.72984,37.28793],[-92.72992,37.28794],[-92.73001,37.28795],[-92.73007,37.28796],[-92.73026,37.28797],[-92.73041,37.28798],[-92.73046,37.28798],[-92.73052,37.28798],[-92.73056,37.28798],[-92.73082,37.28798],[-92.73091,37.28798],[-92.73097,37.28797],[-92.73106,37.28797],[-92.73114,37.28797],[-92.73119,37.28796],[-92.73151,37.28795],[-92.73203,37.28793],[-92.73204,37.28793],[-92.73249,37.28791],[-92.73251,37.28791],[-92.73277,37.2879],[-92.73294,37.28789],[-92.733,37.28789],[-92.73329,37.28787],[-92.73378,37.28785],[-92.73407,37.28784],[-92.73413,37.28783],[-92.73422,37.28783],[-92.73491,37.2878],[-92.73503,37.28779],[-92.7352,37.28778],[-92.73548,37.28777],[-92.73565,37.28776],[-92.73571,37.28775],[-92.73588,37.28774],[-92.73592,37.28774],[-92.73593,37.28774],[-92.73618,37.28773],[-92.7366,37.28771],[-92.73678,37.2877],[-92.73695,37.28771],[-92.73713,37.28772],[-92.73714,37.28772],[-92.73727,37.28773],[-92.73741,37.28776],[-92.73754,37.28779],[-92.73758,37.2878],[-92.73769,37.28783],[-92.73783,37.28788],[-92.73796,37.28793],[-92.73799,37.28794],[-92.73807,37.28798],[-92.73818,37.28804],[-92.73826,37.28808],[-92.73833,37.28812],[-92.73839,37.28815],[-92.73854,37.28826],[-92.73875,37.28844],[-92.73882,37.28853],[-92.73883,37.28854],[-92.73891,37.28865],[-92.73901,37.28878],[-92.73908,37.28889],[-92.73923,37.28916],[-92.73941,37.28949],[-92.73951,37.28966],[-92.73975,37.2901],[-92.73987,37.29032],[-92.73996,37.29048],[-92.74009,37.29072],[-92.74014,37.29081],[-92.74027,37.29105],[-92.74047,37.29135],[-92.74053,37.29143],[-92.74055,37.29145],[-92.74062,37.29153],[-92.74075,37.29168],[-92.74085,37.29177],[-92.741,37.29191],[-92.74113,37.29202],[-92.74118,37.29205],[-92.74131,37.29215],[-92.74145,37.29225],[-92.74155,37.29231],[-92.74168,37.29239],[-92.7419,37.29251],[-92.74203,37.29257],[-92.7422,37.29264],[-92.7423,37.29268],[-92.74241,37.29273],[-92.74251,37.29276],[-92.74268,37.29281],[-92.74285,37.29287],[-92.74333,37.29303],[-92.74378,37.29317],[-92.74379,37.29317],[-92.74396,37.29323],[-92.74439,37.29336],[-92.74466,37.29343],[-92.74483,37.29347],[-92.74484,37.29347],[-92.74491,37.29348],[-92.7451,37.29352],[-92.74523,37.29354],[-92.74534,37.29355],[-92.74545,37.29356],[-92.74557,37.29357],[-92.74567,37.29357],[-92.74578,37.29358],[-92.74596,37.29358],[-92.74605,37.29359],[-92.74607,37.29359],[-92.74612,37.29359],[-92.74674,37.29359],[-92.74741,37.29359],[-92.74742,37.29359],[-92.74789,37.2936],[-92.74864,37.2936],[-92.74909,37.29361],[-92.74932,37.29361],[-92.74954,37.29361],[-92.74977,37.29362],[-92.75088,37.29363],[-92.75113,37.29363],[-92.75135,37.29364],[-92.75203,37.29364],[-92.75316,37.29367],[-92.75452,37.2937],[-92.75456,37.2937],[-92.75474,37.29371],[-92.75592,37.29373],[-92.75705,37.29376],[-92.75728,37.29377],[-92.75777,37.29378],[-92.75831,37.29379],[-92.75892,37.29381],[-92.75938,37.29382],[-92.7596,37.29383],[-92.75967,37.29383],[-92.76073,37.29386],[-92.76078,37.29386],[-92.76096,37.29387],[-92.76106,37.29387],[-92.76122,37.29388],[-92.76141,37.2939],[-92.76154,37.29392],[-92.76169,37.29394],[-92.76208,37.29402],[-92.76228,37.29408],[-92.76247,37.29414],[-92.76288,37.29428],[-92.76311,37.29437],[-92.76322,37.29442],[-92.76352,37.29453],[-92.7636,37.29456],[-92.76398,37.2947],[-92.76431,37.29482],[-92.76434,37.29483],[-92.76461,37.29492],[-92.76475,37.29496],[-92.7649,37.29499],[-92.76512,37.29503],[-92.76543,37.29508],[-92.76564,37.2951],[-92.76579,37.29511],[-92.76584,37.29511],[-92.76601,37.29512],[-92.76621,37.29513],[-92.76689,37.29515],[-92.76691,37.29515],[-92.76743,37.29516],[-92.76757,37.29517],[-92.76792,37.29518],[-92.76812,37.29519],[-92.76814,37.29519],[-92.76826,37.2952],[-92.76842,37.29522],[-92.76856,37.29525],[-92.76867,37.29527],[-92.7688,37.29531],[-92.7689,37.29535],[-92.769,37.2954],[-92.76906,37.29542],[-92.76912,37.29546],[-92.76919,37.2955],[-92.76924,37.29554],[-92.76934,37.29562],[-92.76942,37.29569],[-92.7695,37.29577],[-92.76957,37.29587],[-92.76962,37.29595],[-92.76967,37.29607],[-92.76968,37.29609],[-92.76971,37.29615],[-92.76973,37.29624],[-92.76975,37.2963],[-92.76976,37.29637],[-92.76978,37.29647],[-92.76978,37.29674],[-92.76978,37.2969],[-92.76977,37.29744],[-92.76977,37.29762],[-92.76977,37.29772],[-92.76976,37.29851],[-92.76976,37.29869],[-92.76975,37.29959],[-92.76975,37.29977],[-92.76974,37.30046],[-92.76974,37.30067],[-92.76974,37.30121],[-92.76973,37.30157],[-92.76973,37.30193],[-92.76971,37.30283],[-92.76971,37.30309],[-92.76969,37.30409],[-92.76969,37.30448],[-92.76968,37.30535],[-92.76967,37.30553],[-92.76967,37.30576],[-92.76967,37.30589],[-92.76967,37.30607],[-92.76966,37.30625],[-92.76966,37.3066],[-92.76965,37.30715],[-92.76965,37.30727],[-92.76965,37.30733],[-92.76965,37.30748],[-92.76965,37.30759],[-92.76966,37.30769],[-92.76967,37.3078],[-92.76972,37.30792],[-92.76975,37.30798],[-92.76982,37.30808],[-92.76988,37.30815],[-92.76996,37.30823],[-92.77005,37.30829],[-92.77016,37.30835],[-92.77027,37.30841],[-92.77046,37.30848],[-92.7708,37.30849],[-92.77113,37.3085],[-92.77161,37.30851],[-92.77244,37.30852],[-92.77267,37.30852],[-92.77425,37.30855],[-92.77582,37.30857],[-92.77605,37.30858],[-92.77678,37.30859],[-92.7774,37.3086],[-92.77791,37.30861],[-92.78007,37.30865],[-92.7803,37.30865],[-92.78052,37.30866],[-92.78104,37.30866],[-92.7812,37.30867],[-92.78143,37.30867],[-92.78256,37.30869],[-92.78346,37.30871],[-92.78414,37.30872],[-92.78437,37.30872],[-92.7848,37.30873],[-92.78575,37.30874],[-92.78598,37.30874],[-92.78654,37.30875],[-92.78711,37.30876],[-92.78756,37.30876],[-92.78762,37.30876],[-92.78853,37.30877],[-92.78869,37.30878],[-92.78971,37.30879],[-92.78982,37.30879],[-92.79038,37.3088],[-92.79072,37.3088],[-92.79095,37.3088],[-92.79163,37.30881],[-92.79207,37.30882],[-92.79208,37.30882],[-92.79224,37.30881],[-92.79243,37.30881],[-92.79259,37.3088],[-92.79275,37.3088],[-92.79291,37.30879],[-92.79322,37.30877],[-92.79344,37.30875],[-92.79358,37.30873],[-92.79359,37.30873],[-92.7937,37.30872],[-92.794,37.3087],[-92.79445,37.30864],[-92.79467,37.30861],[-92.79472,37.3086],[-92.79489,37.30858],[-92.79525,37.30854],[-92.79579,37.30848],[-92.79601,37.30845],[-92.79629,37.30842],[-92.79669,37.30838],[-92.79736,37.3083],[-92.79742,37.30829],[-92.79765,37.30826],[-92.7978,37.30824],[-92.79786,37.30824],[-92.79841,37.30817],[-92.79847,37.30816],[-92.79854,37.30815],[-92.79914,37.30807],[-92.79968,37.308],[-92.79985,37.30798],[-92.79988,37.30797],[-92.79999,37.30795],[-92.80013,37.30792],[-92.80025,37.30789],[-92.80037,37.30785],[-92.80051,37.30779],[-92.80052,37.30779],[-92.80065,37.30773],[-92.80071,37.3077],[-92.80077,37.30767],[-92.80091,37.30758],[-92.80109,37.30747],[-92.80142,37.30723],[-92.80165,37.30707],[-92.80169,37.30704],[-92.80186,37.30693],[-92.80194,37.30687],[-92.80224,37.30665],[-92.80245,37.30651],[-92.8026,37.30642],[-92.80265,37.3064],[-92.80287,37.30629],[-92.80301,37.30624],[-92.80317,37.30619],[-92.80326,37.30617],[-92.80338,37.30614],[-92.80348,37.30612],[-92.8035,37.30611],[-92.80368,37.30608],[-92.8037,37.30608],[-92.80384,37.30607],[-92.80393,37.30606],[-92.804,37.30606],[-92.80417,37.30606],[-92.80437,37.30607],[-92.80455,37.3061],[-92.80472,37.30612],[-92.80482,37.30615],[-92.80488,37.30616],[-92.80505,37.30621],[-92.80524,37.30628],[-92.80544,37.30636],[-92.80565,37.30647],[-92.80603,37.30667],[-92.80637,37.30685],[-92.8067,37.30702],[-92.80687,37.30711],[-92.80704,37.30719],[-92.80719,37.30726],[-92.80733,37.30732],[-92.80736,37.30733],[-92.80755,37.30739],[-92.80773,37.30745],[-92.80775,37.30746],[-92.8079,37.3075],[-92.80796,37.30752],[-92.80806,37.30755],[-92.80824,37.30759],[-92.8084,37.30762],[-92.80854,37.30764],[-92.80862,37.30765],[-92.80871,37.30766],[-92.80884,37.30768],[-92.80906,37.30771],[-92.8091,37.30771],[-92.80929,37.30774],[-92.80951,37.30776],[-92.80974,37.30779],[-92.81063,37.30789],[-92.81083,37.30792],[-92.81214,37.30808],[-92.81266,37.30814],[-92.81281,37.30815],[-92.81303,37.30818],[-92.81318,37.3082],[-92.81348,37.30823],[-92.81361,37.30825],[-92.81376,37.30827],[-92.81393,37.30828],[-92.81411,37.3083],[-92.81415,37.3083],[-92.8143,37.30831],[-92.81438,37.30831],[-92.81448,37.30831],[-92.81467,37.30831],[-92.81482,37.30829],[-92.815,37.30828],[-92.81505,37.30827],[-92.81515,37.30826],[-92.81532,37.30824],[-92.81544,37.30821],[-92.8155,37.3082],[-92.81556,37.30818],[-92.81568,37.30815],[-92.81581,37.30811],[-92.81594,37.30807],[-92.81617,37.308],[-92.81656,37.30787],[-92.81677,37.3078],[-92.81698,37.30773],[-92.81719,37.30766],[-92.8174,37.30759],[-92.81761,37.30752],[-92.81781,37.30745],[-92.81802,37.30738],[-92.81803,37.30737],[-92.81888,37.3071],[-92.8193,37.30696],[-92.81983,37.30679],[-92.82001,37.30673],[-92.82031,37.30665],[-92.82056,37.3066],[-92.82085,37.30655],[-92.82107,37.30653],[-92.82129,37.3065],[-92.82144,37.30649],[-92.82162,37.30649],[-92.82189,37.30649],[-92.82227,37.30649],[-92.8226,37.3065],[-92.82328,37.30652],[-92.82427,37.30653],[-92.82441,37.30654],[-92.82446,37.30654],[-92.82466,37.30655],[-92.82483,37.30656],[-92.82486,37.30656],[-92.82497,37.30658],[-92.82508,37.30659],[-92.82515,37.3066],[-92.8253,37.30663],[-92.82531,37.30663],[-92.82542,37.30665],[-92.82552,37.30667],[-92.82561,37.30669],[-92.82584,37.30674],[-92.82589,37.30675],[-92.82596,37.30676],[-92.82605,37.30678],[-92.82618,37.3068],[-92.82633,37.30682],[-92.82636,37.30682],[-92.82646,37.30683],[-92.82663,37.30683],[-92.82677,37.30683],[-92.8269,37.30683],[-92.82704,37.30681],[-92.82711,37.30681],[-92.82726,37.30679],[-92.82728,37.30679],[-92.82749,37.30676],[-92.82752,37.30676],[-92.82793,37.30671],[-92.82838,37.30666],[-92.82913,37.30656],[-92.82942,37.30653],[-92.83007,37.30645],[-92.83017,37.30643],[-92.8314,37.30629],[-92.83175,37.30625],[-92.83209,37.30622],[-92.83245,37.30619],[-92.83257,37.30619],[-92.83284,37.30617],[-92.83316,37.30615],[-92.83342,37.30614],[-92.83404,37.30614],[-92.83425,37.30614],[-92.83465,37.30615],[-92.83483,37.30615],[-92.83488,37.30615],[-92.8349,37.30615],[-92.83528,37.30616],[-92.83533,37.30617],[-92.83551,37.30617],[-92.83553,37.30617],[-92.83615,37.3062],[-92.83646,37.30621],[-92.83654,37.30622],[-92.83714,37.30625],[-92.83722,37.30625],[-92.83744,37.30626],[-92.83753,37.30627],[-92.83764,37.30627],[-92.83775,37.30628],[-92.83788,37.30629],[-92.83798,37.3063],[-92.8382,37.30632],[-92.83836,37.30635],[-92.83857,37.3064],[-92.83858,37.3064],[-92.83876,37.30644],[-92.83893,37.30648],[-92.83901,37.30651],[-92.83912,37.30654],[-92.8393,37.30659],[-92.83944,37.30664],[-92.83948,37.30665],[-92.83962,37.3067],[-92.83985,37.3068],[-92.84004,37.30688],[-92.8402,37.30696],[-92.84034,37.30704],[-92.84042,37.30708],[-92.84052,37.30714],[-92.84068,37.30724],[-92.84115,37.30754],[-92.84131,37.30764],[-92.84148,37.30775],[-92.84155,37.3078],[-92.84166,37.30786],[-92.84197,37.30806],[-92.84269,37.30852],[-92.84304,37.30874],[-92.84334,37.30893],[-92.8437,37.30914],[-92.84388,37.30925],[-92.84406,37.30935],[-92.84485,37.30981],[-92.84499,37.3099],[-92.84512,37.30998],[-92.84521,37.31003],[-92.84526,37.31007],[-92.84543,37.3102],[-92.84556,37.31031],[-92.84567,37.31042],[-92.84573,37.31047],[-92.84581,37.31056],[-92.8459,37.31066],[-92.84607,37.31086],[-92.84615,37.31096],[-92.84636,37.31121],[-92.84658,37.31148],[-92.84669,37.3116],[-92.8473,37.31231],[-92.8474,37.31243],[-92.84749,37.31253],[-92.84767,37.31271],[-92.84777,37.31281],[-92.84797,37.31298],[-92.84815,37.31312],[-92.84833,37.31324],[-92.84845,37.31332],[-92.84858,37.3134],[-92.8487,37.31347],[-92.84894,37.3136],[-92.84926,37.31375],[-92.84935,37.3138],[-92.85008,37.31415],[-92.85022,37.31422],[-92.85083,37.31451],[-92.85093,37.31456],[-92.85173,37.31495],[-92.8526,37.31537],[-92.85337,37.31574],[-92.85409,37.31609],[-92.85526,37.31664],[-92.85623,37.31711],[-92.85681,37.31739],[-92.85731,37.31763],[-92.85755,37.31775],[-92.85795,37.31794],[-92.85819,37.31806],[-92.85877,37.31833],[-92.85929,37.31859],[-92.85958,37.31872],[-92.8599,37.31887],[-92.86038,37.31911],[-92.86069,37.31926],[-92.86144,37.31962],[-92.86192,37.31988],[-92.86261,37.32025],[-92.86276,37.32033],[-92.8631,37.3205],[-92.8633,37.3206],[-92.86338,37.32063],[-92.86368,37.32074],[-92.86394,37.32083],[-92.86416,37.3209],[-92.86464,37.32104],[-92.8648,37.32108],[-92.86521,37.3212],[-92.8654,37.32126],[-92.86564,37.32133],[-92.8658,37.32138],[-92.86595,37.32143],[-92.86613,37.32152],[-92.86623,37.32156],[-92.86647,37.32168],[-92.8672,37.32214],[-92.8677,37.32247],[-92.8679,37.3226],[-92.86825,37.32282],[-92.86853,37.32299],[-92.86861,37.32304],[-92.86879,37.32315],[-92.86926,37.32346],[-92.86951,37.32362],[-92.86964,37.3237],[-92.86983,37.32382],[-92.87,37.32392],[-92.8701,37.32398],[-92.87031,37.32409],[-92.8705,37.32417],[-92.87063,37.32422],[-92.87078,37.32427],[-92.87086,37.32429],[-92.87103,37.32434],[-92.87122,37.32438],[-92.87135,37.3244],[-92.87153,37.32442],[-92.87167,37.32443],[-92.87171,37.32444],[-92.87184,37.32444],[-92.8719,37.32444],[-92.87212,37.32445],[-92.87252,37.32446],[-92.87303,37.32446],[-92.8737,37.32447],[-92.87393,37.32447],[-92.87461,37.32448],[-92.87521,37.32449],[-92.87589,37.3245],[-92.87671,37.3245],[-92.87696,37.32451],[-92.87716,37.32452],[-92.87723,37.32452],[-92.87742,37.32453],[-92.87756,37.32455],[-92.87771,37.32457],[-92.87786,37.3246],[-92.87798,37.32463],[-92.87804,37.32466],[-92.87808,37.32467],[-92.87823,37.32473],[-92.87824,37.32474],[-92.87832,37.32478],[-92.87843,37.32484],[-92.87849,37.32487],[-92.87861,37.32496],[-92.8787,37.32504],[-92.87887,37.32521],[-92.8789,37.32523],[-92.87905,37.32538],[-92.87915,37.32552],[-92.87975,37.32629],[-92.8798,37.32635],[-92.87987,37.32644],[-92.88012,37.32674],[-92.8802,37.32684],[-92.88024,37.32689],[-92.88035,37.32703],[-92.88054,37.32726],[-92.88062,37.32734],[-92.88067,37.3274],[-92.88075,37.32748],[-92.88089,37.32761],[-92.8809,37.32762],[-92.88097,37.32768],[-92.88106,37.32775],[-92.8811,37.32778],[-92.88121,37.32785],[-92.88123,37.32787],[-92.88177,37.32821],[-92.88257,37.32869],[-92.88361,37.32931],[-92.88368,37.32935],[-92.88407,37.32959],[-92.88431,37.32974],[-92.88459,37.3299],[-92.8848,37.33003],[-92.88533,37.33034],[-92.88576,37.3306],[-92.88587,37.33067],[-92.88596,37.33073],[-92.88647,37.33104],[-92.88649,37.33106],[-92.88653,37.33108],[-92.88665,37.33116],[-92.88667,37.33118],[-92.88679,37.33125],[-92.88682,37.33128],[-92.88704,37.33143],[-92.88715,37.33152],[-92.88737,37.33169],[-92.88748,37.33177],[-92.88765,37.33189],[-92.8877,37.33193],[-92.88781,37.33201],[-92.88802,37.33217],[-92.88836,37.33243],[-92.88846,37.33251],[-92.88862,37.33264],[-92.88883,37.33279],[-92.88915,37.33305],[-92.88916,37.33306],[-92.88927,37.33314],[-92.8895,37.33331],[-92.88977,37.33351],[-92.88983,37.33355],[-92.88994,37.33363],[-92.89,37.33367],[-92.89017,37.33379],[-92.89028,37.33386],[-92.89045,37.33397],[-92.89066,37.33409],[-92.89083,37.33418],[-92.8909,37.33421],[-92.89104,37.33429],[-92.89128,37.3344],[-92.89132,37.33442],[-92.89152,37.3345],[-92.89161,37.33454],[-92.89171,37.33458],[-92.89182,37.33462],[-92.89183,37.33462],[-92.89196,37.33467],[-92.89248,37.33484],[-92.89265,37.33489],[-92.89267,37.3349],[-92.89352,37.33516],[-92.89415,37.33535],[-92.89484,37.33556],[-92.89517,37.33565],[-92.89535,37.3357],[-92.8956,37.33575],[-92.8956,37.33575],[-92.89559,37.33612],[-92.8956,37.33679],[-92.8956,37.33679],[-92.89606,37.33689],[-92.89616,37.33692],[-92.8965,37.337],[-92.89686,37.33706],[-92.89691,37.33707],[-92.89713,37.3371],[-92.89732,37.33712],[-92.89772,37.33717],[-92.89815,37.33722],[-92.89849,37.33724],[-92.89885,37.33725],[-92.89975,37.33724],[-92.89981,37.33724],[-92.90022,37.33723],[-92.90157,37.33725],[-92.90215,37.33725],[-92.9024,37.33725],[-92.9024,37.33725],[-92.9024,37.33769],[-92.90239,37.33789],[-92.90239,37.33805],[-92.90238,37.33817],[-92.90238,37.33835],[-92.90238,37.33853],[-92.90237,37.33856],[-92.90234,37.33904],[-92.90233,37.33966],[-92.90234,37.34013],[-92.90233,37.34036],[-92.90231,37.34093],[-92.90231,37.34126],[-92.90231,37.34149],[-92.90232,37.34162],[-92.90234,37.34228],[-92.90234,37.34264],[-92.90234,37.34264],[-92.90246,37.34262],[-92.90274,37.34262],[-92.9032,37.34261],[-92.90342,37.34261],[-92.90381,37.34261],[-92.90449,37.34261],[-92.90494,37.34261],[-92.90517,37.3426],[-92.90568,37.34262],[-92.90614,37.34263],[-92.90662,37.34262],[-92.90676,37.34261],[-92.90684,37.34263],[-92.90684,37.34263],[-92.90685,37.34291],[-92.90686,37.34321],[-92.90687,37.34339],[-92.90687,37.34357],[-92.90688,37.34375],[-92.90688,37.34378],[-92.90687,37.34401],[-92.90686,37.34473],[-92.90685,37.34527],[-92.90685,37.34533],[-92.90683,37.34553],[-92.90684,37.34589],[-92.90684,37.34607],[-92.90685,37.34661],[-92.90685,37.34661],[-92.90702,37.34658],[-92.9073,37.34656],[-92.90761,37.34655],[-92.90787,37.34654],[-92.90824,37.34656],[-92.90858,37.34659]]}},{"type":"Feature","properties":{"_gpxType":"trk","name":"Houston Municipal Swimming Pool, North King Street, Houston, MO - North Park, Banning Street, Marshfield, MO - 1301 Banning St","coordinateProperties":{},"id":41},"geometry":{"type":"LineString","coordinates":[[-92.90858,37.34659],[-92.90872,37.34659],[-92.9088,37.3466],[-92.90886,37.34661],[-92.90901,37.34667],[-92.90913,37.34675],[-92.90933,37.34688],[-92.90944,37.34692],[-92.90953,37.34694],[-92.90955,37.34694],[-92.90957,37.34694],[-92.90959,37.34694],[-92.90975,37.34695],[-92.90982,37.34695],[-92.91003,37.34695],[-92.91005,37.34695],[-92.91022,37.34695],[-92.91027,37.34695],[-92.91029,37.34695],[-92.91045,37.34695],[-92.91048,37.34695],[-92.9105,37.34695],[-92.9109,37.34696],[-92.91095,37.34696],[-92.91118,37.34697],[-92.91163,37.34698],[-92.91186,37.34698],[-92.91186,37.34698],[-92.91188,37.34706],[-92.91191,37.34711],[-92.91194,37.34715],[-92.91195,37.34716],[-92.91201,37.34721],[-92.91218,37.34734],[-92.91218,37.34734],[-92.91218,37.34735],[-92.91218,37.34736],[-92.91218,37.34737],[-92.91218,37.34738],[-92.91218,37.34739],[-92.91219,37.34741],[-92.9122,37.34742],[-92.91221,37.34744],[-92.91222,37.34745],[-92.91223,37.34747],[-92.91225,37.34748],[-92.91226,37.34749],[-92.91228,37.3475],[-92.9123,37.34751],[-92.91232,37.34752],[-92.91234,37.34753],[-92.91236,37.34754],[-92.91238,37.34754],[-92.91241,37.34754],[-92.91243,37.34754],[-92.91245,37.34754],[-92.91247,37.34754],[-92.91249,37.34754],[-92.91251,37.34753],[-92.91253,37.34752],[-92.91255,37.34752],[-92.91257,37.34751],[-92.91259,37.3475],[-92.9126,37.34749],[-92.91262,37.34748],[-92.91263,37.34747],[-92.91264,37.34745],[-92.91265,37.34744],[-92.91266,37.34742],[-92.91267,37.34741],[-92.91267,37.34739],[-92.91268,37.34737],[-92.91268,37.34735],[-92.91268,37.34734],[-92.91268,37.34732],[-92.91267,37.3473],[-92.91267,37.34728],[-92.91281,37.34705],[-92.91294,37.34702],[-92.91309,37.347],[-92.91354,37.34699],[-92.91399,37.34698],[-92.91444,37.34698],[-92.91467,37.34698],[-92.91489,37.34698],[-92.91529,37.34698],[-92.91608,37.34698],[-92.91631,37.34698],[-92.91653,37.34699],[-92.91698,37.34699],[-92.91706,37.34699],[-92.91708,37.34699],[-92.91721,37.34699],[-92.91729,37.34699],[-92.91744,37.34699],[-92.91754,37.34699],[-92.91766,37.347],[-92.91789,37.347],[-92.91809,37.347],[-92.91825,37.34701],[-92.91834,37.34701],[-92.91879,37.34702],[-92.91902,37.34703],[-92.91925,37.34703],[-92.91938,37.34703],[-92.9197,37.34704],[-92.92045,37.34706],[-92.92087,37.34708],[-92.92132,37.34709],[-92.92166,37.3471],[-92.9224,37.34711],[-92.92309,37.34713],[-92.9233,37.34713],[-92.92398,37.34715],[-92.92422,37.34715],[-92.92438,37.34713],[-92.92448,37.34711],[-92.92461,37.34707],[-92.92464,37.34705],[-92.92474,37.34699],[-92.92488,37.3469],[-92.92508,37.34676],[-92.92577,37.34622],[-92.92606,37.346],[-92.92611,37.34596],[-92.92626,37.34585],[-92.92642,37.34572],[-92.92643,37.34572],[-92.92661,37.34559],[-92.92678,37.34544],[-92.92699,37.34527],[-92.92704,37.3452],[-92.92711,37.34507],[-92.92712,37.34503],[-92.92712,37.345],[-92.92712,37.3449],[-92.92712,37.34468],[-92.92711,37.34457],[-92.92711,37.34453],[-92.92711,37.34443],[-92.9271,37.34429],[-92.92712,37.34405],[-92.92713,37.34402],[-92.9272,37.34389],[-92.92731,37.34376],[-92.92733,37.34374],[-92.92739,37.34369],[-92.92761,37.3435],[-92.9277,37.34339],[-92.92775,37.34332],[-92.92777,37.3433],[-92.92782,37.34324],[-92.92786,37.34311],[-92.92786,37.34311],[-92.92814,37.34322],[-92.92827,37.34326],[-92.92847,37.34327]]}}]}