{"type":"FeatureCollection","features":[{"type":"Feature","properties":{"_gpxType":"trk","name":"Holiday Inn Express Marshfield, an IHG Hotel, Banning Street, Marshfield, MO - Fair Grove, MO - Walnut Grove, MO - 310 E Parkway St","coordinateProperties":{},"id":42},"geometry":{"type":"LineString","coordinates":[[-92.92816,37.34286],[-92.92818,37.34245],[-92.92818,37.34245],[-92.92786,37.34243],[-92.92786,37.34243],[-92.92786,37.34212],[-92.92787,37.34203],[-92.92788,37.34187],[-92.92792,37.34174],[-92.92804,37.34153],[-92.92811,37.34141],[-92.92821,37.34129],[-92.92831,37.34119],[-92.92831,37.34119],[-92.92866,37.34143],[-92.92903,37.34169],[-92.92913,37.34176],[-92.92945,37.342],[-92.92996,37.34236],[-92.93013,37.34248],[-92.9303,37.3426],[-92.93048,37.34272],[-92.93056,37.34277],[-92.93065,37.34283],[-92.93082,37.34295],[-92.93099,37.34307],[-92.93116,37.34319],[-92.93159,37.3435],[-92.93179,37.34365],[-92.93196,37.34377],[-92.93209,37.34366],[-92.93211,37.34364],[-92.93218,37.34358],[-92.93223,37.34352],[-92.93228,37.34346],[-92.93232,37.34341],[-92.93236,37.34336],[-92.93238,37.34332],[-92.93242,37.34326],[-92.93247,37.34314],[-92.9325,37.34306],[-92.93251,37.34304],[-92.93252,37.34297],[-92.93254,37.34286],[-92.93254,37.34283],[-92.93255,37.34276],[-92.93255,37.34262],[-92.93256,37.3423],[-92.93257,37.34219],[-92.93258,37.34194],[-92.93258,37.34193],[-92.93258,37.34187],[-92.93259,37.34183],[-92.93259,37.34179],[-92.9326,37.34174],[-92.93262,37.34169],[-92.93263,37.34166],[-92.93266,37.34158],[-92.93269,37.3415],[-92.93269,37.34148],[-92.93273,37.34142],[-92.93277,37.34134],[-92.93284,37.34124],[-92.93291,37.34116],[-92.93299,37.34107],[-92.93307,37.341],[-92.93319,37.34089],[-92.93331,37.34078],[-92.93334,37.34075],[-92.93365,37.34049],[-92.93373,37.34042],[-92.9339,37.34028],[-92.93402,37.34018],[-92.93415,37.3401],[-92.93428,37.34004],[-92.93439,37.33998],[-92.9345,37.33995],[-92.93451,37.33994],[-92.93461,37.33991],[-92.93469,37.33989],[-92.93477,37.33988],[-92.93479,37.33987],[-92.93488,37.33986],[-92.93494,37.33986],[-92.93501,37.33985],[-92.9351,37.33985],[-92.9352,37.33985],[-92.93528,37.33986],[-92.93559,37.33989],[-92.93573,37.33992],[-92.93588,37.33994],[-92.93609,37.33998],[-92.93634,37.34002],[-92.93653,37.34005],[-92.93672,37.34007],[-92.93686,37.34008],[-92.93703,37.34009],[-92.93722,37.34009],[-92.93723,37.34009],[-92.93743,37.3401],[-92.93767,37.3401],[-92.93786,37.34011],[-92.93864,37.34012],[-92.93954,37.34013],[-92.94044,37.34014],[-92.94114,37.34015],[-92.94185,37.34015],[-92.94232,37.34016],[-92.94256,37.34016],[-92.94275,37.34016],[-92.94292,37.34017],[-92.94302,37.34017],[-92.94314,37.34017],[-92.94352,37.34018],[-92.94382,37.34018],[-92.94411,37.34018],[-92.94453,37.3402],[-92.9453,37.34021],[-92.94575,37.34022],[-92.94598,37.34022],[-92.9462,37.34023],[-92.94643,37.34023],[-92.94665,37.34023],[-92.94688,37.34023],[-92.94739,37.34024],[-92.94811,37.34025],[-92.94856,37.34026],[-92.94895,37.34027],[-92.94957,37.34028],[-92.94972,37.34028],[-92.94987,37.3403],[-92.95002,37.34032],[-92.95012,37.34035],[-92.95022,37.34039],[-92.95031,37.34044],[-92.95039,37.34049],[-92.95042,37.34051],[-92.95053,37.3406],[-92.9506,37.34068],[-92.95065,37.34075],[-92.9507,37.34083],[-92.95073,37.34092],[-92.95076,37.34103],[-92.95077,37.34109],[-92.95078,37.34121],[-92.95078,37.3413],[-92.95078,37.34142],[-92.95078,37.3416],[-92.95078,37.34183],[-92.95078,37.34193],[-92.95077,37.34219],[-92.95077,37.34232],[-92.95076,37.34257],[-92.95074,37.34316],[-92.95074,37.34347],[-92.95074,37.34372],[-92.95073,37.34389],[-92.95073,37.34407],[-92.95073,37.34464],[-92.95073,37.34481],[-92.95073,37.34503],[-92.95074,37.34517],[-92.95076,37.34529],[-92.9508,37.34545],[-92.95085,37.34557],[-92.9509,37.34568],[-92.95096,37.34576],[-92.95101,37.34585],[-92.95105,37.3459],[-92.9511,37.34596],[-92.95113,37.34599],[-92.95116,37.34602],[-92.9512,37.34606],[-92.95129,37.34614],[-92.95148,37.34627],[-92.95168,37.34638],[-92.95201,37.34655],[-92.95223,37.34666],[-92.95317,37.34712],[-92.95336,37.34721],[-92.95411,37.34758],[-92.95416,37.3476],[-92.95533,37.34819],[-92.9556,37.34832],[-92.95579,37.34842],[-92.95637,37.34871],[-92.95662,37.34883],[-92.95681,37.34892],[-92.957,37.34902],[-92.95757,37.34931],[-92.95777,37.3494],[-92.95815,37.34959],[-92.95853,37.34978],[-92.95911,37.35007],[-92.96008,37.35054],[-92.96027,37.35063],[-92.96081,37.35089],[-92.96085,37.35091],[-92.96113,37.35105],[-92.96171,37.35134],[-92.96199,37.35147],[-92.9621,37.35153],[-92.96226,37.35161],[-92.96229,37.35162],[-92.96267,37.35181],[-92.96344,37.3522],[-92.96363,37.35229],[-92.96395,37.35246],[-92.96434,37.35265],[-92.96491,37.35293],[-92.96518,37.35307],[-92.96544,37.3532],[-92.96617,37.35356],[-92.96656,37.35375],[-92.96675,37.35384],[-92.96694,37.35394],[-92.96771,37.35432],[-92.96805,37.35448],[-92.9682,37.35456],[-92.96845,37.35467],[-92.96869,37.35477],[-92.96909,37.35493],[-92.96917,37.35496],[-92.96946,37.35504],[-92.96962,37.35508],[-92.96979,37.35512],[-92.97003,37.35516],[-92.97014,37.35517],[-92.97034,37.35519],[-92.97041,37.3552],[-92.9707,37.35523],[-92.97108,37.35524],[-92.97131,37.35524],[-92.97154,37.35525],[-92.97177,37.35525],[-92.9718,37.35525],[-92.97244,37.35527],[-92.97267,37.35527],[-92.97312,37.35528],[-92.97368,37.35529],[-92.97481,37.35532],[-92.97503,37.35532],[-92.97526,37.35533],[-92.97548,37.35533],[-92.97571,37.35534],[-92.97616,37.35535],[-92.97684,37.35536],[-92.97707,37.35536],[-92.97843,37.35539],[-92.97878,37.3554],[-92.97946,37.35542],[-92.9809,37.35545],[-92.98128,37.35546],[-92.98158,37.35547],[-92.98179,37.35547],[-92.98181,37.35547],[-92.98223,37.35548],[-92.9825,37.35551],[-92.98259,37.35553],[-92.98268,37.35556],[-92.9828,37.3556],[-92.98292,37.35567],[-92.98301,37.35573],[-92.98304,37.35576],[-92.98309,37.35579],[-92.98321,37.35596],[-92.98325,37.35604],[-92.98327,37.35608],[-92.98328,37.35612],[-92.98332,37.35624],[-92.98332,37.35669],[-92.9833,37.35696],[-92.98327,37.35763],[-92.98327,37.35786],[-92.98325,37.35819],[-92.98321,37.35917],[-92.9832,37.35962],[-92.9832,37.35973],[-92.98321,37.35984],[-92.98323,37.36006],[-92.98326,37.36026],[-92.98336,37.36056],[-92.98344,37.36077],[-92.98353,37.36095],[-92.98363,37.36112],[-92.9837,37.36122],[-92.98379,37.36135],[-92.98389,37.36147],[-92.98404,37.36162],[-92.98422,37.3618],[-92.98438,37.36193],[-92.98461,37.3621],[-92.98476,37.36219],[-92.98478,37.3622],[-92.98497,37.36231],[-92.98502,37.36234],[-92.98517,37.36241],[-92.98547,37.36254],[-92.98556,37.36257],[-92.98567,37.36261],[-92.98581,37.36265],[-92.98601,37.36271],[-92.9862,37.36275],[-92.98624,37.36276],[-92.98633,37.36277],[-92.9865,37.36279],[-92.98665,37.36281],[-92.98679,37.36282],[-92.98706,37.36284],[-92.98762,37.36285],[-92.98813,37.36286],[-92.98895,37.36288],[-92.9899,37.36291],[-92.99041,37.36291],[-92.99154,37.36294],[-92.99217,37.36296],[-92.99284,37.36298],[-92.99307,37.36298],[-92.99352,37.36299],[-92.99382,37.363],[-92.99404,37.363],[-92.9954,37.36303],[-92.99613,37.36305],[-92.99748,37.36308],[-92.99861,37.3631],[-92.99907,37.36311],[-92.99929,37.36312],[-93.0002,37.36314],[-93.00042,37.36314],[-93.00065,37.36315],[-93.00101,37.36316],[-93.00128,37.36316],[-93.00154,37.36316],[-93.0029,37.3632],[-93.00294,37.3632],[-93.00453,37.36324],[-93.00547,37.36325],[-93.00581,37.36325],[-93.00598,37.36325],[-93.00623,37.36324],[-93.00626,37.36324],[-93.00649,37.36323],[-93.00663,37.36323],[-93.00671,37.36323],[-93.00694,37.36322],[-93.00695,37.36322],[-93.00712,37.36323],[-93.00737,37.36324],[-93.00757,37.36326],[-93.00762,37.36326],[-93.00783,37.36328],[-93.00784,37.36328],[-93.00807,37.3633],[-93.00834,37.36331],[-93.00852,37.36332],[-93.00865,37.36332],[-93.00874,37.36332],[-93.00912,37.36333],[-93.00995,37.36334],[-93.01076,37.36336],[-93.01117,37.36336],[-93.01139,37.36337],[-93.01184,37.36338],[-93.01216,37.36339],[-93.01225,37.36339],[-93.0127,37.36339],[-93.01293,37.3634],[-93.0136,37.3634],[-93.01428,37.36342],[-93.01455,37.36342],[-93.01541,37.36343],[-93.01589,37.36343],[-93.01635,37.36344],[-93.01707,37.36345],[-93.01736,37.36345],[-93.01769,37.36346],[-93.01797,37.36346],[-93.01817,37.36347],[-93.01834,37.36347],[-93.01886,37.3635],[-93.01886,37.3635],[-93.01896,37.36351],[-93.01906,37.36352],[-93.01921,37.36354],[-93.01934,37.36357],[-93.01944,37.36359],[-93.01956,37.36361],[-93.01967,37.36365],[-93.01978,37.36368],[-93.01988,37.36371],[-93.02001,37.36375],[-93.02014,37.3638],[-93.0203,37.36387],[-93.02054,37.36398],[-93.02085,37.36412],[-93.02113,37.36425],[-93.02144,37.36439],[-93.02202,37.36467],[-93.02272,37.365],[-93.02331,37.36526],[-93.0237,37.36544],[-93.02396,37.36556],[-93.02409,37.36562],[-93.02428,37.36572],[-93.02437,37.36575],[-93.02482,37.36597],[-93.02503,37.36607],[-93.02506,37.36609],[-93.02523,37.36618],[-93.02536,37.36625],[-93.02546,37.36632],[-93.02557,37.36639],[-93.02575,37.36652],[-93.02589,37.36663],[-93.02612,37.3668],[-93.02615,37.36682],[-93.02619,37.36686],[-93.02638,37.367],[-93.02664,37.36719],[-93.02686,37.36736],[-93.027,37.36747],[-93.02708,37.36754],[-93.02715,37.36759],[-93.02727,37.36771],[-93.02734,37.36779],[-93.02738,37.36784],[-93.02742,37.36789],[-93.02749,37.368],[-93.0275,37.36802],[-93.02754,37.36809],[-93.02757,37.36818],[-93.02757,37.36819],[-93.02759,37.36825],[-93.02762,37.36836],[-93.02763,37.36843],[-93.02763,37.36852],[-93.02764,37.36858],[-93.02764,37.36867],[-93.02764,37.36889],[-93.02763,37.36923],[-93.02763,37.36926],[-93.02762,37.36961],[-93.02762,37.36972],[-93.02763,37.36982],[-93.02765,37.36997],[-93.02766,37.37001],[-93.02766,37.37003],[-93.02768,37.3701],[-93.0277,37.37017],[-93.02773,37.37023],[-93.02775,37.37029],[-93.02778,37.37033],[-93.02782,37.37039],[-93.02785,37.37043],[-93.0279,37.37049],[-93.02795,37.37055],[-93.02806,37.37064],[-93.02814,37.3707],[-93.02819,37.37073],[-93.02831,37.3708],[-93.02839,37.37083],[-93.02847,37.37086],[-93.02855,37.37089],[-93.0286,37.3709],[-93.02867,37.37092],[-93.02875,37.37094],[-93.02882,37.37095],[-93.0289,37.37096],[-93.02897,37.37097],[-93.02905,37.37098],[-93.02909,37.37098],[-93.02911,37.37098],[-93.02945,37.37098],[-93.02999,37.37098],[-93.03157,37.37099],[-93.03226,37.37099],[-93.03243,37.37099],[-93.03311,37.37099],[-93.03359,37.37099],[-93.03382,37.37099],[-93.03391,37.37099],[-93.03405,37.371],[-93.03473,37.371],[-93.0354,37.371],[-93.03573,37.37101],[-93.03596,37.37101],[-93.03619,37.37102],[-93.03641,37.37102],[-93.03664,37.37103],[-93.03687,37.37104],[-93.03732,37.37105],[-93.03771,37.37106],[-93.03793,37.37106],[-93.03807,37.37107],[-93.03816,37.37107],[-93.03861,37.37108],[-93.03863,37.37108],[-93.03902,37.37109],[-93.03907,37.37109],[-93.03941,37.3711],[-93.03952,37.37111],[-93.03982,37.37112],[-93.03997,37.37112],[-93.04036,37.37113],[-93.04121,37.37114],[-93.04178,37.37113],[-93.04204,37.37113],[-93.04223,37.37113],[-93.04239,37.37113],[-93.04246,37.37113],[-93.0427,37.37112],[-93.04291,37.37112],[-93.04311,37.37112],[-93.04314,37.37112],[-93.044,37.37112],[-93.04427,37.37112],[-93.04462,37.37112],[-93.04517,37.37112],[-93.0454,37.37112],[-93.04563,37.37112],[-93.04575,37.37112],[-93.04684,37.37112],[-93.04721,37.37112],[-93.04744,37.37112],[-93.04766,37.37112],[-93.0478,37.37112],[-93.04888,37.37112],[-93.04902,37.37112],[-93.04982,37.37112],[-93.05058,37.37112],[-93.05061,37.37112],[-93.05106,37.37112],[-93.05129,37.37112],[-93.05219,37.37113],[-93.0522,37.37113],[-93.05242,37.37113],[-93.05321,37.37113],[-93.05355,37.37113],[-93.05378,37.37113],[-93.05397,37.37114],[-93.05559,37.37115],[-93.05602,37.37115],[-93.0567,37.37115],[-93.05738,37.37116],[-93.0575,37.37116],[-93.05816,37.37117],[-93.05874,37.37118],[-93.05896,37.37118],[-93.05926,37.37118],[-93.05976,37.37119],[-93.06106,37.3712],[-93.06117,37.3712],[-93.06139,37.3712],[-93.06161,37.37121],[-93.06162,37.37121],[-93.06248,37.37121],[-93.06298,37.37122],[-93.0632,37.37122],[-93.06324,37.37122],[-93.06419,37.37123],[-93.06456,37.37124],[-93.06498,37.37124],[-93.06592,37.37125],[-93.06614,37.37126],[-93.06685,37.37127],[-93.06754,37.37128],[-93.06773,37.37128],[-93.06795,37.37128],[-93.06841,37.37129],[-93.06931,37.3713],[-93.07102,37.37133],[-93.07147,37.37133],[-93.07166,37.37134],[-93.07215,37.37137],[-93.07231,37.37139],[-93.07238,37.37141],[-93.07254,37.37144],[-93.07268,37.37149],[-93.07272,37.3715],[-93.07285,37.37155],[-93.07292,37.37157],[-93.07297,37.37159],[-93.07312,37.37167],[-93.07316,37.37169],[-93.07332,37.37178],[-93.07345,37.37187],[-93.07355,37.37195],[-93.07368,37.37207],[-93.07379,37.37218],[-93.07386,37.37227],[-93.07389,37.37231],[-93.07394,37.37238],[-93.07401,37.37246],[-93.07412,37.37262],[-93.07416,37.37268],[-93.07423,37.37278],[-93.07431,37.37291],[-93.07433,37.37294],[-93.07466,37.37341],[-93.07476,37.37357],[-93.07495,37.37385],[-93.07508,37.37403],[-93.07524,37.37423],[-93.07526,37.37425],[-93.07536,37.37437],[-93.07539,37.37439],[-93.0754,37.37439],[-93.07551,37.37449],[-93.07555,37.37452],[-93.07568,37.37461],[-93.07585,37.37471],[-93.07596,37.37477],[-93.07608,37.37482],[-93.07628,37.3749],[-93.07648,37.37496],[-93.07657,37.37499],[-93.07673,37.37503],[-93.07685,37.37505],[-93.07692,37.37505],[-93.07714,37.37507],[-93.07766,37.37508],[-93.07782,37.37508],[-93.07804,37.37508],[-93.07872,37.3751],[-93.07963,37.37511],[-93.07985,37.37512],[-93.08008,37.37512],[-93.08031,37.37512],[-93.08053,37.37513],[-93.08103,37.37513],[-93.08144,37.37514],[-93.08166,37.37514],[-93.08189,37.37515],[-93.08268,37.37516],[-93.0829,37.37517],[-93.08313,37.37517],[-93.08358,37.37518],[-93.08414,37.37519],[-93.08437,37.3752],[-93.08482,37.3752],[-93.0856,37.37522],[-93.08627,37.37523],[-93.08628,37.37523],[-93.08651,37.37523],[-93.08673,37.37524],[-93.08696,37.37524],[-93.08719,37.37525],[-93.08741,37.37525],[-93.08758,37.37525],[-93.08854,37.37527],[-93.08945,37.37529],[-93.08967,37.37529],[-93.0899,37.37529],[-93.09054,37.3753],[-93.091,37.37531],[-93.09122,37.37532],[-93.09145,37.37532],[-93.09168,37.37532],[-93.09244,37.37534],[-93.09292,37.37535],[-93.09314,37.37535],[-93.09427,37.37537],[-93.09495,37.37538],[-93.09552,37.37539],[-93.09642,37.37542],[-93.09665,37.37542],[-93.09688,37.37543],[-93.0971,37.37543],[-93.09733,37.37544],[-93.09775,37.37545],[-93.09778,37.37545],[-93.09823,37.37546],[-93.09867,37.37547],[-93.09891,37.37548],[-93.09914,37.37548],[-93.09961,37.37548],[-93.1,37.37551],[-93.10037,37.37558],[-93.10069,37.37567],[-93.10111,37.37581],[-93.10153,37.37595],[-93.10194,37.37608],[-93.10215,37.37615],[-93.10229,37.3762],[-93.10236,37.37623],[-93.10256,37.37631],[-93.10276,37.37639],[-93.10296,37.37648],[-93.10316,37.37656],[-93.10342,37.37666],[-93.10376,37.37682],[-93.10395,37.37691],[-93.10405,37.37695],[-93.10422,37.37705],[-93.10454,37.37728],[-93.10462,37.37734],[-93.10471,37.3774],[-93.10488,37.37753],[-93.10504,37.37765],[-93.10512,37.3777],[-93.10521,37.37777],[-93.10538,37.37789],[-93.10555,37.37801],[-93.10572,37.37812],[-93.10589,37.37824],[-93.10606,37.37836],[-93.1064,37.3786],[-93.10653,37.37869],[-93.10657,37.37872],[-93.10674,37.37884],[-93.10759,37.37943],[-93.10769,37.37951],[-93.10776,37.37955],[-93.10793,37.37967],[-93.10809,37.37979],[-93.10826,37.37991],[-93.10878,37.38027],[-93.11003,37.38114],[-93.11132,37.38204],[-93.11134,37.38206],[-93.11152,37.38217],[-93.11163,37.38225],[-93.11188,37.38238],[-93.11206,37.38247],[-93.11235,37.38258],[-93.11269,37.3827],[-93.11301,37.38277],[-93.11323,37.38281],[-93.11336,37.38283],[-93.11352,37.38284],[-93.11358,37.38285],[-93.11377,37.38286],[-93.11409,37.38287],[-93.11426,37.38286],[-93.11427,37.38285],[-93.11453,37.38284],[-93.11497,37.38277],[-93.11545,37.38265],[-93.11597,37.38249],[-93.116,37.38248],[-93.11651,37.38232],[-93.11724,37.38207],[-93.11746,37.38199],[-93.11763,37.38194],[-93.11798,37.38183],[-93.11831,37.38175],[-93.11853,37.38171],[-93.11859,37.3817],[-93.11894,37.38162],[-93.11929,37.38157],[-93.11964,37.38153],[-93.11981,37.3815],[-93.11994,37.38148],[-93.12006,37.38147],[-93.12036,37.38144],[-93.12061,37.38143],[-93.12076,37.38142],[-93.1209,37.38141],[-93.12121,37.38139],[-93.12152,37.38138],[-93.12205,37.38135],[-93.12211,37.38135],[-93.1224,37.38133],[-93.12279,37.38131],[-93.12291,37.3813],[-93.12331,37.38128],[-93.12362,37.38127],[-93.12386,37.38126],[-93.12398,37.38125],[-93.12413,37.38123],[-93.12444,37.38123],[-93.12458,37.38121],[-93.12477,37.38118],[-93.12481,37.38118],[-93.12531,37.3811],[-93.12547,37.38107],[-93.1257,37.38104],[-93.12571,37.38104],[-93.12592,37.381],[-93.12614,37.38095],[-93.12635,37.38091],[-93.12636,37.38091],[-93.12673,37.3808],[-93.12702,37.3807],[-93.12738,37.38053],[-93.12758,37.38045],[-93.12794,37.38029],[-93.12797,37.38027],[-93.12817,37.38018],[-93.12837,37.38009],[-93.1287,37.37994],[-93.12877,37.37992],[-93.12892,37.37987],[-93.12898,37.37986],[-93.1292,37.3798],[-93.12948,37.37975],[-93.12984,37.37974],[-93.12986,37.37974],[-93.13009,37.37975],[-93.13032,37.37975],[-93.13033,37.37975],[-93.13085,37.37976],[-93.1313,37.37975],[-93.13175,37.37975],[-93.13182,37.37975],[-93.13226,37.37975],[-93.1331,37.37976],[-93.13342,37.37978],[-93.13486,37.37985],[-93.13551,37.37987],[-93.13657,37.37991],[-93.13657,37.37991],[-93.13672,37.37998],[-93.13692,37.38007],[-93.13731,37.38025],[-93.1375,37.38035],[-93.13775,37.38046],[-93.13786,37.38056],[-93.13786,37.38081],[-93.13784,37.38144],[-93.13784,37.38145],[-93.13783,37.3818],[-93.13782,37.38198],[-93.13782,37.38199],[-93.1378,37.3827],[-93.1378,37.38274],[-93.13781,37.3828],[-93.13781,37.38285],[-93.13782,37.38288],[-93.13782,37.38289],[-93.13782,37.38291],[-93.13784,37.38297],[-93.13786,37.38303],[-93.1379,37.38311],[-93.13795,37.38317],[-93.13799,37.38323],[-93.13805,37.38329],[-93.13811,37.38335],[-93.13817,37.38339],[-93.13824,37.38343],[-93.13829,37.38346],[-93.13835,37.38349],[-93.13839,37.38351],[-93.13848,37.38354],[-93.13854,37.38356],[-93.1386,37.38357],[-93.13867,37.38358],[-93.13874,37.38359],[-93.13881,37.3836],[-93.13888,37.38361],[-93.13896,37.38361],[-93.13897,37.38361],[-93.13916,37.38362],[-93.13939,37.38362],[-93.13941,37.38362],[-93.13948,37.38363],[-93.13962,37.38363],[-93.13986,37.38364],[-93.14036,37.38365],[-93.14075,37.38366],[-93.14099,37.38367],[-93.1412,37.38367],[-93.14122,37.38367],[-93.14143,37.38368],[-93.14187,37.38369],[-93.14226,37.3837],[-93.14292,37.38372],[-93.14369,37.38373],[-93.14408,37.38374],[-93.14424,37.38375],[-93.14431,37.38375],[-93.14465,37.38376],[-93.14492,37.38376],[-93.14544,37.38378],[-93.14644,37.3838],[-93.1468,37.3838],[-93.14742,37.38382],[-93.14799,37.38383],[-93.14852,37.38385],[-93.14868,37.38385],[-93.14875,37.38385],[-93.14954,37.38389],[-93.15078,37.38394],[-93.15123,37.38396],[-93.15129,37.38396]]}},{"type":"Feature","properties":{"_gpxType":"trk","name":"Holiday Inn Express Marshfield, an IHG Hotel, Banning Street, Marshfield, MO - Fair Grove, MO - Walnut Grove, MO - 310 E Parkway St","coordinateProperties":{},"id":42},"geometry":{"type":"LineString","coordinates":[[-93.15129,37.38396],[-93.15141,37.38397],[-93.15205,37.384],[-93.15245,37.38402],[-93.15358,37.38407],[-93.15448,37.38411],[-93.15469,37.38412],[-93.15497,37.38414],[-93.15521,37.38417],[-93.15547,37.38421],[-93.15567,37.38426],[-93.1558,37.38429],[-93.15582,37.3843],[-93.15593,37.38432],[-93.1561,37.38438],[-93.15626,37.38444],[-93.15658,37.38457],[-93.15695,37.38473],[-93.15697,37.38473],[-93.15834,37.38533],[-93.15855,37.38542],[-93.15875,37.3855],[-93.15895,37.38558],[-93.15897,37.38559],[-93.15912,37.38565],[-93.15925,37.38571],[-93.15934,37.38574],[-93.15952,37.38582],[-93.15959,37.38585],[-93.15979,37.38595],[-93.16,37.38604],[-93.16,37.38604],[-93.16034,37.38618],[-93.16068,37.38633],[-93.1612,37.38655],[-93.16152,37.38669],[-93.16172,37.38678],[-93.16226,37.38701],[-93.16246,37.3871],[-93.16253,37.38713],[-93.16306,37.38735],[-93.1635,37.38751],[-93.16353,37.38752],[-93.16367,37.38756],[-93.16375,37.38758],[-93.16385,37.38761],[-93.16405,37.38766],[-93.16449,37.38775],[-93.16481,37.38779],[-93.16507,37.38782],[-93.16522,37.38784],[-93.16544,37.38785],[-93.16552,37.38786],[-93.16575,37.38786],[-93.16583,37.38786],[-93.16642,37.38788],[-93.16665,37.38788],[-93.16687,37.38788],[-93.16688,37.38788],[-93.1671,37.38789],[-93.16733,37.3879],[-93.16801,37.38791],[-93.16823,37.38792],[-93.16842,37.38792],[-93.16869,37.38793],[-93.16914,37.38794],[-93.16937,37.38794],[-93.17013,37.38795],[-93.17058,37.38796],[-93.17122,37.38798],[-93.1721,37.388],[-93.17278,37.38801],[-93.17323,37.38803],[-93.17368,37.38804],[-93.17414,37.38805],[-93.17436,37.38805],[-93.17459,37.38806],[-93.17482,37.38806],[-93.17498,37.38806],[-93.17549,37.38807],[-93.1764,37.38809],[-93.17663,37.3881],[-93.1767,37.3881],[-93.17685,37.3881],[-93.17789,37.38812],[-93.17815,37.38812],[-93.1785,37.38813],[-93.17862,37.38813],[-93.17879,37.38813],[-93.1789,37.38813],[-93.17895,37.38813],[-93.17907,37.38813],[-93.17917,37.38813],[-93.17924,37.38812],[-93.17932,37.38811],[-93.17942,37.3881],[-93.17952,37.38808],[-93.17965,37.38806],[-93.17976,37.38803],[-93.17986,37.38801],[-93.18001,37.38796],[-93.18009,37.38794],[-93.18022,37.38789],[-93.18033,37.38786],[-93.18051,37.38779],[-93.18068,37.38774],[-93.1807,37.38773],[-93.18079,37.38771],[-93.18089,37.38768],[-93.18101,37.38765],[-93.18113,37.38763],[-93.18129,37.38762],[-93.18139,37.38762],[-93.1815,37.38761],[-93.18166,37.38762],[-93.18181,37.38764],[-93.18197,37.38766],[-93.1821,37.38769],[-93.18221,37.38772],[-93.18234,37.38777],[-93.18248,37.38782],[-93.18271,37.38791],[-93.18279,37.38794],[-93.18293,37.38799],[-93.18303,37.38803],[-93.18311,37.38806],[-93.18318,37.38808],[-93.18333,37.38813],[-93.18353,37.38818],[-93.18361,37.38819],[-93.18369,37.38821],[-93.18375,37.38822],[-93.18383,37.38823],[-93.18392,37.38824],[-93.18411,37.38825],[-93.18422,37.38825],[-93.18444,37.38825],[-93.18453,37.38826],[-93.18489,37.38826],[-93.18535,37.38827],[-93.18549,37.38828],[-93.18625,37.38829],[-93.18648,37.38829],[-93.18661,37.3883],[-93.18693,37.3883],[-93.18716,37.38831],[-93.18738,37.38831],[-93.18746,37.38832],[-93.18761,37.38832],[-93.18784,37.38832],[-93.18806,37.38833],[-93.18817,37.38833],[-93.18829,37.38833],[-93.18851,37.38834],[-93.18942,37.38835],[-93.18983,37.38836],[-93.1901,37.38837],[-93.19078,37.38838],[-93.19146,37.3884],[-93.19168,37.3884],[-93.19239,37.38842],[-93.19324,37.38843],[-93.19372,37.38844],[-93.19394,37.38844],[-93.19462,37.38846],[-93.19485,37.38846],[-93.19507,37.38847],[-93.1953,37.38847],[-93.1954,37.38847],[-93.19553,37.38848],[-93.19575,37.38848],[-93.19663,37.3885],[-93.19666,37.3885],[-93.19711,37.38851],[-93.19745,37.38851],[-93.19756,37.38851],[-93.19779,37.38851],[-93.19847,37.38851],[-93.19892,37.38852],[-93.19937,37.38853],[-93.1996,37.38853],[-93.20072,37.38855],[-93.20144,37.38857],[-93.20163,37.38857],[-93.20185,37.38858],[-93.20208,37.38858],[-93.20231,37.38859],[-93.20242,37.38859],[-93.20322,37.38862],[-93.20344,37.38862],[-93.20366,37.38863],[-93.20377,37.38863],[-93.20412,37.38864],[-93.20434,37.38865],[-93.20441,37.38865],[-93.2048,37.38866],[-93.20502,37.38867],[-93.20521,37.38867],[-93.20525,37.38867],[-93.2057,37.38868],[-93.20572,37.38868],[-93.20634,37.3887],[-93.20638,37.3887],[-93.20661,37.38871],[-93.20706,37.38872],[-93.2072,37.38872],[-93.20782,37.38874],[-93.20854,37.38876],[-93.20899,37.38877],[-93.20922,37.38878],[-93.20939,37.38878],[-93.21012,37.3888],[-93.21046,37.38881],[-93.21091,37.38882],[-93.21159,37.38884],[-93.21204,37.38886],[-93.21227,37.38886],[-93.21249,37.38887],[-93.21272,37.38887],[-93.2134,37.38889],[-93.21363,37.3889],[-93.21385,37.38891],[-93.21408,37.38891],[-93.21447,37.38892],[-93.21493,37.38894],[-93.21514,37.38894],[-93.21539,37.38895],[-93.21584,37.38896],[-93.21629,37.38897],[-93.21705,37.38899],[-93.2172,37.389],[-93.21783,37.38901],[-93.21788,37.38901],[-93.21817,37.38902],[-93.21833,37.38902],[-93.21898,37.38904],[-93.21943,37.38905],[-93.21966,37.38906],[-93.22011,37.38907],[-93.22054,37.38908],[-93.2211,37.3891],[-93.22178,37.38912],[-93.22246,37.38914],[-93.22302,37.38915],[-93.2231,37.38916],[-93.2235,37.38917],[-93.22354,37.38917],[-93.22372,37.38917],[-93.22377,37.38917],[-93.22395,37.38918],[-93.22468,37.3892],[-93.22535,37.38922],[-93.22553,37.38922],[-93.22558,37.38922],[-93.22636,37.38925],[-93.22658,37.38925],[-93.22726,37.38927],[-93.22749,37.38927],[-93.22772,37.38928],[-93.2279,37.38928],[-93.22858,37.3893],[-93.22884,37.38931],[-93.2293,37.38932],[-93.22952,37.38933],[-93.22975,37.38933],[-93.22998,37.38934],[-93.23026,37.38934],[-93.23031,37.38935],[-93.23122,37.38937],[-93.23167,37.38939],[-93.2328,37.38942],[-93.23344,37.38944],[-93.23361,37.38944],[-93.23406,37.38945],[-93.23411,37.38945],[-93.23429,37.38946],[-93.23451,37.38946],[-93.23476,37.38947],[-93.23497,37.38949],[-93.23499,37.3895],[-93.2352,37.38953],[-93.2354,37.38959],[-93.23584,37.38973],[-93.23603,37.38983],[-93.23607,37.38985],[-93.23621,37.38994],[-93.23636,37.39003],[-93.23639,37.39005],[-93.23656,37.39017],[-93.23662,37.39021],[-93.23673,37.39029],[-93.23694,37.39045],[-93.23721,37.39065],[-93.23739,37.39078],[-93.23749,37.39085],[-93.2379,37.39114],[-93.23805,37.39125],[-93.23838,37.39149],[-93.23861,37.39165],[-93.23866,37.39169],[-93.23878,37.39177],[-93.23895,37.39189],[-93.23901,37.39193],[-93.23912,37.39201],[-93.2392,37.39207],[-93.23945,37.39225],[-93.23955,37.39232],[-93.2398,37.39248],[-93.23993,37.39257],[-93.23997,37.3926],[-93.24011,37.39267],[-93.24035,37.39279],[-93.24059,37.39288],[-93.24074,37.39294],[-93.24091,37.393],[-93.24118,37.39309],[-93.24137,37.39314],[-93.24149,37.39318],[-93.24159,37.39319],[-93.24173,37.39322],[-93.24196,37.39326],[-93.24227,37.3933],[-93.24247,37.39331],[-93.24293,37.39333],[-93.24387,37.39335],[-93.24433,37.39336],[-93.24523,37.39338],[-93.24704,37.39342],[-93.24746,37.39343],[-93.24791,37.39343],[-93.24795,37.39343],[-93.24812,37.39342],[-93.24817,37.39341],[-93.24836,37.39339],[-93.2484,37.39338],[-93.24884,37.3933],[-93.24895,37.39327],[-93.24903,37.39326],[-93.24913,37.39326],[-93.24933,37.39325],[-93.24936,37.39325],[-93.24949,37.39326],[-93.24967,37.39328],[-93.24981,37.39331],[-93.25003,37.39336],[-93.25024,37.3934],[-93.25046,37.39344],[-93.25047,37.39344],[-93.25069,37.39346],[-93.25114,37.3935],[-93.2518,37.39352],[-93.25236,37.39353],[-93.25303,37.39354],[-93.25306,37.39354],[-93.25367,37.39355],[-93.25371,37.39355],[-93.25394,37.39356],[-93.254,37.39357],[-93.25416,37.39359],[-93.25426,37.3936],[-93.25447,37.39364],[-93.25465,37.39369],[-93.25481,37.39374],[-93.25486,37.39376],[-93.25489,37.39377],[-93.25506,37.39384],[-93.25514,37.39387],[-93.25525,37.39394],[-93.25539,37.39403],[-93.25542,37.39405],[-93.25561,37.3942],[-93.25575,37.39432],[-93.25591,37.39451],[-93.2561,37.39472],[-93.25666,37.39537],[-93.25679,37.39552],[-93.25691,37.39567],[-93.25704,37.39582],[-93.25731,37.39613],[-93.25747,37.39634],[-93.25754,37.39642],[-93.25766,37.39653],[-93.25783,37.3967],[-93.25788,37.39674],[-93.25802,37.39685],[-93.25813,37.39693],[-93.25816,37.39695],[-93.25825,37.397],[-93.25833,37.39705],[-93.25842,37.39709],[-93.25851,37.39714],[-93.2586,37.39718],[-93.25873,37.39722],[-93.25883,37.39725],[-93.25894,37.39728],[-93.25906,37.39731],[-93.25913,37.39732],[-93.25917,37.39732],[-93.25921,37.39733],[-93.25931,37.39735],[-93.25939,37.39735],[-93.25943,37.39736],[-93.25951,37.39736],[-93.25961,37.39737],[-93.2599,37.39738],[-93.26075,37.3974],[-93.26097,37.3974],[-93.2612,37.39741],[-93.26128,37.39741],[-93.26165,37.39741],[-93.26188,37.39742],[-93.26256,37.39743],[-93.26294,37.39744],[-93.26333,37.39744],[-93.26339,37.39744],[-93.26356,37.39745],[-93.26362,37.39745],[-93.2643,37.39746],[-93.26446,37.39747],[-93.26469,37.39747],[-93.26475,37.39747],[-93.26502,37.39748],[-93.26514,37.39748],[-93.2652,37.39748],[-93.26537,37.39748],[-93.26543,37.39748],[-93.26559,37.39749],[-93.26582,37.39749],[-93.26588,37.39749],[-93.26605,37.3975],[-93.26718,37.39752],[-93.26741,37.39753],[-93.26747,37.39753],[-93.26763,37.39753],[-93.26769,37.39753],[-93.26786,37.39754],[-93.26805,37.39754],[-93.26814,37.39754],[-93.26831,37.39755],[-93.26854,37.39755],[-93.26944,37.39757],[-93.26967,37.39757],[-93.27001,37.39758],[-93.27039,37.39759],[-93.27145,37.39762],[-93.27153,37.39762],[-93.27186,37.39763],[-93.27288,37.39765],[-93.27299,37.39765],[-93.27379,37.39767],[-93.27401,37.39767],[-93.27402,37.39767],[-93.27447,37.39768],[-93.27469,37.39768],[-93.27594,37.39771],[-93.27605,37.39771],[-93.27673,37.39772],[-93.27718,37.39772],[-93.27741,37.39773],[-93.27778,37.39773],[-93.27786,37.39773],[-93.27809,37.39774],[-93.27832,37.39774],[-93.2795,37.39776],[-93.28038,37.39777],[-93.28083,37.39778],[-93.28128,37.39779],[-93.28232,37.39781],[-93.28286,37.39782],[-93.283,37.39782],[-93.28323,37.39782],[-93.28414,37.39784],[-93.28436,37.39784],[-93.28459,37.39784],[-93.28478,37.39785],[-93.28481,37.39785],[-93.28504,37.39785],[-93.28549,37.39786],[-93.28572,37.39786],[-93.28595,37.39786],[-93.28617,37.39787],[-93.28685,37.39787],[-93.28696,37.39788],[-93.2873,37.39788],[-93.28753,37.39789],[-93.28764,37.39789],[-93.28776,37.39789],[-93.28784,37.39789],[-93.28798,37.39789],[-93.28813,37.39788],[-93.28821,37.39788],[-93.2883,37.39788],[-93.28837,37.39787],[-93.28843,37.39786],[-93.28844,37.39786],[-93.28857,37.39784],[-93.28865,37.39782],[-93.28869,37.39781],[-93.28883,37.39777],[-93.2889,37.39774],[-93.28897,37.39771],[-93.28913,37.39763],[-93.28925,37.39757],[-93.28936,37.39751],[-93.28944,37.39747],[-93.28947,37.39746],[-93.28957,37.39741],[-93.28964,37.39738],[-93.28966,37.39737],[-93.28972,37.39734],[-93.28979,37.39732],[-93.28984,37.3973],[-93.28986,37.39729],[-93.29,37.39726],[-93.29006,37.39724],[-93.29015,37.39722],[-93.29028,37.39721],[-93.29029,37.39721],[-93.29042,37.3972],[-93.2905,37.3972],[-93.29056,37.3972],[-93.29073,37.39722],[-93.29075,37.39722],[-93.29088,37.39725],[-93.29095,37.39726],[-93.29096,37.39726],[-93.29105,37.39729],[-93.29114,37.39732],[-93.29136,37.39741],[-93.29138,37.39742],[-93.29155,37.39751],[-93.29159,37.39753],[-93.29174,37.39761],[-93.29203,37.39776],[-93.29214,37.39781],[-93.29225,37.39785],[-93.29232,37.39788],[-93.29253,37.39792],[-93.29261,37.39794],[-93.29271,37.39795],[-93.29285,37.39796],[-93.29286,37.39796],[-93.29297,37.39797],[-93.29308,37.39797],[-93.29313,37.39797],[-93.2933,37.39798],[-93.29348,37.39798],[-93.29353,37.39798],[-93.29421,37.39799],[-93.29443,37.398],[-93.29466,37.398],[-93.29483,37.398],[-93.29489,37.398],[-93.29511,37.39801],[-93.29534,37.39801],[-93.29579,37.39802],[-93.29647,37.39803],[-93.29689,37.39804],[-93.29692,37.39804],[-93.29715,37.39805],[-93.29738,37.39805],[-93.2976,37.39806],[-93.29783,37.39806],[-93.29805,37.39806],[-93.29828,37.39807],[-93.29853,37.39807],[-93.29875,37.39808],[-93.29941,37.39809],[-93.29964,37.39809],[-93.30009,37.3981],[-93.30077,37.3981],[-93.30098,37.39811],[-93.301,37.39811],[-93.30122,37.39811],[-93.30145,37.39811],[-93.30168,37.39812],[-93.30208,37.39813],[-93.30293,37.39814],[-93.30357,37.39815],[-93.30366,37.39815],[-93.30428,37.39817],[-93.3048,37.39818],[-93.30502,37.39818],[-93.30518,37.39819],[-93.30548,37.39819],[-93.30562,37.39819],[-93.3057,37.39819],[-93.30581,37.39819],[-93.30603,37.39819],[-93.30615,37.39818],[-93.30629,37.39817],[-93.30638,37.39816],[-93.30639,37.39816],[-93.30649,37.39814],[-93.3066,37.39811],[-93.3067,37.39808],[-93.30679,37.39805],[-93.3068,37.39804],[-93.3069,37.398],[-93.307,37.39795],[-93.3071,37.39789],[-93.30719,37.39784],[-93.30728,37.39778],[-93.30736,37.39772],[-93.30742,37.39767],[-93.30749,37.39761],[-93.30751,37.39759],[-93.30758,37.39752],[-93.30764,37.39745],[-93.30767,37.39741],[-93.30775,37.3973],[-93.30784,37.39717],[-93.30786,37.39714],[-93.30797,37.39698],[-93.30807,37.39682],[-93.30817,37.39666],[-93.30828,37.3965],[-93.30832,37.39643],[-93.30838,37.39634],[-93.30858,37.39601],[-93.30887,37.39556],[-93.30889,37.39553],[-93.30898,37.3954],[-93.30908,37.39528],[-93.30913,37.39523],[-93.30918,37.39517],[-93.3093,37.39507],[-93.30943,37.39497],[-93.30944,37.39497],[-93.30955,37.3949],[-93.3097,37.39483],[-93.30985,37.39477],[-93.30998,37.39472],[-93.31013,37.39469],[-93.31028,37.39467],[-93.31041,37.39465],[-93.31069,37.39465],[-93.31095,37.39466],[-93.31131,37.39467],[-93.3114,37.39467],[-93.31176,37.39468],[-93.31244,37.3947],[-93.31288,37.39471],[-93.31334,37.39472],[-93.31357,37.39473],[-93.31379,37.39473],[-93.31402,37.39474],[-93.31425,37.39475],[-93.31447,37.39475],[-93.31493,37.39476],[-93.31565,37.39478],[-93.31588,37.39479],[-93.3161,37.39479],[-93.31633,37.3948],[-93.31656,37.3948],[-93.31678,37.39481],[-93.31701,37.39481],[-93.31705,37.39482],[-93.31724,37.39482],[-93.31746,37.39483],[-93.31769,37.39484],[-93.31791,37.39484],[-93.31814,37.39485],[-93.31837,37.39486],[-93.3195,37.3949],[-93.31995,37.39492],[-93.32018,37.39492],[-93.32047,37.39494],[-93.32085,37.39495],[-93.32102,37.39496],[-93.32108,37.39496],[-93.32131,37.39496],[-93.32139,37.39496],[-93.32176,37.39496],[-93.32184,37.39496],[-93.32199,37.39496],[-93.32244,37.39495],[-93.32267,37.39495],[-93.32289,37.39495],[-93.32312,37.39495],[-93.32359,37.39494],[-93.3243,37.39493],[-93.32453,37.39493],[-93.32476,37.39493],[-93.32566,37.39492],[-93.3258,37.39492],[-93.32589,37.39492],[-93.32612,37.39492],[-93.32657,37.39492],[-93.32678,37.39491],[-93.32679,37.39491],[-93.32702,37.39491],[-93.32711,37.39491],[-93.32725,37.39492],[-93.3274,37.39492],[-93.32747,37.39493],[-93.32781,37.39495],[-93.32815,37.39497],[-93.3286,37.39501],[-93.3289,37.39503],[-93.32913,37.39504],[-93.32935,37.39506],[-93.32958,37.39507],[-93.32981,37.39509],[-93.33003,37.3951],[-93.33026,37.39512],[-93.33116,37.39518],[-93.33138,37.3952],[-93.33161,37.39521],[-93.33184,37.39523],[-93.33185,37.39523],[-93.33206,37.39524],[-93.33229,37.39526],[-93.33251,37.39527],[-93.33274,37.39529],[-93.33296,37.3953],[-93.33318,37.39532],[-93.33319,37.39532],[-93.33341,37.39533],[-93.33341,37.39534],[-93.3336,37.39535],[-93.33386,37.39539],[-93.3342,37.39551],[-93.3344,37.39558],[-93.33461,37.39565],[-93.33482,37.39573],[-93.33502,37.3958],[-93.33523,37.39587],[-93.33544,37.39594],[-93.33564,37.39602],[-93.33626,37.39624],[-93.33668,37.39638],[-93.33709,37.39653],[-93.3373,37.3966],[-93.3375,37.39668],[-93.33792,37.39682],[-93.33813,37.3969],[-93.33875,37.39712],[-93.33883,37.39714],[-93.33895,37.39719],[-93.33956,37.39743],[-93.33977,37.39751],[-93.33983,37.39753],[-93.34017,37.39766],[-93.34073,37.39788],[-93.34086,37.39793],[-93.34099,37.39798],[-93.34119,37.39806],[-93.34159,37.39821],[-93.34201,37.39837],[-93.34209,37.3984],[-93.34221,37.39845],[-93.34241,37.39853],[-93.34282,37.39869],[-93.34323,37.39884],[-93.34387,37.39908],[-93.34412,37.39918],[-93.34453,37.39934],[-93.34473,37.39942],[-93.34493,37.3995],[-93.34595,37.39989],[-93.34607,37.39994],[-93.34656,37.40013],[-93.3468,37.40022],[-93.34704,37.40031],[-93.34716,37.40037],[-93.34723,37.40041],[-93.34736,37.40047],[-93.34747,37.40053],[-93.3477,37.40069],[-93.3477,37.4007],[-93.34781,37.40078],[-93.34787,37.40084],[-93.34794,37.40091],[-93.34805,37.40103],[-93.34817,37.40116],[-93.34825,37.40123],[-93.34836,37.40133],[-93.34847,37.40141],[-93.3486,37.40149],[-93.34873,37.40157],[-93.34887,37.40164],[-93.34899,37.40169],[-93.3491,37.40173],[-93.34921,37.40177],[-93.34952,37.40188],[-93.34952,37.40188],[-93.34959,37.40194],[-93.34962,37.40197],[-93.34965,37.40201],[-93.34968,37.40204],[-93.34972,37.40209],[-93.34979,37.40219],[-93.34979,37.40255],[-93.34977,37.40301],[-93.34974,37.4036],[-93.34973,37.4038],[-93.34968,37.40438],[-93.34967,37.40459],[-93.34966,37.40495],[-93.34965,37.40503],[-93.34965,37.40503],[-93.34971,37.40506],[-93.34975,37.40508],[-93.34978,37.40509],[-93.3498,37.4051],[-93.34982,37.4051],[-93.34983,37.40511],[-93.34984,37.40511],[-93.34986,37.40511],[-93.34987,37.4051],[-93.3499,37.40509],[-93.34992,37.40507],[-93.34996,37.40505],[-93.34998,37.40457],[-93.35003,37.40335],[-93.35005,37.40308],[-93.35006,37.4029],[-93.35007,37.4028],[-93.35007,37.40275],[-93.35007,37.4027],[-93.35008,37.40238],[-93.35008,37.40238],[-93.35016,37.40225],[-93.35019,37.40218],[-93.35023,37.40211],[-93.35026,37.40209],[-93.3503,37.40207],[-93.35032,37.40205],[-93.3504,37.40203],[-93.35051,37.402],[-93.35075,37.40199],[-93.35078,37.40199],[-93.35086,37.40199],[-93.35096,37.402],[-93.35108,37.402],[-93.35109,37.40201],[-93.3512,37.40202],[-93.35131,37.40203],[-93.3514,37.40205],[-93.35162,37.4021],[-93.35181,37.40215],[-93.35205,37.40224],[-93.35206,37.40225],[-93.35266,37.40248],[-93.35273,37.4025],[-93.35287,37.40256],[-93.35307,37.40264],[-93.35322,37.4027],[-93.35348,37.40279],[-93.35362,37.40284],[-93.35369,37.40286],[-93.3539,37.40294],[-93.35411,37.403],[-93.35431,37.40306],[-93.35432,37.40306],[-93.35454,37.40311],[-93.35468,37.40315],[-93.35496,37.4032],[-93.35497,37.4032],[-93.35519,37.40324],[-93.3552,37.40324],[-93.3554,37.40326],[-93.35542,37.40326],[-93.35572,37.40328],[-93.35587,37.40329],[-93.3561,37.4033],[-93.35614,37.4033],[-93.35632,37.40331],[-93.357,37.40334],[-93.35745,37.40335],[-93.35747,37.40335],[-93.35791,37.40337],[-93.35836,37.40338],[-93.35859,37.40339],[-93.3588,37.40339],[-93.35881,37.40339],[-93.35949,37.40341],[-93.35994,37.40343],[-93.36017,37.40344],[-93.36039,37.40344],[-93.36085,37.40346],[-93.36107,37.40347],[-93.3613,37.40348],[-93.36198,37.4035],[-93.36217,37.40351],[-93.3622,37.40351],[-93.36266,37.40352],[-93.36288,37.40353],[-93.36311,37.40354],[-93.36334,37.40355],[-93.36339,37.40355],[-93.36402,37.40356],[-93.36447,37.40357],[-93.36458,37.40357],[-93.36492,37.40358],[-93.36537,37.40359],[-93.36583,37.40359],[-93.36741,37.40362],[-93.36786,37.40363],[-93.36809,37.40363],[-93.36832,37.40363],[-93.36877,37.40364],[-93.36915,37.40365],[-93.36991,37.40366],[-93.37006,37.40366],[-93.37028,37.40366],[-93.37051,37.40366],[-93.37107,37.40366],[-93.37119,37.40366],[-93.37141,37.40366],[-93.37164,37.40366],[-93.37185,37.40365],[-93.37209,37.40365],[-93.37277,37.40365],[-93.37278,37.40365],[-93.373,37.40365],[-93.37323,37.40365],[-93.37345,37.40365],[-93.37363,37.40365],[-93.3739,37.40366],[-93.37413,37.40366],[-93.37458,37.40367],[-93.37481,37.40368],[-93.37491,37.40368],[-93.37504,37.40368],[-93.37542,37.40369],[-93.37587,37.40369],[-93.37639,37.4037],[-93.37693,37.40371],[-93.37723,37.40372],[-93.37746,37.40372],[-93.37768,37.40373],[-93.37791,37.40374],[-93.37814,37.40374],[-93.37836,37.40375],[-93.37904,37.40376],[-93.37989,37.40379],[-93.38012,37.40379],[-93.38034,37.4038],[-93.38102,37.40381],[-93.3817,37.40383],[-93.38269,37.40386],[-93.38274,37.40386],[-93.38314,37.40387],[-93.38359,37.40388],[-93.38382,37.40389],[-93.38405,37.40389],[-93.3845,37.4039],[-93.38472,37.40391],[-93.38477,37.40391],[-93.38495,37.40392],[-93.38518,37.40392],[-93.3853,37.40393],[-93.3854,37.40393],[-93.38563,37.40394],[-93.38577,37.40394],[-93.38586,37.40395],[-93.38631,37.40396],[-93.38648,37.40397],[-93.38653,37.40397],[-93.38676,37.40398],[-93.38741,37.404],[-93.38787,37.40401],[-93.38834,37.40403],[-93.38845,37.40403],[-93.38857,37.40404],[-93.38874,37.40405],[-93.38892,37.40405],[-93.38902,37.40405],[-93.38912,37.40405],[-93.38926,37.40405],[-93.38944,37.40404],[-93.38948,37.40404],[-93.38957,37.40404],[-93.38967,37.40403],[-93.3897,37.40403],[-93.38981,37.40402],[-93.38993,37.40401],[-93.38995,37.40401],[-93.39009,37.40399],[-93.39015,37.40398],[-93.39025,37.40397],[-93.39037,37.40396],[-93.39038,37.40396],[-93.39053,37.40394],[-93.39068,37.40391],[-93.39082,37.40389],[-93.39084,37.40389],[-93.39103,37.40386],[-93.39104,37.40386],[-93.39125,37.40383],[-93.39127,37.40383],[-93.39149,37.4038],[-93.39204,37.40371],[-93.39227,37.40368],[-93.39249,37.40365],[-93.39271,37.40361],[-93.39293,37.40358],[-93.39316,37.40355],[-93.39327,37.40353],[-93.39356,37.40349],[-93.39371,37.40346],[-93.39385,37.40344],[-93.394,37.40341],[-93.39404,37.4034],[-93.39415,37.40337],[-93.39426,37.40335],[-93.39433,37.40333],[-93.3945,37.40328],[-93.39467,37.40322],[-93.39488,37.40315],[-93.39508,37.40309],[-93.3953,37.403],[-93.39571,37.40285],[-93.39579,37.40282],[-93.39625,37.40266],[-93.39637,37.4026],[-93.39659,37.40251],[-93.39677,37.40243],[-93.39691,37.40236],[-93.39706,37.4023],[-93.39707,37.4023],[-93.39719,37.40224],[-93.39746,37.4021],[-93.39778,37.40194],[-93.39802,37.40182],[-93.39818,37.40174],[-93.39841,37.40163],[-93.39855,37.40156],[-93.39879,37.40144],[-93.39895,37.40136],[-93.39921,37.40122],[-93.39935,37.40115],[-93.39936,37.40115],[-93.3994,37.40113],[-93.39954,37.40106],[-93.39976,37.40095],[-93.40012,37.40076],[-93.40086,37.40039],[-93.40172,37.39995],[-93.40222,37.3997],[-93.4028,37.3994],[-93.40306,37.39927],[-93.40317,37.39922],[-93.40318,37.39922],[-93.40336,37.39914],[-93.40353,37.39906],[-93.40364,37.39902],[-93.40386,37.39893],[-93.40394,37.39889],[-93.40409,37.39884],[-93.40418,37.39881],[-93.40421,37.3988],[-93.40436,37.39875],[-93.40453,37.3987],[-93.40472,37.39864],[-93.40488,37.3986],[-93.40507,37.39855],[-93.40521,37.39852],[-93.40524,37.39852],[-93.40537,37.39849],[-93.40552,37.39846],[-93.40569,37.39843],[-93.40585,37.39841],[-93.406,37.39839],[-93.40616,37.39837],[-93.40636,37.39835],[-93.40637,37.39835],[-93.40657,37.39833],[-93.40673,37.39832],[-93.40691,37.39831],[-93.40707,37.39831],[-93.40722,37.39831],[-93.40726,37.39831],[-93.40738,37.39831],[-93.4076,37.39831],[-93.40779,37.39832],[-93.40794,37.39833],[-93.40799,37.39834],[-93.40816,37.39835],[-93.40826,37.39836],[-93.40839,37.39838],[-93.40884,37.39842],[-93.40885,37.39843],[-93.40906,37.39845],[-93.40951,37.3985],[-93.40973,37.39852],[-93.4098,37.39853],[-93.41041,37.39859],[-93.41138,37.39869],[-93.41171,37.39872],[-93.41187,37.39874],[-93.41199,37.39874],[-93.41202,37.39875],[-93.41218,37.39875],[-93.41236,37.39875],[-93.41251,37.39874],[-93.41267,37.39873],[-93.41283,37.39872],[-93.41301,37.3987],[-93.41316,37.39868],[-93.41331,37.39865],[-93.41333,37.39865],[-93.41343,37.39863],[-93.41354,37.3986],[-93.41355,37.3986],[-93.41366,37.39857],[-93.41377,37.39854],[-93.41383,37.39852],[-93.41399,37.39848],[-93.41415,37.39842],[-93.41419,37.39841],[-93.41436,37.39834],[-93.41459,37.39826],[-93.41477,37.39819],[-93.41501,37.3981],[-93.41511,37.39806],[-93.41521,37.39803],[-93.41542,37.39795],[-93.41547,37.39793],[-93.41563,37.39788],[-93.41569,37.39786],[-93.41595,37.39778],[-93.41606,37.39775],[-93.41619,37.39771],[-93.41641,37.39767],[-93.4165,37.39765],[-93.41662,37.39763],[-93.4167,37.39762],[-93.41679,37.3976],[-93.41696,37.39759],[-93.41709,37.39757],[-93.41715,37.39757],[-93.41724,37.39756],[-93.41738,37.39756],[-93.4174,37.39756],[-93.41757,37.39755],[-93.41761,37.39755],[-93.41783,37.39756],[-93.4181,37.39756],[-93.41864,37.39757],[-93.41874,37.39757],[-93.41919,37.39758],[-93.41948,37.39758],[-93.41964,37.39758],[-93.42032,37.39759],[-93.42052,37.3976],[-93.42055,37.3976],[-93.421,37.39761],[-93.42145,37.39763],[-93.42196,37.39764],[-93.42236,37.39765],[-93.42258,37.39765],[-93.42281,37.39766],[-93.42304,37.39766],[-93.42326,37.39766],[-93.42349,37.39767],[-93.42372,37.39767],[-93.42445,37.39768],[-93.4249,37.39769],[-93.42513,37.3977],[-93.42535,37.3977],[-93.42626,37.39772],[-93.42694,37.39774],[-93.42739,37.39775],[-93.429,37.39779],[-93.42898,37.39833],[-93.42898,37.39836],[-93.42897,37.39853],[-93.42896,37.39868],[-93.42896,37.39871],[-93.42892,37.39961],[-93.42891,37.39979],[-93.4289,37.39997],[-93.4289,37.39999],[-93.42889,37.40015],[-93.42887,37.40053],[-93.42886,37.40073],[-93.42886,37.40089],[-93.42885,37.40105],[-93.42884,37.40123],[-93.42884,37.40125],[-93.42883,37.40159],[-93.42883,37.40161],[-93.42882,37.40179],[-93.42881,37.40213],[-93.42879,37.40251],[-93.42878,37.40287],[-93.42877,37.40321],[-93.42877,37.40323],[-93.42877,37.40339],[-93.42877,37.40341],[-93.42877,37.40344],[-93.42876,37.40357],[-93.42876,37.40359],[-93.42875,37.40377],[-93.42874,37.40393],[-93.42874,37.40411],[-93.42873,37.40412],[-93.42873,37.4043],[-93.42872,37.40447],[-93.4287,37.40482],[-93.4287,37.40483],[-93.4287,37.40484],[-93.42866,37.40573],[-93.42866,37.40574],[-93.42864,37.40626],[-93.42863,37.40656],[-93.42862,37.40674],[-93.4286,37.40728],[-93.42859,37.40752],[-93.42856,37.40833],[-93.42854,37.40871],[-93.42854,37.40871],[-93.42898,37.40872],[-93.42989,37.40875],[-93.42998,37.40875],[-93.43012,37.40875],[-93.43034,37.40876],[-93.43079,37.40877],[-93.43102,37.40878],[-93.43147,37.40879],[-93.4317,37.40879],[-93.43238,37.40881],[-93.4326,37.40882],[-93.43302,37.40883],[-93.43306,37.40883],[-93.43331,37.40883],[-93.43354,37.40884],[-93.43377,37.40884],[-93.43399,37.40885],[-93.43422,37.40886],[-93.43467,37.40887],[-93.4349,37.40887],[-93.43513,37.40888],[-93.43535,37.40888],[-93.4358,37.40889],[-93.43603,37.4089],[-93.43648,37.40891],[-93.43694,37.40892],[-93.43807,37.40895],[-93.43811,37.40895],[-93.43829,37.40895],[-93.43875,37.40897],[-93.43943,37.40899],[-93.4401,37.40901],[-93.44056,37.40903],[-93.44124,37.40905],[-93.44146,37.40905],[-93.44197,37.40907],[-93.44265,37.40909],[-93.44287,37.4091],[-93.44377,37.40914],[-93.44423,37.40915],[-93.44468,37.40917],[-93.44479,37.40917],[-93.4449,37.40918],[-93.44535,37.4092],[-93.44536,37.4092],[-93.44565,37.4092],[-93.44574,37.4092],[-93.44585,37.40919],[-93.44598,37.40917],[-93.44609,37.40915],[-93.44621,37.40912],[-93.44629,37.40909],[-93.44637,37.40906],[-93.44644,37.40903],[-93.44645,37.40903],[-93.44646,37.40903],[-93.44656,37.40897],[-93.44663,37.40893],[-93.44665,37.40891],[-93.44675,37.40885],[-93.44691,37.40872],[-93.44703,37.40862],[-93.44734,37.40834],[-93.44748,37.40821],[-93.44782,37.40791],[-93.44793,37.40782],[-93.44794,37.40781],[-93.44809,37.40768],[-93.44829,37.40751],[-93.44869,37.40716],[-93.4487,37.40716],[-93.44885,37.40703],[-93.449,37.40689],[-93.44909,37.40681],[-93.44931,37.40663],[-93.44947,37.4065],[-93.44947,37.40649],[-93.44959,37.4064],[-93.44972,37.40631],[-93.44986,37.40622],[-93.45001,37.40613],[-93.45015,37.40605],[-93.45018,37.40604],[-93.45038,37.40596],[-93.45045,37.40593],[-93.45059,37.40588],[-93.45078,37.40581],[-93.45091,37.40577],[-93.451,37.40575],[-93.45113,37.40572],[-93.45125,37.4057],[-93.45144,37.40567],[-93.45145,37.40567],[-93.45166,37.40566],[-93.45179,37.40566],[-93.45204,37.40566],[-93.45235,37.40566],[-93.45257,37.40567],[-93.45258,37.40567],[-93.45348,37.40568],[-93.45416,37.40569],[-93.45513,37.4057],[-93.45536,37.4057],[-93.45545,37.4057],[-93.45591,37.40573],[-93.45626,37.40577],[-93.45656,37.40583],[-93.45718,37.406],[-93.45782,37.40618],[-93.45786,37.40619],[-93.45824,37.4063],[-93.45845,37.40636],[-93.45856,37.40639],[-93.45867,37.40642],[-93.45888,37.40648],[-93.45909,37.40654],[-93.45931,37.4066],[-93.45942,37.40663],[-93.45974,37.40672],[-93.46059,37.40696],[-93.4608,37.40702],[-93.46145,37.40719],[-93.46166,37.40725],[-93.46187,37.40731],[-93.46209,37.40737],[-93.46251,37.40749],[-93.46385,37.40787],[-93.4642,37.40797],[-93.46448,37.40805],[-93.46507,37.40821],[-93.46536,37.40827],[-93.4656,37.4083],[-93.46573,37.40831],[-93.46587,37.40832],[-93.46596,37.40832],[-93.46612,37.40832],[-93.46655,37.40833],[-93.46664,37.40832],[-93.46709,37.40832],[-93.46732,37.40832],[-93.46777,37.40831],[-93.468,37.40831],[-93.46822,37.40831],[-93.46823,37.40831],[-93.46845,37.40831],[-93.46873,37.4083],[-93.46889,37.40831],[-93.4689,37.40831],[-93.46897,37.40831],[-93.46909,37.40832],[-93.46921,37.40834],[-93.46934,37.40836],[-93.46935,37.40836],[-93.46949,37.4084],[-93.46963,37.40844],[-93.46977,37.40849],[-93.46984,37.40851],[-93.46998,37.40857],[-93.47004,37.40859],[-93.47017,37.40867],[-93.4702,37.40868],[-93.47034,37.40878],[-93.47035,37.40878],[-93.47059,37.40896],[-93.47066,37.40903],[-93.47097,37.4093],[-93.47104,37.40936],[-93.47109,37.4094],[-93.47112,37.40943],[-93.47117,37.40947],[-93.47123,37.40951],[-93.47128,37.40956],[-93.47133,37.40959],[-93.4714,37.40964],[-93.47152,37.40971],[-93.47164,37.40977],[-93.47166,37.40978],[-93.47179,37.40984],[-93.47184,37.40986],[-93.47194,37.4099],[-93.47212,37.40995],[-93.47226,37.40999],[-93.47238,37.41001],[-93.47248,37.41003],[-93.47256,37.41004],[-93.47271,37.41005],[-93.47276,37.41005],[-93.47293,37.41006],[-93.47307,37.41007],[-93.47316,37.41007],[-93.47361,37.41009],[-93.47384,37.4101],[-93.47406,37.4101],[-93.47426,37.41011],[-93.47429,37.41011],[-93.47452,37.41011],[-93.47474,37.41012],[-93.47497,37.41012],[-93.4752,37.41012],[-93.47528,37.41012],[-93.47542,37.41013],[-93.47565,37.41013],[-93.4761,37.41014],[-93.47655,37.41014],[-93.47701,37.41015],[-93.47723,37.41015],[-93.47746,37.41015],[-93.47769,37.41015],[-93.47789,37.41015],[-93.47791,37.41015],[-93.47814,37.41016],[-93.47837,37.41016],[-93.47882,37.41016],[-93.47904,37.41017],[-93.47972,37.41017],[-93.47988,37.41018],[-93.47995,37.41018],[-93.4804,37.41018],[-93.48043,37.41018],[-93.48062,37.41018],[-93.48081,37.41019],[-93.48085,37.41019],[-93.48103,37.4102],[-93.48108,37.4102],[-93.48123,37.41021],[-93.4813,37.41022],[-93.48145,37.41023],[-93.48175,37.41027],[-93.48187,37.41028],[-93.48265,37.41038],[-93.48287,37.41041],[-93.48304,37.41043],[-93.48309,37.41044],[-93.48332,37.41047],[-93.48354,37.41049],[-93.48376,37.41052],[-93.48399,37.41055],[-93.48445,37.41061],[-93.48512,37.4107],[-93.4852,37.41071],[-93.48542,37.41073],[-93.48557,37.41075],[-93.48565,37.41076],[-93.48571,37.41077],[-93.48579,37.41078],[-93.48587,37.41079],[-93.48609,37.41082],[-93.48624,37.41084],[-93.48632,37.41085],[-93.48636,37.41086],[-93.48654,37.41088],[-93.48676,37.41091],[-93.48699,37.41094],[-93.48704,37.41094],[-93.48713,37.41095],[-93.48729,37.41097],[-93.48744,37.41098],[-93.48746,37.41098],[-93.48758,37.41098],[-93.48766,37.41099],[-93.48768,37.41099],[-93.48786,37.41098],[-93.48795,37.41098],[-93.48811,37.41096],[-93.48812,37.41096],[-93.4883,37.41094],[-93.48834,37.41093],[-93.48854,37.4109],[-93.48856,37.41089],[-93.48873,37.41085],[-93.48877,37.41084],[-93.48888,37.41081],[-93.48891,37.4108],[-93.48899,37.41078],[-93.48904,37.41076],[-93.48925,37.41068],[-93.48933,37.41066],[-93.4894,37.41063],[-93.48953,37.41059],[-93.48961,37.41056],[-93.48963,37.41055],[-93.48969,37.41053],[-93.48981,37.41049],[-93.48985,37.41047],[-93.49004,37.41042],[-93.49024,37.41037],[-93.49035,37.41035],[-93.49049,37.41033],[-93.49067,37.41032],[-93.49069,37.41032],[-93.49088,37.41031],[-93.49092,37.41031],[-93.49114,37.41031],[-93.49137,37.41031],[-93.49182,37.41031],[-93.49205,37.41031],[-93.49211,37.41032],[-93.49228,37.41032],[-93.4925,37.41032],[-93.49286,37.41033],[-93.49331,37.41033],[-93.49338,37.41034],[-93.49376,37.41035],[-93.49422,37.41036],[-93.49444,37.41036],[-93.49467,37.41037],[-93.4949,37.41038],[-93.49512,37.41038],[-93.49547,37.41039],[-93.49557,37.41039],[-93.49576,37.4104],[-93.49603,37.41041],[-93.49625,37.41041],[-93.49638,37.41041],[-93.49648,37.41042],[-93.49671,37.41042],[-93.49693,37.41043],[-93.49705,37.41043],[-93.49716,37.41043],[-93.49728,37.41044],[-93.49739,37.41044],[-93.49751,37.41044],[-93.49761,37.41045],[-93.49784,37.41045],[-93.49796,37.41046],[-93.49806,37.41046],[-93.49829,37.41047],[-93.49837,37.41047],[-93.49874,37.41048],[-93.49887,37.41048],[-93.49897,37.41048],[-93.4992,37.41049],[-93.49942,37.41049],[-93.49948,37.41049],[-93.49955,37.41049],[-93.49965,37.4105],[-93.49988,37.4105],[-93.5001,37.4105],[-93.50033,37.4105],[-93.50038,37.4105],[-93.5008,37.41051],[-93.50101,37.41052],[-93.50125,37.41052],[-93.50146,37.41052],[-93.50169,37.41053],[-93.50183,37.41053],[-93.50191,37.41053],[-93.50204,37.41053],[-93.50214,37.41053],[-93.50238,37.41054],[-93.50259,37.41054],[-93.50272,37.41054],[-93.50282,37.41054],[-93.50297,37.41055],[-93.50355,37.41056],[-93.50362,37.41056],[-93.50372,37.41056],[-93.50407,37.41057],[-93.50418,37.41057],[-93.50419,37.41057],[-93.5044,37.41057],[-93.50485,37.41058],[-93.50531,37.41059],[-93.50543,37.41059],[-93.50554,37.41059],[-93.50576,37.4106],[-93.50599,37.4106],[-93.50611,37.4106],[-93.50621,37.41061],[-93.50644,37.41061],[-93.507,37.41062],[-93.50702,37.41062],[-93.50712,37.41063],[-93.50735,37.41063],[-93.50747,37.41063],[-93.50816,37.41064],[-93.50825,37.41065],[-93.50837,37.41065],[-93.50848,37.41065],[-93.50893,37.41066],[-93.50905,37.41066],[-93.50916,37.41066],[-93.5092,37.41066],[-93.50938,37.41066],[-93.50962,37.41067],[-93.50984,37.41067],[-93.51013,37.41068],[-93.5106,37.41069],[-93.51064,37.41069],[-93.51074,37.41069],[-93.51085,37.41069],[-93.511,37.41069],[-93.51119,37.41068],[-93.51125,37.41068],[-93.51139,37.41067],[-93.5115,37.41066],[-93.51174,37.41064],[-93.51214,37.4106],[-93.51229,37.41059],[-93.51243,37.41058],[-93.5126,37.41056],[-93.51264,37.41056],[-93.51269,37.41056],[-93.51278,37.41055],[-93.51287,37.41055],[-93.51294,37.41055],[-93.51329,37.41054],[-93.51351,37.41054],[-93.51377,37.41054],[-93.51389,37.41054],[-93.51423,37.41055],[-93.51426,37.41055],[-93.51454,37.41056],[-93.51468,37.41056],[-93.51512,37.41057],[-93.51513,37.41057],[-93.51546,37.41058],[-93.51559,37.41058],[-93.51581,37.41058],[-93.51581,37.41059],[-93.51633,37.4106],[-93.51694,37.41061],[-93.51699,37.41061],[-93.51717,37.41062],[-93.5174,37.41062],[-93.51743,37.41063],[-93.51762,37.41063],[-93.51798,37.41064],[-93.51863,37.41065],[-93.51875,37.41066],[-93.51913,37.41066],[-93.51966,37.41067],[-93.51989,37.41068],[-93.52,37.41068],[-93.52057,37.41069],[-93.52124,37.4107],[-93.52157,37.4107],[-93.52179,37.41071],[-93.5227,37.41072],[-93.52315,37.41073],[-93.5236,37.41073],[-93.52383,37.41074],[-93.52406,37.41074],[-93.52428,37.41074],[-93.52529,37.41076],[-93.52542,37.41076],[-93.52575,37.41077],[-93.52587,37.41077],[-93.52609,37.41077],[-93.52626,37.41078],[-93.52632,37.41078],[-93.52655,37.41078],[-93.52695,37.41079],[-93.52745,37.4108],[-93.52768,37.41081],[-93.52772,37.41081],[-93.52813,37.41082],[-93.52816,37.41082],[-93.52836,37.41082],[-93.52871,37.41083],[-93.52904,37.41084],[-93.52926,37.41084],[-93.52929,37.41084],[-93.53013,37.41087],[-93.53017,37.41087],[-93.53039,37.41088],[-93.53103,37.41089],[-93.53107,37.41089],[-93.53165,37.41091],[-93.53266,37.41094],[-93.53279,37.41094],[-93.53288,37.41094],[-93.5334,37.41096],[-93.53356,37.41096],[-93.5346,37.41098],[-93.53492,37.41099],[-93.53552,37.411],[-93.53575,37.41101],[-93.53589,37.41101],[-93.53643,37.41102],[-93.53659,37.41102],[-93.53726,37.41105],[-93.53735,37.41105],[-93.53749,37.41105],[-93.53814,37.41107],[-93.53825,37.41107],[-93.53839,37.41108],[-93.53862,37.41108],[-93.53879,37.41108],[-93.5389,37.41109],[-93.53903,37.41109],[-93.53943,37.4111],[-93.5395,37.4111],[-93.53968,37.4111],[-93.53996,37.41111],[-93.54006,37.41111],[-93.54056,37.41112],[-93.54124,37.41114],[-93.54156,37.41114],[-93.54208,37.41115],[-93.54299,37.41116],[-93.54322,37.41117],[-93.54367,37.41117],[-93.5441,37.41118],[-93.54449,37.41118],[-93.54467,37.41118],[-93.54516,37.41119],[-93.54569,37.4112],[-93.54656,37.41123],[-93.54702,37.41124],[-93.54722,37.41125],[-93.54858,37.41129],[-93.54971,37.41132],[-93.54971,37.41132],[-93.54971,37.41116]]}},{"type":"Feature","properties":{"_gpxType":"trk","name":"Holiday Inn Express Marshfield, an IHG Hotel, Banning Street, Marshfield, MO - Fair Grove, MO - Walnut Grove, MO - 310 E Parkway St","coordinateProperties":{},"id":42},"geometry":{"type":"LineString","coordinates":[[-93.54971,37.41116],[-93.54971,37.41132],[-93.54971,37.41132],[-93.5512,37.41136],[-93.5517,37.41137],[-93.55253,37.41138],[-93.55298,37.41139],[-93.55331,37.41139],[-93.55367,37.41139],[-93.5539,37.4114],[-93.55439,37.4114],[-93.55516,37.41142],[-93.55549,37.41143],[-93.55564,37.41143],[-93.55663,37.41146],[-93.55677,37.41146],[-93.55722,37.41147],[-93.55731,37.41147],[-93.55745,37.41147],[-93.55753,37.41148],[-93.5579,37.41149],[-93.55799,37.41149],[-93.55813,37.41149],[-93.55889,37.41151],[-93.55903,37.41151],[-93.55957,37.41152],[-93.56016,37.41153],[-93.56085,37.41155],[-93.5609,37.41155],[-93.56108,37.41155],[-93.56153,37.41156],[-93.56249,37.41158],[-93.56266,37.41159],[-93.56312,37.4116],[-93.56317,37.4116],[-93.56334,37.4116],[-93.5635,37.41161],[-93.5638,37.41161],[-93.56385,37.41161],[-93.56402,37.41162],[-93.5647,37.41163],[-93.56493,37.41164],[-93.5652,37.41164],[-93.56538,37.41164],[-93.56549,37.41165],[-93.56566,37.41165],[-93.56583,37.41165],[-93.56606,37.41166],[-93.56611,37.41166],[-93.56674,37.41167],[-93.56679,37.41167],[-93.56697,37.41168],[-93.56742,37.41169],[-93.56753,37.41169],[-93.5681,37.4117],[-93.56832,37.41171],[-93.56837,37.41171],[-93.56878,37.41172],[-93.56884,37.41172],[-93.569,37.41172],[-93.56928,37.41173],[-93.56946,37.41173],[-93.57031,37.41175],[-93.57064,37.41175],[-93.57081,37.41176],[-93.57168,37.41177],[-93.57172,37.41178],[-93.57217,37.41179],[-93.57245,37.41179],[-93.57248,37.41179],[-93.57308,37.4118],[-93.57313,37.4118],[-93.5733,37.41181],[-93.57336,37.41181],[-93.57381,37.41181],[-93.57418,37.41182],[-93.57489,37.41184],[-93.57515,37.41185],[-93.57534,37.41183],[-93.57534,37.41183],[-93.57552,37.41185],[-93.57567,37.41186],[-93.57621,37.41186],[-93.57617,37.41172],[-93.57615,37.41161],[-93.57613,37.41148],[-93.5761,37.41127],[-93.57613,37.41115],[-93.57614,37.4111],[-93.57615,37.411],[-93.57615,37.41089],[-93.57616,37.4106],[-93.57616,37.41055],[-93.57618,37.41003],[-93.57618,37.40967],[-93.57619,37.40949],[-93.57621,37.40873],[-93.57622,37.40831],[-93.57622,37.40823],[-93.57623,37.40801],[-93.57625,37.40733],[-93.57625,37.40715],[-93.57625,37.40711],[-93.57625,37.40702],[-93.57626,37.40679],[-93.57626,37.40676],[-93.57626,37.40675],[-93.57626,37.40666],[-93.57627,37.40657],[-93.57628,37.40621],[-93.57629,37.40571],[-93.57629,37.40567],[-93.5763,37.40531],[-93.5763,37.40524],[-93.57631,37.40487],[-93.57632,37.40477],[-93.57632,37.40463],[-93.57632,37.40459],[-93.57633,37.40451],[-93.57633,37.40441],[-93.57633,37.40423],[-93.57634,37.40415],[-93.57634,37.40409],[-93.57637,37.40307],[-93.57637,37.40301],[-93.57637,37.40297],[-93.57638,37.40283],[-93.57641,37.40172],[-93.57643,37.40127],[-93.57644,37.40082],[-93.57645,37.40049],[-93.57647,37.39992],[-93.57647,37.39974],[-93.57648,37.39929],[-93.57649,37.39924],[-93.57649,37.3992],[-93.57649,37.39895],[-93.5765,37.39884],[-93.5765,37.3987],[-93.57652,37.39803],[-93.57652,37.39794],[-93.57653,37.3978],[-93.57654,37.39731],[-93.57656,37.39677],[-93.57657,37.39641],[-93.5766,37.39552],[-93.57661,37.39516],[-93.57663,37.39444],[-93.57663,37.39426],[-93.57664,37.3939],[-93.57665,37.39372],[-93.57665,37.39354],[-93.57665,37.39351],[-93.57667,37.393],[-93.57668,37.39264],[-93.5767,37.39192],[-93.57671,37.39174],[-93.57671,37.39159],[-93.57673,37.39098],[-93.57674,37.39086],[-93.57675,37.39079],[-93.5768,37.39056],[-93.57685,37.39042],[-93.57691,37.3903],[-93.577,37.39017],[-93.57706,37.39008],[-93.57713,37.38999],[-93.57725,37.38988],[-93.57734,37.3898],[-93.57743,37.38973],[-93.57752,37.38968],[-93.57769,37.38958],[-93.578,37.38943],[-93.57819,37.38934],[-93.57827,37.38929],[-93.5786,37.38913],[-93.57956,37.38867],[-93.58012,37.3884],[-93.58033,37.38829],[-93.58052,37.38819],[-93.58068,37.3881],[-93.58068,37.38809],[-93.58077,37.38803],[-93.58089,37.38794],[-93.58098,37.38785],[-93.58099,37.38784],[-93.58105,37.38778],[-93.58111,37.3877],[-93.58112,37.38769],[-93.58119,37.3876],[-93.58124,37.38751],[-93.58127,37.38745],[-93.5813,37.38737],[-93.58135,37.38724],[-93.58136,37.38719],[-93.58138,37.38712],[-93.5814,37.38699],[-93.58141,37.38679],[-93.58142,37.38649],[-93.58142,37.38647],[-93.58143,37.38629],[-93.58143,37.38617],[-93.58143,37.38611],[-93.58144,37.38577],[-93.58144,37.38575],[-93.58145,37.38557],[-93.58146,37.38539],[-93.58146,37.38521],[-93.58147,37.38503],[-93.58147,37.38485],[-93.58148,37.38467],[-93.58149,37.38431],[-93.58149,37.38413],[-93.5815,37.38403],[-93.5815,37.38395],[-93.5815,37.38377],[-93.58151,37.38359],[-93.58151,37.38356],[-93.58151,37.38341],[-93.58152,37.38327],[-93.58152,37.38323],[-93.58152,37.38305],[-93.58153,37.38269],[-93.58153,37.38267],[-93.58153,37.38257],[-93.58154,37.38233],[-93.58155,37.38215],[-93.58155,37.38197],[-93.58156,37.38179],[-93.58156,37.38161],[-93.58157,37.38146],[-93.5816,37.38054],[-93.58163,37.37982],[-93.58163,37.37964],[-93.58163,37.37956],[-93.58165,37.37919],[-93.58166,37.37874],[-93.58166,37.37856],[-93.58167,37.37838],[-93.58167,37.3782],[-93.58168,37.37802],[-93.58168,37.37784],[-93.58169,37.37766],[-93.58169,37.37748],[-93.5817,37.37735],[-93.5817,37.3773],[-93.58171,37.37712],[-93.58171,37.37694],[-93.58172,37.37676],[-93.58172,37.3767],[-93.58173,37.37658],[-93.58174,37.3764],[-93.58174,37.37628],[-93.58174,37.37622],[-93.58175,37.37604],[-93.58177,37.3755],[-93.58177,37.37514],[-93.58178,37.37478],[-93.58179,37.3746],[-93.58179,37.37442],[-93.5818,37.37424],[-93.5818,37.3741],[-93.5818,37.37409],[-93.5818,37.37406],[-93.58181,37.37388],[-93.58181,37.3737],[-93.58182,37.37352],[-93.58183,37.37334],[-93.58183,37.37316],[-93.58184,37.37298],[-93.58185,37.37258],[-93.58188,37.37186],[-93.58189,37.37136],[-93.5819,37.37114],[-93.5819,37.37096],[-93.58192,37.37042],[-93.58192,37.37024],[-93.58193,37.36988],[-93.58194,37.36951],[-93.58195,37.36926],[-93.58197,37.36872],[-93.58198,37.3683],[-93.58199,37.36802],[-93.58199,37.368],[-93.58202,37.36712],[-93.58202,37.36694],[-93.58202,37.36687],[-93.58203,37.36676],[-93.58203,37.36658],[-93.58204,37.3664],[-93.58204,37.36622],[-93.58205,37.36587],[-93.58205,37.36586],[-93.58206,37.36568],[-93.58208,37.36549],[-93.58209,37.36532],[-93.58213,37.36478],[-93.58214,37.3646],[-93.58215,37.36442],[-93.58217,37.36424],[-93.58219,37.36388],[-93.5822,37.3637],[-93.58221,37.36369],[-93.58222,37.36352],[-93.58223,37.36334],[-93.58229,37.36263],[-93.5823,37.36249],[-93.58233,37.36186],[-93.58237,37.36043],[-93.58238,37.36007],[-93.58239,37.35989],[-93.58243,37.35845],[-93.58244,37.35827],[-93.58245,37.3577],[-93.58246,37.35737],[-93.58248,37.35693],[-93.58248,37.35683],[-93.58249,37.35665],[-93.5825,37.35624],[-93.5825,37.35611],[-93.58251,37.35593],[-93.58252,37.35567],[-93.58256,37.35449],[-93.58256,37.35431],[-93.58257,37.35413],[-93.58259,37.35341],[-93.5826,37.35323],[-93.58262,37.35251],[-93.58262,37.35233],[-93.58264,37.35182],[-93.58265,37.35144],[-93.58265,37.35143],[-93.58265,37.35126],[-93.58265,37.35125],[-93.58266,37.35108],[-93.58266,37.35102],[-93.58266,37.35096],[-93.58266,37.3509],[-93.58266,37.35089],[-93.58266,37.35072],[-93.58267,37.35054],[-93.58267,37.35036],[-93.58267,37.35023],[-93.58267,37.35018],[-93.58268,37.34964],[-93.58269,37.34946],[-93.58269,37.34934],[-93.5827,37.34874],[-93.58271,37.34857],[-93.58271,37.34838],[-93.58272,37.34784],[-93.58272,37.34766],[-93.58273,37.34748],[-93.58273,37.34744],[-93.58274,37.34712],[-93.58274,37.34694],[-93.58276,37.34643],[-93.58278,37.34585],[-93.58278,37.34567],[-93.58278,37.34566],[-93.58279,37.34531],[-93.58279,37.34514],[-93.58279,37.34513],[-93.5828,37.34495],[-93.5828,37.34477],[-93.58281,37.34459],[-93.58281,37.34441],[-93.58283,37.34387],[-93.58283,37.34369],[-93.58284,37.34333],[-93.58285,37.34315],[-93.58285,37.34297],[-93.58286,37.34279],[-93.58288,37.34189],[-93.58288,37.34171],[-93.58289,37.34135],[-93.58292,37.34045],[-93.58292,37.34027],[-93.58293,37.34009],[-93.58293,37.33991],[-93.58295,37.33919],[-93.58298,37.33841],[-93.58299,37.33805],[-93.583,37.33787],[-93.58301,37.33751],[-93.58301,37.33733],[-93.58303,37.33697],[-93.58303,37.33679],[-93.58304,37.33661],[-93.58304,37.33643],[-93.58305,37.33628],[-93.58305,37.33625],[-93.58306,37.33571],[-93.58307,37.33553],[-93.58307,37.3354],[-93.58307,37.33535],[-93.58308,37.33499],[-93.58309,37.33481],[-93.58309,37.33463],[-93.5831,37.33445],[-93.58311,37.33409],[-93.58311,37.33391],[-93.58312,37.33373],[-93.58313,37.33337],[-93.58314,37.33319],[-93.58315,37.33301],[-93.58315,37.33284],[-93.58316,37.33266],[-93.58318,37.33194],[-93.58321,37.33086],[-93.58322,37.3305],[-93.58323,37.33032],[-93.58323,37.33014],[-93.58325,37.3296],[-93.58325,37.32942],[-93.58326,37.32924],[-93.58326,37.32906],[-93.58327,37.32888],[-93.58327,37.32875],[-93.58327,37.3287],[-93.58328,37.32852],[-93.58329,37.32816],[-93.58334,37.32665],[-93.58335,37.32647],[-93.58335,37.32642],[-93.58335,37.32635],[-93.58335,37.32624],[-93.58335,37.32619],[-93.58335,37.32606],[-93.58336,37.32594],[-93.58336,37.32576],[-93.58337,37.32558],[-93.58338,37.32522],[-93.58339,37.32504],[-93.5834,37.32486],[-93.5834,37.32468],[-93.58342,37.32432],[-93.58342,37.32418],[-93.58342,37.32406],[-93.58343,37.32379],[-93.58344,37.32375],[-93.58344,37.32358],[-93.58345,37.32343],[-93.58345,37.32327],[-93.58346,37.32309],[-93.58346,37.32291],[-93.58349,37.32222],[-93.58349,37.32204],[-93.58352,37.32114],[-93.58353,37.32104],[-93.58353,37.32096],[-93.58353,37.32078],[-93.58355,37.32042],[-93.58357,37.31917],[-93.58358,37.31869],[-93.58358,37.31845],[-93.58358,37.31827],[-93.58358,37.318],[-93.58358,37.318],[-93.58358,37.31771],[-93.58358,37.31757],[-93.58359,37.31748],[-93.58361,37.31734],[-93.58363,37.31726],[-93.58367,37.31717],[-93.5837,37.31708],[-93.58375,37.31699],[-93.58382,37.31688],[-93.58394,37.31672],[-93.58407,37.31647],[-93.58407,37.31647],[-93.58384,37.31638],[-93.58344,37.31621],[-93.58324,37.31613],[-93.58304,37.31604],[-93.58296,37.316],[-93.58278,37.31593],[-93.58258,37.31585],[-93.58238,37.31577],[-93.58217,37.31569],[-93.58199,37.31558],[-93.58199,37.31558],[-93.58178,37.31551],[-93.58174,37.3155],[-93.58158,37.31546],[-93.58157,37.31546],[-93.58145,37.31544],[-93.58135,37.31543],[-93.58111,37.31542],[-93.58089,37.31542],[-93.58053,37.31542],[-93.58039,37.31541],[-93.58025,37.31541],[-93.58005,37.3154],[-93.57994,37.3154],[-93.57985,37.3154],[-93.57977,37.31539]]}}]}