{"type":"FeatureCollection","features":[{"type":"Feature","properties":{"_gpxType":"trk","name":"310 E Parkway St - 2481 Thorn Rd - 204 Main St","coordinateProperties":{},"id":43},"geometry":{"type":"LineString","coordinates":[[-93.57977,37.31539],[-93.57985,37.3154],[-93.57994,37.3154],[-93.58005,37.3154],[-93.58025,37.31541],[-93.58039,37.31541],[-93.58053,37.31542],[-93.58089,37.31542],[-93.58111,37.31542],[-93.58135,37.31543],[-93.58145,37.31544],[-93.58157,37.31546],[-93.58158,37.31546],[-93.58174,37.3155],[-93.58178,37.31551],[-93.58199,37.31558],[-93.58199,37.31558],[-93.58247,37.31476],[-93.58267,37.31443],[-93.58267,37.31443],[-93.58308,37.31459],[-93.58348,37.31475],[-93.58383,37.31489],[-93.58402,37.31498],[-93.58481,37.31533],[-93.58573,37.31574],[-93.58677,37.31622],[-93.58716,37.31647],[-93.5874,37.31661],[-93.58779,37.31679],[-93.58816,37.31697],[-93.58869,37.31723],[-93.589,37.31737],[-93.58906,37.31741],[-93.58912,37.31744],[-93.58924,37.31751],[-93.58926,37.31752],[-93.58935,37.31759],[-93.5894,37.31763],[-93.58958,37.31775],[-93.58973,37.31784],[-93.58979,37.31789],[-93.58982,37.31792],[-93.58983,37.31794],[-93.58984,37.31796],[-93.58986,37.31802],[-93.58986,37.31802],[-93.58993,37.31803],[-93.58999,37.31804],[-93.59008,37.31806],[-93.59013,37.31807],[-93.5902,37.3181],[-93.59033,37.31815],[-93.59034,37.31815],[-93.59054,37.31825],[-93.59084,37.31841],[-93.5909,37.31844],[-93.59109,37.31854],[-93.59118,37.31858],[-93.59154,37.31877],[-93.59179,37.31891],[-93.59204,37.31905],[-93.59227,37.31921],[-93.59253,37.3194],[-93.59269,37.31954],[-93.59285,37.31968],[-93.59303,37.31985],[-93.59316,37.31999],[-93.59325,37.3201],[-93.59327,37.32012],[-93.59329,37.32015],[-93.59344,37.32033],[-93.59356,37.32049],[-93.59362,37.32058],[-93.5937,37.32071],[-93.59371,37.32072],[-93.59372,37.32074],[-93.59382,37.32091],[-93.59383,37.32092],[-93.59391,37.32107],[-93.59392,37.32108],[-93.594,37.32124],[-93.59408,37.3214],[-93.5942,37.32163],[-93.59432,37.32189],[-93.59442,37.32207],[-93.59452,37.32223],[-93.5946,37.32236],[-93.59462,37.32239],[-93.59468,37.32249],[-93.59477,37.32261],[-93.59488,37.32275],[-93.59506,37.32297],[-93.59522,37.32314],[-93.59522,37.32315],[-93.59535,37.32328],[-93.59536,37.32329],[-93.59551,37.32343],[-93.59554,37.32346],[-93.59566,37.32357],[-93.59572,37.32363],[-93.59589,37.32375],[-93.59599,37.32383],[-93.59606,37.32388],[-93.59621,37.32399],[-93.59632,37.32406],[-93.59639,37.3241],[-93.59663,37.32425],[-93.59668,37.32428],[-93.59695,37.32444],[-93.59723,37.3246],[-93.59741,37.3247],[-93.59778,37.32491],[-93.59796,37.32501],[-93.59814,37.32512],[-93.59831,37.32521],[-93.59833,37.32523],[-93.59887,37.32555],[-93.59904,37.32564],[-93.59905,37.32565],[-93.59933,37.32582],[-93.59949,37.32591],[-93.59961,37.32597],[-93.59963,37.32598],[-93.59976,37.32604],[-93.59991,37.3261],[-93.60001,37.32613],[-93.60009,37.32616],[-93.60039,37.32626],[-93.60043,37.32627],[-93.60064,37.32634],[-93.60069,37.32635],[-93.60084,37.32641],[-93.60086,37.32642],[-93.60096,37.32647],[-93.60103,37.32651],[-93.60106,37.32652],[-93.60114,37.32657],[-93.60126,37.32664],[-93.60134,37.32669],[-93.60143,37.32677],[-93.60148,37.32682],[-93.60155,37.32689],[-93.60164,37.32699],[-93.60174,37.32711],[-93.60187,37.32726],[-93.60193,37.32732],[-93.60199,37.32738],[-93.60207,37.32744],[-93.60213,37.32748],[-93.60214,37.32748],[-93.60226,37.32756],[-93.60242,37.32764],[-93.60257,37.32771],[-93.60269,37.32775],[-93.60286,37.32779],[-93.60293,37.3278],[-93.603,37.32781],[-93.60316,37.32783],[-93.60319,37.32783],[-93.60338,37.32784],[-93.60361,37.32785],[-93.60368,37.32785],[-93.60406,37.32786],[-93.60453,37.32788],[-93.60497,37.32789],[-93.60519,37.3279],[-93.60541,37.32791],[-93.6061,37.32793],[-93.60716,37.32796],[-93.60811,37.32799],[-93.60813,37.32799],[-93.60875,37.32801],[-93.60902,37.32804],[-93.60925,37.32809],[-93.60928,37.32809],[-93.60953,37.32816],[-93.60968,37.32821],[-93.60974,37.32823],[-93.60988,37.32829],[-93.60992,37.32831],[-93.6101,37.3284],[-93.61019,37.32845],[-93.61025,37.32849],[-93.6103,37.32852],[-93.61032,37.32854],[-93.61053,37.3287],[-93.61061,37.32878],[-93.6107,37.32887],[-93.61081,37.32899],[-93.6109,37.3291],[-93.61095,37.32917],[-93.61096,37.32919],[-93.61109,37.32939],[-93.61118,37.32952],[-93.61156,37.33008],[-93.6116,37.33014],[-93.61171,37.3303],[-93.61181,37.33043],[-93.61186,37.33049],[-93.61196,37.33059],[-93.61205,37.33068],[-93.61214,37.33076],[-93.61228,37.33085],[-93.61232,37.33088],[-93.61241,37.33094],[-93.61245,37.33096],[-93.6126,37.33104],[-93.61264,37.33106],[-93.61273,37.33111],[-93.61284,37.33116],[-93.61289,37.33118],[-93.61303,37.33124],[-93.61305,37.33125],[-93.61367,37.33151],[-93.61443,37.33184],[-93.61462,37.33192],[-93.61491,37.33203],[-93.61524,37.33216],[-93.61538,37.33222],[-93.61544,37.33224],[-93.61553,37.33227],[-93.61565,37.3323],[-93.61571,37.33232],[-93.61587,37.33235],[-93.61591,37.33236],[-93.61604,37.33238],[-93.61621,37.3324],[-93.61637,37.33241],[-93.61656,37.33241],[-93.61685,37.33239],[-93.6175,37.33232],[-93.61811,37.33225],[-93.61834,37.33223],[-93.61884,37.33217],[-93.61938,37.33211],[-93.61967,37.33208],[-93.61986,37.33205],[-93.6199,37.33204],[-93.62011,37.332],[-93.62012,37.332],[-93.62063,37.33189],[-93.62078,37.33185],[-93.62187,37.33161],[-93.62208,37.33157],[-93.62252,37.33147],[-93.62361,37.33123],[-93.62383,37.33118],[-93.62437,37.33106],[-93.62535,37.33084],[-93.62644,37.3306],[-93.62731,37.33041],[-93.62775,37.33031],[-93.62888,37.33005],[-93.6291,37.33],[-93.62935,37.32995],[-93.62959,37.32989],[-93.62981,37.32984],[-93.62988,37.32983],[-93.63003,37.3298],[-93.63047,37.3297],[-93.6305,37.32969],[-93.63069,37.32966],[-93.63091,37.32962],[-93.63101,37.3296],[-93.6311,37.32959],[-93.63126,37.32956],[-93.63135,37.32955],[-93.63145,37.32954],[-93.63158,37.32953],[-93.63173,37.32952],[-93.63211,37.32951],[-93.63248,37.32951],[-93.63269,37.32951],[-93.63293,37.32952],[-93.63329,37.32953],[-93.6334,37.32954],[-93.63409,37.32956],[-93.63453,37.32958],[-93.63532,37.32961],[-93.6358,37.32963],[-93.63624,37.32964],[-93.63675,37.32966],[-93.63693,37.32967],[-93.63747,37.32969],[-93.63765,37.3297],[-93.63788,37.3297],[-93.63792,37.32971],[-93.6381,37.32971],[-93.63825,37.32972],[-93.63855,37.32973],[-93.639,37.32975],[-93.63946,37.32977],[-93.63968,37.32978],[-93.64014,37.32979],[-93.64039,37.3298],[-93.64104,37.32982],[-93.64127,37.32983],[-93.64182,37.32987],[-93.64194,37.32988],[-93.64208,37.32989],[-93.6423,37.32992],[-93.64254,37.32997],[-93.64284,37.33004],[-93.64316,37.33014],[-93.64355,37.33028],[-93.64355,37.33029],[-93.64356,37.33029],[-93.64398,37.33045],[-93.64416,37.33052],[-93.64417,37.33053],[-93.64457,37.33068],[-93.64458,37.33068],[-93.64494,37.33083],[-93.64578,37.33117],[-93.64579,37.33117],[-93.64601,37.33126],[-93.64639,37.33141],[-93.64665,37.33151],[-93.64741,37.33181],[-93.64749,37.33185],[-93.64838,37.3322],[-93.64862,37.33229],[-93.64862,37.3323],[-93.64983,37.33278],[-93.65026,37.33296],[-93.65069,37.33313],[-93.65104,37.33329],[-93.65112,37.33332],[-93.65171,37.3336],[-93.65229,37.33386],[-93.65285,37.33413],[-93.65287,37.33414],[-93.65306,37.33423],[-93.65402,37.33468],[-93.65403,37.33468],[-93.655,37.33514],[-93.65558,37.33541],[-93.65667,37.33592],[-93.65675,37.33595],[-93.65695,37.33605],[-93.65792,37.3365],[-93.65909,37.33705],[-93.6599,37.33743],[-93.6608,37.33785],[-93.66125,37.33807],[-93.66164,37.33825],[-93.66214,37.33848],[-93.66223,37.33852],[-93.66301,37.33889],[-93.66328,37.33902],[-93.66378,37.33926],[-93.66398,37.33935],[-93.66456,37.33963],[-93.66462,37.33965],[-93.66476,37.33972],[-93.66495,37.33981],[-93.66515,37.3399],[-93.66534,37.33999],[-93.66573,37.34017],[-93.66728,37.3409],[-93.6679,37.34119],[-93.66823,37.34134],[-93.66849,37.34146],[-93.66862,37.34151],[-93.66869,37.34154],[-93.66882,37.34159],[-93.66901,37.34164],[-93.6692,37.3417],[-93.66944,37.34175],[-93.66966,37.34178],[-93.6699,37.34181],[-93.67013,37.34182],[-93.67065,37.34184],[-93.67079,37.34185],[-93.67133,37.34187],[-93.67185,37.34188],[-93.67268,37.34191],[-93.67336,37.34193],[-93.67437,37.34195],[-93.67505,37.34196],[-93.67528,37.34197],[-93.67663,37.342],[-93.678,37.34202],[-93.67896,37.34204],[-93.68093,37.34208],[-93.6816,37.3421],[-93.68251,37.34211],[-93.6839,37.34214],[-93.68594,37.34217],[-93.68712,37.34218],[-93.68735,37.34219],[-93.68803,37.3422],[-93.68875,37.34223],[-93.68961,37.34224],[-93.68966,37.34224],[-93.68984,37.34225],[-93.6902,37.34225],[-93.69089,37.34226],[-93.69127,37.34226],[-93.69153,37.34227],[-93.69226,37.34227],[-93.69235,37.34228],[-93.69312,37.34229],[-93.69319,37.34229],[-93.69342,37.34229],[-93.69351,37.34229],[-93.69395,37.3423],[-93.69442,37.34231],[-93.69482,37.34231],[-93.69501,37.34232],[-93.6952,37.34233],[-93.69532,37.34235],[-93.69545,37.34237],[-93.69545,37.34237],[-93.69549,37.34234],[-93.69553,37.34233],[-93.69558,37.34232],[-93.69565,37.34232],[-93.69588,37.34232],[-93.69611,37.34232],[-93.69615,37.34232],[-93.69647,37.34232],[-93.69656,37.34233],[-93.69667,37.34233],[-93.69686,37.34233],[-93.69711,37.34232],[-93.69756,37.34233],[-93.69777,37.34234],[-93.69779,37.34234],[-93.69801,37.34234],[-93.69869,37.34236],[-93.69929,37.34237],[-93.70057,37.34239],[-93.70124,37.34241],[-93.70132,37.34241],[-93.70215,37.34242],[-93.70243,37.34244],[-93.7029,37.34246],[-93.70333,37.34244],[-93.70347,37.34243],[-93.70376,37.34242],[-93.70391,37.34243],[-93.70424,37.34243],[-93.70436,37.34244],[-93.70443,37.34244],[-93.70451,37.34242],[-93.70458,37.3424],[-93.70458,37.3424],[-93.70461,37.34238],[-93.70462,37.34237],[-93.70463,37.34236],[-93.70464,37.34235],[-93.70465,37.34233],[-93.70466,37.34232],[-93.70466,37.34231],[-93.70467,37.3423],[-93.70467,37.34228],[-93.70468,37.34222],[-93.70469,37.34191],[-93.70471,37.34143],[-93.70471,37.34131],[-93.70472,37.34122],[-93.70472,37.34117],[-93.70474,37.34112],[-93.70475,37.34109],[-93.70476,37.34106],[-93.70478,37.34103],[-93.70481,37.34097],[-93.70486,37.34092],[-93.70489,37.3409],[-93.70504,37.34076],[-93.70525,37.34056],[-93.7054,37.34044],[-93.70545,37.34039],[-93.70559,37.34025],[-93.70563,37.34021],[-93.70574,37.3401],[-93.70604,37.33978],[-93.70615,37.33962],[-93.70619,37.33956],[-93.7062,37.33955],[-93.70625,37.33946],[-93.70633,37.33935],[-93.70635,37.3393],[-93.70644,37.33914],[-93.70651,37.33897],[-93.70655,37.33887],[-93.70658,37.33879],[-93.70664,37.33858],[-93.70671,37.33835],[-93.70674,37.3382],[-93.70678,37.33804],[-93.70682,37.33785],[-93.70686,37.33767],[-93.7069,37.33749],[-93.7069,37.33746],[-93.70697,37.33714],[-93.70699,37.33679],[-93.70699,37.33678],[-93.707,37.33661],[-93.707,37.33655],[-93.70701,37.33635],[-93.70702,37.33575],[-93.70702,37.33571],[-93.70702,37.33563],[-93.70705,37.33517],[-93.70705,37.33517],[-93.70732,37.33517],[-93.70773,37.33518],[-93.708,37.33519],[-93.70846,37.33519],[-93.70886,37.3352],[-93.70902,37.3352],[-93.70908,37.3352],[-93.70956,37.33521],[-93.71018,37.33522],[-93.71065,37.33523],[-93.71091,37.33523],[-93.71114,37.33524],[-93.71148,37.33524],[-93.71169,37.33524],[-93.71177,37.33524],[-93.71221,37.33525],[-93.7126,37.33526],[-93.71281,37.33526],[-93.71282,37.33526],[-93.71327,37.33527],[-93.7135,37.33527],[-93.71352,37.33527],[-93.71373,37.33527],[-93.71437,37.33528],[-93.71491,37.33529],[-93.71531,37.33529],[-93.71554,37.3353],[-93.71584,37.3353],[-93.71599,37.3353],[-93.71621,37.33531],[-93.7165,37.33531],[-93.71667,37.33531],[-93.71689,37.33531],[-93.71741,37.33532],[-93.7178,37.33532],[-93.71811,37.33533],[-93.7184,37.33533],[-93.7185,37.33533],[-93.71933,37.33534],[-93.72005,37.33535],[-93.7205,37.33535],[-93.721,37.33536],[-93.72186,37.33537],[-93.72209,37.33537],[-93.72231,37.33537],[-93.72254,37.33537],[-93.72345,37.33538],[-93.72367,37.33538],[-93.72435,37.33539],[-93.72455,37.33539],[-93.72476,37.33539],[-93.72525,37.33539],[-93.72537,37.33539],[-93.72548,37.3354],[-93.72581,37.3354],[-93.72628,37.33541],[-93.72637,37.33541],[-93.7265,37.33541],[-93.72737,37.33542],[-93.72741,37.33542],[-93.72763,37.33543],[-93.72808,37.33543],[-93.72831,37.33543],[-93.72873,37.33544],[-93.72899,37.33544],[-93.72922,37.33544],[-93.72944,37.33544],[-93.72952,37.33544],[-93.7302,37.33544],[-93.7308,37.33545],[-93.73088,37.33545],[-93.73103,37.33545],[-93.73125,37.33545],[-93.73153,37.33546],[-93.73206,37.33546],[-93.73267,37.33547],[-93.73274,37.33547],[-93.73329,37.33547],[-93.73363,37.33547],[-93.73365,37.33547],[-93.734,37.33546],[-93.73415,37.33545],[-93.73431,37.33545],[-93.73448,37.33543],[-93.73476,37.33541],[-93.73484,37.3354],[-93.73502,37.33538],[-93.73514,37.33536],[-93.7352,37.33535],[-93.73538,37.33533],[-93.73554,37.3353],[-93.73582,37.33525],[-93.73604,37.3352],[-93.73635,37.33513],[-93.73647,37.3351],[-93.73655,37.33507],[-93.7368,37.33501],[-93.73708,37.33492],[-93.73711,37.33492],[-93.73732,37.33485],[-93.73738,37.33483],[-93.73762,37.33474],[-93.73787,37.33464],[-93.73793,37.33462],[-93.73802,37.33458],[-93.73813,37.33453],[-93.73828,37.33447],[-93.73851,37.33437],[-93.73872,37.33426],[-93.73894,37.33416],[-93.73927,37.33397],[-93.73942,37.33387],[-93.73962,37.33375],[-93.73973,37.33367],[-93.73982,37.33361],[-93.73996,37.33351],[-93.73998,37.3335],[-93.74026,37.33329],[-93.74042,37.33317],[-93.74057,37.33306],[-93.74064,37.333],[-93.74089,37.3328],[-93.74094,37.33276],[-93.74129,37.33247],[-93.7414,37.33238],[-93.74152,37.33228],[-93.74168,37.33216],[-93.74172,37.33212],[-93.74183,37.33203],[-93.74187,37.332],[-93.74199,37.3319],[-93.74207,37.33183],[-93.74231,37.33164],[-93.74246,37.33151],[-93.74262,37.33138],[-93.74278,37.33125],[-93.74299,37.33108],[-93.74341,37.33074],[-93.74345,37.3307],[-93.74357,37.33061],[-93.74404,37.33022],[-93.7442,37.33009],[-93.74436,37.32997],[-93.74452,37.32984],[-93.74456,37.3298],[-93.74469,37.3297],[-93.74499,37.32945],[-93.74515,37.32932],[-93.74531,37.32919],[-93.7455,37.32904],[-93.74583,37.32876],[-93.74591,37.3287],[-93.74638,37.32831],[-93.7467,37.32805],[-93.74692,37.32787],[-93.74705,37.32778],[-93.74726,37.32763],[-93.74742,37.32754],[-93.74756,37.32747],[-93.74775,37.32738],[-93.74806,37.32725],[-93.74861,37.32707],[-93.74863,37.32706],[-93.74954,37.32674],[-93.74985,37.32663],[-93.75006,37.32656],[-93.75013,37.32653],[-93.75027,37.32648],[-93.75048,37.32641],[-93.75089,37.32626],[-93.75133,37.32611],[-93.75172,37.32598],[-93.75193,37.3259],[-93.75229,37.32577],[-93.75247,37.32571],[-93.75252,37.32569],[-93.75354,37.32533],[-93.75389,37.32524],[-93.75414,37.32518],[-93.75429,37.32516],[-93.75448,37.32514],[-93.75509,37.32514],[-93.75554,37.32514],[-93.75577,37.32514],[-93.75583,37.32514],[-93.75599,37.32515],[-93.75639,37.32515],[-93.75695,37.32516],[-93.7574,37.32516],[-93.75808,37.32517],[-93.7583,37.32517],[-93.75876,37.32518],[-93.75921,37.32518],[-93.75944,37.32518],[-93.76057,37.32519],[-93.76079,37.32519],[-93.76102,37.3252],[-93.7617,37.3252],[-93.76328,37.32522],[-93.76349,37.32522],[-93.76351,37.32522],[-93.76396,37.32523],[-93.76418,37.32524],[-93.76441,37.32525],[-93.76464,37.32525],[-93.76467,37.32525],[-93.76532,37.32526],[-93.76536,37.32526],[-93.76604,37.32525],[-93.76626,37.32526],[-93.76672,37.32526],[-93.76694,37.32526],[-93.76717,37.32526],[-93.76763,37.32526],[-93.76807,37.32526],[-93.76812,37.32526],[-93.7683,37.32526],[-93.76852,37.32526],[-93.7687,37.32526],[-93.76875,37.32526],[-93.76898,37.32527],[-93.7692,37.32527],[-93.76932,37.32527],[-93.76943,37.32527],[-93.76965,37.32527],[-93.77056,37.32528],[-93.77078,37.32529],[-93.77079,37.32529],[-93.77101,37.32529],[-93.77282,37.32531],[-93.77304,37.32531],[-93.77305,37.32531],[-93.77327,37.32531],[-93.7735,37.32532],[-93.77374,37.32532],[-93.77414,37.32533],[-93.77417,37.32534],[-93.77418,37.32534],[-93.7744,37.32536],[-93.77441,37.32536],[-93.77462,37.32539],[-93.77463,37.32539],[-93.77482,37.32542],[-93.77484,37.32542],[-93.77507,37.32547],[-93.77528,37.32551],[-93.77529,37.32551],[-93.7753,37.32551],[-93.7755,37.32556],[-93.77571,37.32561],[-93.77572,37.32562],[-93.77593,37.32566],[-93.77594,37.32566],[-93.77615,37.32571],[-93.77634,37.32575],[-93.77637,37.32576],[-93.77646,37.32578],[-93.77659,37.32581],[-93.7767,37.32583],[-93.7769,37.32587],[-93.77713,37.3259],[-93.77724,37.32591],[-93.77726,37.32591],[-93.77739,37.32592],[-93.7777,37.32593],[-93.77772,37.32593],[-93.77793,37.32594],[-93.77816,37.32595],[-93.77853,37.32595],[-93.77861,37.32595],[-93.77883,37.32596],[-93.77884,37.32596],[-93.77906,37.32596],[-93.77907,37.32596],[-93.77928,37.32596],[-93.77929,37.32596],[-93.77951,37.32597],[-93.77969,37.32597],[-93.77974,37.32597],[-93.77996,37.32597],[-93.77997,37.32597],[-93.78013,37.32597],[-93.78019,37.32597],[-93.78041,37.32598],[-93.78042,37.32598],[-93.78064,37.32598],[-93.7807,37.32598],[-93.78087,37.32599],[-93.78109,37.32599],[-93.78132,37.326],[-93.7814,37.326],[-93.782,37.32601],[-93.78221,37.32601],[-93.78222,37.32601],[-93.78223,37.32601],[-93.78241,37.32602],[-93.78245,37.32603],[-93.78252,37.32603],[-93.78265,37.32605],[-93.78267,37.32606],[-93.78268,37.32606],[-93.78289,37.3261],[-93.78291,37.32611],[-93.7831,37.32617],[-93.78311,37.32617],[-93.78321,37.3262],[-93.78331,37.32624],[-93.78342,37.32629],[-93.78357,37.32636],[-93.78372,37.32644],[-93.78385,37.32652],[-93.78406,37.32668],[-93.78418,37.32676],[-93.78437,37.32694],[-93.78452,37.32708],[-93.78467,37.32721],[-93.78482,37.32734],[-93.78497,37.32748],[-93.78526,37.32775],[-93.78526,37.32776],[-93.78556,37.32803],[-93.78568,37.32814],[-93.78571,37.32816],[-93.78586,37.32829],[-93.78602,37.32842],[-93.78617,37.32856],[-93.78632,37.32869],[-93.78644,37.32879],[-93.78648,37.32882],[-93.78658,37.32889],[-93.78665,37.32894],[-93.78671,37.32897],[-93.78684,37.32904],[-93.78689,37.32906],[-93.78703,37.32912],[-93.78705,37.32913],[-93.78719,37.32918],[-93.78727,37.3292],[-93.78739,37.32923],[-93.78744,37.32924],[-93.78766,37.32926],[-93.78787,37.32927],[-93.7881,37.32928],[-93.78811,37.32928],[-93.78832,37.32928],[-93.78855,37.32928],[-93.78856,37.32928],[-93.78878,37.32929],[-93.789,37.32929],[-93.78901,37.32929],[-93.78924,37.32929],[-93.78968,37.3293],[-93.78969,37.3293],[-93.78991,37.3293],[-93.79013,37.32931],[-93.79014,37.32931],[-93.79036,37.32931],[-93.79059,37.32932],[-93.79081,37.32932],[-93.79082,37.32932],[-93.79104,37.32932],[-93.79105,37.32932],[-93.79127,37.32933],[-93.79149,37.32933],[-93.7915,37.32933],[-93.79172,37.32934],[-93.79195,37.32934],[-93.79217,37.32935],[-93.7924,37.32935],[-93.79263,37.32935],[-93.79298,37.32936],[-93.7933,37.32937],[-93.79331,37.32937],[-93.79353,37.32937],[-93.79356,37.32937],[-93.79376,37.32938],[-93.79398,37.32938],[-93.79423,37.32938],[-93.79444,37.32939],[-93.79534,37.3294],[-93.79557,37.32941],[-93.79568,37.32941],[-93.79579,37.32941],[-93.79624,37.32942],[-93.79625,37.32942],[-93.79692,37.32943],[-93.79693,37.32943],[-93.79715,37.32943],[-93.79737,37.32944],[-93.79738,37.32944],[-93.7976,37.32944],[-93.79782,37.32944],[-93.79783,37.32944],[-93.79828,37.32945],[-93.79832,37.32945],[-93.7985,37.32945],[-93.79851,37.32945],[-93.79895,37.32946],[-93.79896,37.32946],[-93.79918,37.32946],[-93.79981,37.32947],[-93.80027,37.32948],[-93.80072,37.32948],[-93.80185,37.3295],[-93.8023,37.32951],[-93.80253,37.32952],[-93.80275,37.32952],[-93.80276,37.32952],[-93.80298,37.32952],[-93.80299,37.32952],[-93.80309,37.32953],[-93.80321,37.32953],[-93.80343,37.32953],[-93.80344,37.32953],[-93.80366,37.32953],[-93.80367,37.32953],[-93.80388,37.32954],[-93.80389,37.32954],[-93.80411,37.32954],[-93.80412,37.32954],[-93.80456,37.32954],[-93.80457,37.32954],[-93.8048,37.32955],[-93.80501,37.32955],[-93.80547,37.32955],[-93.80548,37.32955],[-93.80569,37.32956],[-93.80571,37.32956],[-93.80592,37.32956],[-93.80701,37.32957],[-93.80786,37.32959],[-93.80787,37.32959],[-93.80899,37.32961],[-93.809,37.32961],[-93.80922,37.32961],[-93.80944,37.32961],[-93.81,37.32962],[-93.81062,37.32964],[-93.81103,37.32964],[-93.81125,37.32965],[-93.81198,37.32966],[-93.81225,37.32967],[-93.81238,37.32966],[-93.81265,37.32968],[-93.81309,37.32969],[-93.81464,37.32971],[-93.81473,37.32972],[-93.81599,37.32974],[-93.81657,37.32975],[-93.81676,37.32975],[-93.81682,37.32975],[-93.81691,37.32975],[-93.81757,37.32976],[-93.81773,37.32977],[-93.81782,37.32977],[-93.81796,37.32977],[-93.81864,37.32978],[-93.81886,37.32979],[-93.81939,37.3298],[-93.81954,37.3298],[-93.81961,37.3298],[-93.81985,37.32981],[-93.81999,37.32981],[-93.82042,37.32981],[-93.82075,37.32981],[-93.8209,37.32982],[-93.8212,37.32982],[-93.82135,37.32983],[-93.82165,37.32983],[-93.8218,37.32984],[-93.82188,37.32984],[-93.82203,37.32984],[-93.82325,37.32986],[-93.82339,37.32986],[-93.82369,37.32987],[-93.82384,37.32987],[-93.82408,37.32987],[-93.82414,37.32988],[-93.82429,37.32988],[-93.82498,37.3299],[-93.8252,37.3299],[-93.82597,37.32991],[-93.82655,37.32992],[-93.82666,37.32992],[-93.82676,37.32992],[-93.82775,37.32994],[-93.82834,37.32995],[-93.82835,37.32995],[-93.82847,37.32995],[-93.82857,37.32995],[-93.82861,37.32995],[-93.82916,37.32996],[-93.82969,37.32997],[-93.82983,37.32997],[-93.83016,37.32997],[-93.8312,37.32999],[-93.83138,37.33],[-93.83151,37.33001],[-93.83163,37.33002],[-93.83177,37.33005],[-93.83195,37.33009],[-93.83208,37.33013],[-93.83225,37.3302],[-93.83235,37.33025],[-93.83236,37.33025],[-93.83238,37.33026],[-93.83251,37.33034],[-93.83276,37.33049],[-93.83298,37.33063],[-93.83306,37.33067],[-93.83317,37.33075],[-93.83317,37.33075],[-93.83338,37.33054],[-93.83345,37.33047],[-93.8335,37.33041],[-93.83358,37.33032],[-93.83359,37.33031],[-93.8337,37.33017],[-93.83377,37.33003],[-93.83385,37.32982],[-93.83389,37.32966],[-93.83391,37.32948],[-93.83391,37.32944],[-93.83392,37.3293],[-93.83393,37.32894],[-93.83393,37.32877],[-93.83393,37.32876],[-93.83394,37.32823],[-93.83395,37.32806],[-93.83398,37.32705],[-93.83398,37.32705],[-93.83441,37.32706],[-93.83482,37.32707],[-93.83539,37.32708],[-93.83549,37.32708],[-93.83579,37.32707],[-93.83605,37.32706],[-93.83633,37.32706],[-93.83689,37.32706],[-93.8372,37.32706],[-93.8376,37.32707],[-93.83769,37.32707],[-93.83838,37.32707],[-93.83894,37.32709],[-93.83901,37.32709],[-93.83918,37.32709],[-93.83924,37.32709],[-93.83958,37.3271],[-93.84035,37.32711],[-93.84054,37.32711],[-93.84059,37.32711],[-93.84136,37.32712],[-93.8419,37.32713],[-93.84235,37.32713],[-93.84253,37.32714],[-93.8428,37.32714],[-93.84303,37.32715],[-93.84308,37.32715],[-93.84386,37.32717],[-93.84416,37.32718],[-93.84428,37.32717],[-93.84438,37.32717],[-93.84445,37.32716],[-93.84449,37.32716],[-93.84462,37.32714],[-93.84474,37.32711],[-93.84486,37.32708],[-93.84504,37.32703],[-93.84506,37.32702],[-93.84524,37.32696],[-93.84525,37.32696],[-93.84545,37.32689],[-93.84556,37.32685],[-93.84566,37.32681],[-93.84583,37.32677],[-93.84599,37.32674],[-93.84616,37.32671],[-93.84635,37.3267],[-93.84677,37.3267],[-93.84689,37.3267],[-93.84737,37.32671],[-93.84791,37.32671],[-93.84795,37.32671],[-93.84818,37.32672],[-93.84836,37.32672],[-93.84874,37.32672],[-93.8491,37.32673],[-93.84952,37.32673],[-93.84971,37.32674],[-93.84994,37.32674],[-93.85007,37.32674],[-93.85039,37.32674],[-93.85062,37.32675],[-93.85069,37.32675],[-93.85085,37.32675],[-93.85107,37.32675],[-93.8513,37.32676],[-93.85143,37.32676],[-93.8522,37.32677],[-93.85243,37.32677],[-93.85263,37.32678],[-93.85288,37.32678],[-93.8531,37.32678],[-93.85311,37.32678],[-93.85333,37.32679],[-93.85356,37.32679],[-93.85379,37.32679],[-93.8541,37.32679],[-93.85424,37.3268],[-93.85446,37.3268],[-93.85465,37.3268],[-93.85469,37.3268],[-93.85492,37.32681],[-93.8551,37.32681],[-93.85559,37.32682],[-93.85561,37.32682],[-93.85582,37.32682],[-93.85593,37.32682],[-93.85627,37.32683],[-93.8565,37.32683],[-93.85673,37.32683],[-93.85767,37.32685],[-93.85786,37.32685],[-93.85808,37.32686],[-93.8585,37.32686],[-93.85901,37.32687],[-93.85946,37.32688],[-93.85969,37.32688],[-93.85991,37.32688],[-93.85994,37.32688],[-93.86083,37.3269],[-93.86104,37.3269],[-93.86163,37.32691],[-93.86172,37.32691],[-93.86195,37.32691],[-93.86199,37.32691],[-93.86217,37.32692],[-93.86235,37.32692],[-93.8624,37.32693],[-93.86253,37.32694],[-93.8627,37.32697],[-93.8628,37.327],[-93.86293,37.32704],[-93.86307,37.32711],[-93.86313,37.32714],[-93.86321,37.32719],[-93.86322,37.3272],[-93.86334,37.3273],[-93.86341,37.32737],[-93.86352,37.32747],[-93.86398,37.32798],[-93.86416,37.32819],[-93.86447,37.32853],[-93.86456,37.32862],[-93.86473,37.32881],[-93.86482,37.32892],[-93.86548,37.32965],[-93.8655,37.32967],[-93.86558,37.32976],[-93.86575,37.32994],[-93.86587,37.33006],[-93.86589,37.33008],[-93.86597,37.33015],[-93.86607,37.33023],[-93.86616,37.33029],[-93.86624,37.33034],[-93.86636,37.33041],[-93.86646,37.33045],[-93.8666,37.33051],[-93.8667,37.33054],[-93.8668,37.33057],[-93.86692,37.3306],[-93.86703,37.33062],[-93.86704,37.33062],[-93.86722,37.33064],[-93.86726,37.33064],[-93.86741,37.33065],[-93.86748,37.33065],[-93.86771,37.33066],[-93.86794,37.33066],[-93.8681,37.33067],[-93.86816,37.33067],[-93.86839,37.33067],[-93.86862,37.33068],[-93.86871,37.33068],[-93.86948,37.33069],[-93.86975,37.33069],[-93.8702,37.3307],[-93.87025,37.3307],[-93.87042,37.3307],[-93.87088,37.33071],[-93.8709,37.33071],[-93.8711,37.33071],[-93.87154,37.33072],[-93.872,37.33072],[-93.87251,37.33073],[-93.87268,37.33073],[-93.87311,37.33074],[-93.87313,37.33074],[-93.87318,37.33074],[-93.87336,37.33074],[-93.87359,37.33075],[-93.87381,37.33075],[-93.87386,37.33075],[-93.87404,37.33075],[-93.87426,37.33076],[-93.87436,37.33076],[-93.87474,37.33077],[-93.87493,37.33077],[-93.87517,37.33077],[-93.87539,37.33078],[-93.8754,37.33078],[-93.87567,37.33078],[-93.87591,37.33078],[-93.87611,37.33078],[-93.8763,37.33076],[-93.87651,37.33072],[-93.87662,37.3307],[-93.87673,37.33067],[-93.87689,37.33062],[-93.87694,37.3306],[-93.87703,37.33056],[-93.87714,37.33052],[-93.87716,37.3305],[-93.87728,37.33044],[-93.87739,37.33036],[-93.87757,37.33024],[-93.87778,37.33007],[-93.87796,37.32991],[-93.87811,37.32977],[-93.87819,37.3297],[-93.87839,37.32951],[-93.87841,37.3295],[-93.87856,37.32938],[-93.87857,37.32937],[-93.87871,37.32928],[-93.87879,37.32923],[-93.8789,37.32917],[-93.87893,37.32915],[-93.87903,37.32911],[-93.87913,37.32907],[-93.8792,37.32904],[-93.87929,37.32901],[-93.87936,37.32899],[-93.8795,37.32896],[-93.8797,37.32892],[-93.87984,37.32891],[-93.88,37.3289],[-93.88002,37.32889],[-93.88017,37.3289],[-93.88022,37.3289],[-93.88024,37.3289],[-93.88042,37.32892],[-93.88045,37.32892],[-93.88056,37.32893],[-93.88057,37.32893],[-93.88077,37.32895],[-93.8809,37.32897],[-93.88101,37.32898],[-93.88112,37.329],[-93.88131,37.32902],[-93.88197,37.32911],[-93.88198,37.32911],[-93.88202,37.32911],[-93.88211,37.32913],[-93.88278,37.3292],[-93.88311,37.32922],[-93.88329,37.32922],[-93.88337,37.32922],[-93.88346,37.32921],[-93.88355,37.3292],[-93.88359,37.3292],[-93.88372,37.32918],[-93.88377,37.32917],[-93.88381,37.32916],[-93.88399,37.32913],[-93.8842,37.32907],[-93.8844,37.329],[-93.88459,37.32892],[-93.88481,37.32881],[-93.88497,37.32871],[-93.88514,37.32859],[-93.88525,37.3285],[-93.88535,37.32842],[-93.88544,37.32832],[-93.88547,37.32828],[-93.88555,37.32819],[-93.88557,37.32816],[-93.88559,37.32813],[-93.88569,37.328],[-93.88579,37.32785],[-93.88587,37.32772],[-93.886,37.32752],[-93.88612,37.32734],[-93.88618,37.32724],[-93.8862,37.32721],[-93.88622,37.32717],[-93.8864,37.32688],[-93.88647,37.32677],[-93.88662,37.32653],[-93.88673,37.32637],[-93.88699,37.32595],[-93.88711,37.32576],[-93.88713,37.32573],[-93.88721,37.3256],[-93.88723,37.32557],[-93.88732,37.32544],[-93.88752,37.32512],[-93.88768,37.32487],[-93.88774,37.32476],[-93.88792,37.32447],[-93.88796,37.32442],[-93.88806,37.32426],[-93.88812,37.32418],[-93.88817,37.32413],[-93.88818,37.32411],[-93.88825,37.32405],[-93.88836,37.32397],[-93.88846,37.32391],[-93.88856,37.32386],[-93.88863,37.32383],[-93.88871,37.3238],[-93.88879,37.32377],[-93.88889,37.32375],[-93.889,37.32373],[-93.88909,37.32372],[-93.88922,37.32371],[-93.88938,37.32371],[-93.88945,37.32371],[-93.88947,37.32371],[-93.8896,37.32371],[-93.88983,37.32371],[-93.89061,37.32372],[-93.89104,37.32372],[-93.89215,37.32372],[-93.8922,37.32372],[-93.89283,37.32373],[-93.89286,37.32373],[-93.89304,37.32373],[-93.89321,37.32374],[-93.89332,37.32375],[-93.89342,37.32376],[-93.8935,37.32378],[-93.89351,37.32378],[-93.89368,37.32382],[-93.89381,37.32386],[-93.89399,37.32394],[-93.89413,37.32401],[-93.89427,37.32409],[-93.89442,37.3242],[-93.89456,37.32433],[-93.89467,37.32444],[-93.89476,37.32456],[-93.89483,37.32469],[-93.89488,37.32479],[-93.89491,37.32487],[-93.89495,37.32499],[-93.89496,37.32507],[-93.89498,37.3252],[-93.89498,37.32522],[-93.89499,37.32531],[-93.89499,37.3254],[-93.89499,37.32552],[-93.895,37.32562],[-93.89501,37.3257],[-93.89502,37.32575],[-93.89503,37.32579],[-93.89505,37.32588],[-93.89507,37.32593],[-93.89507,37.32596],[-93.89512,37.32606],[-93.89514,37.3261],[-93.89516,37.32614],[-93.89523,37.32626],[-93.89529,37.32635],[-93.89535,37.32642],[-93.89539,37.32647],[-93.89547,37.32654],[-93.89549,37.32656],[-93.89559,37.32666],[-93.89564,37.32669],[-93.8958,37.32682],[-93.89594,37.32694],[-93.89595,37.32695],[-93.89611,37.32709],[-93.89634,37.32729],[-93.89667,37.32758],[-93.89687,37.32775],[-93.89689,37.32776],[-93.89702,37.32788],[-93.89714,37.32798],[-93.89733,37.32815],[-93.89745,37.32827],[-93.89747,37.32829],[-93.89758,37.32841],[-93.8977,37.32858],[-93.89771,37.32859],[-93.89779,37.32873],[-93.89783,37.32884],[-93.89787,37.32897],[-93.8979,37.32914],[-93.89792,37.32931],[-93.89791,37.32947],[-93.89791,37.32978],[-93.8979,37.32983],[-93.8979,37.33001],[-93.89789,37.33005],[-93.8979,37.33016],[-93.8979,37.33019],[-93.8979,37.33022],[-93.89791,37.33026],[-93.89793,37.33032],[-93.89795,37.33036],[-93.89799,37.33047],[-93.89803,37.33054],[-93.89807,37.33059],[-93.89815,37.33069],[-93.89827,37.3308],[-93.89841,37.3309],[-93.89846,37.33093],[-93.89851,37.33096],[-93.89857,37.33098],[-93.89862,37.33101],[-93.89866,37.33102],[-93.89872,37.33104],[-93.89888,37.33108],[-93.89906,37.3311],[-93.89935,37.33111],[-93.90029,37.33113],[-93.90237,37.33115],[-93.90282,37.33116],[-93.90286,37.33116],[-93.90354,37.33116],[-93.9041,37.33117],[-93.90433,37.33117],[-93.90523,37.33118],[-93.90591,37.33119],[-93.90636,37.3312],[-93.90659,37.3312],[-93.90795,37.33122],[-93.90817,37.33122],[-93.9084,37.33122],[-93.90863,37.33122],[-93.9097,37.33123],[-93.90998,37.33123],[-93.91044,37.33124],[-93.91089,37.33124],[-93.91174,37.33124],[-93.91202,37.33125],[-93.91218,37.33125],[-93.91225,37.33125],[-93.9127,37.33125],[-93.91287,37.33125],[-93.91292,37.33125],[-93.91405,37.33126],[-93.91428,37.33126],[-93.91473,37.33127],[-93.91496,37.33127],[-93.91576,37.33127],[-93.91586,37.33127],[-93.91609,37.33127],[-93.91626,37.33128],[-93.91672,37.33128],[-93.91694,37.33128],[-93.91717,37.33128],[-93.91785,37.33129],[-93.91842,37.33129],[-93.91865,37.3313],[-93.9191,37.3313],[-93.91933,37.3313],[-93.92001,37.33131],[-93.92023,37.33131],[-93.92046,37.33132],[-93.92136,37.33132],[-93.92182,37.33133],[-93.92204,37.33133],[-93.92295,37.33134],[-93.92453,37.33136],[-93.92498,37.33136],[-93.92634,37.33137],[-93.92762,37.33139],[-93.92807,37.3314],[-93.9283,37.3314],[-93.92898,37.33141],[-93.93033,37.33143],[-93.93125,37.33145],[-93.9317,37.33145],[-93.93193,37.33146],[-93.93216,37.33146],[-93.93238,37.33146],[-93.9351,37.3315],[-93.9363,37.33152],[-93.93743,37.33153],[-93.93946,37.33156],[-93.941,37.33158],[-93.94227,37.33159],[-93.94239,37.33159],[-93.9442,37.33161],[-93.94453,37.33162],[-93.94657,37.33164],[-93.94679,37.33164],[-93.94691,37.33164],[-93.94698,37.33164],[-93.95144,37.33169],[-93.95222,37.3317],[-93.95327,37.33171],[-93.95415,37.33172],[-93.95445,37.33171],[-93.9547,37.33169],[-93.9547,37.33169],[-93.95531,37.33169],[-93.95638,37.33171],[-93.95724,37.33173],[-93.95729,37.33173],[-93.95836,37.33175],[-93.95842,37.33175],[-93.95888,37.33175],[-93.95932,37.33176],[-93.96,37.33177],[-93.96136,37.33179],[-93.96247,37.33181],[-93.96294,37.33181],[-93.96317,37.33182],[-93.96324,37.33182],[-93.96455,37.33184],[-93.96498,37.33185],[-93.96596,37.33186],[-93.96624,37.33186],[-93.96646,37.33186],[-93.96692,37.33187],[-93.96718,37.33187],[-93.96827,37.33189],[-93.96856,37.33189],[-93.96895,37.3319],[-93.96918,37.3319],[-93.9698,37.33191],[-93.96986,37.33191],[-93.97054,37.33192],[-93.97076,37.33193],[-93.97163,37.33194],[-93.97234,37.33195],[-93.97302,37.33196],[-93.97506,37.33199],[-93.97529,37.33199],[-93.97574,37.332],[-93.97596,37.332],[-93.97823,37.33203],[-93.97845,37.33204],[-93.98049,37.33206],[-93.98117,37.33207],[-93.98139,37.33208],[-93.98162,37.33208],[-93.98411,37.33211],[-93.98433,37.33212],[-93.98524,37.33213],[-93.98592,37.33214],[-93.98614,37.33214],[-93.98637,37.33215],[-93.98682,37.33215],[-93.98705,37.33216],[-93.98795,37.33217],[-93.98852,37.33218],[-93.98919,37.33219],[-93.99104,37.33222],[-93.99217,37.33225],[-93.9923,37.33226],[-93.99239,37.33226],[-93.99251,37.33226],[-93.99398,37.33231],[-93.99511,37.33235],[-93.99556,37.33237],[-93.99601,37.33238],[-93.99659,37.3324],[-93.99714,37.33242],[-93.99782,37.33244],[-93.99872,37.33248],[-93.99895,37.33248],[-94.00008,37.33252],[-94.0003,37.33253],[-94.00098,37.33255],[-94.00143,37.33257],[-94.00215,37.33259],[-94.00302,37.33262],[-94.00314,37.33263],[-94.00347,37.33264],[-94.00369,37.33264],[-94.00437,37.33267],[-94.00503,37.33269],[-94.00738,37.33276],[-94.00754,37.33277],[-94.00932,37.33282],[-94.01045,37.33284],[-94.0106,37.33285],[-94.01091,37.33285],[-94.01136,37.33286],[-94.01385,37.33292],[-94.01716,37.33299],[-94.01814,37.33302],[-94.01951,37.33305],[-94.01964,37.33305],[-94.02222,37.33311],[-94.02258,37.33312],[-94.02393,37.33315],[-94.02426,37.33316],[-94.02484,37.33317],[-94.02494,37.33317],[-94.02506,37.33318],[-94.02642,37.33321],[-94.02715,37.33323],[-94.02872,37.33327],[-94.02873,37.33327],[-94.02885,37.33327],[-94.03053,37.33332],[-94.03076,37.33333],[-94.03086,37.33333],[-94.03099,37.33333],[-94.03177,37.33335],[-94.0337,37.3334],[-94.0338,37.33341],[-94.03438,37.33342],[-94.03483,37.33344],[-94.03492,37.33344],[-94.03537,37.33345],[-94.03547,37.33346],[-94.03596,37.33348],[-94.03615,37.33349],[-94.03628,37.33349],[-94.03783,37.33352],[-94.03785,37.33352],[-94.03805,37.33353],[-94.03863,37.33355],[-94.03885,37.33355],[-94.03931,37.33357],[-94.03998,37.33359],[-94.04021,37.3336],[-94.04039,37.3336],[-94.04044,37.3336],[-94.04111,37.33362],[-94.04247,37.33365],[-94.0427,37.33366],[-94.0429,37.33366],[-94.04385,37.33368],[-94.04428,37.33369],[-94.04541,37.33372],[-94.04796,37.33378],[-94.04857,37.33379],[-94.04954,37.33381],[-94.04955,37.33381],[-94.05115,37.33385],[-94.05128,37.33385],[-94.05264,37.33388],[-94.05272,37.33388],[-94.05385,37.3339],[-94.05558,37.33394],[-94.05594,37.33394],[-94.05674,37.33396],[-94.05784,37.33399],[-94.05795,37.33399],[-94.05804,37.33399],[-94.05807,37.33399],[-94.05827,37.334],[-94.0585,37.334],[-94.05876,37.33401],[-94.06066,37.33405],[-94.06076,37.33405],[-94.06078,37.33405],[-94.06098,37.33406],[-94.06101,37.33406],[-94.06153,37.33408],[-94.06211,37.3341],[-94.06214,37.3341],[-94.06304,37.33411],[-94.06345,37.33412],[-94.06418,37.33411],[-94.06454,37.33411],[-94.06474,37.33411],[-94.065,37.33411],[-94.06569,37.33412],[-94.06604,37.33413],[-94.06762,37.33418],[-94.06895,37.33423],[-94.06916,37.33424],[-94.06918,37.33424],[-94.06971,37.33426],[-94.06986,37.33426],[-94.06997,37.33427],[-94.07006,37.33427],[-94.07008,37.33427],[-94.07054,37.33428],[-94.07261,37.33435],[-94.0733,37.33437],[-94.07393,37.3344],[-94.07429,37.33441],[-94.07436,37.33441],[-94.07438,37.33441],[-94.0746,37.33442],[-94.07483,37.33443],[-94.07506,37.33444],[-94.0755,37.33446],[-94.07571,37.33447],[-94.07573,37.33447],[-94.07685,37.33451],[-94.07797,37.33456],[-94.07799,37.33456],[-94.0791,37.3346],[-94.07935,37.33461],[-94.07957,37.33462],[-94.0807,37.33467],[-94.08159,37.33471],[-94.08183,37.33472],[-94.08265,37.33475],[-94.0831,37.33476],[-94.08356,37.33477],[-94.08512,37.33479],[-94.08536,37.3348],[-94.08581,37.3348],[-94.08762,37.33483],[-94.08784,37.33484],[-94.08807,37.33484],[-94.0901,37.33487],[-94.09011,37.33487],[-94.09305,37.33491],[-94.09372,37.33492],[-94.09373,37.33492],[-94.09576,37.33496],[-94.09644,37.33497],[-94.09667,37.33497],[-94.09689,37.33497],[-94.09712,37.33498],[-94.09825,37.33499],[-94.09894,37.335],[-94.09926,37.33501]]}},{"type":"Feature","properties":{"_gpxType":"trk","name":"310 E Parkway St - 2481 Thorn Rd - 204 Main St","coordinateProperties":{},"id":43},"geometry":{"type":"LineString","coordinates":[[-94.09926,37.33501],[-94.09938,37.33501],[-94.10029,37.33502],[-94.10097,37.33503],[-94.10097,37.33503],[-94.10094,37.33593],[-94.10092,37.33665],[-94.10091,37.33687],[-94.1009,37.33701],[-94.10089,37.33737],[-94.10088,37.33773],[-94.10086,37.33845],[-94.10085,37.33873],[-94.10082,37.33988],[-94.10079,37.34078],[-94.10075,37.34224],[-94.10072,37.34294],[-94.10072,37.34312],[-94.10072,37.34313],[-94.1007,37.34366],[-94.1007,37.34367],[-94.10069,37.34384],[-94.10069,37.34402],[-94.10069,37.34403],[-94.10065,37.34528],[-94.10064,37.34565],[-94.10062,37.34636],[-94.10061,37.34655],[-94.10057,37.34797],[-94.10053,37.34908],[-94.10052,37.34963],[-94.10049,37.35001],[-94.10048,37.35029],[-94.10048,37.35045],[-94.10042,37.35207],[-94.10041,37.35243],[-94.1004,37.35261],[-94.10038,37.35315],[-94.10037,37.35349],[-94.10035,37.35404],[-94.10033,37.35458],[-94.10028,37.35602],[-94.10024,37.35694],[-94.10023,37.35756],[-94.10022,37.35763],[-94.10021,37.35817],[-94.10017,37.35907],[-94.10015,37.35955],[-94.10014,37.35997],[-94.10013,37.36015],[-94.10011,37.36069],[-94.10011,37.36087],[-94.1001,37.36105],[-94.1001,37.36123],[-94.10009,37.36132],[-94.10009,37.36141],[-94.10008,37.36177],[-94.10007,37.36195],[-94.09999,37.36425],[-94.09997,37.36494],[-94.0999,37.36689],[-94.09984,37.36837],[-94.09981,37.3694],[-94.09976,37.37076],[-94.09973,37.37136],[-94.09972,37.3718],[-94.09962,37.37533],[-94.0996,37.37611],[-94.09958,37.37666],[-94.09954,37.37772],[-94.09952,37.37862],[-94.09948,37.37951],[-94.09947,37.37973],[-94.09943,37.38028],[-94.09929,37.38188],[-94.09923,37.38263],[-94.09913,37.38385],[-94.0991,37.38441],[-94.09908,37.38489],[-94.09905,37.38594],[-94.09902,37.38672],[-94.099,37.38742],[-94.099,37.38766],[-94.09897,37.3883],[-94.09893,37.38925],[-94.09893,37.38959],[-94.0989,37.39025],[-94.09888,37.39091],[-94.09887,37.39127],[-94.09887,37.39135],[-94.09886,37.39167],[-94.09884,37.39206],[-94.09883,37.39242],[-94.0988,37.39303],[-94.09879,37.39321],[-94.09879,37.39321],[-94.09791,37.39317],[-94.09699,37.39314],[-94.09676,37.39313],[-94.09629,37.39312],[-94.09602,37.39311],[-94.09542,37.39309],[-94.0952,37.39308],[-94.09488,37.39307],[-94.09413,37.39306],[-94.09391,37.39306],[-94.0929,37.39304],[-94.0928,37.39303],[-94.09257,37.39302],[-94.09249,37.39302],[-94.09226,37.39301],[-94.09161,37.39299],[-94.09104,37.39297],[-94.09036,37.39294],[-94.09036,37.39294],[-94.09034,37.39356],[-94.09035,37.39393],[-94.09035,37.39393],[-94.09012,37.39393],[-94.08999,37.39393],[-94.08988,37.39393],[-94.08975,37.39391],[-94.08959,37.39387],[-94.08951,37.39382],[-94.08949,37.39379],[-94.08943,37.39368],[-94.08938,37.39364],[-94.08927,37.3936],[-94.08914,37.39359],[-94.08885,37.39357],[-94.08876,37.39361],[-94.0887,37.39367]]}}]}