{"type":"FeatureCollection","features":[{"type":"Feature","properties":{"_gpxType":"trk","name":"204 Main St - Harry's Cafe, North Broadway #3919, Pittsburg, KS - La Quinta Inn & Suites by Wyndham Pittsburg, South Broadway Street, Pittsburg, KS","coordinateProperties":{},"id":44},"geometry":{"type":"LineString","coordinates":[[-94.08898,37.39358],[-94.08914,37.39359],[-94.08927,37.3936],[-94.08938,37.39364],[-94.08943,37.39368],[-94.08949,37.39379],[-94.08951,37.39382],[-94.08959,37.39387],[-94.08975,37.39391],[-94.08988,37.39393],[-94.08999,37.39393],[-94.09012,37.39393],[-94.09035,37.39393],[-94.09035,37.39393],[-94.09034,37.39356],[-94.09036,37.39294],[-94.09036,37.39294],[-94.09104,37.39297],[-94.09161,37.39299],[-94.09226,37.39301],[-94.09249,37.39302],[-94.09257,37.39302],[-94.0928,37.39303],[-94.0929,37.39304],[-94.09391,37.39306],[-94.09413,37.39306],[-94.09488,37.39307],[-94.0952,37.39308],[-94.09542,37.39309],[-94.09602,37.39311],[-94.09629,37.39312],[-94.09676,37.39313],[-94.09699,37.39314],[-94.09791,37.39317],[-94.09879,37.39321],[-94.09919,37.39322],[-94.09992,37.39325],[-94.10015,37.39325],[-94.10024,37.39326],[-94.10068,37.39327],[-94.10178,37.3933],[-94.10205,37.39331],[-94.10218,37.39331],[-94.10335,37.39335],[-94.10363,37.39336],[-94.10431,37.39338],[-94.10532,37.39341],[-94.10612,37.39344],[-94.10682,37.39346],[-94.10826,37.39351],[-94.10833,37.39351],[-94.10848,37.39352],[-94.10952,37.39355],[-94.11007,37.39356],[-94.11036,37.39357],[-94.11091,37.39358],[-94.11138,37.3936],[-94.11142,37.3936],[-94.11196,37.39362],[-94.1121,37.39362],[-94.11233,37.39363],[-94.11253,37.39363],[-94.11307,37.39365],[-94.11321,37.39365],[-94.11332,37.39366],[-94.11389,37.39368],[-94.1143,37.39369],[-94.11484,37.3937],[-94.11539,37.39371],[-94.11542,37.39371],[-94.11636,37.39374],[-94.11662,37.39375],[-94.117,37.39376],[-94.1211,37.39386],[-94.12141,37.39387],[-94.12196,37.39389],[-94.12216,37.39389],[-94.12251,37.3939],[-94.12292,37.39391],[-94.12374,37.39394],[-94.12456,37.39396],[-94.12511,37.39397],[-94.12552,37.39399],[-94.12691,37.39403],[-94.12714,37.39404],[-94.12716,37.39404],[-94.12784,37.39406],[-94.12849,37.39408],[-94.12852,37.39408],[-94.12872,37.39409],[-94.12934,37.39411],[-94.13076,37.39415],[-94.13138,37.39417],[-94.1322,37.39419],[-94.13261,37.39421],[-94.13279,37.39421],[-94.13302,37.39422],[-94.13324,37.39423],[-94.13329,37.39423],[-94.13347,37.39424],[-94.13383,37.39425],[-94.13519,37.39429],[-94.13532,37.39429],[-94.13548,37.39429],[-94.13588,37.39431],[-94.13615,37.39431],[-94.13642,37.39432],[-94.13671,37.39433],[-94.13711,37.39434],[-94.13752,37.39436],[-94.13765,37.39436],[-94.13766,37.39436],[-94.13779,37.39437],[-94.13793,37.39437],[-94.13807,37.39437],[-94.1382,37.39438],[-94.13834,37.39438],[-94.13848,37.39439],[-94.13862,37.39439],[-94.13888,37.3944],[-94.13929,37.39441],[-94.13957,37.39442],[-94.13998,37.39443],[-94.14025,37.39444],[-94.14037,37.39444],[-94.14066,37.39445],[-94.14107,37.39446],[-94.14148,37.39448],[-94.14195,37.39449],[-94.1423,37.3945],[-94.14271,37.39452],[-94.14299,37.39453],[-94.14325,37.39454],[-94.14432,37.39457],[-94.14526,37.3946],[-94.14582,37.39462],[-94.1459,37.39462],[-94.14613,37.39463],[-94.14621,37.39463],[-94.14669,37.39464],[-94.14736,37.39466],[-94.14771,37.39467],[-94.14797,37.39468],[-94.14832,37.39469],[-94.1493,37.39472],[-94.14978,37.39474],[-94.15036,37.39476],[-94.15091,37.39477],[-94.15201,37.39481],[-94.15347,37.39485],[-94.15626,37.39491],[-94.15807,37.39495],[-94.15965,37.39498],[-94.16011,37.39499],[-94.16169,37.39502],[-94.16192,37.39503],[-94.16291,37.39505],[-94.16419,37.39507],[-94.16666,37.39513],[-94.16848,37.39518],[-94.16893,37.39519],[-94.17178,37.39525],[-94.17256,37.39527],[-94.17379,37.3953],[-94.1765,37.39535],[-94.17755,37.39537],[-94.17854,37.39538],[-94.17909,37.3954],[-94.18103,37.39543],[-94.18171,37.39544],[-94.18194,37.39545],[-94.18352,37.39548],[-94.18375,37.39548],[-94.18583,37.39552],[-94.18701,37.39554],[-94.18767,37.39555],[-94.18801,37.39556],[-94.18815,37.39556],[-94.18835,37.39556],[-94.18887,37.39557],[-94.19008,37.3956],[-94.19117,37.39562],[-94.19231,37.39565],[-94.1938,37.39568],[-94.19607,37.39574],[-94.19706,37.39576],[-94.19728,37.39577],[-94.19798,37.39578],[-94.19932,37.39582],[-94.1999,37.39583],[-94.20069,37.39584],[-94.20192,37.39587],[-94.20308,37.39589],[-94.20389,37.3959],[-94.20494,37.39592],[-94.20552,37.39594],[-94.20575,37.39594],[-94.20598,37.39595],[-94.20618,37.39595],[-94.20759,37.39598],[-94.20847,37.396],[-94.209,37.39601],[-94.21113,37.39605],[-94.21261,37.39608],[-94.21292,37.39609],[-94.2136,37.3961],[-94.21383,37.39611],[-94.21473,37.39612],[-94.21521,37.39613],[-94.21658,37.39616],[-94.21795,37.3962],[-94.21931,37.39623],[-94.21948,37.39623],[-94.21993,37.39625],[-94.22068,37.39626],[-94.22307,37.39632],[-94.22452,37.39635],[-94.22492,37.39636],[-94.22575,37.39638],[-94.22672,37.3964],[-94.22828,37.39644],[-94.22831,37.39644],[-94.22947,37.39647],[-94.22996,37.39649],[-94.22999,37.39649],[-94.23041,37.3965],[-94.23155,37.39653],[-94.23199,37.39654],[-94.23268,37.39656],[-94.23322,37.39657],[-94.23498,37.39662],[-94.23539,37.39663],[-94.23652,37.39666],[-94.23668,37.39666],[-94.2372,37.39668],[-94.23768,37.3967],[-94.23803,37.3967],[-94.23901,37.39673],[-94.23952,37.39674],[-94.24068,37.39677],[-94.24081,37.39677],[-94.24091,37.39677],[-94.24136,37.39679],[-94.24165,37.39679],[-94.24204,37.3968],[-94.24227,37.39681],[-94.24287,37.39683],[-94.24362,37.39685],[-94.2441,37.39686],[-94.24498,37.39688],[-94.24589,37.3969],[-94.24699,37.39693],[-94.24724,37.39694],[-94.2477,37.39695],[-94.24792,37.39696],[-94.24832,37.39697],[-94.24873,37.39698],[-94.24883,37.39698],[-94.24928,37.397],[-94.24973,37.39701],[-94.24996,37.39702],[-94.25019,37.39702],[-94.25029,37.39703],[-94.25064,37.39704],[-94.25109,37.39705],[-94.25124,37.39705],[-94.25132,37.39705],[-94.25177,37.39707],[-94.25217,37.39708],[-94.25245,37.39709],[-94.25268,37.39709],[-94.25313,37.3971],[-94.25338,37.39711],[-94.25374,37.39712],[-94.25397,37.39712],[-94.25419,37.39713],[-94.2543,37.39713],[-94.25442,37.39714],[-94.25454,37.39714],[-94.25462,37.39714],[-94.25465,37.39714],[-94.25487,37.39715],[-94.2551,37.39716],[-94.25575,37.39717],[-94.25578,37.39718],[-94.256,37.39718],[-94.25621,37.39719],[-94.25622,37.39719],[-94.25643,37.39719],[-94.25646,37.3972],[-94.25668,37.3972],[-94.25688,37.39721],[-94.25714,37.39722],[-94.25802,37.39724],[-94.25825,37.39725],[-94.25848,37.39726],[-94.25896,37.39727],[-94.25919,37.39728],[-94.25935,37.39728],[-94.25964,37.39729],[-94.25987,37.3973],[-94.26009,37.39731],[-94.26032,37.39731],[-94.26055,37.39732],[-94.26199,37.39736],[-94.26326,37.3974],[-94.26402,37.39743],[-94.26456,37.39745],[-94.26478,37.39745],[-94.2649,37.39746],[-94.26565,37.39748],[-94.26637,37.3975],[-94.26642,37.39751],[-94.26659,37.39751],[-94.26709,37.39753],[-94.26804,37.39756],[-94.26863,37.39758],[-94.26976,37.39762],[-94.26999,37.39763],[-94.27164,37.39768],[-94.27273,37.39772],[-94.27288,37.39773],[-94.27341,37.39774],[-94.27387,37.39776],[-94.27465,37.39778],[-94.2753,37.3978],[-94.27578,37.39782],[-94.27665,37.39785],[-94.27688,37.39786],[-94.27982,37.39796],[-94.28004,37.39797],[-94.28095,37.398],[-94.2818,37.39805],[-94.28196,37.39806],[-94.28275,37.3981],[-94.28359,37.39813],[-94.28361,37.39813],[-94.28384,37.39813],[-94.28531,37.39816],[-94.28634,37.39819],[-94.2895,37.39825],[-94.28973,37.39825],[-94.28995,37.39826],[-94.28996,37.39826],[-94.29018,37.39826],[-94.29174,37.39829],[-94.29176,37.39829],[-94.29312,37.39832],[-94.29358,37.39833],[-94.29403,37.39834],[-94.29561,37.39838],[-94.29584,37.39838],[-94.29652,37.3984],[-94.29674,37.3984],[-94.29697,37.3984],[-94.29716,37.39841],[-94.29788,37.39842],[-94.29886,37.39845],[-94.29958,37.39846],[-94.29984,37.39846],[-94.30011,37.39847],[-94.30085,37.3985],[-94.30179,37.39849],[-94.30209,37.3985],[-94.30244,37.39851],[-94.30336,37.39852],[-94.30338,37.39852],[-94.3034,37.39852],[-94.3036,37.39852],[-94.30406,37.39853],[-94.30449,37.39854],[-94.30451,37.39854],[-94.30473,37.39854],[-94.30496,37.39854],[-94.30511,37.39855],[-94.30519,37.39855],[-94.30632,37.39857],[-94.30676,37.39857],[-94.30857,37.3986],[-94.30858,37.3986],[-94.30881,37.39861],[-94.30902,37.39861],[-94.30904,37.39861],[-94.30926,37.39862],[-94.30952,37.39862],[-94.30994,37.39863],[-94.31015,37.39863],[-94.31017,37.39863],[-94.31062,37.39864],[-94.31083,37.39864],[-94.31085,37.39864],[-94.31107,37.39865],[-94.3113,37.39865],[-94.31151,37.39865],[-94.31153,37.39865],[-94.31219,37.39866],[-94.3122,37.39866],[-94.31227,37.39866],[-94.31266,37.39867],[-94.31287,37.39867],[-94.31288,37.39867],[-94.31479,37.3987],[-94.31515,37.39871],[-94.31537,37.39871],[-94.31559,37.39871],[-94.31604,37.39872],[-94.31605,37.39872],[-94.31626,37.39873],[-94.31628,37.39873],[-94.31715,37.39874],[-94.3174,37.39875],[-94.31756,37.39875],[-94.31764,37.39875],[-94.31828,37.39877],[-94.31854,37.39878],[-94.31875,37.39879],[-94.31877,37.39879],[-94.31889,37.3988],[-94.31898,37.3988],[-94.31899,37.3988],[-94.31988,37.39883],[-94.3199,37.39884],[-94.31995,37.39884],[-94.32056,37.39886],[-94.32058,37.39886],[-94.32102,37.39888],[-94.32169,37.39891],[-94.32171,37.39891],[-94.32212,37.39892],[-94.32215,37.39892],[-94.32216,37.39892],[-94.32275,37.39895],[-94.32282,37.39895],[-94.32284,37.39895],[-94.32289,37.39895],[-94.32306,37.39896],[-94.32374,37.39901],[-94.32395,37.39901],[-94.32412,37.39902],[-94.32441,37.39903],[-94.32484,37.39905],[-94.32486,37.39905],[-94.32515,37.39906],[-94.32551,37.39907],[-94.32554,37.39907],[-94.32599,37.39909],[-94.32621,37.3991],[-94.32647,37.39911],[-94.32667,37.39911],[-94.32686,37.39912],[-94.32736,37.39914],[-94.32794,37.39916],[-94.32826,37.39917],[-94.32863,37.39919],[-94.32896,37.3992],[-94.32935,37.39922],[-94.32941,37.39922],[-94.32964,37.39922],[-94.33,37.39923],[-94.33009,37.39924],[-94.33032,37.39925],[-94.33122,37.39928],[-94.33145,37.39929],[-94.33168,37.3993],[-94.3319,37.3993],[-94.33258,37.39933],[-94.33349,37.39936],[-94.33357,37.39936],[-94.33371,37.39937],[-94.33416,37.39939],[-94.33484,37.39941],[-94.33597,37.39945],[-94.33605,37.39945],[-94.33643,37.39946],[-94.3369,37.39948],[-94.3375,37.39949],[-94.33758,37.39949],[-94.33803,37.3995],[-94.33894,37.39952],[-94.33964,37.39953],[-94.33984,37.39954],[-94.34029,37.39955],[-94.34075,37.39956],[-94.34097,37.39957],[-94.34165,37.39959],[-94.34206,37.3996],[-94.34233,37.3996],[-94.34351,37.39963],[-94.34369,37.39963],[-94.34414,37.39965],[-94.34437,37.39965],[-94.34459,37.39966],[-94.34521,37.39967],[-94.3464,37.3997],[-94.34663,37.39971],[-94.34703,37.39972],[-94.34708,37.39972],[-94.34753,37.39974],[-94.34817,37.39975],[-94.34867,37.39977],[-94.34889,37.39977],[-94.34934,37.39978],[-94.34974,37.39979],[-94.35025,37.3998],[-94.35048,37.39981],[-94.3507,37.39982],[-94.35151,37.39984],[-94.35161,37.39984],[-94.35183,37.39984],[-94.35229,37.39985],[-94.35274,37.39987],[-94.35293,37.39987],[-94.35319,37.39988],[-94.35342,37.39988],[-94.35364,37.39989],[-94.35387,37.3999],[-94.35478,37.39992],[-94.3556,37.39994],[-94.35582,37.39995],[-94.3565,37.39997],[-94.35673,37.39998],[-94.35809,37.40002],[-94.35899,37.40004],[-94.35922,37.40005],[-94.35944,37.40006],[-94.35967,37.40006],[-94.36171,37.40012],[-94.36284,37.40016],[-94.36313,37.40016],[-94.36352,37.40017],[-94.36374,37.40018],[-94.364,37.40019],[-94.3642,37.40019],[-94.36442,37.4002],[-94.36529,37.40022],[-94.36533,37.40022],[-94.36555,37.40023],[-94.36558,37.40023],[-94.36577,37.40024],[-94.36578,37.40024],[-94.366,37.40025],[-94.36623,37.40025],[-94.36646,37.40026],[-94.36668,37.40027],[-94.36688,37.40027],[-94.36691,37.40027],[-94.36759,37.40029],[-94.36795,37.4003],[-94.36804,37.40031],[-94.36844,37.40032],[-94.36895,37.40034],[-94.36922,37.40035],[-94.36985,37.40037],[-94.37008,37.40037],[-94.37027,37.40038],[-94.3703,37.40038],[-94.37053,37.40039],[-94.37066,37.40039],[-94.37092,37.4004],[-94.37117,37.4004],[-94.37121,37.4004],[-94.37143,37.40041],[-94.37156,37.40042],[-94.37166,37.40042],[-94.37189,37.40043],[-94.37249,37.40044],[-94.37257,37.40044],[-94.37308,37.40045],[-94.37354,37.40045],[-94.37412,37.40046],[-94.37444,37.40046],[-94.37527,37.40046],[-94.3758,37.40046],[-94.37603,37.40046],[-94.37648,37.40046],[-94.37653,37.40046],[-94.37734,37.40045],[-94.37761,37.40045],[-94.37806,37.40045],[-94.37815,37.40046],[-94.37892,37.40046],[-94.3793,37.40045],[-94.37942,37.40045],[-94.37965,37.40045],[-94.38016,37.40045],[-94.38033,37.40045],[-94.38055,37.40045],[-94.38074,37.40046],[-94.38146,37.40046],[-94.38169,37.40046],[-94.38186,37.40046],[-94.3826,37.40045],[-94.38282,37.40045],[-94.38327,37.40045],[-94.38344,37.40045],[-94.3835,37.40045],[-94.38409,37.40045],[-94.3844,37.40045],[-94.38463,37.40045],[-94.38473,37.40045],[-94.38486,37.40045],[-94.38511,37.40045],[-94.38531,37.40045],[-94.38553,37.40046],[-94.38557,37.40046],[-94.38603,37.40046],[-94.38637,37.40045],[-94.38667,37.40046],[-94.38679,37.40046],[-94.38712,37.40045],[-94.38719,37.40045],[-94.38757,37.40045],[-94.38768,37.40045],[-94.38803,37.40045],[-94.38837,37.40045],[-94.38894,37.40045],[-94.38947,37.40045],[-94.38969,37.40045],[-94.38984,37.40046],[-94.38998,37.40046],[-94.39021,37.40047],[-94.39052,37.40051],[-94.39073,37.40053],[-94.39102,37.40058],[-94.39127,37.40062],[-94.39134,37.40063],[-94.3919,37.40073],[-94.39202,37.40075],[-94.39224,37.40078],[-94.39233,37.40079],[-94.39248,37.4008],[-94.39255,37.40081],[-94.39293,37.40083],[-94.39311,37.40084],[-94.39338,37.40085],[-94.39372,37.40085],[-94.39384,37.40086],[-94.39406,37.40086],[-94.39452,37.40087],[-94.39486,37.40088],[-94.39542,37.40089],[-94.39565,37.4009],[-94.39593,37.40091],[-94.39655,37.40093],[-94.39711,37.40094],[-94.39774,37.40095],[-94.39921,37.40099],[-94.39937,37.401],[-94.3996,37.401],[-94.40045,37.40102],[-94.40049,37.40102],[-94.40051,37.40102],[-94.40054,37.40102],[-94.40057,37.40102],[-94.40061,37.40103],[-94.40063,37.40103],[-94.40064,37.40103],[-94.40066,37.40103],[-94.40067,37.40103],[-94.40068,37.40103],[-94.40069,37.40104],[-94.40071,37.40105],[-94.40073,37.40107],[-94.40074,37.40109],[-94.40076,37.40111],[-94.40078,37.40113],[-94.40078,37.40115],[-94.4008,37.40116],[-94.4008,37.40117],[-94.40081,37.40117],[-94.40083,37.40118],[-94.40084,37.40118],[-94.40089,37.40118],[-94.40202,37.40122],[-94.40224,37.40122],[-94.4024,37.40123],[-94.40263,37.40123],[-94.4027,37.40123],[-94.40315,37.40125],[-94.40586,37.40132],[-94.40648,37.40134],[-94.40783,37.40138],[-94.4079,37.40138],[-94.40903,37.40141],[-94.40919,37.40141],[-94.4096,37.40143],[-94.40975,37.40143],[-94.41043,37.40144],[-94.41134,37.40146],[-94.41242,37.40147],[-94.41292,37.40149],[-94.41299,37.40149],[-94.41315,37.40149],[-94.41337,37.4015],[-94.4136,37.40151],[-94.4148,37.40154],[-94.41564,37.40157],[-94.41699,37.40161],[-94.41707,37.40161],[-94.41767,37.40163],[-94.41813,37.40164],[-94.41835,37.40165],[-94.41842,37.40165],[-94.41926,37.40168],[-94.41948,37.40168],[-94.42061,37.40172],[-94.42084,37.40172],[-94.42091,37.40173],[-94.42107,37.40173],[-94.42129,37.40174],[-94.4222,37.40177],[-94.42227,37.40177],[-94.42242,37.40177],[-94.42272,37.40178],[-94.42305,37.40179],[-94.42331,37.4018],[-94.4239,37.40182],[-94.42395,37.40182],[-94.4244,37.40183],[-94.42486,37.40184],[-94.42531,37.40185],[-94.42561,37.40186],[-94.42599,37.40187],[-94.42621,37.40188],[-94.42766,37.40192],[-94.42782,37.40192],[-94.42798,37.40192],[-94.42889,37.40195],[-94.43025,37.402],[-94.43076,37.40202],[-94.43096,37.40203],[-94.43115,37.40204],[-94.432,37.40207],[-94.43295,37.4021],[-94.43409,37.40214],[-94.4347,37.40216],[-94.43526,37.40218],[-94.43661,37.40222],[-94.43751,37.40224],[-94.43752,37.40224],[-94.43865,37.40226],[-94.4388,37.40227],[-94.43888,37.40227],[-94.4392,37.40228],[-94.43971,37.40229],[-94.44069,37.40231],[-94.44076,37.40232],[-94.44171,37.40234],[-94.44182,37.40234],[-94.4425,37.40236],[-94.44288,37.40237],[-94.44408,37.40241],[-94.44426,37.40241],[-94.44544,37.40244],[-94.44547,37.40244],[-94.44618,37.40246],[-94.44707,37.40249],[-94.44708,37.40249],[-94.44731,37.40249],[-94.44767,37.4025],[-94.44826,37.40251],[-94.44839,37.40252],[-94.44933,37.40255],[-94.44939,37.40255],[-94.44962,37.40255],[-94.45007,37.40257],[-94.45018,37.40257],[-94.45052,37.40258],[-94.45072,37.40259],[-94.4514,37.40261],[-94.45234,37.40264],[-94.45358,37.40267],[-94.45369,37.40268],[-94.45427,37.40269],[-94.45437,37.4027],[-94.45467,37.40271],[-94.45528,37.40273],[-94.45538,37.40273],[-94.4555,37.40273],[-94.45595,37.40275],[-94.45619,37.40275],[-94.45686,37.40277],[-94.45689,37.40278],[-94.45709,37.40278],[-94.45767,37.4028],[-94.45844,37.40282],[-94.45935,37.40285],[-94.45955,37.40285],[-94.4598,37.40286],[-94.46003,37.40287],[-94.46025,37.40288],[-94.46128,37.40291],[-94.46161,37.40292],[-94.46274,37.40295],[-94.46297,37.40295],[-94.4634,37.40297],[-94.46439,37.403],[-94.46512,37.40302],[-94.4661,37.40304],[-94.46643,37.40305],[-94.46666,37.40306],[-94.46759,37.40308],[-94.46881,37.40311],[-94.46994,37.40314],[-94.47032,37.40315],[-94.47133,37.40318],[-94.4717,37.40319],[-94.47255,37.4032],[-94.47271,37.40321],[-94.47317,37.40322],[-94.47361,37.40324],[-94.47407,37.40325],[-94.47441,37.40326],[-94.47452,37.40326],[-94.47475,37.40327],[-94.47497,37.40327],[-94.47539,37.40328],[-94.47543,37.40328],[-94.47618,37.4033],[-94.47656,37.40331],[-94.47676,37.40332],[-94.47702,37.40332],[-94.47747,37.40334],[-94.47791,37.40335],[-94.4785,37.40336],[-94.4786,37.40336],[-94.47888,37.40337],[-94.47905,37.40338],[-94.47928,37.40338],[-94.47936,37.40338],[-94.47992,37.4034],[-94.48076,37.40342],[-94.48109,37.40343],[-94.48147,37.40344],[-94.4821,37.40346],[-94.48225,37.40346],[-94.48283,37.40348],[-94.48304,37.40348],[-94.48418,37.40352],[-94.48519,37.40355],[-94.48554,37.40356],[-94.48581,37.40357],[-94.48602,37.40357],[-94.4865,37.40359],[-94.48691,37.4036],[-94.4876,37.40362],[-94.48814,37.40364],[-94.4884,37.40365],[-94.48862,37.40365],[-94.48875,37.40366],[-94.48924,37.40367],[-94.48953,37.40368],[-94.48998,37.40369],[-94.49156,37.40373],[-94.49202,37.40374],[-94.49272,37.40376],[-94.49338,37.40377],[-94.49403,37.40379],[-94.49488,37.40381],[-94.49567,37.40383],[-94.49643,37.40385],[-94.49679,37.40386],[-94.4978,37.40388],[-94.49792,37.40389],[-94.49853,37.4039],[-94.49905,37.40391],[-94.4993,37.40392],[-94.49996,37.40393],[-94.50064,37.40395],[-94.50228,37.40399],[-94.503,37.40401],[-94.50409,37.40404],[-94.50499,37.40407],[-94.50567,37.40409],[-94.50764,37.40414],[-94.50786,37.40415],[-94.50865,37.40417],[-94.50922,37.40419],[-94.50972,37.4042],[-94.50994,37.40421],[-94.51203,37.40426],[-94.51225,37.40427],[-94.51244,37.40427],[-94.51297,37.40428],[-94.51361,37.4043],[-94.51384,37.40431],[-94.51394,37.40431],[-94.51427,37.40432],[-94.51535,37.40434],[-94.51588,37.40436],[-94.51608,37.40436],[-94.5161,37.40436],[-94.51655,37.40437],[-94.51678,37.40438],[-94.51746,37.4044],[-94.51791,37.40441],[-94.5184,37.40442],[-94.51882,37.40443],[-94.51969,37.40446],[-94.52011,37.40447],[-94.5203,37.40447],[-94.52052,37.40448],[-94.52105,37.4045],[-94.52295,37.40456],[-94.5234,37.40457],[-94.52363,37.40457],[-94.52471,37.40459],[-94.52507,37.40459],[-94.52516,37.4046],[-94.52594,37.40462],[-94.52607,37.40463],[-94.52629,37.40463],[-94.52674,37.40465],[-94.5272,37.40466],[-94.52784,37.40468],[-94.5281,37.40468],[-94.52833,37.40468],[-94.52843,37.40468],[-94.52856,37.40469],[-94.52878,37.40469],[-94.52923,37.4047],[-94.52943,37.40471],[-94.53,37.40472],[-94.53164,37.40476],[-94.53186,37.40476],[-94.53336,37.40479],[-94.53454,37.40481],[-94.53458,37.40481],[-94.53612,37.40484],[-94.53701,37.40486],[-94.53756,37.40487],[-94.53887,37.40491],[-94.53933,37.40491],[-94.53977,37.40492],[-94.54,37.40493],[-94.54048,37.40494],[-94.54136,37.40496],[-94.54158,37.40497],[-94.54344,37.40501],[-94.54362,37.40502],[-94.54385,37.40502],[-94.5443,37.40503],[-94.54453,37.40503],[-94.54475,37.40504],[-94.54498,37.40504],[-94.54634,37.40507],[-94.54715,37.40509],[-94.54747,37.4051],[-94.54813,37.40511],[-94.54905,37.40514],[-94.54956,37.40514],[-94.55179,37.40518],[-94.55245,37.4052],[-94.55533,37.40525],[-94.55744,37.40529],[-94.55875,37.40532],[-94.55921,37.40533],[-94.56089,37.40535],[-94.56159,37.40537],[-94.56212,37.40538],[-94.56283,37.40539],[-94.56344,37.4054],[-94.56453,37.40543],[-94.56497,37.40544],[-94.56521,37.40544],[-94.56543,37.40544],[-94.56634,37.40546],[-94.56656,37.40547],[-94.5671,37.40548],[-94.5677,37.40549],[-94.56838,37.4055],[-94.56883,37.40551],[-94.56996,37.40553],[-94.57087,37.40555],[-94.57124,37.40556],[-94.57132,37.40556],[-94.572,37.40557],[-94.57264,37.40558],[-94.57268,37.40559],[-94.57359,37.40561],[-94.57419,37.40562],[-94.57563,37.40564],[-94.57586,37.40564],[-94.57608,37.40564],[-94.57699,37.40565],[-94.57744,37.40566],[-94.57767,37.40566],[-94.5797,37.40567],[-94.58208,37.4057],[-94.58366,37.40573],[-94.58368,37.40573],[-94.58389,37.40573],[-94.585,37.40576],[-94.58525,37.40576],[-94.58642,37.40577],[-94.58755,37.4058],[-94.58768,37.40581],[-94.58798,37.40581],[-94.58888,37.40582],[-94.58916,37.40583],[-94.59039,37.40586],[-94.59155,37.40588],[-94.59182,37.40589],[-94.59227,37.4059],[-94.59302,37.4059],[-94.59461,37.40592],[-94.59464,37.40592],[-94.59483,37.40592],[-94.59539,37.40593],[-94.59658,37.40594],[-94.5971,37.40594],[-94.59732,37.40594],[-94.59742,37.40594],[-94.59755,37.40594],[-94.59778,37.40594],[-94.598,37.40595],[-94.59959,37.40596],[-94.6001,37.40596],[-94.60049,37.40597],[-94.60072,37.40597],[-94.60095,37.40597],[-94.60096,37.40597],[-94.60117,37.40598],[-94.60121,37.40598],[-94.60366,37.40599],[-94.60367,37.40599],[-94.60389,37.40599],[-94.60457,37.406],[-94.6048,37.406],[-94.60484,37.406],[-94.6057,37.406],[-94.60651,37.40601],[-94.60683,37.40601],[-94.60755,37.40602],[-94.60847,37.40603],[-94.60863,37.40603],[-94.6091,37.40603],[-94.60955,37.40603],[-94.61015,37.40604],[-94.61044,37.40604],[-94.61082,37.40604],[-94.61124,37.40604],[-94.6118,37.40605],[-94.61213,37.40605],[-94.61306,37.40606],[-94.61373,37.40606],[-94.61436,37.40607],[-94.6149,37.40607],[-94.61563,37.40608],[-94.61601,37.40608],[-94.61646,37.40609],[-94.61653,37.40609],[-94.61715,37.40609],[-94.61745,37.40609],[-94.61745,37.40609],[-94.61768,37.4061],[-94.618,37.40612],[-94.61829,37.40614],[-94.61872,37.40618],[-94.61895,37.40621],[-94.61902,37.40622],[-94.61929,37.40627],[-94.61943,37.40629],[-94.61972,37.40636],[-94.61978,37.40637],[-94.61985,37.40639],[-94.62001,37.40643],[-94.62013,37.40646],[-94.62035,37.40653],[-94.62069,37.40664],[-94.62077,37.40667],[-94.62085,37.4067],[-94.62098,37.40675],[-94.6212,37.40683],[-94.62145,37.40694],[-94.62158,37.407],[-94.62175,37.40708],[-94.62195,37.40718],[-94.62226,37.40735],[-94.62238,37.40741],[-94.62247,37.40747],[-94.62259,37.40754],[-94.62267,37.40758],[-94.62289,37.40771],[-94.62317,37.40787],[-94.62344,37.40803],[-94.62379,37.40823],[-94.62406,37.40839],[-94.62499,37.40894],[-94.62562,37.40931],[-94.62589,37.40947],[-94.62607,37.40957],[-94.62635,37.40972],[-94.62665,37.40988],[-94.62683,37.40996],[-94.62702,37.41004],[-94.62732,37.41017],[-94.62749,37.41024],[-94.62776,37.41033],[-94.62792,37.41039],[-94.62812,37.41045],[-94.62841,37.41054],[-94.62871,37.41061],[-94.62913,37.41069],[-94.62939,37.41074],[-94.62948,37.41075],[-94.62966,37.41078],[-94.6298,37.41079],[-94.62996,37.41081],[-94.63022,37.41083],[-94.6304,37.41084],[-94.6306,37.41085],[-94.63085,37.41086],[-94.63114,37.41086],[-94.63267,37.41084],[-94.63345,37.41084],[-94.63356,37.41083],[-94.63363,37.41083],[-94.63385,37.41083],[-94.63422,37.41083],[-94.63443,37.41083],[-94.63485,37.41082],[-94.63502,37.41082],[-94.63611,37.41081],[-94.63641,37.41081],[-94.63664,37.41081],[-94.63741,37.41081],[-94.63777,37.41081],[-94.63834,37.4108],[-94.63847,37.4108],[-94.6392,37.4108],[-94.63936,37.4108],[-94.6396,37.4108],[-94.63983,37.4108],[-94.64005,37.4108],[-94.64022,37.4108],[-94.64094,37.41081],[-94.64119,37.41081],[-94.64141,37.41082],[-94.6431,37.41084],[-94.64453,37.41086],[-94.64493,37.41087],[-94.64641,37.41089],[-94.64664,37.41089],[-94.6473,37.41091],[-94.64825,37.41092],[-94.64983,37.41094],[-94.65043,37.41095],[-94.65097,37.41095],[-94.65106,37.41095],[-94.6515,37.41095],[-94.652,37.41096],[-94.65313,37.41096],[-94.65336,37.41096],[-94.65381,37.41097],[-94.65401,37.41097],[-94.65404,37.41097],[-94.65562,37.41098],[-94.65667,37.41099],[-94.65992,37.41101],[-94.66219,37.41102],[-94.66241,37.41103],[-94.66386,37.41103],[-94.66439,37.41104],[-94.66449,37.41103],[-94.66504,37.41104],[-94.66509,37.41104],[-94.66555,37.41104],[-94.66574,37.41104],[-94.66619,37.41104],[-94.66691,37.41104],[-94.66715,37.41103],[-94.66747,37.41103],[-94.66778,37.41104],[-94.66854,37.41104],[-94.66857,37.41104],[-94.66917,37.41103],[-94.66948,37.41103],[-94.67029,37.41103],[-94.67058,37.41103],[-94.67141,37.41102],[-94.67221,37.41103],[-94.67289,37.41103],[-94.67375,37.41104],[-94.67514,37.41103],[-94.67551,37.41104],[-94.67625,37.41098],[-94.6771,37.41098],[-94.678,37.41097],[-94.67934,37.41097],[-94.67978,37.41097],[-94.67981,37.41097],[-94.68003,37.41097],[-94.68102,37.41096],[-94.68136,37.41096],[-94.68139,37.41096],[-94.68182,37.41097],[-94.68226,37.41097],[-94.68296,37.41096],[-94.68368,37.41096],[-94.68445,37.41096],[-94.68493,37.41096],[-94.68517,37.41096],[-94.68556,37.41096],[-94.68571,37.41096],[-94.68591,37.41096],[-94.68665,37.41094],[-94.6875,37.41095],[-94.68809,37.41096],[-94.68876,37.41097],[-94.68892,37.41097],[-94.68931,37.41098],[-94.68953,37.41098],[-94.69024,37.41099],[-94.69057,37.411],[-94.69107,37.411],[-94.6922,37.41103],[-94.69379,37.41106],[-94.69424,37.41106],[-94.69513,37.41107],[-94.69514,37.41107],[-94.69537,37.41107],[-94.6956,37.41107],[-94.6958,37.41107],[-94.69589,37.41108],[-94.69629,37.41108],[-94.69635,37.41108],[-94.6968,37.41108],[-94.69703,37.41108],[-94.69725,37.41108],[-94.69762,37.41109],[-94.69833,37.41109],[-94.69878,37.41109],[-94.69904,37.41109],[-94.69968,37.41111],[-94.70037,37.41112],[-94.70112,37.41111],[-94.70184,37.4111],[-94.70329,37.41108],[-94.70402,37.41108],[-94.7042,37.41108],[-94.70485,37.41108],[-94.70485,37.41108],[-94.70485,37.41154]]}},{"type":"Feature","properties":{"_gpxType":"trk","name":"204 Main St - Harry's Cafe, North Broadway #3919, Pittsburg, KS - La Quinta Inn & Suites by Wyndham Pittsburg, South Broadway Street, Pittsburg, KS","coordinateProperties":{},"id":44},"geometry":{"type":"LineString","coordinates":[[-94.70485,37.41154],[-94.70485,37.41108],[-94.70484,37.41089],[-94.70483,37.41032],[-94.70483,37.41029],[-94.70482,37.41005],[-94.70481,37.40958],[-94.70481,37.40952],[-94.70481,37.40907],[-94.70482,37.40809],[-94.70484,37.40753],[-94.70484,37.40737],[-94.70484,37.40634],[-94.70487,37.40537],[-94.70487,37.40537],[-94.70487,37.40483],[-94.70488,37.40438],[-94.70489,37.40419],[-94.70489,37.40391],[-94.70489,37.40386],[-94.7049,37.40379],[-94.70491,37.40339],[-94.70491,37.40238],[-94.70491,37.40137],[-94.70492,37.40082],[-94.70492,37.40052],[-94.70493,37.40035],[-94.70493,37.39982],[-94.70493,37.39972],[-94.70493,37.39954],[-94.70493,37.39935],[-94.70494,37.39838],[-94.70494,37.39813],[-94.70495,37.39797],[-94.70495,37.39781],[-94.70495,37.39768],[-94.70495,37.39739],[-94.70495,37.39693],[-94.70496,37.39642],[-94.70496,37.39642],[-94.70496,37.39608],[-94.70496,37.3955],[-94.70496,37.39516],[-94.70497,37.39493],[-94.70497,37.39465],[-94.70497,37.39454],[-94.70497,37.39439],[-94.70498,37.39388],[-94.70499,37.39339],[-94.705,37.39289],[-94.70501,37.39234],[-94.705,37.39196],[-94.70502,37.39134],[-94.70503,37.39068],[-94.70504,37.39059],[-94.70504,37.39042],[-94.70504,37.39033],[-94.70505,37.38965],[-94.70505,37.38924],[-94.70505,37.38917],[-94.70509,37.38883],[-94.70509,37.38829],[-94.70509,37.38798],[-94.7051,37.38734],[-94.70514,37.38649],[-94.70515,37.38624],[-94.70516,37.38605],[-94.70516,37.38589],[-94.70516,37.38566],[-94.70517,37.38523],[-94.70519,37.38442],[-94.7052,37.38401],[-94.70522,37.38311],[-94.70522,37.38311],[-94.70538,37.3831],[-94.70557,37.38307],[-94.70573,37.38303],[-94.70588,37.38301],[-94.70601,37.38298],[-94.7061,37.38297],[-94.7062,37.38296]]}}]}