{"type":"FeatureCollection","features":[{"type":"Feature","properties":{"_gpxType":"trk","name":"La Quinta Inn & Suites by Wyndham Pittsburg, South Broadway Street, Pittsburg, KS - 109 N Broadway St - 1912 N Broadway St - 689 S 200th St - 107 KS-7 - 130 W 680th Ave - 16010 Elk Rd - 1710 Arolyn Drive, Chanute, KS","coordinateProperties":{},"id":45},"geometry":{"type":"LineString","coordinates":[[-94.7062,37.38296],[-94.7061,37.38297],[-94.70601,37.38298],[-94.70588,37.38301],[-94.70573,37.38303],[-94.70557,37.38307],[-94.70538,37.3831],[-94.70522,37.38311],[-94.70522,37.38311],[-94.7052,37.38401],[-94.70519,37.38442],[-94.70517,37.38523],[-94.70516,37.38566],[-94.70516,37.38589],[-94.70516,37.38605],[-94.70515,37.38624],[-94.70514,37.38649],[-94.7051,37.38734],[-94.70509,37.38798],[-94.70509,37.38829],[-94.70509,37.38883],[-94.70505,37.38917],[-94.70505,37.38924],[-94.70505,37.38965],[-94.70504,37.39033],[-94.70504,37.39042],[-94.70504,37.39059],[-94.70503,37.39068],[-94.70502,37.39134],[-94.705,37.39196],[-94.70501,37.39234],[-94.705,37.39289],[-94.70499,37.39339],[-94.70498,37.39388],[-94.70497,37.39439],[-94.70497,37.39454],[-94.70497,37.39465],[-94.70497,37.39493],[-94.70496,37.39516],[-94.70496,37.3955],[-94.70496,37.39608],[-94.70496,37.39642],[-94.70495,37.39693],[-94.70495,37.39739],[-94.70495,37.39768],[-94.70495,37.39781],[-94.70495,37.39797],[-94.70494,37.39813],[-94.70494,37.39838],[-94.70493,37.39935],[-94.70493,37.39954],[-94.70493,37.39972],[-94.70493,37.39982],[-94.70493,37.40035],[-94.70492,37.40052],[-94.70492,37.40082],[-94.70491,37.40137],[-94.70491,37.40238],[-94.70491,37.40339],[-94.7049,37.40379],[-94.70489,37.40386],[-94.70489,37.40391],[-94.70489,37.40419],[-94.70488,37.40438],[-94.70487,37.40483],[-94.70487,37.40537],[-94.70484,37.40634],[-94.70484,37.40737],[-94.70484,37.40753],[-94.70482,37.40809],[-94.70482,37.40824]]}},{"type":"Feature","properties":{"_gpxType":"trk","name":"La Quinta Inn & Suites by Wyndham Pittsburg, South Broadway Street, Pittsburg, KS - 109 N Broadway St - 1912 N Broadway St - 689 S 200th St - 107 KS-7 - 130 W 680th Ave - 16010 Elk Rd - 1710 Arolyn Drive, Chanute, KS","coordinateProperties":{},"id":45},"geometry":{"type":"LineString","coordinates":[[-94.70482,37.40824],[-94.70481,37.40907],[-94.70481,37.40952],[-94.70481,37.40958],[-94.70482,37.41005],[-94.70483,37.41029],[-94.70483,37.41032],[-94.70484,37.41089],[-94.70485,37.41108],[-94.70484,37.41209],[-94.70484,37.41308],[-94.70484,37.41407],[-94.70485,37.41506],[-94.70485,37.41605],[-94.70485,37.41704],[-94.70485,37.41753],[-94.70485,37.41797],[-94.70485,37.41822],[-94.70485,37.41849],[-94.70485,37.41937],[-94.70485,37.42025],[-94.70486,37.42068],[-94.70486,37.42118],[-94.70488,37.42213],[-94.70489,37.42312],[-94.70487,37.42377],[-94.70487,37.42408],[-94.70488,37.42476],[-94.70488,37.42498],[-94.70488,37.42509],[-94.7049,37.42544]]}},{"type":"Feature","properties":{"_gpxType":"trk","name":"La Quinta Inn & Suites by Wyndham Pittsburg, South Broadway Street, Pittsburg, KS - 109 N Broadway St - 1912 N Broadway St - 689 S 200th St - 107 KS-7 - 130 W 680th Ave - 16010 Elk Rd - 1710 Arolyn Drive, Chanute, KS","coordinateProperties":{},"id":45},"geometry":{"type":"LineString","coordinates":[[-94.7049,37.42544],[-94.70493,37.42576],[-94.70493,37.42576],[-94.70565,37.42577],[-94.70597,37.42577],[-94.70644,37.42576],[-94.70693,37.42576],[-94.70755,37.42576],[-94.70791,37.42576],[-94.70831,37.42576],[-94.70853,37.42576],[-94.70944,37.42576],[-94.70989,37.42576],[-94.7108,37.42576],[-94.71125,37.42576],[-94.71194,37.42575],[-94.71285,37.42575],[-94.71328,37.42575],[-94.71368,37.42575],[-94.71377,37.42575],[-94.71402,37.42575],[-94.71447,37.42576],[-94.71464,37.42576],[-94.71481,37.42576],[-94.71489,37.42576],[-94.71494,37.42576],[-94.71502,37.42575],[-94.71503,37.42575],[-94.71522,37.42572],[-94.71553,37.42567],[-94.71555,37.42567],[-94.71562,37.42567],[-94.71567,37.42567],[-94.71569,37.42567],[-94.71572,37.42567],[-94.71574,37.42567],[-94.71577,37.42567],[-94.71584,37.42569],[-94.71585,37.4257],[-94.71607,37.42575],[-94.71615,37.42578],[-94.71655,37.4259],[-94.71665,37.42589],[-94.71673,37.42588],[-94.71682,37.42586],[-94.71709,37.42582],[-94.7172,37.4258],[-94.71754,37.4258],[-94.71801,37.4258],[-94.71875,37.4258],[-94.71916,37.42579],[-94.71993,37.42579],[-94.72082,37.4258],[-94.7213,37.4258],[-94.72218,37.42581],[-94.72332,37.42582],[-94.72427,37.42582],[-94.72528,37.42583],[-94.7256,37.42583],[-94.7259,37.42583],[-94.72697,37.42584],[-94.72803,37.42584],[-94.72809,37.42584],[-94.72879,37.42583],[-94.73064,37.42581],[-94.73225,37.42581],[-94.73251,37.42581],[-94.73276,37.42581],[-94.73297,37.42581],[-94.73343,37.42581],[-94.73347,37.42581],[-94.73365,37.42581],[-94.73414,37.42581],[-94.73652,37.42582],[-94.73813,37.4258],[-94.73845,37.42581],[-94.73922,37.42582],[-94.74049,37.42581],[-94.74164,37.42581],[-94.74164,37.42581],[-94.74164,37.42616],[-94.74167,37.42735]]}},{"type":"Feature","properties":{"_gpxType":"trk","name":"La Quinta Inn & Suites by Wyndham Pittsburg, South Broadway Street, Pittsburg, KS - 109 N Broadway St - 1912 N Broadway St - 689 S 200th St - 107 KS-7 - 130 W 680th Ave - 16010 Elk Rd - 1710 Arolyn Drive, Chanute, KS","coordinateProperties":{},"id":45},"geometry":{"type":"LineString","coordinates":[[-94.74167,37.42735],[-94.74167,37.42742],[-94.74167,37.42769],[-94.7417,37.42895],[-94.7417,37.42896],[-94.7417,37.43039],[-94.7417,37.43057],[-94.7417,37.43075],[-94.7417,37.43155],[-94.74173,37.43285],[-94.74175,37.43294],[-94.74174,37.43381],[-94.74175,37.43528],[-94.74175,37.43546],[-94.74175,37.43549],[-94.74173,37.4369],[-94.74172,37.43708],[-94.74171,37.43815],[-94.7417,37.43865],[-94.74169,37.43897],[-94.74168,37.43952],[-94.74165,37.4404],[-94.74166,37.44185],[-94.74166,37.44191],[-94.74166,37.4422],[-94.74166,37.4426],[-94.74166,37.44332],[-94.74166,37.44401],[-94.74166,37.44454],[-94.74166,37.44456],[-94.74165,37.44615],[-94.74165,37.4463],[-94.74163,37.44849],[-94.74163,37.44867],[-94.74162,37.44972],[-94.74161,37.45136],[-94.74161,37.45172],[-94.7416,37.45242],[-94.7416,37.4528],[-94.74161,37.45352],[-94.74161,37.45442],[-94.7416,37.45468],[-94.74161,37.45506],[-94.74163,37.45576],[-94.74163,37.45583],[-94.74164,37.45614],[-94.74164,37.45632],[-94.74165,37.45713],[-94.74164,37.45778],[-94.74164,37.45856],[-94.74165,37.45883],[-94.74165,37.45891],[-94.74167,37.45999],[-94.74168,37.46009],[-94.74168,37.46017],[-94.74172,37.46215],[-94.74174,37.46305],[-94.74175,37.46359],[-94.74175,37.46369],[-94.74178,37.46495],[-94.74178,37.46503],[-94.74182,37.46693],[-94.74184,37.46808],[-94.74185,37.46844],[-94.74185,37.4685],[-94.74186,37.46874],[-94.74185,37.4688],[-94.74185,37.46898],[-94.74185,37.46945],[-94.74185,37.46945],[-94.74263,37.46947],[-94.744,37.46947],[-94.74445,37.46948],[-94.74468,37.46948],[-94.7474,37.46951],[-94.74808,37.46951],[-94.7508,37.46954],[-94.75103,37.46954],[-94.75171,37.46955],[-94.75381,37.46957],[-94.75461,37.46957],[-94.75778,37.46958],[-94.75857,37.46958],[-94.76018,37.46959],[-94.76073,37.4696],[-94.76254,37.46962],[-94.7627,37.46962],[-94.76373,37.46962],[-94.76509,37.46963],[-94.76531,37.46963],[-94.7669,37.46964],[-94.76757,37.46965],[-94.76834,37.46965],[-94.76992,37.46966],[-94.77015,37.46967],[-94.7706,37.46967],[-94.77083,37.46967],[-94.77219,37.46968],[-94.77287,37.46968],[-94.77309,37.46969],[-94.77418,37.46969],[-94.77559,37.4697],[-94.77615,37.46969],[-94.77828,37.46968],[-94.77981,37.4697],[-94.77992,37.4697],[-94.78026,37.4697],[-94.78049,37.4697],[-94.78139,37.46968],[-94.78162,37.46968],[-94.78385,37.46965],[-94.78427,37.46963],[-94.78632,37.46963],[-94.78678,37.46963],[-94.78744,37.46962],[-94.78812,37.46961],[-94.78834,37.46961],[-94.78908,37.4696],[-94.79025,37.46961],[-94.79115,37.46962],[-94.79163,37.46963],[-94.79201,37.46963],[-94.79206,37.46963],[-94.79228,37.46963],[-94.79294,37.46964],[-94.79341,37.46964],[-94.79432,37.46965],[-94.79455,37.46965],[-94.79659,37.46966],[-94.79771,37.46968],[-94.79861,37.46968],[-94.79947,37.46968],[-94.80015,37.46968],[-94.80046,37.46968],[-94.80128,37.46968],[-94.80219,37.46968],[-94.80439,37.46968],[-94.80496,37.46967],[-94.80562,37.46968],[-94.80596,37.46968],[-94.80809,37.46965],[-94.80842,37.46965],[-94.80955,37.46964],[-94.80963,37.46964],[-94.81189,37.4696],[-94.81241,37.4696],[-94.81297,37.46958],[-94.81416,37.46958],[-94.81438,37.46958],[-94.81485,37.46958],[-94.81576,37.46958],[-94.81609,37.46958],[-94.81621,37.46958],[-94.81644,37.46958],[-94.81712,37.46959],[-94.81757,37.4696],[-94.81763,37.4696],[-94.8178,37.4696],[-94.81803,37.4696],[-94.81903,37.4696],[-94.82097,37.46962],[-94.8212,37.46962],[-94.82165,37.46963],[-94.82347,37.46965],[-94.82392,37.46965],[-94.8246,37.46966],[-94.82483,37.46966],[-94.82686,37.46969],[-94.82709,37.46969],[-94.82777,37.4697],[-94.828,37.4697],[-94.82918,37.46972],[-94.82972,37.46971],[-94.8304,37.46971],[-94.83238,37.46973],[-94.83304,37.46974],[-94.83352,37.46973],[-94.83373,37.46968],[-94.83416,37.46959],[-94.83416,37.46959],[-94.83436,37.47]]}},{"type":"Feature","properties":{"_gpxType":"trk","name":"La Quinta Inn & Suites by Wyndham Pittsburg, South Broadway Street, Pittsburg, KS - 109 N Broadway St - 1912 N Broadway St - 689 S 200th St - 107 KS-7 - 130 W 680th Ave - 16010 Elk Rd - 1710 Arolyn Drive, Chanute, KS","coordinateProperties":{},"id":45},"geometry":{"type":"LineString","coordinates":[[-94.83436,37.47],[-94.83416,37.46959],[-94.83416,37.46959],[-94.83474,37.46949],[-94.83483,37.46949],[-94.83502,37.46949],[-94.83527,37.46949],[-94.83528,37.46949],[-94.83542,37.46951],[-94.83563,37.46953],[-94.83598,37.46963],[-94.8362,37.46969],[-94.83665,37.46976],[-94.83705,37.46976],[-94.83721,37.46976],[-94.83742,37.46976],[-94.8375,37.46976],[-94.8377,37.46976],[-94.83787,37.46976],[-94.8381,37.46976],[-94.83887,37.46977],[-94.83954,37.46978],[-94.83968,37.46978],[-94.83977,37.46978],[-94.84022,37.46979],[-94.84127,37.4698],[-94.84135,37.4698],[-94.8415,37.4698],[-94.84158,37.4698],[-94.84217,37.46981],[-94.84263,37.46982],[-94.84307,37.46982],[-94.8442,37.46984],[-94.84488,37.46985],[-94.84702,37.4699],[-94.84738,37.4699],[-94.84896,37.46992],[-94.84991,37.46993],[-94.85032,37.46994],[-94.85123,37.46996],[-94.85123,37.46996],[-94.85124,37.47062],[-94.85124,37.47152],[-94.85124,37.4717],[-94.85124,37.47188],[-94.85124,37.47206],[-94.85123,37.47224],[-94.85122,37.47314],[-94.85121,37.47389],[-94.85122,37.47497],[-94.85123,37.47515],[-94.85123,37.47533],[-94.85124,37.47605],[-94.85125,37.47694],[-94.85126,37.47755],[-94.85127,37.47822],[-94.85128,37.47894],[-94.8513,37.47966],[-94.8513,37.47967],[-94.85136,37.48146],[-94.85139,37.48218],[-94.85139,37.48236],[-94.8514,37.48254],[-94.85143,37.48344],[-94.85144,37.4838],[-94.85145,37.48397],[-94.85146,37.48415],[-94.85147,37.48462],[-94.85149,37.48498],[-94.85151,37.48535],[-94.85151,37.48536],[-94.85153,37.4857],[-94.85155,37.48606],[-94.85158,37.4866],[-94.85159,37.48665],[-94.85163,37.48731],[-94.85164,37.48749],[-94.85166,37.48767],[-94.85168,37.48798],[-94.85172,37.48875],[-94.85173,37.48893],[-94.85175,37.48922],[-94.85177,37.48947],[-94.85185,37.49066],[-94.85187,37.49112],[-94.85189,37.49137],[-94.85188,37.49166],[-94.85189,37.49249],[-94.85187,37.49287],[-94.85184,37.4938],[-94.85182,37.4947],[-94.8518,37.49492],[-94.85176,37.49578],[-94.85176,37.49596],[-94.85171,37.49706],[-94.85161,37.49874],[-94.85158,37.49928],[-94.85158,37.49928],[-94.85158,37.49966],[-94.85158,37.5002],[-94.85159,37.50113],[-94.85159,37.50158],[-94.85158,37.50205],[-94.85158,37.50291],[-94.85158,37.50345],[-94.85158,37.50395],[-94.85158,37.50402],[-94.85159,37.50493],[-94.85158,37.50567],[-94.85158,37.50593],[-94.85158,37.50637],[-94.85158,37.5065],[-94.8516,37.50739],[-94.8516,37.50781],[-94.85162,37.50822],[-94.85163,37.50832],[-94.85163,37.50842],[-94.85161,37.50959],[-94.85165,37.51087],[-94.85166,37.51123],[-94.85168,37.51174],[-94.85168,37.51219],[-94.85179,37.51379],[-94.85176,37.51418],[-94.85176,37.51445],[-94.85177,37.51464],[-94.85178,37.51476],[-94.85178,37.51494],[-94.85176,37.51564],[-94.85175,37.51601],[-94.85176,37.51622],[-94.85177,37.51641],[-94.85176,37.51652],[-94.85176,37.51692],[-94.85175,37.51725],[-94.85174,37.51738],[-94.85175,37.51802],[-94.85173,37.51853],[-94.85173,37.519],[-94.85173,37.51909],[-94.85174,37.51963],[-94.85176,37.52038],[-94.85175,37.52106],[-94.85175,37.52181],[-94.85174,37.52325],[-94.85172,37.52415],[-94.85172,37.52422],[-94.85171,37.5251],[-94.85171,37.5251],[-94.85171,37.52512],[-94.8517,37.52544],[-94.85171,37.52619],[-94.85171,37.52716],[-94.85169,37.52777],[-94.85167,37.52838],[-94.85166,37.52892],[-94.85166,37.529],[-94.85166,37.52928],[-94.85165,37.53133],[-94.85164,37.53186],[-94.85166,37.53279],[-94.85166,37.53306],[-94.85164,37.53424],[-94.85164,37.53472],[-94.85161,37.53559],[-94.85162,37.53613],[-94.85162,37.53631],[-94.85162,37.53692],[-94.85162,37.5374],[-94.85162,37.53789],[-94.85164,37.53859],[-94.85164,37.53931],[-94.85165,37.54071],[-94.85165,37.54157],[-94.85166,37.54247],[-94.85167,37.54301],[-94.85167,37.54391],[-94.85167,37.54501],[-94.85169,37.54589],[-94.85171,37.54663],[-94.85171,37.54674],[-94.8517,37.54729],[-94.8517,37.54818],[-94.85171,37.54841],[-94.85171,37.54859],[-94.85174,37.54968],[-94.85174,37.54985],[-94.85172,37.55117],[-94.85172,37.55125],[-94.85169,37.55207],[-94.85168,37.55242],[-94.85163,37.5535],[-94.8516,37.5544],[-94.85159,37.55476],[-94.85156,37.5553],[-94.85156,37.55548],[-94.85156,37.55551],[-94.85151,37.55638],[-94.85151,37.5564],[-94.85151,37.55656],[-94.85149,37.55728],[-94.85148,37.5576],[-94.85145,37.55842],[-94.85144,37.55878],[-94.85143,37.55903],[-94.85138,37.56004],[-94.85134,37.56076],[-94.85125,37.5625],[-94.85124,37.56291],[-94.85119,37.56417],[-94.85114,37.56554],[-94.85114,37.56618],[-94.85115,37.56736],[-94.85114,37.56807],[-94.85114,37.56879],[-94.85114,37.56897],[-94.85114,37.5691],[-94.85116,37.56987],[-94.85117,37.57023],[-94.85122,37.5722],[-94.85122,37.5724],[-94.85123,37.57259],[-94.85117,37.57384],[-94.85113,37.57492],[-94.85112,37.57528],[-94.85108,37.57618],[-94.85107,37.57659],[-94.85104,37.57712],[-94.85101,37.57784],[-94.851,37.57838],[-94.85099,37.57856],[-94.85096,37.57931],[-94.85095,37.58],[-94.85094,37.5809],[-94.85094,37.58109],[-94.85094,37.58126],[-94.85094,37.58233],[-94.85095,37.58315],[-94.85094,37.58467],[-94.85094,37.58485],[-94.85094,37.58593],[-94.85094,37.58682],[-94.85095,37.58718],[-94.85095,37.58761],[-94.85095,37.58898],[-94.85095,37.58916],[-94.85095,37.58934],[-94.85095,37.59024],[-94.85095,37.59042],[-94.85095,37.59096],[-94.85095,37.59114],[-94.85095,37.59258],[-94.85095,37.59294],[-94.85095,37.59312],[-94.85095,37.5933],[-94.85095,37.59408],[-94.85094,37.59474],[-94.85093,37.59546],[-94.85093,37.59564],[-94.85092,37.59635],[-94.85092,37.59653],[-94.85091,37.59707],[-94.85091,37.59725],[-94.8509,37.5981],[-94.8509,37.59864],[-94.85089,37.59938],[-94.85088,37.60015],[-94.85088,37.60033],[-94.85087,37.60123],[-94.85087,37.60141],[-94.85087,37.60141],[-94.84991,37.6014],[-94.8489,37.60139],[-94.84755,37.60137],[-94.8459,37.60136],[-94.84449,37.60133],[-94.84417,37.60133],[-94.84349,37.60132],[-94.84326,37.60132],[-94.84262,37.60131],[-94.84167,37.60131],[-94.84144,37.6013],[-94.84123,37.6013],[-94.84086,37.6013],[-94.84054,37.6013],[-94.83908,37.60128],[-94.8383,37.60127],[-94.83535,37.60124],[-94.83512,37.60123],[-94.83276,37.60121],[-94.83252,37.6012],[-94.83252,37.6012],[-94.83252,37.60009]]}},{"type":"Feature","properties":{"_gpxType":"trk","name":"La Quinta Inn & Suites by Wyndham Pittsburg, South Broadway Street, Pittsburg, KS - 109 N Broadway St - 1912 N Broadway St - 689 S 200th St - 107 KS-7 - 130 W 680th Ave - 16010 Elk Rd - 1710 Arolyn Drive, Chanute, KS","coordinateProperties":{},"id":45},"geometry":{"type":"LineString","coordinates":[[-94.83252,37.60009],[-94.83252,37.6012],[-94.83252,37.6012],[-94.83276,37.60121],[-94.83512,37.60123],[-94.83535,37.60124],[-94.8383,37.60127],[-94.83908,37.60128],[-94.84054,37.6013],[-94.84086,37.6013],[-94.84123,37.6013],[-94.84144,37.6013],[-94.84167,37.60131],[-94.84262,37.60131],[-94.84326,37.60132],[-94.84349,37.60132],[-94.84417,37.60133],[-94.84449,37.60133],[-94.8459,37.60136],[-94.84755,37.60137],[-94.8489,37.60139],[-94.84991,37.6014],[-94.85087,37.60141],[-94.85174,37.60142],[-94.8522,37.60143],[-94.85242,37.60143],[-94.85379,37.60145],[-94.85401,37.60145],[-94.85447,37.60145],[-94.85487,37.60146],[-94.85515,37.60146],[-94.85696,37.60148],[-94.85719,37.60149],[-94.86022,37.60152],[-94.86283,37.60155],[-94.86332,37.60155],[-94.86355,37.60156],[-94.86423,37.60156],[-94.86446,37.60156],[-94.86531,37.60157],[-94.86646,37.60158],[-94.86695,37.60159],[-94.86848,37.6016],[-94.86922,37.6016],[-94.87083,37.6016],[-94.87343,37.60159],[-94.87382,37.60159],[-94.87405,37.60159],[-94.87607,37.60158],[-94.8775,37.60157],[-94.87836,37.60157],[-94.87859,37.60158],[-94.87863,37.60158],[-94.87972,37.6016],[-94.87987,37.6016],[-94.87995,37.6016],[-94.88112,37.60162],[-94.88222,37.60164],[-94.88267,37.60165],[-94.8829,37.60166],[-94.88381,37.60167],[-94.88412,37.60168],[-94.88522,37.6017],[-94.88562,37.60171],[-94.88585,37.60171],[-94.8859,37.60171],[-94.88766,37.60175],[-94.88803,37.60175],[-94.88813,37.60175],[-94.88821,37.60175],[-94.88839,37.60175],[-94.88879,37.60176],[-94.88969,37.60177],[-94.89102,37.60178],[-94.89128,37.60178],[-94.89216,37.60178],[-94.89359,37.60179],[-94.89374,37.6018],[-94.89401,37.6018],[-94.89559,37.60181],[-94.89919,37.60183],[-94.89923,37.60183],[-94.9001,37.60183],[-94.90059,37.60183],[-94.90078,37.60183],[-94.90082,37.60183],[-94.90208,37.60183],[-94.90218,37.60183],[-94.9025,37.60183],[-94.90263,37.60183],[-94.90286,37.60183],[-94.90291,37.60183],[-94.90439,37.60184],[-94.90445,37.60184],[-94.90468,37.60184],[-94.90598,37.60184],[-94.91058,37.60183],[-94.91128,37.60183],[-94.9136,37.60182],[-94.91501,37.60182],[-94.91513,37.60182],[-94.92114,37.60181],[-94.92137,37.60181],[-94.92273,37.6018],[-94.92387,37.6018],[-94.92432,37.6018],[-94.9246,37.6018],[-94.9258,37.6018],[-94.92602,37.6018],[-94.92625,37.6018],[-94.92935,37.60181],[-94.93215,37.60181],[-94.93238,37.60181],[-94.93261,37.60181],[-94.93504,37.60182],[-94.93641,37.60182],[-94.93874,37.60183],[-94.93913,37.60183],[-94.93919,37.60183],[-94.94033,37.60183],[-94.94237,37.60184],[-94.94373,37.60184],[-94.94396,37.60184],[-94.94578,37.60184],[-94.94714,37.60185],[-94.94736,37.60185],[-94.94805,37.60185],[-94.94827,37.60185],[-94.94895,37.60185],[-94.94918,37.60185],[-94.94941,37.60185],[-94.94964,37.60185],[-94.95009,37.60186],[-94.95168,37.60186],[-94.95191,37.60186],[-94.95304,37.60186],[-94.95327,37.60186],[-94.9544,37.60187],[-94.95463,37.60187],[-94.95667,37.60187],[-94.9569,37.60187],[-94.95713,37.60187],[-94.95804,37.60187],[-94.95862,37.60188],[-94.9594,37.60188],[-94.95985,37.60188],[-94.96,37.60188],[-94.96008,37.60188],[-94.96031,37.60188],[-94.96033,37.60187],[-94.96042,37.60186],[-94.96052,37.60184],[-94.96065,37.6018],[-94.96077,37.60173],[-94.96093,37.60162],[-94.96111,37.60148],[-94.96111,37.60148],[-94.96129,37.60161],[-94.96138,37.60165],[-94.96149,37.60171],[-94.96162,37.60176],[-94.96176,37.6018],[-94.96187,37.60183],[-94.96189,37.60183],[-94.96191,37.60184],[-94.96198,37.60185],[-94.9621,37.60187],[-94.96228,37.60188],[-94.96253,37.60189],[-94.96339,37.60189],[-94.96371,37.60189],[-94.96372,37.60189],[-94.96395,37.60189],[-94.96427,37.60189],[-94.96531,37.60189],[-94.96562,37.60189],[-94.96577,37.60189],[-94.96599,37.60189],[-94.96622,37.60189],[-94.96645,37.60189],[-94.96758,37.6019],[-94.96849,37.6019],[-94.96902,37.6019],[-94.9697,37.6019],[-94.97038,37.6019],[-94.97083,37.60191],[-94.97106,37.60191],[-94.97197,37.60191],[-94.97242,37.60192],[-94.97333,37.60192],[-94.97356,37.60192],[-94.97379,37.60192],[-94.97447,37.60193],[-94.97479,37.60193],[-94.97606,37.60194],[-94.97628,37.60194],[-94.97678,37.60194],[-94.97765,37.60194],[-94.97787,37.60194],[-94.97901,37.60194],[-94.97969,37.60195],[-94.9806,37.60195],[-94.9815,37.60195],[-94.98173,37.60195],[-94.98196,37.60195],[-94.98205,37.60195],[-94.98219,37.60195],[-94.98287,37.60194],[-94.98309,37.60194],[-94.98434,37.60194],[-94.98446,37.60194],[-94.98473,37.60194],[-94.98491,37.60194],[-94.98514,37.60194],[-94.98796,37.60193],[-94.98911,37.60192],[-94.98979,37.60192],[-94.99002,37.60192],[-94.99009,37.60192],[-94.99184,37.60189],[-94.99239,37.60188],[-94.99274,37.60188],[-94.9932,37.60187],[-94.99343,37.60186],[-94.99456,37.60184],[-94.99471,37.60184],[-94.99501,37.60184],[-94.99615,37.60182],[-94.99638,37.60182],[-94.99728,37.6018],[-94.99835,37.60179],[-94.99882,37.60178],[-94.99905,37.60178],[-94.99996,37.60178],[-95.00018,37.60177],[-95.00194,37.60175],[-95.00268,37.60174],[-95.00291,37.60174],[-95.00313,37.60174],[-95.00336,37.60174],[-95.0045,37.60172],[-95.00631,37.60171],[-95.00637,37.6017],[-95.00673,37.6017],[-95.00767,37.6017],[-95.00904,37.60169],[-95.01153,37.60167],[-95.01199,37.60167],[-95.01266,37.60166],[-95.01335,37.60166],[-95.01539,37.60165],[-95.01639,37.60165],[-95.01675,37.60165],[-95.01744,37.60166],[-95.01817,37.60167],[-95.0187,37.60166],[-95.01895,37.60166],[-95.01961,37.60167],[-95.0213,37.60169],[-95.02152,37.60169],[-95.02175,37.60169],[-95.02324,37.60171],[-95.02379,37.60171],[-95.02402,37.60172],[-95.02621,37.60175],[-95.0272,37.60176],[-95.02742,37.60176],[-95.02788,37.60177],[-95.0281,37.60177],[-95.02828,37.60177],[-95.02901,37.60178],[-95.02924,37.60178],[-95.0295,37.60178],[-95.02969,37.60177],[-95.03128,37.60177],[-95.03151,37.60176],[-95.03174,37.60176],[-95.03196,37.60176],[-95.03242,37.60176],[-95.03265,37.60176],[-95.03287,37.60176],[-95.03354,37.60175],[-95.03422,37.60175],[-95.03427,37.60175],[-95.03581,37.60173],[-95.03593,37.60173],[-95.03603,37.60173],[-95.03694,37.60172],[-95.03706,37.60172],[-95.0416,37.60169],[-95.0441,37.60166],[-95.04421,37.60166],[-95.04489,37.60166],[-95.04501,37.60166],[-95.04508,37.60166],[-95.04625,37.60165],[-95.04699,37.60165],[-95.04705,37.60165],[-95.04898,37.60166],[-95.04915,37.60166],[-95.05148,37.60166],[-95.05262,37.60167],[-95.05284,37.60167],[-95.05443,37.60168],[-95.05466,37.60168],[-95.05693,37.6017],[-95.05716,37.6017],[-95.05971,37.60172],[-95.06071,37.60172],[-95.06164,37.60172],[-95.06219,37.60172],[-95.06233,37.60172],[-95.06255,37.60172],[-95.06278,37.60171],[-95.06364,37.60171],[-95.06576,37.60171],[-95.06732,37.6017],[-95.06755,37.6017],[-95.06766,37.6017],[-95.06823,37.60169],[-95.06846,37.60169],[-95.06908,37.60169],[-95.06982,37.60168],[-95.07031,37.60167],[-95.07093,37.60166],[-95.07123,37.60167],[-95.0714,37.60167],[-95.07174,37.60167],[-95.07315,37.60168],[-95.07429,37.60169],[-95.07484,37.60169],[-95.07498,37.60169],[-95.07525,37.60169],[-95.07541,37.60169],[-95.07595,37.60169],[-95.07597,37.60169],[-95.07653,37.6017],[-95.07766,37.60172],[-95.07882,37.60174],[-95.07998,37.60175],[-95.08113,37.60175],[-95.08261,37.60176],[-95.08389,37.60177],[-95.08457,37.60177],[-95.0848,37.60177],[-95.08548,37.60178],[-95.0857,37.60178],[-95.08593,37.60178],[-95.08638,37.60178],[-95.08639,37.60178],[-95.08729,37.60178],[-95.08793,37.60179],[-95.08861,37.60179],[-95.08884,37.60179],[-95.08997,37.60179],[-95.0902,37.6018],[-95.0904,37.6018],[-95.09088,37.6018],[-95.09179,37.6018],[-95.09247,37.6018],[-95.09292,37.60181],[-95.09313,37.60181],[-95.09315,37.60181],[-95.09338,37.60181],[-95.0936,37.60181],[-95.09519,37.60181],[-95.0956,37.60181],[-95.09587,37.60181],[-95.09701,37.60182],[-95.09721,37.60182],[-95.09746,37.60182],[-95.09814,37.60183],[-95.09837,37.60183],[-95.09883,37.60184],[-95.09897,37.60184],[-95.09905,37.60184],[-95.09996,37.60184],[-95.10019,37.60184],[-95.1002,37.60184],[-95.10143,37.60186],[-95.10308,37.60187],[-95.10399,37.60188],[-95.10421,37.60188],[-95.10512,37.60189],[-95.10535,37.60189],[-95.10614,37.60189],[-95.10682,37.6019],[-95.10759,37.6019],[-95.10764,37.6019],[-95.10816,37.6019],[-95.10918,37.60191],[-95.10973,37.60191],[-95.10977,37.60191],[-95.11109,37.60192],[-95.11404,37.60192],[-95.1145,37.60192],[-95.11473,37.60193],[-95.1156,37.60193],[-95.11599,37.60193],[-95.11619,37.60193],[-95.1166,37.60193],[-95.11702,37.60192],[-95.11745,37.60192],[-95.11749,37.60192],[-95.11768,37.60192],[-95.11803,37.60192],[-95.11836,37.60192],[-95.11839,37.60192],[-95.11894,37.60191],[-95.11927,37.60191],[-95.11995,37.60191],[-95.12004,37.60191],[-95.12017,37.60191],[-95.12082,37.6019],[-95.1215,37.6019],[-95.12267,37.60189],[-95.12444,37.60188],[-95.1255,37.60189],[-95.12689,37.6019],[-95.12741,37.6019],[-95.12818,37.60191],[-95.12893,37.60192],[-95.13007,37.60192],[-95.13052,37.60193],[-95.1311,37.60194],[-95.13154,37.60194],[-95.13176,37.60194],[-95.13221,37.60195],[-95.13234,37.60195],[-95.13277,37.60195],[-95.13324,37.60196],[-95.13355,37.60196],[-95.13421,37.60197],[-95.13488,37.60197],[-95.13556,37.60197],[-95.13577,37.60198],[-95.136,37.60198],[-95.13623,37.60198],[-95.13711,37.60198],[-95.13963,37.602],[-95.13973,37.60199],[-95.14,37.602],[-95.14009,37.602],[-95.14026,37.602],[-95.14031,37.602],[-95.1408,37.602],[-95.14122,37.602],[-95.14124,37.602],[-95.14137,37.602],[-95.14167,37.602],[-95.1426,37.602],[-95.14329,37.602],[-95.14412,37.60199],[-95.14419,37.60199],[-95.14528,37.60198],[-95.14588,37.60198],[-95.14647,37.60197],[-95.14818,37.60196],[-95.14838,37.60196],[-95.14929,37.60195],[-95.14951,37.60195],[-95.15074,37.60194],[-95.15104,37.60194],[-95.15186,37.60193],[-95.15188,37.60193],[-95.15277,37.60193],[-95.15322,37.60194],[-95.15345,37.60194],[-95.15368,37.60194],[-95.1537,37.60194],[-95.1539,37.60194],[-95.15436,37.60195],[-95.15491,37.60195],[-95.15526,37.60196],[-95.15566,37.60196],[-95.15595,37.60197],[-95.15597,37.60197],[-95.1564,37.60197],[-95.15663,37.60198],[-95.15665,37.60198],[-95.15671,37.60198],[-95.15685,37.60198],[-95.15731,37.60198],[-95.15776,37.60199],[-95.15778,37.60199],[-95.15811,37.60199],[-95.15912,37.60199],[-95.15917,37.60199],[-95.15958,37.60199],[-95.16049,37.602],[-95.16147,37.60198],[-95.16192,37.60198],[-95.16276,37.60197],[-95.16321,37.60196],[-95.16344,37.60195],[-95.16366,37.60195],[-95.16427,37.60194],[-95.1648,37.60193],[-95.16503,37.60193],[-95.16617,37.60191],[-95.16752,37.60189],[-95.16775,37.60188],[-95.1682,37.60188],[-95.17002,37.60185],[-95.17014,37.60184],[-95.17025,37.60184],[-95.17073,37.60183],[-95.17136,37.60182],[-95.17201,37.60181],[-95.17271,37.60179],[-95.1732,37.60178],[-95.17342,37.60178],[-95.17365,37.60178],[-95.17371,37.60177],[-95.17461,37.60176],[-95.17539,37.60174],[-95.17569,37.60173],[-95.17592,37.60173],[-95.17596,37.60173],[-95.17615,37.60172],[-95.17681,37.60171],[-95.17705,37.6017],[-95.17728,37.6017],[-95.17774,37.60169],[-95.17953,37.60166],[-95.17995,37.60166],[-95.18053,37.60165],[-95.18172,37.60164],[-95.18176,37.60164],[-95.18195,37.60164],[-95.18354,37.60163],[-95.18422,37.60163],[-95.18467,37.60163],[-95.18477,37.60163],[-95.1849,37.60163],[-95.18594,37.60162],[-95.18672,37.60162],[-95.18693,37.60162],[-95.18717,37.60162],[-95.18763,37.60162],[-95.18785,37.60162],[-95.18863,37.60162],[-95.18876,37.60162],[-95.18944,37.60162],[-95.19059,37.60162],[-95.1908,37.60162],[-95.19126,37.60162],[-95.19198,37.60162],[-95.193,37.60162],[-95.19332,37.60162],[-95.19379,37.6016],[-95.19422,37.60159],[-95.19473,37.60157],[-95.1951,37.60156],[-95.19533,37.60156],[-95.19545,37.60156],[-95.19565,37.60156],[-95.19581,37.60157],[-95.1961,37.60157],[-95.1965,37.60158],[-95.19667,37.60159],[-95.19758,37.60161],[-95.19834,37.60163],[-95.19922,37.60166],[-95.19979,37.60168],[-95.20034,37.60169],[-95.20076,37.60169],[-95.20081,37.6017],[-95.20123,37.6017],[-95.20169,37.6017],[-95.20224,37.6017],[-95.20277,37.6017],[-95.20342,37.6017],[-95.20371,37.6017],[-95.20405,37.6017],[-95.20542,37.6017],[-95.20592,37.6017],[-95.20664,37.6017],[-95.20744,37.60169],[-95.208,37.60169],[-95.20853,37.60169],[-95.20868,37.60169],[-95.20936,37.60168],[-95.20953,37.60168],[-95.21027,37.60167],[-95.2105,37.60167],[-95.21051,37.60167],[-95.21072,37.60167],[-95.21118,37.60166],[-95.21174,37.60166],[-95.21208,37.60165],[-95.21231,37.60165],[-95.21287,37.60165],[-95.21322,37.60164],[-95.21345,37.60164],[-95.21367,37.60164],[-95.21417,37.60163],[-95.21572,37.60161],[-95.2164,37.60161],[-95.21799,37.60161],[-95.22003,37.6016],[-95.22139,37.6016],[-95.22233,37.60159],[-95.22258,37.60159],[-95.22369,37.60159],[-95.22392,37.60159],[-95.22699,37.6016],[-95.22712,37.6016],[-95.22981,37.6016],[-95.22996,37.6016],[-95.23086,37.60159],[-95.23109,37.60159],[-95.23381,37.60159],[-95.23478,37.6016],[-95.23615,37.6016],[-95.23633,37.6016],[-95.23637,37.6016],[-95.23683,37.6016],[-95.23705,37.6016],[-95.23728,37.6016],[-95.23751,37.60159],[-95.23802,37.60159],[-95.23842,37.60159],[-95.23864,37.60159],[-95.23887,37.60159],[-95.23932,37.60159],[-95.23971,37.60159],[-95.24023,37.60159],[-95.24046,37.60159],[-95.24091,37.60158],[-95.24114,37.60158],[-95.24137,37.60158],[-95.24182,37.60158],[-95.24205,37.60157],[-95.24289,37.60156],[-95.24416,37.60156],[-95.24547,37.60156],[-95.24552,37.60156],[-95.24575,37.60156],[-95.24598,37.60156],[-95.24752,37.60155],[-95.24802,37.60155],[-95.24825,37.60155],[-95.24938,37.60154],[-95.24961,37.60154],[-95.2502,37.60154],[-95.2512,37.60154],[-95.25165,37.60154],[-95.2521,37.60155],[-95.2521,37.60155],[-95.25239,37.60155],[-95.25262,37.60155],[-95.25352,37.60155],[-95.25375,37.60155],[-95.25443,37.60156],[-95.25495,37.60156],[-95.25511,37.60156],[-95.25534,37.60156],[-95.25648,37.60156],[-95.2567,37.60156],[-95.25693,37.60156],[-95.25806,37.60156],[-95.25938,37.60156],[-95.26119,37.60156],[-95.2621,37.60155],[-95.26255,37.60155],[-95.26414,37.60155],[-95.26437,37.60155],[-95.26551,37.60154],[-95.26573,37.60154],[-95.26619,37.60154],[-95.26664,37.60154],[-95.26687,37.60154],[-95.26891,37.60153],[-95.26914,37.60153],[-95.26959,37.60152],[-95.27033,37.60152],[-95.27101,37.60151],[-95.27169,37.6015],[-95.27219,37.60149],[-95.27328,37.60146],[-95.27396,37.60144],[-95.27464,37.60143],[-95.27487,37.60142],[-95.27586,37.6014],[-95.27699,37.60137],[-95.27722,37.60136],[-95.27835,37.60134],[-95.27903,37.60132],[-95.27926,37.60131],[-95.27994,37.60129],[-95.28078,37.60127],[-95.28123,37.60126],[-95.28191,37.60124],[-95.28395,37.60117],[-95.28509,37.60114],[-95.2869,37.60108],[-95.28736,37.60107],[-95.28835,37.60104],[-95.29246,37.6011],[-95.29336,37.60111],[-95.29359,37.60112],[-95.29382,37.60112],[-95.2945,37.60113],[-95.29462,37.60113],[-95.29487,37.60113],[-95.29532,37.60113],[-95.29578,37.60113],[-95.29646,37.60113],[-95.29737,37.60113],[-95.29828,37.60113],[-95.30093,37.60113],[-95.3031,37.60113],[-95.30386,37.60113],[-95.30432,37.60113],[-95.30477,37.60113],[-95.30545,37.60113],[-95.30659,37.60114],[-95.30682,37.60114],[-95.30827,37.60114],[-95.30963,37.60114],[-95.31054,37.60114],[-95.31077,37.60114],[-95.31122,37.60114],[-95.31213,37.60114],[-95.31236,37.60114],[-95.31417,37.60114],[-95.3144,37.60114],[-95.31599,37.60114],[-95.31733,37.60115],[-95.31778,37.60117],[-95.31844,37.60116],[-95.31916,37.60115],[-95.31935,37.60117],[-95.3198,37.60119],[-95.32003,37.60121],[-95.32048,37.60123],[-95.32073,37.60124],[-95.32094,37.60125],[-95.32116,37.60126],[-95.32139,37.60127],[-95.32162,37.60128],[-95.32196,37.6013],[-95.32241,37.60132],[-95.32264,37.60133],[-95.32274,37.60133],[-95.32287,37.60134],[-95.32337,37.60136],[-95.32405,37.60141],[-95.32427,37.60142],[-95.3245,37.60144],[-95.32473,37.60146],[-95.32608,37.60156],[-95.32676,37.60161],[-95.32756,37.60167],[-95.32792,37.60169],[-95.32856,37.60175],[-95.32912,37.60181],[-95.32923,37.60181],[-95.33013,37.60186],[-95.33036,37.60186],[-95.33182,37.60188],[-95.33204,37.60188],[-95.33522,37.60192],[-95.33545,37.60192],[-95.33568,37.60193],[-95.33708,37.60194],[-95.33817,37.60194],[-95.33931,37.60193],[-95.33999,37.60193],[-95.34022,37.60193],[-95.34067,37.60193],[-95.34203,37.60192],[-95.34294,37.60192],[-95.34353,37.60192],[-95.34375,37.60192],[-95.34512,37.60191],[-95.3458,37.6019],[-95.34602,37.6019],[-95.3467,37.6019],[-95.34852,37.60189],[-95.34897,37.60189],[-95.35124,37.60187],[-95.35398,37.60185],[-95.35444,37.60184],[-95.35739,37.60181],[-95.35807,37.60181],[-95.35852,37.6018],[-95.36011,37.60179],[-95.36034,37.60179],[-95.36125,37.60178],[-95.36242,37.60177],[-95.36287,37.60177],[-95.36446,37.60177],[-95.36469,37.60176],[-95.36611,37.60176],[-95.36628,37.60176],[-95.3665,37.60176],[-95.36809,37.60176],[-95.36832,37.60177],[-95.36968,37.60177],[-95.37014,37.60177],[-95.37059,37.60177],[-95.37082,37.60177],[-95.37127,37.60177],[-95.37173,37.60177],[-95.37445,37.60178],[-95.37478,37.60178],[-95.3749,37.60178],[-95.37581,37.60178],[-95.37757,37.60179],[-95.3778,37.60179],[-95.37939,37.60179],[-95.38052,37.60179],[-95.38075,37.60179],[-95.38325,37.60181],[-95.38415,37.60181],[-95.38597,37.60182],[-95.38665,37.60183],[-95.38688,37.60183],[-95.38824,37.60184],[-95.38915,37.60184],[-95.3896,37.60185],[-95.39101,37.60185],[-95.39255,37.60187],[-95.39369,37.60188],[-95.39392,37.60188],[-95.3946,37.60188],[-95.39482,37.60189],[-95.39619,37.6019],[-95.39767,37.60191],[-95.39877,37.60191],[-95.39947,37.60191],[-95.40263,37.60191],[-95.40331,37.60191],[-95.4049,37.60192],[-95.40694,37.60192],[-95.40921,37.60192],[-95.40944,37.60191],[-95.40951,37.60191],[-95.41239,37.6019],[-95.41375,37.6019],[-95.41489,37.6019],[-95.41598,37.60189],[-95.41696,37.60188],[-95.41832,37.60186],[-95.42014,37.60186],[-95.42037,37.60186],[-95.42309,37.60185],[-95.42332,37.60184],[-95.42523,37.60184],[-95.42814,37.60182],[-95.42951,37.60182],[-95.42973,37.60181],[-95.43064,37.60181],[-95.43109,37.60181],[-95.43268,37.6018],[-95.43291,37.6018],[-95.43359,37.60179],[-95.43427,37.60179],[-95.43585,37.60177],[-95.43699,37.60175],[-95.4413,37.60168],[-95.44234,37.60168],[-95.44302,37.60167],[-95.44483,37.60167],[-95.44597,37.60166],[-95.44733,37.60165],[-95.44824,37.60165],[-95.44892,37.60165],[-95.4519,37.60163],[-95.45255,37.60164],[-95.45255,37.60164],[-95.45255,37.60193],[-95.45255,37.60242]]}},{"type":"Feature","properties":{"_gpxType":"trk","name":"La Quinta Inn & Suites by Wyndham Pittsburg, South Broadway Street, Pittsburg, KS - 109 N Broadway St - 1912 N Broadway St - 689 S 200th St - 107 KS-7 - 130 W 680th Ave - 16010 Elk Rd - 1710 Arolyn Drive, Chanute, KS","coordinateProperties":{},"id":45},"geometry":{"type":"LineString","coordinates":[[-95.45255,37.60242],[-95.45255,37.60287],[-95.45255,37.60341],[-95.45255,37.60377],[-95.45255,37.60395],[-95.45256,37.60485],[-95.45256,37.60538],[-95.45256,37.60556],[-95.45256,37.6061],[-95.45256,37.607],[-95.45256,37.60754],[-95.45256,37.60808],[-95.45256,37.60898],[-95.45256,37.60963],[-95.45256,37.6097],[-95.45256,37.60988],[-95.45256,37.61017],[-95.45256,37.61078],[-95.45257,37.61114],[-95.45257,37.6115],[-95.45257,37.61186],[-95.45257,37.61204],[-95.45257,37.6124],[-95.45257,37.61308],[-95.45257,37.61344],[-95.45257,37.6138],[-95.45257,37.61416],[-95.45256,37.61524],[-95.45256,37.61542],[-95.45256,37.6156],[-95.45256,37.61622],[-95.45256,37.6173],[-95.45256,37.61766],[-95.45256,37.61946],[-95.45256,37.61964],[-95.45256,37.62126],[-95.45256,37.62144],[-95.45256,37.6227],[-95.45256,37.62287],[-95.45256,37.62395],[-95.45256,37.62413],[-95.45256,37.625],[-95.45255,37.62575],[-95.45255,37.62622],[-95.45254,37.62775],[-95.45254,37.62793],[-95.45254,37.62847],[-95.45255,37.62965],[-95.45255,37.63001],[-95.45255,37.63073],[-95.45255,37.63136],[-95.45255,37.63154],[-95.45256,37.6319],[-95.45256,37.63226],[-95.45256,37.63262],[-95.45257,37.63364],[-95.45258,37.63386],[-95.45261,37.6349],[-95.45262,37.63535],[-95.45262,37.63544],[-95.45262,37.63593],[-95.45263,37.63611],[-95.45263,37.63632],[-95.45264,37.637],[-95.45264,37.63715],[-95.45264,37.63718],[-95.45265,37.63765],[-95.45265,37.63766],[-95.45265,37.6379],[-95.45266,37.63805],[-95.45267,37.63841],[-95.45267,37.63873],[-95.45267,37.63895],[-95.45268,37.63908],[-95.45268,37.63908],[-95.45267,37.63926],[-95.45267,37.63967],[-95.45267,37.63999],[-95.45267,37.64087],[-95.45266,37.64151],[-95.45266,37.64187],[-95.45266,37.64221],[-95.45265,37.64259],[-95.45265,37.64303],[-95.45265,37.64319],[-95.45265,37.6438],[-95.45265,37.64416],[-95.45265,37.64434],[-95.45264,37.64472],[-95.45264,37.6448],[-95.45264,37.64505],[-95.45264,37.64534],[-95.45264,37.64553],[-95.45264,37.64575],[-95.45264,37.64579],[-95.45264,37.64579],[-95.45275,37.64579],[-95.45337,37.64579],[-95.45343,37.64579],[-95.45502,37.64578],[-95.45592,37.64578],[-95.45715,37.64577],[-95.45933,37.64576],[-95.45993,37.64576],[-95.46084,37.64576],[-95.46134,37.64576],[-95.46157,37.64575],[-95.46211,37.64575],[-95.46224,37.64575],[-95.46244,37.64575],[-95.46263,37.64575],[-95.46289,37.64576],[-95.4638,37.64576],[-95.46399,37.64576],[-95.46474,37.64576],[-95.46501,37.64576],[-95.46546,37.64576],[-95.46592,37.64576],[-95.46955,37.64577],[-95.46955,37.64577],[-95.46966,37.64577],[-95.47086,37.64574],[-95.47086,37.64574],[-95.47088,37.64612],[-95.47091,37.6472],[-95.47092,37.64733],[-95.47092,37.64745],[-95.47092,37.64756],[-95.47094,37.64792],[-95.47098,37.64899],[-95.47101,37.64943],[-95.4711,37.65105],[-95.4711,37.65116],[-95.4711,37.65123],[-95.47111,37.65129],[-95.47111,37.65151],[-95.47113,37.65187],[-95.47113,37.65195],[-95.47113,37.65205],[-95.47114,37.65248],[-95.47115,37.65259],[-95.47115,37.65266],[-95.47116,37.65294],[-95.47117,37.65367],[-95.47117,37.65374],[-95.47117,37.65385],[-95.47117,37.65392],[-95.47118,37.65433],[-95.47118,37.65434],[-95.47118,37.65446],[-95.47119,37.65457],[-95.4712,37.65493],[-95.4712,37.655],[-95.4712,37.65511],[-95.47122,37.65565],[-95.47122,37.65583],[-95.47122,37.65604],[-95.47122,37.65676],[-95.47122,37.65679],[-95.47121,37.65733],[-95.47121,37.65796],[-95.47121,37.65823],[-95.47121,37.65837],[-95.47121,37.65841],[-95.47121,37.65859],[-95.47121,37.65877],[-95.47121,37.65891],[-95.47122,37.66021],[-95.47121,37.66042],[-95.47121,37.66081],[-95.47121,37.66084],[-95.47119,37.66192],[-95.47119,37.66228],[-95.47118,37.663],[-95.47118,37.66324],[-95.47117,37.66396],[-95.47117,37.66414],[-95.47117,37.66468],[-95.47117,37.6651],[-95.47116,37.66527],[-95.47116,37.66567],[-95.47116,37.66599],[-95.47116,37.66636],[-95.47115,37.66657],[-95.47115,37.6666],[-95.47115,37.66669],[-95.47116,37.66705],[-95.47116,37.66747],[-95.47114,37.66801],[-95.47114,37.66819],[-95.47113,37.66837],[-95.47111,37.66896],[-95.4711,37.66928],[-95.47108,37.66962],[-95.47104,37.67042],[-95.47104,37.67048],[-95.47104,37.67053],[-95.47101,37.67143],[-95.471,37.67161],[-95.47098,37.67206],[-95.47095,37.67312],[-95.47095,37.67312],[-95.47118,37.67312],[-95.47164,37.67312],[-95.47186,37.67313],[-95.47248,37.67313],[-95.47253,37.67313],[-95.47367,37.67313],[-95.47367,37.67313],[-95.47425,37.67365],[-95.47425,37.67365],[-95.47485,37.67345],[-95.47499,37.67341]]}}]}