{"type":"FeatureCollection","features":[{"type":"Feature","properties":{"_gpxType":"trk","name":"1710 Arolyn Dr, Chanute, KS 66720 - 2017 S Plummer Ave - 2000 Rd - KS-39 - Unnamed Road - Lizard Lips Grill & Deli, U.S. 54, Toronto, KS - 200 W River St","coordinateProperties":{},"id":46},"geometry":{"type":"LineString","coordinates":[[-95.47499,37.67341],[-95.47485,37.67345],[-95.47425,37.67365],[-95.47425,37.67365],[-95.47367,37.67313],[-95.47367,37.67313],[-95.47253,37.67313],[-95.47248,37.67313],[-95.47186,37.67313],[-95.47164,37.67312],[-95.47118,37.67312],[-95.47095,37.67312],[-95.47095,37.67312],[-95.47098,37.67206],[-95.471,37.67161],[-95.47101,37.67143],[-95.47104,37.67053],[-95.47104,37.67048],[-95.47104,37.67042],[-95.47108,37.66962],[-95.4711,37.66928],[-95.47111,37.66896],[-95.47113,37.66837],[-95.47114,37.66819],[-95.47114,37.66801],[-95.47116,37.66747],[-95.47116,37.66705],[-95.47115,37.66669],[-95.47115,37.6666],[-95.47115,37.66657],[-95.47116,37.66636],[-95.47116,37.66599],[-95.47116,37.66567],[-95.47116,37.66527],[-95.47117,37.6651],[-95.47117,37.66468],[-95.47117,37.66414],[-95.47117,37.66396],[-95.47118,37.66324],[-95.47118,37.663],[-95.47119,37.66228],[-95.47119,37.66192],[-95.47121,37.66084],[-95.47121,37.66081],[-95.47121,37.66044]]}},{"type":"Feature","properties":{"_gpxType":"trk","name":"1710 Arolyn Dr, Chanute, KS 66720 - 2017 S Plummer Ave - 2000 Rd - KS-39 - Unnamed Road - Lizard Lips Grill & Deli, U.S. 54, Toronto, KS - 200 W River St","coordinateProperties":{},"id":46},"geometry":{"type":"LineString","coordinates":[[-95.47121,37.66044],[-95.47121,37.66042],[-95.47122,37.66021],[-95.47122,37.66021],[-95.47228,37.6602],[-95.47251,37.6602],[-95.47274,37.6602],[-95.47342,37.6602],[-95.47405,37.6602],[-95.47523,37.66022],[-95.47541,37.66021],[-95.47578,37.66015],[-95.47613,37.66009],[-95.47635,37.66005],[-95.47731,37.65988],[-95.47775,37.65981],[-95.47797,37.6598],[-95.47806,37.6598],[-95.47821,37.65981],[-95.47829,37.65981],[-95.47897,37.65987],[-95.47915,37.65989],[-95.47934,37.65991],[-95.47956,37.65993],[-95.47961,37.65994],[-95.47988,37.65996],[-95.48055,37.66002],[-95.48117,37.66008],[-95.48168,37.66013],[-95.48191,37.66015],[-95.48204,37.66016],[-95.48213,37.66017],[-95.48221,37.66018],[-95.48235,37.66018],[-95.48236,37.66018],[-95.48324,37.66018],[-95.48441,37.66018],[-95.48443,37.66018],[-95.48579,37.66017],[-95.48602,37.66017],[-95.48738,37.66017],[-95.48759,37.66017],[-95.48761,37.66017],[-95.48784,37.66017],[-95.4892,37.66016],[-95.4892,37.66016],[-95.49027,37.66016],[-95.4905,37.66017],[-95.49209,37.66017],[-95.49232,37.66017],[-95.49323,37.66017],[-95.49345,37.66017],[-95.49368,37.66018],[-95.49478,37.66018],[-95.49527,37.66017],[-95.49546,37.66017],[-95.49583,37.66016],[-95.49618,37.66014],[-95.49685,37.66006],[-95.49717,37.66003],[-95.49745,37.66002],[-95.49779,37.66005],[-95.49798,37.66008],[-95.49823,37.66013],[-95.49863,37.6602],[-95.49883,37.66022],[-95.499,37.66022],[-95.49922,37.66022],[-95.49994,37.66019],[-95.50022,37.66018],[-95.50045,37.66018],[-95.50096,37.66017],[-95.50272,37.66017],[-95.5034,37.66016],[-95.50381,37.66016],[-95.50454,37.66016],[-95.50522,37.66016],[-95.50567,37.66016],[-95.5059,37.66016],[-95.50704,37.66016],[-95.50749,37.66016],[-95.5083,37.66016],[-95.50853,37.66016],[-95.50989,37.66016],[-95.51057,37.66016],[-95.5108,37.66016],[-95.51171,37.66015],[-95.51194,37.66015],[-95.51203,37.66015],[-95.51239,37.66015],[-95.51353,37.66016],[-95.51375,37.66016],[-95.51398,37.66016],[-95.51421,37.66016],[-95.51444,37.66016],[-95.51557,37.66016],[-95.51648,37.66016],[-95.51764,37.66017],[-95.51877,37.66017],[-95.51991,37.66017],[-95.52036,37.66018],[-95.52127,37.66018],[-95.52173,37.66018],[-95.52264,37.66018],[-95.52286,37.66018],[-95.52468,37.66019],[-95.52491,37.66019],[-95.52582,37.66019],[-95.52582,37.66019],[-95.52737,37.66019],[-95.52896,37.6602],[-95.531,37.6602],[-95.53168,37.6602],[-95.53259,37.6602],[-95.53305,37.6602],[-95.53464,37.6602],[-95.53526,37.6602],[-95.53645,37.6602],[-95.53827,37.66019],[-95.5385,37.66019],[-95.53915,37.66019],[-95.53986,37.66018],[-95.54032,37.66018],[-95.54236,37.66016],[-95.54259,37.66016],[-95.54372,37.66014],[-95.54403,37.66014],[-95.54693,37.66015],[-95.5483,37.66016],[-95.54837,37.66016],[-95.54933,37.66016],[-95.55092,37.66017],[-95.5516,37.66017],[-95.55289,37.66018],[-95.55374,37.66018],[-95.55562,37.66019],[-95.55567,37.66019],[-95.55676,37.66019],[-95.55721,37.66019],[-95.55744,37.6602],[-95.55823,37.6602],[-95.5588,37.6602],[-95.55994,37.6602],[-95.56102,37.6602],[-95.56108,37.66019],[-95.56197,37.6602],[-95.56244,37.6602],[-95.56376,37.66021],[-95.56432,37.66021],[-95.56557,37.66021],[-95.56648,37.66022],[-95.56716,37.66022],[-95.56762,37.66022],[-95.56807,37.66022],[-95.56835,37.66022],[-95.56944,37.66023],[-95.57171,37.66025],[-95.57194,37.66025],[-95.57201,37.66025],[-95.57353,37.66025],[-95.57443,37.66026],[-95.57534,37.66026],[-95.57807,37.66026],[-95.57839,37.66026],[-95.57852,37.66027],[-95.58011,37.66028],[-95.58133,37.66028],[-95.58135,37.66028],[-95.58204,37.66027],[-95.58226,37.66027],[-95.58363,37.66026],[-95.58422,37.66025],[-95.58522,37.66025],[-95.58556,37.66025],[-95.5868,37.66025],[-95.58748,37.66024],[-95.58926,37.66023],[-95.59039,37.66023],[-95.59066,37.66023],[-95.59198,37.66022],[-95.59202,37.66022],[-95.59244,37.66022],[-95.59444,37.66022],[-95.59512,37.66021],[-95.59534,37.66021],[-95.5962,37.66021],[-95.59711,37.66021],[-95.5987,37.6602],[-95.59916,37.6602],[-95.60012,37.6602],[-95.60029,37.6602],[-95.60075,37.66019],[-95.60149,37.66018],[-95.60234,37.66018],[-95.60371,37.66018],[-95.60543,37.66019],[-95.60611,37.66019],[-95.60725,37.66019],[-95.60816,37.66019],[-95.60975,37.6602],[-95.61001,37.6602],[-95.61134,37.6602],[-95.61293,37.6602],[-95.61465,37.66021],[-95.61504,37.6602],[-95.61648,37.66022],[-95.61711,37.66023]]}},{"type":"Feature","properties":{"_gpxType":"trk","name":"1710 Arolyn Dr, Chanute, KS 66720 - 2017 S Plummer Ave - 2000 Rd - KS-39 - Unnamed Road - Lizard Lips Grill & Deli, U.S. 54, Toronto, KS - 200 W River St","coordinateProperties":{},"id":46},"geometry":{"type":"LineString","coordinates":[[-95.61711,37.66023],[-95.61716,37.66023],[-95.61943,37.66026],[-95.61966,37.66026],[-95.62071,37.66028],[-95.62148,37.66028],[-95.62443,37.66031],[-95.62529,37.66031],[-95.6261,37.66032],[-95.62769,37.66033],[-95.6286,37.66035],[-95.63054,37.66037],[-95.63065,37.66037],[-95.63281,37.66038],[-95.63401,37.66038],[-95.63538,37.66038],[-95.63539,37.66038],[-95.63675,37.66038],[-95.6372,37.66038],[-95.63744,37.66038],[-95.63812,37.66038],[-95.6388,37.66037],[-95.63914,37.66037],[-95.63957,37.66036],[-95.64026,37.66036],[-95.64162,37.66036],[-95.64251,37.66036],[-95.6426,37.66036],[-95.64316,37.66036],[-95.64319,37.66036],[-95.64452,37.66035],[-95.64511,37.66035],[-95.64546,37.66036],[-95.64603,37.66034],[-95.64634,37.66033],[-95.6477,37.66033],[-95.64793,37.66033],[-95.64796,37.66033],[-95.64826,37.66033],[-95.64938,37.66031],[-95.64975,37.66032],[-95.64977,37.66032],[-95.6502,37.66032],[-95.65137,37.66033],[-95.65205,37.66033],[-95.65364,37.66035],[-95.65387,37.66035],[-95.65546,37.66037],[-95.65614,37.66038],[-95.65659,37.66039],[-95.65773,37.6604],[-95.65818,37.6604],[-95.65832,37.6604],[-95.65841,37.66041],[-95.65887,37.66041],[-95.66042,37.66043],[-95.66058,37.66043],[-95.66126,37.66044],[-95.66285,37.66045],[-95.66405,37.66046],[-95.6649,37.66047],[-95.6696,37.66051],[-95.67155,37.66053],[-95.67224,37.66054],[-95.67332,37.66056],[-95.674,37.66056],[-95.67469,37.66057],[-95.67537,37.66058],[-95.67582,37.66059],[-95.67605,37.66059],[-95.67709,37.66061],[-95.67774,37.66062],[-95.67842,37.66063],[-95.67843,37.66063],[-95.67956,37.66064],[-95.67959,37.66064],[-95.68001,37.66065],[-95.68005,37.66065],[-95.68138,37.66066],[-95.6817,37.66067],[-95.68178,37.66067],[-95.68182,37.66067],[-95.68223,37.66067],[-95.68251,37.66067],[-95.68271,37.66068],[-95.68273,37.66068],[-95.68382,37.66069],[-95.68387,37.66069],[-95.68437,37.6607],[-95.68453,37.6607],[-95.68499,37.66071],[-95.68521,37.66072],[-95.6859,37.66073],[-95.68602,37.66073],[-95.68635,37.66074],[-95.68766,37.66075],[-95.68773,37.66075],[-95.68864,37.66076],[-95.69023,37.66078],[-95.69091,37.66078],[-95.6925,37.6608],[-95.69251,37.6608],[-95.69341,37.66081],[-95.69478,37.66082],[-95.69546,37.66082],[-95.69689,37.66084],[-95.69766,37.66084],[-95.69834,37.66085],[-95.69835,37.66085],[-95.6984,37.66085],[-95.69857,37.66085],[-95.70062,37.66085],[-95.70175,37.66084],[-95.70425,37.66084],[-95.70538,37.66084],[-95.70696,37.66085],[-95.70697,37.66085],[-95.70787,37.66085],[-95.7081,37.66085],[-95.70878,37.66086],[-95.70901,37.66086],[-95.71037,37.66087],[-95.71059,37.66087],[-95.7106,37.66087],[-95.71241,37.66088],[-95.71242,37.66088],[-95.71314,37.66088],[-95.714,37.66089],[-95.71581,37.6609],[-95.71583,37.6609],[-95.71604,37.6609],[-95.71785,37.66091],[-95.71787,37.66091],[-95.71871,37.66091],[-95.72123,37.66092],[-95.72146,37.66093],[-95.72327,37.66093],[-95.72373,37.66093],[-95.72404,37.66094],[-95.72463,37.66094],[-95.72464,37.66094],[-95.72577,37.66095],[-95.72646,37.66096],[-95.7267,37.66096],[-95.7281,37.66098],[-95.72817,37.66097],[-95.72924,37.66098],[-95.72946,37.66099],[-95.72947,37.66099],[-95.7297,37.66099],[-95.73037,37.66099],[-95.73048,37.66099],[-95.73061,37.661],[-95.73105,37.661],[-95.73129,37.661],[-95.73152,37.661],[-95.73217,37.661],[-95.73223,37.661],[-95.73228,37.661],[-95.7323,37.661],[-95.73243,37.661],[-95.73257,37.66099],[-95.73271,37.66098],[-95.73271,37.66098],[-95.73271,37.66086],[-95.73271,37.66075],[-95.7327,37.65995],[-95.7327,37.6599],[-95.7327,37.65974],[-95.7327,37.65964],[-95.7327,37.65923],[-95.7327,37.65891],[-95.7327,37.65851],[-95.7327,37.65846],[-95.7327,37.6581],[-95.73269,37.65797],[-95.73269,37.65792],[-95.73269,37.65742],[-95.73269,37.65599],[-95.73268,37.65368],[-95.73267,37.65293],[-95.73267,37.65187],[-95.73266,37.6508],[-95.73266,37.65037],[-95.73266,37.65013],[-95.73266,37.64983],[-95.73266,37.64973],[-95.73266,37.64938],[-95.73266,37.64926],[-95.73267,37.64912],[-95.73269,37.64886],[-95.73272,37.64857],[-95.73275,37.64831],[-95.7328,37.64803],[-95.73283,37.64786],[-95.73284,37.64781],[-95.73288,37.64763],[-95.73296,37.64733],[-95.73301,37.64716],[-95.73302,37.64711],[-95.73314,37.64675],[-95.73321,37.64654],[-95.73324,37.64646],[-95.73328,37.64637],[-95.73335,37.6462],[-95.73344,37.64599],[-95.7335,37.64587],[-95.73351,37.64584],[-95.73359,37.6457],[-95.73359,37.64569],[-95.73371,37.64546],[-95.73381,37.64527],[-95.73394,37.64504],[-95.73398,37.64497],[-95.73413,37.64471],[-95.73422,37.64454],[-95.73436,37.6443],[-95.73451,37.64405],[-95.7346,37.64389],[-95.73469,37.64373],[-95.73472,37.64369],[-95.73479,37.64356],[-95.73488,37.6434],[-95.73512,37.643],[-95.73548,37.64238],[-95.73583,37.64176],[-95.73589,37.64166],[-95.73592,37.6416],[-95.7363,37.64094],[-95.73635,37.64084],[-95.73639,37.64078],[-95.73668,37.64029],[-95.73677,37.64013],[-95.73686,37.63998],[-95.73686,37.63996],[-95.73696,37.6398],[-95.7373,37.63922],[-95.73779,37.63836],[-95.73781,37.63833],[-95.73846,37.63721],[-95.73876,37.63669],[-95.73904,37.6362],[-95.73919,37.63595],[-95.7394,37.63562],[-95.73969,37.63521],[-95.73979,37.63509],[-95.73987,37.63499],[-95.74007,37.63475],[-95.74027,37.63454],[-95.7403,37.6345],[-95.74043,37.63437],[-95.74074,37.63407],[-95.74089,37.63395],[-95.74102,37.63384],[-95.74125,37.63365],[-95.7417,37.63333],[-95.74191,37.6332],[-95.74224,37.63299],[-95.74242,37.63289],[-95.7426,37.63278],[-95.74281,37.63267],[-95.74298,37.63259],[-95.74307,37.63255],[-95.74318,37.6325],[-95.74345,37.63238],[-95.74378,37.63224],[-95.74403,37.63215],[-95.74423,37.63208],[-95.74449,37.63199],[-95.74485,37.63189],[-95.74522,37.63179],[-95.74556,37.63169],[-95.74586,37.63161],[-95.74608,37.63156],[-95.74629,37.6315],[-95.74679,37.63136],[-95.74709,37.63128],[-95.7481,37.63101],[-95.74848,37.6309],[-95.7498,37.63055],[-95.7509,37.63025],[-95.75155,37.63008],[-95.75176,37.63002],[-95.7521,37.62992],[-95.75281,37.62973],[-95.75302,37.62967],[-95.7541,37.62938],[-95.75516,37.62909],[-95.7558,37.62892],[-95.75688,37.62862],[-95.75709,37.62856],[-95.75817,37.62827],[-95.75988,37.6278],[-95.76439,37.62658],[-95.76741,37.62576],[-95.76821,37.62555],[-95.76824,37.62554],[-95.76885,37.62537],[-95.76937,37.62523],[-95.77164,37.62461],[-95.77353,37.6241],[-95.77465,37.62379],[-95.77468,37.62378],[-95.77557,37.62354],[-95.77696,37.62316],[-95.77801,37.62288],[-95.77847,37.62275],[-95.77864,37.62271],[-95.77872,37.62269],[-95.77893,37.62263],[-95.77936,37.62252],[-95.77978,37.6224],[-95.7802,37.62228],[-95.78095,37.62208],[-95.78211,37.62176],[-95.78274,37.62159],[-95.78339,37.62142],[-95.78389,37.62128],[-95.78402,37.62125],[-95.78476,37.62105],[-95.78603,37.6207],[-95.78624,37.62064],[-95.78754,37.62029],[-95.78775,37.62023],[-95.78803,37.62016],[-95.78861,37.62],[-95.78904,37.61988],[-95.78947,37.61976],[-95.7899,37.61965],[-95.78996,37.61963],[-95.79127,37.61928],[-95.7921,37.61906],[-95.79312,37.61882],[-95.79364,37.6187],[-95.79417,37.61859],[-95.79463,37.6185],[-95.79506,37.61842],[-95.79547,37.61835],[-95.79591,37.61828],[-95.79628,37.61822],[-95.79658,37.61817],[-95.79678,37.61814],[-95.79732,37.61805],[-95.79776,37.61799],[-95.79802,37.61796],[-95.79825,37.61793],[-95.79833,37.61792],[-95.79871,37.61788],[-95.79909,37.61784],[-95.7994,37.61781],[-95.79983,37.61778],[-95.80003,37.61776],[-95.80049,37.61773],[-95.80088,37.6177],[-95.8013,37.61768],[-95.80136,37.61768],[-95.80159,37.61766],[-95.80165,37.61766],[-95.80205,37.61765],[-95.80267,37.61763],[-95.80319,37.61762],[-95.80363,37.61762],[-95.80404,37.61761],[-95.80409,37.61761],[-95.80447,37.61761],[-95.80497,37.61761],[-95.80536,37.61761],[-95.80568,37.61761],[-95.80589,37.61762],[-95.8059,37.61762],[-95.80613,37.61762],[-95.80645,37.61762],[-95.80681,37.61762],[-95.80863,37.61763],[-95.80908,37.61763],[-95.80924,37.61763],[-95.80938,37.61763],[-95.80958,37.61764],[-95.8099,37.61764],[-95.81059,37.61764],[-95.8114,37.61764],[-95.81163,37.61765],[-95.81171,37.61765],[-95.81211,37.61765],[-95.81287,37.61765],[-95.81383,37.61765],[-95.81458,37.61766],[-95.81508,37.61766],[-95.81613,37.61767],[-95.81692,37.61767],[-95.81752,37.61772],[-95.81772,37.61774],[-95.81873,37.61774],[-95.81918,37.61774],[-95.81941,37.61774],[-95.81975,37.61775],[-95.82201,37.61776],[-95.82304,37.61776],[-95.82327,37.61777],[-95.8235,37.61777],[-95.82372,37.61777],[-95.8245,37.61777],[-95.82501,37.61777],[-95.8258,37.61778],[-95.82599,37.61778],[-95.82637,37.61778],[-95.82725,37.61778],[-95.82758,37.61778],[-95.82783,37.61778],[-95.82826,37.61778],[-95.82849,37.61779],[-95.82861,37.61779],[-95.82872,37.61779],[-95.82917,37.61779],[-95.83121,37.6178],[-95.8328,37.61781],[-95.83349,37.61782],[-95.83549,37.61782],[-95.83637,37.61782],[-95.83659,37.61782],[-95.83661,37.61782],[-95.83728,37.61782],[-95.8375,37.61783],[-95.83773,37.61783],[-95.83796,37.61783],[-95.83851,37.61783],[-95.83886,37.61783],[-95.84,37.61784],[-95.84023,37.61784],[-95.84034,37.61784],[-95.84045,37.61784],[-95.84068,37.61784],[-95.84091,37.61784],[-95.84114,37.61784],[-95.84136,37.61785],[-95.84197,37.61785],[-95.84204,37.61785],[-95.84273,37.61785],[-95.84341,37.61785],[-95.84363,37.61786],[-95.84409,37.61786],[-95.84431,37.61786],[-95.84454,37.61786],[-95.84477,37.61786],[-95.84522,37.61786],[-95.84636,37.61787],[-95.84681,37.61787],[-95.84704,37.61787],[-95.84727,37.61787],[-95.84793,37.61787],[-95.84863,37.61788],[-95.84886,37.61788],[-95.84908,37.61788],[-95.84931,37.61788],[-95.84954,37.61788],[-95.84966,37.61788],[-95.84976,37.61788],[-95.85113,37.61788],[-95.85157,37.61789],[-95.85196,37.61789],[-95.853,37.61789],[-95.85403,37.6179],[-95.85514,37.6179],[-95.85537,37.6179],[-95.8556,37.6179],[-95.85582,37.6179],[-95.85589,37.61791],[-95.85628,37.61791],[-95.8565,37.61791],[-95.85668,37.61791],[-95.85673,37.61791],[-95.85696,37.61791],[-95.85764,37.61791],[-95.85871,37.61792],[-95.85939,37.61792],[-95.85962,37.61792],[-95.85985,37.61792],[-95.86008,37.61792],[-95.86053,37.61793],[-95.86076,37.61793],[-95.86189,37.61793],[-95.86212,37.61793],[-95.86235,37.61793],[-95.86257,37.61793],[-95.8628,37.61793],[-95.86348,37.61794],[-95.86356,37.61794],[-95.86371,37.61794],[-95.86462,37.61794],[-95.86507,37.61794],[-95.86552,37.61794],[-95.86575,37.61794],[-95.86643,37.61794],[-95.86666,37.61794],[-95.86689,37.61795],[-95.86705,37.61795],[-95.86925,37.61796],[-95.87119,37.61797],[-95.87139,37.61797],[-95.8721,37.61797],[-95.87278,37.61797],[-95.87323,37.61798],[-95.87459,37.61798],[-95.87618,37.61799],[-95.87678,37.61799]]}},{"type":"Feature","properties":{"_gpxType":"trk","name":"1710 Arolyn Dr, Chanute, KS 66720 - 2017 S Plummer Ave - 2000 Rd - KS-39 - Unnamed Road - Lizard Lips Grill & Deli, U.S. 54, Toronto, KS - 200 W River St","coordinateProperties":{},"id":46},"geometry":{"type":"LineString","coordinates":[[-95.87678,37.61799],[-95.87686,37.61799],[-95.87732,37.61799],[-95.87777,37.61799],[-95.87839,37.61799],[-95.87839,37.61799],[-95.87835,37.61908],[-95.87834,37.61962],[-95.87832,37.61998],[-95.87831,37.62052],[-95.8783,37.62088],[-95.8783,37.62095],[-95.87828,37.62178],[-95.87828,37.62196],[-95.87826,37.62304],[-95.87825,37.62322],[-95.87825,37.62324],[-95.87825,37.6234],[-95.87825,37.62358],[-95.87824,37.62412],[-95.87824,37.62448],[-95.87823,37.62484],[-95.87823,37.62508],[-95.87824,37.62646],[-95.87824,37.62682],[-95.87824,37.62753],[-95.87825,37.62861],[-95.87825,37.62915],[-95.87825,37.62951],[-95.87826,37.63033]]}},{"type":"Feature","properties":{"_gpxType":"trk","name":"1710 Arolyn Dr, Chanute, KS 66720 - 2017 S Plummer Ave - 2000 Rd - KS-39 - Unnamed Road - Lizard Lips Grill & Deli, U.S. 54, Toronto, KS - 200 W River St","coordinateProperties":{},"id":46},"geometry":{"type":"LineString","coordinates":[[-95.87826,37.63033],[-95.87826,37.63095],[-95.87827,37.63185],[-95.87827,37.63203],[-95.87827,37.63257],[-95.87827,37.63311],[-95.87828,37.63455],[-95.87828,37.63459],[-95.87828,37.63527],[-95.87828,37.63653],[-95.87828,37.63657],[-95.87828,37.63707],[-95.87828,37.6371],[-95.87828,37.63743],[-95.87829,37.63917],[-95.87829,37.63923],[-95.87829,37.63926],[-95.87829,37.63941],[-95.87828,37.63954],[-95.87831,37.63967],[-95.87834,37.63975],[-95.87844,37.6398],[-95.87854,37.63982],[-95.87901,37.63983],[-95.87906,37.63983],[-95.88106,37.63985],[-95.88111,37.63985],[-95.88129,37.63985],[-95.88202,37.63986],[-95.88219,37.63986],[-95.88242,37.63987],[-95.88247,37.63987],[-95.88265,37.63987],[-95.88267,37.63987],[-95.88277,37.63991],[-95.88283,37.63997],[-95.88285,37.64],[-95.88286,37.64002],[-95.88285,37.6405],[-95.88285,37.64054],[-95.88284,37.64086],[-95.88284,37.6409],[-95.88284,37.64103],[-95.88284,37.64122],[-95.88284,37.64126],[-95.88284,37.64176],[-95.88284,37.6418],[-95.88285,37.64212],[-95.88285,37.64216],[-95.88285,37.6423],[-95.88285,37.64234],[-95.88285,37.64248],[-95.88285,37.64302],[-95.88285,37.64306],[-95.88285,37.64338],[-95.88285,37.64342],[-95.88285,37.64356],[-95.88285,37.6436],[-95.88286,37.64392],[-95.88286,37.64396],[-95.88286,37.64422],[-95.88283,37.64464],[-95.88283,37.64468],[-95.88282,37.64482],[-95.88282,37.64486],[-95.88281,37.645],[-95.88281,37.64504],[-95.88278,37.64554],[-95.88278,37.64558],[-95.88278,37.64562],[-95.88276,37.6459],[-95.88276,37.64594],[-95.88273,37.64643],[-95.88272,37.64661],[-95.88272,37.64663],[-95.88272,37.64666],[-95.88271,37.64715],[-95.88271,37.64719],[-95.88271,37.6472],[-95.8827,37.64733],[-95.88269,37.64751],[-95.88269,37.64752],[-95.88268,37.64756],[-95.88266,37.64787],[-95.88266,37.64791],[-95.88264,37.6481],[-95.88267,37.64844],[-95.88268,37.64856],[-95.8827,37.64862],[-95.8827,37.64863],[-95.88276,37.64886],[-95.88285,37.64896],[-95.88298,37.64902],[-95.88316,37.64905],[-95.88327,37.64906],[-95.88347,37.64908],[-95.88349,37.64908],[-95.88362,37.64911],[-95.8837,37.64916],[-95.88382,37.64922],[-95.88396,37.64941],[-95.88401,37.64952],[-95.88406,37.64982],[-95.8841,37.64993],[-95.88422,37.65007],[-95.88425,37.6501],[-95.88434,37.65018],[-95.88459,37.65037],[-95.88468,37.65049],[-95.88473,37.65069],[-95.88475,37.65076],[-95.88482,37.65099],[-95.88483,37.65104],[-95.88485,37.65129],[-95.88488,37.65143],[-95.88489,37.65145],[-95.88498,37.65199],[-95.885,37.65205],[-95.88514,37.65216],[-95.8852,37.65224],[-95.88521,37.65226],[-95.88527,37.65236],[-95.88528,37.65245],[-95.88534,37.65273],[-95.88535,37.65278],[-95.88538,37.65287],[-95.88542,37.65294],[-95.88556,37.6531],[-95.88617,37.65364],[-95.88633,37.65376],[-95.8865,37.65388],[-95.88654,37.6539],[-95.88679,37.65415],[-95.8868,37.65415],[-95.88712,37.65444],[-95.88722,37.65449],[-95.88729,37.65451],[-95.88749,37.65457],[-95.8875,37.65458],[-95.88753,37.6546],[-95.88754,37.65464],[-95.88755,37.65468],[-95.88755,37.65474],[-95.88754,37.65546],[-95.88754,37.65583],[-95.88756,37.65615],[-95.88756,37.65654],[-95.88756,37.65672],[-95.88757,37.65715],[-95.88758,37.65769],[-95.8876,37.65782],[-95.88765,37.658],[-95.88765,37.65847],[-95.88765,37.65854],[-95.88765,37.65864],[-95.88765,37.65872],[-95.88764,37.65881],[-95.88761,37.65901],[-95.88761,37.65904],[-95.88761,37.65908],[-95.88761,37.65937],[-95.88761,37.65956],[-95.88762,37.66059],[-95.88762,37.66081],[-95.88762,37.66088],[-95.88762,37.66147],[-95.88763,37.66224],[-95.88763,37.66232],[-95.88763,37.6625],[-95.88765,37.6634],[-95.88765,37.6635],[-95.88765,37.66376],[-95.88766,37.66422],[-95.88768,37.66522],[-95.88768,37.66556],[-95.88768,37.66574],[-95.88768,37.66584],[-95.88768,37.66635],[-95.8877,37.66728],[-95.8877,37.66753],[-95.88771,37.66807],[-95.88772,37.66858],[-95.88776,37.66879],[-95.88776,37.66879],[-95.88783,37.66883],[-95.88795,37.66885],[-95.88865,37.66885],[-95.88878,37.66885],[-95.88888,37.66885],[-95.8907,37.66886],[-95.89082,37.66886],[-95.89115,37.66886],[-95.89219,37.66886],[-95.89229,37.66886],[-95.89287,37.66887],[-95.89297,37.66887],[-95.89362,37.66888],[-95.89365,37.66888],[-95.894,37.66888],[-95.89547,37.6689],[-95.89559,37.6689],[-95.89683,37.66891],[-95.89683,37.66891],[-95.89685,37.6703],[-95.89686,37.67138],[-95.89688,37.67246],[-95.89691,37.67353],[-95.89692,37.67371],[-95.89692,37.67385],[-95.89693,37.67479],[-95.89693,37.67533],[-95.89694,37.67551],[-95.89694,37.67575],[-95.89692,37.67623],[-95.89691,37.67677],[-95.8969,37.67695],[-95.89689,37.67729],[-95.89689,37.67749],[-95.89688,37.67839],[-95.89688,37.67858],[-95.89688,37.67876],[-95.89688,37.67894],[-95.89688,37.67912],[-95.89688,37.6811],[-95.89687,37.68151],[-95.89687,37.68164],[-95.89687,37.68182],[-95.89687,37.68233],[-95.89689,37.68257],[-95.89692,37.68272],[-95.89695,37.68279],[-95.89705,37.68301],[-95.8971,37.6831],[-95.89725,37.68331],[-95.89733,37.68341],[-95.89734,37.68343],[-95.89746,37.68358],[-95.89751,37.68363],[-95.89763,37.68381],[-95.89772,37.68394],[-95.89779,37.68406],[-95.89785,37.68414],[-95.89779,37.68458],[-95.89775,37.68489],[-95.89771,37.68512],[-95.89767,37.6854],[-95.89757,37.68612],[-95.89741,37.68709],[-95.89734,37.68756],[-95.89731,37.68774],[-95.89726,37.6881],[-95.89709,37.68914],[-95.89701,37.68968],[-95.89701,37.68971],[-95.89698,37.68989],[-95.89695,37.69006],[-95.89691,37.69031],[-95.89688,37.6905],[-95.89688,37.69063],[-95.89688,37.69076],[-95.8969,37.69089],[-95.89692,37.69097],[-95.89694,37.69106],[-95.89697,37.69114],[-95.89699,37.69118],[-95.89712,37.6914],[-95.89719,37.69148],[-95.89719,37.69149],[-95.89732,37.69163],[-95.89747,37.69177],[-95.8977,37.69195],[-95.89779,37.69203],[-95.89827,37.69241],[-95.89843,37.69255],[-95.89874,37.69279],[-95.89938,37.6933],[-95.8996,37.69348],[-95.89969,37.69355],[-95.90049,37.69419],[-95.90113,37.6947],[-95.90261,37.69587],[-95.90341,37.69652],[-95.90414,37.69709],[-95.90428,37.6972],[-95.90446,37.69735],[-95.90477,37.69761],[-95.90521,37.69797],[-95.90539,37.69809],[-95.90565,37.69834],[-95.90581,37.6985],[-95.90597,37.69871],[-95.90603,37.69882],[-95.90607,37.69896],[-95.90609,37.69925],[-95.90609,37.69935],[-95.90609,37.69957],[-95.90609,37.70007],[-95.90609,37.70025],[-95.90608,37.70047],[-95.90609,37.70061],[-95.90609,37.70169],[-95.90609,37.70193],[-95.9061,37.70267],[-95.9061,37.70288],[-95.90611,37.7033],[-95.90612,37.70348],[-95.90612,37.70357],[-95.90612,37.70366],[-95.90612,37.70384],[-95.90612,37.7042],[-95.90612,37.70434],[-95.90612,37.7045],[-95.90611,37.70456],[-95.90611,37.70462],[-95.9061,37.70489],[-95.9061,37.70492],[-95.9061,37.7051],[-95.90611,37.70519],[-95.90611,37.70528],[-95.90613,37.7054],[-95.90613,37.70564],[-95.90613,37.70582],[-95.90614,37.706],[-95.90614,37.70618],[-95.90614,37.70626],[-95.90614,37.70653],[-95.90615,37.70708],[-95.90616,37.70762],[-95.9062,37.71014],[-95.90622,37.71158],[-95.90623,37.7123],[-95.90624,37.71317],[-95.90626,37.71394],[-95.90627,37.71466],[-95.90629,37.71543],[-95.9063,37.71615],[-95.9063,37.71624],[-95.90633,37.71742],[-95.90635,37.71827],[-95.90636,37.71867],[-95.90638,37.71957],[-95.9064,37.72103],[-95.9064,37.72105],[-95.90641,37.72137],[-95.90641,37.72157],[-95.90641,37.72165],[-95.90642,37.72173],[-95.90644,37.72265],[-95.90645,37.72312],[-95.90645,37.72328],[-95.90646,37.72378],[-95.90648,37.72436],[-95.90648,37.72443],[-95.90649,37.72472],[-95.9065,37.72508],[-95.9065,37.72526],[-95.9065,37.72533],[-95.9065,37.72544],[-95.9065,37.72562],[-95.90651,37.72595],[-95.9065,37.72634],[-95.9065,37.7267],[-95.9065,37.72673],[-95.9065,37.72706],[-95.90651,37.72778],[-95.90651,37.72785],[-95.90651,37.72832],[-95.9065,37.73048],[-95.9065,37.7308],[-95.9065,37.73102],[-95.90648,37.73274],[-95.90648,37.73292],[-95.90646,37.73435],[-95.90646,37.73466],[-95.90646,37.73471],[-95.90647,37.73489],[-95.90647,37.73504],[-95.90647,37.73507],[-95.90647,37.73561],[-95.90647,37.73587],[-95.90648,37.73597],[-95.90648,37.7362],[-95.90649,37.73687],[-95.90649,37.73739],[-95.90649,37.73741],[-95.90649,37.73744],[-95.90651,37.73759],[-95.90653,37.7378],[-95.90654,37.73795],[-95.90657,37.73816],[-95.90658,37.7383],[-95.9066,37.73856],[-95.90661,37.73873],[-95.90662,37.73888],[-95.90662,37.73891],[-95.90663,37.73914],[-95.90664,37.73939],[-95.90664,37.73942],[-95.90665,37.73954],[-95.90665,37.73954],[-95.90667,37.74039],[-95.90667,37.74057],[-95.90668,37.74111],[-95.90669,37.74146],[-95.90669,37.74147],[-95.90669,37.74165],[-95.9067,37.74273],[-95.9067,37.74291],[-95.9067,37.74299],[-95.90672,37.74428],[-95.90672,37.74471],[-95.90673,37.74502],[-95.90673,37.74525],[-95.90673,37.74534],[-95.90674,37.74543],[-95.90674,37.74579],[-95.90674,37.74597],[-95.90674,37.74606],[-95.90676,37.74678],[-95.90676,37.74723],[-95.90676,37.74773],[-95.90678,37.74881],[-95.90678,37.74899],[-95.90679,37.74926],[-95.90679,37.74935],[-95.90682,37.75078],[-95.90683,37.75091],[-95.90683,37.75096],[-95.90684,37.7515],[-95.90685,37.75176],[-95.90685,37.75184],[-95.90686,37.75206],[-95.90686,37.75217],[-95.90686,37.7522],[-95.90686,37.75238],[-95.90687,37.7527],[-95.90687,37.75288],[-95.90688,37.75306],[-95.90688,37.75324],[-95.90689,37.75332],[-95.90692,37.75468],[-95.90693,37.75504],[-95.90693,37.75522],[-95.90696,37.75611],[-95.907,37.75764],[-95.907,37.75767],[-95.90701,37.75785],[-95.90703,37.75857],[-95.90705,37.75913],[-95.90705,37.75917],[-95.90705,37.75948],[-95.90706,37.75966],[-95.90706,37.75984],[-95.90707,37.76005],[-95.90707,37.76056],[-95.90707,37.76092],[-95.90707,37.7611],[-95.90707,37.76118],[-95.90708,37.76236],[-95.90708,37.76252],[-95.90708,37.76344],[-95.90708,37.7641],[-95.90708,37.7647],[-95.90707,37.76488],[-95.90707,37.76489],[-95.90707,37.76506],[-95.90707,37.76524],[-95.90707,37.76547],[-95.90707,37.76596],[-95.90707,37.76602],[-95.90706,37.76618],[-95.90705,37.76644],[-95.90705,37.76665],[-95.90705,37.76678],[-95.90705,37.76686],[-95.90705,37.76696],[-95.90705,37.76768],[-95.90705,37.76786],[-95.90705,37.76804],[-95.90705,37.76822],[-95.90705,37.7684],[-95.90705,37.76858],[-95.90705,37.76876],[-95.90704,37.76966],[-95.90704,37.77002],[-95.90704,37.77037],[-95.90704,37.77145],[-95.90703,37.77217],[-95.90703,37.77267],[-95.90703,37.77339],[-95.90702,37.77394],[-95.90702,37.77411],[-95.90702,37.77429],[-95.90702,37.77435],[-95.90702,37.77489],[-95.90702,37.77555],[-95.90702,37.77596],[-95.90701,37.77608],[-95.90699,37.77734],[-95.90699,37.77791],[-95.90699,37.77806],[-95.90699,37.77824],[-95.90699,37.77831],[-95.90699,37.77842],[-95.90699,37.77895],[-95.90699,37.77924],[-95.90699,37.77942],[-95.90699,37.7795],[-95.907,37.77968],[-95.907,37.77969],[-95.90701,37.77978],[-95.90702,37.7799],[-95.90705,37.78009],[-95.90711,37.78042],[-95.9072,37.78068],[-95.90724,37.78077],[-95.90733,37.781],[-95.90737,37.78111],[-95.90738,37.78113],[-95.90744,37.78126],[-95.90757,37.7815],[-95.90768,37.78169],[-95.9078,37.78186],[-95.90791,37.78202],[-95.90802,37.78217],[-95.90814,37.78232],[-95.90822,37.7824],[-95.9083,37.78249],[-95.90845,37.78264],[-95.90848,37.78267],[-95.90857,37.78276],[-95.90876,37.78293],[-95.90892,37.78308],[-95.90938,37.78349],[-95.90968,37.78376],[-95.90984,37.7839],[-95.91014,37.78417],[-95.91029,37.7843],[-95.91074,37.7847],[-95.91089,37.78484],[-95.91092,37.78487],[-95.91104,37.78497],[-95.91119,37.78511],[-95.9115,37.78538],[-95.9121,37.78591],[-95.91241,37.78618],[-95.91377,37.78739],[-95.91435,37.78791],[-95.91452,37.78806],[-95.91467,37.7882],[-95.91498,37.78847],[-95.91513,37.7886],[-95.91558,37.78901],[-95.91573,37.78914],[-95.91633,37.78968],[-95.91679,37.79008],[-95.91724,37.79049],[-95.91739,37.79062],[-95.91794,37.79112],[-95.9181,37.79125],[-95.91896,37.79202],[-95.91926,37.79229],[-95.91954,37.79253],[-95.91969,37.79267],[-95.92001,37.79295],[-95.92005,37.79299],[-95.92024,37.79314],[-95.92039,37.79328],[-95.92066,37.7935],[-95.92087,37.79366],[-95.92107,37.79381],[-95.92156,37.79415],[-95.9221,37.79446],[-95.92221,37.79451],[-95.92229,37.79456],[-95.92248,37.79465],[-95.92286,37.79485],[-95.92293,37.79488],[-95.92306,37.79495],[-95.92364,37.79523],[-95.92403,37.79541],[-95.92442,37.7956],[-95.9248,37.79579],[-95.92616,37.79645],[-95.92642,37.79658],[-95.92713,37.79693],[-95.9273,37.79701],[-95.92771,37.79721],[-95.9279,37.79731],[-95.928,37.79735],[-95.92809,37.7974],[-95.92829,37.7975],[-95.9284,37.79755],[-95.9286,37.79765],[-95.92881,37.79774],[-95.92896,37.7978],[-95.92911,37.79786],[-95.92925,37.79791],[-95.9294,37.79796],[-95.9295,37.79798],[-95.92953,37.79799],[-95.92972,37.79804],[-95.92975,37.79805],[-95.93007,37.79812],[-95.93034,37.79817],[-95.93059,37.7982],[-95.93077,37.79821],[-95.93092,37.79823],[-95.93115,37.79823],[-95.93137,37.79824],[-95.93147,37.79824],[-95.9317,37.79824],[-95.93243,37.79823],[-95.93466,37.7982],[-95.93625,37.79818],[-95.93658,37.79818],[-95.93776,37.79817],[-95.93785,37.79817],[-95.93823,37.79817],[-95.9383,37.79817],[-95.93861,37.79816],[-95.93944,37.79816],[-95.93967,37.79816],[-95.93968,37.79816],[-95.94018,37.79817],[-95.94101,37.79817],[-95.94156,37.79818],[-95.94184,37.79818],[-95.94229,37.79818],[-95.94252,37.79819],[-95.94275,37.79819],[-95.9432,37.79819],[-95.94341,37.79819],[-95.94481,37.79821],[-95.94542,37.79821],[-95.94602,37.79822],[-95.94663,37.79823],[-95.94769,37.79824],[-95.94815,37.79825],[-95.94838,37.79825],[-95.94884,37.79826],[-95.9495,37.79827],[-95.94982,37.79827],[-95.95004,37.79827],[-95.95122,37.79828],[-95.95238,37.79828],[-95.95238,37.79828],[-95.95236,37.79924],[-95.95237,37.79971],[-95.95237,37.80005],[-95.95237,37.80116],[-95.95236,37.80159],[-95.9524,37.80247],[-95.9524,37.80291],[-95.95239,37.80305],[-95.95238,37.80336],[-95.95237,37.80374],[-95.95237,37.80525],[-95.95237,37.80597],[-95.95237,37.8063],[-95.95237,37.8066],[-95.95237,37.80736],[-95.95237,37.8081],[-95.95237,37.80819],[-95.95237,37.80882],[-95.95237,37.80931],[-95.95237,37.80981],[-95.95237,37.8099],[-95.95236,37.81107],[-95.95236,37.81125],[-95.95236,37.81143],[-95.95236,37.8119],[-95.95236,37.81221],[-95.95236,37.81251],[-95.95235,37.81267],[-95.95235,37.81377],[-95.95235,37.81414],[-95.95235,37.81453],[-95.95234,37.81489],[-95.95235,37.81652],[-95.95233,37.81825],[-95.95234,37.81969],[-95.95234,37.8198],[-95.95234,37.82016],[-95.95233,37.8207],[-95.95233,37.82088],[-95.95233,37.82111],[-95.95232,37.82196],[-95.95233,37.82262],[-95.95233,37.82263],[-95.95233,37.82281],[-95.95232,37.82301],[-95.9523,37.82337],[-95.95226,37.82365],[-95.95222,37.82389],[-95.95218,37.82406],[-95.95215,37.82419],[-95.95211,37.82433],[-95.952,37.82464],[-95.95195,37.82478],[-95.95193,37.82485],[-95.9519,37.82493],[-95.9518,37.82516],[-95.95166,37.82546],[-95.95152,37.82569],[-95.95148,37.82577],[-95.95142,37.82585],[-95.95137,37.82593],[-95.95123,37.82614],[-95.95099,37.82648],[-95.95097,37.82651],[-95.95076,37.82679],[-95.95051,37.82715],[-95.95026,37.8275],[-95.95004,37.82783],[-95.94982,37.82821],[-95.94972,37.8284],[-95.94961,37.82866],[-95.94948,37.829],[-95.94939,37.82928],[-95.94934,37.82947],[-95.9493,37.82961],[-95.9493,37.82963],[-95.94927,37.82974],[-95.94927,37.82979],[-95.94923,37.82996],[-95.94921,37.83014],[-95.94919,37.83032],[-95.94917,37.83055],[-95.94917,37.83068],[-95.94916,37.83112],[-95.94916,37.83302],[-95.94916,37.8332],[-95.94917,37.83392],[-95.94917,37.8341],[-95.94917,37.83502],[-95.94918,37.83558],[-95.94918,37.83603],[-95.94918,37.83603],[-95.94903,37.83603],[-95.94886,37.83602],[-95.94884,37.83602]]}},{"type":"Feature","properties":{"_gpxType":"trk","name":"1710 Arolyn Dr, Chanute, KS 66720 - 2017 S Plummer Ave - 2000 Rd - KS-39 - Unnamed Road - Lizard Lips Grill & Deli, U.S. 54, Toronto, KS - 200 W River St","coordinateProperties":{},"id":46},"geometry":{"type":"LineString","coordinates":[[-95.94884,37.83602],[-95.94886,37.83602],[-95.94903,37.83603],[-95.94918,37.83603],[-95.94918,37.83603],[-95.94915,37.83633],[-95.94915,37.83633],[-95.95008,37.83632],[-95.95012,37.83632],[-95.95069,37.83632],[-95.95126,37.83633],[-95.95148,37.83633],[-95.95217,37.83634],[-95.95231,37.83635],[-95.95286,37.83636],[-95.95353,37.83636],[-95.95405,37.83636],[-95.95447,37.83636],[-95.95513,37.83635],[-95.9556,37.83634],[-95.95605,37.83633],[-95.95616,37.83632],[-95.95638,37.83631],[-95.95648,37.83631],[-95.95682,37.8363],[-95.95707,37.83629],[-95.95729,37.83628],[-95.95743,37.83627],[-95.95769,37.83626],[-95.9582,37.83625],[-95.9585,37.83624],[-95.95897,37.83622],[-95.95922,37.83622],[-95.95988,37.83621],[-95.96025,37.83621],[-95.9604,37.83621],[-95.96048,37.83621],[-95.96117,37.8362],[-95.96162,37.83621],[-95.96211,37.83621],[-95.96253,37.83622],[-95.96458,37.83625],[-95.96519,37.83626],[-95.96564,37.83626],[-95.96604,37.83627],[-95.96641,37.83628],[-95.96685,37.83629],[-95.96731,37.83631],[-95.96734,37.83631],[-95.96754,37.83632],[-95.96764,37.83632],[-95.96799,37.83634],[-95.96812,37.83634],[-95.96867,37.83637],[-95.96889,37.83638],[-95.9695,37.83642],[-95.96981,37.83644],[-95.9699,37.83645],[-95.97033,37.83648],[-95.97089,37.83652],[-95.97094,37.83652],[-95.97157,37.83656],[-95.97204,37.83659],[-95.97208,37.83659],[-95.97257,37.83661],[-95.97303,37.83663],[-95.9736,37.83664],[-95.97425,37.83666],[-95.97524,37.83667],[-95.97676,37.8367],[-95.98046,37.83675],[-95.98074,37.83675],[-95.98527,37.83681],[-95.98543,37.83681],[-95.98682,37.83683],[-95.9881,37.83685],[-95.98894,37.83686],[-95.99002,37.83688],[-95.99329,37.83693],[-95.99494,37.83695],[-95.99606,37.83696],[-95.99654,37.83697],[-95.99695,37.83698],[-95.99775,37.83699],[-95.99844,37.837],[-95.99882,37.837],[-95.99904,37.83701],[-95.99913,37.83701],[-95.99927,37.83701],[-95.9995,37.83701],[-95.99992,37.83701],[-96.00036,37.83702],[-96.00118,37.83702],[-96.00132,37.83702],[-96.0023,37.83702],[-96.00269,37.83701],[-96.00333,37.83701],[-96.00337,37.83701],[-96.0036,37.83701],[-96.00383,37.837],[-96.00459,37.83699],[-96.00474,37.83699],[-96.00496,37.83699],[-96.00519,37.83699],[-96.00583,37.83698],[-96.00675,37.83698],[-96.00722,37.83697],[-96.00792,37.83697],[-96.00871,37.83696],[-96.00928,37.83696],[-96.00974,37.83696],[-96.0102,37.83696],[-96.0103,37.83696],[-96.01043,37.83696],[-96.01066,37.83696],[-96.01099,37.83696],[-96.01157,37.83696],[-96.0118,37.83696],[-96.01311,37.83697],[-96.01584,37.837],[-96.01607,37.837],[-96.01676,37.837],[-96.01692,37.837],[-96.02183,37.83704],[-96.02273,37.83705],[-96.02311,37.83705],[-96.02357,37.83705],[-96.02391,37.83706],[-96.02424,37.83706],[-96.02459,37.83706],[-96.02494,37.83707],[-96.02528,37.83707],[-96.02546,37.83707],[-96.02551,37.83707],[-96.02569,37.83707],[-96.02614,37.83707],[-96.02744,37.83708],[-96.02801,37.83709],[-96.03039,37.83711],[-96.03171,37.83712],[-96.03255,37.83712],[-96.03443,37.83713],[-96.03551,37.83713],[-96.03607,37.83713],[-96.03767,37.83713],[-96.03835,37.83714],[-96.03858,37.83714],[-96.03893,37.83714],[-96.03926,37.83714],[-96.03939,37.83714],[-96.03949,37.83714],[-96.03984,37.83714],[-96.0404,37.83714],[-96.04086,37.83714],[-96.04133,37.83714],[-96.04188,37.83714],[-96.04496,37.83714],[-96.04541,37.83714],[-96.04587,37.83714],[-96.04609,37.83714],[-96.04723,37.83714],[-96.04746,37.83714],[-96.04887,37.83715],[-96.04976,37.83714],[-96.05069,37.83714],[-96.05509,37.83715],[-96.05634,37.83715],[-96.05657,37.83715],[-96.05771,37.83715],[-96.06204,37.83715],[-96.06363,37.83715],[-96.06477,37.83715],[-96.06568,37.83715],[-96.06591,37.83715],[-96.06796,37.83715],[-96.07092,37.83716],[-96.07251,37.83716],[-96.07369,37.83716],[-96.07422,37.83716],[-96.07448,37.83717],[-96.07498,37.83717],[-96.07521,37.83718],[-96.07549,37.83718],[-96.0757,37.83719],[-96.07624,37.8372],[-96.07713,37.83723],[-96.07848,37.83729],[-96.07889,37.83731],[-96.08014,37.83736],[-96.08129,37.83741],[-96.0822,37.83744],[-96.08401,37.83752],[-96.08495,37.83756],[-96.08631,37.83762],[-96.08679,37.83765],[-96.0872,37.83767],[-96.08757,37.83769],[-96.08782,37.83771],[-96.08795,37.83772],[-96.08811,37.83773],[-96.08819,37.83774],[-96.08836,37.83775],[-96.08879,37.83779],[-96.08909,37.83782],[-96.08974,37.83788],[-96.09296,37.83818],[-96.09319,37.8382],[-96.09359,37.83823],[-96.09423,37.83829],[-96.09496,37.83836],[-96.09564,37.83842],[-96.09601,37.83846],[-96.09626,37.83848],[-96.09736,37.83858],[-96.098,37.83864],[-96.09835,37.83867],[-96.09859,37.8387],[-96.09927,37.83876],[-96.09935,37.83877],[-96.0995,37.83878],[-96.1001,37.83884],[-96.1004,37.83887],[-96.10063,37.83889],[-96.10097,37.83892],[-96.10115,37.83895],[-96.10199,37.83903],[-96.10242,37.83906],[-96.10286,37.8391],[-96.10311,37.83911],[-96.10338,37.83913],[-96.10355,37.83914],[-96.10371,37.83915],[-96.10377,37.83915],[-96.10384,37.83915],[-96.10395,37.83915],[-96.10402,37.83916],[-96.10409,37.83916],[-96.10468,37.83915],[-96.10503,37.83915],[-96.10531,37.83914],[-96.10539,37.83913],[-96.10566,37.83912],[-96.10583,37.83911],[-96.10589,37.8391],[-96.10606,37.83909],[-96.10625,37.83907],[-96.10649,37.83905],[-96.1067,37.83903],[-96.10691,37.839],[-96.10705,37.83898],[-96.10712,37.83897],[-96.10761,37.8389],[-96.1082,37.83881],[-96.10858,37.83875],[-96.1103,37.83849],[-96.11052,37.83845],[-96.11097,37.83838],[-96.11142,37.83831],[-96.11278,37.8381],[-96.1133,37.83803],[-96.11368,37.83798],[-96.11408,37.83793],[-96.11438,37.8379],[-96.11454,37.83789],[-96.11465,37.83788],[-96.1148,37.83787],[-96.11507,37.83785],[-96.11551,37.83782],[-96.11596,37.8378],[-96.1162,37.8378],[-96.11668,37.83779],[-96.11722,37.8378],[-96.11794,37.83781],[-96.11868,37.83782],[-96.11907,37.83783],[-96.12086,37.83785],[-96.12288,37.83789],[-96.12386,37.8379],[-96.12463,37.83792],[-96.12512,37.83792],[-96.12542,37.83792],[-96.12549,37.83793],[-96.12571,37.83793],[-96.12577,37.83793],[-96.12754,37.83796],[-96.12769,37.83796],[-96.12826,37.83797],[-96.12851,37.83798],[-96.12874,37.83798],[-96.12881,37.83798],[-96.1293,37.83799],[-96.12942,37.83799],[-96.12959,37.83799],[-96.12987,37.838],[-96.1301,37.838],[-96.1303,37.838],[-96.1307,37.83801],[-96.13132,37.83802],[-96.13236,37.83803],[-96.1328,37.83804],[-96.13316,37.83805],[-96.13348,37.83805],[-96.13352,37.83805],[-96.1339,37.83805],[-96.13449,37.83806],[-96.13488,37.83806],[-96.1355,37.83806],[-96.13567,37.83806],[-96.13636,37.83806],[-96.13669,37.83806],[-96.13714,37.83806],[-96.13851,37.83806],[-96.14124,37.83806],[-96.14137,37.83806],[-96.14194,37.83806],[-96.14309,37.83806],[-96.14377,37.83806],[-96.14454,37.83807],[-96.14456,37.83807],[-96.14476,37.83807],[-96.14501,37.83807],[-96.14569,37.83808],[-96.14681,37.83808],[-96.14683,37.83808],[-96.14727,37.83809],[-96.1475,37.83809],[-96.14795,37.83809],[-96.14823,37.8381],[-96.1485,37.8381],[-96.14916,37.8381],[-96.14933,37.8381],[-96.1502,37.83811],[-96.15059,37.83811],[-96.15099,37.83812],[-96.15137,37.83812],[-96.15169,37.83814],[-96.15172,37.83814],[-96.15192,37.83814],[-96.15234,37.83816],[-96.15299,37.83818],[-96.15306,37.83819],[-96.15367,37.83822],[-96.15431,37.83826],[-96.15482,37.83829],[-96.15527,37.83833],[-96.15566,37.83835],[-96.15625,37.8384],[-96.15758,37.83849],[-96.15827,37.83853],[-96.15891,37.83858],[-96.16022,37.83867],[-96.16078,37.8387],[-96.16113,37.83872],[-96.16124,37.83873],[-96.16136,37.83873],[-96.16164,37.83874],[-96.16204,37.83876],[-96.16205,37.83876],[-96.16235,37.83877],[-96.16253,37.83878],[-96.16272,37.83878],[-96.16324,37.8388],[-96.16387,37.83881],[-96.16448,37.83883],[-96.16516,37.83884],[-96.16601,37.83885],[-96.16616,37.83886],[-96.1666,37.83886],[-96.1675,37.83889],[-96.16759,37.83889],[-96.16761,37.83889],[-96.16807,37.8389],[-96.16889,37.83892],[-96.17103,37.83896],[-96.17156,37.83896],[-96.17228,37.83897],[-96.17229,37.83897],[-96.1723,37.83897],[-96.17296,37.83896],[-96.17343,37.83895],[-96.17376,37.83894],[-96.17496,37.8389],[-96.17503,37.8389],[-96.17596,37.83886],[-96.17668,37.83883],[-96.1768,37.83885],[-96.17723,37.83885],[-96.17786,37.83882],[-96.17838,37.83879],[-96.17881,37.83878],[-96.17997,37.83873],[-96.18047,37.83871],[-96.1806,37.83869],[-96.18069,37.83868],[-96.18111,37.83867],[-96.1813,37.83866],[-96.18149,37.83865],[-96.18168,37.83864],[-96.18174,37.83863],[-96.18191,37.83862],[-96.18205,37.83861],[-96.1823,37.83859],[-96.1825,37.83857],[-96.18266,37.83855],[-96.18287,37.83852],[-96.18311,37.83848],[-96.18328,37.83845],[-96.18343,37.83842],[-96.18346,37.83842],[-96.18356,37.8384],[-96.18369,37.83837],[-96.18381,37.83834],[-96.18393,37.83831],[-96.18405,37.83828],[-96.18418,37.83825],[-96.1843,37.83822],[-96.18445,37.83818],[-96.18463,37.83812],[-96.18473,37.83809],[-96.18486,37.83805],[-96.185,37.838],[-96.18519,37.83793],[-96.18533,37.83788],[-96.18543,37.83784],[-96.18604,37.83758],[-96.1864,37.83742],[-96.18689,37.8372],[-96.18723,37.83704],[-96.18743,37.83694],[-96.18773,37.8368],[-96.18801,37.83667],[-96.18818,37.83659],[-96.18858,37.8364],[-96.18882,37.83631],[-96.18924,37.83609],[-96.18951,37.83597],[-96.19,37.83574],[-96.19082,37.83536],[-96.19224,37.83469],[-96.19455,37.83364],[-96.19616,37.83286],[-96.19748,37.83228],[-96.1991,37.83148],[-96.20486,37.82879],[-96.20939,37.82668],[-96.21282,37.82506],[-96.21467,37.8242],[-96.21644,37.82337],[-96.21781,37.82273],[-96.21918,37.82209],[-96.21937,37.822],[-96.22577,37.819],[-96.22584,37.81897],[-96.22603,37.81888],[-96.22628,37.81876],[-96.22657,37.81863],[-96.22683,37.81852],[-96.22703,37.81843],[-96.22722,37.81835],[-96.22736,37.8183],[-96.22754,37.81823],[-96.22764,37.81819],[-96.22776,37.81815],[-96.22793,37.8181],[-96.22807,37.81806],[-96.22817,37.81803],[-96.22832,37.81799],[-96.22845,37.81796],[-96.22862,37.81791],[-96.22881,37.81787],[-96.22899,37.81783],[-96.22916,37.81779],[-96.22928,37.81777],[-96.22943,37.81774],[-96.22965,37.8177],[-96.22975,37.81768],[-96.22996,37.81765],[-96.23012,37.81763],[-96.23035,37.81761],[-96.23059,37.81759],[-96.23084,37.81757],[-96.23097,37.81756],[-96.23112,37.81755],[-96.23131,37.81754],[-96.23148,37.81754],[-96.23176,37.81753],[-96.23213,37.81753],[-96.23249,37.81753],[-96.233,37.81753],[-96.23386,37.81754],[-96.23402,37.81754],[-96.23475,37.81754],[-96.2355,37.81753],[-96.23573,37.81753],[-96.23658,37.81754],[-96.23673,37.81754],[-96.23749,37.81754],[-96.2409,37.81754],[-96.24188,37.81754],[-96.24279,37.81754],[-96.2448,37.81754],[-96.24643,37.81755],[-96.2478,37.81755],[-96.24916,37.81755],[-96.24939,37.81755],[-96.24987,37.81755],[-96.25235,37.81755],[-96.25424,37.81755],[-96.25515,37.81755],[-96.25547,37.81755],[-96.25592,37.81755],[-96.25593,37.81755],[-96.25706,37.81755],[-96.25841,37.81755],[-96.25888,37.81755],[-96.26002,37.81755],[-96.26025,37.81755],[-96.26049,37.81755],[-96.26161,37.81755],[-96.26185,37.81755],[-96.26321,37.81755],[-96.26343,37.81755],[-96.26345,37.81755],[-96.26617,37.81755],[-96.26663,37.81755],[-96.26702,37.81755],[-96.26708,37.81755],[-96.26731,37.81755],[-96.268,37.81756],[-96.26845,37.81757],[-96.26879,37.81757],[-96.26909,37.81758],[-96.26921,37.81758],[-96.26932,37.81759],[-96.26951,37.8176],[-96.26965,37.81761],[-96.26973,37.81761],[-96.26978,37.81762],[-96.26991,37.81762],[-96.27002,37.81763],[-96.27056,37.81768],[-96.27069,37.81769],[-96.27205,37.81776],[-96.27238,37.81777],[-96.27343,37.81779],[-96.27403,37.81779],[-96.2754,37.8178],[-96.27635,37.8178],[-96.27735,37.8178],[-96.27794,37.81781],[-96.27872,37.81781],[-96.27941,37.81782],[-96.2798,37.81782],[-96.28048,37.81783],[-96.28177,37.81783],[-96.28285,37.81784],[-96.28311,37.81784],[-96.28377,37.81784],[-96.2844,37.81784],[-96.28514,37.81784],[-96.28575,37.81785],[-96.28648,37.81785],[-96.28707,37.81785],[-96.28773,37.81785],[-96.2884,37.81785],[-96.28909,37.81785],[-96.29,37.81785],[-96.29068,37.81784],[-96.29137,37.81784],[-96.29203,37.81784],[-96.29205,37.81784],[-96.29273,37.81784],[-96.29339,37.81784],[-96.29414,37.81784],[-96.29485,37.81784],[-96.29554,37.81783],[-96.29583,37.81783]]}}]}