{"type":"FeatureCollection","features":[{"type":"Feature","properties":{"_gpxType":"trk","name":"200 W River St, Eureka, KS 67045 - Cassoday Country Store, Kansas 177, Cassoday, KS - 118 N Walnut St - 303 West Broadway Street, Newton, KS","coordinateProperties":{},"id":47},"geometry":{"type":"LineString","coordinates":[[-96.29554,37.81811],[-96.29554,37.81783],[-96.29554,37.81783],[-96.2962,37.81783],[-96.29688,37.81783],[-96.29772,37.81784],[-96.29785,37.81784],[-96.29794,37.81783],[-96.29801,37.81783],[-96.29809,37.81782],[-96.2982,37.81781],[-96.29836,37.81778],[-96.29846,37.81776],[-96.29855,37.81774],[-96.29863,37.81772],[-96.2987,37.8177],[-96.29878,37.81767],[-96.29884,37.81765],[-96.299,37.81758],[-96.29912,37.81752],[-96.29922,37.81747],[-96.29932,37.81742],[-96.29952,37.81731],[-96.29954,37.81729],[-96.30026,37.81687],[-96.30171,37.81606],[-96.30178,37.81602],[-96.30221,37.81578],[-96.30228,37.81574],[-96.30237,37.81569],[-96.3026,37.81557],[-96.3028,37.81546],[-96.30303,37.81535],[-96.30319,37.81528],[-96.3034,37.8152],[-96.30374,37.81507],[-96.30397,37.815],[-96.3042,37.81493],[-96.30433,37.8149],[-96.30442,37.81488],[-96.30454,37.81485],[-96.30466,37.81483],[-96.30475,37.81481],[-96.30487,37.81479],[-96.30502,37.81476],[-96.30518,37.81474],[-96.30533,37.81472],[-96.30541,37.81471],[-96.30549,37.8147],[-96.30567,37.81469],[-96.30576,37.81468],[-96.30586,37.81468],[-96.30597,37.81467],[-96.30599,37.81467],[-96.30608,37.81467],[-96.30629,37.81466],[-96.30659,37.81466],[-96.30695,37.81465],[-96.30831,37.81463],[-96.30845,37.81463],[-96.309,37.81462],[-96.30915,37.81462],[-96.30988,37.81461],[-96.31038,37.8146],[-96.31064,37.8146],[-96.31086,37.81458],[-96.31095,37.81458],[-96.31105,37.81457],[-96.31118,37.81455],[-96.31127,37.81454],[-96.31131,37.81454],[-96.31145,37.81452],[-96.31163,37.8145],[-96.31181,37.81448],[-96.31196,37.81445],[-96.31253,37.81437],[-96.31339,37.81425],[-96.31388,37.81418],[-96.31454,37.8141],[-96.31515,37.81402],[-96.31557,37.81396],[-96.31591,37.81391],[-96.31614,37.81387],[-96.31643,37.81381],[-96.31665,37.81376],[-96.31686,37.81373],[-96.317,37.8137],[-96.31713,37.81367],[-96.31739,37.81361],[-96.31766,37.81354],[-96.31799,37.81346],[-96.31812,37.81343],[-96.31826,37.81339],[-96.3185,37.81333],[-96.31871,37.81326],[-96.31883,37.81323],[-96.31909,37.81315],[-96.31978,37.81293],[-96.32376,37.81162],[-96.32427,37.81145],[-96.32505,37.81121],[-96.32551,37.81107],[-96.32564,37.81103],[-96.32572,37.81101],[-96.3258,37.81099],[-96.32593,37.81095],[-96.32598,37.81094],[-96.32603,37.81093],[-96.32617,37.81089],[-96.32635,37.81084],[-96.32652,37.8108],[-96.32671,37.81076],[-96.32688,37.81072],[-96.32705,37.81068],[-96.32719,37.81065],[-96.3273,37.81063],[-96.32745,37.8106],[-96.32778,37.81053],[-96.32795,37.8105],[-96.32809,37.81048],[-96.32818,37.81047],[-96.32834,37.81044],[-96.3285,37.81041],[-96.32868,37.81039],[-96.32886,37.81037],[-96.32906,37.81034],[-96.3293,37.81031],[-96.32949,37.81029],[-96.3296,37.81028],[-96.32969,37.81027],[-96.32992,37.81025],[-96.33014,37.81022],[-96.33031,37.81021],[-96.33063,37.81018],[-96.33096,37.81016],[-96.33117,37.81015],[-96.33133,37.81015],[-96.33153,37.81014],[-96.33202,37.81014],[-96.3326,37.81013],[-96.33292,37.81013],[-96.33356,37.81014],[-96.33448,37.81013],[-96.33471,37.81013],[-96.33584,37.81013],[-96.33832,37.81013],[-96.33873,37.81013],[-96.33885,37.81013],[-96.34053,37.81012],[-96.34069,37.81012],[-96.3417,37.81012],[-96.34394,37.81012],[-96.34668,37.81012],[-96.34781,37.81013],[-96.34887,37.81013],[-96.35005,37.81013],[-96.35024,37.81013],[-96.35028,37.81013],[-96.3523,37.81013],[-96.35255,37.81013],[-96.35369,37.81013],[-96.35438,37.81013],[-96.35483,37.81013],[-96.35506,37.81013],[-96.35574,37.81013],[-96.35597,37.81013],[-96.35642,37.81013],[-96.36007,37.81013],[-96.36029,37.81013],[-96.36166,37.81013],[-96.36232,37.81013],[-96.36301,37.81013],[-96.36392,37.81013],[-96.36688,37.81013],[-96.36713,37.81014],[-96.36802,37.81014],[-96.36874,37.81014],[-96.36885,37.81014],[-96.36963,37.81014],[-96.37093,37.81015],[-96.37123,37.81015],[-96.37146,37.81015],[-96.37345,37.81017],[-96.37365,37.81017],[-96.37482,37.81019],[-96.37542,37.81019],[-96.37816,37.81022],[-96.38016,37.81025],[-96.38048,37.81025],[-96.38133,37.81026],[-96.38224,37.81027],[-96.38246,37.81027],[-96.38269,37.81027],[-96.38313,37.81028],[-96.38418,37.81029],[-96.38451,37.81029],[-96.38629,37.81031],[-96.38753,37.81032],[-96.38861,37.81033],[-96.38994,37.81034],[-96.39157,37.81034],[-96.39286,37.81035],[-96.39355,37.81035],[-96.39446,37.81035],[-96.39557,37.81035],[-96.39833,37.81035],[-96.39918,37.81035],[-96.39934,37.81035],[-96.39941,37.81035],[-96.40014,37.81035],[-96.40116,37.81036],[-96.4016,37.81036],[-96.40169,37.81036],[-96.40298,37.81036],[-96.40389,37.81036],[-96.40394,37.81036],[-96.40663,37.81036],[-96.40693,37.81036],[-96.40738,37.81036],[-96.40822,37.81036],[-96.40845,37.81036],[-96.40875,37.81036],[-96.40985,37.81036],[-96.41057,37.81037],[-96.41444,37.81037],[-96.41666,37.81037],[-96.4176,37.81037],[-96.41859,37.81037],[-96.42229,37.81035],[-96.42336,37.81035],[-96.42495,37.81034],[-96.42518,37.81034],[-96.42525,37.81034],[-96.43383,37.8103],[-96.43406,37.81029],[-96.43504,37.81029],[-96.43527,37.81029],[-96.43543,37.81029],[-96.43551,37.81029],[-96.43913,37.81027],[-96.44178,37.81025],[-96.4444,37.81024],[-96.44526,37.81023],[-96.44544,37.81023],[-96.44551,37.81023],[-96.44567,37.81023],[-96.44647,37.81023],[-96.44658,37.81023],[-96.44704,37.81022],[-96.44795,37.81022],[-96.44849,37.81022],[-96.44887,37.81022],[-96.44929,37.81022],[-96.44978,37.81022],[-96.44996,37.81023],[-96.4504,37.81023],[-96.45116,37.81025],[-96.45154,37.81027],[-96.45193,37.8103],[-96.45204,37.81031],[-96.45229,37.81033],[-96.45267,37.81037],[-96.45271,37.81038],[-96.45314,37.81043],[-96.4536,37.8105],[-96.45404,37.81057],[-96.45458,37.81067],[-96.45523,37.8108],[-96.45603,37.811],[-96.45646,37.81111],[-96.4565,37.81112],[-96.45732,37.81135],[-96.45754,37.81141],[-96.45845,37.81166],[-96.45964,37.812],[-96.46033,37.81219],[-96.46192,37.81263],[-96.46277,37.81287],[-96.46321,37.81299],[-96.46385,37.81317],[-96.46406,37.81323],[-96.46471,37.81341],[-96.46492,37.81347],[-96.46557,37.81365],[-96.46631,37.81385],[-96.46822,37.81438],[-96.46847,37.81445],[-96.46939,37.81469],[-96.46994,37.81483],[-96.47017,37.81488],[-96.47095,37.81503],[-96.47096,37.81503],[-96.47118,37.81507],[-96.47147,37.81512],[-96.47178,37.81517],[-96.47206,37.81521],[-96.47257,37.81527],[-96.47288,37.8153],[-96.47297,37.81531],[-96.47322,37.81533],[-96.47348,37.81535],[-96.47377,37.81537],[-96.47414,37.8154],[-96.47452,37.81541],[-96.47502,37.81542],[-96.47524,37.81542],[-96.47542,37.81542],[-96.47601,37.81541],[-96.47638,37.8154],[-96.47658,37.81539],[-96.47661,37.81539],[-96.47706,37.81536],[-96.47712,37.81536],[-96.47752,37.81533],[-96.47771,37.81531],[-96.47774,37.81531],[-96.47819,37.81526],[-96.47887,37.81517],[-96.47974,37.81503],[-96.48029,37.81493],[-96.48083,37.81482],[-96.48098,37.81479],[-96.4813,37.81473],[-96.48235,37.81451],[-96.48319,37.81433],[-96.48346,37.81428],[-96.48456,37.81406],[-96.48551,37.81386],[-96.48563,37.81384],[-96.48573,37.81382],[-96.48674,37.81362],[-96.48705,37.81355],[-96.48793,37.81337],[-96.48903,37.81315],[-96.48926,37.8131],[-96.48958,37.81304],[-96.48992,37.81297],[-96.49014,37.81292],[-96.49036,37.81288],[-96.49094,37.81276],[-96.49102,37.81275],[-96.49169,37.81263],[-96.49178,37.81261],[-96.49191,37.81259],[-96.49227,37.81254],[-96.49274,37.81248],[-96.49333,37.81242],[-96.49381,37.81237],[-96.49423,37.81234],[-96.49459,37.81233],[-96.49513,37.81231],[-96.49576,37.81231],[-96.49598,37.8123],[-96.49619,37.8123],[-96.49621,37.8123],[-96.49644,37.8123],[-96.49719,37.8123],[-96.49735,37.8123],[-96.49758,37.81229],[-96.49849,37.81229],[-96.49917,37.81229],[-96.50017,37.81228],[-96.50105,37.81228],[-96.50168,37.81227],[-96.50236,37.81227],[-96.50365,37.81227],[-96.50622,37.81225],[-96.50706,37.81225],[-96.50729,37.81225],[-96.50759,37.81224],[-96.50866,37.81224],[-96.50889,37.81224],[-96.50911,37.81224],[-96.50934,37.81224],[-96.51071,37.81223],[-96.51222,37.81222],[-96.51299,37.81222],[-96.51424,37.81222],[-96.51595,37.81221],[-96.51753,37.8122],[-96.51846,37.81219],[-96.51943,37.81218],[-96.51982,37.81217],[-96.52018,37.81215],[-96.52058,37.81213],[-96.52125,37.81208],[-96.5217,37.81204],[-96.52259,37.81194],[-96.52391,37.81179],[-96.52486,37.81168],[-96.52531,37.81163],[-96.52582,37.81157],[-96.52676,37.81146],[-96.52721,37.81141],[-96.52741,37.81139],[-96.52809,37.81131],[-96.52831,37.81128],[-96.52834,37.81128],[-96.52836,37.81128],[-96.52879,37.81123],[-96.52899,37.8112],[-96.52921,37.81118],[-96.52924,37.81117],[-96.52944,37.81115],[-96.52992,37.81109],[-96.53056,37.81102],[-96.53102,37.81096],[-96.5322,37.81083],[-96.53348,37.81069],[-96.53433,37.81058],[-96.53537,37.81046],[-96.53599,37.81039],[-96.53783,37.81017],[-96.53919,37.81001],[-96.53923,37.81001],[-96.54006,37.80991],[-96.54081,37.80982],[-96.5414,37.80976],[-96.54176,37.80973],[-96.54214,37.8097],[-96.54231,37.80969],[-96.54247,37.80968],[-96.54258,37.80968],[-96.54264,37.80968],[-96.54281,37.80967],[-96.54303,37.80967],[-96.54321,37.80967],[-96.54326,37.80967],[-96.54348,37.80967],[-96.54377,37.80968],[-96.5441,37.8097],[-96.5444,37.80971],[-96.5447,37.80974],[-96.54508,37.80977],[-96.54578,37.80983],[-96.54623,37.80987],[-96.54634,37.80988],[-96.54646,37.80989],[-96.54705,37.80994],[-96.54736,37.80997],[-96.54753,37.80998],[-96.54786,37.81001],[-96.54833,37.81005],[-96.54834,37.81005],[-96.54857,37.81007],[-96.54879,37.81009],[-96.54921,37.81012],[-96.54968,37.81015],[-96.5497,37.81016],[-96.55012,37.81017],[-96.55039,37.81019],[-96.55072,37.8102],[-96.55141,37.81021],[-96.55211,37.81022],[-96.55238,37.81022],[-96.55261,37.81022],[-96.5529,37.81023],[-96.55306,37.81023],[-96.55352,37.81023],[-96.554,37.81024],[-96.55449,37.81024],[-96.55529,37.81024],[-96.55602,37.81024],[-96.55778,37.81026],[-96.55805,37.81026],[-96.55807,37.81026],[-96.5591,37.81027],[-96.56018,37.81027],[-96.56115,37.81028],[-96.56172,37.81028],[-96.56173,37.81028],[-96.56188,37.81028],[-96.56218,37.81028],[-96.56272,37.81028],[-96.56378,37.81028],[-96.56531,37.81026],[-96.56705,37.81025],[-96.56712,37.81025],[-96.5678,37.81024],[-96.56832,37.81024],[-96.56855,37.81024],[-96.56965,37.81023],[-96.57102,37.81022],[-96.5731,37.8102],[-96.57481,37.81018],[-96.57492,37.81018],[-96.57508,37.81018],[-96.57554,37.81018],[-96.57695,37.81018],[-96.578,37.81018],[-96.57914,37.81018],[-96.5797,37.81018],[-96.58032,37.81018],[-96.58071,37.81018],[-96.58107,37.81018],[-96.5814,37.81018],[-96.58146,37.81018],[-96.58219,37.81018],[-96.58221,37.81018],[-96.58243,37.81018],[-96.5831,37.81019],[-96.58374,37.81019],[-96.58423,37.81019],[-96.58559,37.81019],[-96.58562,37.81019],[-96.5899,37.81019],[-96.59011,37.81019],[-96.5929,37.81019],[-96.59307,37.81019],[-96.5942,37.81019],[-96.59472,37.81019],[-96.59489,37.81019],[-96.59518,37.81019],[-96.59535,37.81019],[-96.59626,37.81019],[-96.59738,37.81019],[-96.59772,37.81019],[-96.59838,37.8102],[-96.59938,37.81022],[-96.59962,37.81022],[-96.60007,37.81024],[-96.60044,37.81025],[-96.60076,37.81026],[-96.60098,37.81026],[-96.60282,37.81032],[-96.60531,37.81039],[-96.60553,37.8104],[-96.60576,37.81041],[-96.60587,37.81041],[-96.60667,37.81043],[-96.60804,37.81047],[-96.60812,37.81047],[-96.60915,37.81047],[-96.61051,37.81046],[-96.61284,37.81042],[-96.6142,37.8104],[-96.61464,37.81039],[-96.61486,37.81039],[-96.61509,37.81039],[-96.61612,37.81037],[-96.61714,37.81036],[-96.6176,37.81035],[-96.6191,37.81032],[-96.61983,37.81032],[-96.62006,37.81032],[-96.62006,37.81032],[-96.62005,37.81068],[-96.62005,37.81073],[-96.62006,37.81101],[-96.62006,37.81122],[-96.62006,37.8114],[-96.62007,37.81206],[-96.62007,37.81247],[-96.62007,37.81265],[-96.62007,37.81289],[-96.62007,37.81307],[-96.62007,37.81331],[-96.62006,37.81391],[-96.62006,37.8144],[-96.62006,37.81454],[-96.62006,37.81485],[-96.62006,37.81493],[-96.62009,37.81511],[-96.6201,37.81591],[-96.62009,37.81674],[-96.62009,37.81676],[-96.6201,37.8177],[-96.62011,37.81787],[-96.62011,37.81802],[-96.62014,37.81871],[-96.62014,37.81877],[-96.62014,37.81878],[-96.62015,37.81889],[-96.62018,37.81907],[-96.62018,37.8191],[-96.62018,37.81913],[-96.62018,37.81914],[-96.62019,37.81925],[-96.62028,37.8205],[-96.62032,37.82111],[-96.62035,37.82164],[-96.6204,37.82254],[-96.62045,37.82338],[-96.62045,37.82344],[-96.62045,37.82345],[-96.62046,37.82362],[-96.62053,37.825],[-96.62053,37.825],[-96.62054,37.82575],[-96.62054,37.82593],[-96.62054,37.82611],[-96.62054,37.82629],[-96.62054,37.82647],[-96.62054,37.82719],[-96.62055,37.82791],[-96.62055,37.82809],[-96.62055,37.82827],[-96.62055,37.82845],[-96.62055,37.82953],[-96.62056,37.82971],[-96.62056,37.83151],[-96.62057,37.83169],[-96.62057,37.83205],[-96.62057,37.83218],[-96.62058,37.83277],[-96.62058,37.83295],[-96.62058,37.83313],[-96.62058,37.83349],[-96.62059,37.83367],[-96.62059,37.83385],[-96.62059,37.83439],[-96.6206,37.83514],[-96.6206,37.83528],[-96.62061,37.83546],[-96.62061,37.83564],[-96.62061,37.83618],[-96.62061,37.83654],[-96.62061,37.83672],[-96.62062,37.83732],[-96.62061,37.83834],[-96.6206,37.83852],[-96.6206,37.83906],[-96.62059,37.83924],[-96.62059,37.83938],[-96.62059,37.83942],[-96.6206,37.8405],[-96.6206,37.84158],[-96.62059,37.84246],[-96.62059,37.84282],[-96.62058,37.84354],[-96.62057,37.8439],[-96.62057,37.84426],[-96.62057,37.84444],[-96.62057,37.84462],[-96.62056,37.8448],[-96.62054,37.84678],[-96.62054,37.84722],[-96.62054,37.8474],[-96.62054,37.8483],[-96.62054,37.84902],[-96.62054,37.84919],[-96.62054,37.85099],[-96.62054,37.85117],[-96.62054,37.85135],[-96.62054,37.85171],[-96.62054,37.85225],[-96.62054,37.85243],[-96.62054,37.85261],[-96.62054,37.85279],[-96.62054,37.85309],[-96.62054,37.85333],[-96.62052,37.85405],[-96.62051,37.85454],[-96.62051,37.85472],[-96.62051,37.85508],[-96.62051,37.85526],[-96.6205,37.8558],[-96.6205,37.85652],[-96.62049,37.8567],[-96.62049,37.85688],[-96.62049,37.85706],[-96.62049,37.85724],[-96.62049,37.85742],[-96.62049,37.8576],[-96.62048,37.8585],[-96.62048,37.85868],[-96.62048,37.85886],[-96.62047,37.85922],[-96.62047,37.8594],[-96.62047,37.85958],[-96.62046,37.86048],[-96.62046,37.86066],[-96.62046,37.86084],[-96.62046,37.86102],[-96.62045,37.86156],[-96.62045,37.86174],[-96.62044,37.86264],[-96.62044,37.863],[-96.62044,37.86348],[-96.62044,37.86366],[-96.62044,37.86384],[-96.62043,37.8642],[-96.62043,37.86582],[-96.62043,37.866],[-96.62043,37.86636],[-96.62042,37.86762],[-96.62042,37.8678],[-96.62042,37.86816],[-96.62042,37.86852],[-96.62042,37.86863],[-96.62041,37.86888],[-96.62039,37.87086],[-96.62038,37.87104],[-96.62038,37.87122],[-96.62037,37.87211],[-96.62037,37.87229],[-96.62036,37.87265],[-96.62036,37.87301],[-96.62034,37.87463],[-96.62033,37.87481],[-96.62033,37.87505],[-96.62033,37.87517],[-96.62033,37.87535],[-96.62032,37.87607],[-96.62032,37.87625],[-96.6203,37.87787],[-96.6203,37.87823],[-96.6203,37.87877],[-96.6203,37.87931],[-96.62031,37.88057],[-96.62031,37.88093],[-96.62032,37.88237],[-96.62032,37.88318],[-96.62032,37.88333],[-96.62032,37.88387],[-96.62032,37.88405],[-96.62032,37.88551],[-96.62031,37.88675],[-96.62031,37.88693],[-96.6203,37.88755],[-96.6203,37.8894],[-96.6203,37.88941],[-96.6203,37.88981],[-96.6203,37.89017],[-96.6203,37.89175],[-96.6203,37.89178],[-96.6203,37.89196],[-96.6203,37.89232],[-96.6203,37.89313],[-96.6203,37.89316],[-96.62028,37.89412],[-96.62028,37.8943],[-96.62027,37.8947],[-96.62027,37.89538],[-96.62027,37.897],[-96.62027,37.89772],[-96.62027,37.89781],[-96.62029,37.89966],[-96.62029,37.89984],[-96.62032,37.90254],[-96.62032,37.90272],[-96.62033,37.9038],[-96.62034,37.90398],[-96.62036,37.90614],[-96.62037,37.90758],[-96.62038,37.90776],[-96.62038,37.90812],[-96.62038,37.9083],[-96.62038,37.90848],[-96.62039,37.90884],[-96.62039,37.90938],[-96.62039,37.90956],[-96.6204,37.91028],[-96.6204,37.91046],[-96.62041,37.91082],[-96.62042,37.91225],[-96.62043,37.91297],[-96.62044,37.91333],[-96.62044,37.91351],[-96.62044,37.91387],[-96.62044,37.91405],[-96.62045,37.91441],[-96.62045,37.91466],[-96.62046,37.91531],[-96.62046,37.91549],[-96.62047,37.91585],[-96.62049,37.91747],[-96.62049,37.91765],[-96.62051,37.91927],[-96.62051,37.91945],[-96.62051,37.91963],[-96.62052,37.91981],[-96.62053,37.92107],[-96.62053,37.92125],[-96.62054,37.92143],[-96.62055,37.92269],[-96.62055,37.92287],[-96.62057,37.92412],[-96.62057,37.92448],[-96.62058,37.92502],[-96.62059,37.92564],[-96.62059,37.926],[-96.62059,37.92618],[-96.6206,37.92726],[-96.6206,37.92762],[-96.6206,37.9278],[-96.62061,37.92906],[-96.62062,37.93013],[-96.62063,37.93031],[-96.62065,37.93283],[-96.62066,37.93391],[-96.62067,37.93481],[-96.62068,37.93589],[-96.62068,37.93607],[-96.62068,37.93625],[-96.62071,37.93913],[-96.62071,37.93931],[-96.62072,37.94057],[-96.62073,37.94075],[-96.62073,37.94093],[-96.62074,37.94183],[-96.62074,37.94236],[-96.62077,37.94291],[-96.62077,37.94438],[-96.62077,37.94456],[-96.62077,37.9478],[-96.62077,37.95031],[-96.62077,37.95103],[-96.62076,37.95355],[-96.62076,37.95373],[-96.62076,37.95571],[-96.62077,37.95684],[-96.62077,37.9572],[-96.62077,37.9581],[-96.62077,37.95828],[-96.62077,37.95864],[-96.62079,37.96119],[-96.62079,37.96137],[-96.6208,37.96196],[-96.62079,37.96263],[-96.62079,37.96281],[-96.62079,37.96317],[-96.62078,37.96389],[-96.62077,37.96425],[-96.62077,37.96443],[-96.62076,37.96551],[-96.62076,37.96569],[-96.62076,37.96587],[-96.62075,37.96659],[-96.62075,37.96695],[-96.62075,37.96713],[-96.62074,37.96785],[-96.62073,37.96814],[-96.62073,37.96821],[-96.62071,37.96982],[-96.62071,37.96982],[-96.62082,37.97007],[-96.62086,37.9701],[-96.62089,37.97013],[-96.6209,37.97015],[-96.62094,37.97018],[-96.62099,37.9702],[-96.62121,37.97029],[-96.62166,37.9703],[-96.62189,37.9703],[-96.62235,37.97031],[-96.62257,37.97031],[-96.62349,37.97032],[-96.6244,37.97034],[-96.62463,37.97034],[-96.62514,37.97035],[-96.62577,37.97035],[-96.626,37.97035],[-96.62691,37.97034],[-96.62737,37.97034],[-96.62942,37.97034],[-96.6301,37.97034],[-96.63056,37.97034],[-96.63147,37.97034],[-96.6317,37.97033],[-96.63193,37.97033],[-96.63284,37.97033],[-96.63307,37.97033],[-96.6333,37.97033],[-96.63375,37.97033],[-96.63398,37.97033],[-96.63421,37.97033],[-96.63448,37.97033],[-96.63467,37.97033],[-96.63489,37.97033],[-96.63512,37.97033],[-96.63535,37.97033],[-96.63558,37.97033],[-96.63604,37.97033],[-96.63626,37.97033],[-96.63649,37.97032],[-96.63695,37.97032],[-96.6374,37.97032],[-96.63763,37.97032],[-96.63856,37.97032],[-96.63856,37.97032],[-96.63877,37.97037],[-96.63883,37.97039],[-96.6389,37.97042],[-96.63896,37.97046],[-96.63901,37.9705],[-96.63905,37.97054],[-96.63912,37.97068],[-96.63913,37.97122],[-96.63913,37.9714],[-96.63913,37.9715],[-96.63913,37.97176],[-96.63912,37.97211],[-96.63911,37.97391],[-96.6391,37.97661],[-96.63909,37.97715],[-96.63909,37.9778],[-96.63909,37.97816],[-96.63909,37.97834],[-96.63908,37.98013],[-96.63908,37.98085],[-96.63908,37.98157],[-96.63908,37.98175],[-96.63908,37.98301],[-96.63908,37.98485],[-96.63908,37.986],[-96.63908,37.98618],[-96.63908,37.98762],[-96.63908,37.9878],[-96.63908,37.98888],[-96.63908,37.98906],[-96.63908,37.98924],[-96.63908,37.98942],[-96.63908,37.99013],[-96.63908,37.99031],[-96.63908,37.99067],[-96.63908,37.99103],[-96.63908,37.99121],[-96.63908,37.99139],[-96.63908,37.99157],[-96.63908,37.99175],[-96.63908,37.99211],[-96.63908,37.99229],[-96.63908,37.99247],[-96.63909,37.99337],[-96.63908,37.99417],[-96.63908,37.99435],[-96.63908,37.99453],[-96.63908,37.99471],[-96.63908,37.99489],[-96.63908,37.99561],[-96.63908,37.99579],[-96.63908,37.99597],[-96.63908,37.99614],[-96.63908,37.99632],[-96.63907,37.9965],[-96.63907,37.99668],[-96.63907,37.99704],[-96.63907,37.99722],[-96.63907,37.9974],[-96.63907,37.99758],[-96.63907,37.99776],[-96.63907,37.99812],[-96.63907,37.9983],[-96.63907,37.99842],[-96.63907,37.99848],[-96.63906,37.99884],[-96.63906,37.99902],[-96.63906,37.9992],[-96.63906,37.99923],[-96.63906,37.99992],[-96.63906,38.0001],[-96.63906,38.00028],[-96.63907,38.00064],[-96.63907,38.00082],[-96.63907,38.00136],[-96.63907,38.00154],[-96.63907,38.00172],[-96.63907,38.0019],[-96.63908,38.0028],[-96.63908,38.00316],[-96.63908,38.00334],[-96.63909,38.00352],[-96.63909,38.0037],[-96.63909,38.0046],[-96.63909,38.00496],[-96.6391,38.00622],[-96.63911,38.00658],[-96.63911,38.00676],[-96.63911,38.00694],[-96.63912,38.0091],[-96.63912,38.00927],[-96.63913,38.00999],[-96.63913,38.01071],[-96.63914,38.01215],[-96.63912,38.0137],[-96.63913,38.01399],[-96.63914,38.01577],[-96.63915,38.01847],[-96.63915,38.01861],[-96.63916,38.02027],[-96.63916,38.02041],[-96.63917,38.02225],[-96.63917,38.02238],[-96.63917,38.02243],[-96.63917,38.02364],[-96.63917,38.02431],[-96.63917,38.02449],[-96.63917,38.02593],[-96.63919,38.02719],[-96.63919,38.02737],[-96.6392,38.02827],[-96.63921,38.02917],[-96.63922,38.02971],[-96.63922,38.02989],[-96.63924,38.03169],[-96.63924,38.03187],[-96.63924,38.0322],[-96.63925,38.03325],[-96.63925,38.03325],[-96.63925,38.03374],[-96.63924,38.03424],[-96.63924,38.0348],[-96.63924,38.03504],[-96.63924,38.03522],[-96.63925,38.03683],[-96.63927,38.03758],[-96.63929,38.03816],[-96.63927,38.0388],[-96.63927,38.03956],[-96.63926,38.04029],[-96.63926,38.04057],[-96.63926,38.04138],[-96.63926,38.0418],[-96.63928,38.04287],[-96.63928,38.04287],[-96.6393,38.04416],[-96.6393,38.04484],[-96.6393,38.04484],[-96.63968,38.04484],[-96.63968,38.04484],[-96.6397,38.04533],[-96.6399,38.04533]]}},{"type":"Feature","properties":{"_gpxType":"trk","name":"200 W River St, Eureka, KS 67045 - Cassoday Country Store, Kansas 177, Cassoday, KS - 118 N Walnut St - 303 West Broadway Street, Newton, KS","coordinateProperties":{},"id":47},"geometry":{"type":"LineString","coordinates":[[-96.6399,38.04533],[-96.6397,38.04533],[-96.63968,38.04484],[-96.63968,38.04484],[-96.6393,38.04484],[-96.6393,38.04484],[-96.6393,38.04416],[-96.63928,38.04287],[-96.63928,38.04287],[-96.63988,38.04286],[-96.64057,38.04285],[-96.6414,38.04285],[-96.64245,38.04284],[-96.64313,38.04283],[-96.64386,38.04283],[-96.64431,38.04282],[-96.64454,38.04282],[-96.64492,38.04282],[-96.6451,38.04282],[-96.64515,38.04282],[-96.64516,38.04282],[-96.64524,38.04282],[-96.64533,38.04282],[-96.64535,38.04282],[-96.64537,38.04282],[-96.64556,38.04282],[-96.64556,38.04282],[-96.64784,38.04282],[-96.64807,38.04282],[-96.64873,38.04282],[-96.64905,38.04282],[-96.65055,38.04282],[-96.65078,38.04281],[-96.65101,38.04281],[-96.65192,38.04281],[-96.65238,38.04281],[-96.65306,38.04281],[-96.65329,38.04281],[-96.65352,38.04281],[-96.65398,38.04281],[-96.65444,38.04281],[-96.65466,38.04281],[-96.65512,38.04281],[-96.65535,38.04281],[-96.65581,38.04281],[-96.65649,38.04281],[-96.65722,38.04282],[-96.65768,38.04283],[-96.65836,38.04283],[-96.65951,38.04282],[-96.66225,38.04282],[-96.66298,38.04283],[-96.66415,38.04282],[-96.66528,38.04282],[-96.66688,38.04282],[-96.66779,38.04282],[-96.66802,38.04282],[-96.66962,38.04282],[-96.67179,38.04282],[-96.67367,38.04282],[-96.6739,38.04282],[-96.67413,38.04282],[-96.67618,38.04282],[-96.67671,38.04282],[-96.67786,38.04283],[-96.67945,38.04285],[-96.68063,38.04286],[-96.68142,38.04286],[-96.68325,38.04286],[-96.6837,38.04286],[-96.68393,38.04286],[-96.68462,38.04286],[-96.68484,38.04286],[-96.68553,38.04286],[-96.68621,38.04287],[-96.6869,38.04286],[-96.68713,38.04286],[-96.68781,38.04286],[-96.68804,38.04286],[-96.6885,38.04286],[-96.68987,38.04286],[-96.6905,38.04286],[-96.69055,38.04286],[-96.69078,38.04286],[-96.69101,38.04286],[-96.69147,38.04286],[-96.69352,38.04286],[-96.69375,38.04286],[-96.69556,38.04286],[-96.69603,38.04287],[-96.69626,38.04287],[-96.69695,38.04287],[-96.69809,38.04287],[-96.69832,38.04287],[-96.69855,38.04287],[-96.69923,38.04287],[-96.69946,38.04287],[-96.69969,38.04287],[-96.7006,38.04287],[-96.70174,38.04287],[-96.7022,38.04288],[-96.70334,38.04288],[-96.7038,38.04288],[-96.70608,38.04288],[-96.707,38.04288],[-96.70835,38.04289],[-96.70927,38.04288],[-96.7095,38.04288],[-96.71064,38.04287],[-96.71087,38.04287],[-96.71239,38.04286],[-96.71428,38.04286],[-96.71451,38.04286],[-96.71473,38.04286],[-96.71496,38.04286],[-96.71519,38.04286],[-96.7177,38.04285],[-96.71793,38.04285],[-96.71976,38.04285],[-96.72067,38.04285],[-96.7209,38.04285],[-96.72273,38.04286],[-96.72296,38.04286],[-96.72318,38.04286],[-96.72364,38.04286],[-96.72387,38.04286],[-96.7241,38.04286],[-96.72433,38.04286],[-96.72456,38.04286],[-96.72478,38.04286],[-96.72524,38.04286],[-96.72547,38.04285],[-96.72593,38.04285],[-96.72638,38.04285],[-96.72661,38.04285],[-96.72684,38.04285],[-96.72775,38.04284],[-96.72889,38.04284],[-96.72912,38.04284],[-96.72935,38.04284],[-96.72981,38.04283],[-96.73004,38.04283],[-96.73012,38.04283],[-96.73026,38.04283],[-96.73072,38.04283],[-96.73095,38.04283],[-96.73141,38.04283],[-96.73232,38.04283],[-96.73346,38.04282],[-96.73438,38.04282],[-96.73483,38.04282],[-96.73506,38.04282],[-96.73575,38.04282],[-96.73576,38.04282],[-96.73597,38.04282],[-96.73689,38.04281],[-96.73757,38.04281],[-96.73803,38.0428],[-96.73826,38.0428],[-96.73839,38.0428],[-96.73849,38.0428],[-96.7392,38.04279],[-96.7394,38.04279],[-96.73963,38.04279],[-96.73988,38.04279],[-96.74031,38.04279],[-96.7408,38.04278],[-96.741,38.04278],[-96.74103,38.04278],[-96.74123,38.04278],[-96.74262,38.04277],[-96.74283,38.04277],[-96.74285,38.04277],[-96.74308,38.04277],[-96.74328,38.04277],[-96.74331,38.04277],[-96.74351,38.04276],[-96.74354,38.04276],[-96.74445,38.04276],[-96.74536,38.04275],[-96.74557,38.04275],[-96.74559,38.04275],[-96.74579,38.04275],[-96.74762,38.04274],[-96.74765,38.04274],[-96.74918,38.04273],[-96.74968,38.04272],[-96.7497,38.04271],[-96.7499,38.04271],[-96.75016,38.04271],[-96.75036,38.0427],[-96.75039,38.0427],[-96.75057,38.0427],[-96.75059,38.0427],[-96.75107,38.04269],[-96.75127,38.04269],[-96.7513,38.04269],[-96.7515,38.04269],[-96.75264,38.04267],[-96.75267,38.04267],[-96.7529,38.04267],[-96.7531,38.04267],[-96.75313,38.04267],[-96.75336,38.04267],[-96.7545,38.04265],[-96.7547,38.04265],[-96.75473,38.04265],[-96.7549,38.04265],[-96.75541,38.04264],[-96.75564,38.04264],[-96.75584,38.04264],[-96.75587,38.04264],[-96.75698,38.04262],[-96.75701,38.04262],[-96.75813,38.04261],[-96.75815,38.04261],[-96.75835,38.04261],[-96.7595,38.04259],[-96.75952,38.04259],[-96.75998,38.04259],[-96.76021,38.04258],[-96.76066,38.04258],[-96.76087,38.04257],[-96.76089,38.04257],[-96.76132,38.04257],[-96.76135,38.04257],[-96.76155,38.04257],[-96.76226,38.04256],[-96.76272,38.04255],[-96.76292,38.04255],[-96.76295,38.04255],[-96.7637,38.04254],[-96.76386,38.04254],[-96.76406,38.04254],[-96.76409,38.04254],[-96.76498,38.04253],[-96.76543,38.04253],[-96.76546,38.04253],[-96.76569,38.04253],[-96.76657,38.04252],[-96.7668,38.04252],[-96.76683,38.04252],[-96.76703,38.04252],[-96.76706,38.04252],[-96.76909,38.04251],[-96.76911,38.04251],[-96.76954,38.04251],[-96.77003,38.0425],[-96.77069,38.0425],[-96.77071,38.0425],[-96.77091,38.0425],[-96.77114,38.0425],[-96.77186,38.04249],[-96.77226,38.04249],[-96.77379,38.04249],[-96.77564,38.04249],[-96.77678,38.04248],[-96.77701,38.04248],[-96.778,38.04248],[-96.77944,38.04248],[-96.77966,38.04248],[-96.77989,38.04248],[-96.78081,38.04248],[-96.78103,38.04247],[-96.78149,38.04247],[-96.78195,38.04247],[-96.78218,38.04247],[-96.78377,38.04247],[-96.784,38.04247],[-96.78469,38.04247],[-96.78492,38.04247],[-96.78583,38.04247],[-96.78651,38.04246],[-96.78674,38.04246],[-96.78789,38.04246],[-96.78811,38.04246],[-96.78834,38.04246],[-96.78857,38.04246],[-96.7888,38.04246],[-96.78948,38.04246],[-96.79108,38.04246],[-96.79131,38.04246],[-96.79177,38.04245],[-96.79268,38.04245],[-96.79291,38.04245],[-96.79314,38.04245],[-96.79337,38.04245],[-96.79359,38.04245],[-96.79474,38.04245],[-96.79496,38.04245],[-96.79542,38.04245],[-96.79565,38.04245],[-96.79634,38.04245],[-96.79839,38.04244],[-96.80091,38.04244],[-96.80244,38.04243],[-96.80267,38.04243],[-96.80404,38.04243],[-96.80609,38.04242],[-96.80675,38.04242],[-96.80724,38.04242],[-96.80746,38.04242],[-96.80769,38.04242],[-96.81021,38.04242],[-96.81061,38.04242],[-96.81089,38.04242],[-96.81317,38.04242],[-96.8134,38.04242],[-96.81432,38.04241],[-96.81477,38.04241],[-96.81637,38.04241],[-96.8166,38.04241],[-96.81751,38.0424],[-96.81849,38.0424],[-96.81917,38.0424],[-96.81963,38.0424],[-96.81986,38.0424],[-96.82146,38.0424],[-96.8226,38.0424],[-96.82306,38.0424],[-96.82351,38.0424],[-96.82397,38.0424],[-96.8242,38.0424],[-96.82443,38.04239],[-96.82466,38.04239],[-96.82488,38.04239],[-96.8258,38.04239],[-96.82762,38.04239],[-96.829,38.04239],[-96.82945,38.04239],[-96.83084,38.04238],[-96.83105,38.04238],[-96.83242,38.04238],[-96.83265,38.04238],[-96.83288,38.04238],[-96.83425,38.04238],[-96.83751,38.04237],[-96.83819,38.04237],[-96.84002,38.04237],[-96.84071,38.04236],[-96.84093,38.04236],[-96.84116,38.04236],[-96.84202,38.04236],[-96.84294,38.04236],[-96.84317,38.04236],[-96.8434,38.04236],[-96.84431,38.04235],[-96.84454,38.04235],[-96.84477,38.04235],[-96.84523,38.04235],[-96.84568,38.04235],[-96.84591,38.04235],[-96.84842,38.04234],[-96.84865,38.04234],[-96.85002,38.04234],[-96.85368,38.04232],[-96.8537,38.04232],[-96.85391,38.04232],[-96.85459,38.04232],[-96.85573,38.04231],[-96.85644,38.04231],[-96.85665,38.0423],[-96.85756,38.0423],[-96.85781,38.0423],[-96.85802,38.0423],[-96.85881,38.04229],[-96.85994,38.04228],[-96.86029,38.04228],[-96.86048,38.04228],[-96.86208,38.04225],[-96.86303,38.04223],[-96.86322,38.04223],[-96.86417,38.04221],[-96.86436,38.04221],[-96.8644,38.04221],[-96.86531,38.04219],[-96.8655,38.04219],[-96.86554,38.04219],[-96.86573,38.04219],[-96.86733,38.04216],[-96.86756,38.04215],[-96.86778,38.04215],[-96.86805,38.04215],[-96.86828,38.04214],[-96.86911,38.04213],[-96.86984,38.04212],[-96.87072,38.0421],[-96.87254,38.04206],[-96.87323,38.04205],[-96.87346,38.04205],[-96.87507,38.04202],[-96.87551,38.04201],[-96.87757,38.04199],[-96.87851,38.04198],[-96.87894,38.04198],[-96.87999,38.04198],[-96.88186,38.04198],[-96.88227,38.04198],[-96.88273,38.04198],[-96.8841,38.04198],[-96.88478,38.04198],[-96.88479,38.04198],[-96.88668,38.04198],[-96.88684,38.04198],[-96.88707,38.04198],[-96.88867,38.04199],[-96.88935,38.04199],[-96.88947,38.04199],[-96.89114,38.042],[-96.89141,38.042],[-96.89209,38.042],[-96.89232,38.042],[-96.89253,38.042],[-96.89255,38.042],[-96.893,38.042],[-96.89346,38.04201],[-96.89369,38.04201],[-96.89436,38.04201],[-96.89554,38.04203],[-96.8959,38.04203],[-96.89677,38.04204],[-96.8976,38.04205],[-96.89806,38.04205],[-96.89842,38.04205],[-96.89874,38.04206],[-96.90023,38.04207],[-96.90217,38.04208],[-96.9024,38.04208],[-96.90329,38.04208],[-96.90422,38.04209],[-96.90467,38.0421],[-96.90663,38.04212],[-96.9081,38.04213],[-96.90833,38.04213],[-96.90858,38.04213],[-96.91079,38.04215],[-96.91153,38.04216],[-96.9129,38.04216],[-96.91313,38.04216],[-96.91385,38.04217],[-96.9169,38.04218],[-96.92091,38.0422],[-96.92241,38.04221],[-96.92585,38.04222],[-96.92675,38.04223],[-96.92957,38.04225],[-96.9304,38.04226],[-96.93109,38.04226],[-96.93223,38.04227],[-96.93264,38.04228],[-96.93314,38.04229],[-96.93337,38.0423],[-96.93498,38.04233],[-96.93565,38.04235],[-96.93581,38.04235],[-96.93656,38.04237],[-96.93702,38.04238],[-96.93707,38.04238],[-96.93861,38.04241],[-96.93928,38.04243],[-96.93953,38.04243],[-96.93975,38.04244],[-96.9409,38.04246],[-96.94094,38.04246],[-96.94193,38.04247],[-96.94341,38.04248],[-96.94364,38.04248],[-96.94546,38.04248],[-96.94661,38.04249],[-96.94706,38.04249],[-96.9479,38.04249],[-96.94942,38.0425],[-96.9498,38.0425],[-96.95035,38.0425],[-96.95208,38.04253],[-96.95231,38.04253],[-96.95268,38.04254],[-96.95322,38.04254],[-96.9547,38.04257],[-96.95596,38.04259],[-96.95619,38.04259],[-96.95724,38.04261],[-96.9603,38.04265],[-96.96281,38.04269],[-96.96372,38.04271],[-96.96395,38.04271],[-96.96441,38.04272],[-96.96739,38.04276],[-96.96775,38.04277],[-96.96871,38.04278],[-96.96998,38.04279],[-96.9703,38.04279],[-96.97053,38.0428],[-96.97095,38.0428],[-96.97151,38.04281],[-96.97327,38.04282],[-96.9735,38.04282],[-96.97464,38.04282],[-96.97468,38.04282],[-96.97487,38.04283],[-96.97579,38.04283],[-96.97601,38.04283],[-96.97753,38.04285],[-96.9783,38.04285],[-96.97875,38.04285],[-96.98127,38.04286],[-96.98218,38.04286],[-96.98341,38.04286],[-96.98424,38.04286],[-96.98446,38.04286],[-96.98469,38.04286],[-96.98619,38.04287],[-96.98708,38.04287],[-96.98767,38.04285],[-96.98837,38.04283],[-96.98936,38.0428],[-96.99068,38.04276],[-96.99177,38.04273],[-96.99266,38.0427],[-96.99269,38.0427],[-96.99337,38.04268],[-96.99349,38.04268],[-96.9936,38.04267],[-96.99383,38.04267],[-96.99428,38.04265],[-96.99458,38.04265],[-96.99543,38.04262],[-96.99544,38.04262],[-96.99565,38.04262],[-96.99588,38.04261],[-96.99626,38.04261],[-96.9968,38.0426],[-96.99702,38.0426],[-96.99725,38.0426],[-96.99775,38.04259],[-96.99836,38.04258],[-96.99867,38.04258],[-96.99884,38.04258],[-96.99912,38.04258],[-96.99935,38.04258],[-96.99958,38.04258],[-97.00016,38.04257],[-97.00082,38.04257],[-97.00212,38.04256],[-97.00232,38.04256],[-97.00392,38.04255],[-97.00415,38.04255],[-97.00438,38.04255],[-97.00446,38.04255],[-97.00495,38.04254],[-97.00557,38.04254],[-97.00604,38.04255],[-97.00623,38.04255],[-97.00691,38.04257],[-97.00724,38.04257],[-97.00747,38.04258],[-97.00769,38.04258],[-97.00906,38.04261],[-97.00993,38.04263],[-97.01098,38.04265],[-97.01135,38.04266],[-97.01157,38.04267],[-97.0118,38.04267],[-97.01203,38.04267],[-97.01294,38.04269],[-97.01363,38.04271],[-97.01469,38.04273],[-97.01549,38.04275],[-97.01566,38.04275],[-97.0181,38.0428],[-97.01875,38.04282],[-97.01943,38.04283],[-97.02103,38.04287],[-97.02217,38.04289],[-97.02372,38.04292],[-97.02544,38.04293],[-97.02795,38.04293],[-97.02818,38.04293],[-97.03046,38.04293],[-97.03069,38.04293],[-97.03079,38.04293],[-97.03092,38.04293],[-97.03229,38.04293],[-97.0332,38.04293],[-97.03366,38.04293],[-97.0348,38.04293],[-97.03503,38.04293],[-97.03548,38.04293],[-97.03593,38.04293],[-97.03594,38.04293],[-97.03663,38.04294],[-97.03685,38.04294],[-97.03777,38.04294],[-97.03896,38.04294],[-97.04028,38.04295],[-97.04051,38.04295],[-97.04225,38.04296],[-97.04297,38.04297],[-97.04411,38.04298],[-97.04502,38.04299],[-97.04662,38.043],[-97.0473,38.04301],[-97.04753,38.04301],[-97.04844,38.04302],[-97.04984,38.04304],[-97.05011,38.04304],[-97.05142,38.04305],[-97.05183,38.04306],[-97.05302,38.04307],[-97.0535,38.04308],[-97.05483,38.04309],[-97.05616,38.0431],[-97.05777,38.04312],[-97.05927,38.04313],[-97.0607,38.04314],[-97.06162,38.04315],[-97.06267,38.04315],[-97.06381,38.04315],[-97.06473,38.04316],[-97.06636,38.04316],[-97.06714,38.04317],[-97.06724,38.04317],[-97.06747,38.04317],[-97.06838,38.04318],[-97.06841,38.04318],[-97.06861,38.04318],[-97.06884,38.04318],[-97.06976,38.04319],[-97.0705,38.0432],[-97.07067,38.0432],[-97.07089,38.0432],[-97.0715,38.04321],[-97.07206,38.04322],[-97.07286,38.04323],[-97.07341,38.04324],[-97.0735,38.04324],[-97.07469,38.04326],[-97.07555,38.04328],[-97.07654,38.0433],[-97.07715,38.04331],[-97.07738,38.04331],[-97.07767,38.04332],[-97.07898,38.04334],[-97.08033,38.04335],[-97.08056,38.04335],[-97.08262,38.04338],[-97.08285,38.04338],[-97.0849,38.0434],[-97.08504,38.0434],[-97.08513,38.0434],[-97.08741,38.04342],[-97.08769,38.04343],[-97.08826,38.04344],[-97.08894,38.04344],[-97.08901,38.04344],[-97.08961,38.04345],[-97.09021,38.04346],[-97.09084,38.04346],[-97.09107,38.04346],[-97.09131,38.04346],[-97.09279,38.04348],[-97.09358,38.04348],[-97.09404,38.04349],[-97.09751,38.04352],[-97.09899,38.04353],[-97.10021,38.04354],[-97.10295,38.04356],[-97.10455,38.04358],[-97.10478,38.04358],[-97.10615,38.04359],[-97.10638,38.04359],[-97.10843,38.04361],[-97.10874,38.04362],[-97.10919,38.04362],[-97.10941,38.04362],[-97.11147,38.04364],[-97.11238,38.04365],[-97.11375,38.04367],[-97.11604,38.04369],[-97.11718,38.0437],[-97.11741,38.0437],[-97.11809,38.04371],[-97.11901,38.04372],[-97.11946,38.04372],[-97.11969,38.04372],[-97.12015,38.04373],[-97.12197,38.04374],[-97.1222,38.04374],[-97.12243,38.04375],[-97.12312,38.04375],[-97.12384,38.04376],[-97.12453,38.04376],[-97.1253,38.04377],[-97.12585,38.04377],[-97.12768,38.04379],[-97.12813,38.04379],[-97.12928,38.0438],[-97.13087,38.04382],[-97.13434,38.04385],[-97.13731,38.04388],[-97.13754,38.04388],[-97.138,38.04388],[-97.13914,38.04389],[-97.13937,38.0439],[-97.14005,38.0439],[-97.14211,38.04392],[-97.1453,38.04395],[-97.14865,38.04399],[-97.15007,38.044],[-97.15025,38.044],[-97.1519,38.04402],[-97.15232,38.04402],[-97.15277,38.04403],[-97.15277,38.04403],[-97.15333,38.04399],[-97.15368,38.044],[-97.15391,38.04399],[-97.15459,38.04397],[-97.15482,38.04397],[-97.15528,38.04395],[-97.15551,38.04394],[-97.15574,38.04394],[-97.15596,38.04393],[-97.158,38.04387],[-97.15991,38.04381],[-97.16007,38.04381],[-97.1603,38.0438],[-97.16053,38.04379],[-97.16167,38.04376],[-97.1617,38.04376],[-97.1619,38.04375],[-97.16213,38.04374],[-97.16235,38.04374],[-97.16418,38.04368],[-97.16441,38.04367],[-97.16646,38.04361],[-97.16669,38.0436],[-97.16692,38.0436],[-97.16775,38.04357],[-97.16894,38.04354],[-97.16935,38.04353],[-97.17003,38.0435],[-97.17026,38.0435],[-97.17049,38.04349],[-97.17095,38.04348],[-97.17186,38.04345],[-97.17383,38.04344],[-97.17621,38.04345],[-97.17644,38.04345],[-97.17987,38.04345],[-97.18238,38.04346],[-97.18466,38.04346],[-97.18489,38.04346],[-97.18581,38.04346],[-97.18603,38.04346],[-97.18649,38.04346],[-97.18672,38.04346],[-97.18832,38.04347],[-97.189,38.04347],[-97.18923,38.04347],[-97.1902,38.04347],[-97.19179,38.04345],[-97.19202,38.04345],[-97.19263,38.04345],[-97.19294,38.04344],[-97.19362,38.04343],[-97.19385,38.04343],[-97.19499,38.04342],[-97.19618,38.0434],[-97.19732,38.04339],[-97.19834,38.04338],[-97.19869,38.04338],[-97.20075,38.04336],[-97.20394,38.04332],[-97.20417,38.04332],[-97.20783,38.04328],[-97.20865,38.04327],[-97.21025,38.04327],[-97.2123,38.04327],[-97.21276,38.04327],[-97.21343,38.04327],[-97.2143,38.04327],[-97.21453,38.04327],[-97.21567,38.04327],[-97.21685,38.04328],[-97.21735,38.04328],[-97.21791,38.04329],[-97.2182,38.04329],[-97.21862,38.0433],[-97.21964,38.04334],[-97.21967,38.04334],[-97.22063,38.04337],[-97.22129,38.04339],[-97.22152,38.04339],[-97.22266,38.04342],[-97.22343,38.04345],[-97.22389,38.04346],[-97.22412,38.04347],[-97.22435,38.04348],[-97.22607,38.04353],[-97.2264,38.04354],[-97.22663,38.04355],[-97.22692,38.04355],[-97.22719,38.04355],[-97.22774,38.04355],[-97.22777,38.04355],[-97.2283,38.04355],[-97.22956,38.04354],[-97.22979,38.04354],[-97.23002,38.04353],[-97.23162,38.04352],[-97.23415,38.0435],[-97.23608,38.04349],[-97.23631,38.04349],[-97.23699,38.04349],[-97.23745,38.04349],[-97.23813,38.04348],[-97.23836,38.04348],[-97.23859,38.04348],[-97.2395,38.04348],[-97.24057,38.04349],[-97.24264,38.04348],[-97.24286,38.04348],[-97.24393,38.04347],[-97.24462,38.04347],[-97.24531,38.04347],[-97.2469,38.04344],[-97.24897,38.04341],[-97.25216,38.04336],[-97.25261,38.04336],[-97.25513,38.04332],[-97.25535,38.04331],[-97.25581,38.04331],[-97.25604,38.0433],[-97.25627,38.0433],[-97.25741,38.04328],[-97.25764,38.04328],[-97.25787,38.04327],[-97.25868,38.04326],[-97.25992,38.04324],[-97.26243,38.04319],[-97.26266,38.04319],[-97.2638,38.04317],[-97.26515,38.04315],[-97.26633,38.04312],[-97.26656,38.04312],[-97.27067,38.04303],[-97.27775,38.04287],[-97.2782,38.04286],[-97.27843,38.04286],[-97.28161,38.04279],[-97.2855,38.04279],[-97.28694,38.04278],[-97.28981,38.04278],[-97.29079,38.04278],[-97.29239,38.04277],[-97.29421,38.04277],[-97.29444,38.04277],[-97.29627,38.04276],[-97.29832,38.04276],[-97.29855,38.04276],[-97.30004,38.04276],[-97.30426,38.04275],[-97.30517,38.04274],[-97.30529,38.04274],[-97.30783,38.04274],[-97.30853,38.04274],[-97.30928,38.04274],[-97.30942,38.04274],[-97.31049,38.04274],[-97.31079,38.04274],[-97.31102,38.04275],[-97.3117,38.04275],[-97.31216,38.04276],[-97.31261,38.04276],[-97.31376,38.04277],[-97.31616,38.04279],[-97.31654,38.04279],[-97.31685,38.0428],[-97.31706,38.0428],[-97.31739,38.04281],[-97.31824,38.04282],[-97.31865,38.04282],[-97.31883,38.04281],[-97.31921,38.04279],[-97.31987,38.04272],[-97.32021,38.04268],[-97.32035,38.04267],[-97.32039,38.04266],[-97.32055,38.04265],[-97.32078,38.04261],[-97.32096,38.04259],[-97.32108,38.04257],[-97.3211,38.04257],[-97.32126,38.04255],[-97.32137,38.04255],[-97.32151,38.04254],[-97.32157,38.04253],[-97.32167,38.04253],[-97.32184,38.04253],[-97.32193,38.04256],[-97.32197,38.04257],[-97.32209,38.04259],[-97.32209,38.04259],[-97.32211,38.04261],[-97.32213,38.04263],[-97.32216,38.04265],[-97.3222,38.04267],[-97.32231,38.0427],[-97.32235,38.04271],[-97.3224,38.04272],[-97.32248,38.04272],[-97.32254,38.04272],[-97.3226,38.04272],[-97.32264,38.04271],[-97.32268,38.04269],[-97.32278,38.04266],[-97.32282,38.04264],[-97.32284,38.04262],[-97.32286,38.04261],[-97.32288,38.04259],[-97.32308,38.04256],[-97.32313,38.04255],[-97.3232,38.04252],[-97.32363,38.04254],[-97.32387,38.04256],[-97.32412,38.04258],[-97.32433,38.04261],[-97.32465,38.04265],[-97.32518,38.04272],[-97.32547,38.04275],[-97.32574,38.04277],[-97.32575,38.04277],[-97.32592,38.04278],[-97.32633,38.04278],[-97.3265,38.04278],[-97.32691,38.04278],[-97.32716,38.04278],[-97.32753,38.04278],[-97.32805,38.04278],[-97.3286,38.04278],[-97.32921,38.04278],[-97.32944,38.04279],[-97.32972,38.04279],[-97.33034,38.04279],[-97.33134,38.0428],[-97.33209,38.0428],[-97.33358,38.0428],[-97.33405,38.04279],[-97.33428,38.04279],[-97.33451,38.04279],[-97.33519,38.04279],[-97.33529,38.04279],[-97.33556,38.04279],[-97.33615,38.0428],[-97.33638,38.04281],[-97.33666,38.04281],[-97.33893,38.04281],[-97.33893,38.04281],[-97.33894,38.04339],[-97.33894,38.04341]]}},{"type":"Feature","properties":{"_gpxType":"trk","name":"200 W River St, Eureka, KS 67045 - Cassoday Country Store, Kansas 177, Cassoday, KS - 118 N Walnut St - 303 West Broadway Street, Newton, KS","coordinateProperties":{},"id":47},"geometry":{"type":"LineString","coordinates":[[-97.33894,38.04341],[-97.33894,38.04397],[-97.33894,38.04456],[-97.33894,38.04514],[-97.33895,38.04575],[-97.33896,38.04632],[-97.33896,38.04697],[-97.33897,38.04751],[-97.33898,38.0487],[-97.33897,38.04928],[-97.33897,38.04961],[-97.33897,38.04975],[-97.33897,38.04989],[-97.33897,38.04989],[-97.33909,38.04989],[-97.33922,38.04989],[-97.33939,38.04989],[-97.33956,38.04989],[-97.33968,38.04989],[-97.34003,38.04989],[-97.34127,38.04989],[-97.34131,38.04989],[-97.34137,38.04989],[-97.34259,38.04989],[-97.34278,38.04989],[-97.34299,38.04989],[-97.34309,38.04989],[-97.34316,38.04989],[-97.3436,38.04989],[-97.34403,38.04988],[-97.34422,38.04988],[-97.34438,38.04988],[-97.34513,38.04988],[-97.34587,38.04987],[-97.34603,38.04987],[-97.34715,38.04985],[-97.34758,38.04985],[-97.34782,38.04986],[-97.3486,38.04986],[-97.34878,38.04986],[-97.34895,38.04986],[-97.34895,38.04986],[-97.34895,38.04953]]}}]}