{"type":"FeatureCollection","features":[{"type":"Feature","properties":{"_gpxType":"trk","name":"303 West Broadway Street, Newton, KS - 5629 NW 12th St - 371 N Old 81 Hwy - Mustard Seed, North Main Street, Buhler, KS - 2119 E 95th Ave - 501 39th Ct - 3109 Farmington Rd - 100 W 26th Ave - Harley's Bicycles, North Main Street, Hutchinson, KS","coordinateProperties":{},"id":48},"geometry":{"type":"LineString","coordinates":[[-97.34895,38.04953],[-97.34895,38.04986],[-97.34895,38.04986],[-97.34943,38.04986],[-97.35078,38.04985],[-97.35308,38.04985],[-97.35376,38.04984],[-97.3541,38.04984],[-97.35422,38.04983],[-97.35427,38.04983],[-97.35444,38.04983],[-97.35468,38.04984],[-97.35471,38.04985],[-97.35498,38.04987],[-97.35527,38.04991],[-97.35536,38.04991],[-97.3554,38.04992],[-97.35553,38.04992],[-97.35587,38.04995],[-97.35598,38.04995],[-97.35599,38.04995],[-97.3561,38.04996],[-97.35633,38.04997],[-97.35656,38.04998],[-97.35685,38.04999],[-97.35696,38.04999],[-97.35774,38.05],[-97.35889,38.05002],[-97.35934,38.05002],[-97.36076,38.05005],[-97.36118,38.05006],[-97.36166,38.05007],[-97.36193,38.05007],[-97.3622,38.05007],[-97.36238,38.05008],[-97.36322,38.05009],[-97.36368,38.05009],[-97.36448,38.0501],[-97.36475,38.05011],[-97.36531,38.05011],[-97.36582,38.05012],[-97.36687,38.05014],[-97.36726,38.05014],[-97.36797,38.05015],[-97.36865,38.05016],[-97.36888,38.05016],[-97.36988,38.05018],[-97.37,38.05018],[-97.37012,38.05018],[-97.37046,38.05019],[-97.37068,38.05019],[-97.37083,38.05018],[-97.37107,38.05017],[-97.37135,38.05017],[-97.37135,38.05017],[-97.37196,38.0502],[-97.37196,38.05062],[-97.37196,38.05089],[-97.37196,38.05226],[-97.37196,38.05462],[-97.37195,38.05503],[-97.37195,38.05512],[-97.37195,38.05519],[-97.37195,38.05538],[-97.37195,38.05544],[-97.37195,38.05746],[-97.37195,38.05746],[-97.37229,38.05746],[-97.37366,38.05746],[-97.37412,38.05747],[-97.37625,38.05747],[-97.38028,38.05748],[-97.38096,38.05748],[-97.38287,38.05749],[-97.38515,38.05749],[-97.386,38.05749],[-97.38707,38.05749],[-97.38969,38.0575],[-97.39053,38.0575],[-97.39418,38.05752],[-97.39509,38.05753],[-97.39558,38.05753],[-97.40011,38.05756],[-97.40137,38.05757],[-97.40371,38.05758],[-97.4089,38.05762],[-97.41176,38.05761],[-97.41258,38.0576],[-97.41313,38.0576],[-97.41366,38.0576],[-97.41495,38.05759],[-97.41518,38.05759],[-97.41541,38.05759],[-97.41642,38.05759],[-97.41731,38.05758],[-97.41819,38.05758],[-97.41902,38.05757],[-97.41914,38.05757],[-97.42034,38.05757],[-97.42251,38.05756]]}},{"type":"Feature","properties":{"_gpxType":"trk","name":"303 West Broadway Street, Newton, KS - 5629 NW 12th St - 371 N Old 81 Hwy - Mustard Seed, North Main Street, Buhler, KS - 2119 E 95th Ave - 501 39th Ct - 3109 Farmington Rd - 100 W 26th Ave - Harley's Bicycles, North Main Street, Hutchinson, KS","coordinateProperties":{},"id":48},"geometry":{"type":"LineString","coordinates":[[-97.42251,38.05756],[-97.42263,38.05756],[-97.42354,38.05756],[-97.424,38.05755],[-97.42507,38.05755],[-97.42731,38.05754],[-97.42731,38.05754],[-97.42734,38.05953],[-97.42736,38.06187],[-97.42737,38.06241],[-97.42738,38.06331],[-97.42739,38.06385],[-97.4274,38.06493],[-97.4274,38.06511],[-97.42743,38.06834],[-97.42747,38.07211],[-97.42747,38.07275],[-97.42748,38.07343],[-97.42748,38.07432],[-97.42747,38.07459],[-97.42747,38.07467],[-97.42747,38.07481],[-97.42745,38.07513],[-97.42744,38.07527],[-97.42742,38.07538],[-97.42738,38.07561],[-97.42735,38.07581],[-97.4273,38.07609],[-97.42726,38.07641],[-97.42725,38.0766],[-97.42724,38.07664],[-97.42724,38.07677],[-97.42722,38.07717],[-97.42721,38.07744],[-97.42721,38.07771],[-97.42719,38.07823],[-97.42719,38.07839],[-97.42718,38.07857],[-97.42718,38.07875],[-97.42718,38.07888],[-97.42719,38.07969],[-97.42719,38.07979],[-97.42721,38.08087],[-97.42721,38.08125],[-97.42721,38.08182],[-97.42719,38.08233],[-97.42714,38.08395],[-97.42713,38.08431],[-97.42713,38.08459],[-97.42709,38.08628],[-97.42708,38.08659],[-97.42708,38.08745],[-97.42708,38.0878],[-97.42708,38.08781],[-97.42709,38.08997],[-97.42709,38.09013],[-97.42709,38.09015],[-97.4271,38.09273],[-97.4271,38.0941],[-97.4271,38.09439],[-97.4271,38.09554],[-97.4271,38.09572],[-97.42709,38.09741],[-97.42709,38.09914],[-97.42709,38.09932],[-97.42709,38.09999],[-97.42709,38.10044],[-97.42708,38.10092],[-97.42709,38.10112],[-97.42709,38.1023],[-97.42709,38.10248],[-97.42709,38.1037],[-97.42709,38.1041],[-97.42709,38.10428],[-97.42708,38.10485],[-97.42708,38.10538],[-97.42707,38.10572],[-97.42707,38.1059],[-97.42707,38.10603],[-97.42707,38.10701],[-97.42707,38.10733],[-97.42707,38.10769],[-97.42707,38.10836],[-97.42707,38.10841],[-97.42707,38.10913],[-97.42707,38.11002],[-97.42707,38.11003],[-97.42707,38.11039],[-97.42706,38.11147],[-97.42706,38.11183],[-97.42706,38.1126],[-97.42706,38.11422],[-97.42706,38.1144],[-97.42706,38.11458],[-97.42706,38.11566],[-97.42707,38.1161],[-97.42707,38.11625],[-97.42707,38.11672],[-97.42707,38.11912],[-97.42707,38.1193],[-97.42707,38.122],[-97.42707,38.12394],[-97.42707,38.12433],[-97.42706,38.12594],[-97.42706,38.12641],[-97.42705,38.12763],[-97.42705,38.1279],[-97.42705,38.12806],[-97.42705,38.12818],[-97.42705,38.12831],[-97.42704,38.12861],[-97.42704,38.12873],[-97.42704,38.12915],[-97.42704,38.12969],[-97.42702,38.13021],[-97.42702,38.13066],[-97.42702,38.13115],[-97.42702,38.13169],[-97.42701,38.13208],[-97.42701,38.13301],[-97.42701,38.13497],[-97.427,38.13567],[-97.427,38.13567],[-97.42726,38.13586],[-97.42756,38.13608],[-97.42783,38.13627],[-97.42798,38.13638],[-97.42822,38.13653],[-97.42841,38.13665],[-97.42858,38.13675],[-97.42878,38.13687],[-97.4291,38.13705],[-97.42932,38.13718],[-97.42944,38.13725],[-97.42947,38.13728],[-97.42952,38.1373],[-97.42955,38.13732],[-97.42958,38.13734],[-97.4296,38.13735],[-97.42962,38.13736],[-97.42976,38.13743],[-97.42983,38.13747],[-97.42984,38.13747],[-97.4299,38.1375],[-97.42996,38.13753],[-97.43001,38.13756],[-97.4301,38.13761],[-97.43016,38.13764],[-97.43022,38.13767],[-97.43032,38.13772],[-97.43043,38.13779],[-97.43159,38.13844],[-97.43207,38.1387],[-97.43244,38.13892],[-97.43266,38.13906],[-97.4329,38.13923],[-97.43311,38.13938],[-97.4334,38.13961],[-97.43363,38.1398],[-97.4338,38.13995],[-97.434,38.14014],[-97.43417,38.1403],[-97.43432,38.14046],[-97.43452,38.14068],[-97.43466,38.14084],[-97.43467,38.14086],[-97.43484,38.14108],[-97.43496,38.14123]]}},{"type":"Feature","properties":{"_gpxType":"trk","name":"303 West Broadway Street, Newton, KS - 5629 NW 12th St - 371 N Old 81 Hwy - Mustard Seed, North Main Street, Buhler, KS - 2119 E 95th Ave - 501 39th Ct - 3109 Farmington Rd - 100 W 26th Ave - Harley's Bicycles, North Main Street, Hutchinson, KS","coordinateProperties":{},"id":48},"geometry":{"type":"LineString","coordinates":[[-97.43496,38.14123],[-97.43582,38.1423],[-97.43619,38.14277],[-97.43644,38.14307],[-97.43716,38.14398],[-97.43786,38.14484],[-97.43786,38.14484],[-97.43801,38.14484],[-97.43849,38.14484],[-97.4394,38.14485],[-97.44028,38.14485],[-97.44068,38.14485],[-97.44149,38.14485],[-97.44167,38.14486],[-97.44229,38.14486],[-97.44251,38.14486],[-97.44307,38.14486],[-97.44469,38.14487],[-97.44506,38.14487],[-97.44546,38.14487],[-97.44546,38.14487],[-97.44622,38.14487],[-97.44697,38.14487],[-97.44825,38.14488],[-97.44995,38.14489],[-97.4505,38.14488],[-97.45096,38.14488],[-97.45127,38.14489],[-97.45233,38.14489],[-97.4537,38.1449],[-97.45372,38.1449],[-97.45664,38.14491],[-97.46043,38.14491],[-97.46093,38.14491],[-97.46267,38.14492],[-97.46383,38.14492],[-97.46586,38.14493],[-97.46657,38.14493],[-97.46883,38.14493],[-97.47038,38.14493],[-97.47096,38.14493],[-97.47188,38.14493],[-97.47256,38.14493],[-97.47416,38.14492],[-97.47439,38.14492],[-97.47485,38.14492],[-97.47542,38.14491],[-97.47588,38.14491],[-97.4761,38.1449],[-97.47657,38.1449],[-97.47745,38.14489],[-97.47851,38.14488],[-97.4808,38.14485],[-97.4811,38.14485],[-97.48209,38.14484],[-97.48353,38.14486],[-97.48508,38.14488],[-97.48531,38.14488],[-97.48554,38.14488],[-97.48668,38.1449],[-97.48691,38.1449],[-97.4876,38.14491],[-97.4887,38.14493],[-97.48943,38.14494],[-97.49045,38.14495],[-97.49159,38.14497],[-97.49342,38.14499],[-97.49548,38.14502],[-97.49774,38.14505],[-97.50048,38.14509],[-97.50277,38.14508],[-97.50323,38.14508],[-97.50334,38.14508],[-97.50346,38.14508],[-97.50621,38.14507],[-97.50867,38.14505],[-97.5093,38.14505],[-97.50959,38.14505],[-97.51302,38.14503],[-97.51485,38.14502],[-97.51497,38.14502],[-97.51508,38.14502],[-97.51896,38.145],[-97.52034,38.145],[-97.52102,38.14501],[-97.52331,38.14502],[-97.52377,38.14502],[-97.52585,38.14504],[-97.52674,38.14504],[-97.52697,38.14504],[-97.52812,38.14505],[-97.52948,38.14506],[-97.52969,38.14506],[-97.53246,38.14508],[-97.53283,38.14508],[-97.53383,38.14509],[-97.53406,38.14509],[-97.53543,38.1451],[-97.53608,38.1451],[-97.53612,38.1451],[-97.53747,38.14511],[-97.53823,38.1451],[-97.5393,38.1451],[-97.53953,38.1451],[-97.5403,38.1451],[-97.54169,38.14509],[-97.54319,38.14509],[-97.54327,38.14509],[-97.54502,38.14508],[-97.54638,38.14507],[-97.54753,38.14507],[-97.54756,38.14507],[-97.54776,38.14506],[-97.54799,38.14506],[-97.55005,38.14505],[-97.55051,38.14505],[-97.5512,38.14505],[-97.55282,38.14504],[-97.55394,38.14504],[-97.55426,38.14504],[-97.55581,38.14504],[-97.55697,38.14504],[-97.55719,38.14504],[-97.55926,38.14505],[-97.56062,38.14505],[-97.56063,38.14505],[-97.56207,38.14505],[-97.56313,38.14506],[-97.56315,38.14506],[-97.56416,38.14506],[-97.56441,38.14506],[-97.5651,38.14507],[-97.56629,38.14507],[-97.56716,38.14507],[-97.56778,38.14507],[-97.56853,38.14507],[-97.5686,38.14507],[-97.57001,38.14508],[-97.57064,38.14508],[-97.57104,38.14508],[-97.57173,38.14509],[-97.57196,38.14509],[-97.57287,38.14509],[-97.5738,38.14509],[-97.57424,38.14508],[-97.57482,38.14508],[-97.57625,38.14508],[-97.57843,38.14507],[-97.58066,38.14507],[-97.58082,38.14507],[-97.58105,38.14507],[-97.58196,38.14507],[-97.58328,38.14506],[-97.58448,38.14506],[-97.58669,38.14506],[-97.58722,38.14506],[-97.58928,38.14506],[-97.59211,38.14505],[-97.59362,38.14505],[-97.59394,38.14505],[-97.59463,38.14505],[-97.59486,38.14505],[-97.59541,38.14504],[-97.59623,38.14504],[-97.59762,38.14504],[-97.59829,38.14504],[-97.59897,38.14504],[-97.59954,38.14503],[-97.59989,38.14503],[-97.60012,38.14503],[-97.60103,38.14503],[-97.6024,38.14503],[-97.60309,38.14503],[-97.60314,38.14503],[-97.60414,38.14502],[-97.60484,38.14502],[-97.60506,38.14502],[-97.60515,38.14502],[-97.60527,38.14502],[-97.60596,38.14502],[-97.60597,38.14502],[-97.60629,38.14502],[-97.60652,38.14502],[-97.60715,38.14501],[-97.60892,38.14501],[-97.60893,38.14501],[-97.60894,38.14501],[-97.60904,38.14501],[-97.61076,38.14501],[-97.61133,38.14501],[-97.61236,38.145],[-97.61259,38.145],[-97.61396,38.145],[-97.61602,38.14499],[-97.61762,38.14498],[-97.61831,38.14498],[-97.61895,38.14497],[-97.61922,38.14497],[-97.62082,38.14496],[-97.62105,38.14496],[-97.62219,38.14496],[-97.62242,38.14496],[-97.62288,38.14496],[-97.62377,38.14495],[-97.62536,38.14496],[-97.62592,38.14495],[-97.62674,38.14495],[-97.62675,38.14495],[-97.6278,38.14494],[-97.62901,38.14494],[-97.6345,38.14494],[-97.636,38.14495],[-97.63632,38.14495],[-97.63633,38.14495],[-97.63755,38.14495],[-97.63858,38.14495],[-97.64062,38.14495],[-97.64405,38.14496],[-97.64428,38.14496],[-97.64474,38.14496],[-97.64634,38.14496],[-97.64657,38.14496],[-97.64714,38.14496],[-97.64734,38.14496],[-97.64858,38.14496],[-97.64927,38.14496],[-97.65161,38.14495],[-97.65339,38.14495],[-97.65362,38.14495],[-97.65494,38.14494],[-97.65705,38.14494],[-97.65819,38.14494],[-97.65842,38.14494],[-97.66048,38.14493],[-97.66093,38.14493],[-97.66574,38.14492],[-97.66817,38.14491],[-97.66841,38.14491],[-97.66887,38.14491],[-97.67024,38.1449],[-97.67047,38.1449],[-97.67092,38.1449],[-97.67111,38.1449],[-97.67115,38.1449],[-97.67184,38.1449],[-97.67355,38.14489],[-97.67413,38.14489],[-97.67435,38.14489],[-97.67549,38.14489],[-97.67733,38.14488],[-97.67942,38.14487],[-97.68102,38.14487],[-97.68125,38.14487],[-97.68217,38.14487],[-97.68331,38.14487],[-97.68428,38.14486],[-97.68535,38.14486],[-97.6865,38.14486],[-97.68718,38.14486],[-97.68773,38.14486],[-97.68954,38.14485],[-97.69093,38.14485],[-97.69185,38.14484],[-97.69276,38.14484],[-97.69299,38.14484],[-97.69551,38.14483],[-97.69574,38.14483],[-97.69711,38.14482],[-97.69756,38.14482],[-97.6994,38.14481],[-97.70031,38.14481],[-97.70187,38.14481],[-97.70187,38.14481],[-97.70374,38.1448],[-97.70427,38.1448],[-97.70458,38.1448],[-97.70591,38.1448],[-97.70696,38.14479],[-97.70856,38.14479],[-97.70923,38.14479],[-97.70969,38.14479],[-97.70991,38.14479],[-97.71014,38.14479],[-97.7106,38.14479],[-97.71061,38.14479],[-97.71255,38.14479],[-97.71312,38.14479],[-97.71357,38.14479],[-97.71373,38.14479],[-97.71534,38.14479],[-97.7154,38.14479],[-97.71589,38.14479],[-97.71723,38.14478],[-97.71831,38.14478],[-97.72042,38.14478],[-97.72251,38.1448],[-97.72272,38.1448],[-97.72295,38.1448],[-97.72521,38.14482],[-97.72724,38.14483],[-97.72818,38.14485],[-97.72914,38.14485],[-97.72993,38.14486],[-97.73028,38.14486],[-97.73074,38.14486],[-97.73209,38.14487],[-97.7329,38.14487],[-97.73484,38.14488],[-97.73486,38.14488],[-97.73509,38.14488],[-97.7352,38.14488],[-97.7353,38.14488],[-97.73553,38.14488],[-97.73614,38.14489],[-97.73803,38.1449],[-97.73828,38.1449],[-97.73895,38.1449],[-97.74101,38.14489],[-97.74138,38.14489],[-97.74184,38.14489],[-97.74374,38.14488],[-97.74414,38.14488],[-97.74481,38.14488],[-97.74537,38.14487],[-97.74616,38.14487],[-97.7467,38.14486],[-97.74723,38.14486],[-97.74741,38.14486],[-97.74791,38.14486],[-97.74939,38.14485],[-97.75021,38.14485],[-97.75077,38.14484],[-97.75171,38.14484],[-97.75267,38.14483],[-97.75313,38.14483],[-97.75374,38.14483],[-97.75494,38.14482],[-97.75519,38.14482],[-97.75542,38.14482],[-97.75632,38.14481],[-97.75748,38.1448],[-97.76037,38.1448],[-97.76058,38.1448],[-97.76232,38.14479],[-97.76387,38.14479],[-97.76449,38.14478],[-97.7654,38.14478],[-97.7657,38.14478],[-97.76678,38.14478],[-97.76685,38.14478],[-97.76731,38.14478],[-97.76762,38.14477],[-97.76799,38.14477],[-97.76894,38.14477],[-97.76977,38.14477],[-97.77067,38.14476],[-97.77067,38.14476],[-97.77067,38.14426],[-97.77067,38.14417],[-97.77063,38.14358],[-97.77065,38.14203],[-97.77065,38.14183],[-97.77065,38.14167],[-97.77065,38.14132],[-97.77063,38.14054],[-97.77055,38.13965],[-97.77057,38.13923],[-97.7706,38.13889],[-97.7706,38.13863],[-97.77061,38.13784],[-97.77057,38.13689],[-97.77057,38.13643]]}},{"type":"Feature","properties":{"_gpxType":"trk","name":"303 West Broadway Street, Newton, KS - 5629 NW 12th St - 371 N Old 81 Hwy - Mustard Seed, North Main Street, Buhler, KS - 2119 E 95th Ave - 501 39th Ct - 3109 Farmington Rd - 100 W 26th Ave - Harley's Bicycles, North Main Street, Hutchinson, KS","coordinateProperties":{},"id":48},"geometry":{"type":"LineString","coordinates":[[-97.77057,38.13643],[-97.77057,38.13689],[-97.77061,38.13784],[-97.7706,38.13863],[-97.7706,38.13889],[-97.77057,38.13923],[-97.77055,38.13965],[-97.77063,38.14054],[-97.77065,38.14132],[-97.77065,38.14167],[-97.77065,38.14183],[-97.77065,38.14203],[-97.77063,38.14358],[-97.77067,38.14417],[-97.77067,38.14426],[-97.77067,38.14476],[-97.77067,38.14476],[-97.7713,38.14476],[-97.77193,38.14476],[-97.77313,38.14476],[-97.7738,38.14476],[-97.77497,38.14476],[-97.77597,38.14476],[-97.77703,38.14475],[-97.77714,38.14475],[-97.77726,38.14475],[-97.77772,38.14475],[-97.77829,38.14475],[-97.7784,38.14475],[-97.77886,38.14475],[-97.77909,38.14475],[-97.77955,38.14475],[-97.77977,38.14475],[-97.77989,38.14475],[-97.78023,38.14475],[-97.78115,38.14475],[-97.78138,38.14475],[-97.78172,38.14475],[-97.78343,38.14475],[-97.78458,38.14474],[-97.78481,38.14474],[-97.78492,38.14474],[-97.78572,38.14474],[-97.78755,38.14474],[-97.78778,38.14474],[-97.78892,38.14474],[-97.78903,38.14474],[-97.78915,38.14474],[-97.78961,38.14474],[-97.79018,38.14474],[-97.79029,38.14474],[-97.79052,38.14474],[-97.79109,38.14474],[-97.79144,38.14473],[-97.79167,38.14473],[-97.7919,38.14473],[-97.79201,38.14473],[-97.79212,38.14473],[-97.79441,38.14473],[-97.7948,38.14472],[-97.79487,38.14472],[-97.79588,38.14471],[-97.79601,38.14471],[-97.79611,38.14471],[-97.79686,38.1447],[-97.79738,38.14469],[-97.79761,38.14469],[-97.79771,38.14469],[-97.79808,38.14468],[-97.79853,38.14468],[-97.79863,38.14467],[-97.79876,38.14467],[-97.7993,38.14467],[-97.79944,38.14466],[-97.79954,38.14466],[-97.79967,38.14466],[-97.80013,38.14465],[-97.80096,38.14464],[-97.80114,38.14464],[-97.80127,38.14464],[-97.80137,38.14464],[-97.80196,38.14463],[-97.80206,38.14463],[-97.80219,38.14463],[-97.80229,38.14463],[-97.80241,38.14462],[-97.80261,38.14462],[-97.80264,38.14462],[-97.80297,38.14462],[-97.80326,38.14461],[-97.80426,38.1446],[-97.8047,38.1446],[-97.80493,38.1446],[-97.80503,38.1446],[-97.80526,38.1446],[-97.80584,38.14459],[-97.80591,38.14459],[-97.80607,38.14459],[-97.8064,38.14459],[-97.80658,38.14459],[-97.80676,38.14459],[-97.80813,38.14458],[-97.80836,38.14458],[-97.80846,38.14457],[-97.80882,38.14457],[-97.80935,38.14457],[-97.80973,38.14457],[-97.80974,38.14457],[-97.81075,38.14456],[-97.81088,38.14456],[-97.81091,38.14456],[-97.81098,38.14456],[-97.8111,38.14456],[-97.81143,38.14455],[-97.81156,38.14455],[-97.81163,38.14455],[-97.81166,38.14455],[-97.81232,38.14455],[-97.8125,38.14455],[-97.81274,38.14455],[-97.81323,38.14455],[-97.81392,38.14455],[-97.81417,38.14456],[-97.8146,38.14456],[-97.81469,38.14456],[-97.81483,38.14456],[-97.81557,38.14456],[-97.81597,38.14456],[-97.8162,38.14457],[-97.81666,38.14457],[-97.81742,38.14458],[-97.8178,38.14458],[-97.81803,38.14458],[-97.81826,38.14458],[-97.82098,38.14461],[-97.82225,38.14461],[-97.82327,38.14461],[-97.82352,38.14461],[-97.82396,38.14461],[-97.82451,38.14461],[-97.82457,38.14461],[-97.8255,38.14461],[-97.82601,38.14461],[-97.82648,38.14461],[-97.82674,38.14461],[-97.82716,38.14461],[-97.82747,38.14462],[-97.82761,38.14462],[-97.82771,38.14463],[-97.82783,38.14464],[-97.82796,38.14467],[-97.82817,38.14471],[-97.82829,38.14475],[-97.82841,38.14481],[-97.82864,38.14492],[-97.82864,38.14492],[-97.8288,38.14502],[-97.82894,38.14515],[-97.82902,38.14524],[-97.8291,38.14533],[-97.82925,38.14558],[-97.82935,38.14582],[-97.82946,38.14612],[-97.82958,38.14645],[-97.82973,38.14684],[-97.82973,38.14685],[-97.82981,38.14702],[-97.8299,38.14719],[-97.83001,38.14735],[-97.83014,38.1475],[-97.83029,38.14765],[-97.83044,38.1478],[-97.83044,38.1478],[-97.83076,38.14803],[-97.83103,38.14819],[-97.8313,38.14832],[-97.83135,38.14834],[-97.83155,38.14841],[-97.83156,38.14841],[-97.8318,38.14848],[-97.83202,38.14854],[-97.83226,38.14858],[-97.8325,38.14861],[-97.83275,38.14863],[-97.83289,38.14863],[-97.83309,38.14863],[-97.83335,38.14864],[-97.83342,38.14864],[-97.83358,38.14864],[-97.83404,38.14864],[-97.83414,38.14864],[-97.83456,38.14864],[-97.83491,38.14864],[-97.83512,38.14865],[-97.83535,38.14864],[-97.83556,38.14863],[-97.83577,38.14861],[-97.83639,38.1485],[-97.83664,38.14846],[-97.83671,38.14845],[-97.83689,38.14842],[-97.83716,38.14839],[-97.83741,38.14837],[-97.83786,38.14837],[-97.83855,38.14838],[-97.83891,38.14837],[-97.83902,38.14837],[-97.83951,38.14837],[-97.84006,38.1484],[-97.84034,38.14841],[-97.84062,38.14844],[-97.84096,38.14848],[-97.84111,38.1485],[-97.84127,38.14853],[-97.84156,38.14859],[-97.84184,38.14865],[-97.84199,38.14869],[-97.84221,38.14874],[-97.84232,38.14878],[-97.84285,38.14896],[-97.84306,38.14903],[-97.84326,38.14911],[-97.84341,38.14918],[-97.84361,38.14927],[-97.84386,38.14939],[-97.84404,38.14949],[-97.84406,38.1495],[-97.84455,38.14975],[-97.84486,38.14991],[-97.84486,38.14991],[-97.84554,38.15034],[-97.84564,38.15041],[-97.84581,38.15053],[-97.84617,38.15079],[-97.84631,38.1509],[-97.84657,38.15112],[-97.84676,38.15131],[-97.84697,38.15152],[-97.84717,38.15174],[-97.84731,38.15188],[-97.84732,38.1519],[-97.84778,38.1525],[-97.84788,38.15268],[-97.84798,38.15285],[-97.84806,38.15301],[-97.84809,38.15307],[-97.84815,38.15318],[-97.84817,38.15323],[-97.84818,38.15324],[-97.84823,38.15335],[-97.84824,38.15338],[-97.8483,38.15352],[-97.84834,38.15361],[-97.84842,38.15382],[-97.84843,38.15386],[-97.84849,38.15403],[-97.84849,38.15404],[-97.84854,38.15421],[-97.8486,38.15444],[-97.84864,38.15461],[-97.84868,38.15489],[-97.84871,38.15517],[-97.84873,38.15549],[-97.84873,38.15679],[-97.84873,38.15697],[-97.84873,38.15751],[-97.84873,38.15931],[-97.84873,38.15931],[-97.85132,38.15931],[-97.85338,38.15931],[-97.85361,38.15931],[-97.85429,38.15931],[-97.85818,38.15931],[-97.85841,38.15931],[-97.8591,38.15931],[-97.86207,38.15931],[-97.86474,38.15931],[-97.8671,38.15932],[-97.87033,38.15934],[-97.87193,38.15935],[-97.87196,38.15933],[-97.872,38.15932],[-97.87398,38.15932],[-97.8742,38.15932],[-97.87443,38.15932],[-97.87668,38.15931],[-97.87695,38.15932],[-97.87705,38.15931],[-97.87794,38.15932],[-97.88075,38.15932],[-97.88142,38.15932],[-97.88354,38.15932],[-97.88422,38.15932],[-97.88544,38.15932],[-97.88635,38.15932],[-97.88818,38.15932],[-97.88909,38.15932],[-97.89207,38.15933]]}},{"type":"Feature","properties":{"_gpxType":"trk","name":"303 West Broadway Street, Newton, KS - 5629 NW 12th St - 371 N Old 81 Hwy - Mustard Seed, North Main Street, Buhler, KS - 2119 E 95th Ave - 501 39th Ct - 3109 Farmington Rd - 100 W 26th Ave - Harley's Bicycles, North Main Street, Hutchinson, KS","coordinateProperties":{},"id":48},"geometry":{"type":"LineString","coordinates":[[-97.89207,38.15933],[-97.89275,38.15933],[-97.89504,38.15933],[-97.89688,38.15932],[-97.89773,38.15933],[-97.8982,38.15933],[-97.89992,38.15933],[-97.90015,38.15933],[-97.90037,38.15933],[-97.90198,38.15934],[-97.9022,38.15934],[-97.90358,38.15934],[-97.90393,38.15934],[-97.90485,38.15933],[-97.90894,38.1593],[-97.91003,38.15929],[-97.91026,38.15929],[-97.91141,38.15928],[-97.91255,38.15927],[-97.91278,38.15926],[-97.91301,38.15926],[-97.91385,38.15926],[-97.91438,38.15925],[-97.9153,38.15924],[-97.91552,38.15924],[-97.91598,38.15924],[-97.91872,38.15921],[-97.91873,38.15921],[-97.92101,38.15919],[-97.92213,38.15918],[-97.92213,38.15918],[-97.92213,38.1584],[-97.92212,38.15673],[-97.92212,38.1563],[-97.92212,38.15511],[-97.92212,38.15475],[-97.92212,38.15421],[-97.92212,38.15374],[-97.92212,38.15351],[-97.92212,38.15338],[-97.92212,38.15303],[-97.92212,38.15169],[-97.92212,38.15141],[-97.92212,38.15126],[-97.92211,38.149],[-97.92212,38.14827],[-97.9221,38.14792],[-97.9221,38.14726],[-97.9221,38.14535],[-97.92209,38.14465],[-97.9221,38.14401],[-97.9221,38.14355],[-97.92212,38.14015],[-97.92213,38.13841],[-97.92213,38.13803],[-97.92213,38.13587],[-97.92213,38.13531],[-97.92213,38.13513],[-97.92213,38.13441],[-97.92213,38.1324],[-97.92213,38.13009],[-97.92212,38.12898],[-97.92212,38.1288],[-97.92212,38.12874],[-97.92212,38.12764],[-97.92211,38.12701],[-97.9221,38.12506],[-97.9221,38.12497],[-97.9221,38.12404],[-97.9221,38.12298],[-97.92211,38.12253],[-97.92211,38.12235],[-97.92211,38.12163],[-97.92211,38.12053],[-97.9221,38.11957],[-97.9221,38.11895],[-97.9221,38.11841],[-97.9221,38.11838],[-97.9221,38.11823],[-97.9221,38.11805],[-97.92209,38.11769],[-97.9221,38.11747],[-97.92211,38.1174],[-97.92212,38.11726],[-97.92215,38.11712],[-97.92216,38.11703],[-97.92217,38.11702],[-97.9222,38.1169],[-97.92222,38.11685],[-97.92226,38.11671],[-97.92234,38.11649],[-97.92239,38.11633],[-97.9224,38.1163],[-97.92243,38.11618],[-97.92244,38.11609],[-97.92245,38.116],[-97.92246,38.1159],[-97.92246,38.11577],[-97.92246,38.11577],[-97.9225,38.11577],[-97.92252,38.11576],[-97.92254,38.11576],[-97.92256,38.11575],[-97.92258,38.11574],[-97.9226,38.11573],[-97.92261,38.11572],[-97.92262,38.11572],[-97.92263,38.11571],[-97.92264,38.1157],[-97.92266,38.11568],[-97.92267,38.11567],[-97.92268,38.11565],[-97.92269,38.11564],[-97.92269,38.11562],[-97.9227,38.11561],[-97.9227,38.11559],[-97.9227,38.11557],[-97.9227,38.11556],[-97.9227,38.11553],[-97.92269,38.11551],[-97.92268,38.1155],[-97.92267,38.11548],[-97.92266,38.11547],[-97.92265,38.11545],[-97.92264,38.11544],[-97.92262,38.11543],[-97.92261,38.11542],[-97.92259,38.11541],[-97.92257,38.1154],[-97.92255,38.11539],[-97.92253,38.11539],[-97.92251,38.11538],[-97.92249,38.11538],[-97.92247,38.11538],[-97.92244,38.11538],[-97.92245,38.11529],[-97.92245,38.11521],[-97.92244,38.1151],[-97.92243,38.11504],[-97.9224,38.11496],[-97.9224,38.11495],[-97.92237,38.11485],[-97.92235,38.11478],[-97.92228,38.11459],[-97.92221,38.11437],[-97.92216,38.11421],[-97.92215,38.11417],[-97.92214,38.11412],[-97.92211,38.11401],[-97.9221,38.11394],[-97.92208,38.11383],[-97.92207,38.11374],[-97.92207,38.11362],[-97.92206,38.1135],[-97.92206,38.11345],[-97.92206,38.11299],[-97.92206,38.11251],[-97.92206,38.11233],[-97.92206,38.11069],[-97.92206,38.10909],[-97.92206,38.10891],[-97.92205,38.10443],[-97.92205,38.10369],[-97.92205,38.10283],[-97.92204,38.10169],[-97.92204,38.10108],[-97.92204,38.10036],[-97.92204,38.09889],[-97.92204,38.09772]]}},{"type":"Feature","properties":{"_gpxType":"trk","name":"303 West Broadway Street, Newton, KS - 5629 NW 12th St - 371 N Old 81 Hwy - Mustard Seed, North Main Street, Buhler, KS - 2119 E 95th Ave - 501 39th Ct - 3109 Farmington Rd - 100 W 26th Ave - Harley's Bicycles, North Main Street, Hutchinson, KS","coordinateProperties":{},"id":48},"geometry":{"type":"LineString","coordinates":[[-97.92204,38.09772],[-97.92205,38.09714],[-97.92204,38.09628],[-97.92204,38.09561],[-97.92204,38.09477],[-97.92205,38.09379],[-97.92205,38.09338],[-97.92204,38.09285],[-97.92205,38.09216],[-97.92205,38.09216],[-97.92298,38.0921],[-97.92412,38.09204],[-97.92412,38.09204],[-97.92483,38.09154],[-97.92582,38.09083],[-97.92669,38.09022],[-97.92741,38.0897],[-97.92861,38.08882],[-97.92869,38.08877]]}},{"type":"Feature","properties":{"_gpxType":"trk","name":"303 West Broadway Street, Newton, KS - 5629 NW 12th St - 371 N Old 81 Hwy - Mustard Seed, North Main Street, Buhler, KS - 2119 E 95th Ave - 501 39th Ct - 3109 Farmington Rd - 100 W 26th Ave - Harley's Bicycles, North Main Street, Hutchinson, KS","coordinateProperties":{},"id":48},"geometry":{"type":"LineString","coordinates":[[-97.92869,38.08877],[-97.92945,38.08821],[-97.93021,38.08766],[-97.93099,38.08709],[-97.93104,38.08704],[-97.9311,38.08697],[-97.93112,38.08694],[-97.93114,38.08689],[-97.93116,38.0868],[-97.93115,38.08648],[-97.93115,38.08648],[-97.93198,38.08648],[-97.93266,38.08648],[-97.93304,38.08648],[-97.93312,38.08648],[-97.93538,38.08648],[-97.93548,38.08648],[-97.93565,38.08648],[-97.93565,38.08648],[-97.93565,38.08538],[-97.93558,38.08474],[-97.93557,38.08462],[-97.93557,38.0846],[-97.93556,38.08445],[-97.93556,38.08418],[-97.93554,38.08314],[-97.93554,38.08314],[-97.93547,38.08318],[-97.93541,38.08319],[-97.93509,38.08319]]}},{"type":"Feature","properties":{"_gpxType":"trk","name":"303 West Broadway Street, Newton, KS - 5629 NW 12th St - 371 N Old 81 Hwy - Mustard Seed, North Main Street, Buhler, KS - 2119 E 95th Ave - 501 39th Ct - 3109 Farmington Rd - 100 W 26th Ave - Harley's Bicycles, North Main Street, Hutchinson, KS","coordinateProperties":{},"id":48},"geometry":{"type":"LineString","coordinates":[[-97.93509,38.08319],[-97.93541,38.08319],[-97.93547,38.08318],[-97.93554,38.08314],[-97.93554,38.08314],[-97.93554,38.08207],[-97.93554,38.08152],[-97.93554,38.08097],[-97.93553,38.0806],[-97.93553,38.07988],[-97.93553,38.07933],[-97.93553,38.07877],[-97.93553,38.07778],[-97.93553,38.0776],[-97.93553,38.07743],[-97.93553,38.07641],[-97.9355,38.07524],[-97.9355,38.07404],[-97.9355,38.07359],[-97.9355,38.07286],[-97.93549,38.0716],[-97.93549,38.07135],[-97.93549,38.07091],[-97.93549,38.07069],[-97.93549,38.07033],[-97.93549,38.06972],[-97.93549,38.06963],[-97.93548,38.0693],[-97.93548,38.06915],[-97.93547,38.06855],[-97.93548,38.06798],[-97.93548,38.06736],[-97.93548,38.06679],[-97.93548,38.06617],[-97.93547,38.06561],[-97.93547,38.06501],[-97.93547,38.06436],[-97.93548,38.06384],[-97.93547,38.06335],[-97.93547,38.06284],[-97.93546,38.06181],[-97.93545,38.06076],[-97.93545,38.06076],[-97.93349,38.06076],[-97.93215,38.06075]]}}]}