{"type":"FeatureCollection","features":[{"type":"Feature","properties":{"_gpxType":"trk","name":"Paradise Lakes Family Campground, Housel Craft Road, Bristolville, OH - Hurd's Store, Ohio 305, Southington, OH - Kent Cycle, Lake Street, Kent, OH - 3892 Lake Run Boulevard, Stow, OH","coordinateProperties":{},"id":5},"geometry":{"type":"LineString","coordinates":[[-80.85838,41.36593],[-80.8584,41.36593],[-80.85862,41.3659],[-80.85864,41.36589],[-80.85881,41.36588],[-80.85892,41.36587],[-80.85909,41.36583],[-80.85913,41.36582],[-80.85924,41.3658],[-80.85935,41.36574],[-80.85944,41.36568],[-80.85953,41.36561],[-80.85957,41.36553],[-80.85958,41.36548],[-80.85959,41.36545],[-80.85956,41.3654],[-80.85943,41.36529],[-80.85927,41.36517],[-80.85916,41.36507],[-80.85906,41.36496],[-80.85901,41.36492],[-80.85894,41.36484],[-80.85886,41.36478],[-80.85883,41.36476],[-80.85876,41.36463],[-80.85869,41.36444],[-80.85864,41.36432],[-80.85858,41.36413],[-80.85858,41.36413],[-80.85859,41.36414],[-80.8588,41.36401],[-80.85906,41.36385],[-80.85923,41.36364],[-80.85926,41.36356],[-80.85926,41.36356],[-80.85936,41.36356],[-80.85997,41.36356],[-80.86093,41.36355],[-80.86139,41.36355],[-80.86213,41.36355],[-80.86261,41.36354],[-80.86266,41.36354],[-80.86331,41.36355],[-80.86357,41.36355],[-80.86405,41.36355],[-80.86429,41.36355],[-80.86464,41.36355],[-80.86464,41.36355],[-80.86462,41.36331],[-80.86459,41.36302],[-80.86458,41.36292],[-80.86453,41.36257],[-80.8645,41.36237],[-80.8645,41.36237],[-80.86542,41.36229],[-80.86546,41.36229],[-80.86593,41.36224],[-80.8668,41.36217],[-80.86688,41.36216],[-80.86706,41.36214],[-80.86808,41.36206],[-80.86823,41.36205],[-80.86831,41.36204],[-80.86964,41.36194],[-80.8707,41.36188],[-80.87085,41.36187],[-80.87098,41.36186],[-80.87333,41.36179],[-80.87334,41.36179],[-80.87348,41.36179],[-80.87357,41.36178],[-80.87381,41.36178],[-80.87532,41.36173],[-80.87614,41.36169],[-80.87671,41.36165],[-80.87727,41.3616],[-80.87754,41.36156],[-80.87759,41.36156],[-80.87763,41.36155],[-80.87936,41.36129],[-80.87951,41.36127],[-80.87975,41.36124],[-80.87989,41.36122],[-80.88067,41.3611],[-80.88091,41.36108],[-80.88122,41.36106],[-80.88138,41.36107],[-80.88196,41.3611],[-80.88214,41.3611],[-80.88233,41.3611],[-80.88251,41.36108],[-80.8826,41.36108],[-80.88263,41.36108],[-80.88473,41.36088],[-80.88592,41.36075],[-80.88607,41.36073],[-80.88616,41.36072],[-80.88685,41.36063],[-80.88731,41.36057],[-80.88757,41.36052],[-80.88796,41.36046],[-80.88804,41.36044],[-80.88912,41.36026],[-80.88919,41.36025],[-80.88921,41.36025],[-80.89047,41.36],[-80.89061,41.35998],[-80.89077,41.35997],[-80.89091,41.35996],[-80.89123,41.35996],[-80.89132,41.35996],[-80.89156,41.35996],[-80.89161,41.35996],[-80.8918,41.35996],[-80.89197,41.35996],[-80.89204,41.35996],[-80.89228,41.35996],[-80.89252,41.35996],[-80.89254,41.35996],[-80.89317,41.35995],[-80.89365,41.35995],[-80.89396,41.35995],[-80.89413,41.35995],[-80.89437,41.35995],[-80.89461,41.35995],[-80.89485,41.35995],[-80.89509,41.35995],[-80.89605,41.35996],[-80.89638,41.35996],[-80.89701,41.35996],[-80.89725,41.35996],[-80.89749,41.35996],[-80.89821,41.35996],[-80.89868,41.35996],[-80.89892,41.35996],[-80.89898,41.35996],[-80.89916,41.35996],[-80.89964,41.35996],[-80.90012,41.35997],[-80.90036,41.35997],[-80.9006,41.35997],[-80.90108,41.35997],[-80.9018,41.35998],[-80.90215,41.35998],[-80.90228,41.35998],[-80.90252,41.35998],[-80.903,41.35998],[-80.90324,41.35998],[-80.90354,41.35998],[-80.90372,41.35998],[-80.90396,41.35998],[-80.9046,41.35998],[-80.90476,41.35997],[-80.90515,41.35998],[-80.90539,41.35998],[-80.90545,41.35998],[-80.90634,41.36],[-80.90635,41.36],[-80.90707,41.36],[-80.9073,41.36],[-80.90744,41.36],[-80.90755,41.36],[-80.90827,41.36],[-80.90851,41.36],[-80.90875,41.36],[-80.90899,41.36],[-80.90971,41.36],[-80.90982,41.36],[-80.91067,41.36],[-80.91091,41.35999],[-80.911,41.35999],[-80.91162,41.35999],[-80.91186,41.35999],[-80.91258,41.35999],[-80.91306,41.35998],[-80.91306,41.35998],[-80.91303,41.35776],[-80.91303,41.35773],[-80.91302,41.35737],[-80.91301,41.35665],[-80.91301,41.35647],[-80.913,41.35613],[-80.913,41.35593],[-80.913,41.35575],[-80.913,41.35539],[-80.913,41.35521],[-80.913,41.35503],[-80.913,41.35485],[-80.913,41.35449],[-80.91299,41.35382],[-80.91299,41.35377],[-80.91298,41.35324],[-80.91297,41.35306],[-80.91296,41.35236],[-80.91295,41.35216],[-80.91295,41.35198],[-80.91295,41.3518],[-80.91295,41.35162],[-80.91294,41.3509],[-80.91294,41.35036],[-80.91293,41.35018],[-80.91293,41.34946],[-80.91292,41.34928],[-80.91292,41.34913],[-80.91293,41.34838],[-80.91293,41.3482],[-80.91295,41.34812],[-80.91304,41.34784],[-80.9131,41.34766],[-80.91321,41.34731],[-80.91325,41.3472],[-80.91343,41.34661],[-80.91349,41.34644],[-80.91354,41.34626],[-80.9136,41.34609],[-80.91371,41.34574],[-80.91376,41.34556],[-80.91378,41.3455],[-80.91398,41.34486],[-80.91403,41.34468],[-80.91408,41.34451],[-80.91414,41.34433],[-80.91428,41.34385],[-80.9143,41.34381],[-80.91435,41.34363],[-80.9144,41.34346],[-80.91446,41.34328],[-80.91451,41.34311],[-80.91458,41.34289],[-80.9146,41.34282],[-80.91473,41.34243],[-80.91479,41.34226],[-80.91485,41.34208],[-80.91489,41.34196],[-80.91502,41.34156],[-80.91506,41.34144],[-80.91508,41.34138],[-80.91519,41.34098],[-80.91523,41.34086],[-80.91526,41.34072],[-80.9153,41.3405],[-80.9153,41.34047],[-80.91532,41.34014],[-80.91532,41.34004],[-80.91532,41.33986],[-80.91531,41.33932],[-80.91531,41.33932],[-80.91603,41.33932],[-80.91627,41.33932],[-80.91651,41.33932],[-80.91663,41.33932],[-80.91675,41.33932],[-80.91699,41.33931],[-80.91712,41.33931],[-80.91747,41.33931],[-80.91771,41.33931],[-80.91854,41.3393],[-80.91875,41.3393],[-80.91889,41.3393],[-80.91913,41.3393],[-80.91937,41.3393],[-80.91961,41.3393],[-80.92009,41.3393],[-80.92033,41.3393],[-80.92057,41.33931],[-80.92063,41.33931],[-80.92081,41.33931],[-80.92159,41.33932],[-80.92201,41.33931],[-80.92225,41.33931],[-80.9232,41.33931],[-80.92344,41.33931],[-80.92416,41.3393],[-80.92488,41.3393],[-80.92512,41.3393],[-80.92512,41.3393],[-80.9251,41.33885],[-80.9251,41.33867],[-80.92509,41.33849],[-80.92508,41.33831],[-80.92508,41.33813],[-80.92508,41.33811],[-80.92508,41.33795],[-80.92507,41.33759],[-80.92507,41.33734],[-80.92507,41.33723],[-80.92507,41.33705],[-80.92507,41.33687],[-80.92507,41.33669],[-80.92507,41.33651],[-80.92507,41.33633],[-80.92507,41.33615],[-80.92507,41.33599],[-80.92507,41.33597],[-80.92507,41.33579],[-80.92508,41.33561],[-80.92508,41.33525],[-80.92508,41.33507],[-80.92509,41.33471],[-80.92509,41.33453],[-80.9251,41.33435],[-80.9251,41.33433],[-80.9251,41.33417],[-80.9251,41.33381],[-80.9251,41.33372],[-80.92509,41.33363],[-80.92509,41.33327],[-80.92509,41.33309],[-80.92508,41.33291],[-80.92507,41.33219],[-80.92507,41.33213],[-80.92507,41.33201],[-80.92508,41.33093],[-80.92508,41.33075],[-80.92508,41.33028],[-80.92508,41.32967],[-80.92507,41.32949],[-80.92507,41.32931],[-80.92507,41.32919],[-80.92508,41.32877],[-80.92508,41.32859],[-80.92508,41.32841],[-80.92508,41.32812],[-80.92508,41.32806],[-80.92509,41.32788],[-80.92509,41.3277],[-80.92512,41.32644],[-80.92512,41.32608],[-80.92512,41.32536],[-80.92512,41.32518],[-80.92512,41.325],[-80.92512,41.32482],[-80.92512,41.32467],[-80.92513,41.32431],[-80.92513,41.32428],[-80.92514,41.32392],[-80.92514,41.32377],[-80.92515,41.32374],[-80.92515,41.32356],[-80.92516,41.3232],[-80.92517,41.32284],[-80.92518,41.32194],[-80.92518,41.32189],[-80.92519,41.32101],[-80.92521,41.32025],[-80.92521,41.31992],[-80.92522,41.31978],[-80.92523,41.31902],[-80.92523,41.31871],[-80.92523,41.31826],[-80.92523,41.31815],[-80.92523,41.31797],[-80.92523,41.31782],[-80.92523,41.31779],[-80.92523,41.31776],[-80.92524,41.3174],[-80.92524,41.31725],[-80.92524,41.31722],[-80.92524,41.31707],[-80.92524,41.31689],[-80.92524,41.31686],[-80.92525,41.3168],[-80.92524,41.31671],[-80.92524,41.31655],[-80.92523,41.31653],[-80.92523,41.3165],[-80.9252,41.31627],[-80.92514,41.31599],[-80.92511,41.31581],[-80.9251,41.31579],[-80.92507,41.31564],[-80.92507,41.31561],[-80.92504,41.31549],[-80.92504,41.31546],[-80.92502,41.31532],[-80.92502,41.31525],[-80.92501,41.31517],[-80.92501,41.3151],[-80.92501,41.31507],[-80.92501,41.31489],[-80.92501,41.31474],[-80.92501,41.31471],[-80.92502,41.31383],[-80.92503,41.31364],[-80.92503,41.31347],[-80.92503,41.31275],[-80.92503,41.31274],[-80.92504,41.31257],[-80.92504,41.31256],[-80.92504,41.31202],[-80.92504,41.31185],[-80.92504,41.31183],[-80.92504,41.31167],[-80.92504,41.31165],[-80.92504,41.31158],[-80.92508,41.31079],[-80.92506,41.3096],[-80.92506,41.30957],[-80.92506,41.30942],[-80.92506,41.30912],[-80.92506,41.30906],[-80.92507,41.30888],[-80.92508,41.30879],[-80.92511,41.30852],[-80.92511,41.30852],[-80.92533,41.30851],[-80.92576,41.30849],[-80.9261,41.30849],[-80.92634,41.30849],[-80.92644,41.30849],[-80.92706,41.30849],[-80.92754,41.30849],[-80.92819,41.30849],[-80.92922,41.30849],[-80.92974,41.30849],[-80.93041,41.30848],[-80.93058,41.30848],[-80.93065,41.30848],[-80.93091,41.30848],[-80.93113,41.30848],[-80.93131,41.30848],[-80.93161,41.30848],[-80.93173,41.30848],[-80.9321,41.30848],[-80.93229,41.30848],[-80.93254,41.30848],[-80.93305,41.30848],[-80.93425,41.30848],[-80.93517,41.30848],[-80.93544,41.30848],[-80.93568,41.30848],[-80.93688,41.30848],[-80.93832,41.30848],[-80.93856,41.30848],[-80.93894,41.30848],[-80.93951,41.30848],[-80.93985,41.30848],[-80.94057,41.30847],[-80.9406,41.30847],[-80.94129,41.30847],[-80.94131,41.30847],[-80.94177,41.30846],[-80.94179,41.30846],[-80.94201,41.30846],[-80.94251,41.30846],[-80.94345,41.30845],[-80.94347,41.30845],[-80.9444,41.30844],[-80.94464,41.30844],[-80.94467,41.30844],[-80.94511,41.30844],[-80.94512,41.30844],[-80.94562,41.30844],[-80.94586,41.30844],[-80.94634,41.30844],[-80.94658,41.30843],[-80.94673,41.30843],[-80.94697,41.30843],[-80.94741,41.30843],[-80.94851,41.30843],[-80.94888,41.30843],[-80.94936,41.30843],[-80.9496,41.30843],[-80.94984,41.30843],[-80.95023,41.30843],[-80.95104,41.30842],[-80.95152,41.30842],[-80.95176,41.30842],[-80.95414,41.3084],[-80.95463,41.3084],[-80.95565,41.3084],[-80.95571,41.3084],[-80.95583,41.30841],[-80.95583,41.30841],[-80.95583,41.3087]]}},{"type":"Feature","properties":{"_gpxType":"trk","name":"Paradise Lakes Family Campground, Housel Craft Road, Bristolville, OH - Hurd's Store, Ohio 305, Southington, OH - Kent Cycle, Lake Street, Kent, OH - 3892 Lake Run Boulevard, Stow, OH","coordinateProperties":{},"id":5},"geometry":{"type":"LineString","coordinates":[[-80.95583,41.3087],[-80.95583,41.30841],[-80.95582,41.30803],[-80.95582,41.30781],[-80.95581,41.30773],[-80.95581,41.30763],[-80.9558,41.3072],[-80.95577,41.3062],[-80.95574,41.30559],[-80.95574,41.30548],[-80.95574,41.3053],[-80.95573,41.30518],[-80.95574,41.30506],[-80.95574,41.30497],[-80.95576,41.30474],[-80.95585,41.30399],[-80.95587,41.30386],[-80.95593,41.30324],[-80.95599,41.30279],[-80.95601,41.30263],[-80.95604,41.30243],[-80.95606,41.30225],[-80.95609,41.30202],[-80.95614,41.30171],[-80.95627,41.30082],[-80.9563,41.30064],[-80.95635,41.30028],[-80.95644,41.29976],[-80.95651,41.29939],[-80.95661,41.29886],[-80.95667,41.2985],[-80.95668,41.29843],[-80.9567,41.29832],[-80.95674,41.29815],[-80.95684,41.29761],[-80.9569,41.29742],[-80.95695,41.29716],[-80.95697,41.29703],[-80.95702,41.29681],[-80.95706,41.29666],[-80.95708,41.29653],[-80.95719,41.29601],[-80.95734,41.29528],[-80.95738,41.29513],[-80.95744,41.29483],[-80.95746,41.29475],[-80.95747,41.2947],[-80.9575,41.29457],[-80.9575,41.29456],[-80.95753,41.29446],[-80.95755,41.2944],[-80.95756,41.29435],[-80.95758,41.29428],[-80.95761,41.29421],[-80.95763,41.29416],[-80.95767,41.29406],[-80.95767,41.29406],[-80.9592,41.29406],[-80.95944,41.29406],[-80.96039,41.29406],[-80.96133,41.29406],[-80.96183,41.29406],[-80.96207,41.29406],[-80.96375,41.29407],[-80.96398,41.29407],[-80.96542,41.29407],[-80.96581,41.29407],[-80.96629,41.29407],[-80.96669,41.29407],[-80.96693,41.29408],[-80.96741,41.29408],[-80.96813,41.29408],[-80.96956,41.29408],[-80.9698,41.29408],[-80.97004,41.29409],[-80.97172,41.29409],[-80.97196,41.29409],[-80.97219,41.29409],[-80.97315,41.29409],[-80.97339,41.2941],[-80.97363,41.2941],[-80.97383,41.2941],[-80.97507,41.2941],[-80.97531,41.2941],[-80.97626,41.2941],[-80.9765,41.2941],[-80.97698,41.2941],[-80.97722,41.2941],[-80.9789,41.29411],[-80.98081,41.29411],[-80.98105,41.29411],[-80.98129,41.29411],[-80.98239,41.29411],[-80.98273,41.29411],[-80.98348,41.29411],[-80.98419,41.29411],[-80.98443,41.29411],[-80.98587,41.29411],[-80.98683,41.29411],[-80.98731,41.29411],[-80.98826,41.29411],[-80.98946,41.29411],[-80.99006,41.29411],[-80.99018,41.29411],[-80.99042,41.29411],[-80.9909,41.29411],[-80.99114,41.29411],[-80.99138,41.29411],[-80.99161,41.29411],[-80.99185,41.2941],[-80.99209,41.2941],[-80.99248,41.2941],[-80.99281,41.2941],[-80.99401,41.29411],[-80.99425,41.29411],[-80.99473,41.29411],[-80.99518,41.29411],[-80.99541,41.29412],[-80.99544,41.29412],[-80.99568,41.29412],[-80.99586,41.29412],[-80.99664,41.29412],[-80.99688,41.29412],[-80.99784,41.29412],[-80.99982,41.29411],[-81.00167,41.29412],[-81.00183,41.29412],[-81.00263,41.29412],[-81.00274,41.29412],[-81.00281,41.29412],[-81.00285,41.2941],[-81.00286,41.2941],[-81.00291,41.29407],[-81.00296,41.29404],[-81.00299,41.29401],[-81.00302,41.29397],[-81.00302,41.29397],[-81.00304,41.29386],[-81.00304,41.29374],[-81.00303,41.29347],[-81.00302,41.29311],[-81.00301,41.29275],[-81.00301,41.29257],[-81.003,41.29203],[-81.003,41.29196],[-81.003,41.29185],[-81.003,41.29131],[-81.003,41.29121],[-81.003,41.29095],[-81.003,41.29095],[-81.00335,41.29096],[-81.00407,41.29096],[-81.00431,41.29096],[-81.00527,41.29097],[-81.00541,41.29097],[-81.0055,41.29097],[-81.00574,41.29097],[-81.00646,41.29097],[-81.0069,41.29097],[-81.00694,41.29097],[-81.00718,41.29097],[-81.0091,41.29097],[-81.00935,41.29097],[-81.00957,41.29097],[-81.01125,41.29098],[-81.01173,41.29098],[-81.01187,41.29098],[-81.01197,41.29098],[-81.01229,41.29099],[-81.01243,41.29101],[-81.0125,41.29105],[-81.01255,41.2911],[-81.01258,41.29115],[-81.01259,41.2912],[-81.01259,41.29127],[-81.01258,41.29152],[-81.01258,41.29169],[-81.01258,41.2917],[-81.01258,41.29187],[-81.01259,41.29277],[-81.01259,41.29279],[-81.01259,41.29307],[-81.01261,41.29367],[-81.01262,41.29385],[-81.01262,41.29385],[-81.01273,41.29387],[-81.01292,41.29387],[-81.01309,41.29387],[-81.01344,41.29387],[-81.01375,41.29387],[-81.01576,41.29389],[-81.01693,41.29389],[-81.01717,41.29389],[-81.01741,41.29389],[-81.01743,41.29389],[-81.01812,41.2939],[-81.01836,41.29391],[-81.0186,41.29391],[-81.01884,41.29391],[-81.01908,41.29392],[-81.01956,41.29392],[-81.01956,41.29392],[-81.01963,41.29357],[-81.01968,41.29339],[-81.01973,41.29322],[-81.01978,41.29304],[-81.01987,41.29269],[-81.01996,41.29233],[-81.02001,41.29216],[-81.02003,41.2921],[-81.0201,41.2918],[-81.02014,41.29165],[-81.02021,41.29151],[-81.02021,41.29146],[-81.0202,41.29138],[-81.02016,41.29123],[-81.02009,41.29106],[-81.02,41.29088],[-81.01989,41.29063],[-81.01988,41.29059],[-81.01966,41.29011],[-81.01965,41.29008],[-81.01959,41.28991],[-81.01957,41.28985],[-81.01954,41.28973],[-81.01953,41.28967],[-81.01955,41.28957],[-81.01955,41.28955],[-81.01958,41.28948],[-81.01962,41.28939],[-81.01969,41.28928],[-81.01974,41.28922],[-81.01981,41.28914],[-81.02002,41.28894],[-81.02004,41.28892],[-81.02033,41.28866],[-81.0206,41.28844],[-81.02081,41.28826],[-81.02141,41.28773],[-81.02143,41.28771],[-81.02173,41.28743],[-81.02202,41.28717],[-81.02217,41.28702],[-81.02218,41.28701],[-81.02226,41.28694],[-81.02234,41.2868],[-81.02238,41.28669],[-81.0224,41.28665],[-81.02242,41.28633],[-81.02242,41.28631],[-81.02243,41.28614],[-81.02243,41.28566],[-81.02243,41.28561],[-81.02244,41.28507],[-81.02244,41.28505],[-81.02243,41.28475],[-81.02243,41.28471],[-81.02243,41.28423],[-81.02241,41.28297],[-81.0224,41.28225],[-81.0224,41.28189],[-81.02239,41.28136],[-81.02238,41.281],[-81.02238,41.28046],[-81.02237,41.28028],[-81.02236,41.27956],[-81.02236,41.27922],[-81.02236,41.27922],[-81.02253,41.27924],[-81.02289,41.27926],[-81.02317,41.27926],[-81.0234,41.27927],[-81.02364,41.27927],[-81.0246,41.2793],[-81.02545,41.27932],[-81.02604,41.27933],[-81.02628,41.27934],[-81.02699,41.27935],[-81.02712,41.27935],[-81.02723,41.27935],[-81.02867,41.27937],[-81.02871,41.27937],[-81.02891,41.27937],[-81.03007,41.27939],[-81.0301,41.27939],[-81.03034,41.27939],[-81.0312,41.27939],[-81.03154,41.2794],[-81.03213,41.2794],[-81.03226,41.2794],[-81.03322,41.2794],[-81.03377,41.2794],[-81.03393,41.2794],[-81.03417,41.27941],[-81.03561,41.27942],[-81.03585,41.27942],[-81.03633,41.27942],[-81.03704,41.27943],[-81.03709,41.27943],[-81.0374,41.27943],[-81.03752,41.27943],[-81.03764,41.27943],[-81.03811,41.27943],[-81.03859,41.27943],[-81.03872,41.27943],[-81.03907,41.27944],[-81.03911,41.27944],[-81.0392,41.27944],[-81.04023,41.27945],[-81.04069,41.27945],[-81.04073,41.27945],[-81.04147,41.27945],[-81.04193,41.27945],[-81.04252,41.27945],[-81.04253,41.27945],[-81.04365,41.27946],[-81.04373,41.27946],[-81.04397,41.27946],[-81.04421,41.27946],[-81.04445,41.27946],[-81.04501,41.27947],[-81.04564,41.27947],[-81.04588,41.27947],[-81.04634,41.27947],[-81.04684,41.27948],[-81.0478,41.27948],[-81.04804,41.27948],[-81.04813,41.27948],[-81.04875,41.2795],[-81.04899,41.27951],[-81.04938,41.27949],[-81.05,41.27949],[-81.05024,41.2795],[-81.05047,41.2795],[-81.05071,41.2795],[-81.05166,41.2795],[-81.05215,41.2795],[-81.05271,41.2795],[-81.05281,41.2795],[-81.05329,41.27951],[-81.05353,41.27951],[-81.05433,41.27952],[-81.05496,41.27952],[-81.05566,41.27953],[-81.05616,41.27953],[-81.05669,41.27953],[-81.05693,41.27954],[-81.05703,41.27954],[-81.05717,41.27954],[-81.05741,41.27954],[-81.0575,41.27954],[-81.05764,41.27955],[-81.05765,41.27955],[-81.05785,41.27954],[-81.05789,41.27954],[-81.05809,41.27954],[-81.05813,41.27954],[-81.05824,41.27954],[-81.05861,41.27954],[-81.05881,41.27954],[-81.05885,41.27954],[-81.05928,41.27954],[-81.06,41.27954],[-81.06024,41.27954],[-81.06168,41.27953],[-81.06192,41.27953],[-81.0624,41.27953],[-81.06347,41.27953],[-81.06389,41.27954],[-81.06405,41.27954],[-81.06467,41.27954],[-81.0654,41.27954],[-81.06584,41.27954],[-81.06632,41.27955],[-81.06643,41.27955],[-81.06656,41.27955],[-81.0668,41.27955],[-81.06691,41.27955],[-81.06703,41.27957],[-81.06721,41.27962],[-81.06744,41.27967],[-81.06761,41.27972],[-81.06789,41.2798],[-81.06829,41.27991],[-81.06834,41.27992],[-81.06868,41.27998],[-81.06944,41.28012],[-81.06962,41.28015],[-81.06978,41.28016],[-81.0699,41.28017],[-81.07013,41.28018],[-81.07057,41.28017],[-81.07062,41.28017],[-81.07064,41.28017],[-81.07254,41.28018],[-81.07272,41.28018],[-81.07328,41.28018],[-81.07392,41.28018],[-81.07397,41.28018],[-81.07416,41.28018],[-81.07487,41.28018],[-81.07493,41.28018],[-81.07541,41.28018],[-81.07559,41.28018],[-81.07565,41.28018],[-81.07583,41.28018],[-81.07643,41.28017],[-81.07767,41.28018],[-81.07804,41.28018],[-81.07823,41.28018],[-81.07828,41.28018],[-81.07852,41.28018],[-81.0791,41.28019],[-81.07924,41.28018],[-81.0793,41.28018],[-81.07946,41.28017],[-81.07955,41.28015],[-81.07955,41.28015],[-81.07963,41.28012],[-81.07968,41.28011],[-81.07981,41.2801],[-81.08035,41.28009],[-81.08056,41.28009],[-81.08079,41.28008],[-81.08098,41.28008],[-81.08103,41.28008],[-81.08162,41.28008],[-81.08199,41.28008],[-81.08223,41.28008],[-81.08302,41.28008],[-81.08391,41.28007],[-81.08425,41.28007],[-81.08438,41.28007],[-81.0851,41.28007],[-81.08534,41.28007],[-81.08535,41.28007],[-81.08629,41.28007],[-81.08774,41.28006],[-81.08845,41.28006],[-81.08851,41.28006],[-81.08873,41.28006],[-81.08886,41.28006],[-81.08898,41.28008],[-81.08898,41.28008],[-81.089,41.2799],[-81.08906,41.27954],[-81.08909,41.27934],[-81.08911,41.27918],[-81.08913,41.279],[-81.08916,41.27883],[-81.08916,41.27883],[-81.08941,41.27883],[-81.08952,41.27883],[-81.08976,41.27882],[-81.0901,41.27883],[-81.09013,41.27884],[-81.09016,41.27885],[-81.09019,41.27886],[-81.09021,41.27887],[-81.09026,41.27892],[-81.09038,41.27904],[-81.09052,41.27919],[-81.09067,41.27934],[-81.0907,41.27935],[-81.09073,41.27936],[-81.09076,41.27936],[-81.0908,41.27937],[-81.09082,41.27937],[-81.09085,41.27936],[-81.09089,41.27936],[-81.09097,41.27933],[-81.09101,41.2793],[-81.09101,41.2793],[-81.09127,41.27914],[-81.09132,41.27909],[-81.09146,41.27897],[-81.09147,41.27897],[-81.09149,41.27895],[-81.0916,41.27888],[-81.09178,41.27875],[-81.09178,41.27875],[-81.09221,41.27914],[-81.09221,41.27914],[-81.09225,41.27911],[-81.09229,41.27908],[-81.09236,41.27901],[-81.09237,41.27901],[-81.09237,41.279],[-81.09238,41.279],[-81.09239,41.279],[-81.09239,41.27901],[-81.0924,41.27901],[-81.09241,41.27901],[-81.09244,41.27904],[-81.09258,41.27913],[-81.09261,41.27915],[-81.09263,41.27915],[-81.09265,41.27915],[-81.09285,41.27917],[-81.09286,41.27917],[-81.09326,41.27922],[-81.09334,41.27923],[-81.09361,41.27927],[-81.09381,41.2793],[-81.09398,41.27933],[-81.09427,41.27938],[-81.09427,41.27938],[-81.09426,41.27942],[-81.09426,41.27943],[-81.09426,41.27945],[-81.09427,41.27945],[-81.09427,41.27946],[-81.09428,41.27946],[-81.09431,41.27947],[-81.09468,41.27955],[-81.09492,41.27961],[-81.09499,41.27963],[-81.09517,41.27969],[-81.09554,41.27981],[-81.09574,41.2799],[-81.09602,41.28003],[-81.09605,41.28005],[-81.09622,41.28014],[-81.09625,41.28015],[-81.09645,41.28026],[-81.09659,41.28035],[-81.0973,41.2808],[-81.09753,41.28096],[-81.09771,41.28108],[-81.09788,41.2812],[-81.09794,41.28124],[-81.09807,41.28132],[-81.09829,41.28145],[-81.09845,41.28153],[-81.09858,41.28159],[-81.09862,41.28161],[-81.09931,41.28182],[-81.09957,41.2819],[-81.0999,41.28199],[-81.10022,41.28204],[-81.10022,41.28204],[-81.10027,41.28205],[-81.10031,41.28204],[-81.10034,41.28204],[-81.1005,41.28197],[-81.10065,41.28192],[-81.10077,41.2819],[-81.1009,41.28189],[-81.10112,41.28188],[-81.10114,41.28188],[-81.10129,41.28187],[-81.10139,41.28189],[-81.10143,41.28189],[-81.10147,41.28191],[-81.10155,41.28196],[-81.10158,41.28197],[-81.10163,41.282],[-81.10167,41.28202],[-81.10171,41.28203],[-81.10179,41.28204],[-81.10198,41.28204],[-81.1021,41.28203],[-81.10229,41.28199],[-81.10254,41.28195],[-81.10278,41.28191],[-81.10292,41.2819],[-81.10301,41.2819],[-81.10309,41.28188],[-81.10324,41.28183],[-81.10341,41.28177],[-81.10363,41.2817],[-81.10364,41.2817],[-81.10383,41.28162],[-81.10406,41.28153],[-81.10454,41.28131],[-81.10488,41.28115],[-81.10492,41.28113],[-81.10537,41.28094],[-81.10562,41.28082],[-81.10617,41.28055],[-81.10693,41.28018],[-81.10797,41.27968],[-81.10813,41.2796],[-81.10934,41.27902],[-81.1094,41.27899],[-81.10954,41.27892],[-81.10995,41.27873],[-81.11031,41.27856],[-81.11056,41.27845],[-81.11118,41.27817],[-81.11124,41.27814],[-81.11138,41.27807],[-81.11178,41.27787],[-81.11229,41.27763],[-81.11238,41.27758],[-81.11276,41.27741],[-81.11279,41.2774],[-81.11316,41.27726],[-81.11344,41.27716],[-81.11358,41.27711],[-81.11366,41.27709],[-81.11388,41.27703],[-81.11393,41.27702],[-81.11431,41.27692],[-81.11434,41.27692],[-81.11492,41.2768],[-81.11503,41.27679],[-81.11556,41.27672],[-81.11623,41.27668],[-81.1167,41.2767],[-81.11676,41.2767],[-81.11722,41.27674],[-81.11765,41.27679],[-81.11781,41.27682],[-81.1184,41.27696],[-81.11886,41.2771],[-81.119,41.27715],[-81.11965,41.27738],[-81.12021,41.27758],[-81.12029,41.27762],[-81.12137,41.27801],[-81.1218,41.27817],[-81.12201,41.27825],[-81.12223,41.27833],[-81.12259,41.27847],[-81.12287,41.27857],[-81.12309,41.27865],[-81.12313,41.27866],[-81.12351,41.27881],[-81.12394,41.27897],[-81.12458,41.27922],[-81.1248,41.2793],[-81.12501,41.27937],[-81.12545,41.27952],[-81.12546,41.27952],[-81.12612,41.27972],[-81.12618,41.27974],[-81.12635,41.27976],[-81.1265,41.27978],[-81.12653,41.27979],[-81.12682,41.27984],[-81.12705,41.27988],[-81.12749,41.27991],[-81.12776,41.27992],[-81.12807,41.27994],[-81.12824,41.27994],[-81.12844,41.27993],[-81.12848,41.27993],[-81.12872,41.27992],[-81.12888,41.27992],[-81.12896,41.27991],[-81.1292,41.27989],[-81.12923,41.27989],[-81.12963,41.27984],[-81.12967,41.27983],[-81.1299,41.27978],[-81.13013,41.27974],[-81.13036,41.27969],[-81.13079,41.27959],[-81.13105,41.27952],[-81.13147,41.27941],[-81.13216,41.27919],[-81.13217,41.27919],[-81.13237,41.27912],[-81.13259,41.27904],[-81.13281,41.27896],[-81.13288,41.27893],[-81.13322,41.27878],[-81.13345,41.27868],[-81.13363,41.2786],[-81.13383,41.2785],[-81.13403,41.2784],[-81.13423,41.27831],[-81.13464,41.27811],[-81.13484,41.27801],[-81.1355,41.27769],[-81.13564,41.27762],[-81.13623,41.27731],[-81.13643,41.27721],[-81.13663,41.27711],[-81.13679,41.27702],[-81.13682,41.27701],[-81.13702,41.27691],[-81.13743,41.27671],[-81.13803,41.27642],[-81.13843,41.27623],[-81.1385,41.27619],[-81.13864,41.27614],[-81.13906,41.27597],[-81.13916,41.27593],[-81.13928,41.27589],[-81.1395,41.27583],[-81.13954,41.27582],[-81.13973,41.27578],[-81.1399,41.27574],[-81.13996,41.27573],[-81.1402,41.2757],[-81.14034,41.27568],[-81.14044,41.27568],[-81.14078,41.27566],[-81.14091,41.27566],[-81.14115,41.27566],[-81.14118,41.27566],[-81.14139,41.27568],[-81.14158,41.2757],[-81.14163,41.27571],[-81.14196,41.27576],[-81.14231,41.27584],[-81.14232,41.27585],[-81.14271,41.27596],[-81.14315,41.27614],[-81.14318,41.27616],[-81.14338,41.27626],[-81.14358,41.27636],[-81.14369,41.27641],[-81.14397,41.27656],[-81.14416,41.27667],[-81.14436,41.27677],[-81.14455,41.27688],[-81.14475,41.27698],[-81.1449,41.27707],[-81.14518,41.27722],[-81.1455,41.27736],[-81.14555,41.27738],[-81.14572,41.27744],[-81.14588,41.27749],[-81.14593,41.27752],[-81.14596,41.27753],[-81.14615,41.27758],[-81.14616,41.27758],[-81.14656,41.27768],[-81.1466,41.27769],[-81.14679,41.27773],[-81.14684,41.27774],[-81.14781,41.27791],[-81.14801,41.27793],[-81.1483,41.27797],[-81.14878,41.27797],[-81.14891,41.27796],[-81.14947,41.27792],[-81.14968,41.27789],[-81.14991,41.27786],[-81.1508,41.27774],[-81.15085,41.27772],[-81.15103,41.27767],[-81.15107,41.27766],[-81.15116,41.27764],[-81.15181,41.27745],[-81.15183,41.27745],[-81.15251,41.27726],[-81.15287,41.27715],[-81.15295,41.27713],[-81.15318,41.27707],[-81.15376,41.2769],[-81.15385,41.27689],[-81.15409,41.27685],[-81.15432,41.27682],[-81.15452,41.27679],[-81.15495,41.27679],[-81.15504,41.27679],[-81.15528,41.2768],[-81.15542,41.2768],[-81.15572,41.27681],[-81.15623,41.27684],[-81.15646,41.27685],[-81.15662,41.27686],[-81.15695,41.27686],[-81.15699,41.27686],[-81.15743,41.27685],[-81.15751,41.27685],[-81.15791,41.27682],[-81.15805,41.27681],[-81.15806,41.27681],[-81.15861,41.27673],[-81.15881,41.27669],[-81.15884,41.27669],[-81.15921,41.2766],[-81.1593,41.27658],[-81.1596,41.27652],[-81.15976,41.27648],[-81.15998,41.27644],[-81.16014,41.27641],[-81.16023,41.2764],[-81.16034,41.27639],[-81.16037,41.27638],[-81.1607,41.27634],[-81.16076,41.27633],[-81.16084,41.27632],[-81.16094,41.27632],[-81.16108,41.27631],[-81.1615,41.27629],[-81.16156,41.27629],[-81.16165,41.27629],[-81.1618,41.27628],[-81.16181,41.27628],[-81.16189,41.27629],[-81.16189,41.27629],[-81.16189,41.27601],[-81.16188,41.27593],[-81.16188,41.27583],[-81.16188,41.27575],[-81.16188,41.27557],[-81.16187,41.27529],[-81.16186,41.275],[-81.16187,41.27485],[-81.16187,41.27479],[-81.16188,41.27461],[-81.16188,41.2745],[-81.16188,41.27449],[-81.16188,41.27443],[-81.16188,41.27425],[-81.16189,41.27397],[-81.16192,41.27338],[-81.16191,41.27314],[-81.16191,41.27278],[-81.1619,41.2726],[-81.1619,41.27242],[-81.1619,41.27224],[-81.1619,41.27188],[-81.1619,41.27154],[-81.1619,41.27137],[-81.1619,41.27119],[-81.1619,41.27117],[-81.1619,41.27083],[-81.16189,41.27048],[-81.16188,41.26958],[-81.16188,41.2694],[-81.16188,41.26931],[-81.16188,41.26922],[-81.16189,41.26904],[-81.1619,41.2685],[-81.16191,41.26814],[-81.1619,41.2676],[-81.16189,41.26724],[-81.16189,41.26688],[-81.16188,41.26634],[-81.16188,41.26616],[-81.16187,41.2658],[-81.16187,41.26567],[-81.16187,41.26544],[-81.16185,41.26436],[-81.16185,41.26418],[-81.16184,41.26378],[-81.16183,41.26319],[-81.16183,41.26301],[-81.16182,41.26258],[-81.16182,41.26229],[-81.16181,41.26121],[-81.16181,41.26041],[-81.1618,41.26013],[-81.1618,41.25995],[-81.1618,41.25977],[-81.16179,41.25959],[-81.16178,41.25905],[-81.16178,41.25842],[-81.16177,41.25806],[-81.16177,41.2577],[-81.16177,41.25769],[-81.16174,41.25655],[-81.16175,41.25611],[-81.16175,41.25449],[-81.16176,41.25391],[-81.16176,41.25377],[-81.16176,41.2536],[-81.16177,41.25289],[-81.16177,41.25251],[-81.16178,41.25197],[-81.16178,41.25142],[-81.16177,41.25035],[-81.16177,41.24999],[-81.16177,41.24945],[-81.16177,41.24939],[-81.16177,41.24876],[-81.16177,41.24759],[-81.16177,41.24684],[-81.16176,41.24613],[-81.16175,41.24558],[-81.16176,41.24548],[-81.16177,41.24487],[-81.16177,41.24486],[-81.16176,41.24469],[-81.16176,41.24464],[-81.16176,41.24433],[-81.16176,41.24415],[-81.16176,41.24379],[-81.16176,41.24361],[-81.16176,41.24354],[-81.16176,41.24345],[-81.16176,41.24343],[-81.16176,41.24333],[-81.16176,41.24325],[-81.16176,41.24311],[-81.16176,41.24283],[-81.16176,41.2428],[-81.16175,41.24247],[-81.16175,41.2424],[-81.16176,41.24229],[-81.16176,41.24198],[-81.16175,41.24153],[-81.16175,41.2413],[-81.16175,41.24084],[-81.16175,41.24019],[-81.16175,41.24008],[-81.16174,41.23947],[-81.16174,41.23927],[-81.16174,41.23879],[-81.16174,41.23861],[-81.16175,41.23817],[-81.16173,41.23789],[-81.16172,41.23721],[-81.16172,41.23717],[-81.16172,41.23699],[-81.16172,41.23681],[-81.16172,41.23667],[-81.16171,41.23613],[-81.16171,41.23609],[-81.1617,41.23591],[-81.16169,41.23555],[-81.16169,41.23537],[-81.16168,41.23508],[-81.16168,41.23454],[-81.16167,41.23398],[-81.16167,41.23393],[-81.16166,41.23305],[-81.16166,41.23285],[-81.16165,41.23274],[-81.16165,41.23266],[-81.16165,41.23249],[-81.16164,41.23222],[-81.16164,41.23177],[-81.16164,41.23159],[-81.16163,41.23093],[-81.16161,41.23039],[-81.16161,41.23033],[-81.16161,41.23015],[-81.16161,41.22997],[-81.16161,41.22944],[-81.16161,41.22926],[-81.16161,41.22878],[-81.16161,41.22792],[-81.16161,41.2277],[-81.16161,41.22752],[-81.16161,41.22711],[-81.16162,41.22662],[-81.16162,41.22657],[-81.16162,41.22644],[-81.16162,41.22577],[-81.16162,41.22541],[-81.16162,41.22521],[-81.16162,41.22456],[-81.16162,41.22421],[-81.16161,41.22387],[-81.16162,41.22372],[-81.16161,41.22361],[-81.16158,41.22349],[-81.16158,41.22349],[-81.16194,41.22322],[-81.16256,41.22275],[-81.1626,41.22272],[-81.16276,41.22259],[-81.16317,41.22229],[-81.16392,41.22171],[-81.16394,41.2217],[-81.16455,41.22123],[-81.16478,41.22106],[-81.16495,41.22093],[-81.1651,41.22082],[-81.16512,41.2208],[-81.16529,41.22068],[-81.16545,41.22055],[-81.16562,41.22042],[-81.16568,41.22037],[-81.16596,41.22017],[-81.166,41.22014],[-81.16613,41.22004],[-81.16633,41.21988],[-81.16646,41.21978],[-81.16669,41.21961],[-81.1668,41.21953],[-81.16697,41.2194],[-81.167,41.21937],[-81.16764,41.21889],[-81.16781,41.21876],[-81.16833,41.21838],[-81.16869,41.21812],[-81.16899,41.21793],[-81.16921,41.21778],[-81.16937,41.21767],[-81.16956,41.21754],[-81.17009,41.21717],[-81.17019,41.21711],[-81.17027,41.21705],[-81.17083,41.21669],[-81.17145,41.21627],[-81.17232,41.21569],[-81.17249,41.21558],[-81.1727,41.21544],[-81.17324,41.21508],[-81.17383,41.21468],[-81.17423,41.21441],[-81.17459,41.21417],[-81.17468,41.21411],[-81.17584,41.21334],[-81.17602,41.21322],[-81.1762,41.21311],[-81.17638,41.21299],[-81.17666,41.2128],[-81.17674,41.21275],[-81.1771,41.21251],[-81.17746,41.21227],[-81.17781,41.21203],[-81.1785,41.21158],[-81.17889,41.21132],[-81.17957,41.21086],[-81.1796,41.21084],[-81.18016,41.21047],[-81.18069,41.21014],[-81.18081,41.21005],[-81.18114,41.20985],[-81.18244,41.20899],[-81.18261,41.20887],[-81.18309,41.20856],[-81.1839,41.20802],[-81.18462,41.20755],[-81.1857,41.20684],[-81.18677,41.20613],[-81.18947,41.20435],[-81.18965,41.20423],[-81.19001,41.20399],[-81.19284,41.20213],[-81.19425,41.20119],[-81.19443,41.20107],[-81.19454,41.20101],[-81.19458,41.20098],[-81.19522,41.20055],[-81.19561,41.20029],[-81.19813,41.19863],[-81.19847,41.19841],[-81.20098,41.19676],[-81.20102,41.19674],[-81.2035,41.1951],[-81.20548,41.1938],[-81.20608,41.1934],[-81.2068,41.19293],[-81.20698,41.19281],[-81.20752,41.19245],[-81.20843,41.19185],[-81.20934,41.19126],[-81.20952,41.19114],[-81.21017,41.19071],[-81.21072,41.19035],[-81.21144,41.18988],[-81.21147,41.18986],[-81.21284,41.18896],[-81.21355,41.1885],[-81.21392,41.18825],[-81.21435,41.18797],[-81.21435,41.18797],[-81.21437,41.18761],[-81.21437,41.18743],[-81.21438,41.18725],[-81.21438,41.18719],[-81.21439,41.18707],[-81.2144,41.18671],[-81.2144,41.18666],[-81.21441,41.18653],[-81.21442,41.18628],[-81.21442,41.18617],[-81.21445,41.18564],[-81.21445,41.18556],[-81.21445,41.18546],[-81.21449,41.18467],[-81.21449,41.18466],[-81.2145,41.18412],[-81.21451,41.18402],[-81.21453,41.1833],[-81.21454,41.18321],[-81.21452,41.18281],[-81.21452,41.18268],[-81.21452,41.18268],[-81.21624,41.18159],[-81.21656,41.18139],[-81.21897,41.17985],[-81.21941,41.17957],[-81.21952,41.1795],[-81.22044,41.17893],[-81.22081,41.1787],[-81.22119,41.17846],[-81.22136,41.17835],[-81.22229,41.17775],[-81.22319,41.17716],[-81.22445,41.17634],[-81.2259,41.1754],[-81.22644,41.17505],[-81.22717,41.17458],[-81.22735,41.17446],[-81.22772,41.17423],[-81.2279,41.17411],[-81.22808,41.174],[-81.22826,41.17388],[-81.22863,41.17365],[-81.22869,41.17361],[-81.22878,41.17355],[-81.22908,41.17335],[-81.22933,41.17319],[-81.22935,41.17318],[-81.22969,41.17295],[-81.23005,41.17272],[-81.23023,41.1726],[-81.23041,41.17249],[-81.2315,41.17178],[-81.23168,41.17167],[-81.23201,41.17145],[-81.23244,41.17123],[-81.23252,41.17123],[-81.23258,41.17118],[-81.23267,41.17111],[-81.23312,41.17083],[-81.23318,41.17079],[-81.23372,41.17044],[-81.23386,41.17035],[-81.23459,41.16988],[-81.23512,41.16953],[-81.23585,41.16907],[-81.23589,41.16905],[-81.23591,41.16904],[-81.23595,41.16902],[-81.236,41.16901],[-81.23602,41.16899],[-81.23605,41.16897],[-81.23655,41.16862],[-81.23704,41.16832],[-81.23772,41.16789],[-81.23869,41.16727],[-81.23899,41.16708],[-81.23906,41.16704],[-81.23978,41.16657],[-81.24046,41.16613],[-81.24145,41.1655],[-81.24178,41.16528],[-81.24195,41.16516],[-81.24259,41.16474],[-81.24267,41.16469],[-81.2429,41.16456],[-81.24326,41.16432],[-81.24344,41.16421],[-81.24382,41.16398],[-81.24409,41.16382],[-81.24439,41.16366],[-81.24459,41.16356],[-81.24472,41.16349],[-81.24525,41.16327],[-81.24542,41.16321],[-81.24554,41.16317],[-81.24603,41.16302],[-81.24678,41.16287],[-81.24699,41.16283],[-81.24766,41.16277],[-81.24836,41.16275],[-81.24868,41.16277],[-81.24877,41.16278],[-81.24891,41.1628],[-81.2491,41.16283],[-81.24942,41.16287],[-81.24961,41.16291],[-81.24972,41.16293],[-81.24982,41.16295],[-81.24994,41.16296],[-81.25035,41.16303],[-81.25054,41.16309],[-81.25082,41.16317],[-81.25142,41.16336],[-81.25155,41.1634],[-81.25242,41.16372],[-81.25293,41.1639],[-81.25309,41.16395],[-81.25332,41.16401],[-81.25375,41.16415],[-81.25505,41.1646],[-81.25568,41.16481],[-81.25592,41.1649],[-81.25616,41.165],[-81.25624,41.16503],[-81.25632,41.16506],[-81.25643,41.16507],[-81.25651,41.16508],[-81.25676,41.16517],[-81.25765,41.16549],[-81.25786,41.16556],[-81.26003,41.16632],[-81.26013,41.16636],[-81.26068,41.16656],[-81.26219,41.16709],[-81.26284,41.16732],[-81.26327,41.16748],[-81.26413,41.16779],[-81.26435,41.16786],[-81.26586,41.1684],[-81.26629,41.16855],[-81.26673,41.16871],[-81.26694,41.16878],[-81.26911,41.16954],[-81.26949,41.16968],[-81.26954,41.16969],[-81.27027,41.16988],[-81.27045,41.16991],[-81.27071,41.16996],[-81.27145,41.17002],[-81.27163,41.17002],[-81.27173,41.17003],[-81.27187,41.17003],[-81.27192,41.17003],[-81.27215,41.17003],[-81.27305,41.16997],[-81.27306,41.16997],[-81.27398,41.1699],[-81.27401,41.1699],[-81.27471,41.16984],[-81.27572,41.16975],[-81.27591,41.16974],[-81.27625,41.16972],[-81.27771,41.1696],[-81.27782,41.1696],[-81.27829,41.16956],[-81.27878,41.16952],[-81.279,41.16951],[-81.27924,41.16949],[-81.27947,41.16947],[-81.27972,41.16945],[-81.28019,41.16941],[-81.28023,41.16941],[-81.28043,41.16939],[-81.28095,41.16935],[-81.28138,41.16931],[-81.28211,41.16925],[-81.28319,41.16918],[-81.28328,41.16917],[-81.28353,41.16915],[-81.28376,41.16913],[-81.28399,41.16911],[-81.28423,41.16909],[-81.28488,41.16903],[-81.28494,41.16903],[-81.28518,41.16902],[-81.2853,41.16901],[-81.28543,41.16901],[-81.28548,41.169],[-81.2862,41.16894],[-81.28643,41.16892],[-81.28666,41.1689],[-81.28667,41.1689],[-81.28691,41.16889],[-81.28769,41.16884],[-81.28854,41.16882],[-81.28858,41.16882],[-81.28906,41.16883],[-81.2893,41.16883],[-81.28977,41.16884],[-81.29038,41.16886],[-81.29097,41.1689],[-81.29141,41.16894],[-81.29168,41.16897],[-81.29234,41.16904],[-81.29239,41.16905],[-81.29301,41.16914],[-81.29356,41.16923],[-81.29379,41.16926],[-81.29473,41.1694],[-81.2952,41.16947],[-81.29551,41.16952],[-81.29567,41.16954],[-81.29637,41.16964],[-81.2966,41.16968],[-81.29684,41.16971],[-81.29731,41.16978],[-81.29801,41.16989],[-81.29848,41.16996],[-81.29871,41.16999],[-81.29942,41.17009],[-81.30012,41.1702],[-81.30223,41.17051],[-81.3027,41.17058],[-81.30291,41.17061],[-81.30387,41.17075],[-81.30411,41.17078],[-81.30528,41.17096],[-81.30575,41.17103],[-81.30607,41.17108],[-81.30622,41.1711],[-81.30716,41.17124],[-81.30809,41.17138],[-81.3081,41.17138],[-81.30833,41.17141],[-81.30856,41.17145],[-81.3088,41.17148],[-81.30903,41.17151],[-81.30987,41.17163],[-81.30997,41.17164],[-81.31045,41.17168],[-81.31063,41.1717],[-81.31085,41.17173],[-81.31115,41.17181],[-81.31132,41.17188],[-81.31142,41.17192],[-81.3115,41.17198],[-81.31157,41.17208],[-81.31159,41.17209],[-81.31163,41.17212],[-81.31177,41.17217],[-81.31202,41.17224],[-81.31206,41.17225],[-81.31225,41.1723],[-81.31246,41.17236],[-81.31258,41.17238],[-81.31272,41.17239],[-81.31272,41.17239],[-81.31274,41.17233],[-81.31275,41.17226],[-81.31276,41.17224],[-81.31277,41.17222],[-81.31283,41.17213],[-81.31287,41.17209],[-81.31287,41.17205],[-81.31286,41.17202],[-81.31283,41.17196],[-81.31279,41.17192],[-81.31279,41.17192],[-81.31284,41.1719],[-81.3129,41.17189],[-81.31301,41.17188],[-81.31342,41.17187],[-81.31349,41.17187],[-81.31373,41.17186],[-81.31441,41.17184],[-81.31487,41.1718],[-81.31551,41.17174],[-81.31605,41.17167],[-81.31704,41.17154],[-81.31732,41.1715],[-81.31751,41.17147],[-81.31775,41.17143],[-81.31821,41.17136],[-81.31839,41.17133],[-81.31845,41.17132],[-81.31891,41.17126],[-81.31892,41.17126],[-81.3196,41.17116],[-81.31962,41.17116],[-81.32015,41.17108],[-81.32057,41.17104],[-81.32104,41.17099],[-81.32117,41.17098],[-81.32159,41.17091],[-81.32265,41.17067],[-81.3227,41.17066],[-81.32288,41.17061],[-81.3236,41.17042],[-81.32404,41.17032],[-81.32404,41.17032],[-81.324,41.17024],[-81.324,41.17024],[-81.32503,41.17],[-81.32914,41.16903],[-81.32943,41.16893],[-81.32992,41.16882],[-81.33074,41.16862],[-81.33241,41.16821],[-81.33448,41.1677],[-81.33471,41.16764],[-81.33577,41.16738],[-81.33697,41.16707],[-81.33834,41.16673],[-81.33922,41.16651],[-81.33933,41.16648],[-81.33939,41.16647],[-81.33944,41.16647],[-81.3395,41.16648],[-81.33954,41.16649],[-81.33962,41.16652],[-81.33999,41.16642],[-81.34017,41.16637],[-81.34036,41.16633],[-81.34084,41.1662],[-81.34087,41.1662],[-81.341,41.16617],[-81.34112,41.16615],[-81.34121,41.16614],[-81.34124,41.16614],[-81.34133,41.16612],[-81.34156,41.16606],[-81.34165,41.16604],[-81.34174,41.16602],[-81.34177,41.16601],[-81.34182,41.166],[-81.34187,41.16599],[-81.34192,41.16598],[-81.34193,41.16598],[-81.342,41.16597],[-81.34207,41.16596],[-81.34235,41.16592],[-81.34239,41.16592],[-81.34251,41.1659],[-81.34263,41.16588],[-81.34276,41.16586],[-81.34291,41.16584],[-81.34303,41.16583],[-81.34309,41.16583],[-81.34311,41.16582],[-81.34321,41.16582],[-81.34334,41.16581],[-81.34343,41.16581],[-81.34353,41.16582],[-81.34376,41.16584],[-81.34425,41.1659],[-81.34499,41.16593],[-81.34507,41.16594],[-81.34523,41.16595],[-81.34547,41.16597],[-81.34554,41.16597],[-81.3461,41.16602],[-81.34618,41.16602],[-81.34641,41.16603],[-81.34666,41.16604],[-81.34668,41.16604],[-81.34715,41.16602],[-81.34733,41.16604],[-81.34738,41.16604],[-81.34744,41.16606],[-81.34751,41.16608],[-81.34759,41.16609],[-81.34765,41.16609],[-81.34771,41.16609],[-81.34782,41.16608],[-81.34811,41.16603],[-81.34829,41.166],[-81.3483,41.16599],[-81.34849,41.16596],[-81.34858,41.16594],[-81.34866,41.16592],[-81.34876,41.16589],[-81.34879,41.16588],[-81.34895,41.16582],[-81.34907,41.16577],[-81.34919,41.16573],[-81.3493,41.16568],[-81.34954,41.16557],[-81.3496,41.16554],[-81.34967,41.16551],[-81.3497,41.1655],[-81.34978,41.16546],[-81.3498,41.16544],[-81.34991,41.16538],[-81.34998,41.16533],[-81.35022,41.16518],[-81.35104,41.16472],[-81.35115,41.16466],[-81.35125,41.1646],[-81.35155,41.1644],[-81.35173,41.16429],[-81.35186,41.16421],[-81.35189,41.16419],[-81.35207,41.16409],[-81.35238,41.16391],[-81.35256,41.16381],[-81.35319,41.16346],[-81.35333,41.16338],[-81.35339,41.16336],[-81.35359,41.16326],[-81.3541,41.16299],[-81.35419,41.16294],[-81.35427,41.16285],[-81.35432,41.16281],[-81.35432,41.1628],[-81.35435,41.16278],[-81.35437,41.16277],[-81.35439,41.16276],[-81.35441,41.16275],[-81.35445,41.16274],[-81.3545,41.16272],[-81.35472,41.16264],[-81.35484,41.1626],[-81.35498,41.16254],[-81.35522,41.16244],[-81.35558,41.16226],[-81.35576,41.16217],[-81.35596,41.16205],[-81.35616,41.16193],[-81.35632,41.16183],[-81.3565,41.16171],[-81.35668,41.16158],[-81.35682,41.16147],[-81.35701,41.16131],[-81.35737,41.16096],[-81.35768,41.16061],[-81.35797,41.1602],[-81.35816,41.15989],[-81.35827,41.15965],[-81.35829,41.15961],[-81.35835,41.15946],[-81.35842,41.15925],[-81.35846,41.15909],[-81.3585,41.15888],[-81.35854,41.15875],[-81.35855,41.15874],[-81.35856,41.15873],[-81.35857,41.15872],[-81.35858,41.15871],[-81.35872,41.15874],[-81.35884,41.15877],[-81.35944,41.15886],[-81.35944,41.15886],[-81.35952,41.15871],[-81.35952,41.15871],[-81.35963,41.15871],[-81.3597,41.15868],[-81.35973,41.15864],[-81.35978,41.15857],[-81.35996,41.15849],[-81.35996,41.15849],[-81.35974,41.15843],[-81.35955,41.15838],[-81.35951,41.15837],[-81.35937,41.15834],[-81.35915,41.15828],[-81.35914,41.15828],[-81.35892,41.15822],[-81.35853,41.15812],[-81.3581,41.15804],[-81.3581,41.15804],[-81.35812,41.15856],[-81.3581,41.15863],[-81.35807,41.15868],[-81.35802,41.15871],[-81.35802,41.15871],[-81.35793,41.1588],[-81.35792,41.15881],[-81.3579,41.15883],[-81.35786,41.15885],[-81.35783,41.15886],[-81.35778,41.15888],[-81.35755,41.15895],[-81.35749,41.15897],[-81.35737,41.159]]}},{"type":"Feature","properties":{"_gpxType":"trk","name":"Paradise Lakes Family Campground, Housel Craft Road, Bristolville, OH - Hurd's Store, Ohio 305, Southington, OH - Kent Cycle, Lake Street, Kent, OH - 3892 Lake Run Boulevard, Stow, OH","coordinateProperties":{},"id":5},"geometry":{"type":"LineString","coordinates":[[-81.35737,41.159],[-81.35749,41.15897],[-81.35755,41.15895],[-81.35778,41.15888],[-81.35783,41.15886],[-81.35786,41.15885],[-81.3579,41.15883],[-81.35792,41.15881],[-81.35793,41.1588],[-81.35802,41.15871],[-81.35802,41.15871],[-81.35807,41.15868],[-81.3581,41.15863],[-81.35812,41.15856],[-81.3581,41.15804],[-81.3581,41.15804],[-81.35853,41.15812],[-81.35892,41.15822],[-81.35914,41.15828],[-81.35915,41.15828],[-81.35937,41.15834],[-81.35951,41.15837],[-81.35955,41.15838],[-81.35974,41.15843],[-81.35996,41.15849],[-81.3603,41.15859],[-81.36075,41.15873],[-81.3612,41.15887],[-81.36183,41.15908],[-81.36211,41.15918],[-81.36255,41.15932],[-81.36276,41.1594],[-81.3633,41.15958],[-81.36352,41.15966],[-81.36395,41.1598],[-81.36448,41.15999],[-81.36491,41.16015],[-81.36537,41.16031],[-81.36541,41.16032],[-81.36601,41.16054],[-81.36687,41.16086],[-81.36718,41.16098],[-81.36753,41.1611],[-81.36819,41.16133],[-81.3689,41.16157],[-81.36897,41.1616],[-81.36913,41.16165],[-81.36933,41.16172],[-81.37022,41.16203],[-81.37064,41.16217],[-81.37065,41.16218],[-81.37086,41.16225],[-81.37087,41.16225],[-81.3713,41.1624],[-81.37151,41.16247],[-81.37165,41.16252],[-81.37208,41.16268],[-81.3728,41.16291],[-81.37366,41.16322],[-81.37373,41.16324],[-81.37415,41.16338],[-81.37453,41.16351],[-81.37481,41.16361],[-81.37502,41.16368],[-81.37522,41.16375],[-81.37524,41.16376],[-81.37571,41.16391],[-81.37581,41.16397],[-81.37614,41.16409],[-81.37624,41.16412],[-81.37641,41.16418],[-81.3767,41.16428],[-81.37682,41.16432],[-81.37695,41.16436],[-81.37702,41.16439],[-81.37711,41.16441],[-81.37721,41.16444],[-81.37727,41.16445],[-81.37738,41.16447],[-81.37746,41.16448],[-81.37754,41.16449],[-81.37761,41.16449],[-81.3777,41.16449],[-81.3778,41.16449],[-81.3779,41.16448],[-81.37792,41.16448],[-81.37801,41.16446],[-81.37847,41.16443],[-81.37894,41.16441],[-81.37913,41.16439],[-81.37937,41.16438],[-81.37952,41.16436],[-81.37968,41.16435],[-81.37998,41.16432],[-81.38004,41.16431],[-81.38015,41.16429],[-81.38029,41.16428],[-81.38045,41.16426],[-81.38074,41.16423],[-81.38102,41.16421],[-81.38128,41.1642],[-81.38154,41.1642],[-81.38175,41.1642],[-81.38191,41.16422],[-81.38201,41.16422],[-81.38214,41.16424],[-81.3823,41.16426],[-81.38242,41.16428],[-81.38274,41.16434],[-81.3833,41.16445],[-81.38384,41.16456],[-81.38403,41.1646],[-81.38518,41.16483],[-81.38553,41.1649],[-81.38569,41.16493],[-81.38588,41.16497],[-81.38627,41.16505],[-81.38655,41.1651],[-81.38688,41.16517],[-81.38716,41.16523],[-81.38757,41.16531],[-81.3878,41.16536],[-81.38791,41.16538],[-81.38873,41.16554],[-81.38892,41.16558],[-81.3897,41.16574],[-81.39017,41.16583],[-81.39063,41.16592],[-81.39096,41.16599],[-81.39201,41.1662],[-81.39215,41.16622],[-81.39234,41.16624],[-81.39234,41.16624],[-81.39257,41.16625],[-81.39352,41.16626],[-81.39413,41.16627],[-81.39511,41.16629],[-81.39524,41.1663],[-81.39542,41.1663],[-81.39661,41.16632],[-81.39685,41.16632],[-81.39733,41.16633],[-81.39764,41.16633],[-81.39796,41.16634],[-81.3982,41.16634],[-81.39916,41.16636],[-81.3994,41.16637],[-81.40056,41.16639],[-81.40065,41.16639],[-81.40224,41.16643],[-81.40259,41.16644],[-81.40284,41.16645],[-81.4029,41.16646],[-81.40294,41.16647],[-81.40299,41.16648],[-81.40306,41.16649],[-81.4037,41.16651],[-81.4041,41.16652],[-81.40446,41.16653],[-81.40495,41.16654],[-81.40538,41.16655],[-81.40568,41.16656],[-81.40612,41.16657],[-81.40654,41.16657],[-81.40656,41.16657],[-81.4071,41.16657],[-81.40755,41.16657],[-81.4078,41.16657],[-81.40787,41.16658],[-81.40788,41.16658],[-81.4079,41.16657],[-81.40795,41.16656],[-81.4081,41.16656],[-81.40852,41.16656],[-81.40898,41.16657],[-81.40968,41.16659],[-81.40971,41.16659],[-81.41003,41.1666],[-81.41042,41.1666],[-81.41073,41.16661],[-81.4111,41.16662],[-81.4111,41.16662],[-81.41109,41.1665],[-81.41109,41.16644],[-81.41109,41.16629],[-81.41109,41.16626],[-81.4111,41.16618],[-81.41113,41.16607],[-81.4112,41.16596],[-81.41129,41.16584],[-81.41137,41.16575],[-81.41146,41.16569],[-81.4117,41.16552],[-81.41173,41.16549],[-81.41182,41.1654],[-81.41192,41.1653],[-81.41196,41.16523],[-81.41201,41.1651],[-81.41202,41.165],[-81.41203,41.16484],[-81.41202,41.16476]]}}]}