{"type":"FeatureCollection","features":[{"type":"Feature","properties":{"_gpxType":"trk","name":"Zion Lutheran Church, North Washington Street, Hutchinson, KS - Nickerson, KS - NE 140th St - Super 8 by Wyndham Great Bend, 911 Grant St, Great Bend, KS 67530","coordinateProperties":{},"id":50},"geometry":{"type":"LineString","coordinates":[[-97.93391,38.0647],[-97.93392,38.06501],[-97.93392,38.06501],[-97.93516,38.06501],[-97.93547,38.06501],[-97.93592,38.06501],[-97.9374,38.06501],[-97.93745,38.06501],[-97.93912,38.06501],[-97.93993,38.06501],[-97.94062,38.06501],[-97.942,38.065],[-97.94378,38.06501],[-97.94557,38.065],[-97.94583,38.065],[-97.94716,38.065],[-97.94841,38.06499],[-97.94905,38.06499],[-97.94933,38.06499],[-97.9494,38.06499],[-97.9495,38.06499],[-97.9496,38.065],[-97.94972,38.065],[-97.94995,38.065],[-97.94997,38.065],[-97.95044,38.065],[-97.95134,38.06499],[-97.95223,38.06498],[-97.95382,38.06499],[-97.95434,38.06498],[-97.95551,38.06498],[-97.95569,38.06498],[-97.95653,38.06497],[-97.95776,38.06497],[-97.95817,38.06497],[-97.95832,38.06497],[-97.95893,38.06496],[-97.95893,38.06496],[-97.95893,38.0647],[-97.95894,38.06431],[-97.95892,38.06401],[-97.95892,38.06386],[-97.95892,38.0638],[-97.95892,38.0637],[-97.95892,38.06357],[-97.95893,38.06352],[-97.95893,38.06347],[-97.95896,38.06339],[-97.95902,38.06327],[-97.9591,38.06306],[-97.9591,38.06306],[-97.95967,38.06337],[-97.96233,38.06475],[-97.96281,38.06504],[-97.96327,38.06531],[-97.96433,38.06595],[-97.96501,38.06636],[-97.96563,38.06676],[-97.966,38.06699],[-97.96606,38.06703],[-97.96641,38.06725],[-97.96673,38.06747],[-97.96675,38.06749],[-97.96737,38.06791],[-97.96809,38.0684],[-97.96839,38.0686],[-97.96978,38.06953],[-97.97065,38.07011],[-97.97262,38.07149],[-97.9728,38.07162],[-97.97314,38.07184],[-97.97491,38.07304],[-97.97546,38.07342],[-97.97655,38.07417],[-97.97739,38.07475],[-97.97799,38.07515],[-97.97858,38.07556],[-97.97963,38.07626],[-97.98188,38.07778],[-97.98205,38.0779],[-97.98272,38.07833],[-97.98322,38.07868],[-97.98361,38.07897],[-97.98376,38.07909],[-97.98404,38.07928],[-97.98441,38.07953],[-97.98546,38.08027],[-97.98659,38.08103],[-97.98705,38.08135],[-97.98791,38.08192],[-97.98961,38.08307],[-97.98966,38.08311],[-97.99085,38.08391],[-97.99103,38.08403],[-97.99328,38.08555],[-97.99347,38.08568],[-97.99387,38.08595],[-97.99398,38.08602],[-97.99467,38.08649],[-97.99655,38.08775],[-97.99701,38.08809],[-97.99728,38.08828],[-97.9973,38.0883],[-97.9975,38.08848],[-97.99774,38.08881],[-97.99784,38.08902],[-97.99788,38.08915],[-97.99795,38.0894],[-97.99795,38.0894],[-97.99788,38.08968],[-97.99781,38.09006],[-97.99748,38.09066],[-97.99721,38.09123],[-97.99719,38.09127],[-97.99713,38.0914],[-97.99707,38.09154],[-97.997,38.09167],[-97.99692,38.09184],[-97.99692,38.09185],[-97.99685,38.09201],[-97.99679,38.09216],[-97.99669,38.09247],[-97.99663,38.09274],[-97.99663,38.09274],[-97.99688,38.09281],[-97.9972,38.09291],[-97.9975,38.09301],[-97.99762,38.09305],[-97.99867,38.0934],[-97.99903,38.09353],[-97.99977,38.09377],[-98.00015,38.0939],[-98.00031,38.09396],[-98.00035,38.09397],[-98.00047,38.09402],[-98.0007,38.09413],[-98.00077,38.09416],[-98.00088,38.09422],[-98.00105,38.0943],[-98.00115,38.09431],[-98.00122,38.09435],[-98.00129,38.09441],[-98.00135,38.09444],[-98.00145,38.09452],[-98.00163,38.09464],[-98.00171,38.0947],[-98.00181,38.09477],[-98.00193,38.09485],[-98.00203,38.09491],[-98.0026,38.09531],[-98.00283,38.09547],[-98.00339,38.09583],[-98.00435,38.09648],[-98.00506,38.09695],[-98.00533,38.09714],[-98.00587,38.0975],[-98.00612,38.09766],[-98.00741,38.09855],[-98.00768,38.09873],[-98.00792,38.0989],[-98.00817,38.09906],[-98.00827,38.09913],[-98.00833,38.09917],[-98.00845,38.09924],[-98.00851,38.09928],[-98.00863,38.09937],[-98.00882,38.09948],[-98.00899,38.0996],[-98.00927,38.09976],[-98.00956,38.09994],[-98.01006,38.10025],[-98.01055,38.10052],[-98.0106,38.10054],[-98.01079,38.10065],[-98.0108,38.10065],[-98.01105,38.10079],[-98.01132,38.10093],[-98.01163,38.10109],[-98.01205,38.10131],[-98.01279,38.10168],[-98.0129,38.10172],[-98.01291,38.10173],[-98.0131,38.10181],[-98.01335,38.10191],[-98.01405,38.10224],[-98.0145,38.10244],[-98.01471,38.10253],[-98.01473,38.10254],[-98.01493,38.10263],[-98.01549,38.10286],[-98.01628,38.10322],[-98.01648,38.10331],[-98.01668,38.10339],[-98.01738,38.1037],[-98.01808,38.10399],[-98.01829,38.10408],[-98.01849,38.10416],[-98.01869,38.10425],[-98.01929,38.10451],[-98.01937,38.10454],[-98.01988,38.10478],[-98.02008,38.10487],[-98.02011,38.10488],[-98.02027,38.10497],[-98.02047,38.10506],[-98.02066,38.10516],[-98.02083,38.10524],[-98.02123,38.10546],[-98.02144,38.10557],[-98.02161,38.10566],[-98.0222,38.10599],[-98.02299,38.10649],[-98.02341,38.10678],[-98.02357,38.1069],[-98.02422,38.10739],[-98.02459,38.10768],[-98.02471,38.10778],[-98.0249,38.10793],[-98.02548,38.10844],[-98.02564,38.10857],[-98.02573,38.10865],[-98.02597,38.1089],[-98.02636,38.1093],[-98.02679,38.10981],[-98.02728,38.11038],[-98.02745,38.11065],[-98.02745,38.11065],[-98.02771,38.11115],[-98.02788,38.11149],[-98.02817,38.11215],[-98.02817,38.11216],[-98.02822,38.11234],[-98.02833,38.11269],[-98.02838,38.11287],[-98.02842,38.11302],[-98.02842,38.11304],[-98.02848,38.11358],[-98.0285,38.11374],[-98.02851,38.11427],[-98.0285,38.11466],[-98.02849,38.11515],[-98.0285,38.11522],[-98.02852,38.1153],[-98.02852,38.1153],[-98.02883,38.11531],[-98.029,38.11531],[-98.02974,38.11533],[-98.0302,38.11534],[-98.03049,38.11534],[-98.03101,38.11535],[-98.03203,38.11537],[-98.03247,38.11538],[-98.03364,38.1154],[-98.03513,38.11542],[-98.03542,38.11543],[-98.03574,38.11543],[-98.03622,38.11544],[-98.03659,38.11545],[-98.03665,38.11545],[-98.03672,38.11544],[-98.03677,38.11543],[-98.03687,38.11539],[-98.03687,38.11539],[-98.03708,38.11553],[-98.03778,38.11601],[-98.0379,38.11609],[-98.03835,38.11641],[-98.04372,38.12007],[-98.05029,38.12454],[-98.05857,38.13019],[-98.06307,38.13325],[-98.06583,38.13513],[-98.06601,38.13525],[-98.06891,38.13723],[-98.07357,38.14041],[-98.07357,38.14041],[-98.07443,38.14099],[-98.07642,38.14236],[-98.07802,38.14346],[-98.0784,38.14371],[-98.07925,38.14429],[-98.07965,38.14456],[-98.08032,38.14502],[-98.08131,38.14569],[-98.08234,38.14638],[-98.08291,38.14677],[-98.08325,38.147],[-98.08336,38.14708],[-98.08364,38.14726]]}},{"type":"Feature","properties":{"_gpxType":"trk","name":"Zion Lutheran Church, North Washington Street, Hutchinson, KS - Nickerson, KS - NE 140th St - Super 8 by Wyndham Great Bend, 911 Grant St, Great Bend, KS 67530","coordinateProperties":{},"id":50},"geometry":{"type":"LineString","coordinates":[[-98.08364,38.14726],[-98.08336,38.14708],[-98.08325,38.147],[-98.08291,38.14677],[-98.08234,38.14638],[-98.08234,38.14638],[-98.0826,38.14616],[-98.0829,38.14588],[-98.083,38.14579],[-98.08328,38.14554],[-98.08385,38.14501],[-98.08394,38.14493],[-98.08433,38.14457],[-98.08464,38.14429],[-98.08477,38.14417],[-98.08507,38.1439],[-98.08564,38.14338],[-98.08564,38.14338],[-98.08667,38.14408],[-98.08721,38.14445],[-98.08741,38.14459],[-98.08746,38.14462],[-98.0875,38.14465],[-98.08754,38.14467],[-98.08758,38.14468],[-98.08768,38.14471],[-98.08768,38.14471],[-98.08775,38.14471],[-98.0878,38.14472],[-98.08822,38.14472],[-98.08937,38.14473],[-98.08959,38.14473],[-98.0917,38.14473],[-98.09195,38.14473],[-98.09246,38.14472],[-98.09301,38.14473],[-98.09463,38.14473],[-98.09662,38.14473],[-98.09772,38.14473],[-98.10171,38.14473],[-98.10332,38.14473],[-98.10554,38.14474],[-98.10852,38.14475],[-98.11118,38.14476],[-98.1116,38.14476],[-98.11199,38.14477],[-98.11473,38.14478],[-98.11538,38.14478],[-98.11623,38.14479],[-98.11735,38.14479],[-98.11813,38.14479],[-98.11858,38.14479],[-98.11863,38.14479],[-98.12087,38.1448],[-98.1211,38.1448],[-98.12453,38.14481],[-98.12921,38.14482],[-98.13374,38.14483],[-98.13635,38.14483],[-98.13818,38.14483],[-98.1384,38.14483],[-98.13954,38.14483],[-98.14069,38.14483],[-98.14196,38.14483],[-98.14229,38.14484],[-98.14358,38.14484],[-98.14376,38.14484],[-98.14452,38.14485],[-98.14505,38.14485],[-98.14726,38.14486],[-98.14863,38.14487],[-98.14913,38.14488],[-98.15,38.14488],[-98.15023,38.14488],[-98.15027,38.14488],[-98.15092,38.14488],[-98.15133,38.14489],[-98.1516,38.14489],[-98.15259,38.14489],[-98.15389,38.1449],[-98.154,38.1449],[-98.15492,38.1449],[-98.15526,38.1449],[-98.15636,38.1449],[-98.15641,38.1449],[-98.15709,38.14491],[-98.15716,38.14491],[-98.15793,38.14491],[-98.15937,38.14491],[-98.15938,38.14491],[-98.16034,38.14491],[-98.16075,38.14491],[-98.16104,38.14491],[-98.16172,38.1449],[-98.16236,38.14489],[-98.16257,38.14489],[-98.16266,38.14488],[-98.1628,38.14488],[-98.1642,38.14486],[-98.16501,38.14485],[-98.16532,38.14484],[-98.1655,38.14484],[-98.1659,38.14483],[-98.16666,38.14482],[-98.16737,38.14481],[-98.16741,38.14481],[-98.16809,38.14479],[-98.16886,38.14478],[-98.16966,38.14477],[-98.16989,38.14476],[-98.17123,38.14474],[-98.17213,38.14472],[-98.17263,38.14471],[-98.17358,38.1447],[-98.1751,38.14466],[-98.17515,38.14466],[-98.17523,38.14466],[-98.17543,38.14466],[-98.17618,38.14464],[-98.17683,38.14463],[-98.17695,38.14462],[-98.17775,38.14462],[-98.17825,38.14461],[-98.17908,38.1446],[-98.17973,38.14459],[-98.18006,38.14459],[-98.18027,38.14459],[-98.18062,38.14458],[-98.18081,38.14458],[-98.18107,38.14458],[-98.18154,38.14458],[-98.18234,38.14458],[-98.18246,38.14458],[-98.18268,38.14458],[-98.18338,38.14458],[-98.18385,38.14458],[-98.18477,38.14457],[-98.18497,38.14457],[-98.18498,38.14457],[-98.1853,38.14457],[-98.18549,38.14457],[-98.18579,38.14457],[-98.18588,38.14457],[-98.18612,38.14457],[-98.18625,38.14457],[-98.18649,38.14457],[-98.18672,38.14456],[-98.18678,38.14456],[-98.1868,38.14456],[-98.18681,38.14456],[-98.18729,38.14456],[-98.1874,38.14456],[-98.18809,38.14456],[-98.18868,38.14456],[-98.18878,38.14456],[-98.18907,38.14456],[-98.18923,38.14456],[-98.18936,38.14456],[-98.18959,38.14456],[-98.18979,38.14456],[-98.19046,38.14456],[-98.19074,38.14456],[-98.19083,38.14456],[-98.19096,38.14456],[-98.19119,38.14456],[-98.19256,38.14456],[-98.19279,38.14456],[-98.19325,38.14456],[-98.19348,38.14456],[-98.19426,38.14456],[-98.19485,38.14456],[-98.19539,38.14456],[-98.19609,38.14455],[-98.19622,38.14455],[-98.19627,38.14455],[-98.19655,38.14455],[-98.19722,38.14455],[-98.19749,38.14455],[-98.1978,38.14455],[-98.19829,38.14455],[-98.19856,38.14456],[-98.19874,38.14457],[-98.19888,38.14458],[-98.19903,38.14459],[-98.19919,38.14461],[-98.19928,38.14462],[-98.1994,38.14464],[-98.19959,38.14467],[-98.19971,38.1447],[-98.1999,38.14474],[-98.20011,38.1448],[-98.2003,38.14485],[-98.2003,38.14485],[-98.20058,38.14496],[-98.20074,38.14502],[-98.20087,38.14508],[-98.20096,38.14512],[-98.20102,38.14515],[-98.20113,38.1452],[-98.20126,38.14527],[-98.20144,38.14538],[-98.20159,38.14548],[-98.20171,38.14555],[-98.20181,38.14563],[-98.20195,38.14573],[-98.20205,38.14582],[-98.20212,38.14587],[-98.20218,38.14593],[-98.20229,38.14604],[-98.20238,38.14613],[-98.20243,38.14618],[-98.20247,38.14623],[-98.20258,38.14635],[-98.2027,38.14651],[-98.20277,38.1466],[-98.20282,38.14669],[-98.20286,38.14675],[-98.20293,38.14686],[-98.20296,38.14691],[-98.20303,38.14705],[-98.20307,38.14713],[-98.20311,38.1472],[-98.20312,38.14724],[-98.20316,38.14733],[-98.20323,38.1475],[-98.20343,38.14799],[-98.20372,38.14875],[-98.20396,38.14937],[-98.20404,38.14959],[-98.20408,38.14969],[-98.20437,38.15044],[-98.20448,38.15072],[-98.20462,38.15105],[-98.20475,38.15141],[-98.20482,38.15157],[-98.20489,38.15176],[-98.20506,38.15218],[-98.20512,38.15235],[-98.20562,38.15365],[-98.20573,38.15391],[-98.20586,38.15426],[-98.20599,38.15459],[-98.20607,38.15484],[-98.20621,38.15529],[-98.20631,38.15564],[-98.20632,38.1557],[-98.20639,38.15599],[-98.20645,38.15625],[-98.20649,38.15643],[-98.20655,38.15675],[-98.20659,38.15699],[-98.20662,38.15719],[-98.20665,38.15751],[-98.20667,38.1577],[-98.20668,38.15788],[-98.20672,38.15852],[-98.20672,38.15891],[-98.20672,38.15913],[-98.20672,38.1604],[-98.20672,38.16143],[-98.20672,38.16273],[-98.20672,38.16323],[-98.20672,38.16341],[-98.20672,38.16363],[-98.20672,38.16413],[-98.20672,38.16431],[-98.20672,38.16443],[-98.20672,38.16449],[-98.20672,38.16503],[-98.20672,38.16524],[-98.20672,38.16625],[-98.20672,38.16625],[-98.2071,38.16625],[-98.20759,38.16624],[-98.20836,38.16623],[-98.20897,38.16623],[-98.20963,38.16622],[-98.20996,38.16621],[-98.21061,38.1662],[-98.2116,38.16619],[-98.21198,38.16618],[-98.21267,38.16616],[-98.21351,38.16615],[-98.21425,38.16613],[-98.21489,38.16612],[-98.21567,38.16611],[-98.21577,38.16611],[-98.2161,38.1661],[-98.21715,38.16609],[-98.21753,38.16609],[-98.21915,38.16606],[-98.2203,38.16605],[-98.22132,38.16604],[-98.2247,38.166],[-98.22768,38.16596],[-98.22974,38.16593],[-98.23235,38.1659],[-98.23307,38.16589],[-98.2333,38.16588],[-98.2334,38.16587],[-98.23351,38.16584],[-98.23373,38.16578],[-98.23387,38.16572],[-98.23401,38.16564],[-98.23401,38.16564],[-98.23403,38.16563],[-98.23405,38.16561],[-98.23407,38.1656],[-98.23409,38.16558],[-98.23411,38.16557],[-98.23413,38.16555],[-98.23415,38.16553],[-98.23417,38.16552],[-98.23419,38.1655],[-98.2342,38.16548],[-98.23422,38.16546],[-98.23424,38.16545],[-98.23425,38.16543],[-98.23427,38.16541],[-98.23428,38.16539],[-98.2343,38.16537],[-98.23439,38.16525],[-98.23443,38.16518],[-98.23448,38.16508],[-98.23448,38.16506],[-98.23451,38.16495],[-98.23452,38.16491],[-98.23454,38.16467],[-98.23455,38.16416],[-98.23455,38.16398],[-98.23455,38.16385],[-98.23456,38.1629],[-98.23456,38.16259],[-98.23456,38.16254],[-98.23457,38.16128],[-98.23457,38.16104],[-98.23459,38.15984],[-98.23459,38.15977],[-98.23461,38.15951],[-98.23466,38.15937],[-98.23472,38.15924],[-98.23478,38.15915],[-98.2349,38.159],[-98.2349,38.159],[-98.2351,38.15886],[-98.2352,38.1588],[-98.23534,38.15873],[-98.23546,38.15868],[-98.2356,38.15864],[-98.23568,38.15862],[-98.2358,38.1586],[-98.23606,38.15858],[-98.23614,38.15857],[-98.23628,38.15857],[-98.23659,38.15857],[-98.23697,38.15857],[-98.2372,38.15857],[-98.23814,38.15857],[-98.23961,38.15856],[-98.24086,38.15856],[-98.24101,38.15855],[-98.24109,38.15855],[-98.24132,38.15855],[-98.24248,38.15854],[-98.24292,38.15854],[-98.24311,38.15854],[-98.2436,38.15855],[-98.24372,38.15855],[-98.24406,38.15856],[-98.24454,38.15857],[-98.24543,38.15861],[-98.24566,38.15863],[-98.24612,38.15865],[-98.2468,38.15869],[-98.24726,38.15871],[-98.24794,38.15875],[-98.24863,38.15878],[-98.25,38.15885],[-98.25023,38.15886],[-98.25159,38.15893],[-98.25222,38.15897],[-98.25284,38.15897],[-98.25307,38.15897],[-98.25627,38.15898],[-98.2565,38.15898],[-98.25902,38.15899],[-98.25925,38.15899],[-98.26085,38.159],[-98.26176,38.159],[-98.26199,38.159],[-98.26405,38.15901],[-98.26428,38.15901],[-98.26497,38.15901],[-98.2652,38.15901],[-98.27069,38.15903],[-98.27145,38.15903],[-98.2715,38.15903],[-98.27168,38.15903],[-98.27172,38.15903],[-98.27287,38.15903],[-98.27378,38.15903],[-98.27397,38.15904],[-98.27431,38.15904],[-98.27442,38.15904],[-98.27538,38.15904],[-98.27625,38.15904],[-98.27671,38.15904],[-98.27691,38.15904],[-98.27717,38.15904],[-98.2774,38.15904],[-98.27763,38.15904],[-98.27922,38.15904],[-98.28037,38.15904],[-98.28106,38.15904],[-98.28127,38.15904],[-98.2822,38.15904],[-98.28243,38.15904],[-98.28335,38.15904],[-98.28357,38.15904],[-98.28472,38.15904],[-98.28506,38.15904],[-98.28655,38.15905],[-98.28678,38.15905],[-98.28723,38.15905],[-98.28731,38.15905],[-98.28746,38.15905],[-98.28906,38.15905],[-98.28948,38.15904],[-98.29165,38.15903],[-98.29203,38.15902],[-98.2921,38.15902],[-98.29371,38.15901],[-98.29439,38.159],[-98.29508,38.159],[-98.29568,38.15899],[-98.29759,38.15897],[-98.30057,38.15895],[-98.30125,38.15894],[-98.30148,38.15894],[-98.304,38.15892],[-98.30423,38.15891],[-98.30539,38.1589],[-98.30743,38.15888],[-98.30959,38.15888],[-98.31024,38.15887],[-98.31668,38.15887],[-98.31737,38.15886],[-98.3192,38.15886],[-98.31966,38.15886],[-98.31988,38.15886],[-98.32308,38.15886],[-98.32568,38.15886],[-98.32583,38.15886],[-98.32603,38.15886],[-98.32835,38.15889],[-98.3305,38.1589],[-98.33086,38.15891],[-98.33178,38.15892],[-98.3331,38.15893],[-98.33315,38.15893],[-98.33338,38.15893],[-98.33544,38.15895],[-98.33582,38.15895],[-98.33818,38.15896],[-98.33956,38.15897],[-98.34106,38.15897],[-98.34161,38.15897],[-98.34207,38.15898],[-98.34404,38.15898],[-98.34417,38.15898],[-98.3443,38.15898],[-98.34669,38.159],[-98.34829,38.15902],[-98.35038,38.15903],[-98.3524,38.15905],[-98.35241,38.15905],[-98.35295,38.15905],[-98.35361,38.15906],[-98.35391,38.15906],[-98.35443,38.15906],[-98.35531,38.15907],[-98.35584,38.15907],[-98.35679,38.15908],[-98.35784,38.15908],[-98.35857,38.15909],[-98.35924,38.15909],[-98.36005,38.1591],[-98.36253,38.15911],[-98.364,38.1591],[-98.36436,38.1591],[-98.36525,38.1591],[-98.36596,38.15909],[-98.36604,38.15909],[-98.36728,38.15908],[-98.36756,38.15908],[-98.36779,38.15908],[-98.3683,38.15907],[-98.36906,38.15906],[-98.36916,38.15906],[-98.36962,38.15906],[-98.37086,38.15905],[-98.37099,38.15905],[-98.37122,38.15904],[-98.37174,38.15904],[-98.37208,38.15904],[-98.37357,38.15902],[-98.37382,38.15902],[-98.37478,38.15902],[-98.3753,38.15901],[-98.37605,38.15901],[-98.37609,38.15901],[-98.37632,38.159],[-98.37702,38.159],[-98.37792,38.15899],[-98.37814,38.15899],[-98.37928,38.15898],[-98.37999,38.15898],[-98.38079,38.15897],[-98.38112,38.15897],[-98.38178,38.15896],[-98.38272,38.15895],[-98.3828,38.15895],[-98.38382,38.15894],[-98.38464,38.15893],[-98.38501,38.15892],[-98.38573,38.15892],[-98.38639,38.15891],[-98.38661,38.1589],[-98.3871,38.1589],[-98.38818,38.15889],[-98.38934,38.15888],[-98.39066,38.15886],[-98.39148,38.15885],[-98.39228,38.15884],[-98.39439,38.15882],[-98.39449,38.15882],[-98.39568,38.1588],[-98.39645,38.15879],[-98.39652,38.15879],[-98.3986,38.15876],[-98.39927,38.15876],[-98.40102,38.15875],[-98.40126,38.15875],[-98.40743,38.15871],[-98.4088,38.1587],[-98.40991,38.1587],[-98.41014,38.1587],[-98.41289,38.15868],[-98.41518,38.15867],[-98.41758,38.15866],[-98.4183,38.15865],[-98.41849,38.15865],[-98.42051,38.15864],[-98.42124,38.15864],[-98.42128,38.15864],[-98.42284,38.15863],[-98.42288,38.15863],[-98.42506,38.15862],[-98.42627,38.15861],[-98.42631,38.15861],[-98.42711,38.15861],[-98.42856,38.1586],[-98.4286,38.1586],[-98.429,38.1586],[-98.43094,38.15858],[-98.43153,38.15858],[-98.43157,38.15858],[-98.43215,38.15858],[-98.4334,38.15857],[-98.43359,38.15857],[-98.43502,38.15856],[-98.43569,38.15856],[-98.43607,38.15856],[-98.43627,38.15856],[-98.43706,38.15855],[-98.43721,38.15855],[-98.43749,38.15855],[-98.43885,38.15853],[-98.43968,38.15852],[-98.44118,38.1585],[-98.44133,38.1585],[-98.44337,38.15847],[-98.44438,38.15846],[-98.44453,38.15846],[-98.44644,38.15844],[-98.44659,38.15843],[-98.44819,38.15841],[-98.44827,38.15841],[-98.45025,38.15839],[-98.45033,38.15839],[-98.45431,38.15834],[-98.4549,38.15832],[-98.45579,38.15831],[-98.45767,38.15829],[-98.45973,38.15827],[-98.46042,38.15826],[-98.46179,38.15824],[-98.46274,38.15823],[-98.46337,38.15823],[-98.46537,38.15821],[-98.46907,38.1582],[-98.47022,38.1582],[-98.47136,38.15819],[-98.47296,38.15819],[-98.47296,38.15819],[-98.47564,38.15817],[-98.47842,38.15816],[-98.48204,38.15814],[-98.48346,38.15814],[-98.49077,38.15811],[-98.49132,38.1581],[-98.49188,38.15811],[-98.49691,38.15813],[-98.49998,38.15815],[-98.50048,38.15815],[-98.50076,38.15816],[-98.50093,38.15816],[-98.50385,38.15817],[-98.50557,38.15818],[-98.50602,38.15818],[-98.50964,38.1582],[-98.51491,38.15819],[-98.5175,38.1582],[-98.51993,38.15819],[-98.52015,38.15819],[-98.52153,38.15819],[-98.52172,38.15819],[-98.52199,38.15819],[-98.52378,38.15819],[-98.52405,38.15819],[-98.52519,38.15819],[-98.52703,38.15819],[-98.52812,38.15819],[-98.52876,38.15819],[-98.53143,38.1582],[-98.53269,38.15821],[-98.53292,38.15821],[-98.53584,38.15823],[-98.53733,38.15824],[-98.53871,38.15825],[-98.54015,38.15825],[-98.54053,38.15825],[-98.54127,38.15826],[-98.54291,38.15827],[-98.55131,38.15832],[-98.55566,38.15834],[-98.55685,38.15834],[-98.55847,38.15835],[-98.55891,38.15835],[-98.55913,38.15835],[-98.56165,38.15835],[-98.56188,38.15835],[-98.56211,38.15836],[-98.5622,38.15836],[-98.56309,38.15837],[-98.56325,38.15837],[-98.56348,38.15837],[-98.56371,38.15837],[-98.56455,38.15837],[-98.56472,38.15838],[-98.56674,38.1584],[-98.56707,38.1584],[-98.56916,38.15844],[-98.5721,38.15848],[-98.57217,38.15849],[-98.57233,38.15849],[-98.57256,38.15849],[-98.57518,38.15853],[-98.5753,38.15853],[-98.57553,38.15853],[-98.57599,38.15854],[-98.57622,38.15854],[-98.57685,38.15855],[-98.578,38.15857],[-98.5796,38.15859],[-98.57983,38.15859],[-98.58273,38.15863],[-98.58314,38.15863],[-98.58334,38.15863],[-98.58577,38.15864],[-98.58822,38.15864],[-98.59021,38.15863],[-98.59236,38.15863],[-98.59322,38.15863],[-98.59351,38.15863],[-98.59373,38.15863],[-98.59424,38.15863],[-98.59463,38.15863],[-98.59715,38.15862],[-98.59829,38.15862],[-98.5994,38.15862],[-98.59969,38.15862],[-98.60152,38.15862],[-98.60196,38.15862],[-98.60254,38.15862],[-98.60402,38.15862],[-98.60424,38.15862],[-98.60558,38.15862],[-98.60607,38.15862],[-98.6063,38.15862],[-98.60745,38.15863],[-98.60768,38.15863],[-98.60879,38.15863],[-98.60905,38.15863],[-98.60973,38.15863],[-98.61065,38.15863],[-98.61174,38.15863],[-98.61289,38.15864],[-98.61385,38.15864],[-98.61464,38.15864],[-98.61692,38.15864],[-98.61701,38.15864],[-98.61743,38.15864],[-98.61761,38.15864],[-98.61772,38.15864],[-98.61812,38.15864],[-98.61842,38.15864],[-98.61868,38.15864],[-98.61912,38.15864],[-98.61953,38.15864],[-98.61986,38.15864],[-98.6204,38.15864],[-98.62147,38.15864],[-98.62165,38.15865],[-98.62169,38.15865],[-98.62192,38.15864],[-98.62238,38.15864],[-98.62278,38.15864],[-98.62318,38.15864],[-98.62421,38.15864],[-98.62431,38.15864],[-98.62444,38.15864],[-98.62513,38.15864],[-98.62553,38.15864],[-98.62596,38.15864],[-98.62604,38.15864],[-98.62638,38.15864],[-98.62683,38.15864],[-98.62726,38.15864],[-98.62757,38.15864],[-98.62916,38.15864],[-98.62917,38.15864],[-98.6294,38.15864],[-98.62963,38.15864],[-98.62998,38.15864],[-98.63066,38.15864],[-98.63077,38.15864],[-98.63109,38.15864],[-98.63236,38.15864],[-98.63276,38.15864],[-98.63318,38.15864],[-98.63329,38.15864],[-98.6336,38.15864],[-98.63374,38.15864],[-98.63397,38.15864],[-98.63415,38.15864],[-98.63454,38.15864],[-98.63496,38.15864],[-98.6354,38.15864],[-98.63586,38.15864],[-98.63623,38.15864],[-98.63672,38.15864],[-98.63693,38.15864],[-98.63719,38.15864],[-98.63748,38.15864],[-98.63761,38.15864],[-98.63775,38.15864],[-98.63791,38.15864],[-98.63818,38.15864],[-98.6383,38.15864],[-98.63844,38.15864],[-98.63874,38.15865],[-98.63914,38.15865],[-98.63942,38.15865],[-98.63983,38.15866],[-98.64012,38.15866],[-98.64025,38.15866],[-98.64054,38.15867],[-98.64079,38.15867],[-98.64082,38.15867],[-98.64104,38.15867],[-98.64107,38.15867],[-98.6422,38.15869],[-98.64242,38.15869],[-98.64261,38.15869],[-98.64265,38.15869],[-98.64302,38.15869],[-98.64414,38.15871],[-98.64443,38.15871],[-98.64468,38.15871],[-98.6451,38.15872],[-98.64538,38.15872],[-98.64539,38.15872],[-98.64562,38.15872],[-98.64608,38.15873],[-98.64678,38.15874],[-98.64759,38.15875],[-98.64768,38.15875],[-98.64791,38.15876],[-98.64845,38.15876],[-98.64942,38.15877],[-98.65047,38.15879],[-98.65065,38.15879],[-98.65088,38.15879],[-98.65111,38.15879],[-98.65385,38.15883],[-98.65395,38.15883],[-98.65477,38.15884],[-98.655,38.15884],[-98.65523,38.15884],[-98.65545,38.15885],[-98.65568,38.15885],[-98.65614,38.15886],[-98.65657,38.15886],[-98.65744,38.15887],[-98.65795,38.15887],[-98.65817,38.15888],[-98.65909,38.15888],[-98.65954,38.15889],[-98.66149,38.15891],[-98.66261,38.15892],[-98.66344,38.15892],[-98.66366,38.15893],[-98.66398,38.15893],[-98.66509,38.15894],[-98.66527,38.15894],[-98.66549,38.15894],[-98.66688,38.15896],[-98.6687,38.15897],[-98.6694,38.15898],[-98.67103,38.15899],[-98.67167,38.159],[-98.6719,38.159],[-98.67315,38.15901],[-98.67417,38.15902],[-98.67492,38.15902],[-98.6767,38.159],[-98.67685,38.15899],[-98.67894,38.15896],[-98.68097,38.15892],[-98.68116,38.15892],[-98.68166,38.15891],[-98.68188,38.15891],[-98.68304,38.15889],[-98.68417,38.15887],[-98.68577,38.15884],[-98.68615,38.15884],[-98.68683,38.15883],[-98.68716,38.15882],[-98.68787,38.15881],[-98.68922,38.15879],[-98.68993,38.15878],[-98.69016,38.15878],[-98.69075,38.15877],[-98.69227,38.15874],[-98.6929,38.15874],[-98.69345,38.15874],[-98.69382,38.15875],[-98.69405,38.15875],[-98.69468,38.15876],[-98.69651,38.15877],[-98.69791,38.15879],[-98.69913,38.1588],[-98.69991,38.15881],[-98.70024,38.15882],[-98.70124,38.15883],[-98.70135,38.15883],[-98.70146,38.15883],[-98.70215,38.15884],[-98.70413,38.15886],[-98.70469,38.15887],[-98.70643,38.15889],[-98.70754,38.15891],[-98.70852,38.15892],[-98.70858,38.15892],[-98.70881,38.15892],[-98.71003,38.15894],[-98.71128,38.15895],[-98.71345,38.15896],[-98.71368,38.15897],[-98.71551,38.15898],[-98.7157,38.15898],[-98.71596,38.15898],[-98.71734,38.15899],[-98.71985,38.15901],[-98.72031,38.15901],[-98.721,38.15902],[-98.72139,38.15902],[-98.72145,38.15902],[-98.72328,38.15904],[-98.7242,38.15904],[-98.72443,38.15904],[-98.72777,38.15907],[-98.72969,38.15908],[-98.73177,38.15909],[-98.73351,38.1591],[-98.73698,38.15912],[-98.73886,38.15913],[-98.74085,38.15914],[-98.74333,38.15916],[-98.74362,38.15916],[-98.74502,38.15916]]}},{"type":"Feature","properties":{"_gpxType":"trk","name":"Zion Lutheran Church, North Washington Street, Hutchinson, KS - Nickerson, KS - NE 140th St - Super 8 by Wyndham Great Bend, 911 Grant St, Great Bend, KS 67530","coordinateProperties":{},"id":50},"geometry":{"type":"LineString","coordinates":[[-98.74502,38.15916],[-98.74585,38.15917],[-98.74602,38.15917],[-98.74722,38.15918],[-98.74813,38.15918],[-98.74813,38.15918],[-98.74815,38.16026],[-98.74816,38.16092],[-98.74816,38.16137],[-98.74816,38.16151],[-98.74817,38.16174],[-98.74817,38.16187],[-98.74817,38.16277],[-98.74818,38.16322],[-98.74818,38.16385],[-98.74818,38.16464],[-98.74818,38.16522],[-98.74819,38.1659],[-98.7482,38.16672],[-98.7482,38.16727],[-98.74821,38.16769],[-98.74823,38.16915],[-98.74823,38.16961],[-98.74823,38.17033],[-98.74824,38.171],[-98.74824,38.17105],[-98.74824,38.17123],[-98.74824,38.17145],[-98.74825,38.17234],[-98.74825,38.17277],[-98.74826,38.17371],[-98.74826,38.17436],[-98.74826,38.17485],[-98.74826,38.17802],[-98.74826,38.17872],[-98.74826,38.1788],[-98.74826,38.1791],[-98.74826,38.17984],[-98.74826,38.18012],[-98.74826,38.18139],[-98.74825,38.18293],[-98.74825,38.18333],[-98.74824,38.18535],[-98.74825,38.18625],[-98.74825,38.18632],[-98.74825,38.18722],[-98.74825,38.1875],[-98.74825,38.18823],[-98.74825,38.18906],[-98.74825,38.18937],[-98.74824,38.19054],[-98.74822,38.19352],[-98.74823,38.19458],[-98.74822,38.19492],[-98.74822,38.1968],[-98.74822,38.19742],[-98.74822,38.19834],[-98.74822,38.19852],[-98.74822,38.19915],[-98.74822,38.20007],[-98.74822,38.20066],[-98.74822,38.20068],[-98.74822,38.20104],[-98.74821,38.20279],[-98.7482,38.20513],[-98.7482,38.20531],[-98.7482,38.20643],[-98.74819,38.20693],[-98.74819,38.20729],[-98.74819,38.20747],[-98.74819,38.20748],[-98.74819,38.20873],[-98.74818,38.20913],[-98.74818,38.20916],[-98.74818,38.21001],[-98.74817,38.21102],[-98.74817,38.21127],[-98.74817,38.21264],[-98.74816,38.21343],[-98.74816,38.21386],[-98.74815,38.21415],[-98.74815,38.21475],[-98.74814,38.21614],[-98.74813,38.21731],[-98.74811,38.2192],[-98.74811,38.21981],[-98.74811,38.22111],[-98.74809,38.22271],[-98.74809,38.22348],[-98.74809,38.22353],[-98.74808,38.22443],[-98.74807,38.22784],[-98.74805,38.22973],[-98.74804,38.23188],[-98.74804,38.23389],[-98.74802,38.23481],[-98.74802,38.23541],[-98.74801,38.23623],[-98.74801,38.23897],[-98.748,38.24032],[-98.74798,38.24115],[-98.74798,38.24278],[-98.74797,38.243],[-98.74797,38.24318],[-98.74795,38.24642],[-98.74794,38.24759],[-98.74793,38.24998],[-98.74793,38.25048],[-98.74792,38.25119],[-98.74792,38.25197],[-98.74792,38.25257],[-98.74792,38.25294],[-98.74791,38.25326],[-98.74791,38.25354],[-98.7479,38.25379],[-98.74789,38.25515],[-98.7479,38.25552],[-98.7479,38.2557],[-98.74791,38.25588],[-98.74793,38.25603],[-98.74795,38.25622],[-98.74798,38.25633],[-98.74799,38.2564],[-98.74804,38.25657],[-98.74811,38.25679],[-98.74817,38.25697],[-98.74823,38.2571],[-98.74828,38.25722],[-98.74836,38.25738],[-98.74844,38.25753],[-98.74852,38.25766],[-98.74859,38.25778],[-98.74864,38.25786],[-98.7487,38.25795],[-98.74884,38.25814],[-98.74894,38.25827],[-98.74895,38.25829],[-98.74913,38.25849],[-98.74921,38.25858],[-98.7493,38.25867],[-98.74951,38.25887],[-98.74968,38.25902],[-98.74998,38.25928],[-98.75041,38.25962],[-98.7512,38.26025],[-98.75164,38.26061],[-98.75187,38.26079],[-98.75203,38.26092],[-98.75244,38.26124],[-98.75305,38.26173],[-98.75363,38.2622],[-98.75379,38.26233],[-98.75393,38.26244],[-98.75395,38.26246],[-98.7542,38.26266],[-98.75446,38.2629],[-98.7546,38.26304],[-98.75475,38.2632],[-98.75483,38.26328],[-98.7549,38.26337],[-98.755,38.26349],[-98.75516,38.26371],[-98.75529,38.26389],[-98.75536,38.26401],[-98.75543,38.26412],[-98.75555,38.26434],[-98.75567,38.26457],[-98.75574,38.26475],[-98.7558,38.26489],[-98.75586,38.26504],[-98.75589,38.26514],[-98.75591,38.26521],[-98.75596,38.26541],[-98.75598,38.26552],[-98.756,38.26564],[-98.75601,38.26571],[-98.75602,38.2658],[-98.75602,38.26596],[-98.75603,38.26636],[-98.75603,38.26681],[-98.75604,38.2686],[-98.75605,38.27094],[-98.75605,38.27112],[-98.75605,38.2713],[-98.75605,38.27182],[-98.75605,38.27252],[-98.75606,38.27328],[-98.75606,38.27543],[-98.75607,38.27812],[-98.75608,38.28118],[-98.75608,38.28352],[-98.75609,38.28532],[-98.75609,38.28712],[-98.75609,38.2873],[-98.7561,38.28912],[-98.75611,38.29],[-98.75611,38.29084],[-98.75612,38.29176],[-98.75612,38.29217],[-98.75612,38.29268],[-98.75612,38.2933],[-98.75612,38.29407],[-98.75612,38.29535],[-98.75612,38.29601],[-98.75614,38.30008],[-98.75613,38.30045],[-98.75613,38.30055],[-98.75613,38.30073],[-98.75613,38.30136],[-98.75613,38.30213],[-98.75614,38.30325],[-98.75614,38.30447],[-98.75614,38.30468],[-98.75614,38.30525],[-98.75614,38.30552],[-98.75614,38.3065],[-98.75614,38.30714],[-98.75614,38.30732],[-98.75614,38.30836],[-98.75614,38.30998],[-98.75614,38.3105],[-98.75614,38.31123],[-98.75615,38.31199],[-98.75615,38.31236],[-98.75614,38.31487],[-98.75614,38.31505],[-98.75614,38.31519],[-98.75615,38.31577],[-98.75615,38.31742],[-98.75615,38.31783],[-98.75615,38.31852],[-98.75615,38.31894],[-98.75615,38.32042],[-98.75615,38.32047],[-98.75615,38.3207],[-98.75614,38.32109],[-98.75614,38.32165],[-98.75614,38.322],[-98.75614,38.32264],[-98.75614,38.32272],[-98.75615,38.32351],[-98.75615,38.32388],[-98.75616,38.32421],[-98.75616,38.32434],[-98.75617,38.32448],[-98.75619,38.32465],[-98.75621,38.32477],[-98.75623,38.32488],[-98.75624,38.32497],[-98.75626,38.32506],[-98.75629,38.32514],[-98.75634,38.32528],[-98.75637,38.32538],[-98.75644,38.32558],[-98.7565,38.32572],[-98.75656,38.32586],[-98.75661,38.32595],[-98.75677,38.32627],[-98.75696,38.32656],[-98.757,38.32663],[-98.75705,38.3267],[-98.75713,38.3268],[-98.75724,38.32693],[-98.75732,38.32703],[-98.75742,38.32714],[-98.75752,38.32724],[-98.75761,38.32733],[-98.75779,38.3275],[-98.75794,38.32763],[-98.75798,38.32766],[-98.75809,38.32775],[-98.75831,38.32794],[-98.75867,38.32824],[-98.75881,38.32835],[-98.75909,38.32857],[-98.75958,38.32897],[-98.76018,38.32945],[-98.76041,38.32964],[-98.7611,38.33019],[-98.76139,38.33043],[-98.76178,38.33074],[-98.76252,38.33133],[-98.76312,38.33182],[-98.76316,38.33185],[-98.76367,38.33226],[-98.7638,38.33236],[-98.76417,38.33267],[-98.76445,38.33292],[-98.76469,38.33317],[-98.7648,38.3333],[-98.76487,38.33341],[-98.76498,38.33357],[-98.76512,38.33388],[-98.76514,38.33395],[-98.76517,38.33405],[-98.7652,38.33421],[-98.76521,38.33423],[-98.76525,38.33449],[-98.76525,38.33454],[-98.76526,38.33463],[-98.76526,38.33478],[-98.76526,38.33533],[-98.76524,38.33583],[-98.76524,38.33634],[-98.76522,38.33712],[-98.76521,38.33759],[-98.7652,38.33884],[-98.76517,38.34012],[-98.76516,38.34144],[-98.76515,38.34248],[-98.76512,38.34433],[-98.76512,38.34472],[-98.76512,38.34509],[-98.76511,38.34539],[-98.76508,38.34738],[-98.76506,38.34858],[-98.76506,38.34884],[-98.76505,38.34964],[-98.76504,38.35047],[-98.76504,38.35063],[-98.76504,38.35083],[-98.76504,38.35101],[-98.76504,38.35119],[-98.76503,38.35148],[-98.76502,38.35172],[-98.76502,38.35173],[-98.76502,38.35191],[-98.76502,38.35202],[-98.76502,38.3522],[-98.76502,38.35254],[-98.76502,38.35261],[-98.76502,38.3528],[-98.76502,38.35283],[-98.76502,38.35292],[-98.76503,38.3531],[-98.76503,38.35329],[-98.76503,38.35347],[-98.76504,38.35365],[-98.76504,38.35369],[-98.76504,38.35383],[-98.76504,38.3541],[-98.76504,38.35422],[-98.76504,38.35432],[-98.76504,38.35458],[-98.76505,38.35526],[-98.76505,38.35544],[-98.76505,38.35612],[-98.76505,38.35619],[-98.76505,38.3565],[-98.76506,38.35703],[-98.76506,38.35721],[-98.76507,38.35811],[-98.76508,38.35915],[-98.7651,38.36018],[-98.7651,38.36072],[-98.7651,38.36138],[-98.7651,38.36138],[-98.76548,38.36137],[-98.76632,38.36137],[-98.76651,38.36139],[-98.76721,38.36139],[-98.76785,38.36139],[-98.76849,38.36138],[-98.76856,38.36138],[-98.76915,38.36138],[-98.76987,38.36137],[-98.7705,38.36137],[-98.77118,38.36137],[-98.77183,38.36136],[-98.77282,38.36136],[-98.77335,38.36135],[-98.77359,38.36135],[-98.7737,38.36136],[-98.77376,38.36136],[-98.77378,38.36136],[-98.77398,38.36139],[-98.77427,38.36145],[-98.77445,38.36152],[-98.77475,38.36161],[-98.77487,38.36164],[-98.77513,38.36172],[-98.77518,38.36173],[-98.77528,38.36175],[-98.77533,38.36176],[-98.77539,38.36177],[-98.7756,38.36179],[-98.77573,38.3618],[-98.77588,38.36181],[-98.77627,38.36181],[-98.77692,38.36181],[-98.77759,38.36181],[-98.77821,38.36181],[-98.77891,38.36181],[-98.77956,38.36181],[-98.78024,38.36181],[-98.78088,38.36181],[-98.78156,38.36181],[-98.78221,38.36181],[-98.78295,38.3618],[-98.78354,38.3618],[-98.78383,38.3618],[-98.78409,38.3618],[-98.78442,38.3618],[-98.78454,38.3618],[-98.78458,38.3618],[-98.78514,38.3618],[-98.78561,38.3618],[-98.78585,38.3618],[-98.78617,38.3618],[-98.78619,38.3618],[-98.78626,38.3618],[-98.78673,38.3618],[-98.78752,38.3618],[-98.78815,38.3618],[-98.78837,38.3618],[-98.78883,38.3618],[-98.78883,38.3618],[-98.78882,38.36119],[-98.78882,38.36106],[-98.78883,38.36067],[-98.78883,38.36067],[-98.78919,38.36067],[-98.78919,38.36067],[-98.7892,38.36081]]}}]}