{"type":"FeatureCollection","features":[{"type":"Feature","properties":{"_gpxType":"trk","name":"Super 8 by Wyndham Great Bend, Grant Street, Great Bend, KS - Derrick Inn Motel, East Sycamore Street, Ness City, KS","coordinateProperties":{},"id":51},"geometry":{"type":"LineString","coordinates":[[-98.7892,38.36081],[-98.78919,38.36067],[-98.78919,38.36067],[-98.78883,38.36067],[-98.78883,38.36067],[-98.78882,38.36106],[-98.78882,38.36119],[-98.78883,38.3618],[-98.78883,38.3618],[-98.78926,38.3618],[-98.78953,38.3618],[-98.79016,38.3618],[-98.79126,38.36181],[-98.79189,38.36182],[-98.79207,38.36182],[-98.79224,38.36182],[-98.79269,38.36182],[-98.79292,38.36182],[-98.79369,38.36182],[-98.79373,38.36182],[-98.79422,38.36181],[-98.79446,38.36182],[-98.79453,38.36182],[-98.79518,38.36181],[-98.79664,38.36179],[-98.79759,38.36179],[-98.79796,38.36179],[-98.79796,38.36179],[-98.79796,38.3619],[-98.79797,38.36202],[-98.79798,38.36208],[-98.798,38.36214],[-98.79803,38.36221],[-98.79807,38.36228],[-98.79812,38.36235],[-98.79818,38.36242],[-98.79823,38.36245],[-98.79831,38.3625],[-98.79837,38.36254],[-98.79845,38.36258],[-98.79851,38.36262],[-98.79865,38.3627],[-98.7988,38.36281],[-98.79887,38.36287],[-98.79895,38.36293],[-98.79908,38.36307],[-98.79932,38.36329],[-98.79957,38.36353],[-98.79993,38.36388],[-98.8002,38.36414],[-98.80032,38.36425],[-98.80051,38.36444],[-98.80081,38.36472],[-98.80128,38.36518],[-98.80133,38.36523],[-98.80154,38.36542],[-98.80193,38.36579],[-98.80212,38.36598],[-98.80251,38.36635],[-98.803,38.36681],[-98.80335,38.36715],[-98.80344,38.36724],[-98.80369,38.36747],[-98.80404,38.36784],[-98.80412,38.36792],[-98.80429,38.36808],[-98.80434,38.36813],[-98.80471,38.36848],[-98.80499,38.36875],[-98.80528,38.36903],[-98.80552,38.36926],[-98.80581,38.36953],[-98.80602,38.36974],[-98.80625,38.36996],[-98.8065,38.3702],[-98.807,38.37067],[-98.80766,38.37132],[-98.8084,38.37202],[-98.80907,38.37266],[-98.80979,38.37335],[-98.81006,38.37361],[-98.81014,38.3737],[-98.81045,38.37399],[-98.81096,38.37447],[-98.81145,38.37494],[-98.81146,38.37495],[-98.81206,38.37553],[-98.81249,38.37593],[-98.81287,38.3763],[-98.81356,38.37696],[-98.81362,38.37702],[-98.81418,38.37756],[-98.81476,38.37811],[-98.81495,38.3783],[-98.81534,38.37867],[-98.81575,38.37906],[-98.81592,38.37923],[-98.81635,38.37964],[-98.81676,38.38004],[-98.81705,38.38032],[-98.81762,38.38086],[-98.81781,38.38104],[-98.81798,38.3812],[-98.81812,38.38134],[-98.81842,38.38163],[-98.81894,38.38212],[-98.81905,38.38222],[-98.81915,38.38231],[-98.81933,38.38247],[-98.81951,38.38263],[-98.81976,38.38285],[-98.82015,38.38317],[-98.82056,38.38348],[-98.82078,38.38364],[-98.82084,38.38369],[-98.82098,38.38379],[-98.82113,38.38389],[-98.82118,38.38392],[-98.82125,38.38397],[-98.82141,38.38408],[-98.82172,38.38429],[-98.82194,38.38443],[-98.82228,38.38463],[-98.82275,38.38492],[-98.82322,38.3852],[-98.82323,38.38521],[-98.82388,38.3856],[-98.82459,38.38603],[-98.82468,38.38608],[-98.82496,38.38626],[-98.82555,38.38661],[-98.82595,38.38685],[-98.82613,38.38696],[-98.82615,38.38697],[-98.82657,38.38723],[-98.82715,38.38758],[-98.82782,38.38799],[-98.82829,38.38826],[-98.82922,38.38883],[-98.82948,38.38899],[-98.82992,38.38925],[-98.83088,38.38983],[-98.83141,38.39015],[-98.83184,38.39041],[-98.83221,38.39063],[-98.83233,38.3907],[-98.83248,38.39079],[-98.83868,38.39455],[-98.83991,38.3953],[-98.84118,38.39607],[-98.84342,38.39742],[-98.84404,38.39779],[-98.84409,38.39782],[-98.84441,38.39802],[-98.84536,38.39859],[-98.84554,38.3987],[-98.84691,38.39953],[-98.84739,38.39982],[-98.84835,38.4004],[-98.85194,38.40257],[-98.85394,38.40378],[-98.85412,38.40389],[-98.85612,38.4051],[-98.85646,38.40532],[-98.85668,38.40545],[-98.85732,38.40584],[-98.85795,38.40622],[-98.85865,38.40664],[-98.85923,38.40699],[-98.85996,38.40744],[-98.86097,38.40805],[-98.86098,38.40806],[-98.86219,38.40879],[-98.86388,38.4098],[-98.86576,38.41094],[-98.8669,38.41161],[-98.86734,38.41184],[-98.86788,38.41212],[-98.86827,38.41231],[-98.86869,38.41251],[-98.86909,38.41268],[-98.87013,38.41313],[-98.87087,38.41345],[-98.87176,38.41383],[-98.87278,38.41426],[-98.8756,38.41547],[-98.87741,38.41624],[-98.88046,38.41754],[-98.88264,38.41847],[-98.88292,38.41859],[-98.884,38.41905],[-98.88471,38.41936],[-98.88539,38.41966],[-98.88609,38.41994],[-98.88636,38.42006],[-98.88784,38.42071],[-98.88834,38.42093],[-98.88884,38.42114],[-98.88915,38.42127],[-98.89035,38.42178],[-98.89158,38.42231],[-98.89216,38.42256],[-98.89269,38.42279],[-98.89452,38.42355],[-98.895,38.42375],[-98.89525,38.42385],[-98.89658,38.42442],[-98.89702,38.4246],[-98.89753,38.42482],[-98.89783,38.42495],[-98.89798,38.42501],[-98.89847,38.42522],[-98.89929,38.42557],[-98.90007,38.42591],[-98.90099,38.4263],[-98.9017,38.4266],[-98.90195,38.42671],[-98.90388,38.42753],[-98.90609,38.42847],[-98.907,38.42886],[-98.9071,38.4289],[-98.90852,38.42951],[-98.90871,38.42959],[-98.91154,38.43079],[-98.91214,38.43105],[-98.91275,38.43131],[-98.91369,38.43171],[-98.9141,38.43188],[-98.91496,38.43225],[-98.91721,38.43321],[-98.91741,38.4333],[-98.91963,38.43425],[-98.9217,38.43514],[-98.92242,38.43543],[-98.92324,38.43578],[-98.92363,38.43595],[-98.92482,38.43646],[-98.92554,38.43676],[-98.92642,38.43714],[-98.92894,38.43821],[-98.92956,38.43848],[-98.93176,38.43941],[-98.93199,38.4395],[-98.93212,38.43956],[-98.93229,38.43962],[-98.9325,38.4397],[-98.9327,38.43977],[-98.93292,38.43985],[-98.93301,38.43988],[-98.93324,38.43995],[-98.93343,38.44001],[-98.93356,38.44005],[-98.93409,38.44019],[-98.9343,38.44024],[-98.93454,38.4403],[-98.93476,38.44034],[-98.93497,38.44039],[-98.93528,38.44044],[-98.93555,38.44049],[-98.93722,38.44074],[-98.94082,38.44129],[-98.94197,38.44146],[-98.94557,38.442],[-98.94738,38.44227],[-98.94963,38.44261],[-98.94986,38.44265],[-98.95324,38.44316],[-98.95347,38.44319],[-98.95933,38.44407],[-98.96412,38.44479],[-98.96939,38.44558],[-98.97067,38.44577],[-98.97119,38.44586],[-98.9717,38.44595],[-98.97205,38.44601],[-98.97278,38.44614],[-98.97328,38.44624],[-98.97369,38.44633],[-98.97387,38.44637],[-98.97409,38.44642],[-98.97421,38.44644],[-98.97607,38.44688],[-98.97775,38.44728],[-98.97877,38.44752],[-98.98703,38.44948],[-98.98759,38.44962],[-98.98911,38.44998],[-98.98933,38.45003],[-98.99174,38.4506],[-98.99615,38.45163],[-98.99624,38.45165],[-99.00749,38.45433],[-99.0111,38.45518],[-99.0124,38.4555],[-99.01355,38.45577],[-99.01456,38.45601],[-99.01494,38.4561],[-99.01538,38.4562],[-99.01699,38.45658],[-99.01963,38.45721],[-99.01984,38.45726],[-99.02095,38.45752],[-99.02183,38.45773],[-99.02205,38.45778],[-99.02425,38.4583],[-99.02466,38.4584],[-99.02511,38.45851],[-99.02535,38.45857],[-99.02621,38.45878],[-99.02685,38.45893],[-99.02709,38.45898],[-99.02756,38.45909],[-99.02836,38.45928],[-99.02973,38.4596],[-99.03061,38.45981],[-99.03283,38.46034],[-99.04096,38.46226],[-99.04123,38.46232],[-99.04162,38.46241],[-99.0421,38.46252],[-99.04287,38.46267],[-99.04373,38.46283],[-99.045,38.46306],[-99.04601,38.46324],[-99.04714,38.46344],[-99.04812,38.46361],[-99.04907,38.46378],[-99.04926,38.46381],[-99.04942,38.46384],[-99.04991,38.46392],[-99.05017,38.46396],[-99.05036,38.46398],[-99.05048,38.464],[-99.05077,38.46404],[-99.0511,38.46407],[-99.05136,38.4641],[-99.05154,38.46412],[-99.05197,38.46415],[-99.05228,38.46416],[-99.05239,38.46417],[-99.05253,38.46418],[-99.05276,38.46418],[-99.05316,38.46419],[-99.05424,38.46421],[-99.05589,38.46423],[-99.0583,38.46425],[-99.06005,38.46427],[-99.06058,38.46427],[-99.0624,38.46429],[-99.06395,38.4643],[-99.06457,38.46431],[-99.06464,38.46431],[-99.06602,38.46432],[-99.06855,38.46434],[-99.06993,38.46435],[-99.07213,38.46437],[-99.07383,38.46438],[-99.07498,38.46439],[-99.07503,38.46439],[-99.07521,38.46439],[-99.07659,38.4644],[-99.07682,38.46441],[-99.07705,38.46441],[-99.07773,38.46441],[-99.07788,38.46441],[-99.07796,38.46442],[-99.07865,38.46442],[-99.07888,38.46442],[-99.08078,38.46444],[-99.08095,38.46444],[-99.08164,38.46444],[-99.08233,38.46444],[-99.08347,38.46445],[-99.0838,38.46445],[-99.08466,38.46446],[-99.0861,38.46447],[-99.0864,38.46447],[-99.08738,38.46448],[-99.08838,38.46448],[-99.08946,38.46449],[-99.09074,38.4645],[-99.09097,38.4645],[-99.0912,38.4645],[-99.09143,38.4645],[-99.09212,38.46451],[-99.09216,38.46451],[-99.09258,38.46451],[-99.09695,38.46454],[-99.09718,38.46454],[-99.09741,38.46454],[-99.0981,38.46454],[-99.09833,38.46454],[-99.09924,38.46455],[-99.0997,38.46455],[-99.10036,38.46455],[-99.10131,38.46456],[-99.10292,38.46457],[-99.10308,38.46458],[-99.10407,38.46458],[-99.1043,38.46458],[-99.10545,38.46459],[-99.10573,38.46459],[-99.10683,38.46459],[-99.10849,38.46461],[-99.10941,38.46461],[-99.10962,38.46461],[-99.11033,38.46461],[-99.11056,38.46461],[-99.11076,38.46461],[-99.11171,38.46462],[-99.11214,38.46463],[-99.11286,38.46463],[-99.11309,38.46463],[-99.11423,38.46464],[-99.11518,38.46464],[-99.11561,38.46465],[-99.11785,38.46466],[-99.11814,38.46466],[-99.11837,38.46466],[-99.11929,38.46467],[-99.12021,38.46467],[-99.12044,38.46467],[-99.12113,38.46468],[-99.12136,38.46468],[-99.12204,38.46468],[-99.12227,38.46469],[-99.12232,38.46469],[-99.12388,38.46469],[-99.12526,38.4647],[-99.12605,38.4647],[-99.12743,38.46471],[-99.12766,38.46471],[-99.12826,38.46471],[-99.12858,38.46471],[-99.12881,38.46471],[-99.12965,38.46471],[-99.12973,38.46471],[-99.12996,38.46471],[-99.13088,38.46471],[-99.131,38.46471],[-99.13111,38.46471],[-99.1318,38.46471],[-99.13203,38.46471],[-99.13282,38.4647],[-99.13294,38.4647],[-99.13317,38.4647],[-99.1334,38.4647],[-99.13409,38.4647],[-99.13432,38.4647],[-99.13433,38.4647],[-99.13478,38.46469],[-99.13593,38.46469],[-99.13616,38.46469],[-99.13721,38.46468],[-99.138,38.46468],[-99.13892,38.46467],[-99.13925,38.46467],[-99.14275,38.46466],[-99.1437,38.46465],[-99.14485,38.46464],[-99.14853,38.46463],[-99.14967,38.46463],[-99.1499,38.46462],[-99.15059,38.46462],[-99.15151,38.46462],[-99.15266,38.46461],[-99.15404,38.46461],[-99.15473,38.4646],[-99.15611,38.4646],[-99.15671,38.4646],[-99.15742,38.46459],[-99.15765,38.46459],[-99.15805,38.46459],[-99.15834,38.46459],[-99.15903,38.46459],[-99.16041,38.46458],[-99.16133,38.46458],[-99.16219,38.46458],[-99.1636,38.46458],[-99.16367,38.46458],[-99.16383,38.46458],[-99.16475,38.46458],[-99.16544,38.46458],[-99.16563,38.46458],[-99.16567,38.46458],[-99.1659,38.46458],[-99.16751,38.4646],[-99.16774,38.4646],[-99.16791,38.4646],[-99.1682,38.4646],[-99.16842,38.46461],[-99.16888,38.46461],[-99.16911,38.46461],[-99.17012,38.46462],[-99.17026,38.46462],[-99.17049,38.46462],[-99.17118,38.46463],[-99.17141,38.46463],[-99.17164,38.46463],[-99.17325,38.46464],[-99.17348,38.46465],[-99.17417,38.46465],[-99.17486,38.46466],[-99.17645,38.46467],[-99.17692,38.46467],[-99.17708,38.46468],[-99.17777,38.46468],[-99.17784,38.46468],[-99.17872,38.46469],[-99.17917,38.46469],[-99.17976,38.4647],[-99.18022,38.4647],[-99.18067,38.46471],[-99.18305,38.46472],[-99.1837,38.46473],[-99.18393,38.46473],[-99.18462,38.46473],[-99.18491,38.46474],[-99.1868,38.46475],[-99.1891,38.46477],[-99.19047,38.46478],[-99.1907,38.46478],[-99.19599,38.46482],[-99.1964,38.46483],[-99.19829,38.46484],[-99.19893,38.46484],[-99.20001,38.46485],[-99.20508,38.46489],[-99.20566,38.46489],[-99.20717,38.4649],[-99.20754,38.4649],[-99.20988,38.46493],[-99.21059,38.46494],[-99.21151,38.46495],[-99.21666,38.465],[-99.22042,38.46502],[-99.22144,38.46502],[-99.22327,38.46503],[-99.22437,38.46503],[-99.23,38.46507],[-99.23138,38.46508],[-99.23518,38.4651],[-99.24008,38.46514],[-99.24399,38.46517],[-99.2452,38.46517],[-99.24569,38.46518],[-99.25344,38.46523],[-99.25536,38.46525],[-99.25639,38.46525],[-99.25697,38.46526],[-99.25802,38.46527],[-99.26007,38.46528],[-99.26268,38.4653],[-99.26367,38.4653],[-99.26487,38.46531],[-99.26659,38.46531],[-99.269,38.46533],[-99.27195,38.46535],[-99.27374,38.46537],[-99.27587,38.46538],[-99.27656,38.46538],[-99.27689,38.46539],[-99.27712,38.46539],[-99.27838,38.4654],[-99.27918,38.4654],[-99.28034,38.46541],[-99.28055,38.46541],[-99.28057,38.46541],[-99.2818,38.46542],[-99.2824,38.46543],[-99.28263,38.46543],[-99.28328,38.46543],[-99.28477,38.46545],[-99.28535,38.46546],[-99.28539,38.46546],[-99.28562,38.46546],[-99.28929,38.46551],[-99.29044,38.46553],[-99.2939,38.46557],[-99.29849,38.46563],[-99.30079,38.46565],[-99.30191,38.46567],[-99.30341,38.46569],[-99.30343,38.46569],[-99.30387,38.4657],[-99.3044,38.46571],[-99.30549,38.46572],[-99.30654,38.46573],[-99.30769,38.46575],[-99.30817,38.46575],[-99.30827,38.46576],[-99.30883,38.46576],[-99.30913,38.46576],[-99.30926,38.46576],[-99.30949,38.46576],[-99.3096,38.46577],[-99.3098,38.46577],[-99.31028,38.46578],[-99.31165,38.46579],[-99.31236,38.4658],[-99.31345,38.46581],[-99.31409,38.46582],[-99.31437,38.46582],[-99.31535,38.46584],[-99.31676,38.46585],[-99.31737,38.46585],[-99.31824,38.46586],[-99.31877,38.46587],[-99.32087,38.46589],[-99.32118,38.46589],[-99.32348,38.46592],[-99.32508,38.46593],[-99.32725,38.46596],[-99.32781,38.46596],[-99.33175,38.466],[-99.33345,38.46602],[-99.3337,38.46602],[-99.33461,38.46603],[-99.3362,38.46605],[-99.33646,38.46605],[-99.3367,38.46605],[-99.3378,38.46606],[-99.34289,38.46611],[-99.34394,38.46612],[-99.34417,38.46612],[-99.34451,38.46612],[-99.34464,38.46612],[-99.34487,38.46613],[-99.3452,38.46614],[-99.34544,38.46616],[-99.34554,38.46616],[-99.3458,38.46619],[-99.34613,38.46624],[-99.34632,38.46627],[-99.34645,38.4663],[-99.34656,38.46632],[-99.34676,38.46637],[-99.34688,38.4664],[-99.34705,38.46645],[-99.34742,38.46655],[-99.34787,38.46667],[-99.34795,38.4667],[-99.34827,38.46678],[-99.34838,38.4668],[-99.34852,38.46684],[-99.34861,38.46685],[-99.34872,38.46688],[-99.34875,38.46688],[-99.34893,38.46691],[-99.34897,38.46692],[-99.34899,38.46692],[-99.34904,38.46693],[-99.34916,38.46694],[-99.34931,38.46696],[-99.3495,38.46698],[-99.34973,38.467],[-99.35028,38.46705],[-99.35149,38.46714],[-99.35394,38.46732],[-99.35867,38.46767],[-99.35895,38.46769],[-99.36347,38.46804],[-99.36401,38.46808],[-99.36551,38.46819],[-99.36642,38.46825],[-99.36698,38.4683],[-99.36732,38.46833],[-99.36782,38.46837],[-99.36939,38.46849],[-99.37052,38.46857],[-99.37076,38.46859],[-99.37195,38.46868],[-99.37287,38.46875],[-99.37325,38.46878],[-99.37597,38.46898],[-99.37709,38.46907],[-99.37825,38.46916],[-99.38098,38.46936],[-99.38254,38.46948],[-99.38268,38.46949],[-99.38337,38.46954],[-99.3845,38.46962],[-99.38574,38.46972],[-99.387,38.46981],[-99.38894,38.46996],[-99.39032,38.47006],[-99.391,38.47011],[-99.39336,38.47029],[-99.39416,38.47035],[-99.39495,38.47041],[-99.39664,38.47054],[-99.39754,38.47061],[-99.3986,38.47069],[-99.40026,38.47082],[-99.40105,38.47087],[-99.40119,38.47089],[-99.40153,38.47091],[-99.40357,38.47106],[-99.40584,38.47123],[-99.40664,38.47129],[-99.40795,38.47139],[-99.40869,38.47145],[-99.41023,38.47157],[-99.41165,38.47168],[-99.41219,38.47172],[-99.41324,38.4718],[-99.41435,38.47188],[-99.41665,38.47205],[-99.41778,38.47214],[-99.41869,38.47221],[-99.41912,38.47224],[-99.41943,38.47226],[-99.41962,38.47228],[-99.41992,38.4723],[-99.42259,38.47251],[-99.42525,38.47271],[-99.42674,38.47282],[-99.42907,38.47299],[-99.42926,38.47301],[-99.42958,38.47303],[-99.43082,38.47313],[-99.43106,38.47315],[-99.43161,38.47319],[-99.43205,38.47322],[-99.43218,38.47322],[-99.43253,38.47324],[-99.43286,38.47326],[-99.4331,38.47326],[-99.43315,38.47326],[-99.43355,38.47326],[-99.43377,38.47325],[-99.434,38.47324],[-99.43406,38.47324],[-99.4341,38.47323],[-99.43411,38.47323],[-99.43423,38.47322],[-99.43429,38.47322],[-99.43435,38.47321],[-99.4348,38.47316],[-99.43513,38.47313],[-99.43517,38.47312],[-99.43547,38.47308],[-99.43603,38.47301],[-99.4361,38.473],[-99.43623,38.47298],[-99.43634,38.47297],[-99.4367,38.47292],[-99.43683,38.4729],[-99.43706,38.47287],[-99.43719,38.47285],[-99.43782,38.47277],[-99.43795,38.47275],[-99.43808,38.47273],[-99.43861,38.47267],[-99.43891,38.47263],[-99.43974,38.47253],[-99.44107,38.47237],[-99.44221,38.47224],[-99.44664,38.47171],[-99.44703,38.47166],[-99.44791,38.47156],[-99.44892,38.47145],[-99.44927,38.47141],[-99.45006,38.47132],[-99.45096,38.47121],[-99.45118,38.47118],[-99.45185,38.4711],[-99.45275,38.47099],[-99.45333,38.47092],[-99.45435,38.4708],[-99.4548,38.47074],[-99.45524,38.47069],[-99.45591,38.47061],[-99.45631,38.47056],[-99.4569,38.47049],[-99.45792,38.47037],[-99.45954,38.47017],[-99.46312,38.46973],[-99.46618,38.46937],[-99.46703,38.46926],[-99.46748,38.46921],[-99.46767,38.46918],[-99.4691,38.46901],[-99.46989,38.46891],[-99.47062,38.46882],[-99.4708,38.4688],[-99.47192,38.46866],[-99.47225,38.46862],[-99.47361,38.46846],[-99.47452,38.46835],[-99.47464,38.46833],[-99.47523,38.46826],[-99.47542,38.46824],[-99.47611,38.46816],[-99.47657,38.46811],[-99.4769,38.46807],[-99.47713,38.46805],[-99.47724,38.46804],[-99.47725,38.46804],[-99.47747,38.46802],[-99.47793,38.468],[-99.47816,38.46799],[-99.47838,38.46799],[-99.47855,38.46799],[-99.47884,38.468],[-99.47895,38.46801],[-99.4793,38.46804],[-99.47943,38.46805],[-99.47988,38.46809],[-99.47992,38.4681],[-99.48032,38.46813],[-99.48089,38.46819],[-99.48136,38.46824],[-99.48375,38.46847],[-99.48383,38.46848],[-99.48472,38.46857],[-99.48517,38.46861],[-99.48558,38.46865],[-99.4858,38.46867],[-99.4863,38.46872],[-99.48722,38.46882],[-99.48778,38.46887],[-99.48797,38.46889],[-99.48825,38.46893],[-99.48854,38.46896],[-99.49045,38.46914],[-99.4906,38.46916],[-99.49083,38.46918],[-99.49086,38.46919],[-99.49129,38.46923],[-99.49197,38.4693],[-99.4922,38.46932],[-99.49225,38.46932],[-99.49266,38.46936],[-99.49288,38.46939],[-99.49311,38.46941],[-99.49334,38.46943],[-99.49361,38.46946],[-99.4939,38.46948],[-99.49408,38.4695],[-99.49514,38.4696],[-99.49553,38.46964],[-99.49601,38.46969],[-99.49637,38.46972],[-99.49644,38.46973],[-99.49667,38.46975],[-99.49671,38.46976],[-99.49709,38.4698],[-99.49713,38.4698],[-99.49749,38.46983],[-99.49776,38.46986],[-99.49781,38.46987],[-99.49804,38.46989],[-99.49848,38.46993],[-99.49881,38.46997],[-99.49908,38.46999],[-99.4994,38.47001],[-99.49962,38.47003],[-99.49964,38.47003],[-99.49986,38.47005],[-99.50009,38.47006],[-99.50056,38.47008],[-99.50085,38.47008],[-99.50099,38.47009],[-99.50114,38.47009],[-99.50124,38.47009],[-99.50142,38.47008],[-99.50174,38.47008],[-99.50193,38.47007],[-99.50207,38.47006],[-99.50235,38.47005],[-99.50258,38.47004],[-99.50262,38.47003],[-99.50294,38.47002],[-99.50384,38.46996],[-99.50463,38.4699],[-99.50607,38.4698],[-99.50786,38.46968],[-99.50929,38.46958],[-99.50943,38.46957],[-99.51,38.46953],[-99.51063,38.46948],[-99.51084,38.46947],[-99.51156,38.46942],[-99.51167,38.46941],[-99.51191,38.46939],[-99.51263,38.46934],[-99.51342,38.46929],[-99.51368,38.46927],[-99.51462,38.4692],[-99.51555,38.46914],[-99.51678,38.46905],[-99.51693,38.46904],[-99.51701,38.46904],[-99.51888,38.46891],[-99.51976,38.46885],[-99.51999,38.46883],[-99.52013,38.46882],[-99.52119,38.46875],[-99.52153,38.46872],[-99.52227,38.46867],[-99.52234,38.46867],[-99.5225,38.46866],[-99.52273,38.46864],[-99.5232,38.46861],[-99.52354,38.46859],[-99.52365,38.46858],[-99.52379,38.46857],[-99.52429,38.46855],[-99.52479,38.46852],[-99.52524,38.4685],[-99.52525,38.4685],[-99.52555,38.46849],[-99.52587,38.46849],[-99.52594,38.46849],[-99.52614,38.46849],[-99.52663,38.4685],[-99.52681,38.46851],[-99.5272,38.46853],[-99.52778,38.46856],[-99.52795,38.46857],[-99.52801,38.46858],[-99.52823,38.46859],[-99.52869,38.46862],[-99.52891,38.46864],[-99.52892,38.46864],[-99.5294,38.46867],[-99.53002,38.46872],[-99.53062,38.46876],[-99.53094,38.46879],[-99.5316,38.46884],[-99.53201,38.46887],[-99.53248,38.46891],[-99.53278,38.46893],[-99.53305,38.46895],[-99.53343,38.46899],[-99.53355,38.469],[-99.53366,38.46901],[-99.53407,38.46904],[-99.53444,38.46907],[-99.5348,38.4691],[-99.53481,38.4691],[-99.53505,38.46911],[-99.53526,38.46912],[-99.5355,38.46913],[-99.53587,38.46914],[-99.53611,38.46915],[-99.53623,38.46914],[-99.53647,38.46914],[-99.53673,38.46913],[-99.53698,38.46912],[-99.53736,38.46909],[-99.53755,38.46907],[-99.53791,38.46903],[-99.53845,38.46897],[-99.5394,38.46886],[-99.5396,38.46884],[-99.53966,38.46883],[-99.54004,38.46878],[-99.54083,38.46869],[-99.54153,38.46861],[-99.54241,38.46851],[-99.54264,38.46848],[-99.54318,38.46842],[-99.54392,38.46833],[-99.54432,38.46828],[-99.54446,38.46827],[-99.54468,38.46824],[-99.54508,38.46818],[-99.54548,38.4681],[-99.54561,38.46807],[-99.54588,38.46802],[-99.54618,38.46796],[-99.54641,38.46791],[-99.54654,38.46788],[-99.54689,38.46782],[-99.54721,38.46775],[-99.54733,38.46773],[-99.54749,38.4677],[-99.54765,38.46767],[-99.54791,38.46762],[-99.54811,38.46758],[-99.54815,38.46758],[-99.54851,38.46752],[-99.54884,38.46747],[-99.54903,38.46745],[-99.54927,38.46741],[-99.54997,38.46734],[-99.55026,38.46731],[-99.55257,38.46704],[-99.55397,38.46688],[-99.55488,38.46678],[-99.55536,38.46672],[-99.55593,38.46666],[-99.55624,38.46663],[-99.55669,38.46658],[-99.5572,38.46652],[-99.55774,38.46648],[-99.55903,38.46636],[-99.56042,38.46624],[-99.5613,38.46617],[-99.56176,38.46612],[-99.56195,38.4661],[-99.5624,38.46606],[-99.56321,38.46599],[-99.56354,38.46596],[-99.56357,38.46595],[-99.56416,38.4659],[-99.5649,38.46583],[-99.56503,38.46581],[-99.56549,38.46577],[-99.56612,38.4657],[-99.56646,38.46566],[-99.56703,38.46561],[-99.56886,38.46543],[-99.56952,38.46536],[-99.56957,38.46535],[-99.57058,38.46525],[-99.57131,38.46517],[-99.57208,38.46509],[-99.57212,38.46509],[-99.57262,38.46504],[-99.57276,38.46502],[-99.57299,38.465],[-99.57367,38.46493],[-99.57396,38.4649],[-99.57458,38.46483],[-99.57505,38.46478],[-99.57557,38.46472],[-99.57611,38.46466],[-99.57617,38.46465],[-99.57661,38.4646],[-99.57689,38.46457],[-99.57737,38.46452],[-99.57754,38.4645],[-99.57798,38.46445],[-99.57848,38.46439],[-99.57873,38.46436],[-99.579,38.46433],[-99.57941,38.46428],[-99.57985,38.46423],[-99.5801,38.4642],[-99.58034,38.46418],[-99.58084,38.46412],[-99.58143,38.46405],[-99.58184,38.46401],[-99.5825,38.46393],[-99.58305,38.46387],[-99.58351,38.46382],[-99.58385,38.46378],[-99.58454,38.46371],[-99.58485,38.46367],[-99.58516,38.46364],[-99.58554,38.46359],[-99.58586,38.46356],[-99.58677,38.46346],[-99.58744,38.46338],[-99.5879,38.46333],[-99.58825,38.46329],[-99.58869,38.46324],[-99.58904,38.4632],[-99.5896,38.46313],[-99.59026,38.46306],[-99.59055,38.46303],[-99.59084,38.46299],[-99.59111,38.46297],[-99.59142,38.46293],[-99.59232,38.46282],[-99.59256,38.4628],[-99.59288,38.46276],[-99.59315,38.46272],[-99.59334,38.4627],[-99.59358,38.46266],[-99.5937,38.46265],[-99.59382,38.46263],[-99.59393,38.46261],[-99.594,38.4626],[-99.59421,38.46256],[-99.59452,38.46251],[-99.59481,38.46246],[-99.59498,38.46243],[-99.59514,38.4624],[-99.59583,38.46228],[-99.59626,38.4622],[-99.59659,38.46214],[-99.59727,38.46202],[-99.59806,38.46188],[-99.59861,38.46178],[-99.59929,38.46165],[-99.60019,38.46149],[-99.60121,38.46131],[-99.60229,38.46112],[-99.6044,38.46074],[-99.60498,38.46064],[-99.60546,38.46055],[-99.60581,38.46049],[-99.60625,38.46041],[-99.60669,38.46033],[-99.60725,38.46023],[-99.6077,38.46015],[-99.60814,38.46007],[-99.60842,38.46002],[-99.60887,38.45994],[-99.60927,38.45987],[-99.60951,38.45982],[-99.60991,38.45975],[-99.61013,38.45971],[-99.61041,38.45966],[-99.61151,38.45946],[-99.61297,38.4592],[-99.614,38.45902],[-99.61456,38.45892],[-99.61544,38.45876],[-99.616,38.45866],[-99.61667,38.45854],[-99.61725,38.45843],[-99.61879,38.45816],[-99.61949,38.45803],[-99.62049,38.45785],[-99.62117,38.45773],[-99.62273,38.45745],[-99.6237,38.45728],[-99.6239,38.45724],[-99.62459,38.45712],[-99.62494,38.45705],[-99.62516,38.45701],[-99.62548,38.45696],[-99.62594,38.45687],[-99.62632,38.45681],[-99.62745,38.4566],[-99.62773,38.45655],[-99.62783,38.45654],[-99.62818,38.45647],[-99.62897,38.45633],[-99.62963,38.45621],[-99.63191,38.4558],[-99.63243,38.45571],[-99.63289,38.45563],[-99.63308,38.45559],[-99.63321,38.45557],[-99.63333,38.45555],[-99.63346,38.45552],[-99.63377,38.45547],[-99.63412,38.45541],[-99.63451,38.45534],[-99.63467,38.4553],[-99.63478,38.45528],[-99.63493,38.45524],[-99.63504,38.45522],[-99.6352,38.45518],[-99.63536,38.45514],[-99.63543,38.45512],[-99.63555,38.45509],[-99.63557,38.45509],[-99.63567,38.45506],[-99.63576,38.45503],[-99.63595,38.45497],[-99.63616,38.4549],[-99.6364,38.45482],[-99.6366,38.45474],[-99.63666,38.45472],[-99.63681,38.45466],[-99.63683,38.45465],[-99.63703,38.45457],[-99.63714,38.45452],[-99.63735,38.45442],[-99.63741,38.4544],[-99.63749,38.45436],[-99.6375,38.45435],[-99.63759,38.4543],[-99.63775,38.45422],[-99.63779,38.4542],[-99.63798,38.4541],[-99.63803,38.45407],[-99.63817,38.45399],[-99.63826,38.45395],[-99.6386,38.45376],[-99.63881,38.45364],[-99.63892,38.45358],[-99.63894,38.45358],[-99.63901,38.45354],[-99.63904,38.45352],[-99.63916,38.45346],[-99.63927,38.45342],[-99.63947,38.45333],[-99.6396,38.45328],[-99.63972,38.45323],[-99.63985,38.45318],[-99.63997,38.45314],[-99.64009,38.4531],[-99.64019,38.45307],[-99.64034,38.45302],[-99.64046,38.45299],[-99.64075,38.45292],[-99.64095,38.45288],[-99.64101,38.45286],[-99.6411,38.45285],[-99.6412,38.45282],[-99.64135,38.4528],[-99.64162,38.45277],[-99.64178,38.45275],[-99.64192,38.45274],[-99.64201,38.45273],[-99.6421,38.45272],[-99.64225,38.45271],[-99.64247,38.45271],[-99.64269,38.45271],[-99.64288,38.45271],[-99.643,38.45272],[-99.64323,38.45273],[-99.64336,38.45274],[-99.64346,38.45275],[-99.64354,38.45276],[-99.64369,38.45278],[-99.64376,38.45279],[-99.64427,38.45286],[-99.64487,38.45294],[-99.64606,38.45312],[-99.6466,38.45319],[-99.6472,38.45327],[-99.64741,38.4533],[-99.64742,38.4533],[-99.64801,38.45338],[-99.64831,38.45343],[-99.6486,38.45346],[-99.64885,38.45349],[-99.64919,38.45352],[-99.64946,38.45355],[-99.64947,38.45355],[-99.64974,38.45357],[-99.64994,38.45358],[-99.6501,38.45359],[-99.65015,38.45359],[-99.65049,38.45361],[-99.65075,38.45362],[-99.65094,38.45362],[-99.65115,38.45362],[-99.65129,38.45362],[-99.65164,38.45362],[-99.65175,38.45362],[-99.65213,38.45361],[-99.65249,38.45359],[-99.6528,38.45358],[-99.65324,38.45354],[-99.65349,38.45352],[-99.6537,38.4535],[-99.65397,38.45347],[-99.65425,38.45344],[-99.65453,38.4534],[-99.65484,38.45336],[-99.65508,38.45333],[-99.65541,38.45329],[-99.65607,38.45321],[-99.65676,38.45313],[-99.65722,38.45307],[-99.65767,38.45302],[-99.65823,38.45295],[-99.6588,38.45288],[-99.65996,38.45274],[-99.66027,38.4527],[-99.66083,38.45263],[-99.66141,38.45256],[-99.66162,38.45254],[-99.66198,38.4525],[-99.66243,38.45244],[-99.66265,38.45241],[-99.6658,38.45203],[-99.66729,38.45185],[-99.66778,38.45179],[-99.66807,38.45175],[-99.66869,38.45168],[-99.66947,38.45158],[-99.6702,38.4515],[-99.67073,38.45143],[-99.67118,38.45138],[-99.6713,38.45137],[-99.67152,38.45135],[-99.67197,38.45131],[-99.67225,38.45129],[-99.67236,38.45128],[-99.67254,38.45127],[-99.67274,38.45126],[-99.67289,38.45125],[-99.6731,38.45125],[-99.67324,38.45124],[-99.67334,38.45124],[-99.67405,38.45123],[-99.67467,38.45123],[-99.67838,38.45123],[-99.68022,38.45122],[-99.68435,38.45122],[-99.68723,38.45121],[-99.68753,38.45121],[-99.68792,38.45121],[-99.68848,38.45121],[-99.68911,38.45121],[-99.68948,38.45121],[-99.69063,38.45121],[-99.69159,38.45121],[-99.69191,38.45121],[-99.6925,38.45121],[-99.69315,38.45121],[-99.69368,38.45121],[-99.69444,38.45121],[-99.69469,38.4512],[-99.69519,38.45121],[-99.69649,38.45121],[-99.6976,38.45121],[-99.69782,38.45121],[-99.7003,38.4512],[-99.70049,38.4512],[-99.70145,38.4512],[-99.70154,38.4512],[-99.70214,38.45119],[-99.70218,38.45119],[-99.70246,38.45119],[-99.70498,38.45118],[-99.70513,38.45118],[-99.70636,38.45117],[-99.70766,38.45117],[-99.70843,38.45116],[-99.70866,38.45116],[-99.70889,38.45116],[-99.71489,38.45113],[-99.7149,38.45113],[-99.71613,38.45112],[-99.71656,38.45112],[-99.7167,38.45112],[-99.7172,38.45112],[-99.7176,38.45111],[-99.71761,38.45111],[-99.7194,38.4511],[-99.71991,38.4511],[-99.71995,38.4511],[-99.72057,38.4511],[-99.72083,38.4511],[-99.7211,38.4511],[-99.72124,38.4511],[-99.72211,38.45109],[-99.72311,38.45109],[-99.7245,38.45108],[-99.72543,38.45107],[-99.72583,38.45107],[-99.72718,38.45106],[-99.72728,38.45106],[-99.7282,38.45106],[-99.7289,38.45106],[-99.73108,38.45105],[-99.73348,38.45105],[-99.73813,38.45104],[-99.74272,38.45103],[-99.74456,38.45103],[-99.74624,38.45102],[-99.75186,38.45101],[-99.75246,38.45101],[-99.75401,38.45101],[-99.75614,38.451],[-99.75637,38.451],[-99.76096,38.45099],[-99.76211,38.45099],[-99.76224,38.45099],[-99.76234,38.45099],[-99.76348,38.45099],[-99.76601,38.45098],[-99.76998,38.45096],[-99.77042,38.45096],[-99.77382,38.45095],[-99.77499,38.45094],[-99.77614,38.45094],[-99.77637,38.45094],[-99.77683,38.45094],[-99.77741,38.45093],[-99.77787,38.45093],[-99.77856,38.45093],[-99.77925,38.45093],[-99.77971,38.45092],[-99.78062,38.45092],[-99.78085,38.45092],[-99.78384,38.45091],[-99.78463,38.45091],[-99.78551,38.4509],[-99.78597,38.4509],[-99.78689,38.4509],[-99.78804,38.45089],[-99.78896,38.45089],[-99.79138,38.45088],[-99.79161,38.45088],[-99.79345,38.45087],[-99.7969,38.45086],[-99.7985,38.45085],[-99.80126,38.45084],[-99.80149,38.45084],[-99.80195,38.45084],[-99.80241,38.45084],[-99.80379,38.45083],[-99.80448,38.45083],[-99.80471,38.45083],[-99.80516,38.45082],[-99.80562,38.45082],[-99.807,38.45082],[-99.80792,38.45081],[-99.80815,38.45081],[-99.80884,38.45081],[-99.80907,38.45081],[-99.80976,38.45081],[-99.81205,38.4508],[-99.81228,38.4508],[-99.81389,38.45079],[-99.81435,38.45079],[-99.81665,38.45078],[-99.81826,38.45077],[-99.81849,38.45077],[-99.8194,38.45076],[-99.81963,38.45076],[-99.82147,38.45076],[-99.8217,38.45075],[-99.82239,38.45075],[-99.82308,38.45075],[-99.82469,38.45074],[-99.82545,38.45074],[-99.82706,38.45074],[-99.82889,38.45073],[-99.82935,38.45073],[-99.82981,38.45072],[-99.83013,38.45072],[-99.83117,38.45072],[-99.83234,38.45071],[-99.83285,38.45071],[-99.83303,38.45071],[-99.83372,38.45071],[-99.83395,38.45071],[-99.83418,38.4507],[-99.83487,38.4507],[-99.83488,38.4507],[-99.8351,38.4507],[-99.83601,38.4507],[-99.8367,38.45069],[-99.83739,38.45069],[-99.83854,38.45069],[-99.83992,38.45068],[-99.84267,38.45067],[-99.84313,38.45067],[-99.84359,38.45067],[-99.84474,38.45067],[-99.84497,38.45067],[-99.84979,38.45065],[-99.85002,38.45065],[-99.85025,38.45065],[-99.8514,38.45065],[-99.85186,38.45064],[-99.85255,38.45064],[-99.85278,38.45064],[-99.85301,38.45064],[-99.85554,38.45063],[-99.85668,38.45063],[-99.85691,38.45063],[-99.85829,38.45062],[-99.86036,38.45062],[-99.86059,38.45061],[-99.86082,38.45061],[-99.86151,38.45061],[-99.86239,38.45061],[-99.86865,38.45059],[-99.86888,38.45059],[-99.86957,38.45059],[-99.87164,38.45058],[-99.8727,38.45058],[-99.87471,38.45057],[-99.87508,38.45057],[-99.876,38.45057],[-99.87636,38.45056],[-99.8783,38.45056],[-99.87842,38.45056],[-99.87962,38.45055],[-99.88032,38.45055],[-99.88101,38.45055],[-99.88135,38.45055],[-99.88161,38.45054],[-99.88264,38.45054],[-99.88292,38.45054],[-99.88304,38.45055],[-99.88339,38.45056],[-99.88362,38.45057],[-99.88386,38.45058],[-99.88391,38.45059],[-99.88414,38.4506],[-99.88439,38.45063],[-99.88456,38.45065],[-99.88479,38.45067],[-99.88499,38.4507],[-99.88522,38.45073],[-99.88548,38.45078],[-99.88585,38.45084],[-99.88635,38.45094],[-99.88661,38.451],[-99.88763,38.45122],[-99.88836,38.45138],[-99.88838,38.45138],[-99.88858,38.45143],[-99.8886,38.45143],[-99.88913,38.45154],[-99.88918,38.45156],[-99.88998,38.45173],[-99.89093,38.45194],[-99.89102,38.45195],[-99.89103,38.45196],[-99.89125,38.45201],[-99.89169,38.4521],[-99.89224,38.45222],[-99.89287,38.45236],[-99.89315,38.45242],[-99.89329,38.45245],[-99.89355,38.4525],[-99.89384,38.45255],[-99.89418,38.4526],[-99.89433,38.45262],[-99.89451,38.45264],[-99.89461,38.45265],[-99.89477,38.45267],[-99.89493,38.45269],[-99.89511,38.4527],[-99.89528,38.45271],[-99.89597,38.45272],[-99.8962,38.45272],[-99.89781,38.45274],[-99.89804,38.45275],[-99.89827,38.45275],[-99.89942,38.45276],[-99.89944,38.45276],[-99.8999,38.45277],[-99.90005,38.45277]]}}]}