{"type":"FeatureCollection","features":[{"type":"Feature","properties":{"_gpxType":"trk","name":"Derrick Inn Motel, East Sycamore Street, Ness City, KS - Scott County Fitness Center, South Washington Street, Scott City, KS","coordinateProperties":{},"id":52},"geometry":{"type":"LineString","coordinates":[[-99.90014,38.45277],[-99.90083,38.45278],[-99.90155,38.45279],[-99.90175,38.45279],[-99.90223,38.4528],[-99.90294,38.45281],[-99.90363,38.45282],[-99.90365,38.45282],[-99.90504,38.45284],[-99.90574,38.45284],[-99.90644,38.45284],[-99.90713,38.45286],[-99.90768,38.45287],[-99.90784,38.45287],[-99.90836,38.45287],[-99.90869,38.45288],[-99.90923,38.45288],[-99.90992,38.45289],[-99.91053,38.45289],[-99.91111,38.45289],[-99.91203,38.4529],[-99.91272,38.45291],[-99.91336,38.45291],[-99.91472,38.45291],[-99.91602,38.45293],[-99.91676,38.45294],[-99.91699,38.45294],[-99.9172,38.45294],[-99.91734,38.45294],[-99.91744,38.45293],[-99.91754,38.45293],[-99.91774,38.45291],[-99.91789,38.45289],[-99.91801,38.45287],[-99.91811,38.45285],[-99.91822,38.45284],[-99.91859,38.45276],[-99.91891,38.4527],[-99.91913,38.45266],[-99.91925,38.45264],[-99.91939,38.45261],[-99.9195,38.45258],[-99.91976,38.45252],[-99.91995,38.45248],[-99.92008,38.45245],[-99.92017,38.45243],[-99.92051,38.45236],[-99.9207,38.45232],[-99.92089,38.45229],[-99.92099,38.45228],[-99.92113,38.45226],[-99.92131,38.45225],[-99.92145,38.45224],[-99.92151,38.45224],[-99.92337,38.45221],[-99.92452,38.4522],[-99.92475,38.4522],[-99.92705,38.45217],[-99.92728,38.45217],[-99.92751,38.45217],[-99.9282,38.45216],[-99.93532,38.45209],[-99.93784,38.45206],[-99.93807,38.45206],[-99.94565,38.45198],[-99.94588,38.45198],[-99.95379,38.4519],[-99.95793,38.45185],[-99.95982,38.45183],[-99.96076,38.45182],[-99.96156,38.4518],[-99.96201,38.45179],[-99.96229,38.45178],[-99.96235,38.45177],[-99.96246,38.45177],[-99.96275,38.45175],[-99.96295,38.45174],[-99.96352,38.45171],[-99.96444,38.45164],[-99.9649,38.45161],[-99.96523,38.45159],[-99.96567,38.45155],[-99.96602,38.45153],[-99.96648,38.45149],[-99.96716,38.45144],[-99.96786,38.45139],[-99.96889,38.45132],[-99.96938,38.45128],[-99.97075,38.45118],[-99.97183,38.4511],[-99.97223,38.45107],[-99.97312,38.451],[-99.9749,38.45087],[-99.9764,38.45076],[-99.97663,38.45074],[-99.978,38.45064],[-99.97823,38.45063],[-99.97937,38.45054],[-99.98198,38.45035],[-99.98256,38.45031],[-99.98324,38.45028],[-99.98395,38.45025],[-99.98442,38.45024],[-99.98495,38.45023],[-99.98591,38.45023],[-99.98661,38.45022],[-99.98717,38.45022],[-99.98729,38.45021],[-99.98834,38.4502],[-99.99061,38.45018],[-99.99268,38.45016],[-99.99336,38.45015],[-99.99406,38.45015],[-99.99612,38.45013],[-99.99676,38.45012],[-99.99727,38.45012],[-99.9975,38.45012],[-99.99773,38.45011],[-99.9999,38.45009],[-100.00333,38.45006],[-100.00356,38.45006],[-100.00724,38.45003],[-100.00807,38.45002],[-100.00903,38.45001],[-100.01819,38.44992],[-100.01877,38.44991],[-100.02016,38.4499],[-100.02039,38.4499],[-100.02118,38.44988],[-100.02143,38.44987],[-100.0221,38.44985],[-100.02246,38.44984],[-100.02268,38.44983],[-100.0235,38.4498],[-100.02373,38.44979],[-100.02436,38.44976],[-100.02524,38.44973],[-100.02691,38.44967],[-100.02767,38.44964],[-100.02801,38.44962],[-100.02871,38.4496],[-100.02964,38.44957],[-100.03032,38.44956],[-100.03102,38.44955],[-100.03157,38.44956],[-100.03215,38.44956],[-100.03298,38.44957],[-100.03321,38.44958],[-100.03355,38.44958],[-100.03469,38.44959],[-100.03666,38.44961],[-100.03974,38.44965],[-100.04079,38.44966],[-100.04538,38.44971],[-100.0469,38.44973],[-100.04713,38.44973],[-100.04851,38.44974],[-100.04877,38.44975],[-100.05448,38.44981],[-100.05654,38.44983],[-100.05838,38.44985],[-100.06183,38.44989],[-100.06349,38.44991],[-100.0636,38.44991],[-100.06371,38.44991],[-100.0638,38.44991],[-100.06391,38.44991],[-100.06412,38.44991],[-100.06421,38.44991],[-100.06439,38.44992],[-100.06619,38.44994],[-100.06721,38.44995],[-100.06895,38.44997],[-100.07379,38.45002],[-100.07687,38.45005],[-100.07762,38.45006],[-100.07818,38.45006],[-100.07864,38.45007],[-100.0791,38.45007],[-100.07957,38.45008],[-100.08055,38.45009],[-100.08204,38.45011],[-100.08334,38.45012],[-100.08661,38.45016],[-100.0873,38.45016],[-100.08788,38.45017],[-100.08838,38.45017],[-100.08892,38.45018],[-100.09126,38.4502],[-100.09333,38.45023],[-100.0962,38.45026],[-100.09819,38.45028],[-100.10055,38.4503],[-100.10075,38.4503],[-100.10095,38.4503],[-100.10302,38.45031],[-100.10358,38.45032],[-100.10798,38.45033],[-100.10925,38.45034],[-100.11421,38.45035],[-100.11457,38.45036],[-100.1148,38.45036],[-100.1157,38.45036],[-100.11641,38.45036],[-100.11916,38.45037],[-100.11993,38.45037],[-100.12024,38.45037],[-100.12126,38.45037],[-100.12161,38.45037],[-100.12506,38.45037],[-100.12552,38.45037],[-100.12575,38.45037],[-100.12667,38.45037],[-100.12713,38.45037],[-100.12758,38.45037],[-100.12873,38.45036],[-100.12919,38.45036],[-100.13034,38.45036],[-100.13085,38.45036],[-100.13293,38.45037],[-100.1331,38.45037],[-100.13402,38.45036],[-100.13424,38.45036],[-100.13535,38.45036],[-100.13562,38.45036],[-100.13585,38.45036],[-100.13656,38.45036],[-100.13883,38.45036],[-100.13904,38.45036],[-100.13915,38.45036],[-100.13921,38.45036],[-100.13926,38.45036],[-100.13943,38.45036],[-100.13948,38.45036],[-100.13956,38.45036],[-100.13963,38.45036],[-100.13968,38.45036],[-100.13979,38.45036],[-100.14003,38.45036],[-100.14018,38.45036],[-100.14111,38.45036],[-100.14209,38.45036],[-100.14232,38.45036],[-100.14492,38.45035],[-100.14537,38.45035],[-100.14584,38.45036],[-100.14619,38.45036],[-100.14668,38.45036],[-100.14691,38.45036],[-100.147,38.45036],[-100.14714,38.45036],[-100.14722,38.45036],[-100.14737,38.45036],[-100.14769,38.45036],[-100.14862,38.45035],[-100.14875,38.45035],[-100.14953,38.45035],[-100.1499,38.45035],[-100.15013,38.45035],[-100.15104,38.45035],[-100.1515,38.45035],[-100.15196,38.45035],[-100.15288,38.45035],[-100.15467,38.45035],[-100.15488,38.45035],[-100.1561,38.45035],[-100.15633,38.45035],[-100.15846,38.45035],[-100.1612,38.45035],[-100.16266,38.45034],[-100.16303,38.45034],[-100.16328,38.45034],[-100.16345,38.45034],[-100.16362,38.45034],[-100.16377,38.45034],[-100.16396,38.45034],[-100.16611,38.45034],[-100.16715,38.45034],[-100.16717,38.45034],[-100.16774,38.45034],[-100.17223,38.45034],[-100.1739,38.45033],[-100.17429,38.45033],[-100.175,38.45033],[-100.17613,38.45033],[-100.17636,38.45033],[-100.17798,38.45033],[-100.17834,38.45033],[-100.17894,38.45034],[-100.1792,38.45034],[-100.17968,38.45035],[-100.18027,38.45036],[-100.18085,38.45037],[-100.18131,38.45039],[-100.18147,38.4504],[-100.18181,38.4504],[-100.18327,38.45045],[-100.18391,38.45047],[-100.18437,38.45049],[-100.1846,38.4505],[-100.18483,38.4505],[-100.18666,38.45056],[-100.18784,38.4506],[-100.19149,38.45073],[-100.19191,38.45074],[-100.19238,38.45075],[-100.19263,38.45076],[-100.19288,38.45077],[-100.19337,38.45079],[-100.19376,38.4508],[-100.19378,38.4508],[-100.19413,38.45081],[-100.19465,38.45082],[-100.19493,38.45083],[-100.19519,38.45083],[-100.19608,38.45085],[-100.19788,38.45085],[-100.19896,38.45085],[-100.19928,38.45085],[-100.19989,38.45086],[-100.2007,38.45086],[-100.20185,38.45086],[-100.20207,38.45086],[-100.20208,38.45086],[-100.20271,38.45086],[-100.20316,38.45087],[-100.20369,38.45087],[-100.20406,38.45087],[-100.20412,38.45087],[-100.20527,38.45087],[-100.2053,38.45087],[-100.20553,38.45087],[-100.20561,38.45087],[-100.20576,38.45087],[-100.20621,38.45088],[-100.20644,38.45088],[-100.20667,38.45088],[-100.20699,38.45088],[-100.20754,38.45088],[-100.20782,38.45088],[-100.20806,38.45088],[-100.20828,38.45088],[-100.20864,38.45088],[-100.20894,38.45088],[-100.20938,38.45088],[-100.21135,38.45089],[-100.21221,38.45089],[-100.2129,38.45089],[-100.21313,38.45089],[-100.21474,38.4509],[-100.21933,38.45091],[-100.22091,38.45091],[-100.22145,38.45092],[-100.22146,38.45092],[-100.22169,38.45092],[-100.22183,38.45092],[-100.22193,38.45093],[-100.22219,38.45094],[-100.2223,38.45094],[-100.22245,38.45095],[-100.22269,38.45097],[-100.22293,38.45099],[-100.22305,38.451],[-100.22321,38.45102],[-100.2234,38.45105],[-100.22355,38.45107],[-100.22371,38.4511],[-100.22385,38.45112],[-100.224,38.45115],[-100.22416,38.45118],[-100.22431,38.45121],[-100.22447,38.45125],[-100.22462,38.45129],[-100.22474,38.45132],[-100.2249,38.45136],[-100.22501,38.45139],[-100.22512,38.45142],[-100.22523,38.45145],[-100.22534,38.45149],[-100.22545,38.45152],[-100.22556,38.45156],[-100.22577,38.45163],[-100.22588,38.45168],[-100.22598,38.45172],[-100.2261,38.45176],[-100.22619,38.4518],[-100.22629,38.45184],[-100.2264,38.45188],[-100.2265,38.45193],[-100.22662,38.45198],[-100.22672,38.45202],[-100.22691,38.45211],[-100.22701,38.45216],[-100.2271,38.45221],[-100.22719,38.45226],[-100.22729,38.45232],[-100.22746,38.45241],[-100.2276,38.45249],[-100.22777,38.4526],[-100.22804,38.45277],[-100.2284,38.45301],[-100.22859,38.45316],[-100.2287,38.45324],[-100.2291,38.45354],[-100.2296,38.45392],[-100.22994,38.45418],[-100.23036,38.45449],[-100.23063,38.45469],[-100.23095,38.45494],[-100.23129,38.4552],[-100.23148,38.45534],[-100.23171,38.45552],[-100.23198,38.45572],[-100.23222,38.4559],[-100.23248,38.45609],[-100.23298,38.45647],[-100.23332,38.45673],[-100.23357,38.45692],[-100.23383,38.45711],[-100.23409,38.45731],[-100.23482,38.45786],[-100.23485,38.45788],[-100.23504,38.45803],[-100.2352,38.45815],[-100.23532,38.45824],[-100.23584,38.45863],[-100.23644,38.45909],[-100.23752,38.45991],[-100.23784,38.46015],[-100.24017,38.46191],[-100.24028,38.462],[-100.2405,38.46216],[-100.24396,38.46477],[-100.2443,38.46503],[-100.24496,38.46553],[-100.24562,38.46603],[-100.24572,38.46611],[-100.24673,38.46687],[-100.24821,38.46799],[-100.24832,38.46808],[-100.24838,38.46812],[-100.24954,38.46899],[-100.25015,38.46946],[-100.25086,38.46999],[-100.25102,38.47012],[-100.25119,38.47024],[-100.25433,38.47262],[-100.25466,38.47287],[-100.25813,38.47549],[-100.25879,38.47599],[-100.25896,38.47611],[-100.26004,38.47693],[-100.26094,38.47761],[-100.26102,38.47766],[-100.26117,38.47778],[-100.26135,38.4779],[-100.26144,38.47796],[-100.26161,38.47807],[-100.26179,38.47819],[-100.26187,38.47824],[-100.26205,38.47835],[-100.26214,38.4784],[-100.26224,38.47845],[-100.26233,38.4785],[-100.26243,38.47855],[-100.26253,38.4786],[-100.26263,38.47865],[-100.26273,38.4787],[-100.26283,38.47875],[-100.26293,38.47879],[-100.26303,38.47883],[-100.26312,38.47888],[-100.26322,38.47892],[-100.26332,38.47896],[-100.26342,38.479],[-100.2635,38.47903],[-100.2636,38.47907],[-100.26371,38.47911],[-100.26381,38.47914],[-100.2639,38.47918],[-100.26403,38.47922],[-100.26415,38.47926],[-100.26423,38.47929],[-100.26435,38.47932],[-100.26446,38.47936],[-100.26457,38.47939],[-100.26467,38.47941],[-100.26477,38.47944],[-100.26488,38.47947],[-100.26528,38.47956],[-100.26549,38.4796],[-100.2657,38.47964],[-100.26602,38.47969],[-100.2662,38.47972],[-100.26648,38.47976],[-100.26682,38.47979],[-100.26714,38.47982],[-100.26738,38.47983],[-100.2676,38.47984],[-100.26794,38.47984],[-100.26862,38.47985],[-100.26919,38.47985],[-100.26976,38.47986],[-100.27179,38.47988],[-100.27282,38.47989],[-100.27384,38.4799],[-100.27439,38.47991],[-100.27482,38.47991],[-100.27499,38.47991],[-100.27597,38.47992],[-100.27793,38.47994],[-100.27941,38.47996],[-100.28065,38.47997],[-100.28133,38.47998],[-100.28168,38.47998],[-100.28214,38.47999],[-100.2827,38.47999],[-100.28315,38.48],[-100.28356,38.48],[-100.28424,38.48001],[-100.28447,38.48001],[-100.28539,38.48002],[-100.29166,38.48008],[-100.29291,38.48009],[-100.2936,38.4801],[-100.29403,38.4801],[-100.29479,38.4801],[-100.29659,38.48011],[-100.29723,38.48011],[-100.29839,38.48012],[-100.29859,38.48012],[-100.29903,38.48012],[-100.2996,38.48012],[-100.30005,38.48012],[-100.30085,38.48012],[-100.30188,38.48013],[-100.30384,38.48013],[-100.30539,38.48014],[-100.30623,38.48014],[-100.30705,38.48014],[-100.3075,38.48014],[-100.30853,38.48015],[-100.30944,38.48015],[-100.31057,38.48015],[-100.31102,38.48016],[-100.31295,38.48016],[-100.31341,38.48016],[-100.31398,38.48016],[-100.31443,38.48017],[-100.3152,38.48017],[-100.31522,38.48017],[-100.31546,38.48017],[-100.31592,38.48017],[-100.31728,38.48018],[-100.31886,38.48018],[-100.31955,38.48018],[-100.3203,38.48018],[-100.3219,38.48019],[-100.32354,38.48019],[-100.32443,38.48019],[-100.32466,38.48019],[-100.32673,38.4802],[-100.32838,38.4802],[-100.32944,38.48021],[-100.33034,38.48022],[-100.33092,38.48024],[-100.3317,38.48025],[-100.33227,38.48026],[-100.33286,38.48027],[-100.33567,38.48033],[-100.3367,38.48035],[-100.33683,38.48035],[-100.33706,38.48035],[-100.33714,38.48036],[-100.33894,38.48039],[-100.34289,38.48047],[-100.34335,38.48048],[-100.34432,38.4805],[-100.34495,38.48051],[-100.34784,38.48056],[-100.34864,38.48058],[-100.35004,38.48061],[-100.35027,38.48061],[-100.35052,38.48061],[-100.3508,38.48062],[-100.35192,38.48064],[-100.35272,38.48066],[-100.35499,38.4807],[-100.35598,38.48072],[-100.35621,38.48073],[-100.3569,38.48074],[-100.35768,38.48075],[-100.35914,38.48077],[-100.36039,38.48079],[-100.36175,38.48081],[-100.36218,38.48082],[-100.36228,38.48082],[-100.36297,38.48083],[-100.36343,38.48083],[-100.3654,38.48086],[-100.36549,38.48086],[-100.36586,38.48087],[-100.36595,38.48087],[-100.36619,38.48087],[-100.36641,38.48088],[-100.36664,38.48088],[-100.36678,38.48088],[-100.3671,38.48089],[-100.36731,38.48089],[-100.36733,38.48089],[-100.36746,38.48089],[-100.36848,38.48091],[-100.36855,38.48091],[-100.3698,38.48092],[-100.37055,38.48093],[-100.37127,38.48095],[-100.372,38.48096],[-100.3723,38.48096],[-100.37298,38.48097],[-100.37457,38.48099],[-100.37499,38.481],[-100.37537,38.481],[-100.37622,38.48101],[-100.3789,38.48105],[-100.38387,38.48112],[-100.38405,38.48112],[-100.38474,38.48114],[-100.38663,38.48116],[-100.38768,38.48118],[-100.38778,38.48118],[-100.38801,38.48118],[-100.38871,38.48119],[-100.38973,38.48121],[-100.39145,38.48123],[-100.39214,38.48124],[-100.39222,38.48124],[-100.39237,38.48124],[-100.39381,38.48126],[-100.39525,38.4813],[-100.39605,38.48132],[-100.3966,38.48134],[-100.39831,38.48138],[-100.39955,38.48141],[-100.40024,38.48143],[-100.40058,38.48144],[-100.40328,38.48151],[-100.40539,38.48157],[-100.40562,38.48158],[-100.40631,38.48159],[-100.40654,38.48159],[-100.40683,38.4816],[-100.40806,38.48163],[-100.40832,38.48164],[-100.40983,38.48167],[-100.41068,38.48169],[-100.41225,38.4817],[-100.41389,38.48171],[-100.41421,38.48171],[-100.41528,38.48172],[-100.41536,38.48172],[-100.41683,38.48172],[-100.41804,38.48173],[-100.41866,38.48174],[-100.42061,38.48175],[-100.42149,38.48175],[-100.42326,38.48177],[-100.42533,38.48178],[-100.42556,38.48178],[-100.42659,38.48178],[-100.42797,38.48179],[-100.42813,38.48179],[-100.4282,38.48179],[-100.42974,38.48181],[-100.43069,38.48181],[-100.43122,38.48181],[-100.43352,38.48183],[-100.43444,38.48183],[-100.43513,38.48184],[-100.43519,38.48184],[-100.43599,38.48184],[-100.4378,38.48186],[-100.43904,38.48187],[-100.43998,38.48188],[-100.44296,38.48191],[-100.44393,38.48192],[-100.44473,38.48193],[-100.44543,38.48193],[-100.4478,38.48196],[-100.44916,38.48197],[-100.44945,38.48197],[-100.45059,38.48198],[-100.45161,38.48199],[-100.45197,38.48199],[-100.45319,38.482],[-100.4546,38.48203],[-100.45535,38.48204],[-100.45605,38.48205],[-100.45662,38.48205],[-100.4574,38.48203],[-100.45771,38.48203],[-100.45842,38.48204],[-100.45905,38.48204],[-100.46037,38.48204],[-100.46095,38.48204],[-100.46159,38.48204],[-100.46222,38.48205],[-100.46286,38.48205],[-100.46422,38.48205],[-100.46554,38.48205],[-100.46622,38.48205],[-100.46689,38.48205],[-100.46754,38.48206],[-100.46819,38.48206],[-100.46892,38.48206],[-100.46953,38.48206],[-100.47086,38.48206],[-100.47153,38.48206],[-100.47219,38.48206],[-100.47352,38.48207],[-100.47414,38.48207],[-100.47484,38.48208],[-100.47604,38.48209],[-100.47867,38.48208],[-100.4806,38.48208],[-100.48389,38.48207],[-100.48527,38.48206],[-100.48648,38.48206],[-100.48722,38.48206],[-100.48819,38.48205],[-100.48892,38.48205],[-100.48929,38.48205],[-100.49087,38.48204],[-100.49136,38.48204],[-100.49274,38.48204],[-100.49298,38.48204],[-100.49323,38.48204],[-100.49637,38.48203],[-100.49807,38.48202],[-100.49986,38.48202],[-100.50009,38.48202],[-100.50011,38.48202],[-100.50032,38.48201],[-100.50376,38.48201],[-100.51502,38.48197],[-100.51525,38.48197],[-100.52225,38.48195],[-100.52564,38.48193],[-100.52914,38.48192],[-100.53213,38.48191],[-100.53626,38.4819],[-100.53753,38.48189],[-100.54021,38.48188],[-100.54446,38.48187],[-100.54632,38.48186],[-100.54685,38.48186],[-100.54889,38.48185],[-100.55114,38.48185],[-100.55137,38.48184],[-100.55482,38.48183],[-100.55548,38.48183],[-100.55684,38.48183],[-100.5574,38.48182],[-100.55872,38.48182],[-100.55901,38.48182],[-100.56184,38.48181],[-100.56263,38.4818],[-100.56276,38.4818],[-100.56491,38.48179],[-100.56699,38.48179],[-100.56768,38.48178],[-100.56776,38.48178],[-100.5698,38.48178],[-100.57059,38.48177],[-100.57116,38.48177],[-100.57173,38.48177],[-100.57298,38.48177],[-100.57457,38.48178],[-100.57572,38.48179],[-100.58215,38.48182],[-100.5894,38.48185],[-100.59422,38.48186],[-100.59662,38.48187],[-100.59919,38.48188],[-100.5994,38.48188],[-100.59976,38.48189],[-100.60137,38.48189],[-100.60224,38.4819],[-100.60346,38.4819],[-100.60361,38.4819],[-100.60469,38.48191],[-100.60594,38.48191],[-100.60639,38.48191],[-100.60685,38.48192],[-100.60731,38.48192],[-100.60764,38.48192],[-100.60816,38.48192],[-100.60885,38.48193],[-100.61048,38.48193],[-100.61284,38.48194],[-100.61631,38.48196],[-100.61654,38.48196],[-100.62321,38.48198],[-100.62344,38.48199],[-100.62501,38.48199],[-100.62813,38.482],[-100.63022,38.48201],[-100.63102,38.48202],[-100.63125,38.48202],[-100.63294,38.48202],[-100.63561,38.48204],[-100.63584,38.48204],[-100.63589,38.48204],[-100.63929,38.48205],[-100.64133,38.48206],[-100.64159,38.48206],[-100.64182,38.48206],[-100.64475,38.48207],[-100.64701,38.48208],[-100.6471,38.48208],[-100.64986,38.48209],[-100.65161,38.4821],[-100.65249,38.4821],[-100.65524,38.48211],[-100.65714,38.48212],[-100.65915,38.48213],[-100.66099,38.48213],[-100.66198,38.48213],[-100.66407,38.48214],[-100.66421,38.48215],[-100.66549,38.48215],[-100.66837,38.48216],[-100.66952,38.48217],[-100.67065,38.48217],[-100.67159,38.48218],[-100.67319,38.48218],[-100.67342,38.48218],[-100.67425,38.48219],[-100.6775,38.4822],[-100.67876,38.48221],[-100.6791,38.48221],[-100.68097,38.48224],[-100.68209,38.48226],[-100.68278,38.48227],[-100.68382,38.48229],[-100.68393,38.48229],[-100.68531,38.48231],[-100.68642,38.48233],[-100.68793,38.48236],[-100.69069,38.48241],[-100.69092,38.48241],[-100.69827,38.48253],[-100.6985,38.48254],[-100.70102,38.48258],[-100.70171,38.48259],[-100.70332,38.48262],[-100.70424,38.48263],[-100.70493,38.48264],[-100.70618,38.48267],[-100.70791,38.4827],[-100.70838,38.4827],[-100.71067,38.48274],[-100.71169,38.48276],[-100.71267,38.48278],[-100.71314,38.48278],[-100.71436,38.4828],[-100.71454,38.48281],[-100.71528,38.48282],[-100.71644,38.48284],[-100.71707,38.48285],[-100.71737,38.48285],[-100.7188,38.48286],[-100.71989,38.48287],[-100.721,38.48288],[-100.72197,38.48289],[-100.72226,38.48289],[-100.72328,38.4829],[-100.72424,38.4829],[-100.72645,38.48292],[-100.72673,38.48292],[-100.72845,38.48292],[-100.72972,38.48293],[-100.73212,38.48294],[-100.73488,38.48296],[-100.74144,38.483],[-100.74158,38.483],[-100.74173,38.483],[-100.74388,38.48301],[-100.74394,38.48301],[-100.7448,38.48302],[-100.74722,38.48303],[-100.74893,38.48305],[-100.74939,38.48305],[-100.75001,38.48305],[-100.75284,38.48307],[-100.75374,38.48307],[-100.75606,38.48308],[-100.75609,38.48308],[-100.75675,38.48309],[-100.75698,38.48309],[-100.75939,38.4831],[-100.75992,38.48311],[-100.76612,38.48314],[-100.76635,38.48314],[-100.76712,38.48314],[-100.76881,38.48314],[-100.77159,38.48315],[-100.77226,38.48315],[-100.775,38.48316],[-100.77573,38.48316],[-100.777,38.48316],[-100.77769,38.48316],[-100.77824,38.48316],[-100.7816,38.48316],[-100.78297,38.48316],[-100.78458,38.48316],[-100.78459,38.48316],[-100.78802,38.48316],[-100.79025,38.48316],[-100.79082,38.48317],[-100.79262,38.48316],[-100.79431,38.48316],[-100.79507,38.48315],[-100.79561,38.48315],[-100.79601,38.48315],[-100.79659,38.48314],[-100.79678,38.48314],[-100.79732,38.48314],[-100.79735,38.48314],[-100.79968,38.48313],[-100.80461,38.48311],[-100.80551,38.48311],[-100.80626,38.4831],[-100.80717,38.4831],[-100.80832,38.48309],[-100.80852,38.48309],[-100.81008,38.48309],[-100.81074,38.48308],[-100.81252,38.48308],[-100.81409,38.48307],[-100.81449,38.48307],[-100.81581,38.48307],[-100.81686,38.48306],[-100.81725,38.48306],[-100.81846,38.48306],[-100.82047,38.48305],[-100.82151,38.48304],[-100.82184,38.48304],[-100.82304,38.48304],[-100.82368,38.48303],[-100.82391,38.48303],[-100.82429,38.48303],[-100.82472,38.48303],[-100.82659,38.48302],[-100.82794,38.48301],[-100.82987,38.483],[-100.83127,38.483],[-100.83163,38.48301],[-100.83199,38.48301],[-100.83314,38.48299],[-100.83452,38.48298],[-100.8379,38.48297],[-100.83813,38.48297],[-100.84039,38.48296],[-100.84116,38.48295],[-100.84181,38.48295],[-100.84192,38.48295],[-100.84245,38.48295],[-100.843,38.48294],[-100.84388,38.48294],[-100.84393,38.48294],[-100.8448,38.48294],[-100.84499,38.48294],[-100.84573,38.48294],[-100.84778,38.48293],[-100.84801,38.48293],[-100.85169,38.48291],[-100.85229,38.48291],[-100.85399,38.4829],[-100.85514,38.48289],[-100.85559,38.48289],[-100.85575,38.48289],[-100.85658,38.48289],[-100.8574,38.48288],[-100.85873,38.48288],[-100.85973,38.48287],[-100.85982,38.48287],[-100.85996,38.48287],[-100.86077,38.48287],[-100.86085,38.48287],[-100.86111,38.48287],[-100.86219,38.48286],[-100.86338,38.48285],[-100.86342,38.48285],[-100.8643,38.48285],[-100.86755,38.48284],[-100.86802,38.48284],[-100.86854,38.48283],[-100.87011,38.48282],[-100.87021,38.48282],[-100.8703,38.48282],[-100.87178,38.48281],[-100.87258,38.48281],[-100.87266,38.48281],[-100.87266,38.48281],[-100.87272,38.48281],[-100.87315,38.48281],[-100.87401,38.4828],[-100.87413,38.4828],[-100.87538,38.4828],[-100.87726,38.48279],[-100.87739,38.48279],[-100.87776,38.48279],[-100.87871,38.48279],[-100.87969,38.48278],[-100.88055,38.48278],[-100.88205,38.48277],[-100.88298,38.48276],[-100.88301,38.48276],[-100.88503,38.48275],[-100.88511,38.48276],[-100.88519,38.48275],[-100.88579,38.48275],[-100.88602,38.48275],[-100.8868,38.48274],[-100.88711,38.48274],[-100.88774,38.48274],[-100.88843,38.48273],[-100.88876,38.48273],[-100.89051,38.48265],[-100.89169,38.48259],[-100.89242,38.48257],[-100.89251,38.48256],[-100.89357,38.48255],[-100.89429,38.48254],[-100.89514,38.48254],[-100.89564,38.48253],[-100.89638,38.48252],[-100.89669,38.48252],[-100.89684,38.48252],[-100.89733,38.48252],[-100.89742,38.48252],[-100.89762,38.48251],[-100.89797,38.48251],[-100.89815,38.48251],[-100.89845,38.48251],[-100.89845,38.48251],[-100.89896,38.48251],[-100.89922,38.48251],[-100.89946,38.48251],[-100.89949,38.48251],[-100.89986,38.48251],[-100.8999,38.48251],[-100.89996,38.48251],[-100.90046,38.4825],[-100.90052,38.48251],[-100.90057,38.48251],[-100.90086,38.4825],[-100.90091,38.4825],[-100.90097,38.4825],[-100.90115,38.4825],[-100.90173,38.4825],[-100.9018,38.4825],[-100.90188,38.4825],[-100.90226,38.4825],[-100.90299,38.48249],[-100.90305,38.48249],[-100.90313,38.48249],[-100.9033,38.48249],[-100.9042,38.48249],[-100.90428,38.48249],[-100.90434,38.48248],[-100.90466,38.48248],[-100.9047,38.48248],[-100.90493,38.48248],[-100.90507,38.48248],[-100.90526,38.48248],[-100.90548,38.48248],[-100.90558,38.48248],[-100.90558,38.48248],[-100.90557,38.48297],[-100.90557,38.48314],[-100.90558,38.48353],[-100.90558,38.48452],[-100.9056,38.4855],[-100.90559,38.4862]]}}]}