{"type":"FeatureCollection","features":[{"type":"Feature","properties":{"_gpxType":"trk","name":"Scott County Fitness Center, South Washington Street, Scott City, KS - Greeley County Swimming Pool, Fairgrounds Road, Tribune, KS","coordinateProperties":{},"id":53},"geometry":{"type":"LineString","coordinates":[[-100.90559,38.4862],[-100.9056,38.4855],[-100.90558,38.48452],[-100.90558,38.48353],[-100.90557,38.48314],[-100.90557,38.48297],[-100.90558,38.48248],[-100.90558,38.48248],[-100.90566,38.48248],[-100.90583,38.48248],[-100.90615,38.48248],[-100.9062,38.48248],[-100.90626,38.48248],[-100.9069,38.48248],[-100.90759,38.48247],[-100.90766,38.48247],[-100.90783,38.48247],[-100.90789,38.48247],[-100.9082,38.48247],[-100.90824,38.48247],[-100.90831,38.48247],[-100.90865,38.48247],[-100.90868,38.48247],[-100.90914,38.48247],[-100.90939,38.48247],[-100.90948,38.48247],[-100.9096,38.48247],[-100.91006,38.48246],[-100.91015,38.48246],[-100.91064,38.48246],[-100.91076,38.48246],[-100.91082,38.48246],[-100.91136,38.48246],[-100.912,38.48245],[-100.91207,38.48245],[-100.91211,38.48245],[-100.91214,38.48245],[-100.91266,38.48245],[-100.91269,38.48245],[-100.91273,38.48245],[-100.91315,38.48245],[-100.91328,38.48245],[-100.91334,38.48245],[-100.91383,38.48244],[-100.91386,38.48244],[-100.9139,38.48244],[-100.91401,38.48244],[-100.91404,38.48244],[-100.91408,38.48244],[-100.91444,38.48244],[-100.91451,38.48244],[-100.9146,38.48244],[-100.91502,38.48243],[-100.9157,38.48243],[-100.91579,38.48243],[-100.91626,38.48243],[-100.91639,38.48243],[-100.91653,38.48242],[-100.91676,38.48242],[-100.91679,38.48242],[-100.9174,38.48242],[-100.91746,38.48242],[-100.91749,38.48242],[-100.91792,38.48242],[-100.91799,38.48241],[-100.91804,38.48241],[-100.91871,38.48241],[-100.91875,38.48241],[-100.91878,38.48241],[-100.919,38.48241],[-100.91902,38.48241],[-100.91906,38.48241],[-100.91965,38.4824],[-100.91971,38.4824],[-100.91975,38.4824],[-100.92039,38.4824],[-100.92097,38.48239],[-100.921,38.48239],[-100.92104,38.48239],[-100.92136,38.48239],[-100.92141,38.48239],[-100.92221,38.48239],[-100.92315,38.48238],[-100.92318,38.48238],[-100.92324,38.48238],[-100.92369,38.48238],[-100.92438,38.48237],[-100.92445,38.48237],[-100.92452,38.48237],[-100.92525,38.48237],[-100.92538,38.48237],[-100.92565,38.48236],[-100.9262,38.48236],[-100.92681,38.48236],[-100.92779,38.48235],[-100.92788,38.48235],[-100.92796,38.48235],[-100.92808,38.48235],[-100.92858,38.48235],[-100.92914,38.48234],[-100.92992,38.48234],[-100.92999,38.48234],[-100.93003,38.48234],[-100.93073,38.48233],[-100.93084,38.48233],[-100.93128,38.48233],[-100.93176,38.48233],[-100.93199,38.48233],[-100.9323,38.48232],[-100.93302,38.48232],[-100.93337,38.48231],[-100.9341,38.48231],[-100.935,38.48231],[-100.93592,38.4823],[-100.93708,38.48229],[-100.93825,38.48228],[-100.93865,38.48228],[-100.94016,38.48227],[-100.94094,38.48227],[-100.94382,38.48225],[-100.94394,38.48225],[-100.94406,38.48225],[-100.94463,38.48225],[-100.94533,38.48224],[-100.94591,38.48224],[-100.94646,38.48223],[-100.94703,38.48223],[-100.94761,38.48223],[-100.94819,38.48222],[-100.94831,38.48222],[-100.94876,38.48222],[-100.94877,38.48222],[-100.94928,38.48222],[-100.9499,38.48221],[-100.95055,38.48221],[-100.95116,38.4822],[-100.95179,38.4822],[-100.95239,38.48219],[-100.95306,38.48219],[-100.95355,38.48219],[-100.95405,38.48218],[-100.95459,38.48218],[-100.95505,38.48218],[-100.95543,38.48218],[-100.95561,38.48217],[-100.95566,38.48217],[-100.95619,38.48217],[-100.95675,38.48217],[-100.95733,38.48217],[-100.9579,38.48217],[-100.95835,38.48217],[-100.95881,38.48217],[-100.95926,38.48217],[-100.95972,38.48217],[-100.96019,38.48217],[-100.96076,38.48217],[-100.9612,38.48217],[-100.96166,38.48217],[-100.96225,38.48217],[-100.96239,38.48217],[-100.96248,38.48217],[-100.96284,38.48217],[-100.96331,38.48217],[-100.9637,38.48217],[-100.96398,38.48217],[-100.96417,38.48217],[-100.96451,38.48218],[-100.96493,38.48218],[-100.96538,38.48218],[-100.96598,38.48218],[-100.96604,38.48218],[-100.96621,38.48218],[-100.96661,38.48218],[-100.96664,38.48218],[-100.96668,38.48218],[-100.96715,38.48218],[-100.96781,38.48218],[-100.96823,38.48218],[-100.9683,38.48218],[-100.96847,38.48218],[-100.969,38.48218],[-100.96943,38.48218],[-100.9699,38.48218],[-100.97,38.48218],[-100.97006,38.48218],[-100.97078,38.48218],[-100.9719,38.48219],[-100.97444,38.48219],[-100.97508,38.4822],[-100.9758,38.48219],[-100.97621,38.48219],[-100.97741,38.4822],[-100.97953,38.4822],[-100.97963,38.4822],[-100.9798,38.4822],[-100.98073,38.4822],[-100.98173,38.4822],[-100.98392,38.4822],[-100.98394,38.4822],[-100.9847,38.48221],[-100.98561,38.48221],[-100.98614,38.48221],[-100.98716,38.48221],[-100.98784,38.48221],[-100.98887,38.48221],[-100.98932,38.48221],[-100.99035,38.48222],[-100.99063,38.48222],[-100.99086,38.48222],[-100.99149,38.48222],[-100.99194,38.48222],[-100.99241,38.48222],[-100.99309,38.48222],[-100.99546,38.48222],[-100.99714,38.48223],[-100.99863,38.48223],[-100.9992,38.48223],[-101.00008,38.48223],[-101.00044,38.48223],[-101.00078,38.48223],[-101.00112,38.48223],[-101.00146,38.48223],[-101.00181,38.48223],[-101.00238,38.48224],[-101.00272,38.48224],[-101.00353,38.48224],[-101.00376,38.48224],[-101.00432,38.48224],[-101.00535,38.48224],[-101.00578,38.48224],[-101.00625,38.48224],[-101.00743,38.48225],[-101.00766,38.48226],[-101.00923,38.48227],[-101.00969,38.48227],[-101.01015,38.48228],[-101.01083,38.48229],[-101.01106,38.48229],[-101.0114,38.4823],[-101.01203,38.48231],[-101.0122,38.48231],[-101.01289,38.48232],[-101.01357,38.48233],[-101.01479,38.48234],[-101.01494,38.48234],[-101.01551,38.48235],[-101.01643,38.48236],[-101.0172,38.48237],[-101.01757,38.48238],[-101.0178,38.48238],[-101.01814,38.48239],[-101.01837,38.48239],[-101.01865,38.48239],[-101.01871,38.48239],[-101.01888,38.48239],[-101.01894,38.4824],[-101.01929,38.4824],[-101.01951,38.4824],[-101.01985,38.48241],[-101.02019,38.48241],[-101.02042,38.48242],[-101.02076,38.48242],[-101.0211,38.48242],[-101.02145,38.48243],[-101.02179,38.48243],[-101.02213,38.48244],[-101.02248,38.48244],[-101.02282,38.48245],[-101.02316,38.48245],[-101.0235,38.48245],[-101.02408,38.48246],[-101.02463,38.48247],[-101.02475,38.48247],[-101.02508,38.48247],[-101.02509,38.48247],[-101.02646,38.48249],[-101.02682,38.4825],[-101.02716,38.4825],[-101.0275,38.48251],[-101.02784,38.48251],[-101.0283,38.48252],[-101.02875,38.48252],[-101.02922,38.48253],[-101.02932,38.48253],[-101.02955,38.48253],[-101.02956,38.48253],[-101.02978,38.48254],[-101.03001,38.48254],[-101.0303,38.48254],[-101.03047,38.48255],[-101.03069,38.48255],[-101.03108,38.48256],[-101.0314,38.48256],[-101.03177,38.48256],[-101.0321,38.48257],[-101.03263,38.48258],[-101.03299,38.48258],[-101.03307,38.48258],[-101.03322,38.48258],[-101.03356,38.48259],[-101.03409,38.48259],[-101.03471,38.4826],[-101.03575,38.48261],[-101.03634,38.48261],[-101.03667,38.48261],[-101.0369,38.48261],[-101.03748,38.48261],[-101.03822,38.48261],[-101.03919,38.4826],[-101.03947,38.4826],[-101.0397,38.4826],[-101.04044,38.4826],[-101.0409,38.4826],[-101.04158,38.48259],[-101.04193,38.48259],[-101.042,38.48259],[-101.04284,38.48259],[-101.04292,38.48259],[-101.04338,38.48259],[-101.04426,38.48258],[-101.04683,38.48257],[-101.04729,38.48257],[-101.04912,38.48256],[-101.04982,38.48256],[-101.05068,38.48256],[-101.05073,38.48256],[-101.05099,38.48256],[-101.05153,38.48256],[-101.05196,38.48256],[-101.05342,38.48255],[-101.05411,38.48255],[-101.05454,38.48255],[-101.05506,38.48255],[-101.05571,38.48254],[-101.05572,38.48254],[-101.05595,38.48254],[-101.05618,38.48254],[-101.05636,38.48254],[-101.05641,38.48254],[-101.05709,38.48253],[-101.05722,38.48253],[-101.05732,38.48253],[-101.05755,38.48253],[-101.05769,38.48253],[-101.05819,38.48253],[-101.05847,38.48253],[-101.0586,38.48253],[-101.05893,38.48253],[-101.05903,38.48253],[-101.05927,38.48253],[-101.06021,38.48253],[-101.06077,38.48252],[-101.06079,38.48252],[-101.06123,38.48252],[-101.0614,38.48252],[-101.06146,38.48252],[-101.06284,38.48252],[-101.06299,38.48251],[-101.0633,38.48251],[-101.06346,38.48251],[-101.06376,38.48251],[-101.0638,38.48251],[-101.06399,38.48251],[-101.06414,38.48251],[-101.06422,38.48251],[-101.06448,38.48251],[-101.06493,38.4825],[-101.06514,38.4825],[-101.06537,38.4825],[-101.06575,38.4825],[-101.06608,38.4825],[-101.06628,38.4825],[-101.06651,38.4825],[-101.06743,38.4825],[-101.06863,38.48249],[-101.06914,38.48249],[-101.06922,38.48249],[-101.06973,38.48249],[-101.06996,38.48249],[-101.07006,38.48249],[-101.07052,38.48248],[-101.07075,38.48248],[-101.07098,38.48248],[-101.07144,38.48248],[-101.0719,38.48248],[-101.07254,38.48247],[-101.073,38.48247],[-101.07323,38.48247],[-101.07356,38.48247],[-101.07369,38.48247],[-101.07425,38.48247],[-101.07493,38.48247],[-101.07547,38.48246],[-101.0755,38.48246],[-101.07553,38.48246],[-101.0757,38.48246],[-101.07576,38.48246],[-101.07642,38.48246],[-101.07664,38.48245],[-101.07721,38.48245],[-101.07744,38.48245],[-101.07767,38.48245],[-101.07801,38.48245],[-101.07812,38.48245],[-101.07846,38.48245],[-101.07847,38.48245],[-101.07851,38.48245],[-101.07893,38.48245],[-101.07897,38.48245],[-101.07915,38.48244],[-101.07938,38.48244],[-101.07984,38.48244],[-101.08029,38.48244],[-101.08087,38.48244],[-101.08133,38.48243],[-101.08191,38.48243],[-101.08196,38.48243],[-101.08227,38.48243],[-101.08256,38.48243],[-101.083,38.48242],[-101.08368,38.48242],[-101.08455,38.48241],[-101.08517,38.4824],[-101.08615,38.48239],[-101.08711,38.48238],[-101.08814,38.48237],[-101.08927,38.48236],[-101.08984,38.48235],[-101.09119,38.48234],[-101.09189,38.48233],[-101.09269,38.48232],[-101.09314,38.48232],[-101.09394,38.48231],[-101.09475,38.4823],[-101.0951,38.4823],[-101.09533,38.48229],[-101.09543,38.48229],[-101.09611,38.48228],[-101.09668,38.48228],[-101.09671,38.48228],[-101.09772,38.48227],[-101.0981,38.48226],[-101.09923,38.48225],[-101.09969,38.48224],[-101.09984,38.48224],[-101.10061,38.48223],[-101.10147,38.48222],[-101.10223,38.48222],[-101.10285,38.48221],[-101.1034,38.4822],[-101.10389,38.4822],[-101.10439,38.4822],[-101.10462,38.4822],[-101.10515,38.48219],[-101.10571,38.48218],[-101.10674,38.48217],[-101.10765,38.48216],[-101.10868,38.48215],[-101.10971,38.48214],[-101.11217,38.48212],[-101.11359,38.48212],[-101.11461,38.48211],[-101.11499,38.4821],[-101.11544,38.4821],[-101.11586,38.4821],[-101.11642,38.48209],[-101.11672,38.48209],[-101.11742,38.48209],[-101.118,38.48208],[-101.11855,38.48208],[-101.11887,38.48208],[-101.1191,38.48208],[-101.11922,38.48208],[-101.11962,38.48207],[-101.12008,38.48207],[-101.12019,38.48207],[-101.12117,38.48206],[-101.12203,38.48206],[-101.12317,38.48205],[-101.12369,38.48205],[-101.12421,38.48204],[-101.12436,38.48204],[-101.12496,38.48204],[-101.12507,38.48204],[-101.12628,38.48203],[-101.12783,38.48202],[-101.12819,38.48202],[-101.12939,38.48201],[-101.13036,38.482],[-101.13138,38.482],[-101.13146,38.482],[-101.13312,38.482],[-101.14574,38.48197],[-101.14634,38.48197],[-101.14725,38.48197],[-101.1485,38.48197],[-101.1493,38.48197],[-101.15022,38.48197],[-101.15102,38.48197],[-101.15239,38.48196],[-101.15307,38.48196],[-101.15312,38.48196],[-101.15364,38.48196],[-101.15433,38.48196],[-101.15501,38.48196],[-101.15559,38.48196],[-101.15638,38.48196],[-101.15717,38.48195],[-101.15753,38.48195],[-101.15829,38.48195],[-101.15886,38.48195],[-101.15901,38.48195],[-101.15976,38.48195],[-101.16032,38.48195],[-101.16094,38.48195],[-101.16254,38.48194],[-101.1647,38.48194],[-101.16522,38.48194],[-101.16648,38.48194],[-101.1677,38.48193],[-101.16945,38.48193],[-101.17081,38.48192],[-101.1723,38.48192],[-101.17355,38.48192],[-101.17412,38.48192],[-101.17469,38.48192],[-101.17515,38.48192],[-101.17584,38.48192],[-101.17659,38.48191],[-101.17749,38.48191],[-101.17828,38.48191],[-101.17868,38.48191],[-101.17915,38.48191],[-101.17976,38.48191],[-101.18209,38.48191],[-101.18291,38.4819],[-101.18322,38.4819],[-101.18389,38.4819],[-101.18436,38.4819],[-101.18481,38.4819],[-101.18528,38.4819],[-101.18572,38.4819],[-101.18619,38.4819],[-101.18664,38.4819],[-101.18716,38.48189],[-101.1875,38.48189],[-101.18801,38.48189],[-101.18835,38.48189],[-101.1887,38.48189],[-101.18904,38.48189],[-101.1895,38.48189],[-101.18995,38.48189],[-101.19052,38.48189],[-101.19074,38.48189],[-101.19098,38.48189],[-101.19155,38.48188],[-101.19179,38.48188],[-101.19225,38.48188],[-101.19245,38.48188],[-101.19299,38.48188],[-101.19327,38.48188],[-101.19346,38.48188],[-101.19384,38.48188],[-101.19418,38.48188],[-101.1944,38.48188],[-101.19464,38.48188],[-101.1951,38.48188],[-101.19555,38.48188],[-101.19624,38.48188],[-101.1968,38.48187],[-101.19768,38.48187],[-101.1983,38.48187],[-101.19874,38.48187],[-101.19945,38.48187],[-101.20059,38.48187],[-101.20167,38.48186],[-101.2068,38.48185],[-101.20755,38.48185],[-101.20811,38.48185],[-101.20868,38.48185],[-101.20967,38.48185],[-101.20986,38.48185],[-101.21006,38.48185],[-101.21018,38.48185],[-101.21082,38.48185],[-101.21162,38.48184],[-101.21215,38.48184],[-101.21294,38.48184],[-101.21331,38.48184],[-101.21387,38.48184],[-101.21433,38.48184],[-101.21467,38.48184],[-101.215,38.48184],[-101.2151,38.48184],[-101.21533,38.48184],[-101.21558,38.48184],[-101.21627,38.48184],[-101.21672,38.48183],[-101.21714,38.48183],[-101.21766,38.48183],[-101.21799,38.48183],[-101.21845,38.48183],[-101.21893,38.48183],[-101.21973,38.48183],[-101.22015,38.48182],[-101.22098,38.48182],[-101.22172,38.48182],[-101.22252,38.48182],[-101.22342,38.48182],[-101.22412,38.48182],[-101.22491,38.48181],[-101.22589,38.48181],[-101.22634,38.48181],[-101.22663,38.48181],[-101.22686,38.48181],[-101.2272,38.48181],[-101.22765,38.48181],[-101.22823,38.48181],[-101.22868,38.48181],[-101.22924,38.48181],[-101.22994,38.4818],[-101.23074,38.4818],[-101.23114,38.4818],[-101.23157,38.4818],[-101.23188,38.4818],[-101.23223,38.4818],[-101.23267,38.4818],[-101.23322,38.4818],[-101.23338,38.4818],[-101.23361,38.4818],[-101.23384,38.48179],[-101.23479,38.48179],[-101.23499,38.48179],[-101.23567,38.48179],[-101.23642,38.48179],[-101.2366,38.48179],[-101.23706,38.48179],[-101.23844,38.48179],[-101.24005,38.48178],[-101.24067,38.48178],[-101.24158,38.48178],[-101.24213,38.48178],[-101.24249,38.48178],[-101.24306,38.48178],[-101.24335,38.48178],[-101.2438,38.48178],[-101.24453,38.48177],[-101.24528,38.48177],[-101.24648,38.48177],[-101.24763,38.48177],[-101.24825,38.48176],[-101.24911,38.48176],[-101.24998,38.48176],[-101.25065,38.48176],[-101.2513,38.48176],[-101.25136,38.48176],[-101.25207,38.48176],[-101.25245,38.48176],[-101.25307,38.48176],[-101.25314,38.48176],[-101.25337,38.48175],[-101.25427,38.48175],[-101.25503,38.48175],[-101.25592,38.48175],[-101.25681,38.48175],[-101.25696,38.48175],[-101.25725,38.48175],[-101.25789,38.48174],[-101.25853,38.48174],[-101.25911,38.48174],[-101.25947,38.48174],[-101.2607,38.48174],[-101.26142,38.48174],[-101.26207,38.48173],[-101.26233,38.48173],[-101.26242,38.48173],[-101.26286,38.48173],[-101.26339,38.48173],[-101.26432,38.48173],[-101.26598,38.48172],[-101.26695,38.48172],[-101.26791,38.48172],[-101.26938,38.48172],[-101.26961,38.48171],[-101.2702,38.48171],[-101.27107,38.48171],[-101.2726,38.48171],[-101.27521,38.4817],[-101.27606,38.4817],[-101.27686,38.4817],[-101.27755,38.48169],[-101.27885,38.48169],[-101.27944,38.48169],[-101.28012,38.48169],[-101.28091,38.48169],[-101.28166,38.48168],[-101.28228,38.48168],[-101.28276,38.48168],[-101.2833,38.48168],[-101.284,38.48168],[-101.28444,38.48168],[-101.28502,38.48167],[-101.28513,38.48167],[-101.28561,38.48167],[-101.28635,38.48167],[-101.28704,38.48167],[-101.28848,38.48166],[-101.29099,38.48166],[-101.29178,38.48166],[-101.29286,38.48166],[-101.29363,38.48165],[-101.2952,38.48165],[-101.29555,38.48165],[-101.29634,38.48165],[-101.29814,38.48164],[-101.29853,38.48164],[-101.29876,38.48164],[-101.29985,38.48164],[-101.3008,38.48163],[-101.30109,38.48164],[-101.30192,38.48163],[-101.30313,38.48163],[-101.30381,38.48163],[-101.3046,38.48163],[-101.30517,38.48162],[-101.30539,38.48162],[-101.30573,38.48162],[-101.30607,38.48162],[-101.3064,38.48162],[-101.30664,38.48162],[-101.30687,38.48162],[-101.3072,38.48162],[-101.30755,38.48162],[-101.30787,38.48162],[-101.30811,38.48162],[-101.30845,38.48162],[-101.3089,38.48162],[-101.30935,38.48161],[-101.30969,38.48161],[-101.30992,38.48161],[-101.31026,38.48161],[-101.31059,38.48161],[-101.31083,38.48161],[-101.31105,38.48161],[-101.31139,38.48161],[-101.31184,38.48161],[-101.31247,38.4816],[-101.31366,38.4816],[-101.31505,38.4816],[-101.31605,38.4816],[-101.31781,38.48159],[-101.31871,38.48159],[-101.31939,38.48158],[-101.31965,38.48158],[-101.3203,38.48156],[-101.32088,38.48156],[-101.32119,38.48156],[-101.32151,38.48156],[-101.32186,38.48156],[-101.32209,38.48155],[-101.32253,38.48155],[-101.32297,38.48155],[-101.32331,38.48155],[-101.32353,38.48155],[-101.32398,38.48155],[-101.32406,38.48155],[-101.32423,38.48155],[-101.32435,38.48155],[-101.32456,38.48155],[-101.32486,38.48155],[-101.32504,38.48155],[-101.32516,38.48155],[-101.32517,38.48155],[-101.32534,38.48155],[-101.32543,38.48155],[-101.3256,38.48155],[-101.32581,38.48154],[-101.32607,38.48154],[-101.3262,38.48154],[-101.32634,38.48154],[-101.32652,38.48154],[-101.32693,38.48154],[-101.32711,38.48154],[-101.32746,38.48154],[-101.32783,38.48154],[-101.32816,38.48154],[-101.32866,38.48154],[-101.32879,38.48154],[-101.32907,38.48154],[-101.32942,38.48154],[-101.32952,38.48154],[-101.33092,38.48153],[-101.33141,38.48154],[-101.33186,38.48154],[-101.33241,38.48154],[-101.33275,38.48154],[-101.33337,38.48154],[-101.33366,38.48154],[-101.33397,38.48154],[-101.33497,38.48154],[-101.33546,38.48154],[-101.33605,38.48154],[-101.33716,38.48154],[-101.33794,38.48153],[-101.33823,38.48153],[-101.33857,38.48153],[-101.33904,38.48153],[-101.33963,38.48153],[-101.34031,38.48153],[-101.34085,38.48153],[-101.34211,38.48152],[-101.34273,38.48151],[-101.34295,38.4815],[-101.34339,38.48149],[-101.34402,38.4815],[-101.34485,38.4815],[-101.34531,38.4815],[-101.34648,38.48149],[-101.34674,38.48149],[-101.34695,38.48149],[-101.3477,38.48149],[-101.34879,38.48146],[-101.34919,38.48146],[-101.35047,38.48145],[-101.35177,38.48146],[-101.35209,38.48144],[-101.35245,38.48145],[-101.35306,38.48144],[-101.35371,38.48144],[-101.35431,38.48143],[-101.35496,38.48143],[-101.35565,38.48143],[-101.35631,38.48142],[-101.35698,38.48142],[-101.35764,38.48141],[-101.35786,38.48141],[-101.35834,38.48141],[-101.35883,38.48141],[-101.35905,38.4814],[-101.3597,38.4814],[-101.36037,38.4814],[-101.36101,38.4814],[-101.3617,38.48139],[-101.36236,38.48139],[-101.36317,38.48138],[-101.36358,38.48138],[-101.36489,38.48137],[-101.3656,38.48137],[-101.36625,38.48136],[-101.36702,38.48136],[-101.36748,38.48136],[-101.36786,38.48135],[-101.36879,38.48135],[-101.37109,38.48133],[-101.37124,38.48133],[-101.37182,38.48133],[-101.37281,38.48133],[-101.37348,38.48132],[-101.37444,38.48132],[-101.37605,38.4813],[-101.37646,38.4813],[-101.37669,38.4813],[-101.37707,38.4813],[-101.37853,38.48129],[-101.37869,38.48128],[-101.37968,38.48128],[-101.38083,38.48128],[-101.38267,38.48128],[-101.3829,38.48128],[-101.38336,38.48127],[-101.384,38.48127],[-101.38594,38.48126],[-101.388,38.48125],[-101.38907,38.48125],[-101.38938,38.48125],[-101.39257,38.48124],[-101.39283,38.48124],[-101.39306,38.48124],[-101.39329,38.48124],[-101.3951,38.48123],[-101.39624,38.48123],[-101.39931,38.48122],[-101.39954,38.48122],[-101.40092,38.48121],[-101.40184,38.48121],[-101.40283,38.4812],[-101.40437,38.48119],[-101.40745,38.48118],[-101.41082,38.48117],[-101.41297,38.48116],[-101.41366,38.48116],[-101.41463,38.48115],[-101.41619,38.48115],[-101.41787,38.48114],[-101.42273,38.48112],[-101.42356,38.48111],[-101.42516,38.48111],[-101.42643,38.4811],[-101.42733,38.4811],[-101.42917,38.4811],[-101.4294,38.4811],[-101.4297,38.4811],[-101.43124,38.4811],[-101.43147,38.4811],[-101.43254,38.4811],[-101.43445,38.4811],[-101.43514,38.48111],[-101.43537,38.48111],[-101.43541,38.48111],[-101.43707,38.48111],[-101.43845,38.48111],[-101.43959,38.48111],[-101.4412,38.48111],[-101.44467,38.48111],[-101.44701,38.48112],[-101.44835,38.48112],[-101.44956,38.48112],[-101.44979,38.48112],[-101.45186,38.48112],[-101.45266,38.48112],[-101.45335,38.48112],[-101.45427,38.48112],[-101.4545,38.48112],[-101.45473,38.48112],[-101.45496,38.48112],[-101.45541,38.48112],[-101.45618,38.48113],[-101.457,38.48113],[-101.45786,38.48113],[-101.45911,38.48113],[-101.46136,38.48113],[-101.46306,38.48113],[-101.4649,38.48114],[-101.46707,38.48114],[-101.46808,38.48114],[-101.47134,38.48114],[-101.47151,38.48114],[-101.47309,38.48115],[-101.4734,38.48115],[-101.47405,38.48115],[-101.47508,38.48115],[-101.47623,38.48115],[-101.47934,38.48113],[-101.47967,38.48113],[-101.48082,38.48112],[-101.48105,38.48112],[-101.48197,38.48111],[-101.48243,38.48111],[-101.48266,38.48111],[-101.48289,38.48111],[-101.48292,38.48111],[-101.48411,38.48111],[-101.48532,38.48111],[-101.48621,38.4811],[-101.48753,38.48109],[-101.48891,38.48109],[-101.49074,38.48108],[-101.49183,38.48108],[-101.49229,38.48108],[-101.49298,38.48107],[-101.49321,38.48107],[-101.49344,38.48107],[-101.49436,38.48107],[-101.49466,38.48107],[-101.4953,38.48107],[-101.49558,38.48106],[-101.49604,38.48106],[-101.49627,38.48106],[-101.49655,38.48106],[-101.49673,38.48106],[-101.49717,38.48105],[-101.49719,38.48105],[-101.49733,38.48104],[-101.49742,38.48104],[-101.49756,38.48104],[-101.49765,38.48104],[-101.49787,38.48103],[-101.49827,38.48101],[-101.49834,38.48101],[-101.49857,38.48099],[-101.49876,38.48098],[-101.499,38.48096],[-101.49917,38.48095],[-101.49925,38.48094],[-101.49944,38.48092],[-101.49995,38.48085],[-101.50006,38.48084],[-101.50039,38.48079],[-101.50051,38.48078],[-101.50061,38.48076],[-101.50071,38.48075],[-101.50084,38.48073],[-101.50088,38.48072],[-101.5012,38.48066],[-101.50145,38.48062],[-101.50151,38.4806],[-101.50164,38.48058],[-101.50182,38.48055],[-101.50199,38.48051],[-101.50219,38.48047],[-101.50272,38.48035],[-101.5032,38.48024],[-101.50385,38.48008],[-101.5052,38.47977],[-101.50542,38.47972],[-101.50606,38.47957],[-101.50722,38.4793],[-101.50833,38.47905],[-101.50964,38.47874],[-101.50981,38.4787],[-101.51149,38.47831],[-101.51179,38.47824],[-101.51184,38.47823],[-101.51267,38.47804],[-101.51356,38.47783],[-101.51367,38.47781],[-101.51531,38.47743],[-101.51818,38.47676],[-101.51862,38.47666],[-101.51931,38.4765],[-101.521,38.47611],[-101.52104,38.4761],[-101.52252,38.47576],[-101.5242,38.47537],[-101.52515,38.47518],[-101.5254,38.47513],[-101.52595,38.47503],[-101.52607,38.47501],[-101.52652,38.47493],[-101.52684,38.47488],[-101.52765,38.47475],[-101.5311,38.47418],[-101.53145,38.47412],[-101.53256,38.47394],[-101.53341,38.47381],[-101.5338,38.47374],[-101.53408,38.4737],[-101.53499,38.47355],[-101.5352,38.47351],[-101.53565,38.47344],[-101.53609,38.47337],[-101.537,38.47322],[-101.53712,38.4732],[-101.53843,38.47298],[-101.53881,38.47292],[-101.53903,38.47289],[-101.53926,38.47285],[-101.53991,38.47274],[-101.54038,38.47266],[-101.54048,38.47265],[-101.54103,38.47256],[-101.54151,38.47248],[-101.54172,38.47244],[-101.5426,38.4723],[-101.54359,38.47215],[-101.54422,38.47207],[-101.54438,38.47205],[-101.54443,38.47205],[-101.54449,38.47204],[-101.54471,38.47202],[-101.5452,38.47198],[-101.5454,38.47197],[-101.54615,38.47193],[-101.54672,38.4719],[-101.54717,38.47188],[-101.54741,38.47187],[-101.54779,38.47185],[-101.54797,38.47184],[-101.54809,38.47183],[-101.54819,38.47182],[-101.54832,38.47181],[-101.54891,38.47176],[-101.54924,38.47173],[-101.54991,38.47164],[-101.5504,38.47158],[-101.55221,38.47132],[-101.55311,38.47118],[-101.55492,38.47092],[-101.55515,38.47089],[-101.55606,38.47076],[-101.55938,38.47027],[-101.56282,38.46977],[-101.56305,38.46974],[-101.56453,38.46952],[-101.56726,38.46913],[-101.5732,38.46827],[-101.57403,38.46815],[-101.57426,38.46811],[-101.57934,38.46737],[-101.58058,38.46719],[-101.58081,38.46716],[-101.58149,38.46706],[-101.58375,38.46674],[-101.58414,38.46668],[-101.58559,38.46647],[-101.5874,38.46621],[-101.58763,38.46617],[-101.58793,38.46613],[-101.58845,38.46605],[-101.58898,38.46597],[-101.59012,38.46581],[-101.59124,38.46565],[-101.59147,38.46561],[-101.59214,38.46552],[-101.59234,38.46549],[-101.59323,38.46536],[-101.60095,38.46423],[-101.60163,38.46414],[-101.60426,38.46376],[-101.60554,38.46357],[-101.60809,38.4632],[-101.60879,38.4631],[-101.60901,38.46306],[-101.60992,38.46293],[-101.61198,38.46263],[-101.61334,38.46243],[-101.61511,38.46218],[-101.61629,38.46201],[-101.61839,38.46171],[-101.6189,38.46163],[-101.61965,38.46152],[-101.61987,38.46149],[-101.6219,38.46119],[-101.62258,38.46109],[-101.62262,38.46109],[-101.62377,38.46092],[-101.62552,38.46067],[-101.628,38.4603],[-101.6289,38.46017],[-101.63184,38.45975],[-101.63636,38.45909],[-101.63884,38.45873],[-101.63929,38.45866],[-101.63952,38.45863],[-101.64099,38.45841],[-101.64228,38.45823],[-101.64273,38.45816],[-101.64499,38.45783],[-101.64522,38.4578],[-101.6477,38.45743],[-101.64792,38.4574],[-101.64996,38.4571],[-101.65101,38.45695],[-101.65124,38.45692],[-101.65146,38.45688],[-101.65318,38.45663],[-101.65372,38.45655],[-101.65395,38.45652],[-101.6544,38.45645],[-101.65462,38.45642],[-101.65694,38.45608],[-101.65937,38.45573],[-101.6616,38.4554],[-101.66454,38.45497],[-101.66476,38.45493],[-101.66499,38.4549],[-101.66544,38.45484],[-101.66567,38.4548],[-101.66653,38.45468],[-101.66702,38.4546],[-101.66725,38.45457],[-101.66747,38.45454],[-101.66815,38.45444],[-101.6686,38.45438],[-101.67051,38.4541],[-101.67088,38.45405],[-101.67132,38.45401],[-101.67153,38.45399],[-101.67155,38.45399],[-101.67208,38.45394],[-101.67254,38.45391],[-101.6728,38.4539],[-101.67321,38.45388],[-101.67345,38.45387],[-101.67407,38.45387],[-101.67412,38.45386],[-101.67492,38.45387],[-101.67512,38.45388],[-101.67544,38.45389],[-101.67545,38.45389],[-101.67595,38.45391],[-101.67616,38.45393],[-101.67661,38.45396],[-101.67727,38.45403],[-101.67824,38.45414],[-101.67889,38.45424],[-101.67949,38.45435],[-101.68018,38.45449],[-101.68058,38.45458],[-101.68096,38.45467],[-101.68224,38.45496],[-101.68268,38.45506],[-101.6829,38.45511],[-101.68312,38.45516],[-101.68334,38.45521],[-101.6841,38.45539],[-101.68423,38.45541],[-101.68482,38.45553],[-101.68537,38.45563],[-101.68557,38.45566],[-101.68601,38.45574],[-101.68714,38.45593],[-101.68715,38.45593],[-101.68736,38.45597],[-101.68754,38.456],[-101.68921,38.45628],[-101.68976,38.45637],[-101.69079,38.45654],[-101.69124,38.45662],[-101.69213,38.45677],[-101.69234,38.4568],[-101.69372,38.45703],[-101.69393,38.45707],[-101.69438,38.45714],[-101.69676,38.45754],[-101.69775,38.4577],[-101.69878,38.45787],[-101.69901,38.45791],[-101.69957,38.45801],[-101.70036,38.45813],[-101.70125,38.45828],[-101.70148,38.45832],[-101.7017,38.45836],[-101.70171,38.45836],[-101.70262,38.45851],[-101.70352,38.45866],[-101.70365,38.45868],[-101.70374,38.4587],[-101.70397,38.45873],[-101.70509,38.45892],[-101.70576,38.45904],[-101.70599,38.45907],[-101.70626,38.45912],[-101.70684,38.45921],[-101.70689,38.45922],[-101.70711,38.45926],[-101.70774,38.45936],[-101.70779,38.45937],[-101.70824,38.45944],[-101.70913,38.4596],[-101.70958,38.45967],[-101.71048,38.45982],[-101.7116,38.46001],[-101.71183,38.46005],[-101.71205,38.46008],[-101.71228,38.46012],[-101.7125,38.46016],[-101.71363,38.46035],[-101.71385,38.46038],[-101.7143,38.46046],[-101.7152,38.46061],[-101.71713,38.46093],[-101.71758,38.46101],[-101.71771,38.46103],[-101.71941,38.46131],[-101.72005,38.46142],[-101.72162,38.46168],[-101.72189,38.46173],[-101.72297,38.46191],[-101.7232,38.46194],[-101.72342,38.46198],[-101.72522,38.46228],[-101.72742,38.46265],[-101.7282,38.46278],[-101.72836,38.4628],[-101.7291,38.46293],[-101.72915,38.46294],[-101.72932,38.46297],[-101.73043,38.46315],[-101.73112,38.46327],[-101.73134,38.4633],[-101.73157,38.46334],[-101.73192,38.4634],[-101.73202,38.46342],[-101.73224,38.46345],[-101.7327,38.46353],[-101.73382,38.46371],[-101.73428,38.46379],[-101.7353,38.46396],[-101.73692,38.46423],[-101.73812,38.46443],[-101.73886,38.46455],[-101.74032,38.4648],[-101.74122,38.46495],[-101.74144,38.46499],[-101.74145,38.46499],[-101.74175,38.46504],[-101.74292,38.46523],[-101.74363,38.46535],[-101.74447,38.46549],[-101.74486,38.46555],[-101.74541,38.46562],[-101.74586,38.46566],[-101.74618,38.46569],[-101.74649,38.46572],[-101.74677,38.46574],[-101.74695,38.46574],[-101.74721,38.46575],[-101.7477,38.46576],[-101.74801,38.46577],[-101.74874,38.46577],[-101.74895,38.46577],[-101.75032,38.46578],[-101.75067,38.46578],[-101.75118,38.46578],[-101.75163,38.46578],[-101.75166,38.46578],[-101.75239,38.46578],[-101.75239,38.46578],[-101.75241,38.46668],[-101.75241,38.46698],[-101.75241,38.46714],[-101.75241,38.46733],[-101.75241,38.46752],[-101.75241,38.4677],[-101.75242,38.46871],[-101.75241,38.46977],[-101.75243,38.47083],[-101.75242,38.47184],[-101.75242,38.47287],[-101.75242,38.47387],[-101.75243,38.47418],[-101.75244,38.47452],[-101.75244,38.47452],[-101.75268,38.47452],[-101.75378,38.47453],[-101.75465,38.47453]]}}]}