{"type":"FeatureCollection","features":[{"type":"Feature","properties":{"_gpxType":"trk","name":"Greeley County Swimming Pool, Fairgrounds Road, Tribune, KS - Cobblestone Inn & Suites - Eads, East Lowell Street, Eads, CO","coordinateProperties":{},"id":54},"geometry":{"type":"LineString","coordinates":[[-101.75465,38.47453],[-101.75378,38.47453],[-101.75268,38.47452],[-101.75244,38.47452],[-101.75244,38.47452],[-101.75243,38.47418],[-101.75242,38.47387],[-101.75242,38.47287],[-101.75242,38.47184],[-101.75243,38.47083],[-101.75241,38.46977],[-101.75242,38.46871],[-101.75241,38.4677],[-101.75241,38.46752],[-101.75241,38.46733],[-101.75241,38.46714],[-101.75241,38.46698],[-101.75241,38.46668],[-101.75239,38.46578],[-101.75239,38.46578],[-101.75351,38.46577],[-101.75375,38.46578],[-101.75479,38.46577],[-101.75509,38.46577],[-101.75563,38.46577],[-101.75633,38.46577],[-101.75695,38.46576],[-101.75763,38.46576],[-101.75795,38.46576],[-101.75811,38.46576],[-101.75831,38.46576],[-101.75893,38.46576],[-101.75958,38.46575],[-101.76022,38.46575],[-101.76085,38.46575],[-101.76111,38.46574],[-101.76137,38.46575],[-101.76181,38.46575],[-101.76256,38.46574],[-101.76702,38.46571],[-101.76772,38.46571],[-101.76852,38.46571],[-101.76996,38.46571],[-101.77065,38.4657],[-101.77102,38.4657],[-101.77335,38.46569],[-101.7742,38.46569],[-101.77544,38.46569],[-101.7757,38.46569],[-101.77659,38.46569],[-101.77747,38.4657],[-101.77754,38.4657],[-101.77777,38.4657],[-101.77903,38.46572],[-101.78007,38.46573],[-101.78023,38.46573],[-101.78135,38.46574],[-101.78211,38.46576],[-101.78246,38.46576],[-101.7833,38.46577],[-101.78393,38.46578],[-101.78483,38.46579],[-101.78507,38.46579],[-101.78613,38.4658],[-101.78667,38.4658],[-101.78671,38.4658],[-101.7869,38.46581],[-101.78713,38.46581],[-101.78775,38.46582],[-101.78781,38.46582],[-101.78827,38.46582],[-101.79011,38.46584],[-101.79051,38.46584],[-101.79138,38.46584],[-101.7926,38.46584],[-101.7933,38.46584],[-101.79416,38.46584],[-101.79462,38.46583],[-101.79508,38.46583],[-101.79531,38.46583],[-101.79614,38.46583],[-101.79764,38.46582],[-101.79827,38.46582],[-101.79897,38.46582],[-101.79945,38.46582],[-101.80008,38.46582],[-101.8014,38.46581],[-101.80184,38.46581],[-101.80293,38.46581],[-101.80298,38.46581],[-101.80432,38.4658],[-101.80873,38.46579],[-101.81193,38.46578],[-101.8129,38.46578],[-101.81403,38.46578],[-101.81568,38.46577],[-101.81703,38.46577],[-101.81767,38.46576],[-101.81792,38.46576],[-101.81863,38.46576],[-101.81905,38.46576],[-101.81928,38.46576],[-101.81985,38.46576],[-101.82102,38.46575],[-101.82208,38.46575],[-101.82319,38.46575],[-101.82364,38.46575],[-101.8239,38.46575],[-101.82446,38.46575],[-101.82493,38.46575],[-101.82562,38.46575],[-101.82711,38.46574],[-101.83102,38.46574],[-101.83124,38.46574],[-101.833,38.46574],[-101.83897,38.46574],[-101.84366,38.46574],[-101.84561,38.46573],[-101.84604,38.46573],[-101.84675,38.46574],[-101.84703,38.46574],[-101.84731,38.46573],[-101.84778,38.46573],[-101.84831,38.46573],[-101.84869,38.46573],[-101.85225,38.46573],[-101.85253,38.46573],[-101.85334,38.46573],[-101.85623,38.46573],[-101.85704,38.46573],[-101.85736,38.46573],[-101.85838,38.46572],[-101.86046,38.46572],[-101.86104,38.46572],[-101.8614,38.46572],[-101.86214,38.46572],[-101.86261,38.46572],[-101.86329,38.46572],[-101.86374,38.46572],[-101.86411,38.46572],[-101.86437,38.46572],[-101.86508,38.46572],[-101.86684,38.46572],[-101.86716,38.46571],[-101.86798,38.46571],[-101.86877,38.46571],[-101.8699,38.46571],[-101.87084,38.46571],[-101.872,38.46571],[-101.87268,38.46571],[-101.87333,38.46571],[-101.87391,38.46571],[-101.87411,38.46571],[-101.87448,38.46571],[-101.87491,38.46571],[-101.87536,38.46571],[-101.8754,38.46571],[-101.87559,38.46571],[-101.87584,38.46571],[-101.87719,38.46571],[-101.87757,38.46571],[-101.87837,38.46572],[-101.8787,38.46572],[-101.87889,38.46572],[-101.87961,38.46572],[-101.87973,38.46572],[-101.87996,38.46572],[-101.87997,38.46572],[-101.88061,38.46572],[-101.88108,38.46572],[-101.88179,38.46573],[-101.8824,38.46573],[-101.88658,38.46574],[-101.88811,38.46575],[-101.89051,38.46576],[-101.89363,38.46577],[-101.89535,38.46577],[-101.89659,38.46577],[-101.89707,38.46578],[-101.89798,38.46578],[-101.89826,38.46578],[-101.89924,38.46578],[-101.90006,38.46578],[-101.90051,38.46579],[-101.90142,38.46578],[-101.90214,38.46578],[-101.90299,38.46578],[-101.90349,38.46578],[-101.9042,38.46577],[-101.90544,38.46577],[-101.9082,38.46575],[-101.90865,38.46575],[-101.90921,38.46574],[-101.90981,38.46574],[-101.91055,38.46574],[-101.91366,38.46573],[-101.91467,38.46572],[-101.91621,38.46571],[-101.91726,38.46571],[-101.91802,38.4657],[-101.91894,38.4657],[-101.9233,38.4657],[-101.92594,38.46569],[-101.92835,38.46569],[-101.92881,38.46569],[-101.93019,38.46569],[-101.93203,38.46569],[-101.93208,38.46569],[-101.93344,38.46569],[-101.93524,38.46569],[-101.93583,38.46569],[-101.93704,38.46569],[-101.93743,38.46568],[-101.93899,38.46568],[-101.94047,38.46568],[-101.94152,38.46568],[-101.94175,38.46568],[-101.94349,38.46568],[-101.94358,38.46568],[-101.94738,38.46568],[-101.94865,38.46568],[-101.9488,38.46568],[-101.95149,38.46568],[-101.95256,38.46567],[-101.95325,38.46567],[-101.9537,38.46567],[-101.95426,38.46567],[-101.95483,38.46567],[-101.95529,38.46567],[-101.95575,38.46567],[-101.95601,38.46567],[-101.95959,38.46567],[-101.95982,38.46567],[-101.96303,38.46567],[-101.96557,38.46566],[-101.96763,38.46566],[-101.96786,38.46566],[-101.9686,38.46566],[-101.96914,38.46566],[-101.97019,38.46565],[-101.97117,38.46565],[-101.97235,38.46565],[-101.97336,38.46565],[-101.97392,38.46565],[-101.9743,38.46565],[-101.97452,38.46565],[-101.97471,38.46565],[-101.97501,38.46565],[-101.97568,38.46565],[-101.97592,38.46565],[-101.97736,38.46565],[-101.97814,38.46565],[-101.97902,38.46565],[-101.97991,38.46565],[-101.98127,38.46565],[-101.98182,38.46565],[-101.98205,38.46565],[-101.98211,38.46565],[-101.98267,38.46565],[-101.98343,38.46565],[-101.98413,38.46565],[-101.98492,38.46565],[-101.98552,38.46565],[-101.9861,38.46565],[-101.98662,38.46565],[-101.98722,38.46565],[-101.98774,38.46564],[-101.98827,38.46565],[-101.98893,38.46565],[-101.98963,38.46565],[-101.98984,38.46565],[-101.99053,38.46565],[-101.99122,38.46564],[-101.99164,38.46565],[-101.99214,38.46565],[-101.99285,38.46565],[-101.99323,38.46565],[-101.99387,38.46565],[-101.99453,38.46565],[-101.99536,38.46564],[-101.9955,38.46564],[-101.99649,38.46564],[-101.99687,38.46564],[-101.99742,38.46564],[-101.9979,38.46564],[-101.99858,38.46564],[-101.9988,38.46564],[-101.9991,38.46564],[-101.99926,38.46564],[-102.00225,38.46564],[-102.00248,38.46564],[-102.00495,38.46564],[-102.00564,38.46564],[-102.00638,38.46564],[-102.00709,38.46564],[-102.0082,38.46564],[-102.00902,38.46564],[-102.00958,38.46564],[-102.01029,38.46564],[-102.01075,38.46564],[-102.01166,38.46564],[-102.01202,38.46564],[-102.01286,38.46564],[-102.01406,38.46563],[-102.01442,38.46563],[-102.01457,38.46563],[-102.01465,38.46563],[-102.01533,38.46563],[-102.01591,38.46562],[-102.01647,38.46562],[-102.01703,38.46562],[-102.01783,38.46562],[-102.01914,38.46562],[-102.02095,38.46561],[-102.02196,38.46561],[-102.02241,38.46561],[-102.02278,38.4656],[-102.02322,38.4656],[-102.02366,38.4656],[-102.02667,38.4656],[-102.02692,38.4656],[-102.02714,38.46559],[-102.02782,38.46559],[-102.02922,38.46559],[-102.0295,38.46558],[-102.0308,38.46558],[-102.03216,38.46558],[-102.03317,38.46557],[-102.03383,38.46557],[-102.03466,38.46557],[-102.03522,38.46556],[-102.03569,38.46556],[-102.03621,38.46557],[-102.0366,38.46559],[-102.03696,38.46562],[-102.03729,38.46566],[-102.0374,38.46567],[-102.03762,38.4657],[-102.03763,38.4657],[-102.0377,38.46571],[-102.03783,38.46573],[-102.03785,38.46574],[-102.03792,38.46575],[-102.03818,38.4658],[-102.03841,38.46585],[-102.03871,38.46591],[-102.03906,38.466],[-102.03934,38.46609],[-102.03958,38.46616],[-102.03979,38.46624],[-102.04006,38.46633],[-102.04009,38.46634],[-102.04025,38.4664],[-102.04041,38.46647],[-102.04043,38.46648],[-102.04062,38.46656],[-102.04063,38.46656],[-102.0408,38.46663],[-102.04107,38.46676],[-102.0411,38.46677],[-102.04289,38.46758],[-102.04322,38.46773],[-102.04366,38.46793],[-102.04448,38.4683],[-102.04504,38.46855],[-102.04504,38.46855],[-102.04616,38.46907],[-102.04624,38.4691],[-102.04684,38.46937],[-102.04698,38.46944],[-102.04704,38.46946],[-102.04744,38.46964],[-102.04823,38.47],[-102.0485,38.47011],[-102.04878,38.47023],[-102.04904,38.47033],[-102.04911,38.47036],[-102.04945,38.47048],[-102.04973,38.47058],[-102.05007,38.4707],[-102.05042,38.47081],[-102.05095,38.47097],[-102.05096,38.47097],[-102.05118,38.47103],[-102.05174,38.47118],[-102.05225,38.4713],[-102.05278,38.47142],[-102.05332,38.47153],[-102.05368,38.47159],[-102.0541,38.47165],[-102.05427,38.47168],[-102.05435,38.47169],[-102.05471,38.47174],[-102.0549,38.47176],[-102.05519,38.47179],[-102.05549,38.47182],[-102.05579,38.47185],[-102.05595,38.47186],[-102.05616,38.47187],[-102.05645,38.47189],[-102.05679,38.47191],[-102.05696,38.47191],[-102.05714,38.47192],[-102.05732,38.47192],[-102.05746,38.47192],[-102.05762,38.47193],[-102.05813,38.47193],[-102.05869,38.47193],[-102.05971,38.47192],[-102.05992,38.47192],[-102.06068,38.47191],[-102.06091,38.47191],[-102.06389,38.4719],[-102.06412,38.4719],[-102.06421,38.4719],[-102.0645,38.4719],[-102.06557,38.47189],[-102.06596,38.47189],[-102.06665,38.47189],[-102.06679,38.47189],[-102.0673,38.47189],[-102.06734,38.47189],[-102.06757,38.47189],[-102.06777,38.47189],[-102.06811,38.47189],[-102.06865,38.47188],[-102.06915,38.47188],[-102.06966,38.47188],[-102.07008,38.47186],[-102.07079,38.47183],[-102.07124,38.47181],[-102.0714,38.4718],[-102.07147,38.47179],[-102.07156,38.47179],[-102.07192,38.47177],[-102.07216,38.47176],[-102.07376,38.47167],[-102.07422,38.47164],[-102.07445,38.47163],[-102.07482,38.47161],[-102.07544,38.47157],[-102.07722,38.47148],[-102.07751,38.47147],[-102.07812,38.47145],[-102.07857,38.47145],[-102.07978,38.47144],[-102.0799,38.47144],[-102.08009,38.47143],[-102.0804,38.47143],[-102.08066,38.47144],[-102.0809,38.47144],[-102.08104,38.47144],[-102.08115,38.47146],[-102.08124,38.47147],[-102.08133,38.47148],[-102.08148,38.47151],[-102.08173,38.47155],[-102.08196,38.47159],[-102.08213,38.47162],[-102.08226,38.47164],[-102.08238,38.47166],[-102.08246,38.47167],[-102.08259,38.47168],[-102.08276,38.47169],[-102.08298,38.4717],[-102.08311,38.4717],[-102.0833,38.4717],[-102.08349,38.4717],[-102.0838,38.47169],[-102.08448,38.47168],[-102.08494,38.47168],[-102.08543,38.47167],[-102.08569,38.47167],[-102.08623,38.47168],[-102.08632,38.47168],[-102.08699,38.4717],[-102.08738,38.47171],[-102.08755,38.47172],[-102.08789,38.47173],[-102.08825,38.47174],[-102.08879,38.47175],[-102.08917,38.47176],[-102.08962,38.47176],[-102.09055,38.47176],[-102.09106,38.47176],[-102.09129,38.47176],[-102.09134,38.47176],[-102.09197,38.47175],[-102.09271,38.47175],[-102.0929,38.47175],[-102.09313,38.47175],[-102.09367,38.47174],[-102.09471,38.47174],[-102.09528,38.47174],[-102.09588,38.47173],[-102.09593,38.47173],[-102.09662,38.47173],[-102.09701,38.47173],[-102.09726,38.47173],[-102.09728,38.47173],[-102.09857,38.47172],[-102.09919,38.47172],[-102.09956,38.47172],[-102.09979,38.47171],[-102.10134,38.4717],[-102.10297,38.4717],[-102.10456,38.47169],[-102.10566,38.47168],[-102.10594,38.47168],[-102.10631,38.47168],[-102.10681,38.47168],[-102.10741,38.47167],[-102.10759,38.47167],[-102.10943,38.47166],[-102.10944,38.47166],[-102.11071,38.47166],[-102.11186,38.47165],[-102.11283,38.47164],[-102.11332,38.47164],[-102.11402,38.47163],[-102.11468,38.47163],[-102.11523,38.47163],[-102.11568,38.47162],[-102.11619,38.47162],[-102.11632,38.47162],[-102.1167,38.47162],[-102.11712,38.47162],[-102.11753,38.47161],[-102.11793,38.47161],[-102.1182,38.47161],[-102.11861,38.47161],[-102.11954,38.4716],[-102.12037,38.4716],[-102.12171,38.47159],[-102.124,38.47158],[-102.12436,38.47158],[-102.12495,38.47158],[-102.12589,38.47157],[-102.12738,38.47157],[-102.12888,38.47156],[-102.13332,38.47153],[-102.13447,38.47153],[-102.1386,38.4715],[-102.13883,38.4715],[-102.13906,38.4715],[-102.1409,38.47149],[-102.14143,38.47149],[-102.14283,38.47148],[-102.14384,38.47147],[-102.14496,38.47147],[-102.14498,38.47147],[-102.14601,38.47146],[-102.14684,38.47146],[-102.14789,38.47145],[-102.15237,38.47143],[-102.15357,38.47142],[-102.15441,38.47142],[-102.15593,38.47141],[-102.15615,38.47141],[-102.16443,38.47137],[-102.16751,38.47135],[-102.16815,38.47135],[-102.16871,38.47134],[-102.16959,38.47134],[-102.1704,38.47134],[-102.1723,38.47132],[-102.1751,38.4713],[-102.17545,38.4713],[-102.17752,38.47128],[-102.18005,38.47126],[-102.18009,38.47126],[-102.18081,38.47126],[-102.18097,38.47125],[-102.18165,38.47124],[-102.18189,38.47124],[-102.18212,38.47123],[-102.18227,38.47123],[-102.18441,38.47119],[-102.18464,38.47118],[-102.18579,38.47116],[-102.18602,38.47116],[-102.18616,38.47116],[-102.18732,38.47113],[-102.1884,38.47112],[-102.19045,38.47112],[-102.19061,38.47112],[-102.191,38.47112],[-102.19127,38.47113],[-102.19168,38.47113],[-102.19272,38.47114],[-102.19378,38.47114],[-102.19383,38.47114],[-102.19406,38.47115],[-102.19419,38.47115],[-102.1949,38.47115],[-102.19613,38.47116],[-102.19638,38.47116],[-102.19771,38.47116],[-102.19851,38.47116],[-102.20003,38.47115],[-102.2028,38.47113],[-102.20307,38.47113],[-102.20404,38.47112],[-102.20528,38.47112],[-102.20537,38.47112],[-102.20626,38.47111],[-102.20723,38.4711],[-102.20736,38.4711],[-102.2079,38.4711],[-102.20792,38.4711],[-102.20846,38.4711],[-102.20903,38.47109],[-102.21011,38.47109],[-102.21109,38.47108],[-102.21111,38.47108],[-102.21134,38.47108],[-102.2117,38.47107],[-102.21223,38.47106],[-102.21293,38.47106],[-102.21337,38.47105],[-102.21341,38.47105],[-102.21383,38.47105],[-102.21432,38.47105],[-102.21433,38.47105],[-102.21499,38.47104],[-102.21502,38.47104],[-102.21525,38.47104],[-102.2164,38.47103],[-102.21676,38.47103],[-102.21737,38.47102],[-102.2179,38.47102],[-102.21833,38.47102],[-102.21841,38.47102],[-102.21856,38.47102],[-102.21902,38.47101],[-102.21951,38.47101],[-102.22015,38.47101],[-102.22078,38.471],[-102.22143,38.471],[-102.2215,38.471],[-102.2221,38.471],[-102.22281,38.471],[-102.22339,38.47099],[-102.22351,38.47099],[-102.22406,38.47099],[-102.22488,38.47098],[-102.22543,38.47098],[-102.226,38.47098],[-102.2266,38.47097],[-102.22668,38.47097],[-102.22729,38.47097],[-102.22753,38.47097],[-102.22822,38.47096],[-102.22877,38.47096],[-102.22919,38.47096],[-102.22959,38.47095],[-102.22974,38.47095],[-102.22982,38.47095],[-102.23058,38.47095],[-102.23113,38.47095],[-102.23209,38.47094],[-102.23441,38.47093],[-102.23806,38.47092],[-102.24405,38.47089],[-102.24889,38.47086],[-102.24907,38.47086],[-102.25462,38.47083],[-102.25543,38.47081],[-102.25555,38.47081],[-102.25581,38.4708],[-102.25619,38.47077],[-102.2564,38.47076],[-102.25683,38.47073],[-102.25711,38.4707],[-102.25805,38.47059],[-102.25863,38.47052],[-102.25919,38.47045],[-102.25938,38.47043],[-102.26097,38.47024],[-102.26124,38.4702],[-102.26142,38.47018],[-102.26208,38.4701],[-102.26344,38.46994],[-102.26601,38.46963],[-102.26619,38.4696],[-102.26706,38.4695],[-102.26894,38.46927],[-102.2696,38.46919],[-102.26964,38.46918],[-102.27014,38.46912],[-102.27118,38.46899],[-102.27123,38.46899],[-102.27193,38.4689],[-102.27213,38.46888],[-102.27277,38.4688],[-102.273,38.46877],[-102.27327,38.46874],[-102.27405,38.46865],[-102.27501,38.46853],[-102.27554,38.46847],[-102.27626,38.46838],[-102.27764,38.46821],[-102.27799,38.46817],[-102.27959,38.46797],[-102.28026,38.46789],[-102.28094,38.4678],[-102.28231,38.46763],[-102.2831,38.46749],[-102.28395,38.46731],[-102.28399,38.46731],[-102.28497,38.46709],[-102.28568,38.46693],[-102.28696,38.46664],[-102.28723,38.46658],[-102.28838,38.46632],[-102.28896,38.46621],[-102.28926,38.46615],[-102.28959,38.46611],[-102.28977,38.46608],[-102.29009,38.46605],[-102.29046,38.46603],[-102.29077,38.46601],[-102.29111,38.466],[-102.29241,38.46598],[-102.29373,38.46596],[-102.29402,38.46596],[-102.29526,38.46593],[-102.29603,38.46591],[-102.29621,38.4659],[-102.29635,38.46589],[-102.29689,38.46585],[-102.29712,38.46583],[-102.29726,38.46581],[-102.29736,38.4658],[-102.29789,38.46574],[-102.29804,38.46572],[-102.29871,38.46564],[-102.30008,38.46547],[-102.30036,38.46544],[-102.30094,38.46537],[-102.3016,38.46529],[-102.30263,38.46516],[-102.30306,38.46511],[-102.30307,38.46511],[-102.30419,38.46498],[-102.30487,38.46489],[-102.3051,38.46487],[-102.30616,38.46474],[-102.30714,38.46461],[-102.30828,38.46448],[-102.30828,38.46448],[-102.30962,38.46431],[-102.311,38.46413],[-102.31199,38.46401],[-102.31236,38.46396],[-102.31273,38.46391],[-102.31281,38.4639],[-102.31394,38.46376],[-102.31727,38.46335],[-102.31897,38.46314],[-102.31965,38.46306],[-102.32182,38.46279],[-102.32215,38.46275],[-102.32412,38.46251],[-102.32596,38.46229],[-102.32782,38.46207],[-102.32805,38.46204],[-102.32958,38.46185],[-102.33083,38.4617],[-102.33292,38.46145],[-102.33304,38.46144],[-102.33327,38.46141],[-102.33554,38.46114],[-102.33556,38.46113],[-102.33577,38.46111],[-102.33668,38.461],[-102.3378,38.46086],[-102.33864,38.46076],[-102.33917,38.4607],[-102.34158,38.46039],[-102.34255,38.46027],[-102.34298,38.46022],[-102.34502,38.45996],[-102.34634,38.4598],[-102.3477,38.45964],[-102.34815,38.45958],[-102.34883,38.4595],[-102.34974,38.45939],[-102.3511,38.45922],[-102.35133,38.45919],[-102.3518,38.45914],[-102.35292,38.459],[-102.35301,38.45898],[-102.35315,38.45897],[-102.35428,38.45883],[-102.35451,38.4588],[-102.35553,38.45867],[-102.35632,38.45858],[-102.35655,38.45855],[-102.35754,38.45843],[-102.35859,38.4583],[-102.36109,38.458],[-102.36158,38.45794],[-102.36336,38.45772],[-102.36363,38.45769],[-102.36467,38.45756],[-102.36569,38.45744],[-102.36573,38.45743],[-102.36675,38.45731],[-102.36722,38.45725],[-102.3678,38.45718],[-102.36857,38.45708],[-102.37006,38.4569],[-102.37107,38.45678],[-102.37303,38.45654],[-102.37357,38.45647],[-102.37479,38.45633],[-102.37607,38.45617],[-102.37613,38.45616],[-102.37675,38.45609],[-102.37713,38.45604],[-102.3781,38.45592],[-102.37982,38.45571],[-102.38165,38.45549],[-102.38292,38.45534],[-102.38399,38.4552],[-102.38403,38.4552],[-102.38421,38.45518],[-102.38517,38.45506],[-102.38657,38.45489],[-102.38716,38.45482],[-102.38852,38.45465],[-102.38966,38.45451],[-102.39021,38.45445],[-102.39216,38.45421],[-102.3942,38.45395],[-102.39845,38.45343],[-102.4001,38.45322],[-102.40106,38.4531],[-102.40164,38.45303],[-102.40228,38.45295],[-102.4025,38.45292],[-102.40277,38.45289],[-102.40409,38.45273],[-102.40445,38.45268],[-102.40615,38.45248],[-102.40659,38.45242],[-102.40681,38.45239],[-102.40845,38.45219],[-102.41051,38.45194],[-102.41135,38.45184],[-102.41158,38.45181],[-102.41167,38.4518],[-102.41737,38.4511],[-102.41748,38.45109],[-102.41771,38.45106],[-102.42011,38.45077],[-102.42139,38.45062],[-102.42307,38.45043],[-102.42407,38.45031],[-102.42575,38.4501],[-102.42624,38.45003],[-102.42783,38.44983],[-102.42941,38.44963],[-102.43033,38.44952],[-102.43055,38.44949],[-102.43201,38.44931],[-102.43312,38.44918],[-102.43471,38.44898],[-102.43691,38.44871],[-102.43804,38.44858],[-102.43892,38.44845],[-102.43962,38.44832],[-102.44099,38.44807],[-102.44211,38.44791],[-102.44532,38.44755],[-102.44605,38.44747],[-102.44752,38.4473],[-102.44787,38.44726],[-102.44882,38.44716],[-102.44946,38.44709],[-102.45042,38.44698],[-102.45052,38.44697],[-102.45099,38.44691],[-102.45187,38.44681],[-102.45214,38.44678],[-102.45293,38.44668],[-102.45305,38.44667],[-102.45418,38.44653],[-102.45509,38.44642],[-102.45589,38.44632],[-102.45622,38.44628],[-102.45759,38.44612],[-102.45779,38.44609],[-102.45827,38.44604],[-102.45891,38.44596],[-102.46032,38.44579],[-102.46099,38.44571],[-102.46102,38.44571],[-102.46235,38.44555],[-102.46244,38.44554],[-102.46371,38.44539],[-102.46413,38.44534],[-102.46417,38.44533],[-102.46456,38.44527],[-102.46462,38.44526],[-102.46499,38.4452],[-102.46541,38.44512],[-102.46582,38.44504],[-102.46621,38.44497],[-102.46663,38.44488],[-102.46678,38.44485],[-102.46733,38.44475],[-102.46787,38.44464],[-102.46843,38.44453],[-102.46914,38.4444],[-102.46984,38.44426],[-102.4717,38.4439],[-102.47259,38.44372],[-102.47273,38.4437],[-102.47308,38.44363],[-102.47437,38.44338],[-102.47451,38.44335],[-102.47459,38.44333],[-102.47467,38.44332],[-102.4763,38.443],[-102.47674,38.44291],[-102.47682,38.4429],[-102.47829,38.44261],[-102.47852,38.44256],[-102.47988,38.4423],[-102.48038,38.4422],[-102.48075,38.44213],[-102.48217,38.44185],[-102.48231,38.44182],[-102.48258,38.44177],[-102.48289,38.44171],[-102.48365,38.44157],[-102.48375,38.44155],[-102.48383,38.44153],[-102.48452,38.4414],[-102.48588,38.44114],[-102.48601,38.44111],[-102.48699,38.44092],[-102.48802,38.44072],[-102.48874,38.44058],[-102.48916,38.4405],[-102.48936,38.44046],[-102.49003,38.44033],[-102.49011,38.44031],[-102.49025,38.44028],[-102.49092,38.44015],[-102.491,38.44013],[-102.49135,38.44007],[-102.49136,38.44006],[-102.49245,38.43985],[-102.49301,38.43974],[-102.49327,38.43969],[-102.49359,38.43963],[-102.49424,38.4395],[-102.49493,38.43937],[-102.49524,38.43931],[-102.49559,38.43924],[-102.49576,38.43921],[-102.49629,38.4391],[-102.49672,38.43902],[-102.49702,38.43896],[-102.49727,38.43891],[-102.49797,38.43877],[-102.49866,38.43864],[-102.49961,38.43845],[-102.49983,38.43841],[-102.50014,38.43835],[-102.5004,38.4383],[-102.50101,38.43818],[-102.50148,38.43809],[-102.50198,38.43799],[-102.50238,38.43791],[-102.50273,38.43784],[-102.50311,38.43778],[-102.50338,38.43773],[-102.50349,38.43771],[-102.50362,38.43769],[-102.50369,38.43768],[-102.50403,38.43764],[-102.50435,38.43762],[-102.50464,38.43761],[-102.50488,38.43761],[-102.50522,38.43762],[-102.50531,38.43763],[-102.50545,38.43764],[-102.50561,38.43765],[-102.506,38.43768],[-102.50628,38.4377],[-102.50686,38.43775],[-102.50691,38.43776],[-102.50714,38.43778],[-102.50751,38.43781],[-102.50761,38.43782],[-102.50782,38.43784],[-102.50821,38.43787],[-102.50842,38.43789],[-102.50851,38.4379],[-102.50868,38.43791],[-102.50957,38.43799],[-102.50988,38.43802],[-102.51002,38.43803],[-102.51012,38.43804],[-102.51066,38.43809],[-102.51102,38.43814],[-102.51133,38.43819],[-102.51174,38.43827],[-102.51237,38.4384],[-102.51276,38.43848],[-102.51324,38.43858],[-102.5133,38.43859],[-102.51369,38.43868],[-102.51412,38.4388],[-102.51422,38.43882],[-102.51454,38.43893],[-102.51471,38.43898],[-102.51476,38.439],[-102.51497,38.43906],[-102.51551,38.43923],[-102.51579,38.43931],[-102.51624,38.43942],[-102.51627,38.43943],[-102.51649,38.43947],[-102.51667,38.43951],[-102.51713,38.43958],[-102.51716,38.43958],[-102.51739,38.43961],[-102.51758,38.43963],[-102.518,38.43968],[-102.51807,38.43968],[-102.51822,38.43969],[-102.51841,38.43971],[-102.51856,38.43972],[-102.51865,38.43972],[-102.51892,38.43972],[-102.51904,38.43972],[-102.51914,38.43972],[-102.51932,38.43971],[-102.51945,38.4397],[-102.51953,38.4397],[-102.51969,38.43968],[-102.5199,38.43966],[-102.5201,38.43963],[-102.52036,38.4396],[-102.52099,38.43952],[-102.52141,38.43946],[-102.5222,38.43936],[-102.52288,38.43927],[-102.5233,38.43922],[-102.52353,38.43919],[-102.52369,38.43917],[-102.52451,38.43906],[-102.52579,38.43889],[-102.52625,38.43883],[-102.52664,38.43878],[-102.52705,38.43872],[-102.52719,38.43869],[-102.52757,38.43862],[-102.52817,38.43855],[-102.52966,38.43824],[-102.52997,38.43819],[-102.53011,38.43816],[-102.5303,38.43812],[-102.53042,38.4381],[-102.53064,38.43806],[-102.53101,38.438],[-102.53132,38.43795],[-102.53254,38.43779],[-102.53279,38.43776],[-102.53302,38.43773],[-102.53398,38.43761],[-102.53504,38.43747],[-102.53533,38.43744],[-102.53546,38.43742],[-102.53575,38.43738],[-102.53585,38.43737],[-102.53597,38.43735],[-102.53617,38.43733],[-102.53673,38.43725],[-102.53778,38.43708],[-102.53889,38.4369],[-102.54021,38.43669],[-102.5418,38.43643],[-102.54217,38.43636],[-102.54283,38.43626],[-102.54324,38.4362],[-102.5439,38.43609],[-102.54496,38.43592],[-102.54524,38.43587],[-102.5454,38.43584],[-102.54562,38.4358],[-102.54577,38.43577],[-102.54584,38.43576],[-102.54607,38.43571],[-102.54629,38.43567],[-102.54642,38.43565],[-102.54709,38.43552],[-102.54763,38.43541],[-102.54807,38.43533],[-102.5483,38.43528],[-102.54841,38.43526],[-102.54895,38.43515],[-102.54973,38.435],[-102.55038,38.43488],[-102.55052,38.43485],[-102.55075,38.43481],[-102.55097,38.43476],[-102.55127,38.4347],[-102.55164,38.43463],[-102.5517,38.43462],[-102.55215,38.43453],[-102.55257,38.43445],[-102.55339,38.4343],[-102.55433,38.43411],[-102.55566,38.43386],[-102.55627,38.43373],[-102.55797,38.43341],[-102.55901,38.4332],[-102.55929,38.43315],[-102.55982,38.43305],[-102.56022,38.43298],[-102.56036,38.43296],[-102.56038,38.43295],[-102.56049,38.43294],[-102.5606,38.43292],[-102.56077,38.4329],[-102.56103,38.43287],[-102.5613,38.43285],[-102.5617,38.43283],[-102.56197,38.43282],[-102.56199,38.43282],[-102.56278,38.43282],[-102.56404,38.43283],[-102.56424,38.43283],[-102.56519,38.43284],[-102.56636,38.43285],[-102.56778,38.43286],[-102.56803,38.43286],[-102.56859,38.43287],[-102.56933,38.43287],[-102.5696,38.43287],[-102.56964,38.43287],[-102.56998,38.43288],[-102.57019,38.43289],[-102.57101,38.43295],[-102.5715,38.43303],[-102.57171,38.43306],[-102.57207,38.43313],[-102.57239,38.43321],[-102.57254,38.43325],[-102.5729,38.43334],[-102.57315,38.43342],[-102.57333,38.43348],[-102.5736,38.43357],[-102.57371,38.43361],[-102.57386,38.43367],[-102.57405,38.43374],[-102.57419,38.4338],[-102.57435,38.43387],[-102.57449,38.43393],[-102.57468,38.43402],[-102.57488,38.43412],[-102.57494,38.43415],[-102.57509,38.43423],[-102.57523,38.4343],[-102.57536,38.43438],[-102.57545,38.43442],[-102.57549,38.43445],[-102.57575,38.43461],[-102.57601,38.43477],[-102.57635,38.43498],[-102.57662,38.43516],[-102.57742,38.43566],[-102.57863,38.43642],[-102.57966,38.43707],[-102.58167,38.43834],[-102.58195,38.43852],[-102.5822,38.43868],[-102.58296,38.43916],[-102.5831,38.43924],[-102.58364,38.43958],[-102.58381,38.43969],[-102.58435,38.44003],[-102.58511,38.44051],[-102.58535,38.44066],[-102.58543,38.44071],[-102.5856,38.44083],[-102.58584,38.44099],[-102.58597,38.44109],[-102.58617,38.44124],[-102.58626,38.44132],[-102.58633,38.44138],[-102.58644,38.44147],[-102.58657,38.44159],[-102.58662,38.44163],[-102.58677,38.44177],[-102.58686,38.44187],[-102.58694,38.44194],[-102.587,38.44201],[-102.58717,38.44218],[-102.58734,38.44237],[-102.58745,38.44251],[-102.58765,38.44276],[-102.58777,38.44293],[-102.58786,38.44306],[-102.58797,38.44323],[-102.58802,38.4433],[-102.58815,38.44352],[-102.58817,38.44356],[-102.58823,38.44366],[-102.58831,38.44382],[-102.58842,38.44405],[-102.5885,38.44424],[-102.58861,38.4445],[-102.58873,38.44481],[-102.58891,38.44526],[-102.58934,38.44637],[-102.58938,38.44646],[-102.58944,38.44663],[-102.58955,38.4469],[-102.5898,38.44753],[-102.58999,38.44801],[-102.59003,38.44812],[-102.59028,38.44876],[-102.59029,38.44879],[-102.59042,38.44911],[-102.59066,38.44973],[-102.59107,38.45076],[-102.59113,38.45092],[-102.59124,38.4512],[-102.59143,38.45167],[-102.59152,38.45187],[-102.59162,38.45205],[-102.59169,38.45219],[-102.59186,38.45246],[-102.59197,38.4526],[-102.59198,38.45262],[-102.59206,38.45272],[-102.59209,38.45276],[-102.59217,38.45286],[-102.59232,38.45303],[-102.59251,38.45323],[-102.59262,38.45334],[-102.59274,38.45346],[-102.593,38.45367],[-102.59308,38.45374],[-102.59317,38.45381],[-102.59342,38.45399],[-102.59358,38.4541],[-102.59369,38.45417],[-102.59389,38.4543],[-102.59407,38.4544],[-102.5942,38.45447],[-102.59433,38.45453],[-102.59438,38.45456],[-102.59453,38.45463],[-102.59467,38.45469],[-102.5948,38.45475],[-102.59498,38.45482],[-102.59524,38.45492],[-102.59544,38.45498],[-102.59558,38.45503],[-102.59577,38.45508],[-102.59587,38.45511],[-102.596,38.45514],[-102.59612,38.45517],[-102.5965,38.45524],[-102.59665,38.45527],[-102.59675,38.45529],[-102.59686,38.4553],[-102.59711,38.45533],[-102.59717,38.45534],[-102.59734,38.45535],[-102.59751,38.45537],[-102.5984,38.45545],[-102.59893,38.4555],[-102.59916,38.45552],[-102.59919,38.45552],[-102.59971,38.45557],[-102.60024,38.45562],[-102.6003,38.45562],[-102.60076,38.45566],[-102.60085,38.45567],[-102.60144,38.45573],[-102.60197,38.45578],[-102.60282,38.45585],[-102.60351,38.45591],[-102.60373,38.45593],[-102.60434,38.45599],[-102.60476,38.45603],[-102.60572,38.45611],[-102.60587,38.45613],[-102.60715,38.45624],[-102.60816,38.45633],[-102.60829,38.45634],[-102.60897,38.4564],[-102.60995,38.45649],[-102.61034,38.45653],[-102.61037,38.45653],[-102.6124,38.45671],[-102.61422,38.45687],[-102.61605,38.45704],[-102.61833,38.45724],[-102.61987,38.45738],[-102.62078,38.45746],[-102.62097,38.45748],[-102.62101,38.45748],[-102.62129,38.45751],[-102.62157,38.45753],[-102.62176,38.45756],[-102.62191,38.45757],[-102.62212,38.45761],[-102.62214,38.45761],[-102.62226,38.45763],[-102.62237,38.45765],[-102.62252,38.45768],[-102.62268,38.45771],[-102.62281,38.45774],[-102.62298,38.45778],[-102.62304,38.45779],[-102.62318,38.45782],[-102.62349,38.4579],[-102.62394,38.45803],[-102.62455,38.4582],[-102.62494,38.45831],[-102.6252,38.45839],[-102.6253,38.45842],[-102.62541,38.45845],[-102.6256,38.4585],[-102.6259,38.45859],[-102.62629,38.4587],[-102.62667,38.45881],[-102.62692,38.45888],[-102.62719,38.45896],[-102.62757,38.45907],[-102.6277,38.45911],[-102.628,38.45919],[-102.6281,38.45922],[-102.62822,38.45925],[-102.62904,38.45949],[-102.62975,38.45969],[-102.63022,38.45983],[-102.63032,38.45985],[-102.63077,38.45998],[-102.63153,38.4602],[-102.63235,38.46044],[-102.63238,38.46044],[-102.63281,38.46057],[-102.6333,38.46071],[-102.63372,38.46083],[-102.63432,38.461],[-102.63501,38.4612],[-102.63564,38.46138],[-102.63634,38.46158],[-102.63648,38.46162],[-102.63669,38.46168],[-102.63698,38.46176],[-102.63729,38.46185],[-102.63734,38.46186],[-102.63791,38.46203],[-102.63846,38.46219],[-102.63906,38.46236],[-102.63946,38.46247],[-102.63993,38.46261],[-102.64,38.46263],[-102.64014,38.46267],[-102.64043,38.46275],[-102.64101,38.46291],[-102.64113,38.46295],[-102.64122,38.46298],[-102.64163,38.46309],[-102.64242,38.46332],[-102.64294,38.46347],[-102.64315,38.46353],[-102.64345,38.46361],[-102.64389,38.46373],[-102.64409,38.46378],[-102.64427,38.46382],[-102.64446,38.46386],[-102.64447,38.46387],[-102.64469,38.46392],[-102.64491,38.46396],[-102.64492,38.46396],[-102.64514,38.46401],[-102.64525,38.46403],[-102.64541,38.46406],[-102.64561,38.4641],[-102.64581,38.46413],[-102.64616,38.46419],[-102.64639,38.46422],[-102.64665,38.46426],[-102.64692,38.46429],[-102.64747,38.46436],[-102.64791,38.4644],[-102.64808,38.46442],[-102.64827,38.46444],[-102.6483,38.46445],[-102.649,38.46452],[-102.64983,38.46461],[-102.65091,38.46473],[-102.65169,38.46482],[-102.6526,38.46492],[-102.65354,38.46502],[-102.65369,38.46503],[-102.65382,38.46505],[-102.65449,38.46512],[-102.6552,38.4652],[-102.65583,38.46527],[-102.6561,38.4653],[-102.65672,38.46537],[-102.65781,38.46549],[-102.65832,38.46554],[-102.65854,38.46556],[-102.65946,38.46566],[-102.65991,38.46571],[-102.66014,38.46574],[-102.66366,38.46613],[-102.66423,38.46619],[-102.66446,38.46621],[-102.66469,38.46624],[-102.6656,38.46634],[-102.66636,38.46642],[-102.66766,38.46655],[-102.66787,38.46658],[-102.67,38.4668],[-102.67015,38.46681],[-102.67197,38.467],[-102.67283,38.46709],[-102.67562,38.46738],[-102.67584,38.4674],[-102.67812,38.46764],[-102.67835,38.46766],[-102.679,38.46773],[-102.6804,38.46787],[-102.68085,38.46792],[-102.68139,38.46797],[-102.68403,38.46824],[-102.68518,38.46836],[-102.68541,38.46839],[-102.68695,38.46855],[-102.68886,38.46874],[-102.68951,38.46881],[-102.68996,38.46886],[-102.69126,38.46899],[-102.69224,38.46909],[-102.69247,38.46912],[-102.69335,38.46921],[-102.6946,38.46934],[-102.69543,38.46942],[-102.69696,38.46958],[-102.69903,38.46979],[-102.69976,38.46987],[-102.69999,38.46989],[-102.70149,38.47005],[-102.70343,38.47025],[-102.70613,38.47053],[-102.70686,38.4706],[-102.70996,38.47092],[-102.71023,38.47095],[-102.71241,38.47117],[-102.71353,38.47129],[-102.72028,38.472],[-102.72083,38.47206],[-102.72311,38.47229],[-102.7253,38.47251],[-102.72607,38.47259],[-102.7279,38.47278],[-102.7295,38.47294],[-102.7304,38.47303],[-102.73087,38.47308],[-102.73097,38.47309],[-102.73097,38.47309],[-102.73122,38.47313],[-102.73167,38.47319],[-102.73211,38.47324],[-102.73234,38.47326],[-102.73302,38.47334],[-102.73328,38.47337],[-102.73393,38.47344],[-102.73409,38.47346],[-102.73416,38.47346],[-102.73456,38.4735],[-102.73463,38.47351],[-102.7347,38.47351],[-102.73474,38.47351],[-102.73478,38.47351],[-102.73484,38.4735],[-102.73484,38.4735],[-102.73556,38.47359],[-102.73627,38.47366],[-102.73638,38.47364],[-102.73671,38.47368],[-102.73801,38.47381],[-102.73824,38.47384],[-102.74004,38.47402],[-102.74143,38.47416],[-102.74323,38.47434],[-102.74416,38.47444],[-102.74439,38.47446],[-102.74681,38.4747],[-102.74758,38.47478],[-102.74886,38.47492],[-102.75122,38.47516],[-102.75252,38.47529],[-102.7535,38.47539],[-102.7548,38.47552],[-102.75867,38.47592],[-102.76072,38.47613],[-102.76079,38.47613],[-102.76111,38.47617],[-102.76141,38.4762],[-102.76148,38.4762],[-102.76307,38.47636],[-102.76323,38.47638],[-102.76342,38.4764],[-102.76368,38.47643],[-102.76398,38.47646],[-102.76414,38.47647],[-102.76505,38.47656],[-102.76507,38.47656],[-102.76512,38.47657],[-102.76528,38.47658],[-102.76671,38.47673],[-102.76687,38.47675],[-102.76695,38.47676],[-102.76762,38.47683],[-102.76886,38.47696],[-102.76999,38.47708],[-102.7705,38.47713],[-102.77087,38.47717],[-102.7709,38.47717],[-102.77132,38.47721],[-102.77159,38.47723],[-102.77192,38.47725],[-102.77233,38.47727],[-102.77422,38.47732],[-102.77441,38.47733],[-102.77518,38.47735],[-102.77569,38.47737],[-102.77581,38.47737],[-102.77643,38.47739],[-102.77643,38.47739],[-102.77643,38.47679],[-102.77643,38.47674],[-102.77644,38.47672],[-102.77647,38.47668],[-102.7765,38.47667],[-102.7765,38.47667],[-102.77637,38.47647],[-102.77631,38.47641],[-102.77619,38.47637],[-102.77592,38.47637]]}}]}