{"type":"FeatureCollection","features":[{"type":"Feature","properties":{"_gpxType":"trk","name":"Cobblestone Inn & Suites - Eads, East Lowell Street, Eads, CO - Colorado 81063","coordinateProperties":{},"id":55},"geometry":{"type":"LineString","coordinates":[[-102.77592,38.47637],[-102.77619,38.47637],[-102.77631,38.47641],[-102.77637,38.47647],[-102.7765,38.47667],[-102.7765,38.47667],[-102.77647,38.47668],[-102.77644,38.47672],[-102.77643,38.47674],[-102.77643,38.47679],[-102.77643,38.47739],[-102.77643,38.47739],[-102.7771,38.47744],[-102.77775,38.47749],[-102.77842,38.47756],[-102.77907,38.47763],[-102.77969,38.47769],[-102.78038,38.47776],[-102.78103,38.47783],[-102.78178,38.47791],[-102.78249,38.47798],[-102.78274,38.47801],[-102.7828,38.47801],[-102.78287,38.47802],[-102.78313,38.47803],[-102.78344,38.47803],[-102.78377,38.47802],[-102.78436,38.47799],[-102.78446,38.47799],[-102.78479,38.47797],[-102.7849,38.47799],[-102.78496,38.478],[-102.78502,38.47801],[-102.78504,38.47801],[-102.78509,38.47802],[-102.78515,38.47804],[-102.78522,38.47807],[-102.78526,38.47808],[-102.7853,38.4781],[-102.78535,38.47813],[-102.78541,38.47817],[-102.78547,38.4782],[-102.78547,38.4782],[-102.78561,38.47809],[-102.78577,38.47796],[-102.78582,38.47794],[-102.78586,38.47793],[-102.78592,38.47792],[-102.78599,38.47791],[-102.78605,38.47791],[-102.78612,38.4779],[-102.78627,38.4779],[-102.78663,38.47788],[-102.78721,38.47785],[-102.78754,38.47785],[-102.78792,38.47785],[-102.78807,38.47786],[-102.78833,38.47788],[-102.78843,38.47788],[-102.78856,38.4779],[-102.78898,38.47794],[-102.78902,38.47794],[-102.78945,38.47798],[-102.7897,38.47801],[-102.78987,38.47803],[-102.78999,38.47804],[-102.79039,38.47809],[-102.79069,38.47814],[-102.7908,38.47816],[-102.791,38.4782],[-102.79124,38.47825],[-102.79146,38.47831],[-102.79157,38.47834],[-102.79168,38.47837],[-102.79212,38.47848],[-102.7926,38.47861],[-102.79282,38.47867],[-102.79429,38.47906],[-102.79494,38.47924],[-102.79584,38.47947],[-102.79649,38.47963],[-102.79666,38.47967],[-102.79693,38.47973],[-102.79749,38.47984],[-102.79755,38.47985],[-102.79851,38.48001],[-102.79867,38.48003],[-102.79954,38.48013],[-102.79983,38.48016],[-102.80437,38.48062],[-102.80992,38.48119],[-102.81029,38.48123],[-102.81074,38.48128],[-102.81507,38.48172],[-102.81542,38.48175],[-102.81644,38.48186],[-102.8228,38.48251],[-102.82637,38.48287],[-102.82787,38.48303],[-102.83214,38.48346],[-102.83455,38.48371],[-102.83532,38.48379],[-102.83601,38.48386],[-102.83705,38.48397],[-102.8387,38.48414],[-102.83897,38.48417],[-102.84072,38.48435],[-102.8415,38.48443],[-102.84528,38.48481],[-102.84847,38.48514],[-102.85082,38.48538],[-102.8512,38.48542],[-102.85189,38.48549],[-102.85388,38.48569],[-102.85532,38.48583],[-102.85576,38.48588],[-102.85925,38.48624],[-102.86327,38.48665],[-102.86505,38.48683],[-102.86628,38.48696],[-102.86679,38.48701],[-102.86725,38.48706],[-102.8682,38.48715],[-102.86861,38.4872],[-102.86998,38.48734],[-102.87044,38.48738],[-102.87203,38.48754],[-102.87408,38.48775],[-102.87615,38.48796],[-102.87636,38.48798],[-102.87818,38.48817],[-102.88237,38.4886],[-102.89011,38.48939],[-102.89057,38.48944],[-102.89217,38.4896],[-102.89604,38.49],[-102.8974,38.49013],[-102.89786,38.49018],[-102.899,38.49029],[-102.89991,38.49039],[-102.90082,38.49048],[-102.90151,38.49055],[-102.90174,38.49057],[-102.90315,38.49072],[-102.90424,38.49083],[-102.90543,38.49095],[-102.90652,38.49106],[-102.9069,38.4911],[-102.90847,38.49126],[-102.90903,38.49131],[-102.91011,38.49142],[-102.91085,38.4915],[-102.91108,38.49152],[-102.91182,38.4916],[-102.91304,38.49172],[-102.91313,38.49173],[-102.91359,38.49178],[-102.91387,38.49181],[-102.9145,38.49187],[-102.91486,38.49189],[-102.9154,38.49192],[-102.91676,38.492],[-102.91679,38.492],[-102.91847,38.49209],[-102.92043,38.49219],[-102.92138,38.49224],[-102.92184,38.49227],[-102.92197,38.49227],[-102.92206,38.49228],[-102.92275,38.49232],[-102.92338,38.49235],[-102.92459,38.49242],[-102.92508,38.49245],[-102.92596,38.4925],[-102.92619,38.49251],[-102.92634,38.49252],[-102.9272,38.49257],[-102.92819,38.49268],[-102.92919,38.49283],[-102.9296,38.49289],[-102.93005,38.49296],[-102.93028,38.49299],[-102.93124,38.49314],[-102.93288,38.4934],[-102.93329,38.49345],[-102.93343,38.49348],[-102.93366,38.49351],[-102.93438,38.49362],[-102.93519,38.49374],[-102.93614,38.49389],[-102.93655,38.49395],[-102.93737,38.49408],[-102.93843,38.49424],[-102.93885,38.4943],[-102.93907,38.49434],[-102.93925,38.49436],[-102.9402,38.49448],[-102.94112,38.49458],[-102.94157,38.49463],[-102.94212,38.49468],[-102.94248,38.49472],[-102.94476,38.49495],[-102.94499,38.49497],[-102.94754,38.49523],[-102.94865,38.49534],[-102.9512,38.49559],[-102.95303,38.49578],[-102.95456,38.49594],[-102.9557,38.49605],[-102.95607,38.49609],[-102.95857,38.49634],[-102.96026,38.49651],[-102.96089,38.49658],[-102.96117,38.4966],[-102.9627,38.49676],[-102.96436,38.49693],[-102.96707,38.4972],[-102.9696,38.49745],[-102.97105,38.4976],[-102.97354,38.49786],[-102.97392,38.4979],[-102.97532,38.49804],[-102.97542,38.49805],[-102.97658,38.49815],[-102.97715,38.49819],[-102.97735,38.4982],[-102.97794,38.49823],[-102.97849,38.49826],[-102.97853,38.49826],[-102.97925,38.4983],[-102.97985,38.49834],[-102.98033,38.49839],[-102.98055,38.49841],[-102.98059,38.49842],[-102.98082,38.49844],[-102.98127,38.4985],[-102.98128,38.49851],[-102.98146,38.49853],[-102.98194,38.49861],[-102.98214,38.49864],[-102.98245,38.49869],[-102.98319,38.4988],[-102.98349,38.49884],[-102.98352,38.49884],[-102.98388,38.49889],[-102.98443,38.49895],[-102.98508,38.49901],[-102.98512,38.49902],[-102.98633,38.49914],[-102.98778,38.49928],[-102.98808,38.49931],[-102.98827,38.49933],[-102.98983,38.49949],[-102.99036,38.49955],[-102.99101,38.49961],[-102.99216,38.49972],[-102.99238,38.49975],[-102.99287,38.4998],[-102.99375,38.49988],[-102.99739,38.50025],[-102.99834,38.50035],[-102.99853,38.50037],[-102.99893,38.50041],[-102.99925,38.50044],[-102.99944,38.50046],[-103.00084,38.5006],[-103.00104,38.50062],[-103.00198,38.50071],[-103.00218,38.50073],[-103.00398,38.50091],[-103.00518,38.50103],[-103.00537,38.50105],[-103.00768,38.50129],[-103.00811,38.50133],[-103.0097,38.50149],[-103.00996,38.50152],[-103.01198,38.50172],[-103.01358,38.50188],[-103.0136,38.50188],[-103.01439,38.50196],[-103.01537,38.50203],[-103.01611,38.50206],[-103.01632,38.50206],[-103.01637,38.50207],[-103.01788,38.50207],[-103.01816,38.50206],[-103.01819,38.50206],[-103.01859,38.50206],[-103.01864,38.50207],[-103.0192,38.50208],[-103.02004,38.50213],[-103.02063,38.50218],[-103.02093,38.50221],[-103.0216,38.50227],[-103.02335,38.50244],[-103.02344,38.50245],[-103.02388,38.50249],[-103.02422,38.50253],[-103.02469,38.50257],[-103.02506,38.50262],[-103.02535,38.50265],[-103.02563,38.50269],[-103.02592,38.50275],[-103.02607,38.50278],[-103.02672,38.50296],[-103.02696,38.50304],[-103.02746,38.5032],[-103.0277,38.50326],[-103.02794,38.50333],[-103.02811,38.50336],[-103.02824,38.50339],[-103.02845,38.50342],[-103.02858,38.50343],[-103.0288,38.50346],[-103.02881,38.50346],[-103.02903,38.50349],[-103.02911,38.50349],[-103.03157,38.50375],[-103.03199,38.50379],[-103.032,38.50379],[-103.03496,38.50409],[-103.03655,38.50425],[-103.03656,38.50425],[-103.03838,38.50443],[-103.03861,38.50445],[-103.04037,38.50463],[-103.04089,38.50468],[-103.04104,38.50469],[-103.04111,38.5047],[-103.04112,38.5047],[-103.04158,38.50473],[-103.04184,38.50475],[-103.0422,38.50477],[-103.04278,38.50478],[-103.04314,38.50478],[-103.04421,38.50477],[-103.04477,38.50474],[-103.04507,38.50472],[-103.04535,38.50469],[-103.04577,38.50465],[-103.04678,38.50453],[-103.04706,38.50449],[-103.04723,38.50446],[-103.04729,38.50446],[-103.04729,38.50445],[-103.04752,38.50442],[-103.04788,38.50436],[-103.04796,38.50434],[-103.04823,38.5043],[-103.04879,38.50418],[-103.04922,38.50408],[-103.04968,38.50397],[-103.04992,38.50391],[-103.0503,38.50381],[-103.05039,38.50379],[-103.05039,38.50378],[-103.05053,38.50374],[-103.05092,38.50363],[-103.05145,38.50345],[-103.05146,38.50345],[-103.05166,38.50338],[-103.05167,38.50338],[-103.05174,38.50336],[-103.0521,38.50323],[-103.05245,38.50309],[-103.05302,38.50286],[-103.05323,38.50277],[-103.05384,38.50249],[-103.0541,38.50237],[-103.05429,38.50227],[-103.0543,38.50227],[-103.05459,38.50213],[-103.05517,38.50181],[-103.05553,38.50161],[-103.056,38.50132],[-103.05646,38.50101],[-103.05688,38.50071],[-103.05726,38.50041],[-103.05758,38.50015],[-103.05815,38.49968],[-103.05827,38.49957],[-103.05886,38.49902],[-103.05887,38.49902],[-103.05913,38.49878],[-103.05916,38.49875],[-103.05946,38.49847],[-103.06036,38.49763],[-103.06121,38.4968],[-103.06181,38.49621],[-103.06206,38.49596],[-103.06207,38.49596],[-103.06221,38.49582],[-103.06349,38.49455],[-103.06392,38.49412],[-103.06406,38.49399],[-103.06406,38.49398],[-103.06418,38.49387],[-103.0642,38.49384],[-103.06547,38.49259],[-103.06577,38.49229],[-103.06635,38.49173],[-103.06695,38.49113],[-103.06706,38.49102],[-103.0672,38.49088],[-103.06748,38.4906],[-103.06801,38.49006],[-103.06932,38.48875],[-103.06941,38.48866],[-103.06946,38.48862],[-103.06947,38.48861],[-103.07025,38.48792],[-103.07064,38.48761],[-103.07087,38.48743],[-103.07092,38.4874],[-103.07127,38.48713],[-103.0717,38.48683],[-103.07188,38.4867],[-103.07237,38.48638],[-103.07271,38.48617],[-103.07316,38.48591],[-103.0737,38.48562],[-103.07403,38.48544],[-103.07428,38.48532],[-103.07468,38.48512],[-103.07531,38.48484],[-103.07603,38.48455],[-103.07655,38.48435],[-103.07717,38.48414],[-103.08103,38.48278],[-103.08185,38.48249],[-103.08626,38.48093],[-103.08647,38.48086],[-103.09276,38.47865],[-103.09347,38.4784],[-103.09443,38.47806],[-103.09444,38.47806],[-103.09632,38.47739],[-103.09958,38.47624],[-103.10597,38.47401],[-103.10743,38.4735],[-103.10848,38.47313],[-103.10953,38.47276],[-103.11184,38.47195],[-103.11205,38.47188],[-103.11457,38.471],[-103.11478,38.47093],[-103.11792,38.46983],[-103.12358,38.46784],[-103.12631,38.46689],[-103.12715,38.46659],[-103.12855,38.4661],[-103.13113,38.4652],[-103.1323,38.46479],[-103.13386,38.46425],[-103.13439,38.46406],[-103.13622,38.46342],[-103.13647,38.46333],[-103.13733,38.46304],[-103.13939,38.46232],[-103.14062,38.46188],[-103.14066,38.46187],[-103.14111,38.4617],[-103.1419,38.4614],[-103.14352,38.46079],[-103.14405,38.46059],[-103.14558,38.46002],[-103.14698,38.45952],[-103.14873,38.45891],[-103.14894,38.45884],[-103.14945,38.45866],[-103.15099,38.45812],[-103.15209,38.45773],[-103.1535,38.45724],[-103.15404,38.45705],[-103.15423,38.45698],[-103.15446,38.45688],[-103.15469,38.45678],[-103.15493,38.45666],[-103.15523,38.4565],[-103.15674,38.45564],[-103.1569,38.45555],[-103.15708,38.45544],[-103.158,38.45492],[-103.15819,38.45481],[-103.15913,38.45428],[-103.15918,38.45424],[-103.15934,38.45415],[-103.15996,38.4538],[-103.16018,38.45368],[-103.16048,38.45351],[-103.16061,38.45347],[-103.16077,38.45341],[-103.16087,38.45339],[-103.16091,38.45338],[-103.16096,38.45337],[-103.16109,38.45335],[-103.16204,38.45335],[-103.16231,38.45335],[-103.16259,38.45335],[-103.16377,38.45335],[-103.16389,38.45334],[-103.16403,38.45334],[-103.16429,38.45334],[-103.16448,38.45333],[-103.1646,38.45331],[-103.16471,38.45329],[-103.16479,38.45327],[-103.1649,38.45324],[-103.16504,38.4532],[-103.16529,38.45312],[-103.16568,38.45299],[-103.16582,38.45295],[-103.16601,38.45289],[-103.16622,38.45284],[-103.16623,38.45283],[-103.16643,38.45279],[-103.16668,38.45273],[-103.16706,38.45265],[-103.1672,38.45261],[-103.16737,38.45256],[-103.16755,38.4525],[-103.16792,38.45237],[-103.16831,38.45224],[-103.16834,38.45223],[-103.16855,38.45215],[-103.16912,38.45195],[-103.17181,38.45102],[-103.17253,38.45077],[-103.17268,38.45071],[-103.17294,38.4506],[-103.17357,38.4503],[-103.17471,38.44975],[-103.17474,38.44974],[-103.1752,38.44953],[-103.17531,38.44949],[-103.17573,38.44934],[-103.17614,38.44919],[-103.17783,38.44861],[-103.17859,38.44835],[-103.17976,38.44794],[-103.18044,38.44775],[-103.18059,38.44771],[-103.18065,38.4477],[-103.18126,38.44756],[-103.18196,38.44745],[-103.18268,38.44738],[-103.18291,38.44736],[-103.18336,38.44734],[-103.18341,38.44734],[-103.18404,38.44734],[-103.18497,38.4474],[-103.1852,38.44742],[-103.18606,38.44747],[-103.18726,38.44756],[-103.18749,38.44757],[-103.18954,38.44772],[-103.19164,38.44788],[-103.19187,38.44789],[-103.1921,38.44791],[-103.19256,38.44795],[-103.19382,38.44804],[-103.19393,38.44806],[-103.19416,38.44809],[-103.19438,38.44812],[-103.19456,38.44814],[-103.19461,38.44815],[-103.19506,38.44822],[-103.19551,38.4483],[-103.1967,38.4485],[-103.19805,38.44872],[-103.1982,38.44875],[-103.19827,38.44876],[-103.1985,38.4488],[-103.19872,38.44884],[-103.1994,38.44895],[-103.20187,38.44936],[-103.20292,38.44953],[-103.20299,38.44955],[-103.20321,38.44958],[-103.20434,38.44977],[-103.20507,38.44989],[-103.20569,38.44995],[-103.20574,38.44996],[-103.20652,38.44999],[-103.20659,38.44998],[-103.2071,38.44997],[-103.20711,38.44997],[-103.20786,38.4499],[-103.2087,38.44978],[-103.20871,38.44978],[-103.20892,38.44973],[-103.20936,38.44964],[-103.21018,38.44941],[-103.21081,38.44919],[-103.21086,38.44917],[-103.21146,38.44891],[-103.21223,38.44854],[-103.21239,38.44846],[-103.21252,38.44839],[-103.21425,38.44751],[-103.21451,38.44738],[-103.21521,38.44702],[-103.21528,38.44698],[-103.21605,38.44659],[-103.21617,38.44653],[-103.21867,38.44525],[-103.21874,38.44521],[-103.2197,38.44472],[-103.22002,38.44456],[-103.22047,38.44433],[-103.22117,38.44397],[-103.22444,38.4423],[-103.22617,38.44142],[-103.22675,38.44112],[-103.2278,38.44058],[-103.22957,38.43969],[-103.22995,38.43949],[-103.23014,38.43939],[-103.23111,38.4389],[-103.23226,38.43831],[-103.23245,38.43822],[-103.234,38.43743],[-103.23496,38.43694],[-103.23547,38.43668],[-103.23611,38.43635],[-103.2363,38.43625],[-103.23639,38.43621],[-103.23717,38.43581],[-103.23791,38.43543],[-103.2388,38.43498],[-103.23938,38.43468],[-103.23957,38.43458],[-103.24073,38.434],[-103.24142,38.43364],[-103.24163,38.43354],[-103.24362,38.43252],[-103.24381,38.43242],[-103.24631,38.43115],[-103.24842,38.43007],[-103.24862,38.42997],[-103.24881,38.42987],[-103.25266,38.42791],[-103.25323,38.42761],[-103.25516,38.42663],[-103.25535,38.42653],[-103.25727,38.42555],[-103.25747,38.42545],[-103.25785,38.42526],[-103.26034,38.42399],[-103.26035,38.42398],[-103.26054,38.42388],[-103.26104,38.42363],[-103.26227,38.423],[-103.26247,38.4229],[-103.26362,38.42231],[-103.26497,38.42162],[-103.26535,38.42143],[-103.2659,38.42115],[-103.26786,38.42016],[-103.26805,38.42006],[-103.26824,38.41996],[-103.27017,38.41899],[-103.27114,38.4185],[-103.27298,38.41757],[-103.27326,38.41743],[-103.27345,38.41733],[-103.27364,38.41723],[-103.27403,38.41703],[-103.27538,38.41635],[-103.27719,38.41542],[-103.2773,38.41536],[-103.28152,38.4132],[-103.28172,38.4131],[-103.28287,38.41251],[-103.28402,38.41192],[-103.28613,38.41084],[-103.28671,38.41054],[-103.28767,38.41005],[-103.28825,38.40975],[-103.2919,38.40788],[-103.29209,38.40778],[-103.29439,38.4066],[-103.29459,38.4065],[-103.29502,38.40628],[-103.29516,38.4062],[-103.29562,38.40593],[-103.29618,38.40555],[-103.29639,38.40539],[-103.29655,38.40527],[-103.29671,38.40514],[-103.29736,38.40458],[-103.29782,38.40412],[-103.29802,38.40389],[-103.29815,38.40374],[-103.29837,38.40349],[-103.29939,38.40223],[-103.30013,38.40132],[-103.30124,38.39995],[-103.30136,38.3998],[-103.30247,38.39843],[-103.30395,38.39661],[-103.30407,38.39646],[-103.30419,38.39631],[-103.30592,38.39418],[-103.30641,38.39357],[-103.30739,38.39236],[-103.30899,38.39039],[-103.30917,38.39017],[-103.30922,38.39011],[-103.30924,38.39008],[-103.3106,38.38842],[-103.31159,38.38721],[-103.31171,38.38705],[-103.31184,38.3869],[-103.31202,38.38668],[-103.31208,38.3866],[-103.31282,38.38569],[-103.3138,38.38447],[-103.31491,38.38311],[-103.31614,38.38159],[-103.31626,38.38143],[-103.31639,38.38128],[-103.31651,38.38113],[-103.31883,38.37826],[-103.32027,38.37648],[-103.3215,38.37496],[-103.32261,38.37359],[-103.32494,38.37071],[-103.32826,38.36661],[-103.32838,38.36646],[-103.32851,38.3663],[-103.32949,38.36509],[-103.32961,38.36494],[-103.33019,38.36423],[-103.33054,38.3637],[-103.33075,38.36338],[-103.33143,38.36204],[-103.33152,38.36187],[-103.33186,38.36121],[-103.33238,38.36021],[-103.33287,38.35925],[-103.33301,38.35897],[-103.33306,38.35887],[-103.33314,38.3587],[-103.33393,38.35701],[-103.33409,38.35668],[-103.33433,38.35617],[-103.33437,38.35609],[-103.3352,38.35428],[-103.33542,38.3538],[-103.3355,38.35363],[-103.33558,38.35346],[-103.33589,38.35279],[-103.33605,38.35245],[-103.33645,38.35161],[-103.33668,38.3511],[-103.33676,38.35093],[-103.3369,38.35064],[-103.33705,38.35029],[-103.33715,38.35008],[-103.33753,38.34928],[-103.33834,38.34752],[-103.33864,38.34687],[-103.33895,38.3462],[-103.33903,38.34603],[-103.33914,38.34579],[-103.33982,38.34432],[-103.34208,38.33944],[-103.34229,38.33893],[-103.34236,38.33873],[-103.34237,38.33868],[-103.34251,38.33819],[-103.34287,38.33676],[-103.34308,38.33622],[-103.34347,38.33534],[-103.34353,38.3352],[-103.34401,38.33413],[-103.34419,38.33359],[-103.3442,38.33354],[-103.34425,38.33337],[-103.34437,38.33287],[-103.34469,38.33124],[-103.34476,38.33088],[-103.3449,38.33017],[-103.34525,38.32839],[-103.34577,38.32573],[-103.34615,38.32377],[-103.34629,38.32306],[-103.34633,38.32288],[-103.3466,38.32146],[-103.34664,38.32128],[-103.3468,38.32044],[-103.34696,38.31985],[-103.34702,38.31969],[-103.34708,38.31952],[-103.34717,38.31927],[-103.34741,38.3187],[-103.3476,38.31833],[-103.34769,38.31816],[-103.34778,38.318],[-103.34798,38.31768],[-103.34809,38.31751],[-103.3482,38.31733],[-103.34842,38.31704],[-103.34853,38.31689],[-103.34857,38.31682],[-103.34865,38.31673],[-103.34891,38.31643],[-103.3491,38.3162],[-103.34957,38.3157],[-103.34971,38.31556],[-103.34993,38.31532],[-103.34998,38.31527],[-103.35012,38.31512],[-103.35025,38.31498],[-103.35132,38.31386],[-103.35195,38.3132],[-103.35236,38.31277],[-103.35291,38.3122],[-103.35305,38.31205],[-103.35319,38.31191],[-103.35553,38.30946],[-103.35567,38.30932],[-103.35705,38.30788],[-103.35718,38.30774],[-103.35939,38.30544],[-103.36008,38.30472],[-103.36021,38.30458],[-103.36159,38.30314],[-103.36177,38.30296],[-103.36271,38.302],[-103.36312,38.30157],[-103.3638,38.30096],[-103.3642,38.30064],[-103.36436,38.30051],[-103.36452,38.30039],[-103.36503,38.30002],[-103.3652,38.2999],[-103.36527,38.29985],[-103.36639,38.2991],[-103.36642,38.29908],[-103.36712,38.29861],[-103.36747,38.29838],[-103.36826,38.29786],[-103.36852,38.29768],[-103.3687,38.29757],[-103.36887,38.29745],[-103.36975,38.29687],[-103.36992,38.29676],[-103.3708,38.29618],[-103.37154,38.29568],[-103.37308,38.29467],[-103.37325,38.29455],[-103.37343,38.29444],[-103.37462,38.29365],[-103.37483,38.29351],[-103.37518,38.29328],[-103.37535,38.29316],[-103.37588,38.29281],[-103.37642,38.29245],[-103.37689,38.29216],[-103.37731,38.29192],[-103.37748,38.29182],[-103.3775,38.29181],[-103.37769,38.29172],[-103.37788,38.29162],[-103.37808,38.29152],[-103.37812,38.2915],[-103.37873,38.29123],[-103.37901,38.29112],[-103.37936,38.29098],[-103.37984,38.29082],[-103.38045,38.29064],[-103.38102,38.29049],[-103.38145,38.29039],[-103.38198,38.29028],[-103.38236,38.29022],[-103.383,38.29013],[-103.38421,38.28996],[-103.38489,38.28987],[-103.38574,38.28975],[-103.38597,38.28972],[-103.38717,38.28955],[-103.38755,38.2895],[-103.388,38.28943],[-103.38868,38.28934],[-103.38902,38.28929],[-103.39048,38.28909],[-103.39071,38.28906],[-103.39139,38.28897],[-103.39184,38.2889],[-103.39499,38.28846],[-103.39522,38.28843],[-103.39567,38.28837],[-103.39657,38.28824],[-103.3968,38.28821],[-103.39702,38.28818],[-103.39725,38.28815],[-103.39731,38.28814],[-103.39748,38.28811],[-103.39996,38.28777],[-103.40004,38.28776],[-103.4025,38.28742],[-103.40514,38.28705],[-103.40605,38.28693],[-103.40763,38.28671],[-103.40966,38.28643],[-103.41349,38.28588],[-103.41395,38.28582],[-103.41593,38.28554],[-103.41665,38.28543],[-103.41688,38.2854],[-103.41846,38.28518],[-103.41968,38.28501],[-103.42003,38.28496],[-103.42049,38.28489],[-103.42342,38.28449],[-103.42387,38.28442],[-103.42568,38.28417],[-103.42725,38.28396],[-103.42798,38.28385],[-103.42894,38.28372],[-103.42975,38.28356],[-103.42995,38.28352],[-103.43084,38.28334],[-103.43148,38.28323],[-103.43218,38.28312],[-103.43231,38.2831],[-103.43241,38.28309],[-103.4334,38.28296],[-103.43444,38.28282],[-103.43466,38.28278],[-103.43624,38.28256],[-103.4385,38.28225],[-103.43873,38.28222],[-103.44189,38.28178],[-103.44313,38.28161],[-103.44336,38.28159],[-103.44494,38.28138],[-103.44582,38.28127],[-103.44632,38.28119],[-103.44652,38.28115],[-103.44701,38.28104],[-103.44769,38.28086],[-103.44836,38.28064],[-103.44868,38.28051],[-103.44902,38.28036],[-103.44929,38.28024],[-103.44962,38.28007],[-103.44993,38.2799],[-103.4502,38.27974],[-103.45027,38.27971],[-103.45061,38.27951],[-103.45137,38.27907],[-103.45353,38.27783],[-103.45519,38.27687],[-103.45625,38.27626],[-103.45723,38.27571],[-103.45868,38.27489],[-103.45931,38.27459],[-103.45987,38.27437],[-103.45993,38.27436],[-103.46055,38.27415],[-103.46124,38.27397],[-103.46166,38.27389],[-103.46188,38.27384],[-103.46226,38.27376],[-103.46432,38.27335],[-103.46454,38.27331],[-103.46632,38.27295],[-103.46654,38.27291],[-103.46965,38.27229],[-103.46987,38.27225],[-103.47187,38.27186],[-103.4721,38.27181],[-103.47365,38.27151],[-103.47387,38.27146],[-103.47432,38.27138],[-103.47454,38.27133],[-103.4761,38.27102],[-103.47943,38.27037],[-103.48098,38.27006],[-103.48321,38.26962],[-103.48343,38.26958],[-103.48498,38.26927],[-103.48765,38.26874],[-103.48787,38.2687],[-103.49143,38.268],[-103.4972,38.26685],[-103.49898,38.2665],[-103.50075,38.26615],[-103.50173,38.26596],[-103.50462,38.26538],[-103.50577,38.26514],[-103.50645,38.26501],[-103.50771,38.26476],[-103.50828,38.26465],[-103.50844,38.26461],[-103.50993,38.26431],[-103.51249,38.26381],[-103.51782,38.26275],[-103.51915,38.26249],[-103.51937,38.26245],[-103.52159,38.26201],[-103.52204,38.26192],[-103.52537,38.26126],[-103.52559,38.26121],[-103.52648,38.26104],[-103.5267,38.26099],[-103.52826,38.26068],[-103.52914,38.26051],[-103.5307,38.2602],[-103.53225,38.25989],[-103.53403,38.25954],[-103.5355,38.25925],[-103.53661,38.25903],[-103.53847,38.25866],[-103.54064,38.25823],[-103.54197,38.25796],[-103.54397,38.25756],[-103.5452,38.25732],[-103.54752,38.25686],[-103.54886,38.2566],[-103.55152,38.25607],[-103.55225,38.25592],[-103.55353,38.25567],[-103.55441,38.2555],[-103.55463,38.25545],[-103.55654,38.25507],[-103.55841,38.2547],[-103.56485,38.25343],[-103.56816,38.25277],[-103.56973,38.25245],[-103.57093,38.25222],[-103.57264,38.25188],[-103.57522,38.25136],[-103.57554,38.2513],[-103.57686,38.25104],[-103.57989,38.25044],[-103.58033,38.25035],[-103.58055,38.2503],[-103.58122,38.25017],[-103.58655,38.24912],[-103.58677,38.24908],[-103.58788,38.24886],[-103.5881,38.24881],[-103.58831,38.24877],[-103.59297,38.24785],[-103.59313,38.24781],[-103.59421,38.2476],[-103.59444,38.24755],[-103.59599,38.24725],[-103.59621,38.2472],[-103.59732,38.24698],[-103.59748,38.24695],[-103.59856,38.24673],[-103.59865,38.24671],[-103.59888,38.24667],[-103.59977,38.24649],[-103.60081,38.24629],[-103.60238,38.24598],[-103.60369,38.24572],[-103.60382,38.24569],[-103.60394,38.24567],[-103.6046,38.24554],[-103.60555,38.24535],[-103.60659,38.24514],[-103.60804,38.24485],[-103.60813,38.24483],[-103.60835,38.24479],[-103.60975,38.24451],[-103.61235,38.244],[-103.61303,38.24386],[-103.6139,38.24369],[-103.61501,38.24347],[-103.61621,38.24323],[-103.61734,38.24301],[-103.61749,38.24298],[-103.61791,38.24289],[-103.61929,38.24262],[-103.61955,38.24256],[-103.61978,38.24252],[-103.62039,38.2424],[-103.62133,38.24221],[-103.62177,38.24212],[-103.62195,38.24209],[-103.62244,38.24199],[-103.62302,38.24187],[-103.62355,38.24177],[-103.62453,38.24157],[-103.62488,38.2415],[-103.62529,38.24142],[-103.62619,38.24125],[-103.62789,38.24091],[-103.62859,38.24078],[-103.62961,38.24058],[-103.63079,38.24034],[-103.63091,38.24031],[-103.63144,38.24021],[-103.63264,38.23997],[-103.63358,38.23978],[-103.63378,38.23974],[-103.63479,38.23954],[-103.63501,38.23949],[-103.63606,38.23927],[-103.63646,38.23919],[-103.63675,38.23916],[-103.63891,38.23871],[-103.63913,38.23866],[-103.6409,38.2383],[-103.64223,38.23802],[-103.64328,38.2378],[-103.64544,38.23737],[-103.64667,38.23712],[-103.64947,38.23656],[-103.65311,38.23584],[-103.65323,38.23581],[-103.65399,38.23564],[-103.65456,38.23548],[-103.65511,38.23528],[-103.65577,38.23501],[-103.65606,38.23487],[-103.65622,38.23479],[-103.65655,38.23461],[-103.65668,38.23453],[-103.65723,38.23421],[-103.65749,38.23406],[-103.65788,38.23387],[-103.65804,38.2338],[-103.65821,38.23372],[-103.65843,38.23365],[-103.65869,38.23357],[-103.65888,38.23352],[-103.65912,38.23347],[-103.65932,38.23343],[-103.65959,38.23339],[-103.65983,38.23336],[-103.66005,38.23335],[-103.6604,38.23333],[-103.66164,38.23332],[-103.66294,38.23331],[-103.66294,38.23331],[-103.66294,38.23385],[-103.66294,38.23397],[-103.66294,38.23407],[-103.66294,38.23416],[-103.66294,38.23425],[-103.66295,38.23457],[-103.66295,38.23457],[-103.66355,38.23445],[-103.66421,38.23431],[-103.66679,38.23379],[-103.66903,38.23335],[-103.67056,38.23303],[-103.67101,38.23294],[-103.67154,38.23282],[-103.67194,38.23272],[-103.67292,38.23247],[-103.67373,38.23228],[-103.67413,38.23219],[-103.6758,38.23185],[-103.67629,38.23175],[-103.67631,38.23175],[-103.67857,38.23129],[-103.6794,38.23113],[-103.68184,38.23064],[-103.68252,38.23051],[-103.68384,38.23025],[-103.68757,38.2295],[-103.68779,38.22946],[-103.69245,38.22852],[-103.6935,38.22831],[-103.69372,38.22827],[-103.70149,38.22671],[-103.70171,38.22667],[-103.70504,38.226],[-103.70685,38.22564],[-103.70709,38.22559],[-103.71086,38.22484],[-103.71259,38.2245],[-103.71426,38.22416],[-103.72038,38.22293],[-103.72191,38.22263],[-103.72579,38.22185],[-103.72956,38.2211],[-103.72998,38.22101],[-103.73248,38.22051],[-103.73736,38.21953],[-103.73846,38.21931],[-103.74079,38.21884],[-103.74179,38.21864],[-103.74201,38.2186],[-103.74246,38.21851],[-103.74298,38.2184],[-103.74412,38.21818],[-103.74542,38.21792],[-103.74616,38.21778],[-103.74674,38.21773],[-103.74683,38.21772],[-103.74722,38.21772],[-103.74778,38.21771],[-103.74812,38.2177],[-103.74812,38.2177],[-103.74858,38.2177],[-103.74881,38.2177],[-103.74904,38.21769],[-103.74927,38.21769],[-103.75024,38.21769],[-103.7503,38.21769],[-103.75113,38.21769],[-103.75121,38.21769],[-103.75144,38.2177],[-103.7519,38.21769],[-103.75213,38.21769],[-103.75277,38.21769],[-103.7534,38.21769],[-103.75402,38.21769],[-103.75469,38.21769],[-103.75531,38.21768],[-103.75596,38.21766],[-103.75596,38.21766],[-103.75597,38.21806]]}}]}