{"type":"FeatureCollection","features":[{"type":"Feature","properties":{"_gpxType":"trk","name":"Hotel Ordway, Colorado Avenue, Ordway, CO - Great Divide Ski Bike & Hike, North Santa Fe Avenue, Pueblo, CO","coordinateProperties":{},"id":56},"geometry":{"type":"LineString","coordinates":[[-103.75834,38.21634],[-103.75801,38.21634],[-103.75801,38.21634],[-103.75799,38.21547],[-103.75803,38.21529],[-103.758,38.21518],[-103.75798,38.21488],[-103.75798,38.21458],[-103.75798,38.21458],[-103.75872,38.21451],[-103.75896,38.21448],[-103.75937,38.21442],[-103.75963,38.21439],[-103.76006,38.21432],[-103.76041,38.21425],[-103.76076,38.21417],[-103.76109,38.21409],[-103.76137,38.21402],[-103.76201,38.21384],[-103.76237,38.21374],[-103.76349,38.21343],[-103.76412,38.21326],[-103.76475,38.21308],[-103.7655,38.21288],[-103.76587,38.21278],[-103.76611,38.21272],[-103.76658,38.2126],[-103.76726,38.21245],[-103.76841,38.21222],[-103.77007,38.21188],[-103.77034,38.21183],[-103.77056,38.21178],[-103.77113,38.21167],[-103.77168,38.21156],[-103.77205,38.21148],[-103.77249,38.2114],[-103.77287,38.21134],[-103.77328,38.21128],[-103.77346,38.21126],[-103.77362,38.21124],[-103.77369,38.21123],[-103.77414,38.21117],[-103.77517,38.21104],[-103.7764,38.21088],[-103.77872,38.21058],[-103.77912,38.21053],[-103.77934,38.2105],[-103.77978,38.21044],[-103.78042,38.21035],[-103.78092,38.21027],[-103.78267,38.20992],[-103.78469,38.20951],[-103.78511,38.20943],[-103.78765,38.20893],[-103.795,38.20746],[-103.79828,38.2068],[-103.80365,38.2057],[-103.80381,38.20567],[-103.80559,38.20526],[-103.80565,38.20525],[-103.80587,38.2052],[-103.80932,38.2044],[-103.81027,38.20418],[-103.81116,38.20399],[-103.8118,38.20386],[-103.81292,38.20365],[-103.81745,38.20283],[-103.81828,38.20268],[-103.82147,38.20209],[-103.82176,38.20203],[-103.82231,38.20192],[-103.82258,38.20186],[-103.82297,38.20177],[-103.82334,38.20169],[-103.82385,38.20156],[-103.82436,38.20143],[-103.82485,38.2013],[-103.8256,38.20109],[-103.82658,38.2008],[-103.82758,38.20051],[-103.82807,38.20037],[-103.83128,38.19943],[-103.83156,38.19935],[-103.83216,38.19918],[-103.83279,38.19899],[-103.83577,38.19812],[-103.8362,38.19799],[-103.83703,38.19775],[-103.8376,38.19758],[-103.8385,38.19732],[-103.83876,38.19724],[-103.83887,38.19721],[-103.83939,38.19706],[-103.8402,38.19682],[-103.84157,38.19642],[-103.84162,38.19641],[-103.84219,38.19624],[-103.84248,38.19616],[-103.8435,38.19587],[-103.84359,38.19584],[-103.8447,38.19552],[-103.84507,38.19541],[-103.84533,38.19532],[-103.84541,38.1953],[-103.84543,38.19529],[-103.84557,38.19524],[-103.84562,38.19522],[-103.84564,38.19522],[-103.8458,38.19516],[-103.84594,38.1951],[-103.84626,38.19496],[-103.84661,38.19481],[-103.84708,38.1946],[-103.84742,38.19446],[-103.84754,38.19442],[-103.84779,38.19433],[-103.84791,38.19429],[-103.84839,38.19413],[-103.8487,38.19404],[-103.84872,38.19403],[-103.84891,38.19398],[-103.84927,38.19387],[-103.85077,38.19343],[-103.85087,38.19341],[-103.85161,38.19319],[-103.85235,38.19297],[-103.85296,38.19279],[-103.85359,38.19261],[-103.85364,38.19259],[-103.85416,38.19244],[-103.85487,38.19223],[-103.85494,38.19221],[-103.85495,38.19221],[-103.85535,38.19209],[-103.85579,38.19196],[-103.85621,38.19185],[-103.85631,38.19182],[-103.8564,38.1918],[-103.85672,38.19172],[-103.85706,38.19165],[-103.85733,38.19161],[-103.85777,38.19154],[-103.85821,38.19148],[-103.8584,38.19145],[-103.85871,38.19141],[-103.85882,38.19139],[-103.85897,38.19136],[-103.85906,38.19133],[-103.8592,38.1913],[-103.85952,38.19121],[-103.86043,38.19095],[-103.8616,38.19061],[-103.8624,38.19038],[-103.86368,38.19001],[-103.86454,38.18976],[-103.86602,38.18932],[-103.86696,38.18905],[-103.86801,38.18874],[-103.87019,38.1881],[-103.87297,38.18728],[-103.87447,38.18684],[-103.87578,38.18646],[-103.87835,38.18571],[-103.87856,38.18565],[-103.88135,38.18483],[-103.88157,38.18477],[-103.88509,38.18373],[-103.89447,38.18098],[-103.89498,38.18083],[-103.89913,38.17962],[-103.89991,38.17939],[-103.90367,38.17829],[-103.90585,38.17765],[-103.9127,38.17564],[-103.91295,38.17557],[-103.91323,38.17549],[-103.91407,38.17524],[-103.91668,38.17448],[-103.91796,38.1741],[-103.92216,38.17286],[-103.92466,38.17213],[-103.92745,38.17131],[-103.92766,38.17124],[-103.92809,38.17112],[-103.9283,38.17105],[-103.92895,38.17087],[-103.92916,38.1708],[-103.93152,38.17011],[-103.9332,38.16962],[-103.93544,38.16896],[-103.93566,38.1689],[-103.93721,38.16845],[-103.93805,38.1682],[-103.93917,38.16786],[-103.93992,38.16759],[-103.94038,38.16737],[-103.94068,38.1672],[-103.9409,38.16708],[-103.94128,38.1669],[-103.94174,38.16672],[-103.94224,38.16656],[-103.94244,38.1665],[-103.94349,38.16623],[-103.94451,38.16594],[-103.94556,38.16562],[-103.94663,38.16529],[-103.94769,38.16498],[-103.94828,38.16488],[-103.94912,38.16482],[-103.94963,38.16476],[-103.94975,38.16474],[-103.94981,38.16473],[-103.94987,38.16472],[-103.94994,38.16471],[-103.95,38.16469],[-103.95022,38.16464],[-103.95038,38.1646],[-103.95061,38.16453],[-103.95098,38.16442],[-103.9514,38.1643],[-103.95212,38.16409],[-103.95215,38.16408],[-103.95274,38.16391],[-103.95339,38.16372],[-103.9542,38.16348],[-103.95429,38.16345],[-103.95493,38.16326],[-103.95515,38.1632],[-103.95548,38.1631],[-103.95578,38.16301],[-103.956,38.16294],[-103.95613,38.1629],[-103.95683,38.1627],[-103.95703,38.16264],[-103.95766,38.16245],[-103.95906,38.16206],[-103.95998,38.16179],[-103.96107,38.16148],[-103.9618,38.16127],[-103.96214,38.16116],[-103.96328,38.16082],[-103.96449,38.16046],[-103.96556,38.16013],[-103.96578,38.16007],[-103.96642,38.15988],[-103.96657,38.15983],[-103.96663,38.15981],[-103.96835,38.15931],[-103.96952,38.15897],[-103.97065,38.15864],[-103.97252,38.1581],[-103.97447,38.15752],[-103.97742,38.15666],[-103.97747,38.15664],[-103.97968,38.15599],[-103.98099,38.1556],[-103.98286,38.15505],[-103.98362,38.15483],[-103.98391,38.15476],[-103.98422,38.15469],[-103.98446,38.15464],[-103.98473,38.15459],[-103.98501,38.15455],[-103.98524,38.15452],[-103.9853,38.15452],[-103.98547,38.15451],[-103.9857,38.15449],[-103.98638,38.15448],[-103.98679,38.15448],[-103.98777,38.15449],[-103.98846,38.1545],[-103.98867,38.15451],[-103.98937,38.15452],[-103.9896,38.15452],[-103.99074,38.15454],[-103.9921,38.15456],[-103.99326,38.15457],[-103.996,38.15461],[-103.99602,38.15461],[-103.99738,38.15463],[-103.9976,38.15464],[-103.99803,38.15464],[-103.99829,38.15465],[-103.99966,38.15467],[-104.00035,38.15468],[-104.0004,38.15468],[-104.00058,38.15468],[-104.00149,38.15469],[-104.00378,38.15472],[-104.00499,38.15474],[-104.00721,38.15477],[-104.00873,38.1548],[-104.01067,38.15482],[-104.01087,38.15483],[-104.0109,38.15483],[-104.01244,38.15485],[-104.01407,38.15487],[-104.01501,38.15489],[-104.01548,38.15489],[-104.0157,38.1549],[-104.01593,38.1549],[-104.01636,38.15491],[-104.01699,38.15492],[-104.0173,38.15493],[-104.01753,38.15493],[-104.01815,38.15494],[-104.01918,38.15495],[-104.01936,38.15495],[-104.0201,38.15496],[-104.02079,38.15496],[-104.021,38.15496],[-104.02103,38.15496],[-104.02118,38.15496],[-104.02152,38.15497],[-104.02184,38.15499],[-104.02205,38.15501],[-104.02223,38.15502],[-104.0224,38.15504],[-104.02262,38.15508],[-104.02293,38.15513],[-104.02321,38.15519],[-104.02363,38.15527],[-104.02394,38.15533],[-104.02416,38.15537],[-104.0248,38.15553],[-104.02526,38.15563],[-104.0262,38.15584],[-104.02777,38.1562],[-104.02912,38.1565],[-104.02921,38.15653],[-104.02988,38.15667],[-104.03053,38.15682],[-104.03054,38.15683],[-104.03097,38.15692],[-104.03183,38.15712],[-104.03274,38.15733],[-104.03366,38.15754],[-104.03413,38.15765],[-104.03449,38.15773],[-104.03493,38.15784],[-104.03519,38.1579],[-104.03541,38.15796],[-104.03579,38.15806],[-104.03629,38.15819],[-104.03683,38.15834],[-104.03706,38.1584],[-104.03877,38.15889],[-104.03956,38.15912],[-104.04177,38.15976],[-104.04432,38.16049],[-104.04484,38.16064],[-104.04679,38.1612],[-104.04726,38.16134],[-104.04777,38.16148],[-104.05141,38.16252],[-104.05162,38.16259],[-104.05463,38.16345],[-104.05485,38.16351],[-104.05592,38.16382],[-104.05643,38.16396],[-104.05702,38.16412],[-104.05766,38.16429],[-104.05832,38.16445],[-104.05849,38.1645],[-104.0594,38.16477],[-104.05989,38.16491],[-104.06129,38.16532],[-104.06247,38.16565],[-104.06327,38.16588],[-104.06365,38.16599],[-104.06413,38.16613],[-104.06564,38.16655],[-104.06715,38.16699],[-104.06833,38.16733],[-104.06854,38.16739],[-104.06876,38.16745],[-104.0706,38.16797],[-104.07134,38.16819],[-104.0737,38.16887],[-104.07413,38.169],[-104.07524,38.16932],[-104.07649,38.16968],[-104.07907,38.17042],[-104.0795,38.17054],[-104.07989,38.17066],[-104.08036,38.17078],[-104.08058,38.17084],[-104.08062,38.17085],[-104.08113,38.17098],[-104.08195,38.17114],[-104.08212,38.17118],[-104.08234,38.17122],[-104.08301,38.17135],[-104.08357,38.17146],[-104.08367,38.17148],[-104.08545,38.17182],[-104.08568,38.17186],[-104.08634,38.17199],[-104.08735,38.17218],[-104.08853,38.1724],[-104.09493,38.1736],[-104.0958,38.17377],[-104.09589,38.17379],[-104.09635,38.17387],[-104.09686,38.17394],[-104.09766,38.17404],[-104.09964,38.17418],[-104.0999,38.1742],[-104.10021,38.17422],[-104.10047,38.17424],[-104.10066,38.17428],[-104.10099,38.17436],[-104.10139,38.17451],[-104.10159,38.17461],[-104.10171,38.17467],[-104.10177,38.17472],[-104.10185,38.17477],[-104.10193,38.17483],[-104.10199,38.17489],[-104.10204,38.17494],[-104.10216,38.17505],[-104.10236,38.17529],[-104.10244,38.1754],[-104.10255,38.17552],[-104.10265,38.17563],[-104.10276,38.17573],[-104.10289,38.17583],[-104.103,38.17591],[-104.1031,38.17597],[-104.1032,38.17602],[-104.10332,38.17608],[-104.10346,38.17614],[-104.10363,38.1762],[-104.10377,38.17624],[-104.10414,38.17633],[-104.10465,38.17643],[-104.10571,38.17665],[-104.10622,38.17677],[-104.10627,38.17679],[-104.1064,38.17682],[-104.10689,38.17697],[-104.1074,38.17715],[-104.10818,38.17748],[-104.10938,38.17798],[-104.11031,38.17837],[-104.11063,38.17851],[-104.11119,38.17875],[-104.11293,38.17949],[-104.11298,38.17952],[-104.11378,38.17986],[-104.1156,38.18063],[-104.11832,38.1818],[-104.11921,38.18218],[-104.11941,38.18227],[-104.12078,38.18285],[-104.12082,38.18287],[-104.12122,38.18304],[-104.12323,38.1839],[-104.12544,38.18484],[-104.12554,38.18488],[-104.12625,38.18519],[-104.12946,38.18656],[-104.13039,38.18696],[-104.13282,38.188],[-104.13476,38.18882],[-104.13526,38.18904],[-104.13568,38.18921],[-104.13591,38.1893],[-104.13607,38.18936],[-104.13653,38.18951],[-104.13694,38.18963],[-104.13739,38.18973],[-104.1379,38.18984],[-104.13874,38.19002],[-104.14098,38.1905],[-104.14292,38.19091],[-104.14446,38.19123],[-104.14548,38.19145],[-104.14667,38.1917],[-104.14774,38.19193],[-104.15107,38.19263],[-104.15143,38.19271],[-104.15174,38.19278],[-104.15218,38.19286],[-104.15291,38.19302],[-104.15334,38.19313],[-104.15353,38.19318],[-104.15372,38.19324],[-104.15404,38.19334],[-104.15454,38.19353],[-104.15505,38.19374],[-104.15539,38.1939],[-104.15572,38.19408],[-104.15632,38.19442],[-104.15743,38.19506],[-104.15985,38.19645],[-104.16039,38.19676],[-104.16229,38.19786],[-104.16371,38.19867],[-104.16373,38.19868],[-104.16673,38.2004],[-104.16687,38.20048],[-104.16704,38.20058],[-104.16854,38.20144],[-104.16967,38.20208],[-104.17301,38.20399],[-104.17416,38.20469],[-104.1766,38.20624],[-104.17728,38.20667],[-104.17791,38.20707],[-104.17807,38.20718],[-104.17843,38.2074],[-104.1798,38.20827],[-104.18155,38.20927],[-104.1821,38.20962],[-104.18235,38.20979],[-104.18379,38.21069],[-104.18496,38.21144],[-104.18621,38.21223],[-104.18639,38.21235],[-104.18658,38.21247],[-104.18875,38.21385],[-104.1903,38.21484],[-104.1909,38.21523],[-104.19197,38.21591],[-104.19272,38.21648],[-104.19281,38.21655],[-104.19324,38.21682],[-104.19434,38.21752],[-104.19503,38.21796],[-104.19872,38.22031],[-104.20002,38.22114],[-104.20036,38.22137],[-104.20069,38.2216],[-104.20081,38.22169],[-104.20123,38.222],[-104.20212,38.22267],[-104.20342,38.22367],[-104.2047,38.22464],[-104.20493,38.22482],[-104.20543,38.22519],[-104.20621,38.22579],[-104.20704,38.22642],[-104.20748,38.22676],[-104.20753,38.22679],[-104.20819,38.2273],[-104.20829,38.22737],[-104.20879,38.22775],[-104.21024,38.22885],[-104.21119,38.22957],[-104.21132,38.22967],[-104.21138,38.22972],[-104.21148,38.2298],[-104.21154,38.22984],[-104.21208,38.23025],[-104.21286,38.23084],[-104.21329,38.23117],[-104.21387,38.2316],[-104.21467,38.23221],[-104.21478,38.23229],[-104.21533,38.23271],[-104.21538,38.23274],[-104.21544,38.23279],[-104.21596,38.23318],[-104.21668,38.23373],[-104.21717,38.2341],[-104.21775,38.23454],[-104.21777,38.23456],[-104.21781,38.23458],[-104.21791,38.23466],[-104.21844,38.23506],[-104.21907,38.23554],[-104.21916,38.23561],[-104.21956,38.23591],[-104.21962,38.23596],[-104.22014,38.23636],[-104.22063,38.23674],[-104.22102,38.23705],[-104.2211,38.23712],[-104.22124,38.23723],[-104.22188,38.23773],[-104.22223,38.23801],[-104.2226,38.23831],[-104.22279,38.23846],[-104.22303,38.23865],[-104.22303,38.23866],[-104.22313,38.23872],[-104.22319,38.23876],[-104.22329,38.23882],[-104.22342,38.23889],[-104.22353,38.23894],[-104.22366,38.239],[-104.22379,38.23904],[-104.22398,38.2391],[-104.22433,38.2392],[-104.22441,38.23923],[-104.2248,38.23934],[-104.22545,38.23953],[-104.22569,38.2396],[-104.22663,38.23986],[-104.2269,38.23994],[-104.22733,38.24007],[-104.22762,38.24016],[-104.22785,38.24023],[-104.22793,38.24026],[-104.22825,38.24037],[-104.2284,38.24042],[-104.22844,38.24044],[-104.22864,38.24051],[-104.22887,38.24061],[-104.22902,38.24067],[-104.22917,38.24074],[-104.22937,38.24084],[-104.22959,38.24096],[-104.2297,38.24101],[-104.22997,38.24116],[-104.23027,38.24133],[-104.2306,38.24151],[-104.23076,38.2416],[-104.23222,38.2424],[-104.23285,38.24275],[-104.23347,38.24309],[-104.23396,38.24338],[-104.23404,38.24342],[-104.23499,38.24405],[-104.23605,38.24478],[-104.23639,38.24502],[-104.23644,38.24505],[-104.23726,38.24561],[-104.23727,38.24562],[-104.23738,38.24569],[-104.23752,38.24577],[-104.23762,38.24583],[-104.23773,38.2459],[-104.23782,38.24594],[-104.23795,38.24601],[-104.23808,38.24606],[-104.2382,38.24612],[-104.23833,38.24617],[-104.23862,38.24627],[-104.2387,38.24629],[-104.23881,38.24633],[-104.23906,38.24639],[-104.23927,38.24643],[-104.23932,38.24645],[-104.23935,38.24645],[-104.23949,38.24647],[-104.23961,38.24649],[-104.23979,38.24651],[-104.24004,38.24654],[-104.24036,38.24658],[-104.24095,38.24663],[-104.24139,38.24668],[-104.24184,38.24672],[-104.24287,38.24682],[-104.2429,38.24683],[-104.24298,38.24683],[-104.24381,38.24692],[-104.24655,38.24719],[-104.24792,38.24733],[-104.24814,38.24735],[-104.24909,38.24745],[-104.24973,38.24751],[-104.25021,38.24755],[-104.25043,38.24757],[-104.25072,38.2476],[-104.25105,38.24764],[-104.25114,38.24765],[-104.25345,38.24787],[-104.2546,38.24798],[-104.25584,38.24811],[-104.25649,38.24818],[-104.25666,38.24819],[-104.25707,38.24824],[-104.25756,38.24828],[-104.25798,38.24832],[-104.25855,38.24838],[-104.25962,38.24849],[-104.26063,38.24859],[-104.26115,38.24864],[-104.26133,38.24866],[-104.26192,38.24873],[-104.26227,38.24878],[-104.26235,38.24879],[-104.26295,38.24889],[-104.26306,38.24891],[-104.26343,38.24898],[-104.26384,38.24907],[-104.26449,38.24921],[-104.26503,38.24933],[-104.26575,38.24949],[-104.26588,38.24952],[-104.26611,38.24957],[-104.26694,38.24976],[-104.26758,38.24989],[-104.26772,38.24991],[-104.26788,38.24995],[-104.26823,38.25002],[-104.26914,38.25018],[-104.26936,38.25023],[-104.26944,38.25024],[-104.27026,38.25039],[-104.27033,38.2504],[-104.2704,38.25042],[-104.27112,38.25054],[-104.27115,38.25054],[-104.27146,38.25058],[-104.27172,38.25062],[-104.27273,38.25074],[-104.27275,38.25075],[-104.27282,38.25075],[-104.27463,38.25096],[-104.27632,38.25116],[-104.27705,38.25125],[-104.27907,38.25149],[-104.27978,38.25157],[-104.28047,38.25165],[-104.28092,38.2517],[-104.28175,38.2518],[-104.28186,38.25181],[-104.28456,38.25212],[-104.28579,38.25227],[-104.2866,38.25236],[-104.28771,38.2525],[-104.28828,38.25256],[-104.28945,38.2527],[-104.28964,38.25272],[-104.28995,38.25276],[-104.29253,38.25307],[-104.2929,38.25311],[-104.29642,38.25352],[-104.29664,38.25355],[-104.29687,38.25357],[-104.29732,38.25362],[-104.29936,38.25386],[-104.30047,38.25399],[-104.30128,38.2541],[-104.30278,38.25432],[-104.3044,38.25456],[-104.3059,38.25478],[-104.3067,38.2549],[-104.31211,38.25569],[-104.31307,38.25583],[-104.3149,38.2561],[-104.31721,38.25644],[-104.31957,38.25679],[-104.3212,38.25702],[-104.32255,38.25722],[-104.32458,38.25752],[-104.32548,38.25765],[-104.32623,38.25776],[-104.32813,38.25803],[-104.32985,38.25829],[-104.33029,38.25836],[-104.33094,38.25845],[-104.3323,38.25865],[-104.333,38.25875],[-104.33339,38.25875],[-104.33515,38.25902],[-104.3358,38.25916],[-104.33685,38.25932],[-104.33784,38.25946],[-104.33856,38.25956],[-104.33926,38.25968],[-104.33957,38.25973],[-104.34003,38.25981],[-104.34029,38.25986],[-104.34104,38.26001],[-104.34168,38.26016],[-104.34286,38.26042],[-104.34419,38.2607],[-104.34438,38.26074],[-104.34463,38.26079],[-104.34545,38.26096],[-104.34629,38.26114],[-104.34684,38.26125],[-104.34695,38.26127],[-104.3472,38.26133],[-104.34761,38.26142],[-104.34805,38.26151],[-104.34845,38.26161],[-104.34847,38.26162],[-104.34867,38.26168],[-104.34887,38.26174],[-104.34911,38.26182],[-104.34912,38.26183],[-104.34933,38.26189],[-104.34949,38.26193],[-104.3502,38.26212],[-104.35105,38.26231],[-104.35206,38.26252],[-104.3525,38.26261],[-104.35343,38.2628],[-104.35418,38.26295],[-104.3544,38.26299],[-104.35543,38.26319],[-104.35773,38.26366],[-104.3581,38.26374],[-104.3602,38.26419],[-104.36083,38.26431],[-104.36085,38.26432],[-104.36102,38.26435],[-104.36124,38.26438],[-104.36147,38.26439],[-104.36165,38.26439],[-104.36194,38.26437],[-104.36224,38.26434],[-104.36242,38.26431],[-104.3625,38.26429],[-104.36273,38.26424],[-104.36285,38.2642],[-104.36288,38.26419],[-104.36302,38.26414],[-104.36321,38.26407],[-104.36335,38.264],[-104.3635,38.26392],[-104.36361,38.26386],[-104.36372,38.2638],[-104.36385,38.26371],[-104.36411,38.26351],[-104.36608,38.26188],[-104.36653,38.26152],[-104.36653,38.26152],[-104.36675,38.26147],[-104.3668,38.26146],[-104.36684,38.26145],[-104.36688,38.26145],[-104.36693,38.26146],[-104.36699,38.26147],[-104.36704,38.26148],[-104.36707,38.26149],[-104.36711,38.2615],[-104.36714,38.26152],[-104.36738,38.2616],[-104.36814,38.26216],[-104.36951,38.26319],[-104.36981,38.26342],[-104.36998,38.26355],[-104.37033,38.26381],[-104.37176,38.26488],[-104.37243,38.2654],[-104.3725,38.26546],[-104.37278,38.26567],[-104.37308,38.2659],[-104.37339,38.26613],[-104.3737,38.26634],[-104.37381,38.26641],[-104.37392,38.26647],[-104.37405,38.26656],[-104.37425,38.26666],[-104.37439,38.26673],[-104.37461,38.26683],[-104.37474,38.26689],[-104.37498,38.26699],[-104.37509,38.26703],[-104.37523,38.26708],[-104.37536,38.26713],[-104.37548,38.26717],[-104.37561,38.26721],[-104.37574,38.26725],[-104.3759,38.26729],[-104.37601,38.26732],[-104.37612,38.26734],[-104.3763,38.26738],[-104.37657,38.26743],[-104.37664,38.26744],[-104.37671,38.26745],[-104.37712,38.2675],[-104.37764,38.26756],[-104.37874,38.26765],[-104.37916,38.26769],[-104.37972,38.26774],[-104.38013,38.26778],[-104.38053,38.26781],[-104.38289,38.26802],[-104.38347,38.26807],[-104.38443,38.26815],[-104.3853,38.26823],[-104.38702,38.26839],[-104.38708,38.26839],[-104.38743,38.26842],[-104.38804,38.26848],[-104.38928,38.26859],[-104.39013,38.26866],[-104.39081,38.26873],[-104.39151,38.26879],[-104.39216,38.26884],[-104.39274,38.26888],[-104.39332,38.26891],[-104.39427,38.26897],[-104.3944,38.26897],[-104.39525,38.26902],[-104.39554,38.26903],[-104.39592,38.26905],[-104.39613,38.26906],[-104.39635,38.26908],[-104.3965,38.26909],[-104.39679,38.26911],[-104.39832,38.26925],[-104.39851,38.26926],[-104.39987,38.26938],[-104.40103,38.26949],[-104.40235,38.2696],[-104.40309,38.26967],[-104.40378,38.26974],[-104.40385,38.26975],[-104.40403,38.26977],[-104.40417,38.26978],[-104.40473,38.26984],[-104.40513,38.26988],[-104.40567,38.26995],[-104.40723,38.27013],[-104.40883,38.27032],[-104.40995,38.27045],[-104.41102,38.27056],[-104.41186,38.27064],[-104.41309,38.27075],[-104.41349,38.27079],[-104.41459,38.27089],[-104.41594,38.27101],[-104.41883,38.27126],[-104.42031,38.27139],[-104.42195,38.27154],[-104.42305,38.27163],[-104.42433,38.27174],[-104.42526,38.27183],[-104.4254,38.27184],[-104.42566,38.27186],[-104.42662,38.27195],[-104.42991,38.27223],[-104.43398,38.27259],[-104.43522,38.2727],[-104.43647,38.27281],[-104.43784,38.27293],[-104.43811,38.27295],[-104.44012,38.27313],[-104.44308,38.27339],[-104.44558,38.27361],[-104.44674,38.27371],[-104.4496,38.27397],[-104.45031,38.27403],[-104.45071,38.27407],[-104.45086,38.27408],[-104.45127,38.27412],[-104.45196,38.27417],[-104.45266,38.27423],[-104.45296,38.27425],[-104.45346,38.27429],[-104.45383,38.27432],[-104.45415,38.27434],[-104.45476,38.27441],[-104.45502,38.27444],[-104.45581,38.27453],[-104.45597,38.27455],[-104.45769,38.27477],[-104.45789,38.27479],[-104.45814,38.27483],[-104.45838,38.27486],[-104.45876,38.2749],[-104.45946,38.27497],[-104.45962,38.27499],[-104.45984,38.27501],[-104.46005,38.27503],[-104.46027,38.27505],[-104.46083,38.2751],[-104.46137,38.27514],[-104.46168,38.27516],[-104.46208,38.27519],[-104.46244,38.27521],[-104.46263,38.27522],[-104.46354,38.27526],[-104.46464,38.27532],[-104.46572,38.27539],[-104.46649,38.27546],[-104.46705,38.2755],[-104.46919,38.27568],[-104.47015,38.27576],[-104.47071,38.2758],[-104.47093,38.27582],[-104.47126,38.27585],[-104.47168,38.27588],[-104.47208,38.27591],[-104.47236,38.27592],[-104.47252,38.27593],[-104.47267,38.27594],[-104.47285,38.27594],[-104.47307,38.27594],[-104.47333,38.27593],[-104.47368,38.27593],[-104.47515,38.27589],[-104.47574,38.27587],[-104.47597,38.27586],[-104.47599,38.27586],[-104.47683,38.27584],[-104.47803,38.2758],[-104.47868,38.27578],[-104.47937,38.27576],[-104.47976,38.27575],[-104.47983,38.27574],[-104.48074,38.27572],[-104.4812,38.2757],[-104.48204,38.27568],[-104.48296,38.27565],[-104.48377,38.27563],[-104.48658,38.27554],[-104.48759,38.27551],[-104.48871,38.27547],[-104.48938,38.27545],[-104.49052,38.27541],[-104.49224,38.27536],[-104.49306,38.27533],[-104.49329,38.27533],[-104.49453,38.27529],[-104.49581,38.27525],[-104.49672,38.27523],[-104.49705,38.27521],[-104.49768,38.2752],[-104.49811,38.27518],[-104.49849,38.27516],[-104.4987,38.27514],[-104.49906,38.27515],[-104.50054,38.2751],[-104.50073,38.27509],[-104.50295,38.27502],[-104.50348,38.27501],[-104.50378,38.275],[-104.50387,38.27499],[-104.5058,38.27493],[-104.5061,38.27492],[-104.50641,38.27491],[-104.50762,38.27488],[-104.50802,38.27487],[-104.50843,38.27486],[-104.50889,38.27484],[-104.50897,38.27484],[-104.50918,38.27483],[-104.50941,38.27483],[-104.50985,38.27481],[-104.51042,38.27479],[-104.51115,38.27477],[-104.51214,38.27474],[-104.51274,38.27472],[-104.51303,38.27471],[-104.51355,38.2747],[-104.51364,38.2747],[-104.51459,38.27467],[-104.51569,38.27463],[-104.51614,38.2746],[-104.51678,38.27458],[-104.51707,38.27457],[-104.51796,38.27456],[-104.51867,38.27455],[-104.51883,38.27455],[-104.51892,38.27455],[-104.52003,38.27454],[-104.52129,38.27452],[-104.52216,38.27451],[-104.52296,38.2745],[-104.52343,38.2745],[-104.5238,38.27449],[-104.52405,38.27449],[-104.52443,38.27449],[-104.52448,38.27449],[-104.52452,38.2745],[-104.52558,38.27448],[-104.52679,38.27447],[-104.527,38.27447],[-104.52827,38.27445],[-104.52893,38.27444],[-104.52908,38.27444],[-104.52999,38.27443],[-104.5311,38.27441],[-104.53277,38.27439],[-104.53294,38.27438],[-104.53421,38.27436],[-104.53436,38.27435],[-104.53512,38.27433],[-104.53536,38.27432],[-104.53608,38.27429],[-104.53664,38.27425],[-104.53694,38.27422],[-104.53736,38.27418],[-104.53789,38.27411],[-104.53821,38.27407],[-104.53854,38.27402],[-104.54006,38.27375],[-104.54035,38.27371],[-104.54078,38.27364],[-104.5412,38.27357],[-104.54162,38.27349],[-104.54222,38.27338],[-104.5425,38.27333],[-104.54327,38.27318],[-104.54358,38.27312],[-104.54396,38.27304],[-104.54408,38.27302],[-104.54417,38.273],[-104.54423,38.27298],[-104.54443,38.27293],[-104.54456,38.2729],[-104.54477,38.27284],[-104.54478,38.27284],[-104.54496,38.27278],[-104.5451,38.27273],[-104.54523,38.27268],[-104.54538,38.27262],[-104.54548,38.27259],[-104.54571,38.27249],[-104.54597,38.27238],[-104.54662,38.2721],[-104.5467,38.27206],[-104.54719,38.27185],[-104.54754,38.2717],[-104.54762,38.27166],[-104.5478,38.27159],[-104.54793,38.27155],[-104.54796,38.27154],[-104.54806,38.2715],[-104.54813,38.27149],[-104.54818,38.27147],[-104.54832,38.27144],[-104.5485,38.27139],[-104.54853,38.27139],[-104.54872,38.27136],[-104.54881,38.27134],[-104.54899,38.27132],[-104.549,38.27131],[-104.54914,38.2713],[-104.54926,38.27129],[-104.5494,38.27128],[-104.54952,38.27128],[-104.54969,38.27127],[-104.54986,38.27128],[-104.55,38.27129],[-104.55009,38.27129],[-104.55014,38.2713],[-104.5502,38.2713],[-104.55025,38.27131],[-104.55041,38.27132],[-104.55058,38.27135],[-104.55069,38.27137],[-104.5508,38.2714],[-104.55099,38.27144],[-104.5511,38.27147],[-104.55121,38.2715],[-104.55134,38.27154],[-104.55147,38.27158],[-104.55157,38.27162],[-104.55166,38.27165],[-104.55176,38.27169],[-104.55181,38.27172],[-104.55185,38.27173],[-104.55195,38.27178],[-104.55203,38.27181],[-104.55223,38.27191],[-104.55243,38.27201],[-104.55253,38.27206],[-104.55276,38.27218],[-104.55321,38.27241],[-104.55334,38.27247],[-104.55338,38.27249],[-104.55362,38.27262],[-104.55369,38.27265],[-104.5539,38.27276],[-104.55409,38.27286],[-104.55409,38.27286],[-104.55416,38.27296],[-104.55418,38.27298],[-104.55419,38.27298],[-104.5542,38.273],[-104.55422,38.27301],[-104.5544,38.27312],[-104.55444,38.27315],[-104.55449,38.27318],[-104.55455,38.27321],[-104.55457,38.27322],[-104.5546,38.27324],[-104.55475,38.27333],[-104.55477,38.27334],[-104.55493,38.27345],[-104.55507,38.27354],[-104.55511,38.27356],[-104.55515,38.27359],[-104.55527,38.27369],[-104.55536,38.27375],[-104.55558,38.27392],[-104.55567,38.274],[-104.55587,38.27418],[-104.55611,38.27439],[-104.55629,38.27459],[-104.55651,38.27482],[-104.55699,38.2753],[-104.55713,38.27544],[-104.55713,38.27545],[-104.55742,38.27573],[-104.55742,38.27573],[-104.55763,38.27547],[-104.55771,38.27538],[-104.55798,38.27509],[-104.55814,38.27496],[-104.55817,38.27493],[-104.5583,38.27483],[-104.55836,38.27477],[-104.55852,38.27465],[-104.55879,38.27445],[-104.55885,38.2744],[-104.55889,38.27437],[-104.55889,38.27437],[-104.55891,38.27437],[-104.55899,38.27435],[-104.55921,38.27421],[-104.55938,38.27411],[-104.5597,38.27393],[-104.55972,38.27392],[-104.55988,38.27382],[-104.5599,38.27381],[-104.56011,38.27369],[-104.56028,38.27359],[-104.56049,38.27349],[-104.56096,38.27326],[-104.56124,38.27312],[-104.56173,38.27285],[-104.56277,38.27228],[-104.56309,38.27216],[-104.56335,38.27207],[-104.5636,38.27201],[-104.56376,38.27198],[-104.56397,38.27195],[-104.56436,38.27191],[-104.56449,38.27186],[-104.56483,38.27184],[-104.56506,38.27183],[-104.56529,38.27182],[-104.5657,38.27181],[-104.56729,38.27177],[-104.56741,38.27176],[-104.56766,38.27176],[-104.56965,38.2717],[-104.5704,38.27168],[-104.57095,38.27166],[-104.5729,38.2716],[-104.57382,38.27156],[-104.5745,38.27154],[-104.57473,38.27153],[-104.5768,38.27146],[-104.57761,38.27144],[-104.57875,38.2714],[-104.5807,38.27134],[-104.58265,38.27129],[-104.58357,38.27126],[-104.5846,38.27123],[-104.58494,38.27122],[-104.58527,38.27121],[-104.58609,38.27119],[-104.58655,38.27117],[-104.58815,38.27112],[-104.58838,38.27112],[-104.58907,38.2711],[-104.5898,38.27108],[-104.59072,38.27106],[-104.59218,38.27103],[-104.5923,38.27102],[-104.59261,38.27101],[-104.59375,38.27098],[-104.59457,38.27096],[-104.5948,38.27096],[-104.59526,38.27094],[-104.596,38.27093],[-104.59677,38.27092],[-104.59827,38.27088],[-104.59977,38.27084],[-104.60018,38.27082],[-104.60029,38.27081],[-104.6004,38.27081],[-104.60051,38.2708],[-104.60074,38.27079],[-104.60097,38.27078],[-104.60115,38.27078],[-104.60138,38.27077],[-104.60147,38.27077],[-104.6017,38.27076],[-104.60187,38.27076],[-104.60193,38.27076],[-104.60226,38.27075],[-104.60255,38.27074],[-104.6027,38.27077],[-104.6038,38.27077],[-104.60403,38.27077],[-104.60425,38.27077],[-104.60471,38.27076],[-104.60493,38.27076],[-104.60494,38.27076],[-104.60497,38.27076],[-104.60498,38.27076],[-104.60514,38.27076],[-104.60516,38.27076],[-104.60517,38.27076],[-104.6052,38.27076],[-104.60521,38.27076],[-104.60532,38.27076],[-104.60555,38.27075],[-104.60569,38.27069],[-104.60587,38.27069],[-104.60656,38.27068],[-104.6066,38.27068],[-104.60679,38.27068],[-104.60683,38.27068],[-104.60688,38.27068]]}}]}