{"type":"FeatureCollection","features":[{"type":"Feature","properties":{"_gpxType":"trk","name":"3892 Lake Run Boulevard, Stow, OH - 425 E Liberty St, Medina, OH 44256","coordinateProperties":{},"id":6},"geometry":{"type":"LineString","coordinates":[[-81.41202,41.16476],[-81.41202,41.16465],[-81.41201,41.16458],[-81.41198,41.16437],[-81.4119,41.16417],[-81.41186,41.1641],[-81.41184,41.16403],[-81.41182,41.16399],[-81.41175,41.16386],[-81.41165,41.1637],[-81.41162,41.16365],[-81.41154,41.16354],[-81.41151,41.16351],[-81.41141,41.16339],[-81.41134,41.16332],[-81.41126,41.16325],[-81.41115,41.16314],[-81.411,41.16302],[-81.41071,41.16279],[-81.41061,41.16272],[-81.41027,41.1625],[-81.41005,41.16239],[-81.40984,41.16229],[-81.40959,41.16219],[-81.40934,41.1621],[-81.40902,41.16202],[-81.40874,41.16196],[-81.40837,41.16191],[-81.40764,41.16188],[-81.40625,41.16189],[-81.40621,41.16189],[-81.40538,41.1619],[-81.40445,41.1619],[-81.40421,41.1619],[-81.40373,41.1619],[-81.40361,41.1619],[-81.40322,41.1619],[-81.40263,41.16189],[-81.40239,41.16189],[-81.40224,41.16189],[-81.40197,41.16188],[-81.4018,41.16188],[-81.40179,41.16188],[-81.40156,41.1619],[-81.40156,41.1619],[-81.40145,41.16164],[-81.40139,41.16149],[-81.40118,41.16099],[-81.40117,41.16096],[-81.40102,41.16062],[-81.40084,41.16021],[-81.40079,41.16009],[-81.40074,41.15997],[-81.40064,41.15973],[-81.40043,41.15925],[-81.40029,41.15892],[-81.40024,41.15879],[-81.40008,41.15843],[-81.39993,41.15805],[-81.39978,41.15769],[-81.39973,41.15759],[-81.39921,41.15631],[-81.399,41.15582],[-81.39899,41.15578],[-81.39897,41.15574],[-81.39883,41.1554],[-81.39859,41.15481],[-81.39859,41.15481],[-81.39797,41.15467],[-81.39785,41.15464],[-81.39777,41.15463],[-81.39759,41.15458],[-81.39718,41.15449],[-81.39718,41.15449],[-81.39731,41.15414],[-81.39732,41.15411],[-81.3974,41.1539],[-81.39745,41.15373],[-81.39748,41.15362],[-81.39748,41.15358],[-81.3975,41.15345],[-81.3975,41.15326],[-81.3975,41.15319],[-81.39746,41.15202],[-81.39745,41.15167],[-81.39745,41.15167],[-81.39726,41.15168],[-81.39717,41.15168],[-81.39708,41.15168],[-81.39702,41.15168],[-81.39698,41.15167],[-81.39697,41.15167],[-81.39695,41.15167],[-81.39691,41.15165],[-81.39683,41.15162],[-81.3968,41.15159],[-81.39678,41.15157],[-81.39677,41.15157],[-81.39674,41.15152],[-81.39671,41.15149],[-81.3967,41.15146],[-81.39669,41.15141],[-81.39669,41.15128],[-81.39669,41.15105],[-81.39669,41.15094],[-81.3967,41.15051],[-81.3967,41.15015],[-81.3967,41.14997],[-81.3967,41.14964],[-81.3967,41.14961],[-81.3967,41.14943],[-81.3967,41.14925],[-81.3967,41.14907],[-81.39671,41.14878],[-81.39671,41.14871],[-81.39671,41.14853],[-81.39671,41.14838],[-81.39671,41.14835],[-81.3967,41.14825],[-81.3967,41.14817],[-81.39668,41.14772],[-81.39668,41.14754],[-81.39668,41.14745],[-81.39668,41.14734],[-81.39669,41.14709],[-81.39669,41.14703],[-81.39669,41.14691],[-81.39669,41.14679],[-81.3967,41.14662],[-81.3967,41.14655],[-81.3967,41.1465],[-81.39671,41.14642],[-81.39673,41.14635],[-81.39675,41.1463],[-81.39677,41.14627],[-81.39679,41.14624],[-81.39681,41.1462],[-81.39683,41.14617],[-81.39684,41.14614],[-81.39684,41.14607],[-81.39685,41.146],[-81.39684,41.14575],[-81.39684,41.14564],[-81.39684,41.14564],[-81.3966,41.14564],[-81.39636,41.14564],[-81.39541,41.14563],[-81.39517,41.14563],[-81.39409,41.14562],[-81.39312,41.14562],[-81.39246,41.14561],[-81.39246,41.14561],[-81.39202,41.14561],[-81.39165,41.1456],[-81.39154,41.1456],[-81.39113,41.1456],[-81.39046,41.1456],[-81.39034,41.1456],[-81.38975,41.1456],[-81.38963,41.14559],[-81.38956,41.14559],[-81.3895,41.14558],[-81.38936,41.14554],[-81.38912,41.14544],[-81.38891,41.14533],[-81.38875,41.14523],[-81.38833,41.14499],[-81.38822,41.14493],[-81.38805,41.14482],[-81.38775,41.14464],[-81.38767,41.14459],[-81.3873,41.14438],[-81.38718,41.14431],[-81.38649,41.1439],[-81.38625,41.14377],[-81.3859,41.14358],[-81.38564,41.14346],[-81.38564,41.14346],[-81.38627,41.1428],[-81.38633,41.14273],[-81.38764,41.14134],[-81.38765,41.14133],[-81.38804,41.14092],[-81.3882,41.14074],[-81.38833,41.14061],[-81.38834,41.1406],[-81.3887,41.14022],[-81.38872,41.1402],[-81.38873,41.14018],[-81.38873,41.14014],[-81.38873,41.14011],[-81.38873,41.14008],[-81.38872,41.14004],[-81.38854,41.13968],[-81.38836,41.1393],[-81.38836,41.1393],[-81.38864,41.13921],[-81.38876,41.13916],[-81.38879,41.13914],[-81.38889,41.1391],[-81.38917,41.13897],[-81.3892,41.13896],[-81.38922,41.13895],[-81.38937,41.13888],[-81.38944,41.13884],[-81.38977,41.13867],[-81.38981,41.13865],[-81.39001,41.13855],[-81.39016,41.13848],[-81.39037,41.13838],[-81.39051,41.13831],[-81.39052,41.1383],[-81.3906,41.13825],[-81.39067,41.13819],[-81.39074,41.13811],[-81.39079,41.13801],[-81.3908,41.13798],[-81.39086,41.13783],[-81.39091,41.13772],[-81.39094,41.13765],[-81.39095,41.13762],[-81.39099,41.13758],[-81.39101,41.13756],[-81.39106,41.13752],[-81.39112,41.13749],[-81.39117,41.13747],[-81.39124,41.13744],[-81.39131,41.13743],[-81.39139,41.13743],[-81.3915,41.13743],[-81.39158,41.13744],[-81.39167,41.13744],[-81.39181,41.13744],[-81.3919,41.13742],[-81.39198,41.13738],[-81.39205,41.13734],[-81.39211,41.13729],[-81.39218,41.13722],[-81.39221,41.13716],[-81.39222,41.13711],[-81.39225,41.13694],[-81.39228,41.13676],[-81.39229,41.13667],[-81.39229,41.1365],[-81.39226,41.13632],[-81.39224,41.1362],[-81.39221,41.13605],[-81.3922,41.13595],[-81.3922,41.13583],[-81.3922,41.13569],[-81.39255,41.13552],[-81.39269,41.13542],[-81.39269,41.13542],[-81.39339,41.13529],[-81.39409,41.13517],[-81.39432,41.13513],[-81.39548,41.13492],[-81.39641,41.13475],[-81.39664,41.13471],[-81.39688,41.13467],[-81.39711,41.13463],[-81.39734,41.13459],[-81.39827,41.13442],[-81.3985,41.13438],[-81.39874,41.13434],[-81.39897,41.1343],[-81.39967,41.13418],[-81.3999,41.13414],[-81.40013,41.13409],[-81.40083,41.13397],[-81.40129,41.13389],[-81.40176,41.1338],[-81.40246,41.13368],[-81.40269,41.13364],[-81.40339,41.13352],[-81.40362,41.13347],[-81.40385,41.13343],[-81.40432,41.13335],[-81.40478,41.13327],[-81.405,41.13323],[-81.40524,41.13318],[-81.40547,41.13313],[-81.4057,41.13308],[-81.40634,41.13295],[-81.40639,41.13293],[-81.40661,41.13287],[-81.40693,41.13277],[-81.40728,41.13266],[-81.40743,41.13261],[-81.4077,41.1325],[-81.40781,41.13246],[-81.40831,41.13224],[-81.40873,41.13204],[-81.41076,41.13106],[-81.41212,41.13039],[-81.41232,41.1303],[-81.41292,41.13],[-81.41352,41.12971],[-81.41392,41.12952],[-81.41413,41.12942],[-81.41433,41.12932],[-81.41453,41.12922],[-81.41493,41.12903],[-81.41504,41.12898],[-81.41513,41.12893],[-81.41518,41.12891],[-81.41552,41.12874],[-81.41553,41.12873],[-81.41573,41.12863],[-81.41593,41.12854],[-81.41611,41.12845],[-81.41613,41.12844],[-81.41633,41.12834],[-81.41673,41.12815],[-81.41693,41.12805],[-81.41694,41.12804],[-81.4173,41.12786],[-81.41733,41.12785],[-81.41773,41.12765],[-81.41793,41.12755],[-81.41795,41.12754],[-81.41809,41.12748],[-81.41813,41.12745],[-81.41832,41.12735],[-81.41862,41.12721],[-81.41892,41.12706],[-81.41932,41.12686],[-81.41935,41.12684],[-81.41952,41.12676],[-81.41965,41.12669],[-81.42011,41.12647],[-81.42039,41.12634],[-81.42072,41.12617],[-81.42091,41.12606],[-81.42092,41.12606],[-81.42133,41.12582],[-81.42161,41.12564],[-81.42166,41.12561],[-81.42198,41.12539],[-81.42228,41.12516],[-81.42266,41.12484],[-81.42269,41.12481],[-81.42291,41.12461],[-81.42296,41.12456],[-81.42309,41.12443],[-81.42341,41.1241],[-81.42351,41.12397],[-81.42355,41.12393],[-81.42363,41.12382],[-81.42368,41.12377],[-81.42375,41.12367],[-81.42382,41.12358],[-81.42386,41.12353],[-81.42387,41.12351],[-81.42398,41.12335],[-81.42403,41.12328],[-81.4241,41.12318],[-81.42419,41.12303],[-81.42429,41.12286],[-81.42437,41.12272],[-81.42439,41.1227],[-81.42448,41.12253],[-81.42451,41.12248],[-81.42457,41.12237],[-81.42475,41.12204],[-81.42483,41.1219],[-81.42494,41.1217],[-81.42512,41.12137],[-81.4253,41.12104],[-81.42531,41.12104],[-81.42574,41.12027],[-81.42596,41.11983],[-81.42614,41.11947],[-81.42637,41.11904],[-81.42646,41.11887],[-81.42661,41.11858],[-81.42669,41.11841],[-81.4267,41.11836],[-81.42671,41.11832],[-81.42672,41.11822],[-81.42672,41.11822],[-81.42673,41.11816],[-81.42674,41.11815],[-81.4269,41.11816],[-81.42696,41.11816],[-81.42699,41.11816],[-81.427,41.11815],[-81.42702,41.11809],[-81.42705,41.11799],[-81.42708,41.11795],[-81.42729,41.11756],[-81.42738,41.11739],[-81.42789,41.11648],[-81.42839,41.11557],[-81.42848,41.1154],[-81.42903,41.1144],[-81.4291,41.11427],[-81.42931,41.1139],[-81.4294,41.11374],[-81.42968,41.11324],[-81.42977,41.11307],[-81.43058,41.1116],[-81.43134,41.11025],[-81.43143,41.11009],[-81.43152,41.10992],[-81.4318,41.10942],[-81.43198,41.10909],[-81.43217,41.10873],[-81.43283,41.10755],[-81.4334,41.10651],[-81.43353,41.10632],[-81.43359,41.10627],[-81.43361,41.10625],[-81.43363,41.10624],[-81.43365,41.10623],[-81.43366,41.10621],[-81.43366,41.10616],[-81.43367,41.10612],[-81.43366,41.10609],[-81.43366,41.10609],[-81.43366,41.10606],[-81.43367,41.10605],[-81.43367,41.10603],[-81.43367,41.10602],[-81.43368,41.10601],[-81.43368,41.106],[-81.43372,41.10598],[-81.43381,41.10592],[-81.4339,41.10587],[-81.43391,41.10586],[-81.43392,41.10586],[-81.43392,41.10585],[-81.43392,41.10584],[-81.43391,41.10584],[-81.4339,41.10583],[-81.43388,41.10582],[-81.43386,41.10581],[-81.43384,41.1058],[-81.43383,41.10579],[-81.43382,41.10577],[-81.43382,41.10576],[-81.43383,41.10571],[-81.43387,41.10564],[-81.43468,41.10421],[-81.43496,41.10373],[-81.43531,41.10327],[-81.4355,41.10304],[-81.43563,41.10289],[-81.4357,41.10281],[-81.43609,41.10241],[-81.43661,41.10195],[-81.43717,41.10152],[-81.43724,41.10146],[-81.43736,41.10136],[-81.43738,41.10135],[-81.43756,41.10122],[-81.43775,41.10108],[-81.43798,41.10091],[-81.43828,41.10068],[-81.43845,41.10055],[-81.43899,41.10014],[-81.43912,41.10004],[-81.43925,41.09994],[-81.43945,41.09978],[-81.4396,41.09966],[-81.43983,41.09949],[-81.44013,41.09926],[-81.44034,41.09911],[-81.44047,41.09901],[-81.44065,41.09889],[-81.44088,41.09874],[-81.44101,41.09866],[-81.44113,41.09859],[-81.4416,41.09835],[-81.44181,41.09825],[-81.44186,41.09823],[-81.44246,41.09802],[-81.44269,41.09797],[-81.44314,41.09785],[-81.44354,41.09775],[-81.44457,41.09754],[-81.44521,41.09742],[-81.44561,41.09735],[-81.44637,41.0972],[-81.44675,41.09713],[-81.44733,41.09702],[-81.44798,41.0969],[-81.4487,41.09674],[-81.44874,41.09673],[-81.45057,41.09638],[-81.4545,41.09563],[-81.45589,41.09536],[-81.45913,41.09474],[-81.45936,41.0947],[-81.46052,41.09447],[-81.46213,41.09416],[-81.46242,41.09411],[-81.46445,41.09371],[-81.46537,41.09353],[-81.4656,41.09349],[-81.46583,41.09344],[-81.46668,41.09328],[-81.46784,41.09306],[-81.46946,41.09275],[-81.46992,41.09266],[-81.47107,41.09244],[-81.47154,41.09235],[-81.47177,41.09231],[-81.472,41.09226],[-81.47339,41.092],[-81.47405,41.09187],[-81.47408,41.09186],[-81.47454,41.09175],[-81.47477,41.0917],[-81.47553,41.09146],[-81.47621,41.09122],[-81.47651,41.09106],[-81.47674,41.09096],[-81.47687,41.09088],[-81.47695,41.09079],[-81.47702,41.09074],[-81.47709,41.0907],[-81.47719,41.09068],[-81.4773,41.09064],[-81.47761,41.09046],[-81.47765,41.09044],[-81.47813,41.09012],[-81.47855,41.08984],[-81.47908,41.08948],[-81.47926,41.08936],[-81.48001,41.08886],[-81.48015,41.08876],[-81.48028,41.08867],[-81.48033,41.08864],[-81.48051,41.08853],[-81.48075,41.08838],[-81.48104,41.08822],[-81.48122,41.08818],[-81.48137,41.0881],[-81.48203,41.08767],[-81.4822,41.08755],[-81.48238,41.08743],[-81.48264,41.08725],[-81.48291,41.08707],[-81.48343,41.08671],[-81.48376,41.08644],[-81.48391,41.08632],[-81.48393,41.08631],[-81.48405,41.08623],[-81.48427,41.08606],[-81.48427,41.08606],[-81.48428,41.08606],[-81.48431,41.08607],[-81.48434,41.08608],[-81.48438,41.08609],[-81.48442,41.08609],[-81.48447,41.0861],[-81.48455,41.08611],[-81.48459,41.08611],[-81.4847,41.08611],[-81.48471,41.08611],[-81.48483,41.08612],[-81.48486,41.08612],[-81.48495,41.08612],[-81.48498,41.08612],[-81.48506,41.08613],[-81.48512,41.08613],[-81.48519,41.08614],[-81.4853,41.08615],[-81.48542,41.08616],[-81.48549,41.08616],[-81.48554,41.08616],[-81.48566,41.08617],[-81.48567,41.08617],[-81.48578,41.08618],[-81.4859,41.08619],[-81.48614,41.08622],[-81.4862,41.08622],[-81.48627,41.08623],[-81.48661,41.08623],[-81.48704,41.08622],[-81.48715,41.08622],[-81.48723,41.08622],[-81.4873,41.08622],[-81.48738,41.08622],[-81.48745,41.08623],[-81.48752,41.08624],[-81.48757,41.08625],[-81.48764,41.08626],[-81.48767,41.08627],[-81.48773,41.08628],[-81.48774,41.08629],[-81.48778,41.0863],[-81.48783,41.08633],[-81.48789,41.08635],[-81.48793,41.08638],[-81.48794,41.08639],[-81.48796,41.0864],[-81.48799,41.08642],[-81.48801,41.08644],[-81.48804,41.08647],[-81.48809,41.08651],[-81.4882,41.08663],[-81.48823,41.08668],[-81.48836,41.08679],[-81.48846,41.0869],[-81.48851,41.08696],[-81.48852,41.08698],[-81.48853,41.08703],[-81.48853,41.08707],[-81.48854,41.08711],[-81.48855,41.08713],[-81.48859,41.08715],[-81.48867,41.08717],[-81.48875,41.0872],[-81.48889,41.08724],[-81.489,41.08727],[-81.4891,41.08731],[-81.48922,41.08736],[-81.48931,41.0874],[-81.48945,41.08746],[-81.48952,41.08749],[-81.48972,41.08759],[-81.48974,41.0876],[-81.48987,41.08767],[-81.48997,41.08774],[-81.48997,41.08774],[-81.49014,41.08771],[-81.49036,41.08767],[-81.49047,41.08765],[-81.49055,41.08764],[-81.49082,41.08761],[-81.49122,41.08767],[-81.49165,41.0877],[-81.49169,41.0877],[-81.49217,41.08775],[-81.49239,41.08777],[-81.49263,41.0878],[-81.49265,41.08781],[-81.49288,41.08785],[-81.49303,41.08787],[-81.4931,41.08788],[-81.49333,41.08792],[-81.49334,41.08792],[-81.49337,41.08793],[-81.4938,41.08801],[-81.49386,41.08802],[-81.49401,41.08805],[-81.49422,41.08808],[-81.49446,41.08814],[-81.49464,41.08819],[-81.49476,41.08824],[-81.49523,41.08844],[-81.49533,41.08848],[-81.49534,41.08848],[-81.49549,41.08854],[-81.49596,41.08873],[-81.49634,41.08888],[-81.4966,41.08897],[-81.49682,41.08904],[-81.49683,41.08904],[-81.49694,41.08907],[-81.49705,41.08909],[-81.49715,41.08912],[-81.49734,41.08916],[-81.49752,41.08919],[-81.49794,41.08924],[-81.49799,41.08925],[-81.49819,41.08926],[-81.49822,41.08927],[-81.49823,41.08927],[-81.49835,41.08927],[-81.49846,41.08928],[-81.49898,41.08931],[-81.49916,41.08932],[-81.49939,41.08932],[-81.49957,41.08932],[-81.4998,41.0893],[-81.49981,41.0893],[-81.49988,41.08929],[-81.49989,41.08929],[-81.50004,41.08927],[-81.50035,41.08921],[-81.50057,41.08914],[-81.50068,41.0891],[-81.50079,41.08907],[-81.50082,41.08906],[-81.50089,41.08904],[-81.50101,41.089],[-81.50106,41.08899],[-81.50123,41.08894],[-81.50124,41.08893],[-81.50132,41.08891],[-81.50139,41.08889],[-81.50173,41.08879],[-81.50183,41.08875],[-81.50191,41.08873],[-81.50206,41.08871],[-81.50209,41.0887],[-81.50234,41.08867],[-81.50271,41.08862],[-81.50276,41.08862],[-81.50288,41.08861],[-81.50294,41.08861],[-81.503,41.08861],[-81.50305,41.08862],[-81.50306,41.08862],[-81.50312,41.08862],[-81.50318,41.08863],[-81.50327,41.08865],[-81.50328,41.08865],[-81.50343,41.08868],[-81.50345,41.08869],[-81.50351,41.0887],[-81.5037,41.08874],[-81.50442,41.08892],[-81.5045,41.08894],[-81.50457,41.08896],[-81.50488,41.08903],[-81.50503,41.08907],[-81.50512,41.08909],[-81.50536,41.08915],[-81.50574,41.08924],[-81.50642,41.0894],[-81.50665,41.08946],[-81.5071,41.08957],[-81.50726,41.08961],[-81.50759,41.08968],[-81.5077,41.08971],[-81.50802,41.08979],[-81.50817,41.08982],[-81.50846,41.08989],[-81.50893,41.09001],[-81.51085,41.09046],[-81.51113,41.09054],[-81.51136,41.09059],[-81.5114,41.0906],[-81.51159,41.09064],[-81.51182,41.0907],[-81.51204,41.09076],[-81.51252,41.09087],[-81.51289,41.09096],[-81.51293,41.09097],[-81.51294,41.09097],[-81.51306,41.091],[-81.51307,41.091],[-81.51343,41.09108],[-81.51354,41.09111],[-81.51362,41.09113],[-81.51373,41.09114],[-81.51385,41.09115],[-81.51401,41.09114],[-81.51425,41.09114],[-81.51449,41.09114],[-81.51472,41.09114],[-81.51496,41.09113],[-81.51506,41.09113],[-81.51554,41.09112],[-81.51589,41.09112],[-81.51613,41.09112],[-81.51645,41.09112],[-81.51673,41.09112],[-81.51697,41.09112],[-81.51721,41.09111],[-81.51766,41.09111],[-81.5179,41.09111],[-81.5179,41.09111],[-81.5179,41.09131],[-81.51791,41.09158],[-81.51792,41.09164],[-81.51812,41.09201],[-81.51821,41.09209],[-81.5183,41.09211],[-81.51838,41.09218],[-81.51845,41.09226],[-81.5187,41.09258],[-81.51877,41.09267],[-81.51889,41.09283],[-81.51895,41.09289],[-81.5191,41.093],[-81.51922,41.09308],[-81.51932,41.09316],[-81.51941,41.09321],[-81.51952,41.09327],[-81.51959,41.09331],[-81.51964,41.09334],[-81.51969,41.09336],[-81.51983,41.09342],[-81.52014,41.09355],[-81.52032,41.09364],[-81.52038,41.09367],[-81.5205,41.09372],[-81.52091,41.0939],[-81.52094,41.09391],[-81.52124,41.09402],[-81.52156,41.09413],[-81.52187,41.09426],[-81.5221,41.09435],[-81.52218,41.09439],[-81.52273,41.09463],[-81.5228,41.09467],[-81.52313,41.09486],[-81.52318,41.09488],[-81.52363,41.09515],[-81.52392,41.09533],[-81.52401,41.09539],[-81.5241,41.09545],[-81.52426,41.09559],[-81.52443,41.09573],[-81.52489,41.09613],[-81.52523,41.09643],[-81.52535,41.09654],[-81.52541,41.0966],[-81.52564,41.09677],[-81.52578,41.09688],[-81.52583,41.09694],[-81.52588,41.09699],[-81.52597,41.0971],[-81.52604,41.09726],[-81.52606,41.09729],[-81.52625,41.09778],[-81.52625,41.09779],[-81.52639,41.09812],[-81.5264,41.09814],[-81.52657,41.09845],[-81.52659,41.09851],[-81.52674,41.09877],[-81.52682,41.09888],[-81.52691,41.09896],[-81.52704,41.09907],[-81.5271,41.09911],[-81.52719,41.09921],[-81.52726,41.09928],[-81.52731,41.09936],[-81.52734,41.09941],[-81.52744,41.09967],[-81.5275,41.09984],[-81.52763,41.10007],[-81.52779,41.1004],[-81.52786,41.10055],[-81.52788,41.1006],[-81.52793,41.10078],[-81.52793,41.1009],[-81.52793,41.10094],[-81.52789,41.10108],[-81.5279,41.1013],[-81.52796,41.10147],[-81.52802,41.10165],[-81.52802,41.10184],[-81.52802,41.1021],[-81.52803,41.10215],[-81.52806,41.10228],[-81.52806,41.10237],[-81.528,41.10255],[-81.52798,41.10268],[-81.52796,41.10284],[-81.52793,41.10322],[-81.52792,41.10326],[-81.52789,41.10339],[-81.52786,41.10357],[-81.52786,41.10358],[-81.52781,41.10375],[-81.52777,41.10392],[-81.52773,41.10405],[-81.52774,41.10415],[-81.52778,41.10439],[-81.52779,41.10459],[-81.52779,41.10463],[-81.52778,41.10491],[-81.52779,41.10495],[-81.52782,41.10508],[-81.52785,41.10524],[-81.52785,41.1053],[-81.52787,41.1055],[-81.52796,41.10571],[-81.52812,41.10596],[-81.52822,41.10614],[-81.52822,41.10615],[-81.52822,41.10635],[-81.52816,41.10654],[-81.52809,41.10667],[-81.528,41.10685],[-81.52795,41.10702],[-81.52794,41.10708],[-81.52791,41.10737],[-81.52791,41.10755],[-81.52792,41.10763],[-81.52797,41.10789],[-81.52802,41.10807],[-81.52811,41.10825],[-81.52822,41.10841],[-81.52829,41.10849],[-81.52833,41.10857],[-81.52842,41.10874],[-81.52845,41.10878],[-81.52847,41.10891],[-81.52846,41.10899],[-81.52842,41.10918],[-81.52838,41.10939],[-81.52836,41.10963],[-81.52836,41.10964],[-81.52839,41.10979],[-81.52839,41.1098],[-81.52844,41.11001],[-81.5285,41.11021],[-81.52861,41.11044],[-81.52865,41.11049],[-81.52873,41.1106],[-81.52885,41.11082],[-81.5289,41.11098],[-81.5289,41.111],[-81.52889,41.11114],[-81.52884,41.11132],[-81.52876,41.11151],[-81.52875,41.11152],[-81.52856,41.11183],[-81.52855,41.11185],[-81.52837,41.11218],[-81.52831,41.11248],[-81.52832,41.11272],[-81.52832,41.11273],[-81.52839,41.11307],[-81.5284,41.11309],[-81.52849,41.11341],[-81.5285,41.11342],[-81.52857,41.11363],[-81.52857,41.11377],[-81.52857,41.11381],[-81.52856,41.11398],[-81.52853,41.11418],[-81.52847,41.11432],[-81.52841,41.11457],[-81.52841,41.11466],[-81.52841,41.1147],[-81.52848,41.11494],[-81.52852,41.11504],[-81.52855,41.11512],[-81.52864,41.11533],[-81.52866,41.11551],[-81.52865,41.11572],[-81.52862,41.11597],[-81.5286,41.1161],[-81.52856,41.11633],[-81.52855,41.11663],[-81.52861,41.11682],[-81.5287,41.11698],[-81.52873,41.11703],[-81.52881,41.11714],[-81.52885,41.11719],[-81.52901,41.11736],[-81.52906,41.11744],[-81.52906,41.11745],[-81.52908,41.11759],[-81.52911,41.11779],[-81.52919,41.11804],[-81.52932,41.1184],[-81.52946,41.11885],[-81.52952,41.11903],[-81.52956,41.1192],[-81.52959,41.11931],[-81.52964,41.11941],[-81.52972,41.11948],[-81.52982,41.11953],[-81.52998,41.11957],[-81.53032,41.11959],[-81.53064,41.11956],[-81.53094,41.11953],[-81.53107,41.11951],[-81.53132,41.11949],[-81.53155,41.11952],[-81.53165,41.11954],[-81.53187,41.11958],[-81.53219,41.1197],[-81.53273,41.11991],[-81.53274,41.11992],[-81.5329,41.12],[-81.53307,41.12011],[-81.53322,41.1202],[-81.53332,41.12023],[-81.53355,41.12024],[-81.53367,41.12029],[-81.53377,41.12036],[-81.53389,41.12048],[-81.53395,41.12061],[-81.53401,41.12077],[-81.53403,41.12082],[-81.53413,41.12118],[-81.53414,41.12118],[-81.53438,41.12203],[-81.53443,41.12226],[-81.53444,41.12257],[-81.53445,41.12259],[-81.53446,41.12264],[-81.53452,41.12272],[-81.53478,41.12287],[-81.53492,41.12296],[-81.53503,41.12314],[-81.53526,41.12345],[-81.53535,41.12357],[-81.53537,41.12361],[-81.53548,41.12375],[-81.53562,41.12382],[-81.53571,41.12383],[-81.53578,41.12384],[-81.53615,41.12387],[-81.5363,41.12391],[-81.53641,41.12395],[-81.53652,41.12407],[-81.53653,41.1241],[-81.53661,41.12427],[-81.53668,41.12442],[-81.53677,41.12461],[-81.53684,41.12476],[-81.53694,41.12494],[-81.53703,41.12509],[-81.53717,41.12532],[-81.53739,41.12563],[-81.53761,41.12593],[-81.53791,41.12628],[-81.53824,41.12671],[-81.53831,41.12684],[-81.53855,41.1272],[-81.53873,41.12757],[-81.53882,41.12774],[-81.53885,41.12783],[-81.53886,41.12786],[-81.53889,41.128],[-81.53889,41.12818],[-81.53889,41.12819],[-81.53895,41.12858],[-81.53897,41.12869],[-81.53903,41.12888],[-81.53913,41.1291],[-81.53915,41.12915],[-81.5392,41.12927],[-81.53925,41.12937],[-81.53928,41.12945],[-81.53935,41.12962],[-81.53941,41.12978],[-81.53954,41.13014],[-81.53955,41.13016],[-81.53968,41.13047],[-81.53968,41.13048],[-81.53979,41.13075],[-81.53981,41.13083],[-81.53986,41.13113],[-81.5399,41.13133],[-81.53991,41.13138],[-81.53999,41.1316],[-81.54,41.13176],[-81.53996,41.13186],[-81.53996,41.13187],[-81.53992,41.13197],[-81.53981,41.1321],[-81.53977,41.13218],[-81.53976,41.13226],[-81.53976,41.13235],[-81.53978,41.13244],[-81.53989,41.13258],[-81.53993,41.13262],[-81.54007,41.13277],[-81.54014,41.13285],[-81.54035,41.13307],[-81.54058,41.13327],[-81.5406,41.13328],[-81.54075,41.13338],[-81.54076,41.13339],[-81.54094,41.13347],[-81.54113,41.13353],[-81.54137,41.13356],[-81.54154,41.13356],[-81.54172,41.13353],[-81.54188,41.13346],[-81.54205,41.13335],[-81.54214,41.13329],[-81.54222,41.13322],[-81.54239,41.13309],[-81.54254,41.13296],[-81.54255,41.13296],[-81.54277,41.13283],[-81.54294,41.13279],[-81.54296,41.13279],[-81.5432,41.13279],[-81.54344,41.13282],[-81.54347,41.13282],[-81.54382,41.13289],[-81.5441,41.13298],[-81.54428,41.13306],[-81.54455,41.13322],[-81.54471,41.13329],[-81.54479,41.13333],[-81.54507,41.13342],[-81.54532,41.13345],[-81.54548,41.13344],[-81.54562,41.13343],[-81.54577,41.13342],[-81.54605,41.13338],[-81.54626,41.13332],[-81.54631,41.1333],[-81.54652,41.13322],[-81.5466,41.13319],[-81.54675,41.13316],[-81.54698,41.13312],[-81.54704,41.13311],[-81.54722,41.13311],[-81.54741,41.1331],[-81.54764,41.13313],[-81.54783,41.1332],[-81.54806,41.13329],[-81.5481,41.13332],[-81.54815,41.13334],[-81.54819,41.13339],[-81.54824,41.13346],[-81.54824,41.13353],[-81.5482,41.13366],[-81.54805,41.13409],[-81.548,41.13422],[-81.54793,41.1344],[-81.54782,41.1347],[-81.54777,41.13481],[-81.54774,41.13485],[-81.54772,41.13491],[-81.5477,41.13498],[-81.54766,41.13517],[-81.5476,41.13539],[-81.54759,41.13551],[-81.54759,41.13552],[-81.54768,41.13562],[-81.54771,41.13566],[-81.54775,41.1357],[-81.5479,41.13587],[-81.54806,41.13601],[-81.54813,41.13606],[-81.54816,41.13608],[-81.54818,41.13609],[-81.54821,41.1361],[-81.54826,41.13611],[-81.54831,41.13612],[-81.54839,41.13612],[-81.54848,41.13611],[-81.54852,41.1361],[-81.54858,41.13606],[-81.54874,41.13598],[-81.54897,41.1358],[-81.54914,41.13568],[-81.54924,41.13558],[-81.54934,41.13521],[-81.54935,41.13516],[-81.54947,41.13468],[-81.54952,41.13459],[-81.5496,41.13454],[-81.54963,41.13453],[-81.54967,41.13452],[-81.54971,41.13452],[-81.54976,41.13452],[-81.54982,41.13454],[-81.54986,41.13456],[-81.54993,41.13457],[-81.55002,41.13457],[-81.5501,41.13457],[-81.55018,41.13453],[-81.55026,41.13449],[-81.55031,41.13445],[-81.55042,41.13431],[-81.55043,41.13429],[-81.55051,41.13419],[-81.55058,41.13414],[-81.55065,41.13413],[-81.55076,41.13415],[-81.55098,41.13423],[-81.55118,41.13431],[-81.55122,41.13432],[-81.55162,41.13446],[-81.55194,41.13457],[-81.5521,41.13463],[-81.55218,41.13466],[-81.55228,41.13473],[-81.55246,41.13484],[-81.55259,41.13486],[-81.55271,41.13487],[-81.55282,41.13488],[-81.5529,41.13491],[-81.55296,41.13494],[-81.55306,41.13498],[-81.55315,41.13502],[-81.55324,41.13505],[-81.55337,41.13508],[-81.55354,41.13514],[-81.55363,41.13519],[-81.55369,41.13528],[-81.55375,41.13539],[-81.55381,41.13547],[-81.5539,41.13554],[-81.55407,41.13561],[-81.55443,41.13575],[-81.55444,41.13575],[-81.55489,41.13591],[-81.55523,41.13605],[-81.55552,41.13619],[-81.55568,41.13627],[-81.55584,41.13634],[-81.55603,41.13646],[-81.55617,41.13656],[-81.55622,41.13662],[-81.55626,41.13666],[-81.55636,41.13674],[-81.55648,41.13677],[-81.55668,41.13679],[-81.55685,41.13682],[-81.5569,41.13682],[-81.55708,41.1369],[-81.55732,41.13702],[-81.55767,41.13717],[-81.55767,41.13718],[-81.55805,41.13733],[-81.55809,41.13735],[-81.55856,41.13755],[-81.5589,41.1377],[-81.55918,41.13785],[-81.5593,41.13793],[-81.55936,41.13796],[-81.5595,41.13804],[-81.55968,41.13809],[-81.5599,41.13818],[-81.5601,41.13827],[-81.56039,41.13839],[-81.56055,41.13845],[-81.56069,41.13851],[-81.56088,41.13861],[-81.56104,41.13877],[-81.56121,41.13895],[-81.56145,41.13914],[-81.56162,41.1393],[-81.56182,41.13949],[-81.56183,41.1395],[-81.56203,41.1397],[-81.56213,41.13981],[-81.56222,41.13987],[-81.56249,41.14002],[-81.56267,41.14019],[-81.56278,41.14029],[-81.56282,41.14033],[-81.56293,41.14041],[-81.56311,41.14052],[-81.56326,41.14066],[-81.5634,41.14077],[-81.56358,41.14095],[-81.56361,41.14099],[-81.56377,41.14116],[-81.56397,41.14138],[-81.56409,41.14156],[-81.56418,41.14168],[-81.56426,41.14181],[-81.56434,41.14194],[-81.56438,41.14208],[-81.56442,41.14229],[-81.56445,41.14241],[-81.56447,41.14249],[-81.56458,41.14269],[-81.56469,41.14289],[-81.56483,41.14311],[-81.5649,41.14324],[-81.56493,41.14328],[-81.56498,41.14348],[-81.56502,41.14359],[-81.56506,41.14372],[-81.56517,41.14401],[-81.56523,41.14416],[-81.56532,41.14437],[-81.5654,41.14457],[-81.56541,41.14462],[-81.56546,41.14484],[-81.56548,41.14498],[-81.5655,41.14507],[-81.56552,41.14523],[-81.56552,41.14538],[-81.56555,41.14553],[-81.56562,41.1457],[-81.56567,41.1458],[-81.5657,41.14585],[-81.56575,41.14593],[-81.56586,41.14602],[-81.566,41.14612],[-81.56608,41.14623],[-81.56614,41.14635],[-81.56622,41.14655],[-81.56627,41.14663],[-81.56631,41.14669],[-81.5664,41.14685],[-81.56651,41.14713],[-81.56652,41.14714],[-81.56665,41.14748],[-81.56666,41.1475],[-81.56673,41.14769],[-81.56683,41.14793],[-81.56687,41.14811],[-81.5669,41.14823],[-81.56703,41.14842],[-81.56721,41.14874],[-81.56734,41.149],[-81.56736,41.14904],[-81.56752,41.14932],[-81.56763,41.1495],[-81.56769,41.1496],[-81.56777,41.1497],[-81.56787,41.14981],[-81.56793,41.14993],[-81.56794,41.14998],[-81.56796,41.15007],[-81.56798,41.15022],[-81.56803,41.15045],[-81.56805,41.15064],[-81.56807,41.15087],[-81.56809,41.15112],[-81.5681,41.15138],[-81.56815,41.15173],[-81.56817,41.15195],[-81.56818,41.15203],[-81.56822,41.15214],[-81.56828,41.15226],[-81.56831,41.15234],[-81.56831,41.15242],[-81.5683,41.1525],[-81.56825,41.15255],[-81.56819,41.15264],[-81.56818,41.15272],[-81.56817,41.15278],[-81.56826,41.15292],[-81.56843,41.15321],[-81.56854,41.15338],[-81.56863,41.15348],[-81.5687,41.15357],[-81.56881,41.15375],[-81.56888,41.15385],[-81.56897,41.15392],[-81.56911,41.15397],[-81.56923,41.15405],[-81.56939,41.15424],[-81.56951,41.15433],[-81.56984,41.15458],[-81.57013,41.1548],[-81.57034,41.15496],[-81.57048,41.15504],[-81.57057,41.1551],[-81.57074,41.15519],[-81.57093,41.15533],[-81.57124,41.15551],[-81.57136,41.15561],[-81.57168,41.15594],[-81.57181,41.15606],[-81.57194,41.15611],[-81.57204,41.15611],[-81.57208,41.15611],[-81.57225,41.15608],[-81.57244,41.15603],[-81.57249,41.15602],[-81.57261,41.15599],[-81.57272,41.156],[-81.57284,41.15604],[-81.57292,41.15614],[-81.57296,41.15621],[-81.57299,41.15631],[-81.57303,41.15651],[-81.57305,41.15663],[-81.57311,41.1569],[-81.57316,41.15718],[-81.57318,41.1574],[-81.57319,41.15752],[-81.57319,41.15754],[-81.57319,41.15769],[-81.57319,41.1577],[-81.57318,41.15801],[-81.57318,41.15828],[-81.57319,41.1583],[-81.5732,41.15832],[-81.57322,41.15834],[-81.57324,41.15835],[-81.57326,41.15835],[-81.57331,41.15836],[-81.57345,41.15837],[-81.57355,41.15837],[-81.57359,41.15838],[-81.57361,41.15839],[-81.57363,41.1584],[-81.57364,41.15841],[-81.57366,41.15843],[-81.57366,41.15844],[-81.57366,41.15846],[-81.57366,41.15848],[-81.57364,41.15859],[-81.57365,41.15861],[-81.57365,41.15872],[-81.57367,41.1588],[-81.57371,41.15893],[-81.57373,41.15896],[-81.57374,41.159],[-81.57376,41.15903],[-81.5738,41.15907],[-81.57384,41.1591],[-81.57387,41.15912],[-81.5739,41.15914],[-81.57395,41.15915],[-81.574,41.15915],[-81.57417,41.15919],[-81.57423,41.15921],[-81.57427,41.15923],[-81.57433,41.15927],[-81.57441,41.15939],[-81.57442,41.1594],[-81.57443,41.15943],[-81.57445,41.15949],[-81.57449,41.15956],[-81.57455,41.15963],[-81.57464,41.15973],[-81.57485,41.15991],[-81.57486,41.15992],[-81.57488,41.15994],[-81.57488,41.15996],[-81.57489,41.15997],[-81.57489,41.15999],[-81.57488,41.16002],[-81.57487,41.16006],[-81.57481,41.16023],[-81.5748,41.1603],[-81.57478,41.16044],[-81.57478,41.16046],[-81.57479,41.16049],[-81.5748,41.16051],[-81.57482,41.16053],[-81.57484,41.16055],[-81.57488,41.16058],[-81.57504,41.16068],[-81.57511,41.16077],[-81.57517,41.16087],[-81.57524,41.16099],[-81.57525,41.161],[-81.57531,41.16112],[-81.57535,41.16127],[-81.57544,41.16146],[-81.57556,41.16171],[-81.57562,41.16195],[-81.57563,41.162],[-81.57563,41.16204],[-81.57563,41.16204],[-81.57573,41.16204],[-81.57587,41.16204],[-81.57615,41.16203],[-81.57652,41.16202],[-81.57669,41.16201],[-81.57679,41.16201],[-81.57692,41.162],[-81.57714,41.162],[-81.57764,41.16197],[-81.57773,41.16197],[-81.57788,41.16197],[-81.57834,41.16196],[-81.57836,41.16196],[-81.5786,41.16195],[-81.57883,41.16195],[-81.57896,41.16195],[-81.57931,41.16195],[-81.57955,41.16195],[-81.57958,41.16195],[-81.58001,41.16196],[-81.58027,41.16197],[-81.58051,41.16197],[-81.58074,41.16198],[-81.5809,41.16198],[-81.5811,41.16199],[-81.58122,41.16199],[-81.58122,41.16199],[-81.58133,41.16198],[-81.58143,41.16198],[-81.58152,41.16196],[-81.58162,41.16195],[-81.58166,41.16194],[-81.58171,41.16193],[-81.58176,41.16192],[-81.58178,41.16191],[-81.58181,41.1619],[-81.58186,41.16188],[-81.58194,41.16186],[-81.58204,41.16182],[-81.58229,41.16173],[-81.58244,41.16168],[-81.58249,41.16166],[-81.58251,41.16166],[-81.5826,41.16163],[-81.5827,41.1616],[-81.58272,41.16159],[-81.58279,41.16157],[-81.58296,41.16153],[-81.58312,41.1615],[-81.58319,41.16148],[-81.58343,41.16143],[-81.58382,41.16136],[-81.58388,41.16135],[-81.58405,41.16132],[-81.58412,41.16131],[-81.58425,41.16128],[-81.58481,41.16118],[-81.58535,41.16108],[-81.58602,41.16094],[-81.58618,41.16091],[-81.5862,41.16091],[-81.58626,41.1609],[-81.58641,41.16088],[-81.58643,41.16088],[-81.58659,41.16087],[-81.58669,41.16086],[-81.58698,41.16086],[-81.58722,41.16086],[-81.58761,41.16089],[-81.58769,41.1609],[-81.58777,41.16091],[-81.58792,41.16093],[-81.58793,41.16093],[-81.58806,41.16096],[-81.58813,41.16097],[-81.5883,41.16101],[-81.58846,41.16105],[-81.58868,41.16111],[-81.58905,41.16123],[-81.58966,41.16142],[-81.58985,41.16148],[-81.58994,41.16152],[-81.59006,41.16157],[-81.59013,41.16161],[-81.59018,41.16163],[-81.59048,41.16179],[-81.59053,41.16181],[-81.59066,41.16189],[-81.59072,41.16192],[-81.59088,41.16198],[-81.59101,41.16203],[-81.59115,41.16206],[-81.59127,41.16208],[-81.5914,41.1621],[-81.59146,41.16211],[-81.59159,41.16212],[-81.59163,41.16212],[-81.59166,41.16212],[-81.59182,41.16212],[-81.59207,41.16211],[-81.5921,41.16211],[-81.59234,41.16209],[-81.59243,41.16208],[-81.59258,41.16207],[-81.59274,41.16206],[-81.59282,41.16205],[-81.59289,41.16205],[-81.59329,41.16202],[-81.59353,41.16201],[-81.59358,41.16201],[-81.59378,41.16199],[-81.59394,41.16196],[-81.59405,41.16193],[-81.59419,41.1619],[-81.59425,41.16188],[-81.59426,41.16188],[-81.59441,41.16182],[-81.59444,41.16181],[-81.59453,41.16176],[-81.59464,41.16171],[-81.59472,41.16168],[-81.59479,41.16165],[-81.59485,41.16162],[-81.59493,41.16158],[-81.59503,41.16154],[-81.59515,41.16149],[-81.59529,41.16145],[-81.59545,41.1614],[-81.59549,41.16139],[-81.59555,41.16137],[-81.59573,41.16133],[-81.59587,41.16131],[-81.5961,41.16126],[-81.59633,41.16121],[-81.59641,41.16119],[-81.59657,41.16115],[-81.59664,41.16113],[-81.59684,41.16107],[-81.59686,41.16106],[-81.59709,41.16098],[-81.59721,41.16094],[-81.59735,41.16089],[-81.59742,41.16086],[-81.59785,41.16069],[-81.59807,41.16061],[-81.59821,41.16055],[-81.59843,41.16048],[-81.5987,41.16037],[-81.5989,41.1603],[-81.59927,41.16022],[-81.59932,41.16021],[-81.59949,41.16018],[-81.59969,41.16014],[-81.59974,41.16014],[-81.59982,41.16013],[-81.59997,41.16012],[-81.59998,41.16012],[-81.60013,41.16012],[-81.60021,41.16012],[-81.60022,41.16012],[-81.60033,41.16013],[-81.60039,41.16013],[-81.60044,41.16014],[-81.60045,41.16014],[-81.60049,41.16015],[-81.60053,41.16016],[-81.60058,41.16018],[-81.60063,41.1602],[-81.60066,41.16022],[-81.60069,41.16023],[-81.60073,41.16025],[-81.60078,41.16028],[-81.60082,41.16031],[-81.60083,41.16031],[-81.60085,41.16033],[-81.60087,41.16034],[-81.60095,41.16039],[-81.60119,41.16056],[-81.60123,41.16059],[-81.60132,41.16065],[-81.60153,41.16078],[-81.60155,41.16079],[-81.60161,41.16083],[-81.6017,41.16088],[-81.60174,41.1609],[-81.60178,41.16092],[-81.60187,41.16096],[-81.60197,41.16099],[-81.602,41.161],[-81.60206,41.16102],[-81.60211,41.16104],[-81.6022,41.16106],[-81.60222,41.16106],[-81.60223,41.16107],[-81.60227,41.16107],[-81.60233,41.16109],[-81.60246,41.16111],[-81.60266,41.16113],[-81.6027,41.16113],[-81.60281,41.16114],[-81.60293,41.16116],[-81.60309,41.16118],[-81.60332,41.16121],[-81.60341,41.16122],[-81.60352,41.16123],[-81.60364,41.16123],[-81.60374,41.16124],[-81.60384,41.16123],[-81.60388,41.16123],[-81.60394,41.16123],[-81.60403,41.16121],[-81.60412,41.16119],[-81.60417,41.16118],[-81.60424,41.16115],[-81.6043,41.16112],[-81.60435,41.16109],[-81.60439,41.16106],[-81.60445,41.16102],[-81.60452,41.16095],[-81.60467,41.16081],[-81.6047,41.16078],[-81.60473,41.16075],[-81.60477,41.16072],[-81.60483,41.16068],[-81.60485,41.16066],[-81.60492,41.16062],[-81.60496,41.1606],[-81.60502,41.16057],[-81.60508,41.16055],[-81.60515,41.16054],[-81.60525,41.16052],[-81.60529,41.16051],[-81.60541,41.1605],[-81.60549,41.16049],[-81.6055,41.16049],[-81.6056,41.16047],[-81.60572,41.16044],[-81.60573,41.16044],[-81.6058,41.16042],[-81.6059,41.16038],[-81.60593,41.16037],[-81.60605,41.16032],[-81.60614,41.16028],[-81.60618,41.16026],[-81.60635,41.16019],[-81.60643,41.16015],[-81.60655,41.1601],[-81.60664,41.16005],[-81.60671,41.16002],[-81.60686,41.15994],[-81.60687,41.15993],[-81.60702,41.15985],[-81.60705,41.15983],[-81.60712,41.15978],[-81.60722,41.15971],[-81.60723,41.15971],[-81.60735,41.15962],[-81.60739,41.15958],[-81.60744,41.15954],[-81.60753,41.15946],[-81.60754,41.15944],[-81.60762,41.15936],[-81.60768,41.15929],[-81.60772,41.15924],[-81.60778,41.15916],[-81.60778,41.15915],[-81.60779,41.15913],[-81.60785,41.15904],[-81.60787,41.15899],[-81.60788,41.15897],[-81.60791,41.15892],[-81.60796,41.15882],[-81.60797,41.1588],[-81.608,41.15873],[-81.60804,41.15863],[-81.60809,41.15854],[-81.60813,41.15846],[-81.60818,41.15837],[-81.60828,41.15821],[-81.60833,41.15813],[-81.60844,41.15797],[-81.60853,41.15785],[-81.60854,41.15784],[-81.60856,41.15782],[-81.60868,41.15766],[-81.60869,41.15765],[-81.60873,41.1576],[-81.60878,41.15754],[-81.60884,41.15748],[-81.60893,41.15739],[-81.60909,41.15725],[-81.6091,41.15725],[-81.60911,41.15723],[-81.60925,41.15712],[-81.60927,41.1571],[-81.60933,41.15706],[-81.60942,41.15697],[-81.60943,41.15696],[-81.60957,41.15684],[-81.6097,41.15671],[-81.60971,41.1567],[-81.60973,41.15668],[-81.60983,41.15658],[-81.60985,41.15656],[-81.6099,41.1565],[-81.60999,41.15641],[-81.61013,41.15626],[-81.61017,41.15623],[-81.61018,41.15621],[-81.61027,41.15612],[-81.61028,41.15611],[-81.6104,41.156],[-81.61042,41.15598],[-81.61045,41.15596],[-81.61048,41.15593],[-81.61056,41.15587],[-81.61059,41.15585],[-81.61067,41.15581],[-81.61078,41.15576],[-81.61087,41.15572],[-81.611,41.15567],[-81.61109,41.15565],[-81.61118,41.15562],[-81.61131,41.15559],[-81.61132,41.15558],[-81.61151,41.15554],[-81.61163,41.15551],[-81.61185,41.15547],[-81.61214,41.15543],[-81.61224,41.15541],[-81.6123,41.1554],[-81.61247,41.15538],[-81.61254,41.15537],[-81.61264,41.15536],[-81.61271,41.15536],[-81.61278,41.15536],[-81.61288,41.15536],[-81.61298,41.15536],[-81.61308,41.15537],[-81.61316,41.15538],[-81.61325,41.1554],[-81.61331,41.15541],[-81.61339,41.15543],[-81.61342,41.15544],[-81.61346,41.15545],[-81.61357,41.15547],[-81.61364,41.1555],[-81.61368,41.15551],[-81.61384,41.15556],[-81.61386,41.15557],[-81.6143,41.15572],[-81.61451,41.15579],[-81.61467,41.15584],[-81.61473,41.15587],[-81.6148,41.15589],[-81.61495,41.15594],[-81.61497,41.15595],[-81.61518,41.15602],[-81.61529,41.15605],[-81.61542,41.15609],[-81.61545,41.1561],[-81.61557,41.15613],[-81.61561,41.15614],[-81.61563,41.15615],[-81.61565,41.15615],[-81.61568,41.15616],[-81.61577,41.15618],[-81.61584,41.15619],[-81.6159,41.15621],[-81.61591,41.15621],[-81.61604,41.15623],[-81.61607,41.15624],[-81.61614,41.15625],[-81.61663,41.15635],[-81.617,41.15642],[-81.61706,41.15643],[-81.61715,41.15645],[-81.61753,41.15652],[-81.61758,41.15653],[-81.61776,41.15656],[-81.61793,41.15658],[-81.61812,41.15661],[-81.61816,41.15662],[-81.61823,41.15662],[-81.61837,41.15664],[-81.6184,41.15664],[-81.61846,41.15665],[-81.6187,41.15668],[-81.61886,41.15669],[-81.61887,41.1567],[-81.61894,41.1567],[-81.61927,41.15673],[-81.61965,41.15676],[-81.61989,41.15677],[-81.62012,41.15679],[-81.62013,41.15679],[-81.62083,41.15683],[-81.62084,41.15683],[-81.62108,41.15685],[-81.62128,41.15686],[-81.62132,41.15687],[-81.62174,41.1569],[-81.62208,41.15693],[-81.62251,41.15696],[-81.62264,41.15697],[-81.62275,41.15698],[-81.62298,41.15701],[-81.623,41.15701],[-81.62363,41.15708],[-81.62369,41.15708],[-81.62393,41.15711],[-81.62403,41.15711],[-81.62417,41.15712],[-81.6244,41.15714],[-81.62447,41.15715],[-81.62464,41.15716],[-81.62488,41.15717],[-81.62512,41.15719],[-81.62528,41.1572],[-81.62562,41.15722],[-81.62613,41.15725],[-81.62651,41.15726],[-81.62655,41.15727],[-81.62661,41.15727],[-81.62679,41.15727],[-81.62681,41.15727],[-81.62706,41.15728],[-81.62726,41.15727],[-81.62732,41.15727],[-81.62754,41.15726],[-81.62822,41.15725],[-81.62846,41.15724],[-81.62898,41.15722],[-81.62941,41.15721],[-81.62989,41.15719],[-81.63036,41.15718],[-81.63056,41.15717],[-81.63083,41.15717],[-81.63094,41.15717],[-81.63105,41.15718],[-81.63113,41.15718],[-81.63116,41.15718],[-81.63126,41.15719],[-81.63135,41.1572],[-81.63144,41.15721],[-81.63155,41.15723],[-81.6316,41.15724],[-81.63162,41.15725],[-81.63176,41.15728],[-81.6323,41.15741],[-81.63246,41.15744],[-81.63252,41.15745],[-81.63265,41.15747],[-81.63276,41.15748],[-81.6329,41.1575],[-81.63301,41.1575],[-81.63322,41.15751],[-81.63334,41.15751],[-81.63344,41.15751],[-81.63347,41.1575],[-81.63354,41.1575],[-81.63361,41.15749],[-81.6337,41.15747],[-81.63382,41.15744],[-81.63392,41.1574],[-81.63393,41.1574],[-81.63405,41.15734],[-81.63412,41.1573],[-81.63413,41.1573],[-81.63425,41.15723],[-81.63432,41.1572],[-81.63435,41.15718],[-81.63444,41.15714],[-81.63451,41.1571],[-81.63462,41.15706],[-81.63476,41.157],[-81.63487,41.15697],[-81.63495,41.15695],[-81.63524,41.15686],[-81.63524,41.15686],[-81.63546,41.15715],[-81.63559,41.15729],[-81.63572,41.15746],[-81.63596,41.15776],[-81.63633,41.15819],[-81.63633,41.15819],[-81.63648,41.15819],[-81.63663,41.15819],[-81.63682,41.15819],[-81.63697,41.15819],[-81.63739,41.15819],[-81.63775,41.1582],[-81.63783,41.1582],[-81.63802,41.1582],[-81.63817,41.15821],[-81.63824,41.15821],[-81.63828,41.15821],[-81.63834,41.15822],[-81.6384,41.15823],[-81.63845,41.15823],[-81.63851,41.15824],[-81.63861,41.15826],[-81.63869,41.15829],[-81.63871,41.15829],[-81.63898,41.15837],[-81.6391,41.1584],[-81.63917,41.15842],[-81.6393,41.15844],[-81.63942,41.15845],[-81.63951,41.15846],[-81.63961,41.15846],[-81.63971,41.15846],[-81.63985,41.15845],[-81.64007,41.15842],[-81.64027,41.1584],[-81.64041,41.1584],[-81.64049,41.15839],[-81.64056,41.1584],[-81.64063,41.1584],[-81.64072,41.1584],[-81.64079,41.15841],[-81.64085,41.15842],[-81.6409,41.15842],[-81.64095,41.15844],[-81.64116,41.15848],[-81.64138,41.15853],[-81.64175,41.15863],[-81.6419,41.15866],[-81.64207,41.15871],[-81.64214,41.15874],[-81.64216,41.15874],[-81.64225,41.15878],[-81.64234,41.15881],[-81.64236,41.15882],[-81.64237,41.15882],[-81.64247,41.15887],[-81.64256,41.15891],[-81.64269,41.15898],[-81.64283,41.15906],[-81.64294,41.15912],[-81.64307,41.15918],[-81.64322,41.15924],[-81.6433,41.15928],[-81.64336,41.1593],[-81.64347,41.15933],[-81.64368,41.15938],[-81.64374,41.15939],[-81.64409,41.15947],[-81.64451,41.15956],[-81.64482,41.15962],[-81.64517,41.1597],[-81.64567,41.1598],[-81.64589,41.15985],[-81.64605,41.15988],[-81.64612,41.1599],[-81.64629,41.15994],[-81.64634,41.15995],[-81.64647,41.15998],[-81.64661,41.16001],[-81.64679,41.16005],[-81.64698,41.16011],[-81.64702,41.16012],[-81.64717,41.16017],[-81.64731,41.16022],[-81.64758,41.16031],[-81.64782,41.1604],[-81.64796,41.16044],[-81.6481,41.16048],[-81.64812,41.16048],[-81.6483,41.16053],[-81.64847,41.16057],[-81.64862,41.16059],[-81.64878,41.16061],[-81.64905,41.16064],[-81.64931,41.16068],[-81.64948,41.16069],[-81.64953,41.1607],[-81.64954,41.1607],[-81.64972,41.16072],[-81.64978,41.16073],[-81.64989,41.16075],[-81.64999,41.16076],[-81.65,41.16077],[-81.6501,41.16079],[-81.65021,41.16082],[-81.65024,41.16083],[-81.65032,41.16085],[-81.65045,41.16089],[-81.65046,41.16089],[-81.65058,41.16092],[-81.65068,41.16093],[-81.6507,41.16094],[-81.6508,41.16095],[-81.6509,41.16096],[-81.65098,41.16096],[-81.6511,41.16097],[-81.65116,41.16097],[-81.65123,41.16096],[-81.65129,41.16096],[-81.65135,41.16095],[-81.65139,41.16094],[-81.6514,41.16094],[-81.65141,41.16094],[-81.65145,41.16093],[-81.65153,41.16091],[-81.65159,41.1609],[-81.65166,41.16087],[-81.65174,41.16084],[-81.65181,41.16081],[-81.65183,41.1608],[-81.65184,41.16079],[-81.65189,41.16077],[-81.65196,41.16073],[-81.65206,41.16067],[-81.65221,41.16057],[-81.6525,41.16038],[-81.65268,41.16026],[-81.65282,41.16016],[-81.65291,41.1601],[-81.65301,41.15999],[-81.65309,41.15989],[-81.65314,41.15981],[-81.65317,41.15975],[-81.65319,41.1597],[-81.65321,41.15964],[-81.65321,41.15961],[-81.65322,41.15957],[-81.65322,41.1595],[-81.65321,41.15943],[-81.65321,41.15933],[-81.6532,41.15925],[-81.65318,41.1591],[-81.65317,41.15896],[-81.65317,41.15886],[-81.65319,41.15875],[-81.6532,41.15872],[-81.65322,41.15863],[-81.65326,41.15849],[-81.65331,41.15837],[-81.65332,41.15835],[-81.65336,41.15828],[-81.6534,41.1582],[-81.65345,41.15814],[-81.65351,41.15806],[-81.65357,41.158],[-81.65367,41.15792],[-81.65379,41.15784],[-81.65401,41.15768],[-81.65421,41.15755],[-81.65428,41.1575],[-81.65453,41.15733],[-81.65468,41.15724],[-81.65481,41.15717],[-81.65494,41.15711],[-81.65501,41.15709],[-81.65511,41.15706],[-81.65518,41.15704],[-81.65521,41.15704],[-81.65532,41.15702],[-81.65542,41.157],[-81.65555,41.15699],[-81.65571,41.15697],[-81.65582,41.15695],[-81.65594,41.15692],[-81.65602,41.1569],[-81.6561,41.15686],[-81.65618,41.15681],[-81.65627,41.15675],[-81.65628,41.15674],[-81.65633,41.1567],[-81.65639,41.15664],[-81.65642,41.1566],[-81.65644,41.15657],[-81.65649,41.15649],[-81.65652,41.15643],[-81.65653,41.15641],[-81.65657,41.15631],[-81.6566,41.1562],[-81.65663,41.15608],[-81.65668,41.15591],[-81.65669,41.15586],[-81.65672,41.15572],[-81.65674,41.1556],[-81.65674,41.1556],[-81.65728,41.15559],[-81.6582,41.15558],[-81.65867,41.15557],[-81.65939,41.15557],[-81.65987,41.15556],[-81.66011,41.15556],[-81.66038,41.15555],[-81.66082,41.15555],[-81.66106,41.15555],[-81.66177,41.15554],[-81.66236,41.15554],[-81.66258,41.15554],[-81.66307,41.15554],[-81.66379,41.15553],[-81.66451,41.15553],[-81.66474,41.15553],[-81.66491,41.15553],[-81.66498,41.15553],[-81.66515,41.15553],[-81.66522,41.15553],[-81.66539,41.15552],[-81.66586,41.15552],[-81.66631,41.15552],[-81.66682,41.15552],[-81.66689,41.15551],[-81.66713,41.15551],[-81.66717,41.15551],[-81.6673,41.15551],[-81.66761,41.15551],[-81.6679,41.15551],[-81.66809,41.15551],[-81.66821,41.15551],[-81.66822,41.15551],[-81.66832,41.15551],[-81.66872,41.15551],[-81.66879,41.15551],[-81.66904,41.15551],[-81.66913,41.15551],[-81.66947,41.15551],[-81.66976,41.15551],[-81.67009,41.1555],[-81.67043,41.1555],[-81.67076,41.1555],[-81.67091,41.1555],[-81.67113,41.15551],[-81.67119,41.15551],[-81.67137,41.15551],[-81.67167,41.15551],[-81.67215,41.15551],[-81.67232,41.15551],[-81.67239,41.15551],[-81.67258,41.15551],[-81.67263,41.15551],[-81.67277,41.15551],[-81.67293,41.15551],[-81.67318,41.15551],[-81.67391,41.15551],[-81.67416,41.15551],[-81.67492,41.15551],[-81.67502,41.15551],[-81.67544,41.15551],[-81.67549,41.15551],[-81.67573,41.15551],[-81.67604,41.15552],[-81.67616,41.15552],[-81.67623,41.15552],[-81.67641,41.15552],[-81.67645,41.15552],[-81.67741,41.15552],[-81.67746,41.15552],[-81.67754,41.15552],[-81.67814,41.15552],[-81.67848,41.15552],[-81.67849,41.15552],[-81.6786,41.15553],[-81.67864,41.15553],[-81.67873,41.15553],[-81.67881,41.15553],[-81.67884,41.15553],[-81.67895,41.15554],[-81.67908,41.15555],[-81.67922,41.15556],[-81.67935,41.15558],[-81.67944,41.1556],[-81.67955,41.15561],[-81.67973,41.15564],[-81.6799,41.15568],[-81.68004,41.15571],[-81.68029,41.15577],[-81.68055,41.15584],[-81.68086,41.15593],[-81.6818,41.15619],[-81.68182,41.15619],[-81.68211,41.15627],[-81.68219,41.15629],[-81.68233,41.15633],[-81.68246,41.15635],[-81.68255,41.15637],[-81.68263,41.15638],[-81.68271,41.15639],[-81.68279,41.1564],[-81.68285,41.15641],[-81.68288,41.15641],[-81.68298,41.15641],[-81.68309,41.15641],[-81.68315,41.1564],[-81.68321,41.1564],[-81.68331,41.15638],[-81.68332,41.15638],[-81.68346,41.15636],[-81.68361,41.15633],[-81.68391,41.15627],[-81.68402,41.15624],[-81.68407,41.15623],[-81.68425,41.15619],[-81.68438,41.15616],[-81.68454,41.15613],[-81.68488,41.15605],[-81.68502,41.15602],[-81.68516,41.15599],[-81.68524,41.15597],[-81.68539,41.15594],[-81.68562,41.15589],[-81.68568,41.15587],[-81.68576,41.15585],[-81.68591,41.15582],[-81.68601,41.1558],[-81.68631,41.15574],[-81.68637,41.15572],[-81.68654,41.15569],[-81.6866,41.15568],[-81.68683,41.15567],[-81.68692,41.15567],[-81.68694,41.15567],[-81.68731,41.15566],[-81.68737,41.15566],[-81.68739,41.15566],[-81.68755,41.15566],[-81.68787,41.15566],[-81.68792,41.15566],[-81.68803,41.15566],[-81.68811,41.15566],[-81.6884,41.15565],[-81.68859,41.15565],[-81.68875,41.15565],[-81.68883,41.15565],[-81.68898,41.15565],[-81.6897,41.15565],[-81.68994,41.15564],[-81.69002,41.15564],[-81.69018,41.15564],[-81.69021,41.15564],[-81.69042,41.15564],[-81.69066,41.15564],[-81.69074,41.15564],[-81.69114,41.15563],[-81.69197,41.15562],[-81.6921,41.15562],[-81.69295,41.15562],[-81.6939,41.15561],[-81.69414,41.15561],[-81.69486,41.15561],[-81.6951,41.15561],[-81.69546,41.1556],[-81.69599,41.1556],[-81.69695,41.1556],[-81.69754,41.1556],[-81.69778,41.1556],[-81.69826,41.1556],[-81.6985,41.15561],[-81.69898,41.15561],[-81.69921,41.15561],[-81.69945,41.15561],[-81.69971,41.15562],[-81.70015,41.15562],[-81.70025,41.15562],[-81.70073,41.15563],[-81.70087,41.15563],[-81.70097,41.15563],[-81.70111,41.15563],[-81.70115,41.15563],[-81.70121,41.15563],[-81.70134,41.15563],[-81.70182,41.15563],[-81.70192,41.15563],[-81.7024,41.15564],[-81.70278,41.15564],[-81.70288,41.15564],[-81.70302,41.15564],[-81.70312,41.15564],[-81.70326,41.15564],[-81.7033,41.15565],[-81.70369,41.15565],[-81.70397,41.15565],[-81.70402,41.15566],[-81.70409,41.15566],[-81.70426,41.15566],[-81.7045,41.15566],[-81.70469,41.15566],[-81.70476,41.15566],[-81.70483,41.15566],[-81.70519,41.15567],[-81.70536,41.15567],[-81.70541,41.15567],[-81.70564,41.15567],[-81.70612,41.15567],[-81.70636,41.15568],[-81.70667,41.15568],[-81.70713,41.15569],[-81.70714,41.15569],[-81.70738,41.15569],[-81.70762,41.15569],[-81.70775,41.1557],[-81.70786,41.1557],[-81.7081,41.1557],[-81.70834,41.1557],[-81.70852,41.1557],[-81.70882,41.1557],[-81.70893,41.15571],[-81.70905,41.15571],[-81.70929,41.15571],[-81.7096,41.15571],[-81.70977,41.15571],[-81.71001,41.15572],[-81.71025,41.15572],[-81.71095,41.15573],[-81.71168,41.15574],[-81.71184,41.15574],[-81.71192,41.15574],[-81.71216,41.15574],[-81.7124,41.15574],[-81.71288,41.15574],[-81.71307,41.15575],[-81.71311,41.15575],[-81.71325,41.15575],[-81.71346,41.15575],[-81.71359,41.15575],[-81.71383,41.15575],[-81.71397,41.15575],[-81.71503,41.15575],[-81.71526,41.15575],[-81.71536,41.15575],[-81.71635,41.15575],[-81.7171,41.15576],[-81.71718,41.15576],[-81.71741,41.15576],[-81.71789,41.15576],[-81.71804,41.15576],[-81.71837,41.15576],[-81.71885,41.15576],[-81.71909,41.15576],[-81.71933,41.15576],[-81.71953,41.15576],[-81.72004,41.15576],[-81.72028,41.15576],[-81.72052,41.15576],[-81.72171,41.15576],[-81.72195,41.15576],[-81.72219,41.15576],[-81.72243,41.15576],[-81.72267,41.15576],[-81.72339,41.15576],[-81.72363,41.15576],[-81.72364,41.15576],[-81.72386,41.15575],[-81.72388,41.15575],[-81.72412,41.15575],[-81.72436,41.15575],[-81.72484,41.15575],[-81.72506,41.15575],[-81.72508,41.15575],[-81.72578,41.15575],[-81.72579,41.15575],[-81.72593,41.15575],[-81.72611,41.15574],[-81.72625,41.15574],[-81.72648,41.15574],[-81.72659,41.15574],[-81.72711,41.15573],[-81.72723,41.15573],[-81.72769,41.15572],[-81.72779,41.15572],[-81.72793,41.15572],[-81.72872,41.15571],[-81.72888,41.1557],[-81.72939,41.15569],[-81.72961,41.15569],[-81.72963,41.15569],[-81.72969,41.15569],[-81.72985,41.15568],[-81.72994,41.15568],[-81.73039,41.15568],[-81.73068,41.15567],[-81.73081,41.15567],[-81.73123,41.15566],[-81.73152,41.15566],[-81.732,41.15565],[-81.73301,41.15565],[-81.73344,41.15565],[-81.73412,41.15565],[-81.73413,41.15564],[-81.7346,41.15564],[-81.73484,41.15563],[-81.7351,41.15563],[-81.73534,41.15566],[-81.7354,41.15566],[-81.73558,41.15567],[-81.73566,41.15567],[-81.73566,41.15567],[-81.73567,41.15568],[-81.73567,41.15569],[-81.73568,41.1557],[-81.73569,41.15571],[-81.73569,41.15572],[-81.7357,41.15573],[-81.73571,41.15573],[-81.73572,41.15574],[-81.73574,41.15575],[-81.73575,41.15576],[-81.73576,41.15576],[-81.73577,41.15577],[-81.73579,41.15577],[-81.7358,41.15578],[-81.73582,41.15578],[-81.73583,41.15578],[-81.73584,41.15578],[-81.73586,41.15578],[-81.73587,41.15578],[-81.73589,41.15578],[-81.7359,41.15578],[-81.73592,41.15578],[-81.73593,41.15577],[-81.73595,41.15577],[-81.73596,41.15577],[-81.73597,41.15576],[-81.73599,41.15575],[-81.736,41.15575],[-81.73601,41.15574],[-81.73602,41.15573],[-81.73603,41.15572],[-81.73604,41.15571],[-81.73605,41.1557],[-81.73611,41.15569],[-81.73634,41.15564],[-81.73663,41.15564],[-81.73669,41.15564],[-81.7368,41.15564],[-81.73692,41.15564],[-81.7374,41.15564],[-81.73743,41.15564],[-81.73751,41.15564],[-81.73788,41.15564],[-81.73815,41.15564],[-81.73819,41.15564],[-81.73883,41.15564],[-81.73893,41.15564],[-81.73907,41.15564],[-81.73916,41.15564],[-81.73955,41.15564],[-81.73994,41.15564],[-81.74042,41.15563],[-81.74097,41.15563],[-81.7412,41.15564],[-81.74152,41.15564],[-81.74245,41.15564],[-81.74268,41.15564],[-81.74342,41.15564],[-81.74399,41.15563],[-81.7443,41.15563],[-81.74489,41.15563],[-81.74507,41.15563],[-81.74535,41.15563],[-81.74554,41.15563],[-81.7462,41.15563],[-81.74679,41.15563],[-81.74698,41.15563],[-81.7474,41.15563],[-81.74769,41.15563],[-81.74793,41.15563],[-81.74815,41.15563],[-81.74817,41.15563],[-81.74895,41.15563],[-81.74938,41.15563],[-81.74958,41.15563],[-81.7496,41.15563],[-81.75032,41.15563],[-81.75059,41.15563],[-81.75171,41.15564],[-81.75179,41.15564],[-81.75199,41.15564],[-81.75229,41.15563],[-81.75269,41.15563],[-81.75319,41.15564],[-81.75329,41.15564],[-81.75347,41.15564],[-81.75384,41.15564],[-81.7539,41.15564],[-81.7545,41.15564],[-81.75471,41.15564],[-81.75533,41.15564],[-81.75534,41.15564],[-81.75564,41.15564],[-81.75594,41.15564],[-81.75605,41.15564],[-81.75624,41.15564],[-81.75642,41.15564],[-81.7565,41.15564],[-81.75699,41.15564],[-81.75723,41.15564],[-81.75731,41.15564],[-81.75789,41.15564],[-81.75793,41.15564],[-81.75819,41.15564],[-81.75842,41.15564],[-81.75843,41.15564],[-81.75858,41.15565],[-81.75875,41.15565],[-81.75903,41.15565],[-81.75938,41.15566],[-81.75946,41.15566],[-81.75989,41.15566],[-81.76018,41.15567],[-81.76057,41.15568],[-81.76065,41.15568],[-81.76081,41.15568],[-81.7617,41.1557],[-81.76177,41.1557],[-81.76197,41.1557],[-81.76201,41.1557],[-81.76308,41.15572],[-81.76326,41.15572],[-81.76344,41.15572],[-81.76373,41.15572],[-81.76423,41.15573],[-81.7644,41.15573],[-81.76445,41.15573],[-81.76464,41.15573],[-81.76511,41.15574],[-81.76608,41.15575],[-81.76628,41.15575],[-81.76702,41.15575],[-81.76739,41.15576],[-81.76778,41.15576],[-81.76798,41.15576],[-81.76846,41.15577],[-81.76854,41.15577],[-81.76862,41.15577],[-81.7693,41.15577],[-81.76955,41.15578],[-81.76989,41.15578],[-81.77002,41.15578],[-81.77037,41.15578],[-81.7704,41.15578],[-81.77052,41.15578],[-81.77108,41.15578],[-81.77132,41.15578],[-81.77156,41.15579],[-81.77166,41.15579],[-81.7718,41.15579],[-81.77252,41.15579],[-81.77261,41.15579],[-81.77276,41.15579],[-81.77347,41.1558],[-81.77355,41.1558],[-81.77357,41.1558],[-81.77414,41.1558],[-81.7742,41.1558],[-81.77443,41.1558],[-81.77462,41.1558],[-81.77472,41.1558],[-81.77536,41.15581],[-81.77538,41.15581],[-81.77575,41.15582],[-81.77599,41.15582],[-81.77657,41.15582],[-81.77695,41.15583],[-81.77724,41.15583],[-81.77788,41.15584],[-81.77865,41.15584],[-81.7792,41.15585],[-81.7795,41.15585],[-81.77991,41.15585],[-81.78034,41.15585],[-81.78039,41.15585],[-81.78087,41.15586],[-81.78116,41.15586],[-81.78119,41.15586],[-81.78154,41.15586],[-81.78191,41.15587],[-81.78213,41.15587],[-81.78215,41.15587],[-81.78229,41.15587],[-81.78238,41.15587],[-81.78262,41.15587],[-81.7831,41.15587],[-81.78334,41.15588],[-81.78358,41.15588],[-81.78375,41.15588],[-81.78382,41.15588],[-81.7839,41.15588],[-81.78413,41.15587],[-81.78417,41.15587],[-81.78432,41.15587],[-81.78453,41.15587],[-81.78467,41.15587],[-81.78486,41.15586],[-81.785,41.15586],[-81.78572,41.15583],[-81.78624,41.15582],[-81.78644,41.15581],[-81.78691,41.1558],[-81.78748,41.15578],[-81.78761,41.15578],[-81.78766,41.15578],[-81.78772,41.15578],[-81.78785,41.15578],[-81.78794,41.15578],[-81.78796,41.15578],[-81.78844,41.15578],[-81.78857,41.15578],[-81.78867,41.15578],[-81.78881,41.15578],[-81.78905,41.15578],[-81.78915,41.15578],[-81.78929,41.15579],[-81.78963,41.15579],[-81.78976,41.15579],[-81.78987,41.15579],[-81.79,41.15579],[-81.79059,41.15579],[-81.79072,41.15579],[-81.79083,41.15579],[-81.79096,41.15579],[-81.79101,41.1558],[-81.79113,41.1558],[-81.79149,41.1558],[-81.79164,41.1558],[-81.79173,41.1558],[-81.79185,41.1558],[-81.79252,41.1558],[-81.79257,41.1558],[-81.79268,41.1558],[-81.79281,41.1558],[-81.79292,41.1558],[-81.79328,41.1558],[-81.79332,41.1558],[-81.79351,41.15579],[-81.79352,41.15579],[-81.79387,41.15579],[-81.794,41.15579],[-81.79411,41.15579],[-81.7942,41.15579],[-81.79424,41.15579],[-81.79435,41.15579],[-81.79448,41.15579],[-81.79475,41.15578],[-81.79483,41.15578],[-81.79506,41.15578],[-81.79534,41.15577],[-81.79543,41.15576],[-81.79553,41.15576],[-81.79572,41.15575],[-81.79588,41.15573],[-81.79602,41.15571],[-81.79604,41.15571],[-81.79622,41.15568],[-81.79633,41.15566],[-81.79638,41.15565],[-81.79641,41.15564],[-81.79652,41.15562],[-81.79653,41.15561],[-81.79664,41.15559],[-81.79683,41.15553],[-81.79697,41.15549],[-81.79705,41.15547],[-81.79742,41.15537],[-81.79759,41.15532],[-81.79784,41.15526],[-81.79789,41.15524],[-81.79795,41.15523],[-81.798,41.15521],[-81.79802,41.15521],[-81.79814,41.15518],[-81.79818,41.15518],[-81.79828,41.15516],[-81.79843,41.15513],[-81.79848,41.15512],[-81.79854,41.15512],[-81.79865,41.15511],[-81.79877,41.1551],[-81.7989,41.1551],[-81.79902,41.1551],[-81.79904,41.1551],[-81.79926,41.1551],[-81.79998,41.15511],[-81.80044,41.15512],[-81.80072,41.15512],[-81.80074,41.15512],[-81.80097,41.15513],[-81.80112,41.15512],[-81.80116,41.15511],[-81.80124,41.1551],[-81.80135,41.15507],[-81.80145,41.15503],[-81.80156,41.15497],[-81.80158,41.15495],[-81.80163,41.15491],[-81.80165,41.15489],[-81.80169,41.15485],[-81.80174,41.15479],[-81.80178,41.15471],[-81.80181,41.15463],[-81.80183,41.15455],[-81.80184,41.15448],[-81.80184,41.15448],[-81.80185,41.15415],[-81.80185,41.15399],[-81.80185,41.15397],[-81.80186,41.15362],[-81.80187,41.15345],[-81.80188,41.1529],[-81.80189,41.15255],[-81.80189,41.15255],[-81.80213,41.15255],[-81.80222,41.15255],[-81.80261,41.15255],[-81.80293,41.15255],[-81.80297,41.15255],[-81.80301,41.15255],[-81.80325,41.15255],[-81.80341,41.15255],[-81.80373,41.15255],[-81.80397,41.15255],[-81.80409,41.15255],[-81.80425,41.15255],[-81.80437,41.15255],[-81.80446,41.15255],[-81.80461,41.15255],[-81.80474,41.15255],[-81.80485,41.15255],[-81.80509,41.15255],[-81.80533,41.15255],[-81.80578,41.15255],[-81.8058,41.15255],[-81.80581,41.15255],[-81.80674,41.15255],[-81.80745,41.15255],[-81.80747,41.15255],[-81.80762,41.15255],[-81.8085,41.15255],[-81.8086,41.15255],[-81.80911,41.15255],[-81.80982,41.15254],[-81.81034,41.15254],[-81.81054,41.15254],[-81.81055,41.15254],[-81.81084,41.15254],[-81.81243,41.15255],[-81.81249,41.15255],[-81.81297,41.15255],[-81.81317,41.15255],[-81.81345,41.15255],[-81.81388,41.15255],[-81.81405,41.15255],[-81.81412,41.15255],[-81.81433,41.15255],[-81.81476,41.15256],[-81.81484,41.15256],[-81.815,41.15256],[-81.81522,41.15256],[-81.81596,41.15256],[-81.81603,41.15256],[-81.8162,41.15256],[-81.81644,41.15256],[-81.81651,41.15256],[-81.81668,41.15256],[-81.81692,41.15256],[-81.81699,41.15256],[-81.81723,41.15256],[-81.81739,41.15256],[-81.81747,41.15256],[-81.81771,41.15256],[-81.81818,41.15256],[-81.81835,41.15256],[-81.81866,41.15256],[-81.81912,41.15256],[-81.81917,41.15256],[-81.8194,41.15256],[-81.81987,41.15256],[-81.82008,41.15256],[-81.82011,41.15256],[-81.82032,41.15256],[-81.82035,41.15256],[-81.82118,41.15256],[-81.82127,41.15256],[-81.82163,41.15256],[-81.82211,41.15256],[-81.82281,41.15257],[-81.82353,41.15257],[-81.82377,41.15257],[-81.82416,41.15257],[-81.82427,41.15257],[-81.82444,41.15257],[-81.82492,41.15257],[-81.82496,41.15257],[-81.8252,41.15257],[-81.82663,41.15258],[-81.82689,41.15258],[-81.82691,41.15258],[-81.8281,41.15258],[-81.82829,41.15258],[-81.82854,41.15258],[-81.82896,41.15257],[-81.82902,41.15257],[-81.82905,41.15257],[-81.83,41.15258],[-81.83023,41.15258],[-81.83065,41.15258],[-81.83067,41.15258],[-81.83071,41.15258],[-81.832,41.15258],[-81.8323,41.15258],[-81.83238,41.15258],[-81.83242,41.15258],[-81.83251,41.15258],[-81.83254,41.15258],[-81.83264,41.15259],[-81.83265,41.15259],[-81.83273,41.15259],[-81.83281,41.15261],[-81.83286,41.15262],[-81.83292,41.15265],[-81.83299,41.1527],[-81.83303,41.15273],[-81.83308,41.15277],[-81.8332,41.15288],[-81.8332,41.15288],[-81.83365,41.15276],[-81.83413,41.15264],[-81.83461,41.15252],[-81.83518,41.15235],[-81.83525,41.15233],[-81.83544,41.15228],[-81.83582,41.15217],[-81.83595,41.15213],[-81.83608,41.15208],[-81.83608,41.15208],[-81.83616,41.15221],[-81.8362,41.15231],[-81.83646,41.15274],[-81.83655,41.15289],[-81.83656,41.1529],[-81.83669,41.15309],[-81.83683,41.15324],[-81.83692,41.15334],[-81.83724,41.15368],[-81.83738,41.15382],[-81.83764,41.15409],[-81.83781,41.15425],[-81.83788,41.15432],[-81.83797,41.15439],[-81.83813,41.15452],[-81.83839,41.15471],[-81.83842,41.15475],[-81.83847,41.15478],[-81.83869,41.15493],[-81.83903,41.15512],[-81.83909,41.15515],[-81.83942,41.15533],[-81.83962,41.15543],[-81.8399,41.15559],[-81.84003,41.15565],[-81.8403,41.15579],[-81.84061,41.15596],[-81.84064,41.15597],[-81.84087,41.15608],[-81.84103,41.15614],[-81.84108,41.15616],[-81.84126,41.15621],[-81.84147,41.15626],[-81.84159,41.15629],[-81.84187,41.15634],[-81.84228,41.15639],[-81.84251,41.15641],[-81.84276,41.15641],[-81.84288,41.15642],[-81.84324,41.15642],[-81.84359,41.15642],[-81.84372,41.15643],[-81.8443,41.15643],[-81.84443,41.15643],[-81.84467,41.15641],[-81.8449,41.1564],[-81.84607,41.15642],[-81.84609,41.15642],[-81.84704,41.15643],[-81.84728,41.15643],[-81.84815,41.15643],[-81.84848,41.15643],[-81.85032,41.15646],[-81.85199,41.15649],[-81.85312,41.15652],[-81.85446,41.15651],[-81.85446,41.15651],[-81.85447,41.15615],[-81.85448,41.15592],[-81.85451,41.15577],[-81.85456,41.15563],[-81.85464,41.15547],[-81.85466,41.15544],[-81.85473,41.15537],[-81.85478,41.15528],[-81.85482,41.15519],[-81.85483,41.15514],[-81.85484,41.15509],[-81.85483,41.15501],[-81.85469,41.15444],[-81.85469,41.15438],[-81.85469,41.15426],[-81.85473,41.15407],[-81.85451,41.15405],[-81.85432,41.15402],[-81.85427,41.15402],[-81.85427,41.15402],[-81.85428,41.15366],[-81.85428,41.15321],[-81.85428,41.15309],[-81.85405,41.15276],[-81.85396,41.15266],[-81.85386,41.1526],[-81.85375,41.15254],[-81.85363,41.15249],[-81.85355,41.15246],[-81.85355,41.15246],[-81.85355,41.15211],[-81.85355,41.15193],[-81.85354,41.15139],[-81.85354,41.15121],[-81.85354,41.15082],[-81.85354,41.15001],[-81.85352,41.1499],[-81.85348,41.14977],[-81.85342,41.14965],[-81.85335,41.14955],[-81.85331,41.1495],[-81.85331,41.1495],[-81.85371,41.14936],[-81.85393,41.14928],[-81.85414,41.1492],[-81.85436,41.14912],[-81.85479,41.14897],[-81.85479,41.14897],[-81.85478,41.14882],[-81.85497,41.14867],[-81.85514,41.14853],[-81.85552,41.14823],[-81.85591,41.14792],[-81.85643,41.14751],[-81.8565,41.14743],[-81.85653,41.14736],[-81.85656,41.14728],[-81.85657,41.14666],[-81.85657,41.1463],[-81.85659,41.14558],[-81.85659,41.14555],[-81.85659,41.1454],[-81.85659,41.14522],[-81.85659,41.14504],[-81.85659,41.14501],[-81.8566,41.14468],[-81.8566,41.14465],[-81.85661,41.14428],[-81.85661,41.1438],[-81.85661,41.14374],[-81.85662,41.1432],[-81.85662,41.14316],[-81.85662,41.14293],[-81.85663,41.14283],[-81.85663,41.14265],[-81.85663,41.14247],[-81.85663,41.14229],[-81.85663,41.14211],[-81.85664,41.14062],[-81.85664,41.14021],[-81.85664,41.13949],[-81.85664,41.13931],[-81.85664,41.13913],[-81.85664,41.13913],[-81.85758,41.13913]]}}]}