{"type":"FeatureCollection","features":[{"type":"Feature","properties":{"_gpxType":"trk","name":"Great Divide Ski Bike & Hike, North Santa Fe Avenue, Pueblo, CO - Union - Abriendo Library - Cleveland - Abriendo - 4551 Goodnight Ave - 729 County Road 395, Wetmore, CO","coordinateProperties":{},"id":60},"geometry":{"type":"LineString","coordinates":[[-104.60688,38.27068],[-104.60706,38.27067],[-104.60745,38.27067],[-104.60781,38.27067],[-104.6086,38.27066],[-104.61002,38.27064],[-104.61011,38.27069],[-104.61109,38.27067],[-104.61127,38.27067],[-104.61163,38.27066],[-104.61163,38.27066],[-104.61163,38.27057],[-104.61161,38.27016],[-104.61159,38.2697],[-104.61158,38.26933],[-104.61158,38.26925],[-104.61158,38.26875],[-104.61158,38.26875],[-104.61157,38.26872],[-104.61155,38.26825],[-104.61156,38.26805],[-104.61155,38.26787],[-104.61154,38.26692],[-104.61156,38.26664],[-104.61156,38.26651],[-104.61156,38.26651],[-104.6116,38.26624],[-104.61159,38.26603],[-104.61182,38.26582],[-104.61199,38.26569],[-104.61216,38.26556],[-104.61226,38.26548],[-104.61231,38.26545],[-104.61232,38.26544],[-104.61256,38.26528],[-104.61258,38.26526],[-104.61273,38.26512],[-104.61363,38.26435],[-104.61481,38.26338],[-104.61498,38.26326],[-104.61533,38.263],[-104.61552,38.26286],[-104.61576,38.26267],[-104.61599,38.26248],[-104.61608,38.2624],[-104.61624,38.26227],[-104.61656,38.26201],[-104.61679,38.26184],[-104.61704,38.26163],[-104.6178,38.26102],[-104.61792,38.26093],[-104.61802,38.26084],[-104.61807,38.2608],[-104.61818,38.26071],[-104.61823,38.26067],[-104.61839,38.26054],[-104.61857,38.26039],[-104.61867,38.26034],[-104.61883,38.26025],[-104.61909,38.26018],[-104.61941,38.26012],[-104.61994,38.26006],[-104.62052,38.26002]]}},{"type":"Feature","properties":{"_gpxType":"trk","name":"Great Divide Ski Bike & Hike, North Santa Fe Avenue, Pueblo, CO - Union - Abriendo Library - Cleveland - Abriendo - 4551 Goodnight Ave - 729 County Road 395, Wetmore, CO","coordinateProperties":{},"id":60},"geometry":{"type":"LineString","coordinates":[[-104.62052,38.26002],[-104.62057,38.26001],[-104.62087,38.25996],[-104.62087,38.25996],[-104.62116,38.25998],[-104.62146,38.25999],[-104.62167,38.26015],[-104.6222,38.26055],[-104.62237,38.26068],[-104.62248,38.26076],[-104.62318,38.26131],[-104.6235,38.26155],[-104.62374,38.26175],[-104.6239,38.26187],[-104.62414,38.26206],[-104.62495,38.26267],[-104.62524,38.2629],[-104.62548,38.26309],[-104.62566,38.26323],[-104.62596,38.26345],[-104.62623,38.26365],[-104.62657,38.26392],[-104.62681,38.26411],[-104.6272,38.26441],[-104.62745,38.26459],[-104.62775,38.26482],[-104.62797,38.26499],[-104.6281,38.2651],[-104.62833,38.26527],[-104.62847,38.26538],[-104.62866,38.26552],[-104.62876,38.26559],[-104.62893,38.26572],[-104.62909,38.26586],[-104.62994,38.26652],[-104.6304,38.26687],[-104.63075,38.26716],[-104.63085,38.26724],[-104.63121,38.2675],[-104.6315,38.26775],[-104.63186,38.26801],[-104.63246,38.26846],[-104.63318,38.26901],[-104.6335,38.26929],[-104.6335,38.26929],[-104.63378,38.26928],[-104.63409,38.26908],[-104.63417,38.26901]]}},{"type":"Feature","properties":{"_gpxType":"trk","name":"Great Divide Ski Bike & Hike, North Santa Fe Avenue, Pueblo, CO - Union - Abriendo Library - Cleveland - Abriendo - 4551 Goodnight Ave - 729 County Road 395, Wetmore, CO","coordinateProperties":{},"id":60},"geometry":{"type":"LineString","coordinates":[[-104.63417,38.26901],[-104.63422,38.26897],[-104.63442,38.26882],[-104.6347,38.2686],[-104.63504,38.26832],[-104.63505,38.26832],[-104.6354,38.26803],[-104.63586,38.26767],[-104.63626,38.26734],[-104.63682,38.2669],[-104.63685,38.26687],[-104.63701,38.26674],[-104.63747,38.26636],[-104.63819,38.26582],[-104.6387,38.26537],[-104.63921,38.26494],[-104.63991,38.26439],[-104.64034,38.26404],[-104.64034,38.26404],[-104.64084,38.264],[-104.64134,38.26399],[-104.64187,38.26399],[-104.64187,38.26399],[-104.64194,38.26399],[-104.643,38.26399],[-104.64316,38.26399],[-104.64352,38.26398],[-104.64401,38.26399],[-104.64518,38.26398],[-104.64632,38.26397],[-104.64691,38.26396],[-104.64747,38.26396],[-104.64863,38.26395],[-104.64922,38.26395],[-104.64978,38.26394],[-104.65001,38.26394],[-104.65027,38.26394],[-104.65092,38.26393],[-104.65123,38.26393],[-104.65184,38.26392],[-104.65189,38.26396],[-104.65202,38.26396],[-104.65219,38.26396],[-104.65271,38.26396],[-104.65285,38.26395],[-104.65285,38.26395],[-104.65286,38.264],[-104.65288,38.26404],[-104.65291,38.26408],[-104.65297,38.26412],[-104.65301,38.26415],[-104.65307,38.26417],[-104.65312,38.26419],[-104.65324,38.2642],[-104.65333,38.26418],[-104.65342,38.26414],[-104.65348,38.26409],[-104.65354,38.26404],[-104.65358,38.26397],[-104.6536,38.26391],[-104.65428,38.2639],[-104.65547,38.2639],[-104.65578,38.26387],[-104.65589,38.26377],[-104.65606,38.26364],[-104.65617,38.26358],[-104.65622,38.26355],[-104.65628,38.26351],[-104.65641,38.26345],[-104.65663,38.26334],[-104.65673,38.2633],[-104.65688,38.26326],[-104.6571,38.2632],[-104.65736,38.26317],[-104.65763,38.26318],[-104.65801,38.26324],[-104.6584,38.26329],[-104.6588,38.26332],[-104.65909,38.26331],[-104.65949,38.2633],[-104.65969,38.26331],[-104.65983,38.26333],[-104.65992,38.26335],[-104.66005,38.2634],[-104.66022,38.26348],[-104.66041,38.26363],[-104.66048,38.26369],[-104.66054,38.26373],[-104.66059,38.26377],[-104.66069,38.26381],[-104.66077,38.26383],[-104.66084,38.26385],[-104.66093,38.26385],[-104.66106,38.26385],[-104.66154,38.26385],[-104.66177,38.26385],[-104.662,38.26385],[-104.66234,38.26385],[-104.66269,38.26384],[-104.66344,38.26384],[-104.66367,38.26383],[-104.66413,38.26383],[-104.66459,38.26383],[-104.66482,38.26383],[-104.66551,38.26382],[-104.66581,38.26382],[-104.66702,38.2638],[-104.66772,38.26381],[-104.66787,38.26381],[-104.66843,38.2638],[-104.66925,38.2638],[-104.66997,38.26379],[-104.67001,38.26379],[-104.67043,38.26378],[-104.67045,38.26378],[-104.67068,38.26378],[-104.67091,38.26378],[-104.67114,38.26378],[-104.67136,38.26378],[-104.67149,38.26378],[-104.67159,38.26377],[-104.67205,38.26376],[-104.67251,38.26375],[-104.67274,38.26375],[-104.67297,38.26375],[-104.67371,38.26375],[-104.6749,38.26374],[-104.67544,38.26373],[-104.67567,38.26373],[-104.67612,38.26372],[-104.67641,38.26372],[-104.67664,38.26371],[-104.6771,38.26371],[-104.67756,38.2637],[-104.67847,38.26369],[-104.67905,38.2637],[-104.67919,38.26369],[-104.67933,38.26367],[-104.67946,38.26359],[-104.67964,38.26342],[-104.67979,38.26328],[-104.67984,38.26324],[-104.67986,38.26322],[-104.67997,38.2631],[-104.6803,38.26276]]}},{"type":"Feature","properties":{"_gpxType":"trk","name":"Great Divide Ski Bike & Hike, North Santa Fe Avenue, Pueblo, CO - Union - Abriendo Library - Cleveland - Abriendo - 4551 Goodnight Ave - 729 County Road 395, Wetmore, CO","coordinateProperties":{},"id":60},"geometry":{"type":"LineString","coordinates":[[-104.6803,38.26276],[-104.68034,38.26272],[-104.68034,38.26271],[-104.68038,38.26267],[-104.68039,38.26266],[-104.68049,38.26257],[-104.68053,38.26252],[-104.68059,38.26245],[-104.68062,38.26236],[-104.68061,38.26205],[-104.68061,38.262],[-104.68061,38.26193],[-104.68061,38.26187],[-104.68059,38.26139],[-104.68055,38.2605],[-104.68055,38.26026],[-104.68054,38.26021],[-104.68054,38.26008],[-104.68052,38.25965],[-104.68051,38.25947],[-104.68051,38.25936],[-104.68051,38.25929],[-104.6805,38.259],[-104.68049,38.25893],[-104.68049,38.25883],[-104.68049,38.25883],[-104.68089,38.25881],[-104.68115,38.2588],[-104.6821,38.25877],[-104.68222,38.25877],[-104.68253,38.25875],[-104.683,38.25874],[-104.68315,38.25873],[-104.68336,38.25872],[-104.6835,38.25872],[-104.68359,38.25872],[-104.68414,38.2587],[-104.68441,38.25869],[-104.68462,38.25867],[-104.68472,38.25866],[-104.6849,38.25864],[-104.68506,38.25862],[-104.6852,38.2586],[-104.68538,38.25857],[-104.6855,38.25854],[-104.68552,38.25854],[-104.6856,38.25852],[-104.68575,38.25848],[-104.68591,38.25843],[-104.68595,38.25842],[-104.68615,38.25835],[-104.68626,38.25832],[-104.68637,38.25828],[-104.68659,38.25821],[-104.68674,38.25815],[-104.68718,38.258],[-104.68809,38.25769],[-104.68848,38.25755],[-104.68873,38.25746],[-104.68879,38.25744],[-104.68903,38.25736],[-104.68932,38.25728],[-104.68949,38.25723],[-104.68965,38.2572],[-104.6897,38.25719],[-104.68981,38.25716],[-104.68988,38.25715],[-104.68995,38.25714],[-104.69008,38.25712],[-104.6901,38.25712],[-104.69029,38.2571],[-104.69033,38.2571],[-104.69049,38.25708],[-104.69093,38.25706],[-104.69101,38.25706],[-104.69124,38.25704],[-104.69208,38.257],[-104.69234,38.25699],[-104.69306,38.25696],[-104.69327,38.25695],[-104.69342,38.25693],[-104.6936,38.25692],[-104.69414,38.25688],[-104.69501,38.2568],[-104.69536,38.25677],[-104.69594,38.25671],[-104.69686,38.25662],[-104.69698,38.25661],[-104.69708,38.25661],[-104.69724,38.25661],[-104.6974,38.25661],[-104.69757,38.25662],[-104.69771,38.25663],[-104.69781,38.25664],[-104.69797,38.25666],[-104.69818,38.25669],[-104.69838,38.25673],[-104.69859,38.25678],[-104.69876,38.25683],[-104.69899,38.2569],[-104.699,38.25691],[-104.69917,38.25697],[-104.69957,38.25711],[-104.69983,38.25721],[-104.70062,38.25751],[-104.70095,38.25763],[-104.70141,38.2578],[-104.70172,38.25791],[-104.70197,38.25799],[-104.70222,38.25808],[-104.7025,38.25816],[-104.70298,38.25829],[-104.70359,38.25846],[-104.7043,38.25864],[-104.70502,38.25883],[-104.7055,38.25894],[-104.70573,38.259],[-104.70589,38.25905],[-104.70611,38.25911],[-104.70654,38.25922],[-104.70676,38.25928],[-104.70702,38.25935],[-104.7072,38.25939],[-104.70742,38.25944],[-104.70744,38.25944],[-104.70787,38.25952],[-104.70831,38.25957],[-104.70844,38.25958],[-104.70855,38.25959],[-104.70878,38.25961],[-104.70893,38.25962],[-104.70922,38.25962],[-104.70938,38.25962],[-104.70959,38.25962],[-104.70977,38.25962],[-104.71003,38.2596],[-104.7104,38.25955],[-104.71079,38.25948],[-104.71081,38.25948],[-104.71113,38.25942],[-104.71136,38.25936],[-104.71175,38.25925],[-104.71199,38.25917],[-104.71211,38.25912],[-104.71254,38.25896],[-104.71318,38.25868],[-104.71329,38.25863],[-104.71391,38.25837],[-104.71434,38.25817],[-104.7144,38.25815],[-104.71472,38.258],[-104.71519,38.25776],[-104.71524,38.25773],[-104.71542,38.25763],[-104.71548,38.25759],[-104.71561,38.25752],[-104.71578,38.25741],[-104.71612,38.25715],[-104.71642,38.25689],[-104.71658,38.25676],[-104.71717,38.25621],[-104.71745,38.25596],[-104.71754,38.25587],[-104.71769,38.25573],[-104.71784,38.2556],[-104.71799,38.25546],[-104.71814,38.25532],[-104.71841,38.25508],[-104.71858,38.25491],[-104.71873,38.25478],[-104.71877,38.25474],[-104.71888,38.25464],[-104.71902,38.2545],[-104.7192,38.25432],[-104.71943,38.25407],[-104.71952,38.25398],[-104.71983,38.25363],[-104.71983,38.25362],[-104.72007,38.25332],[-104.72015,38.25322],[-104.72043,38.25284],[-104.72049,38.25276],[-104.72065,38.25251],[-104.72085,38.25221],[-104.72112,38.2518],[-104.72124,38.25157],[-104.72133,38.2514],[-104.72133,38.25139],[-104.72147,38.25113],[-104.7215,38.25107],[-104.72164,38.25075],[-104.72175,38.2505],[-104.72195,38.24999],[-104.7225,38.24864],[-104.72272,38.2481],[-104.72298,38.24749],[-104.72303,38.24734],[-104.72317,38.24703],[-104.7233,38.24671],[-104.72348,38.24633],[-104.72364,38.24601],[-104.72367,38.24595],[-104.72372,38.24585],[-104.72376,38.24577],[-104.72381,38.24568],[-104.72391,38.24552],[-104.72393,38.24547],[-104.72431,38.24487],[-104.72433,38.24484],[-104.72441,38.24471],[-104.72452,38.24455],[-104.72495,38.24392],[-104.72549,38.24312],[-104.72559,38.24296],[-104.72584,38.24259],[-104.72602,38.24233],[-104.72639,38.24179],[-104.72721,38.24058],[-104.72732,38.24042],[-104.72737,38.24034],[-104.7284,38.23884],[-104.7284,38.23883],[-104.72851,38.23868],[-104.72872,38.23836],[-104.72892,38.23808],[-104.72895,38.23803],[-104.72926,38.23759],[-104.72928,38.23756],[-104.72939,38.2374],[-104.72949,38.23724],[-104.72961,38.23706],[-104.72969,38.23695],[-104.72971,38.23692],[-104.72979,38.2368],[-104.73014,38.23629],[-104.7302,38.23619],[-104.73062,38.23559],[-104.7307,38.23549],[-104.73094,38.23515],[-104.7312,38.23482],[-104.7315,38.23449],[-104.73182,38.23416],[-104.7322,38.23378],[-104.73245,38.23355],[-104.73261,38.23341],[-104.73298,38.23308],[-104.73315,38.23294],[-104.73342,38.23274],[-104.73361,38.23259],[-104.73388,38.23239],[-104.73417,38.23218],[-104.73444,38.23202],[-104.73454,38.23195],[-104.73462,38.2319],[-104.7349,38.23173],[-104.73532,38.23149],[-104.73578,38.23125],[-104.73584,38.23121],[-104.73622,38.23103],[-104.73661,38.23085],[-104.73704,38.23066],[-104.73747,38.23049],[-104.73779,38.23038],[-104.73784,38.23036],[-104.73841,38.23016],[-104.7392,38.22992],[-104.7395,38.22985],[-104.73987,38.22975],[-104.73993,38.22974],[-104.74027,38.22966],[-104.74103,38.22951],[-104.74145,38.22944],[-104.74149,38.22944],[-104.74195,38.22937],[-104.7424,38.22932],[-104.74281,38.22928],[-104.74303,38.22926],[-104.74304,38.22926],[-104.74342,38.22924],[-104.74366,38.22923],[-104.74372,38.22923],[-104.74395,38.22922],[-104.74413,38.22922],[-104.7446,38.22921],[-104.74486,38.22922],[-104.74509,38.22922],[-104.74608,38.22924],[-104.74677,38.22924],[-104.747,38.22924],[-104.74723,38.22925],[-104.74746,38.22925],[-104.7486,38.22924],[-104.74914,38.22924],[-104.75134,38.22926],[-104.75212,38.22928],[-104.75295,38.22928],[-104.75326,38.22929],[-104.75432,38.22929],[-104.75481,38.22929],[-104.75504,38.2293],[-104.75596,38.2293],[-104.75677,38.22931],[-104.75694,38.22931],[-104.75722,38.22932],[-104.75865,38.22933],[-104.75923,38.22933],[-104.75993,38.22934],[-104.76001,38.22934],[-104.76061,38.22934],[-104.76139,38.22935],[-104.76253,38.22936],[-104.7627,38.22936],[-104.76331,38.22936],[-104.76436,38.22937],[-104.76464,38.22937],[-104.76491,38.22937],[-104.76505,38.22937],[-104.76514,38.22937],[-104.76582,38.22937],[-104.7662,38.22938],[-104.76642,38.22938],[-104.76651,38.22938],[-104.76674,38.22938],[-104.76766,38.22939],[-104.76926,38.2294],[-104.77011,38.2294],[-104.7704,38.22941],[-104.77062,38.22941],[-104.771,38.22942],[-104.77144,38.22945],[-104.77146,38.22945],[-104.77177,38.22947],[-104.7718,38.22947],[-104.77205,38.2295],[-104.77231,38.22952],[-104.77262,38.22956],[-104.77268,38.22957],[-104.77291,38.2296],[-104.77313,38.22963],[-104.77321,38.22964],[-104.77332,38.22966],[-104.77336,38.22967],[-104.77358,38.22971],[-104.77365,38.22972],[-104.77381,38.22975],[-104.77403,38.22979],[-104.77425,38.22982],[-104.77444,38.22988],[-104.77462,38.22992],[-104.7748,38.22996],[-104.77505,38.23003],[-104.77517,38.23006],[-104.77527,38.23009],[-104.77532,38.2301],[-104.77539,38.23012],[-104.77548,38.23015],[-104.77568,38.2302],[-104.77618,38.23036],[-104.77634,38.23041],[-104.77683,38.23059],[-104.77719,38.23072],[-104.77772,38.23094],[-104.77811,38.23111],[-104.77817,38.23114],[-104.77822,38.23117],[-104.77828,38.23119],[-104.77837,38.23124],[-104.77858,38.23134],[-104.77876,38.23143],[-104.77909,38.2316],[-104.77918,38.23166],[-104.77932,38.23173],[-104.77939,38.23177],[-104.77942,38.23179],[-104.77951,38.23184],[-104.77961,38.2319],[-104.77964,38.23191],[-104.77969,38.23195],[-104.77985,38.23204],[-104.77998,38.23212],[-104.78005,38.23217],[-104.78015,38.23223],[-104.78023,38.23228],[-104.78034,38.23236],[-104.7804,38.2324],[-104.78058,38.23252],[-104.78067,38.23258],[-104.78075,38.23263],[-104.7808,38.23267],[-104.78084,38.2327],[-104.78092,38.23275],[-104.78102,38.23281],[-104.78151,38.23315],[-104.78248,38.23381],[-104.78352,38.23452],[-104.78369,38.23463],[-104.78379,38.2347],[-104.78396,38.23482],[-104.78404,38.23487],[-104.78421,38.23499],[-104.78465,38.23529],[-104.78473,38.23534],[-104.78535,38.23576],[-104.78551,38.23587],[-104.78575,38.23604],[-104.78586,38.23611],[-104.7862,38.23635],[-104.78679,38.23675],[-104.78706,38.23694],[-104.78817,38.23771],[-104.78822,38.23774],[-104.78926,38.23844],[-104.78937,38.23851],[-104.78978,38.23879],[-104.79013,38.23903],[-104.7903,38.23915],[-104.79082,38.2395],[-104.79106,38.23966],[-104.79204,38.24032],[-104.79259,38.24069],[-104.79335,38.2412],[-104.79336,38.24121],[-104.79387,38.24155],[-104.79407,38.24169],[-104.79456,38.24203],[-104.79467,38.2421],[-104.79473,38.24215],[-104.7949,38.24227],[-104.79552,38.24272],[-104.7959,38.24301],[-104.79606,38.24314],[-104.79702,38.24387],[-104.79721,38.24402],[-104.79803,38.24464],[-104.79952,38.24581],[-104.80178,38.24755],[-104.80217,38.24785],[-104.80357,38.24894],[-104.80373,38.24906],[-104.80439,38.24957],[-104.80455,38.2497],[-104.80471,38.24982],[-104.80499,38.25004],[-104.80547,38.25041],[-104.80586,38.2507],[-104.80602,38.25083],[-104.80675,38.25138],[-104.80718,38.25173],[-104.80722,38.25177],[-104.80738,38.25189],[-104.80771,38.25215],[-104.80787,38.25227],[-104.80796,38.25235],[-104.80837,38.25265],[-104.80929,38.25333],[-104.81014,38.25401],[-104.8105,38.25428],[-104.81083,38.25453],[-104.8114,38.25497],[-104.81166,38.25515],[-104.81201,38.25538],[-104.81213,38.25546],[-104.81218,38.2555],[-104.81249,38.25569],[-104.81254,38.25572],[-104.81302,38.256],[-104.81328,38.25614],[-104.81347,38.25624],[-104.81356,38.25629],[-104.81411,38.25657],[-104.81425,38.25663],[-104.81445,38.25672],[-104.81452,38.25675],[-104.81525,38.25706],[-104.81535,38.2571],[-104.81628,38.2574],[-104.81665,38.25751],[-104.81711,38.25765],[-104.81741,38.25773],[-104.8176,38.25777],[-104.81791,38.25784],[-104.81793,38.25784],[-104.81836,38.25794],[-104.81866,38.25799],[-104.81888,38.25803],[-104.81935,38.25811],[-104.81969,38.25816],[-104.8199,38.25818],[-104.81998,38.25819],[-104.8206,38.25825],[-104.82117,38.2583],[-104.82143,38.25831],[-104.82168,38.25832],[-104.82239,38.25833],[-104.82361,38.25831],[-104.82459,38.25831],[-104.82475,38.25831],[-104.8255,38.25831],[-104.82642,38.2583],[-104.82665,38.2583],[-104.82863,38.25828],[-104.8294,38.25828],[-104.82963,38.25828],[-104.83123,38.25828],[-104.83182,38.25828],[-104.83352,38.25828],[-104.83375,38.25828],[-104.83535,38.25828],[-104.83698,38.25828],[-104.83721,38.25828],[-104.83813,38.25827],[-104.84086,38.25827],[-104.84306,38.25827],[-104.84328,38.25828],[-104.84532,38.25828],[-104.84993,38.25827],[-104.85016,38.25826],[-104.8525,38.25826],[-104.85268,38.25826],[-104.85291,38.25825],[-104.85451,38.25825],[-104.86044,38.25823],[-104.86227,38.25823],[-104.86433,38.25822],[-104.86525,38.25822],[-104.8696,38.25821],[-104.86983,38.25821],[-104.87074,38.25821],[-104.87097,38.25821],[-104.87105,38.25821],[-104.87212,38.25821],[-104.87235,38.25821],[-104.87247,38.25821],[-104.87298,38.25822],[-104.87336,38.25824],[-104.87381,38.25827],[-104.87417,38.25829],[-104.87445,38.25832],[-104.87446,38.25832],[-104.87492,38.25837],[-104.87588,38.25848],[-104.87658,38.25856],[-104.87872,38.2588],[-104.87895,38.25883],[-104.87963,38.2589],[-104.87985,38.25893],[-104.88054,38.25901],[-104.88105,38.25906],[-104.88139,38.2591],[-104.88162,38.25913],[-104.88219,38.25919],[-104.8823,38.2592],[-104.88276,38.25925],[-104.88302,38.25928],[-104.88343,38.25932],[-104.88382,38.25934],[-104.88389,38.25935],[-104.88425,38.25937],[-104.88489,38.25939],[-104.88539,38.2594],[-104.88572,38.2594],[-104.88627,38.25938],[-104.88677,38.25936],[-104.88749,38.25932],[-104.88755,38.25932],[-104.88778,38.2593],[-104.8882,38.25927],[-104.88847,38.25925],[-104.88869,38.25924],[-104.88892,38.25922],[-104.88934,38.25919],[-104.89048,38.25911],[-104.89126,38.25906],[-104.89163,38.25904],[-104.89217,38.259],[-104.8924,38.25898],[-104.89263,38.25897],[-104.89308,38.25894],[-104.89536,38.25878],[-104.89559,38.25876],[-104.89628,38.25872],[-104.89697,38.25867],[-104.89743,38.25864],[-104.89765,38.25862],[-104.89789,38.2586],[-104.89857,38.25856],[-104.89872,38.25855],[-104.89986,38.25847],[-104.90016,38.25845],[-104.90043,38.25843],[-104.90073,38.25842],[-104.90108,38.25841],[-104.90113,38.25841],[-104.90131,38.25841],[-104.90225,38.2584],[-104.90229,38.2584],[-104.90295,38.2584],[-104.90321,38.2584],[-104.90368,38.2584],[-104.90436,38.25839],[-104.9049,38.25839],[-104.90521,38.25839],[-104.90596,38.25838],[-104.90601,38.25838],[-104.90609,38.25838],[-104.90612,38.25838],[-104.90619,38.25838],[-104.90635,38.25838],[-104.90848,38.25836],[-104.90887,38.25835],[-104.90985,38.25834],[-104.91047,38.25834],[-104.91071,38.25834],[-104.911,38.25833],[-104.91123,38.25833],[-104.91208,38.25832],[-104.91214,38.25832],[-104.9126,38.25832],[-104.91289,38.25831],[-104.91299,38.25831],[-104.91306,38.25831],[-104.91487,38.2583],[-104.91489,38.2583],[-104.91506,38.2583],[-104.91512,38.2583],[-104.91572,38.25829],[-104.9178,38.25827],[-104.91787,38.25827],[-104.91813,38.25827],[-104.91849,38.25827],[-104.91856,38.25827],[-104.91872,38.25827],[-104.91988,38.25826],[-104.91993,38.25826],[-104.92055,38.25826],[-104.92111,38.25825],[-104.92193,38.25824],[-104.92231,38.25824],[-104.92254,38.25824],[-104.923,38.25823],[-104.92322,38.25823],[-104.92345,38.25823],[-104.92368,38.25823],[-104.92439,38.25822],[-104.9246,38.25822],[-104.92483,38.25822],[-104.92512,38.25822],[-104.92552,38.25822],[-104.92597,38.25821],[-104.9262,38.25821],[-104.92736,38.25821],[-104.92826,38.2582],[-104.92856,38.2582],[-104.92918,38.25819],[-104.92966,38.25815],[-104.92998,38.25811],[-104.93009,38.25809],[-104.93048,38.25802],[-104.93087,38.25792],[-104.93142,38.25776],[-104.93181,38.25761],[-104.93183,38.2576],[-104.93194,38.25756],[-104.93228,38.25739],[-104.9325,38.25729],[-104.93259,38.25723],[-104.93277,38.25713],[-104.9328,38.25711],[-104.9332,38.25685],[-104.93359,38.25657],[-104.93411,38.25618],[-104.9353,38.2553],[-104.93542,38.25521],[-104.93563,38.25505],[-104.9358,38.25493],[-104.93583,38.25491],[-104.93626,38.25459],[-104.93677,38.25422],[-104.93719,38.25391],[-104.93759,38.25362],[-104.93805,38.2533],[-104.93816,38.25323],[-104.93839,38.25309],[-104.93863,38.25296],[-104.93885,38.25289],[-104.93894,38.25285],[-104.93895,38.25285],[-104.93914,38.25277],[-104.93926,38.25272],[-104.93955,38.25262],[-104.93996,38.25249],[-104.9404,38.25237],[-104.94078,38.2523],[-104.94086,38.25229],[-104.94108,38.25225],[-104.94115,38.25224],[-104.94131,38.25223],[-104.9415,38.25221],[-104.94192,38.25218],[-104.94222,38.25217],[-104.94257,38.25217],[-104.94268,38.25217],[-104.94289,38.25217],[-104.94337,38.25216],[-104.94462,38.25214],[-104.9458,38.25213],[-104.94669,38.25212],[-104.94852,38.25209],[-104.94872,38.25209],[-104.95158,38.25204],[-104.9523,38.25203],[-104.95296,38.25202],[-104.95513,38.25197],[-104.95719,38.25193],[-104.95902,38.2519],[-104.96013,38.25188],[-104.96093,38.25187],[-104.96162,38.25186],[-104.96263,38.25184],[-104.96327,38.25183],[-104.96443,38.25181],[-104.96482,38.25181],[-104.96493,38.2518],[-104.96505,38.2518],[-104.96542,38.25179],[-104.96709,38.25177],[-104.9686,38.25174],[-104.96872,38.25174],[-104.96951,38.25173],[-104.97101,38.2517],[-104.97112,38.2517],[-104.97124,38.2517],[-104.97393,38.25166],[-104.97428,38.25165],[-104.97559,38.25163],[-104.97668,38.2516],[-104.97943,38.25155],[-104.98034,38.25153],[-104.98103,38.25152],[-104.98172,38.25152],[-104.98222,38.25151],[-104.98332,38.25151],[-104.98349,38.25151],[-104.98383,38.2515],[-104.98426,38.2515],[-104.98447,38.2515],[-104.98449,38.2515],[-104.98541,38.2515],[-104.98562,38.25149],[-104.98586,38.2515],[-104.98609,38.25151],[-104.98655,38.25152],[-104.9869,38.25152],[-104.98701,38.25153],[-104.98724,38.25154],[-104.98731,38.25154],[-104.98815,38.25156],[-104.98838,38.25156],[-104.98953,38.25159],[-104.99067,38.25162],[-104.9909,38.25163],[-104.99113,38.25163],[-104.99136,38.25164],[-104.99159,38.25164],[-104.99173,38.25165],[-104.99182,38.25165],[-104.99205,38.25166],[-104.9925,38.25167],[-104.99273,38.25167],[-104.99411,38.25171],[-104.99477,38.25172],[-104.99485,38.25172],[-104.99515,38.25173],[-104.99523,38.25173],[-104.99531,38.25172],[-104.99576,38.25172],[-104.99599,38.25172],[-104.99638,38.25171],[-104.99645,38.25171],[-104.99668,38.25171],[-104.99683,38.25171],[-104.99691,38.25171],[-104.99867,38.25168],[-104.99874,38.25168],[-104.99876,38.25168],[-104.99943,38.25167],[-104.99958,38.25167],[-104.99966,38.25167],[-105.00737,38.25155],[-105.00768,38.25155],[-105.00805,38.25154],[-105.00813,38.25154],[-105.00905,38.25153],[-105.0092,38.25153],[-105.00927,38.25153],[-105.01149,38.2515],[-105.01248,38.25148],[-105.01356,38.25147],[-105.01424,38.25146],[-105.01607,38.25143],[-105.01626,38.25143],[-105.01671,38.25142],[-105.01713,38.25142],[-105.01758,38.25142],[-105.01791,38.25142],[-105.01815,38.25142],[-105.01836,38.25142],[-105.01974,38.25141],[-105.01997,38.25141],[-105.02088,38.25141],[-105.02111,38.25141],[-105.02118,38.25141],[-105.0218,38.2514],[-105.02203,38.2514],[-105.02206,38.2514],[-105.02226,38.2514],[-105.0234,38.2514],[-105.02409,38.25141],[-105.02464,38.25142],[-105.02478,38.25142],[-105.02479,38.25142],[-105.02615,38.25145],[-105.02741,38.25147],[-105.02798,38.25147],[-105.02821,38.25147],[-105.02832,38.25147],[-105.02854,38.25146],[-105.02872,38.25144],[-105.02899,38.2514],[-105.02934,38.25133],[-105.0296,38.25126],[-105.02996,38.25116],[-105.03026,38.25105],[-105.03045,38.25097],[-105.03059,38.2509],[-105.03085,38.25076],[-105.03113,38.2506],[-105.03114,38.25059],[-105.03121,38.25054],[-105.0313,38.25048],[-105.03147,38.25036],[-105.03154,38.2503],[-105.03163,38.25023],[-105.03164,38.25022],[-105.0317,38.25017],[-105.03171,38.25017],[-105.03185,38.25004],[-105.03186,38.25003],[-105.03193,38.24996],[-105.032,38.2499],[-105.03201,38.24989],[-105.03214,38.24974],[-105.03227,38.24959],[-105.03233,38.24952],[-105.03236,38.24948],[-105.03249,38.2493],[-105.03256,38.2492],[-105.03261,38.24914],[-105.03263,38.24911],[-105.03286,38.24877],[-105.033,38.24857],[-105.03305,38.24851],[-105.03325,38.24822],[-105.03339,38.24802],[-105.03348,38.24789],[-105.03367,38.24763],[-105.03386,38.2474],[-105.03395,38.2473],[-105.03404,38.24721],[-105.03417,38.24709],[-105.03429,38.24699],[-105.03436,38.24693],[-105.03444,38.24688],[-105.03453,38.24682],[-105.03462,38.24676],[-105.03463,38.24675],[-105.03482,38.24665],[-105.03518,38.24644],[-105.03522,38.24642],[-105.03529,38.24638],[-105.03552,38.24625],[-105.03573,38.24612],[-105.03585,38.24606],[-105.03586,38.24605],[-105.03592,38.24602],[-105.03653,38.24566],[-105.03658,38.24563],[-105.03665,38.24559],[-105.03794,38.24484],[-105.03849,38.24451],[-105.0386,38.24445],[-105.03867,38.24441],[-105.03872,38.24438],[-105.03897,38.24423],[-105.03922,38.24408],[-105.03943,38.24396],[-105.03978,38.24376],[-105.04022,38.2435],[-105.04044,38.24337],[-105.04096,38.24307],[-105.04099,38.24306],[-105.04103,38.24303],[-105.04115,38.24297],[-105.0417,38.24265],[-105.04173,38.24263],[-105.04191,38.24252],[-105.04225,38.24233],[-105.04244,38.24222],[-105.04281,38.242],[-105.04299,38.2419],[-105.04302,38.24188],[-105.04336,38.24168],[-105.04354,38.24158],[-105.04376,38.24145],[-105.04391,38.24136],[-105.0441,38.24126],[-105.04431,38.24113],[-105.04446,38.24104],[-105.04465,38.24094],[-105.04483,38.24083],[-105.04502,38.24072],[-105.04521,38.24061],[-105.04557,38.2404],[-105.04575,38.2403],[-105.04612,38.24008],[-105.04622,38.24002],[-105.04631,38.23997],[-105.04652,38.23985],[-105.04704,38.23955],[-105.04719,38.23946],[-105.04744,38.23931],[-105.04771,38.23915],[-105.0478,38.2391],[-105.0479,38.23904],[-105.04836,38.23878],[-105.04845,38.23872],[-105.04854,38.23867],[-105.04882,38.23851],[-105.04901,38.2384],[-105.04933,38.23821],[-105.04953,38.2381],[-105.04966,38.23804],[-105.04981,38.23797],[-105.04996,38.23792],[-105.05013,38.23786],[-105.05027,38.23782],[-105.05045,38.23778],[-105.05065,38.23775],[-105.05081,38.23774],[-105.05084,38.23774],[-105.05094,38.23773],[-105.05114,38.23773],[-105.05131,38.23774],[-105.05145,38.23775],[-105.05167,38.23778],[-105.05187,38.23783],[-105.05197,38.23786],[-105.05208,38.23789],[-105.05209,38.23789],[-105.05218,38.23793],[-105.05228,38.23797],[-105.05249,38.23807],[-105.05265,38.23815],[-105.05276,38.23822],[-105.0529,38.23832],[-105.053,38.23839],[-105.05308,38.23847],[-105.05318,38.23856],[-105.05338,38.23879],[-105.0535,38.23897],[-105.05355,38.23908],[-105.0536,38.23916],[-105.05364,38.23925],[-105.05368,38.23933],[-105.05371,38.23941],[-105.05393,38.23993],[-105.05398,38.24004],[-105.054,38.2401],[-105.05404,38.24019],[-105.05426,38.24079],[-105.0543,38.24088],[-105.05433,38.24096],[-105.05436,38.24105],[-105.05442,38.2412],[-105.0545,38.24139],[-105.05462,38.24161],[-105.05464,38.24164],[-105.05469,38.24172],[-105.05474,38.2418],[-105.05476,38.24183],[-105.05489,38.24201],[-105.05504,38.24218],[-105.05522,38.24235],[-105.05526,38.24239],[-105.05534,38.24246],[-105.05537,38.24249],[-105.05547,38.24257],[-105.05561,38.24267],[-105.05578,38.24278],[-105.05594,38.24287],[-105.05613,38.24297],[-105.05662,38.24316],[-105.05689,38.24326],[-105.05704,38.24329],[-105.05726,38.24333],[-105.0576,38.2434],[-105.05812,38.24342],[-105.05886,38.24342],[-105.05954,38.24341],[-105.05977,38.24341],[-105.06069,38.2434],[-105.06092,38.2434],[-105.06252,38.24339],[-105.0632,38.24338],[-105.06548,38.24336],[-105.06641,38.24334],[-105.06796,38.24331],[-105.07145,38.24327],[-105.07262,38.24325],[-105.07372,38.24325],[-105.07387,38.24325],[-105.07434,38.24325],[-105.07537,38.24326],[-105.07616,38.24326],[-105.0766,38.24326],[-105.07831,38.24327],[-105.07866,38.24327],[-105.07891,38.24327],[-105.07916,38.24326],[-105.07945,38.24323],[-105.07966,38.24319],[-105.0798,38.24314],[-105.07989,38.24311],[-105.08,38.24306],[-105.08014,38.24299],[-105.08036,38.24283],[-105.08052,38.24267],[-105.08062,38.24254],[-105.08071,38.24239],[-105.08078,38.24221],[-105.08095,38.24169],[-105.08101,38.24151],[-105.08101,38.24149],[-105.08112,38.24118],[-105.08123,38.24079],[-105.08135,38.24049],[-105.08149,38.2402],[-105.08151,38.24016],[-105.08168,38.23989],[-105.08176,38.23975],[-105.08187,38.2396],[-105.0819,38.23956],[-105.08199,38.23943],[-105.08202,38.23941],[-105.08227,38.2391],[-105.08252,38.2388],[-105.08258,38.23873],[-105.08279,38.23851],[-105.08298,38.23831],[-105.083,38.23829],[-105.08315,38.23819],[-105.0833,38.2381],[-105.08333,38.23808],[-105.08343,38.23804],[-105.08353,38.238],[-105.08364,38.23797],[-105.08375,38.23794],[-105.08385,38.23792],[-105.08395,38.23792],[-105.08407,38.23792],[-105.08412,38.23792],[-105.08421,38.23793],[-105.08429,38.23794],[-105.08436,38.23795],[-105.08446,38.23797],[-105.08446,38.23797],[-105.08456,38.23776],[-105.08472,38.23756],[-105.08476,38.23752],[-105.08487,38.23741]]}}]}