{"type":"FeatureCollection","features":[{"type":"Feature","properties":{"_gpxType":"trk","name":"729 County Road 395, Wetmore, CO - Antler Liquor Store & Motel, South 6th Street, Westcliffe, CO","coordinateProperties":{},"id":61},"geometry":{"type":"LineString","coordinates":[[-105.08487,38.23741],[-105.08476,38.23752],[-105.08472,38.23756],[-105.08456,38.23776],[-105.08446,38.23797],[-105.08446,38.23797],[-105.08501,38.23812],[-105.08542,38.23824],[-105.0856,38.23828],[-105.08576,38.2383],[-105.08591,38.2383],[-105.08598,38.23829],[-105.08609,38.23826],[-105.08611,38.23825],[-105.08617,38.23823],[-105.08618,38.23823],[-105.0863,38.23817],[-105.08631,38.23816],[-105.08642,38.23811],[-105.0865,38.23806],[-105.08651,38.23805],[-105.08663,38.23797],[-105.08671,38.23791],[-105.08677,38.23785],[-105.08682,38.2378],[-105.08687,38.23773],[-105.08692,38.23767],[-105.08693,38.23765],[-105.08698,38.23756],[-105.08703,38.23747],[-105.08704,38.23743],[-105.08723,38.23697],[-105.08729,38.23679],[-105.08736,38.23662],[-105.08757,38.23611],[-105.08777,38.23561],[-105.088,38.23503],[-105.08825,38.23448],[-105.0886,38.23385],[-105.08863,38.23379],[-105.0889,38.23336],[-105.089,38.2332],[-105.08902,38.23318],[-105.0891,38.23304],[-105.08916,38.23295],[-105.08976,38.2321],[-105.08987,38.23194],[-105.08998,38.23178],[-105.0904,38.23118],[-105.09051,38.23098],[-105.09061,38.23078],[-105.09068,38.23065],[-105.09069,38.23063],[-105.09075,38.23048],[-105.09077,38.23043],[-105.09081,38.23031],[-105.09082,38.23027],[-105.09088,38.23009],[-105.09091,38.22995],[-105.09095,38.22982],[-105.09096,38.22978],[-105.091,38.2296],[-105.09102,38.22953],[-105.09104,38.22942],[-105.09115,38.22889],[-105.09116,38.22881],[-105.09121,38.22853],[-105.09124,38.22836],[-105.09128,38.22818],[-105.09135,38.22776],[-105.09149,38.22704],[-105.09154,38.22675],[-105.09161,38.2264],[-105.09164,38.22622],[-105.09167,38.22604],[-105.09173,38.22569],[-105.09177,38.22551],[-105.0918,38.22535],[-105.09206,38.22395],[-105.09218,38.22332],[-105.09253,38.22146],[-105.0926,38.2211],[-105.09264,38.22092],[-105.09284,38.21986],[-105.09285,38.21983],[-105.09291,38.2195],[-105.09294,38.21932],[-105.09297,38.21915],[-105.093,38.21897],[-105.09307,38.21861],[-105.0931,38.21843],[-105.09314,38.21826],[-105.09315,38.2182],[-105.09347,38.21643],[-105.09352,38.21617],[-105.09367,38.21539],[-105.09382,38.21477],[-105.09386,38.21451],[-105.09387,38.21441],[-105.09395,38.21413],[-105.09402,38.21393],[-105.09421,38.2134],[-105.09439,38.21295],[-105.09463,38.21227],[-105.09466,38.21217],[-105.09486,38.21157],[-105.0949,38.21143],[-105.09504,38.2111],[-105.09524,38.21061],[-105.0955,38.21001],[-105.09568,38.20968],[-105.09577,38.20954],[-105.09585,38.20943],[-105.09602,38.20926],[-105.09633,38.20896],[-105.09634,38.20894],[-105.09657,38.20871],[-105.09671,38.20855],[-105.09684,38.20839],[-105.09695,38.20821],[-105.09701,38.20812],[-105.09703,38.20808],[-105.09711,38.20793],[-105.09721,38.20773],[-105.09739,38.20732],[-105.09746,38.20715],[-105.09748,38.20707],[-105.09751,38.20701],[-105.0976,38.2068],[-105.09781,38.20626],[-105.09784,38.20617],[-105.09787,38.20609],[-105.0979,38.20603],[-105.09795,38.20591],[-105.09808,38.20558],[-105.09815,38.20541],[-105.09827,38.20509],[-105.09842,38.20472],[-105.09849,38.20455],[-105.0985,38.2045],[-105.0986,38.20427],[-105.09871,38.204],[-105.09877,38.20386],[-105.09882,38.20377],[-105.09894,38.20354],[-105.09917,38.20314],[-105.09935,38.20285],[-105.09951,38.20257],[-105.09962,38.20239],[-105.0997,38.20227],[-105.09983,38.20207],[-105.09989,38.20197],[-105.0999,38.20195],[-105.09993,38.2019],[-105.1001,38.20163],[-105.10023,38.20142],[-105.10032,38.20129],[-105.10059,38.20085],[-105.10084,38.20045],[-105.10089,38.20036],[-105.10091,38.20033],[-105.10094,38.20029],[-105.10115,38.19995],[-105.10134,38.19964],[-105.10138,38.19957],[-105.1015,38.19939],[-105.10154,38.19932],[-105.10164,38.19916],[-105.10165,38.19914],[-105.1018,38.1989],[-105.10184,38.19883],[-105.10198,38.1986],[-105.10209,38.19842],[-105.10213,38.19835],[-105.10217,38.19829],[-105.10223,38.19818],[-105.10232,38.19803],[-105.10232,38.19802],[-105.10243,38.1978],[-105.10245,38.19776],[-105.10249,38.19768],[-105.10253,38.19758],[-105.10256,38.19751],[-105.10259,38.19745],[-105.10267,38.19724],[-105.10268,38.1972],[-105.10269,38.19717],[-105.10275,38.197],[-105.10278,38.19693],[-105.10281,38.19682],[-105.10284,38.19672],[-105.10287,38.19665],[-105.10294,38.19641],[-105.10299,38.19625],[-105.10305,38.19606],[-105.10317,38.19568],[-105.10323,38.19551],[-105.10343,38.19489],[-105.10353,38.19464],[-105.10361,38.19445],[-105.10381,38.194],[-105.10383,38.19396],[-105.10392,38.19379],[-105.104,38.19362],[-105.10403,38.19356],[-105.10409,38.19346],[-105.10418,38.19329],[-105.10423,38.19318],[-105.10426,38.19312],[-105.10434,38.19296],[-105.10437,38.19289],[-105.10441,38.19278],[-105.10446,38.19261],[-105.10451,38.1924],[-105.10454,38.19226],[-105.10458,38.19195],[-105.1046,38.19176],[-105.10462,38.19158],[-105.10466,38.19122],[-105.10468,38.19104],[-105.10476,38.19032],[-105.10479,38.19003],[-105.1048,38.19],[-105.1048,38.18993],[-105.10484,38.18943],[-105.10486,38.18925],[-105.10487,38.18913],[-105.10492,38.18871],[-105.10495,38.18841],[-105.10499,38.18799],[-105.10499,38.1878],[-105.10497,38.18757],[-105.10493,38.18729],[-105.10492,38.18725],[-105.10489,38.18711],[-105.10484,38.18683],[-105.10473,38.18631],[-105.10471,38.18622],[-105.10469,38.18616],[-105.10466,38.18595],[-105.10465,38.18586],[-105.10464,38.18575],[-105.10464,38.18571],[-105.10465,38.1856],[-105.10466,38.18547],[-105.10469,38.18535],[-105.10472,38.18526],[-105.10476,38.18513],[-105.10481,38.18502],[-105.10482,38.185],[-105.10492,38.18482],[-105.10529,38.18421],[-105.10548,38.1839],[-105.10564,38.18366],[-105.1058,38.18339],[-105.1059,38.18323],[-105.10597,38.18313],[-105.10612,38.18291],[-105.10622,38.18279],[-105.10632,38.18269],[-105.10648,38.18255],[-105.10656,38.1825],[-105.10666,38.18243],[-105.10684,38.18231],[-105.10699,38.18224],[-105.10711,38.18219],[-105.10732,38.18212],[-105.10743,38.18209],[-105.10751,38.18207],[-105.10787,38.18198],[-105.10812,38.18192],[-105.10828,38.18187],[-105.10837,38.18185],[-105.10852,38.18178],[-105.10865,38.18171],[-105.10879,38.18164],[-105.109,38.1815],[-105.10924,38.18131],[-105.10975,38.18077],[-105.10981,38.18072],[-105.11021,38.18035],[-105.11053,38.18012],[-105.11073,38.17998],[-105.11085,38.17991],[-105.11128,38.17968],[-105.11134,38.17964],[-105.11153,38.17954],[-105.11162,38.1795],[-105.11186,38.17935],[-105.11223,38.17914],[-105.11247,38.17903],[-105.11269,38.17894],[-105.11288,38.17887],[-105.11309,38.1788],[-105.11313,38.17878],[-105.11367,38.17862],[-105.1143,38.17844],[-105.11478,38.1783],[-105.1155,38.1781],[-105.11615,38.17793],[-105.11642,38.17786],[-105.11671,38.17779],[-105.11673,38.17779],[-105.11695,38.17775],[-105.11699,38.17774],[-105.11731,38.17769],[-105.11756,38.17766],[-105.11812,38.17761],[-105.11865,38.17758],[-105.11905,38.17757],[-105.11939,38.17757],[-105.11988,38.17759],[-105.12073,38.17763],[-105.12101,38.17763],[-105.12122,38.17764],[-105.12136,38.17764],[-105.12149,38.17763],[-105.12162,38.17761],[-105.12171,38.17759],[-105.1218,38.17757],[-105.12189,38.17754],[-105.12196,38.17751],[-105.12207,38.17747],[-105.12226,38.17738],[-105.12261,38.1772],[-105.12305,38.17695],[-105.12343,38.17674],[-105.12405,38.17642],[-105.12435,38.17625],[-105.12488,38.17609],[-105.12518,38.17601],[-105.12521,38.176],[-105.12543,38.17596],[-105.12548,38.17596],[-105.12585,38.1759],[-105.12606,38.17588],[-105.12626,38.17586],[-105.12657,38.17584],[-105.12676,38.17582],[-105.12748,38.17578],[-105.12872,38.1757],[-105.1301,38.17561],[-105.13022,38.17561],[-105.13034,38.17561],[-105.13043,38.17561],[-105.13057,38.17562],[-105.13067,38.17563],[-105.13071,38.17563],[-105.13077,38.17564],[-105.13085,38.17565],[-105.13094,38.17566],[-105.13099,38.17568],[-105.13106,38.17569],[-105.13115,38.17572],[-105.13123,38.17574],[-105.1313,38.17576],[-105.13136,38.17578],[-105.13141,38.1758],[-105.13161,38.17588],[-105.13212,38.17609],[-105.13219,38.17612],[-105.13227,38.17614],[-105.13233,38.17616],[-105.13239,38.17618],[-105.13246,38.1762],[-105.13251,38.17621],[-105.13254,38.17622],[-105.13264,38.17624],[-105.13273,38.17625],[-105.1328,38.17626],[-105.13289,38.17627],[-105.13297,38.17628],[-105.13307,38.17629],[-105.13319,38.17629],[-105.13417,38.17632],[-105.13559,38.17635],[-105.13644,38.17636],[-105.13675,38.17637],[-105.13698,38.17638],[-105.13729,38.17639],[-105.13767,38.1764],[-105.13783,38.17641],[-105.1379,38.17641],[-105.13797,38.17642],[-105.13813,38.17642],[-105.13959,38.1765],[-105.13972,38.1765],[-105.13973,38.1765],[-105.13994,38.17651],[-105.13995,38.17651],[-105.14008,38.1765],[-105.14017,38.1765],[-105.14029,38.17648],[-105.1404,38.17646],[-105.14048,38.17644],[-105.14057,38.17642],[-105.14069,38.17638],[-105.14077,38.17636],[-105.14084,38.17633],[-105.14093,38.17629],[-105.141,38.17625],[-105.14112,38.17619],[-105.1412,38.17614],[-105.14131,38.17607],[-105.14145,38.17598],[-105.14169,38.17582],[-105.14173,38.17578],[-105.14183,38.17571],[-105.14189,38.17565],[-105.14207,38.1755],[-105.14216,38.17542],[-105.1422,38.17538],[-105.1424,38.17518],[-105.14251,38.17506],[-105.14258,38.17498],[-105.14263,38.17492],[-105.14266,38.17488],[-105.14272,38.1748],[-105.14279,38.1747],[-105.14284,38.17464],[-105.14287,38.17459],[-105.14323,38.17406],[-105.14331,38.17396],[-105.14344,38.17381],[-105.14356,38.17369],[-105.14365,38.17362],[-105.14375,38.17355],[-105.14381,38.17352],[-105.14387,38.17349],[-105.14388,38.17348],[-105.14391,38.17347],[-105.144,38.17343],[-105.14407,38.1734],[-105.1442,38.17336],[-105.14428,38.17333],[-105.14435,38.17332],[-105.14443,38.1733],[-105.14458,38.17328],[-105.14465,38.17328],[-105.14476,38.17327],[-105.14486,38.17327],[-105.14494,38.17328],[-105.14504,38.17329],[-105.14511,38.1733],[-105.14517,38.17331],[-105.1452,38.17332],[-105.14522,38.17332],[-105.14528,38.17334],[-105.14541,38.17338],[-105.14542,38.17338],[-105.14551,38.17341],[-105.14558,38.17344],[-105.14562,38.17346],[-105.14568,38.17349],[-105.14579,38.17355],[-105.14581,38.17356],[-105.14584,38.17358],[-105.14592,38.17364],[-105.14598,38.17368],[-105.14599,38.17369],[-105.14605,38.17374],[-105.14609,38.17378],[-105.14629,38.17396],[-105.14643,38.17409],[-105.14684,38.17447],[-105.147,38.17461],[-105.1471,38.17468],[-105.14716,38.17472],[-105.14719,38.17474],[-105.14723,38.17475],[-105.14732,38.1748],[-105.14739,38.17483],[-105.14743,38.17485],[-105.14753,38.17488],[-105.14758,38.1749],[-105.14764,38.17491],[-105.14778,38.17494],[-105.14785,38.17495],[-105.14797,38.17496],[-105.14805,38.17496],[-105.14821,38.17496],[-105.1483,38.17495],[-105.14848,38.17493],[-105.14872,38.17488],[-105.14883,38.17485],[-105.14905,38.1748],[-105.14917,38.17477],[-105.14927,38.17475],[-105.14943,38.17472],[-105.14958,38.1747],[-105.14965,38.17469],[-105.14976,38.17468],[-105.14984,38.17468],[-105.14995,38.17468],[-105.15002,38.17468],[-105.15018,38.17469],[-105.15027,38.17469],[-105.1504,38.17471],[-105.15048,38.17472],[-105.1506,38.17474],[-105.15062,38.17475],[-105.15071,38.17476],[-105.15087,38.1748],[-105.15107,38.17485],[-105.15157,38.17497],[-105.15175,38.17501],[-105.1518,38.17502],[-105.15188,38.17502],[-105.15195,38.17503],[-105.15196,38.17503],[-105.15205,38.17503],[-105.15215,38.17503],[-105.15217,38.17503],[-105.15222,38.17502],[-105.15228,38.17502],[-105.15241,38.17499],[-105.15254,38.17496],[-105.15264,38.17493],[-105.15275,38.17488],[-105.15286,38.17482],[-105.15297,38.17476],[-105.15311,38.17467],[-105.15322,38.17459],[-105.15345,38.17441],[-105.15354,38.17433],[-105.15387,38.17403],[-105.15408,38.17385],[-105.15417,38.17378],[-105.15444,38.1736],[-105.15456,38.17352],[-105.15462,38.17348],[-105.15481,38.17335],[-105.15508,38.1732],[-105.15539,38.17303],[-105.15556,38.17296],[-105.15563,38.17293],[-105.15576,38.17288],[-105.15578,38.17288],[-105.15607,38.17278],[-105.1562,38.17273],[-105.15639,38.17266],[-105.15643,38.17265],[-105.15651,38.17261],[-105.15659,38.17258],[-105.15659,38.17257],[-105.15669,38.17253],[-105.15682,38.17245],[-105.15692,38.17239],[-105.15695,38.17236],[-105.15706,38.17228],[-105.15714,38.17221],[-105.15726,38.17211],[-105.15733,38.17204],[-105.15741,38.17196],[-105.15745,38.17191],[-105.15769,38.17171],[-105.15804,38.17145],[-105.15815,38.17138],[-105.15828,38.1713],[-105.15837,38.17125],[-105.15842,38.17123],[-105.15847,38.17121],[-105.15856,38.17117],[-105.15862,38.17115],[-105.15863,38.17114],[-105.15873,38.17112],[-105.15887,38.17108],[-105.15893,38.17107],[-105.15903,38.17106],[-105.15906,38.17105],[-105.15909,38.17105],[-105.15922,38.17103],[-105.15928,38.17103],[-105.15932,38.17103],[-105.15947,38.17103],[-105.15952,38.17103],[-105.15962,38.17103],[-105.15982,38.17104],[-105.15995,38.17105],[-105.16008,38.17107],[-105.1602,38.17108],[-105.16028,38.1711],[-105.16042,38.17112],[-105.16049,38.17113],[-105.16109,38.17124],[-105.16131,38.17128],[-105.16138,38.1713],[-105.16174,38.17137],[-105.16215,38.17148],[-105.16238,38.17156],[-105.16256,38.17163],[-105.16273,38.1717],[-105.16287,38.17177],[-105.163,38.17183],[-105.16318,38.17193],[-105.1632,38.17195],[-105.16338,38.17205],[-105.16362,38.17221],[-105.16406,38.17251],[-105.16425,38.17265],[-105.16493,38.17309],[-105.16532,38.17334],[-105.16558,38.17351],[-105.16656,38.17407],[-105.16695,38.17429],[-105.16721,38.17444],[-105.1674,38.17454],[-105.1675,38.17458],[-105.16751,38.17458],[-105.16767,38.17465],[-105.1678,38.17468],[-105.16789,38.17469],[-105.16806,38.17467],[-105.16816,38.17465],[-105.16817,38.17465],[-105.1683,38.17459],[-105.16836,38.17456],[-105.16839,38.17454],[-105.16845,38.1745],[-105.16851,38.17445],[-105.16874,38.17418],[-105.16888,38.17403],[-105.16894,38.17398],[-105.16901,38.17395],[-105.16908,38.17393],[-105.16913,38.17392],[-105.16915,38.17392],[-105.16922,38.17391],[-105.16928,38.17391],[-105.16935,38.17392],[-105.16946,38.17396],[-105.16962,38.17403],[-105.16997,38.17421],[-105.17047,38.17447],[-105.17132,38.17491],[-105.17147,38.17499],[-105.17154,38.17503],[-105.17172,38.17512],[-105.17183,38.17515],[-105.17196,38.17516],[-105.17214,38.17515],[-105.17225,38.17514],[-105.17246,38.17506],[-105.17259,38.17498],[-105.17269,38.1749],[-105.17274,38.17486],[-105.17283,38.17477],[-105.17292,38.17466],[-105.17294,38.17461],[-105.17295,38.17456],[-105.17298,38.17445],[-105.17298,38.17435],[-105.17298,38.17424],[-105.17303,38.17403],[-105.17309,38.1739],[-105.17312,38.17385],[-105.17322,38.17375],[-105.17333,38.1737],[-105.17344,38.17367],[-105.17348,38.17366],[-105.17368,38.17364],[-105.17383,38.17364],[-105.174,38.17363],[-105.17413,38.17361],[-105.17425,38.17357],[-105.17435,38.17351],[-105.17453,38.17336],[-105.17478,38.17301],[-105.17489,38.17285],[-105.17501,38.17274],[-105.17512,38.17268],[-105.1752,38.17267],[-105.17532,38.17268],[-105.17544,38.17271],[-105.17555,38.17275],[-105.1757,38.1728],[-105.17595,38.17291],[-105.17597,38.17291],[-105.17615,38.17299],[-105.17646,38.17312],[-105.17665,38.17317],[-105.17676,38.1732],[-105.17689,38.1732],[-105.17704,38.17319],[-105.17709,38.17317],[-105.17718,38.17314],[-105.17722,38.17312],[-105.17727,38.1731],[-105.1774,38.17302],[-105.17749,38.17298],[-105.17756,38.17293],[-105.17761,38.17289],[-105.17768,38.17281],[-105.17774,38.17271],[-105.17781,38.17256],[-105.17784,38.17245],[-105.17786,38.17231],[-105.17791,38.17209],[-105.17791,38.17206],[-105.17793,38.17198],[-105.17797,38.17189],[-105.178,38.17185],[-105.17803,38.17181],[-105.17812,38.17173],[-105.17827,38.17161],[-105.17865,38.17137],[-105.1788,38.17127],[-105.17883,38.17125],[-105.17892,38.17119],[-105.17898,38.17117],[-105.17904,38.17114],[-105.17912,38.17111],[-105.1792,38.17109],[-105.17932,38.17106],[-105.17941,38.17105],[-105.1795,38.17105],[-105.17963,38.17106],[-105.17964,38.17106],[-105.17975,38.17107],[-105.17984,38.17109],[-105.17986,38.1711],[-105.18046,38.17123],[-105.1806,38.17126],[-105.18069,38.17128],[-105.18075,38.17129],[-105.1808,38.17129],[-105.18091,38.1713],[-105.18097,38.1713],[-105.18106,38.17131],[-105.1812,38.17131],[-105.18133,38.17131],[-105.18147,38.17129],[-105.18166,38.17125],[-105.18197,38.17116],[-105.18227,38.17107],[-105.18242,38.17102],[-105.18261,38.17097],[-105.18281,38.17093],[-105.18292,38.17091],[-105.18307,38.17088],[-105.18333,38.17085],[-105.18359,38.17082],[-105.18382,38.17081],[-105.18385,38.17081],[-105.18392,38.17081],[-105.18408,38.17079],[-105.18409,38.17079],[-105.18422,38.17076],[-105.18427,38.17075],[-105.18436,38.17073],[-105.18448,38.17069],[-105.18451,38.17068],[-105.18457,38.17065],[-105.18468,38.17059],[-105.1847,38.17058],[-105.18476,38.17054],[-105.18484,38.17048],[-105.18493,38.17039],[-105.18503,38.17025],[-105.18522,38.16994],[-105.18528,38.16984],[-105.18529,38.16982],[-105.18534,38.16973],[-105.18539,38.16966],[-105.18549,38.16949],[-105.1855,38.16949],[-105.18558,38.16939],[-105.1856,38.16937],[-105.18562,38.16935],[-105.18565,38.16932],[-105.18574,38.16925],[-105.18584,38.16918],[-105.18592,38.16915],[-105.18606,38.16909],[-105.18615,38.16906],[-105.18617,38.16905],[-105.18618,38.16905],[-105.18638,38.16899],[-105.18714,38.16881],[-105.18768,38.16867],[-105.18792,38.1686],[-105.188,38.16857],[-105.18808,38.16854],[-105.18816,38.16849],[-105.18821,38.16846],[-105.18826,38.16842],[-105.18832,38.16838],[-105.18839,38.1683],[-105.18844,38.16823],[-105.18855,38.16806],[-105.18862,38.16793],[-105.18938,38.16667],[-105.18942,38.16659],[-105.18947,38.16648],[-105.18954,38.16631],[-105.18961,38.16612],[-105.18965,38.1659],[-105.18966,38.16586],[-105.18971,38.16559],[-105.18972,38.16552],[-105.18974,38.16542],[-105.18977,38.16531],[-105.18979,38.16524],[-105.18983,38.16514],[-105.18985,38.16508],[-105.18986,38.16508],[-105.1899,38.16499],[-105.18994,38.16493],[-105.19,38.16484],[-105.19006,38.16477],[-105.1901,38.16473],[-105.19014,38.1647],[-105.19019,38.16466],[-105.19025,38.16461],[-105.19029,38.16459],[-105.19035,38.16454],[-105.19044,38.16449],[-105.19057,38.16443],[-105.19091,38.16432],[-105.19116,38.16426],[-105.19132,38.16426],[-105.19141,38.16426],[-105.1915,38.16425],[-105.19166,38.16426],[-105.19174,38.16427],[-105.19206,38.16433],[-105.19217,38.16436],[-105.19371,38.16477],[-105.19393,38.16483],[-105.19458,38.16501],[-105.19534,38.16522],[-105.19561,38.16529],[-105.19704,38.16567],[-105.19739,38.16576],[-105.19761,38.16582],[-105.19804,38.16593],[-105.19826,38.16598],[-105.19827,38.16599],[-105.1987,38.16608],[-105.19892,38.16613],[-105.19917,38.16618],[-105.19959,38.16625],[-105.20089,38.16649],[-105.20119,38.16654],[-105.20133,38.16656],[-105.20144,38.16658],[-105.20155,38.16659],[-105.20174,38.16661],[-105.20178,38.16661],[-105.20199,38.16663],[-105.20211,38.16663],[-105.20246,38.16664],[-105.20285,38.16663],[-105.20314,38.16661],[-105.20341,38.16657],[-105.20369,38.16653],[-105.20402,38.16646],[-105.20404,38.16645],[-105.20426,38.1664],[-105.20449,38.16635],[-105.20513,38.16617],[-105.20524,38.16614],[-105.20535,38.16611],[-105.20573,38.166],[-105.20618,38.16588],[-105.20643,38.16583],[-105.20666,38.1658],[-105.20667,38.1658],[-105.20686,38.1658],[-105.20705,38.1658],[-105.20728,38.16582],[-105.20734,38.16582],[-105.20795,38.16588],[-105.20893,38.16597],[-105.20934,38.16601],[-105.20969,38.16605],[-105.21017,38.1661],[-105.21052,38.16614],[-105.21065,38.16615],[-105.21075,38.16617],[-105.21083,38.16618],[-105.21102,38.16621],[-105.21132,38.16627],[-105.21153,38.16631],[-105.21178,38.16637],[-105.21229,38.1665],[-105.21273,38.1666],[-105.21345,38.16676],[-105.21369,38.16681],[-105.21394,38.16685],[-105.21421,38.16689],[-105.2148,38.16696],[-105.21762,38.16728],[-105.21799,38.16729],[-105.21814,38.16729],[-105.21828,38.16728],[-105.21848,38.16726],[-105.21864,38.16723],[-105.21894,38.16712],[-105.21989,38.16664],[-105.22008,38.16655],[-105.22025,38.16646],[-105.22065,38.16627],[-105.22186,38.16567],[-105.22234,38.16542],[-105.22295,38.16513],[-105.22307,38.16507],[-105.22327,38.16498],[-105.22355,38.16488],[-105.22381,38.16479],[-105.22409,38.16471],[-105.22425,38.16468],[-105.22434,38.16466],[-105.22451,38.16463],[-105.22502,38.16457],[-105.226,38.16444],[-105.22608,38.16443],[-105.22621,38.16441],[-105.22638,38.16439],[-105.22727,38.16427],[-105.22776,38.16423],[-105.22796,38.16422],[-105.22811,38.16421],[-105.22819,38.16421],[-105.22825,38.16421],[-105.22842,38.16421],[-105.22913,38.16421],[-105.23021,38.1642],[-105.23059,38.16419],[-105.23089,38.16417],[-105.231,38.16416],[-105.23126,38.16413],[-105.23162,38.16409],[-105.23169,38.16408],[-105.23184,38.16406],[-105.2319,38.16406],[-105.23214,38.16403],[-105.23348,38.16386],[-105.23393,38.1638],[-105.23406,38.16379],[-105.23462,38.16374],[-105.23491,38.16371],[-105.2352,38.1637],[-105.23531,38.16369],[-105.23566,38.16368],[-105.23621,38.16366],[-105.23686,38.16364],[-105.23783,38.16362],[-105.23827,38.16362],[-105.23877,38.16361],[-105.23953,38.16358],[-105.23999,38.16353],[-105.24035,38.16348],[-105.24077,38.16343],[-105.24144,38.16334],[-105.24288,38.16315],[-105.24342,38.16308],[-105.24438,38.16295],[-105.24461,38.16292],[-105.24534,38.16282],[-105.24554,38.16279],[-105.24596,38.16272],[-105.24617,38.16267],[-105.24657,38.16257],[-105.24682,38.16249],[-105.24706,38.16241],[-105.24737,38.16231],[-105.24766,38.1622],[-105.24786,38.16212],[-105.24802,38.16205],[-105.24843,38.16189],[-105.24871,38.16179],[-105.2489,38.16175],[-105.249,38.16173],[-105.24912,38.16171],[-105.24967,38.1616],[-105.24979,38.16158],[-105.25016,38.16153],[-105.25024,38.16151],[-105.25046,38.16148],[-105.25069,38.16144],[-105.25071,38.16143],[-105.25153,38.16127],[-105.25202,38.16116],[-105.2524,38.16107],[-105.2528,38.16097],[-105.25321,38.16087],[-105.25355,38.1608],[-105.25365,38.16078],[-105.25419,38.16068],[-105.25444,38.16064],[-105.25512,38.16054],[-105.25529,38.16052],[-105.25562,38.16045],[-105.25601,38.16037],[-105.25659,38.16025],[-105.25667,38.16023],[-105.25715,38.16014],[-105.25756,38.16008],[-105.25765,38.16006],[-105.25779,38.16005],[-105.2582,38.15999],[-105.25846,38.15996],[-105.25877,38.15993],[-105.25921,38.15991],[-105.25966,38.15991],[-105.25985,38.15993],[-105.26005,38.15994],[-105.26036,38.16001],[-105.26071,38.16008],[-105.26076,38.1601],[-105.26122,38.16022],[-105.26136,38.16026],[-105.26186,38.1604],[-105.26286,38.1607],[-105.263,38.16074],[-105.26329,38.16083],[-105.2635,38.16089],[-105.26393,38.16102],[-105.26414,38.16108],[-105.26454,38.1612],[-105.26479,38.16127],[-105.265,38.16133],[-105.26543,38.16145],[-105.26569,38.16152],[-105.26608,38.16163],[-105.26629,38.16169],[-105.26673,38.16181],[-105.26693,38.16186],[-105.26694,38.16187],[-105.26739,38.16202],[-105.26799,38.16223],[-105.26857,38.16245],[-105.26881,38.16254],[-105.26895,38.16259],[-105.26943,38.16279],[-105.26962,38.16288],[-105.27061,38.16336],[-105.27087,38.16349],[-105.27117,38.16365],[-105.27156,38.16384],[-105.27213,38.16413],[-105.27231,38.16422],[-105.27233,38.16423],[-105.27257,38.16433],[-105.27273,38.16439],[-105.27284,38.16444],[-105.27286,38.16445],[-105.27299,38.16448],[-105.27316,38.16453],[-105.27335,38.16458],[-105.27374,38.16465],[-105.27382,38.16466],[-105.27397,38.16467],[-105.27414,38.16469],[-105.2754,38.1647],[-105.27895,38.16468],[-105.27918,38.16468],[-105.27985,38.16468],[-105.2817,38.16469],[-105.28278,38.16468],[-105.2837,38.16468],[-105.28393,38.16468],[-105.28509,38.16468],[-105.28527,38.16468],[-105.28599,38.16466],[-105.286,38.16466],[-105.28645,38.16462],[-105.2871,38.16455],[-105.28757,38.16446],[-105.28798,38.16435],[-105.28814,38.1643],[-105.2883,38.16425],[-105.28867,38.16411],[-105.28942,38.16381],[-105.28957,38.16375],[-105.28963,38.16373],[-105.29166,38.16289],[-105.29186,38.16281],[-105.29311,38.1623],[-105.29409,38.1619],[-105.2943,38.16182],[-105.29471,38.16166],[-105.29494,38.16156],[-105.29674,38.16083],[-105.29917,38.15984],[-105.29938,38.15975],[-105.30019,38.15942],[-105.30039,38.15934],[-105.30141,38.15893],[-105.30263,38.15843],[-105.30336,38.15813],[-105.3046,38.15763],[-105.30487,38.15753],[-105.30513,38.15743],[-105.30554,38.15732],[-105.30622,38.15718],[-105.30661,38.15711],[-105.30709,38.15701],[-105.30742,38.15691],[-105.3078,38.15676],[-105.30808,38.15662],[-105.3086,38.15632],[-105.30868,38.15627],[-105.30966,38.15565],[-105.3108,38.15494],[-105.31103,38.15481],[-105.31175,38.15443],[-105.31248,38.15405],[-105.3126,38.15399],[-105.31317,38.15369],[-105.31351,38.15352],[-105.31421,38.15316],[-105.31428,38.15312],[-105.31462,38.15293],[-105.31482,38.15279],[-105.3149,38.15274],[-105.31508,38.15259],[-105.31534,38.15236],[-105.31562,38.15208],[-105.31618,38.15148],[-105.31708,38.15053],[-105.31749,38.1501],[-105.31809,38.14947],[-105.31897,38.14857],[-105.31915,38.14836],[-105.3193,38.14823],[-105.31952,38.14808],[-105.31965,38.14799],[-105.3197,38.14796],[-105.31988,38.14786],[-105.32026,38.1477],[-105.32029,38.14769],[-105.3205,38.14761],[-105.32071,38.14752],[-105.321,38.14738],[-105.32108,38.14733],[-105.32134,38.14719],[-105.32172,38.14692],[-105.32197,38.14676],[-105.32214,38.14664],[-105.3229,38.14614],[-105.32307,38.14602],[-105.32377,38.14559],[-105.324,38.14547],[-105.32427,38.14534],[-105.32463,38.14519],[-105.3253,38.14497],[-105.32535,38.14496],[-105.32556,38.14489],[-105.32576,38.14484],[-105.32578,38.14483],[-105.32622,38.14469],[-105.32648,38.14461],[-105.32663,38.14457],[-105.3269,38.1445],[-105.32733,38.14436],[-105.32795,38.14417],[-105.32807,38.14414],[-105.32823,38.14409],[-105.32852,38.14401],[-105.32874,38.14396],[-105.32897,38.14392],[-105.32919,38.14389],[-105.32928,38.14387],[-105.32941,38.14387],[-105.32943,38.14387],[-105.32964,38.14389],[-105.32969,38.14389],[-105.32987,38.14391],[-105.33009,38.14394],[-105.33017,38.14395],[-105.33032,38.14398],[-105.33054,38.14402],[-105.33061,38.14403],[-105.33076,38.14405],[-105.3309,38.14407],[-105.33118,38.14409],[-105.33122,38.14408],[-105.33145,38.14407],[-105.3315,38.14406],[-105.33157,38.14405],[-105.33179,38.14401],[-105.33189,38.14398],[-105.33222,38.14388],[-105.33231,38.14385],[-105.33252,38.14378],[-105.33273,38.14371],[-105.33311,38.14358],[-105.33329,38.14354],[-105.33352,38.14352],[-105.3338,38.14351],[-105.33416,38.14353],[-105.33449,38.1436],[-105.33494,38.14374],[-105.33505,38.14379],[-105.3352,38.14389],[-105.33584,38.14428],[-105.33594,38.14434],[-105.33616,38.14446],[-105.33635,38.14455],[-105.33652,38.14462],[-105.33663,38.14464],[-105.33673,38.14466],[-105.33685,38.14468],[-105.33695,38.1447],[-105.3372,38.14471],[-105.33736,38.1447],[-105.33753,38.14468],[-105.3376,38.14468],[-105.33775,38.14463],[-105.33778,38.14463],[-105.33798,38.14455],[-105.33848,38.14428],[-105.33874,38.14412],[-105.33903,38.14389],[-105.33923,38.14374],[-105.33951,38.14351],[-105.33985,38.14324],[-105.34014,38.14299],[-105.34044,38.14272],[-105.34054,38.14263],[-105.34155,38.14181],[-105.3423,38.14123],[-105.34245,38.14115],[-105.34265,38.14106],[-105.34289,38.14098],[-105.34313,38.14094],[-105.34344,38.1409],[-105.34376,38.14093],[-105.34407,38.14098],[-105.34478,38.14116],[-105.345,38.14121],[-105.34543,38.14132],[-105.34637,38.14156],[-105.34657,38.14163],[-105.34683,38.14172],[-105.34694,38.14177],[-105.34717,38.14189],[-105.3474,38.14202],[-105.34792,38.14234],[-105.34883,38.14292],[-105.34936,38.14326],[-105.34945,38.14331],[-105.35026,38.14381],[-105.35056,38.144],[-105.35064,38.14406],[-105.35078,38.14416],[-105.3509,38.14424],[-105.35105,38.1444],[-105.3512,38.14458],[-105.35133,38.14478],[-105.35144,38.14501],[-105.35149,38.14523],[-105.35152,38.14544],[-105.35152,38.14547],[-105.3515,38.14574],[-105.35147,38.14598],[-105.35143,38.14623],[-105.35138,38.14651],[-105.35118,38.14758],[-105.35114,38.14776],[-105.35109,38.14805],[-105.35104,38.14829],[-105.35095,38.14884],[-105.35088,38.14918],[-105.35083,38.14937],[-105.35083,38.14955],[-105.35084,38.14972],[-105.35084,38.14975],[-105.35088,38.14989],[-105.35091,38.15002],[-105.35093,38.15007],[-105.35101,38.15024],[-105.35107,38.15038],[-105.3512,38.15056],[-105.35122,38.15058],[-105.3514,38.15076],[-105.35151,38.15083],[-105.35169,38.15093],[-105.35175,38.15097],[-105.35207,38.15112],[-105.35208,38.15112],[-105.35228,38.1512],[-105.35267,38.15136],[-105.35289,38.15145],[-105.3533,38.15161],[-105.35375,38.15175],[-105.35417,38.15186],[-105.35457,38.15194],[-105.3546,38.15194],[-105.35491,38.152],[-105.35538,38.15204],[-105.35579,38.15206],[-105.35613,38.15207],[-105.35671,38.15205],[-105.35688,38.15204],[-105.35707,38.15202],[-105.35779,38.15197],[-105.35802,38.15195],[-105.35846,38.15192],[-105.3587,38.15189],[-105.3589,38.15187],[-105.3592,38.15182],[-105.35936,38.15176],[-105.35947,38.15172],[-105.35974,38.15158],[-105.35996,38.15142],[-105.36031,38.15109],[-105.36071,38.15069],[-105.36085,38.15055],[-105.36113,38.15026],[-105.36127,38.15012],[-105.36132,38.15007],[-105.36156,38.14985],[-105.36185,38.14958],[-105.3624,38.14911],[-105.36283,38.14881],[-105.36313,38.14861],[-105.36357,38.14833],[-105.36402,38.14808],[-105.36432,38.14792],[-105.36439,38.14789],[-105.36442,38.14787],[-105.36484,38.14764],[-105.36525,38.14745],[-105.36564,38.14725],[-105.36606,38.14703],[-105.36624,38.14694],[-105.3663,38.14691],[-105.36678,38.14667],[-105.36721,38.14646],[-105.36779,38.14617],[-105.36837,38.14588],[-105.3701,38.14502],[-105.37187,38.14413],[-105.372,38.14407],[-105.37242,38.14386],[-105.37258,38.14378],[-105.37301,38.14358],[-105.3732,38.14348],[-105.37369,38.14324],[-105.37378,38.1432],[-105.37436,38.14291],[-105.37499,38.14259],[-105.37558,38.1423],[-105.37668,38.14176],[-105.37688,38.14166],[-105.37749,38.14136],[-105.37751,38.14135],[-105.37845,38.14092],[-105.37959,38.1404],[-105.37979,38.14031],[-105.37983,38.14029],[-105.38039,38.14005],[-105.38083,38.13987],[-105.38119,38.13971],[-105.38139,38.13962],[-105.38167,38.1395],[-105.3818,38.13945],[-105.3822,38.13928],[-105.3824,38.1392],[-105.38248,38.13916],[-105.3836,38.13873],[-105.38405,38.13858],[-105.3842,38.13853],[-105.38469,38.13838],[-105.3849,38.13831],[-105.38512,38.13824],[-105.38533,38.13818],[-105.38606,38.13799],[-105.38682,38.13782],[-105.38686,38.13781],[-105.38766,38.13767],[-105.38842,38.13755],[-105.38849,38.13754],[-105.38865,38.13752],[-105.38933,38.13744],[-105.38941,38.13743],[-105.38955,38.13742],[-105.39001,38.13738],[-105.39069,38.13732],[-105.39136,38.13725],[-105.39137,38.13725],[-105.39183,38.13722],[-105.39196,38.13721],[-105.39205,38.1372],[-105.39228,38.13718],[-105.39251,38.13716],[-105.39274,38.13714],[-105.39287,38.13713],[-105.39296,38.13712],[-105.39319,38.1371],[-105.39391,38.13703],[-105.39455,38.13698],[-105.39478,38.13696],[-105.39523,38.13692],[-105.39532,38.13691],[-105.39592,38.13686],[-105.39705,38.13675],[-105.39718,38.13674],[-105.39728,38.13673],[-105.39842,38.13664],[-105.3991,38.13658],[-105.40114,38.13641],[-105.40137,38.13639],[-105.40251,38.1363],[-105.40365,38.1362],[-105.40396,38.13617],[-105.40432,38.13613],[-105.40433,38.13613],[-105.40497,38.13608],[-105.40503,38.13607],[-105.40637,38.13595],[-105.40683,38.1359],[-105.40728,38.13586],[-105.40747,38.13584],[-105.40864,38.13574],[-105.40887,38.13572],[-105.41014,38.13562],[-105.41028,38.13559],[-105.41114,38.13553],[-105.41133,38.13551],[-105.41182,38.13546],[-105.41205,38.13544],[-105.41215,38.13543],[-105.4123,38.13541],[-105.41296,38.13536],[-105.41319,38.13534],[-105.41478,38.1352],[-105.41546,38.13514],[-105.41569,38.13512],[-105.41626,38.13507],[-105.41637,38.13507],[-105.4173,38.13502],[-105.4182,38.13501],[-105.4187,38.135],[-105.41948,38.13502],[-105.4198,38.13503],[-105.42002,38.13505],[-105.42017,38.13505],[-105.42052,38.13508],[-105.42072,38.1351],[-105.42093,38.13512],[-105.42108,38.13514],[-105.4213,38.13517],[-105.42138,38.13518],[-105.42161,38.13521],[-105.42177,38.13523],[-105.42314,38.13545],[-105.42318,38.13545],[-105.42386,38.13555],[-105.42498,38.1357],[-105.42543,38.13576],[-105.42546,38.13577],[-105.42566,38.13579],[-105.42589,38.13581],[-105.42618,38.13585],[-105.42657,38.13587],[-105.4268,38.13588],[-105.42726,38.1359],[-105.42771,38.13591],[-105.42817,38.13593],[-105.42908,38.13595],[-105.42919,38.13595],[-105.42931,38.13596],[-105.42995,38.13596],[-105.43048,38.13598],[-105.43053,38.13598],[-105.43099,38.13599],[-105.43109,38.13599],[-105.43117,38.13599],[-105.43121,38.13599],[-105.4319,38.13601],[-105.43437,38.13607],[-105.43487,38.13608],[-105.43533,38.13609],[-105.43597,38.1361],[-105.43647,38.13611],[-105.4367,38.13612],[-105.43693,38.13612],[-105.43757,38.13614],[-105.43784,38.13614],[-105.43807,38.13615],[-105.4387,38.13616],[-105.43871,38.13616],[-105.43901,38.13617],[-105.43967,38.13618],[-105.43992,38.13618],[-105.44063,38.1362],[-105.44085,38.13621],[-105.44085,38.13621],[-105.44222,38.13624],[-105.44285,38.13626],[-105.44387,38.13628],[-105.44468,38.13631],[-105.44541,38.13633],[-105.44615,38.13635],[-105.44698,38.13636],[-105.4486,38.13639],[-105.44902,38.13637],[-105.44906,38.13637],[-105.4494,38.13632],[-105.44968,38.13627],[-105.44982,38.13623],[-105.45023,38.13613],[-105.45131,38.13586],[-105.4517,38.13578],[-105.4519,38.13575],[-105.45193,38.13575],[-105.45227,38.13573],[-105.45349,38.13574],[-105.4538,38.13575],[-105.45449,38.13576],[-105.4557,38.13579],[-105.45657,38.13581],[-105.45668,38.13581],[-105.45689,38.13581],[-105.45742,38.13583],[-105.45764,38.13583],[-105.45794,38.13585],[-105.4584,38.13586],[-105.45884,38.13586],[-105.45916,38.13588],[-105.45962,38.13589],[-105.45981,38.1359],[-105.45997,38.1359],[-105.46042,38.13591],[-105.46134,38.13593],[-105.46191,38.13593],[-105.46252,38.13594],[-105.4631,38.13595],[-105.46374,38.13597],[-105.46374,38.13597],[-105.46375,38.13578]]}}]}