{"type":"FeatureCollection","features":[{"type":"Feature","properties":{"_gpxType":"trk","name":"Antler Liquor Store & Motel, South 6th Street, Westcliffe, CO - The Salida Hostel, Colorado 291, Salida, CO","coordinateProperties":{},"id":62},"geometry":{"type":"LineString","coordinates":[[-105.46375,38.13578],[-105.46374,38.13597],[-105.46374,38.13597],[-105.46431,38.13599],[-105.46494,38.13599],[-105.46556,38.136],[-105.46568,38.13601],[-105.46617,38.13601],[-105.46737,38.13604],[-105.46737,38.13604],[-105.46735,38.13656],[-105.46734,38.13666],[-105.46734,38.13672],[-105.46735,38.13714],[-105.46736,38.1372],[-105.46737,38.1373],[-105.46739,38.13741],[-105.46745,38.13765],[-105.46747,38.13769],[-105.4675,38.13779],[-105.46759,38.13806],[-105.46769,38.13822],[-105.46777,38.13835],[-105.46796,38.13862],[-105.46803,38.13869],[-105.46822,38.13887],[-105.46844,38.13908],[-105.46865,38.13927],[-105.4688,38.13938],[-105.46905,38.13954],[-105.46919,38.13964],[-105.46972,38.14004],[-105.47152,38.14128],[-105.47195,38.1416],[-105.47211,38.14173],[-105.47228,38.14186],[-105.47253,38.14204],[-105.473,38.14242],[-105.47311,38.14251],[-105.4733,38.14269],[-105.47343,38.14281],[-105.47358,38.14297],[-105.47376,38.14318],[-105.47404,38.14351],[-105.47441,38.14403],[-105.47441,38.14404],[-105.4747,38.14451],[-105.47496,38.14499],[-105.47535,38.14576],[-105.47575,38.14658],[-105.47643,38.14798],[-105.47706,38.14928],[-105.47718,38.14952],[-105.47737,38.14991],[-105.47794,38.15107],[-105.47837,38.15194],[-105.47919,38.15361],[-105.47928,38.15378],[-105.47987,38.15497],[-105.47996,38.15518],[-105.4802,38.15569],[-105.48057,38.15644],[-105.48074,38.15683],[-105.48188,38.15918],[-105.48275,38.16097],[-105.48336,38.16222],[-105.48347,38.16242],[-105.48353,38.16252],[-105.48358,38.1626],[-105.4836,38.16265],[-105.48361,38.16267],[-105.48361,38.16269],[-105.48362,38.16269],[-105.48377,38.16291],[-105.48386,38.16302],[-105.48397,38.16315],[-105.48415,38.16333],[-105.48435,38.1635],[-105.48438,38.16353],[-105.48458,38.16369],[-105.48492,38.16398],[-105.48516,38.16418],[-105.48553,38.16447],[-105.48582,38.16469],[-105.48736,38.16591],[-105.48776,38.16623],[-105.48792,38.16636],[-105.48828,38.16664],[-105.48905,38.16723],[-105.48945,38.16754],[-105.4899,38.1678],[-105.49027,38.16798],[-105.49065,38.16813],[-105.49115,38.16828],[-105.49139,38.16834],[-105.49153,38.16838],[-105.4916,38.1684],[-105.49183,38.16844],[-105.49189,38.16845],[-105.49257,38.16857],[-105.49406,38.16884],[-105.4945,38.16892],[-105.49472,38.16896],[-105.49606,38.16921],[-105.49729,38.16942],[-105.49833,38.16962],[-105.49852,38.16965],[-105.49855,38.16966],[-105.49882,38.16971],[-105.49944,38.16982],[-105.4997,38.16989],[-105.50003,38.16996],[-105.50038,38.17008],[-105.50055,38.17014],[-105.50077,38.17023],[-105.50096,38.17031],[-105.50113,38.17039],[-105.50137,38.17052],[-105.50154,38.17062],[-105.5017,38.17073],[-105.50184,38.17083],[-105.50198,38.17093],[-105.50214,38.17107],[-105.50229,38.17121],[-105.50258,38.17152],[-105.50271,38.17169],[-105.50284,38.17187],[-105.50304,38.17217],[-105.50313,38.1723],[-105.50315,38.17233],[-105.50345,38.17282],[-105.50358,38.17301],[-105.5041,38.17381],[-105.50424,38.17401],[-105.50424,38.17402],[-105.50473,38.17474],[-105.50506,38.17524],[-105.50546,38.17585],[-105.50582,38.17638],[-105.50589,38.17649],[-105.50683,38.17797],[-105.50744,38.17888],[-105.50771,38.17931],[-105.50842,38.18036],[-105.50846,38.18041],[-105.50889,38.18105],[-105.50895,38.18115],[-105.50904,38.1813],[-105.50958,38.18214],[-105.50985,38.18255],[-105.50999,38.18275],[-105.51006,38.18285],[-105.51033,38.18324],[-105.51055,38.18353],[-105.51078,38.18381],[-105.51102,38.18406],[-105.51122,38.18426],[-105.51141,38.18444],[-105.51163,38.18463],[-105.5117,38.18469],[-105.51194,38.18488],[-105.51256,38.18536],[-105.51333,38.18596],[-105.51373,38.18627],[-105.51414,38.18658],[-105.51431,38.18671],[-105.51452,38.18687],[-105.51512,38.18734],[-105.5152,38.18739],[-105.51616,38.18813],[-105.51644,38.18834],[-105.51661,38.18846],[-105.51685,38.18864],[-105.51756,38.18913],[-105.51816,38.18951],[-105.51872,38.18984],[-105.51942,38.19027],[-105.51962,38.19039],[-105.51988,38.19057],[-105.5207,38.19106],[-105.52085,38.19115],[-105.52135,38.19146],[-105.5218,38.19173],[-105.52242,38.19212],[-105.5231,38.19255],[-105.52375,38.19303],[-105.52422,38.19338],[-105.52522,38.19413],[-105.52574,38.19452],[-105.5259,38.19465],[-105.52667,38.19523],[-105.52673,38.19527],[-105.5269,38.19539],[-105.5281,38.1963],[-105.52822,38.19639],[-105.52838,38.19651],[-105.52854,38.19664],[-105.52865,38.19672],[-105.52967,38.19748],[-105.53019,38.19788],[-105.53019,38.19789],[-105.53073,38.19829],[-105.53103,38.19851],[-105.53149,38.19886],[-105.53183,38.19911],[-105.53191,38.19917],[-105.53224,38.19941],[-105.53238,38.19951],[-105.53284,38.19987],[-105.53331,38.20021],[-105.53357,38.20041],[-105.53382,38.20059],[-105.53436,38.20098],[-105.53524,38.20166],[-105.5358,38.20207],[-105.5363,38.20245],[-105.53718,38.20311],[-105.53745,38.20332],[-105.53759,38.20342],[-105.53802,38.20376],[-105.5381,38.20382],[-105.53826,38.20395],[-105.53842,38.20408],[-105.53848,38.20413],[-105.53888,38.20448],[-105.53889,38.20448],[-105.53904,38.20462],[-105.53922,38.20478],[-105.53961,38.20517],[-105.53961,38.20518],[-105.54004,38.2056],[-105.54005,38.2056],[-105.54044,38.20603],[-105.5413,38.20694],[-105.5414,38.20704],[-105.54154,38.20718],[-105.54166,38.2073],[-105.54225,38.20791],[-105.54258,38.20826],[-105.54319,38.2089],[-105.54361,38.20931],[-105.54404,38.20976],[-105.54431,38.21005],[-105.54445,38.21019],[-105.54471,38.21046],[-105.54486,38.21062],[-105.54581,38.21159],[-105.5461,38.21191],[-105.54642,38.21223],[-105.5468,38.21263],[-105.5477,38.21367],[-105.54784,38.21383],[-105.54801,38.21403],[-105.54814,38.21418],[-105.54847,38.21456],[-105.54885,38.21501],[-105.54914,38.21534],[-105.54958,38.21584],[-105.54976,38.21605],[-105.55001,38.21635],[-105.55026,38.21665],[-105.55044,38.21687],[-105.55062,38.21711],[-105.55083,38.21746],[-105.55095,38.21773],[-105.55102,38.21794],[-105.55106,38.21813],[-105.55109,38.21831],[-105.55113,38.21858],[-105.5512,38.21911],[-105.5513,38.21976],[-105.55133,38.21998],[-105.55143,38.22065],[-105.55145,38.22083],[-105.55147,38.22093],[-105.55152,38.22136],[-105.55153,38.22143],[-105.55158,38.22172],[-105.5516,38.22186],[-105.55165,38.22211],[-105.55174,38.22244],[-105.55184,38.22273],[-105.55199,38.22317],[-105.55205,38.22329],[-105.55213,38.22346],[-105.55227,38.22374],[-105.55239,38.22396],[-105.55243,38.22403],[-105.5528,38.2246],[-105.55362,38.22589],[-105.55373,38.22605],[-105.55385,38.22624],[-105.55419,38.22677],[-105.55445,38.22718],[-105.5545,38.22726],[-105.55471,38.22758],[-105.55482,38.22778],[-105.55489,38.22794],[-105.55494,38.22811],[-105.55496,38.22832],[-105.55497,38.22849],[-105.55494,38.22871],[-105.55494,38.22872],[-105.55488,38.22892],[-105.55478,38.22918],[-105.55472,38.22932],[-105.55469,38.2294],[-105.5545,38.22982],[-105.55442,38.23008],[-105.55437,38.23033],[-105.55436,38.23068],[-105.55437,38.23073],[-105.55438,38.23084],[-105.55438,38.23088],[-105.55439,38.23095],[-105.55444,38.23113],[-105.55448,38.23125],[-105.55451,38.23133],[-105.55452,38.23136],[-105.55466,38.23166],[-105.55491,38.23218],[-105.55499,38.23234],[-105.55534,38.23306],[-105.55551,38.23338],[-105.55565,38.23361],[-105.55574,38.23375],[-105.55577,38.23379],[-105.5558,38.23383],[-105.55591,38.23397],[-105.55602,38.23409],[-105.5562,38.23425],[-105.55639,38.23442],[-105.55647,38.23447],[-105.55705,38.23478],[-105.5579,38.23522],[-105.55841,38.23547],[-105.55874,38.23566],[-105.55899,38.23579],[-105.55944,38.23601],[-105.55994,38.23626],[-105.55996,38.23628],[-105.56019,38.23639],[-105.56091,38.23677],[-105.56143,38.23704],[-105.56147,38.23705],[-105.56166,38.23715],[-105.5617,38.23717],[-105.56205,38.23735],[-105.56262,38.23764],[-105.56316,38.23792],[-105.56355,38.23812],[-105.56373,38.23821],[-105.56395,38.23835],[-105.56414,38.23846],[-105.56443,38.23871],[-105.56475,38.23913],[-105.56499,38.23959],[-105.56518,38.23995],[-105.5654,38.24035],[-105.56541,38.24035],[-105.56582,38.24113],[-105.56603,38.24151],[-105.56608,38.2416],[-105.56661,38.2426],[-105.56683,38.243],[-105.56692,38.24317],[-105.56696,38.24325],[-105.56698,38.24334],[-105.56699,38.24336],[-105.56724,38.24385],[-105.56738,38.2441],[-105.56749,38.24428],[-105.56767,38.24449],[-105.56777,38.24458],[-105.56797,38.24474],[-105.56812,38.24484],[-105.56836,38.24499],[-105.56886,38.24526],[-105.56952,38.24568],[-105.56957,38.24571],[-105.57056,38.24631],[-105.57064,38.24636],[-105.57178,38.24706],[-105.57196,38.24717],[-105.57214,38.24728],[-105.57232,38.24739],[-105.57283,38.2477],[-105.57371,38.24825],[-105.57394,38.24839],[-105.5741,38.24849],[-105.57412,38.2485],[-105.57449,38.24871],[-105.57458,38.24876],[-105.57468,38.24881],[-105.57501,38.24898],[-105.57527,38.24909],[-105.57557,38.24921],[-105.57631,38.24946],[-105.57709,38.24972],[-105.57765,38.2499],[-105.57794,38.24999],[-105.57802,38.25001],[-105.57857,38.25019],[-105.57917,38.25038],[-105.5794,38.25046],[-105.57977,38.25058],[-105.58004,38.25069],[-105.58017,38.25073],[-105.58065,38.25094],[-105.58066,38.25095],[-105.58104,38.25114],[-105.58256,38.25211],[-105.58309,38.25243],[-105.58363,38.25278],[-105.58416,38.25312],[-105.58434,38.25324],[-105.58807,38.25562],[-105.58824,38.25574],[-105.58949,38.25653],[-105.59042,38.25713],[-105.59085,38.2574],[-105.59193,38.2581],[-105.59225,38.2583],[-105.59245,38.25843],[-105.59333,38.25901],[-105.5935,38.25912],[-105.59368,38.25924],[-105.59442,38.25973],[-105.59474,38.25992],[-105.59562,38.26045],[-105.59631,38.2609],[-105.59707,38.26138],[-105.59725,38.26149],[-105.59742,38.2616],[-105.59759,38.26171],[-105.59775,38.26181],[-105.59825,38.26212],[-105.59832,38.26216],[-105.59875,38.26239],[-105.59879,38.26242],[-105.59923,38.26263],[-105.59958,38.26279],[-105.59978,38.26287],[-105.5998,38.26288],[-105.59988,38.26291],[-105.60034,38.26308],[-105.60061,38.26317],[-105.60074,38.26322],[-105.60093,38.26328],[-105.60104,38.26331],[-105.60132,38.2634],[-105.60144,38.26343],[-105.60147,38.26343],[-105.60158,38.26346],[-105.60163,38.26347],[-105.60177,38.26351],[-105.60194,38.26355],[-105.60202,38.26356],[-105.60222,38.26357],[-105.60224,38.26358],[-105.60251,38.2636],[-105.60267,38.26358],[-105.60281,38.26356],[-105.60321,38.2635],[-105.60397,38.2633],[-105.60462,38.26306],[-105.60464,38.26305],[-105.60503,38.26291],[-105.60506,38.2629],[-105.60524,38.26284],[-105.60565,38.26269],[-105.60568,38.26268],[-105.60607,38.26253],[-105.6061,38.26252],[-105.6062,38.26249],[-105.60649,38.2624],[-105.60671,38.26233],[-105.60673,38.26232],[-105.60727,38.26215],[-105.60763,38.26207],[-105.60804,38.26202],[-105.60824,38.26199],[-105.60825,38.26199],[-105.60827,38.26199],[-105.60847,38.26199],[-105.60896,38.262],[-105.60909,38.262],[-105.60916,38.26201],[-105.60944,38.26204],[-105.6098,38.26213],[-105.60983,38.26214],[-105.61005,38.26222],[-105.61041,38.26235],[-105.6107,38.26248],[-105.61106,38.26269],[-105.61144,38.26297],[-105.61181,38.26331],[-105.61203,38.26362],[-105.61214,38.26378],[-105.61224,38.26394],[-105.61226,38.26397],[-105.61232,38.26411],[-105.61238,38.26426],[-105.61238,38.26429],[-105.61243,38.26446],[-105.61247,38.26464],[-105.61254,38.26487],[-105.61261,38.26517],[-105.61266,38.26534],[-105.6127,38.26552],[-105.61274,38.2657],[-105.61279,38.26587],[-105.61283,38.26605],[-105.61313,38.26723],[-105.6132,38.26759],[-105.61323,38.26776],[-105.61323,38.26777],[-105.6133,38.26812],[-105.6134,38.26866],[-105.61361,38.26972],[-105.61364,38.2699],[-105.61368,38.2701],[-105.61371,38.27025],[-105.61371,38.27026],[-105.61374,38.27044],[-105.61377,38.27057],[-105.6138,38.27079],[-105.6138,38.27084],[-105.61385,38.27103],[-105.61388,38.27115],[-105.61391,38.27126],[-105.61406,38.27164],[-105.61421,38.272],[-105.61422,38.27201],[-105.61429,38.27218],[-105.61436,38.27234],[-105.61436,38.27235],[-105.61443,38.27251],[-105.61465,38.27303],[-105.61471,38.27318],[-105.61472,38.2732],[-105.61486,38.27354],[-105.61494,38.27371],[-105.61504,38.27397],[-105.61509,38.27405],[-105.61524,38.27437],[-105.61535,38.27464],[-105.61554,38.27507],[-105.61556,38.27511],[-105.61573,38.27558],[-105.61581,38.27576],[-105.61591,38.27599],[-105.61604,38.27638],[-105.61605,38.27645],[-105.61615,38.2769],[-105.61618,38.27732],[-105.61616,38.2777],[-105.61615,38.27788],[-105.61614,38.27797],[-105.61611,38.2786],[-105.61609,38.27896],[-105.61608,38.27914],[-105.61608,38.2792],[-105.61607,38.27932],[-105.61607,38.2795],[-105.61605,38.27986],[-105.61604,38.28004],[-105.61603,38.2804],[-105.61602,38.28058],[-105.61601,38.28094],[-105.616,38.28117],[-105.61593,38.28234],[-105.61591,38.28255],[-105.6159,38.28282],[-105.61584,38.28369],[-105.61575,38.28401],[-105.61566,38.28435],[-105.61555,38.28477],[-105.6155,38.28502],[-105.61552,38.28517],[-105.61552,38.28527],[-105.61554,38.28546],[-105.61562,38.28575],[-105.61565,38.2858],[-105.61568,38.28587],[-105.61573,38.28597],[-105.61577,38.28604],[-105.61605,38.28639],[-105.61642,38.28668],[-105.61673,38.28691],[-105.6171,38.28716],[-105.6171,38.28717],[-105.61716,38.28722],[-105.61736,38.28737],[-105.61742,38.28742],[-105.61749,38.28747],[-105.61765,38.28758],[-105.61776,38.28766],[-105.618,38.28783],[-105.6181,38.2879],[-105.61829,38.28803],[-105.61861,38.28826],[-105.61868,38.28831],[-105.61878,38.28838],[-105.61882,38.28841],[-105.61946,38.28888],[-105.61968,38.28906],[-105.61981,38.28917],[-105.61997,38.28931],[-105.62013,38.2895],[-105.62027,38.28973],[-105.62028,38.28974],[-105.62032,38.2898],[-105.62043,38.28998],[-105.62055,38.29025],[-105.62061,38.29051],[-105.62065,38.29071],[-105.62071,38.29137],[-105.62073,38.29165],[-105.62073,38.29173],[-105.62075,38.29202],[-105.62077,38.29219],[-105.62082,38.29263],[-105.62085,38.29331],[-105.62088,38.2937],[-105.62088,38.29373],[-105.62089,38.29388],[-105.62089,38.29396],[-105.6209,38.29406],[-105.6209,38.29423],[-105.6209,38.29424],[-105.62089,38.29442],[-105.62089,38.2945],[-105.62088,38.2946],[-105.62087,38.29488],[-105.62086,38.29508],[-105.62085,38.29509],[-105.62084,38.29539],[-105.62083,38.29557],[-105.6208,38.29607],[-105.6208,38.29611],[-105.62081,38.29665],[-105.62081,38.29683],[-105.62081,38.29701],[-105.62081,38.29707],[-105.6208,38.29719],[-105.62079,38.29737],[-105.62078,38.29755],[-105.62077,38.29767],[-105.62077,38.29773],[-105.62075,38.29791],[-105.62072,38.29827],[-105.6207,38.29845],[-105.62066,38.29894],[-105.62061,38.29953],[-105.6206,38.29971],[-105.6206,38.29977],[-105.62059,38.29988],[-105.62059,38.30006],[-105.62058,38.30024],[-105.62058,38.30042],[-105.62058,38.3006],[-105.62057,38.30078],[-105.62057,38.30093],[-105.62057,38.30096],[-105.62057,38.3015],[-105.62057,38.30171],[-105.62056,38.30204],[-105.62056,38.30227],[-105.62053,38.30258],[-105.62051,38.30276],[-105.62049,38.30294],[-105.62046,38.30319],[-105.62046,38.3033],[-105.62044,38.30407],[-105.62043,38.3042],[-105.6204,38.30456],[-105.62039,38.30474],[-105.62038,38.30485],[-105.62038,38.30492],[-105.62035,38.30545],[-105.62034,38.30599],[-105.62034,38.30614],[-105.62033,38.30635],[-105.62029,38.30707],[-105.62028,38.30725],[-105.62025,38.30791],[-105.62023,38.30815],[-105.62021,38.30851],[-105.62017,38.30905],[-105.62017,38.30905],[-105.62043,38.30914],[-105.62057,38.30918],[-105.62064,38.3092],[-105.62069,38.30921],[-105.62086,38.30925],[-105.62113,38.30932],[-105.62152,38.30941],[-105.62152,38.30942],[-105.62181,38.30954],[-105.62185,38.30956],[-105.62192,38.30958],[-105.62237,38.30974],[-105.62273,38.30992],[-105.62282,38.30996],[-105.62312,38.31011],[-105.6232,38.31016],[-105.62327,38.31019],[-105.62331,38.31021],[-105.62409,38.31058],[-105.62459,38.31079],[-105.6247,38.31084],[-105.62478,38.31088],[-105.6252,38.31096],[-105.62542,38.31098],[-105.62546,38.31098],[-105.62559,38.31098],[-105.62567,38.31098],[-105.62569,38.31098],[-105.62594,38.31096],[-105.6264,38.31084],[-105.62678,38.31071],[-105.62689,38.31068],[-105.62694,38.31066],[-105.62699,38.31064],[-105.62711,38.31061],[-105.62772,38.31041],[-105.62817,38.31027],[-105.62827,38.31024],[-105.62903,38.31002],[-105.62986,38.30978],[-105.62995,38.30976],[-105.63008,38.30973],[-105.63073,38.30957],[-105.63128,38.30946],[-105.63163,38.30942],[-105.6318,38.3094],[-105.63209,38.30938],[-105.63223,38.30937],[-105.63231,38.30936],[-105.63254,38.30936],[-105.63273,38.30936],[-105.63277,38.30936],[-105.633,38.30935],[-105.63346,38.30933],[-105.63415,38.30931],[-105.63507,38.30928],[-105.63585,38.30924],[-105.63676,38.30919],[-105.63699,38.30918],[-105.63722,38.30917],[-105.63745,38.30916],[-105.63813,38.30912],[-105.63836,38.30911],[-105.63859,38.3091],[-105.63882,38.30911],[-105.63883,38.30911],[-105.63895,38.30911],[-105.63905,38.30912],[-105.63906,38.30912],[-105.63926,38.30915],[-105.63928,38.30915],[-105.6395,38.30918],[-105.63951,38.30918],[-105.64028,38.30928],[-105.64109,38.30942],[-105.64114,38.30943],[-105.6413,38.30945],[-105.64203,38.30956],[-105.643,38.30975],[-105.64331,38.30981],[-105.64332,38.30982],[-105.64375,38.30991],[-105.64376,38.30991],[-105.6438,38.30992],[-105.64397,38.30996],[-105.64434,38.31006],[-105.64445,38.31009],[-105.64462,38.31014],[-105.64466,38.31015],[-105.64484,38.3102],[-105.64488,38.31021],[-105.64499,38.31024],[-105.64505,38.31026],[-105.64527,38.31032],[-105.64579,38.31046],[-105.64592,38.31049],[-105.64614,38.31054],[-105.64636,38.3106],[-105.64658,38.31065],[-105.6468,38.3107],[-105.64702,38.31076],[-105.64811,38.31103],[-105.64816,38.31104],[-105.64855,38.31112],[-105.64868,38.31114],[-105.64878,38.31116],[-105.649,38.31119],[-105.64923,38.31123],[-105.64945,38.31126],[-105.64956,38.31128],[-105.65013,38.31136],[-105.65032,38.31138],[-105.65035,38.31139],[-105.65058,38.31142],[-105.65081,38.31145],[-105.65103,38.31148],[-105.65126,38.31151],[-105.65147,38.31154],[-105.65148,38.31154],[-105.65247,38.31167],[-105.65261,38.31169],[-105.65284,38.31172],[-105.65306,38.31176],[-105.65329,38.31179],[-105.65374,38.31185],[-105.65419,38.31191],[-105.655,38.31202],[-105.6551,38.31203],[-105.65555,38.31211],[-105.65561,38.31212],[-105.65592,38.31215],[-105.65632,38.3122],[-105.65692,38.31228],[-105.65729,38.31233],[-105.65737,38.31234],[-105.65759,38.31238],[-105.65782,38.31242],[-105.65798,38.31244],[-105.65804,38.31246],[-105.65825,38.31254],[-105.65841,38.31264],[-105.65857,38.31279],[-105.65858,38.3128],[-105.6587,38.31294],[-105.65874,38.31299],[-105.6588,38.31311],[-105.65894,38.3134],[-105.65908,38.31365],[-105.65915,38.31377],[-105.65918,38.31382],[-105.65927,38.31398],[-105.65931,38.31404],[-105.65944,38.31426],[-105.65957,38.31447],[-105.65964,38.31459],[-105.65979,38.31483],[-105.65987,38.31495],[-105.65999,38.31511],[-105.66001,38.31512],[-105.66025,38.31537],[-105.66084,38.31591],[-105.66129,38.31632],[-105.66144,38.31646],[-105.66189,38.31686],[-105.6622,38.31712],[-105.66235,38.31726],[-105.66266,38.31752],[-105.66313,38.31792],[-105.66328,38.31805],[-105.66372,38.31843],[-105.66416,38.31872],[-105.66468,38.31905],[-105.66478,38.31912],[-105.66486,38.31917],[-105.6654,38.3195],[-105.66558,38.31961],[-105.66576,38.31972],[-105.66594,38.31983],[-105.66612,38.31995],[-105.66633,38.32007],[-105.66668,38.32026],[-105.66676,38.32031],[-105.66685,38.32038],[-105.66701,38.32051],[-105.66717,38.32064],[-105.66744,38.32086],[-105.66764,38.32104],[-105.66779,38.32117],[-105.66799,38.32135],[-105.66834,38.32175],[-105.6684,38.32181],[-105.66848,38.32189],[-105.66857,38.32198],[-105.66862,38.32203],[-105.66877,38.32217],[-105.66892,38.3223],[-105.66902,38.3224],[-105.66908,38.32243],[-105.66952,38.3227],[-105.6698,38.32288],[-105.67003,38.323],[-105.67029,38.32312],[-105.67052,38.32327],[-105.6707,38.32338],[-105.67094,38.32353],[-105.67171,38.32404],[-105.67262,38.32467],[-105.67276,38.32476],[-105.67296,38.32491],[-105.67313,38.32503],[-105.67354,38.32532],[-105.67363,38.32539],[-105.67407,38.32569],[-105.67436,38.32583],[-105.67438,38.32584],[-105.67479,38.32596],[-105.67502,38.32603],[-105.67518,38.32606],[-105.67535,38.32608],[-105.67547,38.32608],[-105.67577,38.32609],[-105.6759,38.32608],[-105.67605,38.32607],[-105.67628,38.32605],[-105.6765,38.32609],[-105.67682,38.32615],[-105.6776,38.32635],[-105.67781,38.32642],[-105.67802,38.32649],[-105.67822,38.32655],[-105.67873,38.32675],[-105.67933,38.32707],[-105.67978,38.32727],[-105.6802,38.32748],[-105.68033,38.32764],[-105.68043,38.32776],[-105.68048,38.32782],[-105.68064,38.32807],[-105.6808,38.32836],[-105.68086,38.3285],[-105.68088,38.32858],[-105.6809,38.32866],[-105.6809,38.32888],[-105.68089,38.32922],[-105.6809,38.3293],[-105.68092,38.32948],[-105.68094,38.32966],[-105.68102,38.33013],[-105.68106,38.33031],[-105.68109,38.33051],[-105.68124,38.33156],[-105.68126,38.33169],[-105.68138,38.33253],[-105.68145,38.33299],[-105.68146,38.333],[-105.68154,38.33352],[-105.68155,38.33358],[-105.68157,38.3337],[-105.6816,38.33395],[-105.68172,38.33448],[-105.68175,38.33459],[-105.6818,38.33476],[-105.68187,38.33504],[-105.68201,38.33546],[-105.68202,38.33548],[-105.68219,38.33594],[-105.68237,38.33639],[-105.68241,38.3365],[-105.68251,38.33684],[-105.68262,38.33728],[-105.68266,38.33745],[-105.68272,38.33763],[-105.68288,38.33815],[-105.68294,38.33833],[-105.68312,38.33872],[-105.6834,38.33927],[-105.68353,38.33949],[-105.68354,38.33951],[-105.68361,38.33966],[-105.68369,38.33983],[-105.68374,38.33998],[-105.68376,38.34009],[-105.68376,38.34025],[-105.68374,38.34036],[-105.68374,38.3404],[-105.68368,38.34054],[-105.68365,38.3406],[-105.68361,38.34073],[-105.68355,38.341],[-105.68351,38.34124],[-105.6835,38.34126],[-105.6835,38.34142],[-105.6835,38.34144],[-105.68348,38.34178],[-105.68348,38.34196],[-105.68346,38.34244],[-105.68351,38.34289],[-105.6836,38.3433],[-105.68364,38.34338],[-105.68373,38.34355],[-105.68374,38.34357],[-105.68383,38.34378],[-105.68399,38.34416],[-105.684,38.34451],[-105.68402,38.3446],[-105.68405,38.34477],[-105.68408,38.34494],[-105.68417,38.3453],[-105.68417,38.34531],[-105.68431,38.34569],[-105.68454,38.34595],[-105.68518,38.3467],[-105.68531,38.34685],[-105.68556,38.34715],[-105.68569,38.3473],[-105.68608,38.34775],[-105.68648,38.34818],[-105.68662,38.34832],[-105.68728,38.34903],[-105.6873,38.34905],[-105.68745,38.34919],[-105.68803,38.34974],[-105.68837,38.35006],[-105.689,38.35071],[-105.68902,38.35073],[-105.68917,38.35087],[-105.68932,38.35101],[-105.68947,38.35114],[-105.68969,38.3514],[-105.68973,38.35144],[-105.68977,38.35149],[-105.68983,38.35158],[-105.68983,38.3516],[-105.68989,38.35175],[-105.68995,38.352],[-105.69002,38.35225],[-105.69003,38.3523],[-105.69005,38.35248],[-105.69005,38.35249],[-105.69005,38.35278],[-105.69004,38.3531],[-105.69004,38.35335],[-105.69006,38.35356],[-105.69008,38.35378],[-105.69018,38.35429],[-105.69033,38.35479],[-105.69043,38.35521],[-105.69046,38.35533],[-105.6905,38.35554],[-105.69056,38.35589],[-105.69056,38.35614],[-105.69057,38.3564],[-105.69057,38.35653],[-105.69057,38.35658],[-105.69055,38.35684],[-105.69054,38.35694],[-105.69053,38.35712],[-105.69051,38.3573],[-105.69049,38.35748],[-105.69048,38.35758],[-105.69048,38.35783],[-105.69049,38.35784],[-105.69051,38.35799],[-105.69053,38.35801],[-105.69059,38.35812],[-105.69071,38.35834],[-105.69078,38.35844],[-105.69101,38.35881],[-105.69107,38.35893],[-105.6911,38.35902],[-105.69113,38.35917],[-105.69114,38.35921],[-105.69114,38.35929],[-105.69116,38.35947],[-105.69117,38.35951],[-105.69117,38.35972],[-105.69116,38.3603],[-105.69115,38.36037],[-105.69114,38.36043],[-105.69113,38.36054],[-105.69112,38.36059],[-105.69104,38.36099],[-105.69099,38.36122],[-105.69097,38.36136],[-105.69096,38.36143],[-105.69095,38.3615],[-105.69094,38.36158],[-105.69094,38.36161],[-105.69092,38.36197],[-105.69096,38.36251],[-105.691,38.36312],[-105.69101,38.36316],[-105.69102,38.36341],[-105.69104,38.36362],[-105.69104,38.36365],[-105.69105,38.36377],[-105.69106,38.36387],[-105.69108,38.36395],[-105.69113,38.36414],[-105.69119,38.36436],[-105.69126,38.36453],[-105.6913,38.36464],[-105.69135,38.36478],[-105.69147,38.3651],[-105.69149,38.36516],[-105.69155,38.36534],[-105.69155,38.3654],[-105.69156,38.36548],[-105.69156,38.36552],[-105.69157,38.36558],[-105.69157,38.36562],[-105.69155,38.36569],[-105.69152,38.36579],[-105.69139,38.36596],[-105.691,38.36625],[-105.69096,38.36629],[-105.69094,38.3663],[-105.69085,38.36638],[-105.69069,38.36652],[-105.69065,38.36656],[-105.69042,38.36681],[-105.69037,38.36686],[-105.69034,38.36691],[-105.69029,38.36696],[-105.69017,38.36711],[-105.69003,38.36729],[-105.6898,38.36756],[-105.68967,38.36771],[-105.68944,38.36799],[-105.68942,38.36802],[-105.68938,38.36807],[-105.68899,38.36858],[-105.68884,38.36879],[-105.68883,38.36881],[-105.68865,38.36912],[-105.68861,38.36918],[-105.68855,38.36928],[-105.68852,38.36934],[-105.68836,38.3696],[-105.68836,38.36961],[-105.6883,38.36981],[-105.68829,38.36994],[-105.6883,38.37002],[-105.68831,38.37006],[-105.68838,38.37018],[-105.68839,38.37019],[-105.68839,38.3702],[-105.6885,38.3703],[-105.68852,38.37033],[-105.68853,38.37033],[-105.68867,38.37046],[-105.68868,38.37047],[-105.68875,38.37053],[-105.68882,38.37062],[-105.68887,38.37073],[-105.68888,38.37078],[-105.68888,38.37079],[-105.68891,38.37096],[-105.68891,38.37096],[-105.6892,38.37099],[-105.68938,38.37101],[-105.68946,38.37102],[-105.68955,38.37104],[-105.68968,38.37106],[-105.68991,38.3711],[-105.69011,38.37114],[-105.69054,38.37124],[-105.69109,38.37138],[-105.69121,38.37141],[-105.6915,38.3715],[-105.69197,38.37162],[-105.69219,38.37168],[-105.69244,38.37175],[-105.69263,38.37179],[-105.69276,38.37183],[-105.69285,38.37184],[-105.69304,38.37188],[-105.69329,38.37192],[-105.69347,38.37195],[-105.69375,38.37197],[-105.69392,38.37198],[-105.69408,38.37197],[-105.69444,38.37195],[-105.69445,38.37195],[-105.69487,38.37191],[-105.69556,38.3718],[-105.69568,38.37178],[-105.69758,38.37144],[-105.69774,38.37141],[-105.69823,38.37132],[-105.6984,38.37128],[-105.69858,38.37123],[-105.69876,38.37117],[-105.69893,38.37111],[-105.69919,38.37099],[-105.69945,38.37086],[-105.69972,38.37071],[-105.70007,38.37048],[-105.70055,38.37017],[-105.70079,38.37002],[-105.7015,38.36956],[-105.70213,38.36913],[-105.70289,38.36862],[-105.70337,38.3683],[-105.70376,38.36804],[-105.70507,38.3672],[-105.70518,38.36712],[-105.70541,38.36697],[-105.70567,38.36682],[-105.70568,38.36681],[-105.7058,38.36674],[-105.70591,38.36669],[-105.70599,38.36665],[-105.70609,38.36661],[-105.70621,38.36658],[-105.70639,38.36653],[-105.70651,38.36651],[-105.70665,38.3665],[-105.70684,38.36648],[-105.70704,38.36649],[-105.70731,38.36652],[-105.70749,38.36655],[-105.70762,38.36658],[-105.70775,38.36661],[-105.70791,38.36667],[-105.70804,38.36672],[-105.70859,38.36696],[-105.70885,38.36706],[-105.70886,38.36707],[-105.70941,38.36728],[-105.70975,38.3674],[-105.71019,38.36755],[-105.71032,38.36759],[-105.71043,38.36762],[-105.71065,38.36768],[-105.71089,38.36772],[-105.71097,38.36773],[-105.71098,38.36773],[-105.71122,38.36776],[-105.71162,38.36778],[-105.71188,38.36778],[-105.7119,38.36778],[-105.71193,38.36778],[-105.71224,38.36776],[-105.71278,38.36768],[-105.71279,38.36768],[-105.71281,38.36768],[-105.7135,38.36758],[-105.71386,38.36752],[-105.71416,38.36745],[-105.71437,38.3674],[-105.71446,38.36737],[-105.71479,38.36728],[-105.7148,38.36728],[-105.71495,38.36724],[-105.71528,38.36714],[-105.71543,38.36709],[-105.71544,38.36709],[-105.7156,38.36703],[-105.71611,38.36684],[-105.71625,38.36677],[-105.71627,38.36677],[-105.71663,38.36661],[-105.71702,38.36643],[-105.7174,38.36623],[-105.71743,38.36621],[-105.71763,38.3661],[-105.71781,38.36599],[-105.71796,38.36591],[-105.71853,38.36555],[-105.71878,38.36539],[-105.71882,38.36536],[-105.71924,38.36509],[-105.71956,38.36487],[-105.72065,38.36412],[-105.72102,38.36387],[-105.72132,38.36369],[-105.72166,38.36352],[-105.72208,38.36332],[-105.72211,38.36331],[-105.72229,38.36323],[-105.72251,38.36313],[-105.72271,38.36305],[-105.72295,38.36295],[-105.72309,38.36288],[-105.72323,38.36282],[-105.72331,38.36278],[-105.72345,38.36271],[-105.72365,38.36258],[-105.72382,38.36246],[-105.72398,38.36234],[-105.72413,38.36221],[-105.72432,38.362],[-105.72442,38.36189],[-105.72454,38.36175],[-105.72457,38.36173],[-105.72491,38.36133],[-105.72508,38.36115],[-105.72546,38.36072],[-105.72547,38.3607],[-105.72561,38.36055],[-105.7262,38.35989],[-105.72645,38.35963],[-105.72663,38.35947],[-105.72684,38.35931],[-105.72694,38.35925],[-105.72713,38.35913],[-105.72735,38.35902],[-105.72756,38.35891],[-105.72809,38.35866],[-105.72837,38.35854],[-105.72861,38.35845],[-105.72884,38.3584],[-105.72908,38.35836],[-105.7292,38.35835],[-105.72933,38.35835],[-105.72956,38.35838],[-105.72975,38.35841],[-105.72996,38.35846],[-105.72998,38.35847],[-105.72999,38.35847],[-105.73035,38.35857],[-105.73047,38.35861],[-105.73073,38.35871],[-105.73094,38.3588],[-105.73105,38.35887],[-105.73125,38.35902],[-105.73137,38.35912],[-105.73148,38.35924],[-105.73161,38.3594],[-105.73183,38.35965],[-105.73216,38.36],[-105.73233,38.36018],[-105.73257,38.36039],[-105.73267,38.36047],[-105.7328,38.36059],[-105.73293,38.36068],[-105.73306,38.36075],[-105.73319,38.36082],[-105.73333,38.36088],[-105.73346,38.36093],[-105.73364,38.36098],[-105.73395,38.36105],[-105.73414,38.36108],[-105.73436,38.36111],[-105.73442,38.36112],[-105.73489,38.3611],[-105.7353,38.36105],[-105.73572,38.36097],[-105.73605,38.36091],[-105.73617,38.36089],[-105.73727,38.36064],[-105.73852,38.36031],[-105.73868,38.36029],[-105.73885,38.36027],[-105.73912,38.36025],[-105.73944,38.36024],[-105.73973,38.36025],[-105.74,38.36027],[-105.7403,38.36031],[-105.74052,38.36035],[-105.74073,38.3604],[-105.74112,38.36053],[-105.74146,38.36068],[-105.74162,38.36075],[-105.74182,38.36086],[-105.74201,38.36097],[-105.74213,38.36105],[-105.74264,38.36137],[-105.74268,38.36139],[-105.74278,38.36145],[-105.74282,38.36148],[-105.74367,38.36205],[-105.74453,38.3626],[-105.74458,38.36264],[-105.74519,38.36303],[-105.74582,38.36343],[-105.74594,38.36351],[-105.746,38.36355],[-105.74666,38.36399],[-105.7483,38.36504],[-105.74848,38.36515],[-105.74928,38.36566],[-105.74972,38.36595],[-105.74993,38.36608],[-105.75085,38.36668],[-105.75149,38.3671],[-105.75166,38.36721],[-105.75235,38.36766],[-105.75281,38.36796],[-105.75311,38.36816],[-105.75379,38.3686],[-105.75404,38.36876],[-105.75422,38.36888],[-105.75443,38.36901],[-105.75555,38.36974],[-105.75666,38.37045],[-105.7567,38.37048],[-105.75799,38.37132],[-105.75828,38.37151],[-105.75846,38.37163],[-105.75864,38.37174],[-105.75918,38.37209],[-105.75977,38.37247],[-105.76005,38.37266],[-105.76024,38.3728],[-105.76049,38.37299],[-105.76076,38.37323],[-105.76097,38.37343],[-105.76099,38.37345],[-105.76116,38.37362],[-105.76126,38.37372],[-105.76137,38.37384],[-105.76165,38.37418],[-105.76177,38.37433],[-105.7618,38.37437],[-105.76189,38.37449],[-105.76194,38.37456],[-105.76211,38.3748],[-105.76218,38.3749],[-105.76258,38.3755],[-105.76276,38.37576],[-105.76286,38.37592],[-105.76298,38.37609],[-105.76308,38.37623],[-105.76318,38.37639],[-105.76319,38.3764],[-105.76352,38.37691],[-105.76371,38.37719],[-105.76392,38.37751],[-105.76393,38.37752],[-105.76413,38.37783],[-105.76434,38.37815],[-105.76445,38.37831],[-105.76476,38.37878],[-105.76537,38.3797],[-105.7654,38.37975],[-105.76562,38.38006],[-105.76604,38.3807],[-105.76605,38.38072],[-105.76615,38.38086],[-105.76623,38.38097],[-105.76653,38.38141],[-105.76671,38.38166],[-105.76693,38.38193],[-105.76712,38.38218],[-105.76731,38.38241],[-105.76738,38.38249],[-105.76756,38.38271],[-105.76816,38.38338],[-105.76857,38.38385],[-105.76922,38.38457],[-105.76995,38.38541],[-105.77094,38.38653],[-105.77098,38.38657],[-105.77124,38.38686],[-105.77137,38.38701],[-105.77168,38.38735],[-105.77177,38.38745],[-105.77203,38.38775],[-105.77265,38.38844],[-105.77281,38.38863],[-105.77303,38.38889],[-105.77315,38.38902],[-105.77331,38.38921],[-105.77374,38.38969],[-105.7741,38.39007],[-105.77413,38.3901],[-105.77424,38.39022],[-105.77443,38.3904],[-105.77481,38.39078],[-105.77511,38.39108],[-105.7753,38.39126],[-105.77539,38.39134],[-105.77578,38.39172],[-105.77622,38.39215],[-105.77639,38.39233],[-105.77652,38.39247],[-105.77654,38.39249],[-105.77674,38.39277],[-105.77684,38.39292],[-105.77686,38.39294],[-105.77693,38.39308],[-105.777,38.39324],[-105.77702,38.39328],[-105.77709,38.39345],[-105.77711,38.3935],[-105.77719,38.39371],[-105.77743,38.39472],[-105.77746,38.39486],[-105.7775,38.39504],[-105.77762,38.39557],[-105.77764,38.39563],[-105.77766,38.39574],[-105.7777,38.39592],[-105.77775,38.39621],[-105.77782,38.39652],[-105.77797,38.39716],[-105.77801,38.39734],[-105.77813,38.39787],[-105.77817,38.39806],[-105.77833,38.39876],[-105.77837,38.39893],[-105.77841,38.39911],[-105.77854,38.39964],[-105.77862,38.39998],[-105.77871,38.40035],[-105.77878,38.40052],[-105.77885,38.40067],[-105.77886,38.40069],[-105.77895,38.40089],[-105.77937,38.40169],[-105.77964,38.40208],[-105.77977,38.40226],[-105.77989,38.40241],[-105.78008,38.40264],[-105.78031,38.40289],[-105.78042,38.403],[-105.78049,38.40309],[-105.78095,38.40359],[-105.78109,38.40373],[-105.78112,38.40377],[-105.7816,38.4043],[-105.78201,38.40476],[-105.7825,38.40534],[-105.78301,38.40593],[-105.78303,38.40596],[-105.78315,38.40607],[-105.78346,38.40634],[-105.78361,38.40648],[-105.78421,38.40702],[-105.78437,38.40715],[-105.78462,38.40738],[-105.78543,38.40809],[-105.78552,38.40817],[-105.78559,38.40823],[-105.78656,38.40899],[-105.78705,38.40937],[-105.7874,38.40967],[-105.7874,38.40968],[-105.78805,38.41019],[-105.78821,38.41032],[-105.78845,38.41052],[-105.78854,38.41057],[-105.78881,38.41074],[-105.79012,38.41155],[-105.79102,38.41216],[-105.79198,38.41294],[-105.79271,38.41353],[-105.79358,38.41427],[-105.7936,38.41428],[-105.79406,38.41465],[-105.79551,38.41581],[-105.79567,38.41594],[-105.79599,38.4162],[-105.79679,38.41684],[-105.79695,38.41697],[-105.79776,38.41761],[-105.7985,38.41821],[-105.79866,38.41834],[-105.79978,38.41924],[-105.80042,38.41975],[-105.80106,38.42027],[-105.80122,38.4204],[-105.80154,38.42066],[-105.8017,38.42079],[-105.80221,38.4212],[-105.80253,38.42147],[-105.80283,38.42171],[-105.80327,38.42207],[-105.80386,38.42254],[-105.80434,38.42292],[-105.8045,38.42305],[-105.80466,38.42318],[-105.80526,38.42366],[-105.80543,38.42381],[-105.80642,38.42461],[-105.80693,38.42502],[-105.80701,38.42509],[-105.8077,38.42565],[-105.80823,38.42608],[-105.80861,38.42638],[-105.80865,38.42641],[-105.80869,38.42644],[-105.80942,38.42702],[-105.80963,38.42717],[-105.80979,38.42727],[-105.81003,38.42742],[-105.81025,38.42756],[-105.81062,38.42774],[-105.81091,38.42788],[-105.81123,38.42801],[-105.81123,38.42802],[-105.81144,38.4281],[-105.81157,38.42815],[-105.81192,38.42828],[-105.81259,38.42853],[-105.81368,38.42891],[-105.81456,38.42922],[-105.81457,38.42923],[-105.81488,38.42933],[-105.81516,38.42943],[-105.81543,38.4295],[-105.8156,38.42954],[-105.81585,38.4296],[-105.81608,38.42963],[-105.81625,38.42964],[-105.81654,38.42967],[-105.81696,38.4297],[-105.81698,38.4297],[-105.81788,38.42977],[-105.81881,38.42984],[-105.81908,38.42986],[-105.81931,38.42988],[-105.81977,38.42991],[-105.81987,38.42992],[-105.82,38.42993],[-105.82025,38.42995],[-105.82046,38.42996],[-105.82066,38.42998],[-105.82098,38.43001],[-105.82141,38.43003],[-105.8216,38.43004],[-105.82168,38.43005],[-105.82183,38.43005],[-105.82199,38.43006],[-105.82206,38.43006],[-105.82254,38.43007],[-105.82321,38.43008],[-105.82385,38.43008],[-105.82408,38.43008],[-105.82415,38.43008],[-105.82431,38.43009],[-105.82454,38.43009],[-105.82471,38.43009],[-105.82477,38.43009],[-105.82511,38.4301],[-105.8255,38.43011],[-105.82579,38.43013],[-105.82591,38.43014],[-105.82602,38.43015],[-105.82637,38.43019],[-105.82709,38.43032],[-105.82722,38.43034],[-105.82726,38.43035],[-105.82783,38.43046],[-105.82838,38.43057],[-105.82856,38.4306],[-105.82882,38.43066],[-105.829,38.43069],[-105.82922,38.43074],[-105.82986,38.43087],[-105.83033,38.43096],[-105.83084,38.43109],[-105.83105,38.43114],[-105.83132,38.43122],[-105.83157,38.4313],[-105.83182,38.4314],[-105.83216,38.43157],[-105.83236,38.43168],[-105.83259,38.43182],[-105.83287,38.43202],[-105.83321,38.43231],[-105.83326,38.43236],[-105.83432,38.43346],[-105.83472,38.43387],[-105.83498,38.43414],[-105.83534,38.43452],[-105.83568,38.43488],[-105.83581,38.435],[-105.836,38.4352],[-105.8365,38.43572],[-105.83652,38.43573],[-105.8366,38.43582],[-105.83664,38.43586],[-105.83674,38.43597],[-105.83677,38.43601],[-105.83678,38.43603],[-105.83687,38.43613],[-105.83689,38.43616],[-105.83697,38.43628],[-105.837,38.43632],[-105.83701,38.43634],[-105.83711,38.4365],[-105.83719,38.43665],[-105.83726,38.43682],[-105.83735,38.43707],[-105.83737,38.43717],[-105.83737,38.43719],[-105.83741,38.43734],[-105.83741,38.43735],[-105.83749,38.43772],[-105.83751,38.43779],[-105.83753,38.43788],[-105.83767,38.43859],[-105.83786,38.43948],[-105.83787,38.43949],[-105.83806,38.4404],[-105.83816,38.44091],[-105.83835,38.44173],[-105.8385,38.44248],[-105.83872,38.44354],[-105.83883,38.44401],[-105.83908,38.44518],[-105.83924,38.44589],[-105.83945,38.44699],[-105.83954,38.44739],[-105.83957,38.44754],[-105.8396,38.44771],[-105.83962,38.44779],[-105.8397,38.44817],[-105.83994,38.44932],[-105.84005,38.44982],[-105.84013,38.45013],[-105.84021,38.45043],[-105.84032,38.45078],[-105.84056,38.4514],[-105.84074,38.45189],[-105.84098,38.45252],[-105.84121,38.45311],[-105.84155,38.45407],[-105.84174,38.45455],[-105.84218,38.45572],[-105.84261,38.45681],[-105.84267,38.45697],[-105.84299,38.45778],[-105.84315,38.45814],[-105.84316,38.45816],[-105.84332,38.45845],[-105.84343,38.45863],[-105.84353,38.45878],[-105.84355,38.45881],[-105.84355,38.45882],[-105.84364,38.45895],[-105.84366,38.45897],[-105.84377,38.45911],[-105.84404,38.45943],[-105.84408,38.45948],[-105.84417,38.45957],[-105.84458,38.46001],[-105.84474,38.46016],[-105.84524,38.46059],[-105.84561,38.46088],[-105.84597,38.46115],[-105.84679,38.46172],[-105.84701,38.46187],[-105.84712,38.46194],[-105.84724,38.46202],[-105.8473,38.46206],[-105.84747,38.46215],[-105.84774,38.46229],[-105.84789,38.46236],[-105.84807,38.46244],[-105.84826,38.46251],[-105.84839,38.46256],[-105.84853,38.46261],[-105.84885,38.46269],[-105.84924,38.46279],[-105.84962,38.46287],[-105.85003,38.46295],[-105.85025,38.46299],[-105.85057,38.46306],[-105.8515,38.46324],[-105.85204,38.46334],[-105.85267,38.46346],[-105.85326,38.46357],[-105.85419,38.46375],[-105.85427,38.46376],[-105.85449,38.4638],[-105.85458,38.46382],[-105.85469,38.46384],[-105.85481,38.46385],[-105.855,38.46387],[-105.85523,38.46389],[-105.8558,38.46394],[-105.85655,38.46399],[-105.85658,38.46399],[-105.8574,38.46405],[-105.85797,38.46409],[-105.85891,38.46416],[-105.85929,38.46419],[-105.85932,38.46419],[-105.85952,38.46421],[-105.85968,38.46423],[-105.85987,38.46427],[-105.86005,38.4643],[-105.86034,38.46437],[-105.86072,38.46446],[-105.86111,38.46457],[-105.86142,38.46467],[-105.86165,38.46477],[-105.86196,38.4649],[-105.86215,38.465],[-105.8624,38.46514],[-105.86282,38.4654],[-105.86297,38.46548],[-105.86312,38.46557],[-105.86325,38.46564],[-105.86339,38.46574],[-105.86347,38.4658],[-105.8636,38.4659],[-105.86379,38.46606],[-105.86382,38.46609],[-105.86396,38.46623],[-105.86404,38.46631],[-105.86407,38.46634],[-105.8641,38.46637],[-105.86426,38.46653],[-105.86435,38.46663],[-105.86439,38.46667],[-105.8645,38.46678],[-105.86456,38.46686],[-105.86463,38.46695],[-105.86472,38.46707],[-105.86473,38.46708],[-105.86479,38.46718],[-105.86485,38.46727],[-105.8649,38.46737],[-105.86493,38.46745],[-105.86496,38.46753],[-105.86499,38.46763],[-105.86503,38.46776],[-105.86503,38.46777],[-105.86507,38.46792],[-105.86508,38.46793],[-105.86519,38.46843],[-105.86523,38.4686],[-105.86524,38.46864],[-105.86524,38.46867],[-105.86529,38.46891],[-105.86535,38.46928],[-105.86544,38.46985],[-105.86544,38.46986],[-105.86548,38.47015],[-105.86551,38.47039],[-105.86557,38.47082],[-105.86559,38.47092],[-105.8656,38.47104],[-105.86561,38.4711],[-105.86564,38.47128],[-105.86565,38.4714],[-105.86568,38.47152],[-105.86571,38.4716],[-105.86575,38.47169],[-105.86579,38.47177],[-105.86584,38.47184],[-105.8659,38.47191],[-105.86596,38.47199],[-105.86604,38.47207],[-105.86609,38.47211],[-105.86614,38.47216],[-105.86621,38.4722],[-105.86627,38.47223],[-105.86635,38.47227],[-105.86644,38.47231],[-105.86652,38.47235],[-105.86657,38.47236],[-105.86663,38.47238],[-105.86664,38.47238],[-105.86672,38.4724],[-105.86681,38.47242],[-105.86688,38.47243],[-105.86695,38.47243],[-105.86705,38.47243],[-105.86716,38.47242],[-105.86727,38.47241],[-105.8674,38.47239],[-105.86755,38.47235],[-105.86766,38.47232],[-105.8678,38.47227],[-105.8679,38.47224],[-105.86801,38.47219],[-105.86809,38.47216],[-105.86815,38.47213],[-105.86816,38.47212],[-105.86822,38.47209],[-105.86829,38.47205],[-105.8683,38.47204],[-105.86834,38.47201],[-105.86834,38.472],[-105.8684,38.47194],[-105.86848,38.47184],[-105.86855,38.47175],[-105.8686,38.47166],[-105.86863,38.47156],[-105.86871,38.47134],[-105.86874,38.47124],[-105.86877,38.47118],[-105.86879,38.47113],[-105.86883,38.47106],[-105.86885,38.47101],[-105.86886,38.471],[-105.86889,38.47094],[-105.86894,38.47087],[-105.86919,38.47058],[-105.86921,38.47056],[-105.8693,38.47046],[-105.86932,38.47042],[-105.86934,38.4704],[-105.86957,38.4701],[-105.86968,38.46995],[-105.86981,38.46982],[-105.86998,38.46966],[-105.87012,38.46955],[-105.87015,38.46954],[-105.87028,38.46948],[-105.87039,38.46943],[-105.87056,38.46938],[-105.87067,38.46935],[-105.87078,38.46933],[-105.8708,38.46932],[-105.87095,38.4693],[-105.8712,38.4693],[-105.87123,38.4693],[-105.87139,38.4693],[-105.87142,38.4693],[-105.87146,38.46931],[-105.87161,38.46932],[-105.87175,38.46934],[-105.87188,38.46937],[-105.87202,38.46941],[-105.87212,38.46945],[-105.87213,38.46945],[-105.87224,38.4695],[-105.87233,38.46956],[-105.8724,38.46961],[-105.87248,38.46967],[-105.87256,38.46976],[-105.87262,38.46983],[-105.87267,38.46991],[-105.87271,38.46998],[-105.87272,38.47],[-105.87277,38.47009],[-105.87279,38.47013],[-105.8728,38.47015],[-105.87283,38.47023],[-105.8729,38.47038],[-105.87294,38.47049],[-105.87294,38.4705],[-105.87298,38.47061],[-105.873,38.47066],[-105.87301,38.4707],[-105.87304,38.4708],[-105.87305,38.4709],[-105.87306,38.47096],[-105.87306,38.47102],[-105.87306,38.47103],[-105.87306,38.47113],[-105.87306,38.47114],[-105.87306,38.4712],[-105.87305,38.47123],[-105.87304,38.47134],[-105.87303,38.47141],[-105.87302,38.4715],[-105.87302,38.47156],[-105.87302,38.4716],[-105.87302,38.47165],[-105.87302,38.47169],[-105.87303,38.47172],[-105.87304,38.47177],[-105.87306,38.47182],[-105.87309,38.47188],[-105.87311,38.47192],[-105.87314,38.47196],[-105.87318,38.47201],[-105.87323,38.47207],[-105.87326,38.4721],[-105.87329,38.47214],[-105.87333,38.47216],[-105.87338,38.4722],[-105.87342,38.47222],[-105.87347,38.47225],[-105.87352,38.47227],[-105.87356,38.47228],[-105.87363,38.47231],[-105.87369,38.47232],[-105.87373,38.47233],[-105.8738,38.47235],[-105.87385,38.47236],[-105.87394,38.47236],[-105.87401,38.47237],[-105.87402,38.47237],[-105.87409,38.47236],[-105.87416,38.47236],[-105.87423,38.47235],[-105.87431,38.47234],[-105.87438,38.47232],[-105.87446,38.47229],[-105.87454,38.47226],[-105.8746,38.47224],[-105.87467,38.47221],[-105.87487,38.47213],[-105.8751,38.47203],[-105.87525,38.47197],[-105.87528,38.47196],[-105.87537,38.47193],[-105.87547,38.4719],[-105.87549,38.4719],[-105.8756,38.47188],[-105.87564,38.47187],[-105.87568,38.47187],[-105.87577,38.47186],[-105.87585,38.47185],[-105.87595,38.47185],[-105.87597,38.47185],[-105.87609,38.47185],[-105.8761,38.47185],[-105.87617,38.47186],[-105.87624,38.47186],[-105.87647,38.4719],[-105.87662,38.47193],[-105.87668,38.47194],[-105.87685,38.47198],[-105.87698,38.47202],[-105.87728,38.4721],[-105.87753,38.47219],[-105.87773,38.47227],[-105.87783,38.47231],[-105.87789,38.47234],[-105.87792,38.47236],[-105.87832,38.47256],[-105.87855,38.47268],[-105.87878,38.4728],[-105.87914,38.47302],[-105.8792,38.47307],[-105.87927,38.47312],[-105.87937,38.4732],[-105.87938,38.47321],[-105.87947,38.47329],[-105.87951,38.47334],[-105.87957,38.4734],[-105.87964,38.47349],[-105.87966,38.47352],[-105.87974,38.47365],[-105.87974,38.47366],[-105.87981,38.47376],[-105.87992,38.47395],[-105.87993,38.47397],[-105.88003,38.47412],[-105.8801,38.47422],[-105.88015,38.47429],[-105.88021,38.47436],[-105.88025,38.47439],[-105.88029,38.47443],[-105.88033,38.47448],[-105.88045,38.47459],[-105.88058,38.4747],[-105.88059,38.4747],[-105.88069,38.47478],[-105.8808,38.47485],[-105.88094,38.47493],[-105.88107,38.475],[-105.88119,38.47506],[-105.88131,38.4751],[-105.88142,38.47514],[-105.88166,38.47522],[-105.88178,38.47525],[-105.88193,38.47529],[-105.88213,38.47532],[-105.88233,38.47534],[-105.88247,38.47535],[-105.88261,38.47535],[-105.88267,38.47535],[-105.8828,38.47534],[-105.88293,38.47533],[-105.88304,38.47533],[-105.88319,38.47531],[-105.88329,38.4753],[-105.88335,38.47529],[-105.88353,38.47527],[-105.88358,38.47526],[-105.88386,38.47522],[-105.88402,38.4752],[-105.8842,38.47519],[-105.88421,38.47518],[-105.88427,38.47518],[-105.88447,38.47517],[-105.8847,38.47517],[-105.88495,38.47518],[-105.88503,38.47518],[-105.88515,38.47519],[-105.88528,38.4752],[-105.88555,38.47523],[-105.88581,38.47528],[-105.88599,38.47533],[-105.88616,38.47538],[-105.88629,38.47542],[-105.88632,38.47543],[-105.88644,38.47547],[-105.88648,38.47549],[-105.88673,38.47559],[-105.88685,38.47565],[-105.88697,38.47571],[-105.88713,38.4758],[-105.88727,38.47589],[-105.88741,38.47599],[-105.88755,38.47609],[-105.8876,38.47613],[-105.88768,38.47619],[-105.88771,38.47622],[-105.88785,38.47634],[-105.88792,38.47639],[-105.88803,38.47647],[-105.88813,38.47655],[-105.88822,38.4766],[-105.88834,38.47667],[-105.88843,38.47671],[-105.88851,38.47675],[-105.88864,38.47681],[-105.88896,38.47694],[-105.88907,38.47698],[-105.89009,38.47739],[-105.8905,38.47756],[-105.89091,38.47772],[-105.89118,38.47783],[-105.89139,38.47792],[-105.89322,38.47867],[-105.89351,38.47878],[-105.89379,38.47889],[-105.89404,38.47898],[-105.89417,38.47903],[-105.89454,38.47916],[-105.89467,38.4792],[-105.89468,38.4792],[-105.89489,38.47927],[-105.89508,38.47932],[-105.89563,38.47947],[-105.89576,38.4795],[-105.89586,38.47953],[-105.89597,38.47956],[-105.89598,38.47956],[-105.89599,38.47956],[-105.89619,38.47961],[-105.8962,38.47961],[-105.89663,38.47971],[-105.89708,38.47982],[-105.89736,38.47988],[-105.89774,38.47996],[-105.89786,38.47998],[-105.8982,38.48005],[-105.89882,38.48016],[-105.89931,38.48025],[-105.89951,38.48029],[-105.89953,38.48029],[-105.89983,38.48035],[-105.9004,38.48046],[-105.90042,38.48046],[-105.90152,38.48067],[-105.90196,38.48076],[-105.90198,38.48076],[-105.90246,38.48085],[-105.90263,38.48088],[-105.90327,38.481],[-105.90376,38.48109],[-105.90423,38.48119],[-105.90438,38.48122],[-105.90444,38.48123],[-105.9046,38.48128],[-105.90462,38.48128],[-105.90483,38.48134],[-105.90503,38.4814],[-105.90547,38.48153],[-105.90561,38.48156],[-105.90575,38.4816],[-105.90591,38.48163],[-105.90595,38.48164],[-105.90612,38.48166],[-105.90613,38.48166],[-105.90635,38.48168],[-105.90663,38.4817],[-105.90682,38.48171],[-105.90692,38.48172],[-105.90704,38.48174],[-105.90722,38.48176],[-105.90737,38.48179],[-105.90749,38.48183],[-105.90759,38.48186],[-105.9077,38.4819],[-105.90782,38.48195],[-105.90793,38.482],[-105.90801,38.48205],[-105.90808,38.48209],[-105.90811,38.48211],[-105.90831,38.48226],[-105.90849,38.48239],[-105.90861,38.48249],[-105.90884,38.48268],[-105.9089,38.48272],[-105.90907,38.48284],[-105.90922,38.48295],[-105.90937,38.48305],[-105.90955,38.48316],[-105.90976,38.48327],[-105.90995,38.48336],[-105.91014,38.48344],[-105.91027,38.48349],[-105.91042,38.48354],[-105.91066,38.4836],[-105.91087,38.48365],[-105.91105,38.4837],[-105.91115,38.48372],[-105.91126,38.48376],[-105.91143,38.48381],[-105.9115,38.48384],[-105.91158,38.48388],[-105.91164,38.48391],[-105.9117,38.48395],[-105.91174,38.48398],[-105.91178,38.48402],[-105.91186,38.4841],[-105.91192,38.48416],[-105.91199,38.48424],[-105.91206,38.48433],[-105.91208,38.48436],[-105.91214,38.48447],[-105.91222,38.48459],[-105.91232,38.48478],[-105.91241,38.48494],[-105.91248,38.48503],[-105.91254,38.48511],[-105.91259,38.48517],[-105.91267,38.48526],[-105.91276,38.48535],[-105.91285,38.48543],[-105.91294,38.48549],[-105.91301,38.48554],[-105.91301,38.48555],[-105.91312,38.48562],[-105.91325,38.48569],[-105.91338,38.48576],[-105.9134,38.48577],[-105.91355,38.48584],[-105.91358,38.48585],[-105.91371,38.48591],[-105.91408,38.48606],[-105.91419,38.4861],[-105.91432,38.48615],[-105.91471,38.48631],[-105.91515,38.48649],[-105.91534,38.48657],[-105.91546,38.48663],[-105.91559,38.48669],[-105.91575,38.48678],[-105.91592,38.48688],[-105.91629,38.48712],[-105.91633,38.48714],[-105.91671,38.48738],[-105.91693,38.48751],[-105.91702,38.48756],[-105.91709,38.4876],[-105.91723,38.48766],[-105.91738,38.48772],[-105.91759,38.48781],[-105.91787,38.48791],[-105.91794,38.48794],[-105.91817,38.48804],[-105.91841,38.48817],[-105.91846,38.4882],[-105.91856,38.48826],[-105.91863,38.48831],[-105.91874,38.48839],[-105.91892,38.48854],[-105.919,38.48862],[-105.91907,38.4887],[-105.91915,38.48878],[-105.91922,38.48888],[-105.91928,38.48897],[-105.91935,38.48908],[-105.91939,38.48916],[-105.91943,38.48926],[-105.91947,38.48935],[-105.9195,38.48945],[-105.91953,38.48953],[-105.91955,38.48964],[-105.91956,38.48977],[-105.91956,38.48987],[-105.91957,38.48997],[-105.91957,38.49006],[-105.91956,38.49014],[-105.91956,38.49022],[-105.91955,38.49028],[-105.91954,38.4903],[-105.91953,38.49038],[-105.91951,38.49045],[-105.91949,38.49051],[-105.91947,38.49057],[-105.91946,38.49062],[-105.91944,38.49067],[-105.91941,38.49073],[-105.91938,38.49079],[-105.91938,38.49081],[-105.91928,38.491],[-105.91913,38.49131],[-105.91911,38.49135],[-105.91879,38.49198],[-105.91846,38.49266],[-105.9183,38.493],[-105.91804,38.4935],[-105.91796,38.49367],[-105.91793,38.49373],[-105.91779,38.494],[-105.9177,38.49417],[-105.9177,38.49418],[-105.91761,38.49434],[-105.91753,38.49451],[-105.91744,38.49467],[-105.91741,38.49473],[-105.91736,38.49484],[-105.91732,38.49493],[-105.91729,38.49501],[-105.91726,38.49509],[-105.91723,38.49517],[-105.91723,38.49518],[-105.91722,38.49522],[-105.9172,38.49529],[-105.91719,38.49536],[-105.91718,38.49541],[-105.91717,38.49547],[-105.91717,38.49555],[-105.91717,38.49564],[-105.9172,38.49597],[-105.91723,38.49613],[-105.91724,38.49618],[-105.91726,38.49622],[-105.91729,38.49631],[-105.91732,38.4964],[-105.91738,38.49652],[-105.91746,38.49665],[-105.91754,38.49678],[-105.91759,38.49684],[-105.91761,38.49687],[-105.91769,38.49696],[-105.91772,38.49699],[-105.9178,38.49707],[-105.91793,38.49719],[-105.91808,38.49731],[-105.91821,38.49741],[-105.9184,38.49752],[-105.91848,38.49756],[-105.91855,38.4976],[-105.91858,38.49761],[-105.91876,38.49768],[-105.9188,38.4977],[-105.91893,38.49775],[-105.91911,38.4978],[-105.91939,38.49787],[-105.91948,38.49789],[-105.91951,38.4979],[-105.91962,38.49792],[-105.91978,38.49793],[-105.91994,38.49794],[-105.91996,38.49794],[-105.92005,38.49795],[-105.92017,38.49794],[-105.92019,38.49794],[-105.92023,38.49794],[-105.92032,38.49794],[-105.92045,38.49793],[-105.92057,38.49791],[-105.92065,38.4979],[-105.92073,38.49789],[-105.92086,38.49786],[-105.92105,38.49783],[-105.92126,38.49778],[-105.92131,38.49776],[-105.92153,38.49771],[-105.92157,38.4977],[-105.92158,38.49769],[-105.92175,38.49765],[-105.92185,38.49762],[-105.92209,38.49756],[-105.92223,38.49753],[-105.92229,38.49752],[-105.92241,38.49751],[-105.92246,38.4975],[-105.9227,38.49749],[-105.92287,38.49748],[-105.92291,38.49748],[-105.92308,38.49748],[-105.92323,38.49748],[-105.92333,38.49749],[-105.92335,38.49749],[-105.92337,38.4975],[-105.92346,38.49751],[-105.92361,38.49755],[-105.92387,38.49761],[-105.9242,38.4977],[-105.92464,38.49782],[-105.92465,38.49782],[-105.92486,38.49787],[-105.9249,38.49788],[-105.92503,38.4979],[-105.92508,38.49792],[-105.92551,38.49801],[-105.92553,38.49801],[-105.92574,38.49807],[-105.9258,38.49808],[-105.92597,38.49813],[-105.926,38.49814],[-105.92616,38.4982],[-105.92617,38.4982],[-105.92628,38.49824],[-105.92638,38.49828],[-105.92651,38.49833],[-105.92682,38.49848],[-105.92725,38.49869],[-105.92755,38.49884],[-105.92762,38.49887],[-105.92786,38.49899],[-105.92807,38.49908],[-105.92815,38.49912],[-105.92819,38.49913],[-105.92821,38.49914],[-105.92836,38.49919],[-105.92837,38.49919],[-105.9284,38.4992],[-105.92854,38.49925],[-105.92857,38.49926],[-105.92869,38.49929],[-105.92901,38.49936],[-105.92903,38.49937],[-105.92921,38.49941],[-105.92945,38.49947],[-105.92946,38.49947],[-105.92967,38.49953],[-105.92968,38.49954],[-105.92971,38.49954],[-105.92988,38.4996],[-105.9299,38.49961],[-105.93007,38.49968],[-105.93008,38.49968],[-105.93022,38.49975],[-105.93037,38.49983],[-105.93046,38.49989],[-105.93049,38.49991],[-105.93051,38.49992],[-105.93069,38.50005],[-105.9308,38.50013],[-105.93083,38.50015],[-105.931,38.50028],[-105.93113,38.50038],[-105.93117,38.5004],[-105.93143,38.50059],[-105.93176,38.50085],[-105.93186,38.50092],[-105.93196,38.50101],[-105.93215,38.50118],[-105.93226,38.50128],[-105.93228,38.5013],[-105.93238,38.50139],[-105.9324,38.50141],[-105.9327,38.50169],[-105.93273,38.50171],[-105.93273,38.50172],[-105.93286,38.50182],[-105.93302,38.50195],[-105.93307,38.502],[-105.93318,38.50207],[-105.93322,38.50209],[-105.93332,38.50216],[-105.93351,38.50226],[-105.93365,38.50233],[-105.93377,38.50238],[-105.93387,38.50241],[-105.93396,38.50245],[-105.93399,38.50245],[-105.93409,38.50248],[-105.9342,38.50252],[-105.93441,38.50256],[-105.93444,38.50257],[-105.93453,38.50258],[-105.93461,38.5026],[-105.93463,38.5026],[-105.93469,38.50261],[-105.93476,38.50261],[-105.93485,38.50262],[-105.935,38.50262],[-105.93515,38.50262],[-105.9353,38.50262],[-105.93531,38.50262],[-105.9355,38.50261],[-105.93554,38.50261],[-105.93573,38.5026],[-105.93619,38.50257],[-105.93623,38.50257],[-105.93627,38.50256],[-105.93646,38.50255],[-105.93727,38.50249],[-105.93742,38.50248],[-105.9376,38.50247],[-105.93861,38.5024],[-105.93941,38.50236],[-105.94084,38.50234],[-105.94125,38.50233],[-105.94148,38.50233],[-105.94232,38.50232],[-105.94286,38.50232],[-105.94309,38.50232],[-105.94345,38.50231],[-105.94354,38.50231],[-105.94366,38.50231],[-105.9439,38.50232],[-105.94403,38.50233],[-105.94415,38.50234],[-105.94423,38.50235],[-105.94428,38.50235],[-105.94438,38.50236],[-105.94446,38.50238],[-105.9445,38.50238],[-105.94463,38.50241],[-105.94476,38.50244],[-105.94496,38.5025],[-105.9451,38.50256],[-105.94525,38.50262],[-105.94542,38.50271],[-105.94559,38.50282],[-105.94572,38.50292],[-105.9458,38.50299],[-105.94582,38.503],[-105.94589,38.50306],[-105.94604,38.50321],[-105.94619,38.50337],[-105.94641,38.50363],[-105.94678,38.50411],[-105.94685,38.50419],[-105.9471,38.5045],[-105.94727,38.50471],[-105.94745,38.5049],[-105.94755,38.50498],[-105.9476,38.50503],[-105.94765,38.50507],[-105.94775,38.50515],[-105.94782,38.50519],[-105.94786,38.50522],[-105.94798,38.5053],[-105.94799,38.50531],[-105.94809,38.50536],[-105.94818,38.50541],[-105.94828,38.50546],[-105.94841,38.50552],[-105.94856,38.50557],[-105.94869,38.50561],[-105.94882,38.50565],[-105.94894,38.50568],[-105.94906,38.5057],[-105.94918,38.50573],[-105.94925,38.50573],[-105.94933,38.50574],[-105.94947,38.50575],[-105.94951,38.50576],[-105.9497,38.50576],[-105.94971,38.50576],[-105.94992,38.50575],[-105.95005,38.50574],[-105.95011,38.50574],[-105.9502,38.50573],[-105.95029,38.50571],[-105.95043,38.50569],[-105.95056,38.50566],[-105.95076,38.50562],[-105.95098,38.50556],[-105.95163,38.50541],[-105.95186,38.50535],[-105.9522,38.50527],[-105.95273,38.50513],[-105.95318,38.50502],[-105.95343,38.50496],[-105.95368,38.5049],[-105.95394,38.50485],[-105.95424,38.50479],[-105.95445,38.50477],[-105.9547,38.50475],[-105.95493,38.50474],[-105.95505,38.50474],[-105.95525,38.50474],[-105.95542,38.50475],[-105.95566,38.50477],[-105.95591,38.50481],[-105.95619,38.50487],[-105.95623,38.50488],[-105.95642,38.50493],[-105.95659,38.50498],[-105.95669,38.50501],[-105.95683,38.50506],[-105.95695,38.5051],[-105.95703,38.50514],[-105.95711,38.50518],[-105.95738,38.50531],[-105.95742,38.50533],[-105.95799,38.50564],[-105.95808,38.50569],[-105.95818,38.50574],[-105.95855,38.50592],[-105.95937,38.50634],[-105.95953,38.50643],[-105.95972,38.50653],[-105.96045,38.50691],[-105.96067,38.50703],[-105.96086,38.50713],[-105.96144,38.50743],[-105.96182,38.50763],[-105.96189,38.50767],[-105.96201,38.50773],[-105.9622,38.50784],[-105.96273,38.50812],[-105.96331,38.50843],[-105.96354,38.50855],[-105.96393,38.50875],[-105.96448,38.50904],[-105.96501,38.5093],[-105.96545,38.50949],[-105.9655,38.50951],[-105.9657,38.50958],[-105.96595,38.50968],[-105.96633,38.50981],[-105.96682,38.50996],[-105.96732,38.5101],[-105.9676,38.51017],[-105.96776,38.5102],[-105.96778,38.51021],[-105.968,38.51026],[-105.96802,38.51026],[-105.96823,38.5103],[-105.96842,38.51033],[-105.96868,38.51037],[-105.96882,38.51044],[-105.96928,38.5105],[-105.96962,38.51054],[-105.97002,38.51057],[-105.97045,38.51059],[-105.971,38.5106],[-105.97165,38.51062],[-105.97265,38.51065],[-105.97304,38.51066],[-105.97327,38.51068],[-105.9734,38.51069],[-105.97355,38.5107],[-105.97368,38.51072],[-105.97383,38.51074],[-105.97396,38.51076],[-105.97415,38.5108],[-105.97435,38.51085],[-105.97449,38.51088],[-105.97452,38.51089],[-105.97462,38.51092],[-105.97488,38.51099],[-105.97518,38.5111],[-105.97538,38.5112],[-105.97549,38.51125],[-105.97562,38.51132],[-105.97575,38.5114],[-105.97578,38.51141],[-105.97591,38.51149],[-105.97592,38.5115],[-105.97593,38.51151],[-105.97607,38.51159],[-105.97618,38.51167],[-105.97627,38.51174],[-105.97634,38.51179],[-105.97645,38.51188],[-105.97673,38.51214],[-105.97686,38.51223],[-105.97687,38.51224],[-105.9771,38.51253],[-105.97723,38.5127],[-105.97726,38.51273],[-105.97746,38.51303],[-105.9779,38.51372],[-105.97803,38.51391],[-105.97842,38.51452],[-105.9788,38.5151],[-105.97925,38.51581],[-105.97987,38.51677],[-105.97988,38.51679],[-105.98058,38.5178],[-105.9811,38.51853],[-105.98115,38.51868],[-105.98131,38.51893],[-105.98175,38.5196],[-105.98203,38.52003],[-105.98207,38.52008],[-105.98229,38.52043],[-105.98256,38.52084],[-105.98271,38.52106],[-105.98314,38.5217],[-105.98366,38.5225],[-105.98379,38.52268],[-105.98388,38.5228],[-105.98395,38.52289],[-105.98402,38.52297],[-105.98407,38.52303],[-105.98415,38.52311],[-105.98429,38.52323],[-105.98435,38.52328],[-105.98451,38.52341],[-105.98472,38.52354],[-105.98493,38.52367],[-105.98493,38.52367],[-105.9848,38.52387],[-105.98474,38.52398],[-105.98472,38.52439],[-105.98472,38.52448],[-105.98469,38.5252],[-105.98471,38.52548],[-105.98473,38.52584],[-105.98472,38.52674],[-105.9847,38.52703],[-105.9847,38.52713],[-105.9847,38.52763],[-105.9847,38.52807],[-105.98469,38.52869],[-105.9847,38.52925],[-105.9847,38.52956],[-105.98469,38.53004],[-105.9847,38.5304],[-105.9847,38.53054],[-105.98469,38.53067],[-105.98469,38.53085],[-105.98469,38.53103],[-105.98469,38.53154],[-105.98469,38.53179],[-105.9847,38.53193],[-105.98472,38.53201],[-105.98482,38.53215],[-105.98493,38.5323],[-105.98504,38.53239],[-105.98514,38.53245],[-105.98528,38.53251],[-105.98546,38.53258],[-105.98554,38.5326],[-105.98602,38.53277],[-105.98641,38.53298],[-105.98704,38.53337],[-105.9873,38.53352],[-105.9873,38.53353],[-105.98755,38.53367],[-105.9886,38.53432],[-105.98891,38.5345],[-105.98893,38.53451],[-105.98912,38.53462],[-105.9893,38.53474],[-105.98966,38.53496],[-105.99074,38.53562],[-105.99129,38.53595],[-105.99179,38.53624],[-105.9921,38.53644],[-105.99232,38.53658],[-105.99285,38.53691],[-105.99304,38.53708],[-105.99317,38.53722],[-105.9933,38.53736],[-105.99344,38.53751],[-105.99364,38.53773],[-105.99371,38.5378],[-105.99395,38.53802],[-105.99445,38.53845],[-105.99485,38.53881],[-105.99516,38.5391],[-105.9956,38.53951],[-105.99609,38.53994],[-105.99649,38.54031],[-105.99739,38.54109],[-105.99799,38.54165],[-105.99831,38.54188],[-105.99838,38.54193],[-105.99849,38.54198],[-105.99862,38.54202],[-105.99894,38.54205],[-105.99936,38.54206],[-105.99941,38.54206],[-105.99943,38.54206],[-106.00021,38.54206],[-106.00048,38.54206],[-106.00057,38.54205],[-106.00094,38.54205],[-106.00094,38.54205],[-106.00095,38.54219],[-106.00094,38.54223]]}}]}