{"type":"FeatureCollection","features":[{"type":"Feature","properties":{"_gpxType":"trk","name":"225 Grand Ave - 8380 Co Rd 144 - 9399 Co Rd 120 - Forest Rd 200 - Tomichi Creek Trading Post, 71420 US-50, Sargents, CO 81248","coordinateProperties":{},"id":63},"geometry":{"type":"LineString","coordinates":[[-106.00092,38.54245],[-106.00095,38.54219],[-106.00094,38.54205],[-106.00094,38.54205],[-106.00114,38.54205],[-106.00206,38.54205],[-106.00272,38.54206],[-106.00276,38.54206],[-106.0029,38.54207],[-106.00303,38.54207],[-106.00303,38.54207],[-106.00315,38.54202],[-106.00335,38.54201],[-106.00348,38.54201],[-106.00371,38.54202],[-106.00386,38.54202],[-106.00394,38.54202],[-106.00417,38.54203],[-106.0044,38.54203],[-106.00463,38.54204],[-106.00486,38.54204],[-106.00508,38.54205],[-106.00514,38.54205],[-106.00514,38.54205],[-106.00514,38.54203],[-106.00515,38.54196],[-106.00515,38.54186],[-106.00513,38.54179],[-106.00505,38.54161],[-106.00497,38.54147],[-106.00494,38.54145],[-106.00457,38.54116],[-106.00445,38.54105],[-106.00445,38.54105],[-106.00439,38.54098],[-106.00435,38.54089],[-106.00427,38.54072],[-106.00427,38.5407],[-106.00427,38.54054],[-106.00431,38.54041],[-106.00431,38.54041],[-106.00606,38.54077],[-106.00628,38.54082],[-106.00797,38.54118],[-106.00806,38.54119],[-106.00916,38.54143],[-106.0092,38.54144],[-106.00961,38.5415],[-106.01015,38.54152],[-106.01053,38.5415],[-106.01076,38.54148],[-106.01176,38.54139],[-106.01239,38.54133],[-106.01255,38.54131],[-106.01274,38.54132],[-106.01286,38.54133],[-106.01296,38.54134],[-106.01308,38.54136],[-106.01327,38.54141],[-106.01345,38.54144],[-106.01478,38.54175],[-106.0152,38.54185],[-106.01549,38.54191],[-106.0157,38.54193],[-106.01589,38.54196],[-106.01643,38.54199],[-106.01807,38.54205],[-106.01868,38.54209],[-106.01939,38.54213],[-106.01946,38.54213],[-106.01968,38.54215],[-106.01979,38.54214],[-106.0199,38.5421],[-106.0199,38.5421],[-106.0199,38.54206],[-106.01993,38.54201],[-106.0204,38.54177],[-106.02079,38.54158],[-106.02176,38.54109],[-106.02214,38.5409],[-106.02216,38.54089],[-106.02237,38.54081],[-106.02251,38.54078],[-106.02274,38.54077],[-106.02334,38.54081],[-106.0236,38.54081],[-106.02378,38.54077],[-106.02379,38.54077],[-106.02389,38.54072],[-106.02402,38.54063],[-106.02404,38.54061],[-106.02408,38.54056],[-106.02413,38.54042],[-106.02414,38.54011]]}},{"type":"Feature","properties":{"_gpxType":"trk","name":"225 Grand Ave - 8380 Co Rd 144 - 9399 Co Rd 120 - Forest Rd 200 - Tomichi Creek Trading Post, 71420 US-50, Sargents, CO 81248","coordinateProperties":{},"id":63},"geometry":{"type":"LineString","coordinates":[[-106.02414,38.54011],[-106.02416,38.53867],[-106.02419,38.53705],[-106.0242,38.53633],[-106.02423,38.53509],[-106.02423,38.53509],[-106.02564,38.53511],[-106.02653,38.53512],[-106.02767,38.53514],[-106.02779,38.53514],[-106.02909,38.53516],[-106.02929,38.53516],[-106.02932,38.53516],[-106.03086,38.53518],[-106.03237,38.5352],[-106.03345,38.5352],[-106.03345,38.5352],[-106.03347,38.53484],[-106.03347,38.53466],[-106.03347,38.53461],[-106.0335,38.53395],[-106.03351,38.53362],[-106.03352,38.53308],[-106.03356,38.532],[-106.03356,38.53182],[-106.03358,38.53128],[-106.03359,38.53092],[-106.03359,38.53074],[-106.03361,38.53002],[-106.03362,38.52984],[-106.03364,38.52912],[-106.03365,38.52884],[-106.03367,38.52768],[-106.03368,38.5275],[-106.03369,38.5272],[-106.0337,38.52678],[-106.0337,38.52666],[-106.0337,38.5266],[-106.03371,38.52642],[-106.03371,38.52631],[-106.03371,38.52624],[-106.03372,38.52595],[-106.03372,38.5257],[-106.03373,38.52564],[-106.0337,38.52542],[-106.03364,38.52523],[-106.03364,38.52523],[-106.03405,38.52513],[-106.03453,38.52498],[-106.03542,38.52469],[-106.03649,38.52435],[-106.03666,38.5243],[-106.03698,38.52422],[-106.0373,38.52412],[-106.03768,38.524],[-106.03777,38.52397],[-106.0382,38.52381],[-106.03831,38.52377],[-106.03934,38.52338],[-106.03976,38.52323],[-106.03997,38.52315],[-106.04054,38.52294],[-106.041,38.52276],[-106.04121,38.52268],[-106.04189,38.52242],[-106.04305,38.52196],[-106.04341,38.52181],[-106.04357,38.52174],[-106.04372,38.52168],[-106.04387,38.52162],[-106.04391,38.52161],[-106.04404,38.52158],[-106.04445,38.52147],[-106.04539,38.52121],[-106.04561,38.52115],[-106.04562,38.52115],[-106.0463,38.52097],[-106.04675,38.52084],[-106.04697,38.52079],[-106.0473,38.52071],[-106.04762,38.52062],[-106.04946,38.52013]]}},{"type":"Feature","properties":{"_gpxType":"trk","name":"225 Grand Ave - 8380 Co Rd 144 - 9399 Co Rd 120 - Forest Rd 200 - Tomichi Creek Trading Post, 71420 US-50, Sargents, CO 81248","coordinateProperties":{},"id":63},"geometry":{"type":"LineString","coordinates":[[-106.04946,38.52013],[-106.04993,38.52],[-106.05164,38.51954],[-106.05186,38.51948],[-106.05229,38.51937],[-106.05259,38.51929],[-106.05316,38.51916],[-106.05375,38.51902],[-106.05458,38.51883],[-106.0547,38.51881],[-106.05563,38.51861],[-106.05585,38.51857],[-106.05587,38.51857],[-106.05607,38.51854],[-106.05615,38.51853],[-106.05643,38.5185],[-106.05653,38.51849],[-106.05667,38.51848],[-106.05676,38.51848],[-106.05699,38.51846],[-106.05745,38.51843],[-106.05751,38.51843],[-106.05768,38.51842],[-106.05882,38.51835],[-106.05951,38.5183],[-106.06066,38.51823],[-106.06106,38.51821],[-106.06168,38.51817],[-106.06168,38.51817],[-106.06169,38.51814],[-106.06172,38.5181],[-106.06175,38.51804],[-106.06176,38.51802],[-106.06179,38.518],[-106.06183,38.51798],[-106.06188,38.51797],[-106.06194,38.51796],[-106.06199,38.51795],[-106.06217,38.51791],[-106.06219,38.5179],[-106.06237,38.51783],[-106.06241,38.51782],[-106.06257,38.51774],[-106.06273,38.51766],[-106.06276,38.51764],[-106.06286,38.51757],[-106.06292,38.51751],[-106.06293,38.51749],[-106.06299,38.51739],[-106.06301,38.51734],[-106.06298,38.51718],[-106.06296,38.51701],[-106.06296,38.517],[-106.06294,38.51688],[-106.06293,38.51683],[-106.06289,38.51665],[-106.06289,38.51665],[-106.06378,38.5165],[-106.06493,38.51633],[-106.06547,38.51625],[-106.06597,38.51617],[-106.06823,38.51583],[-106.06937,38.51566],[-106.07026,38.51552],[-106.07041,38.51555],[-106.07044,38.51555],[-106.0707,38.5155],[-106.07158,38.51537],[-106.07221,38.51528],[-106.07295,38.51516],[-106.07315,38.51513],[-106.07345,38.51509],[-106.07368,38.51505],[-106.07389,38.51501],[-106.07449,38.51494],[-106.07469,38.51491],[-106.0748,38.51489],[-106.07579,38.5147],[-106.07608,38.51465],[-106.07657,38.51457],[-106.07666,38.51456],[-106.07666,38.51456],[-106.07666,38.51449],[-106.07666,38.51426],[-106.07666,38.51406],[-106.07666,38.51393],[-106.07665,38.51388],[-106.07666,38.51388],[-106.07666,38.51372],[-106.07667,38.51348],[-106.0767,38.51338],[-106.0767,38.51275],[-106.07672,38.51248],[-106.07672,38.51237],[-106.07673,38.51181],[-106.07673,38.51137],[-106.07673,38.51119],[-106.07672,38.51101],[-106.0767,38.51085],[-106.07671,38.51068],[-106.07671,38.51056],[-106.07671,38.51018],[-106.07671,38.51015],[-106.07671,38.51003],[-106.07674,38.50969],[-106.07677,38.50958],[-106.07677,38.50953],[-106.07687,38.50925],[-106.07705,38.50892],[-106.07705,38.50892],[-106.07697,38.50881],[-106.07696,38.50879],[-106.07695,38.50877],[-106.07694,38.50875],[-106.07694,38.5087],[-106.07693,38.50863],[-106.07694,38.50858],[-106.07694,38.50855],[-106.07696,38.50846],[-106.07696,38.50841],[-106.07698,38.50831],[-106.077,38.50823],[-106.07701,38.5082],[-106.07704,38.5081],[-106.07711,38.50797],[-106.07736,38.50764],[-106.0776,38.50727],[-106.07767,38.50685],[-106.07779,38.50653],[-106.07781,38.50651],[-106.07789,38.50638],[-106.078,38.50622],[-106.07802,38.50619],[-106.07856,38.50552],[-106.07862,38.50542],[-106.07877,38.50519],[-106.07883,38.5051],[-106.07888,38.50505],[-106.07911,38.50482],[-106.07929,38.50464],[-106.07933,38.50455],[-106.07938,38.5043],[-106.07937,38.50418],[-106.0793,38.5038],[-106.0793,38.50371],[-106.0793,38.50353],[-106.0793,38.5035],[-106.07935,38.50335],[-106.07941,38.5032],[-106.07941,38.50318],[-106.07948,38.50282],[-106.07952,38.50264],[-106.07953,38.5026],[-106.07961,38.50229],[-106.0797,38.50193],[-106.07984,38.5016],[-106.07988,38.50149],[-106.07989,38.50142],[-106.07991,38.50118],[-106.07991,38.50106],[-106.07991,38.50105],[-106.07987,38.50098],[-106.07982,38.50089],[-106.07969,38.50081],[-106.07953,38.50078],[-106.07938,38.50082],[-106.0793,38.50092],[-106.07933,38.5011],[-106.07931,38.50122],[-106.07923,38.50129],[-106.07922,38.5013],[-106.07909,38.50133],[-106.07901,38.50131],[-106.07896,38.5013],[-106.07864,38.50116],[-106.07857,38.50109],[-106.07855,38.501],[-106.07857,38.50089],[-106.07858,38.50079],[-106.07858,38.50071],[-106.0785,38.50064],[-106.07849,38.50063],[-106.07821,38.50061],[-106.07791,38.50055],[-106.0777,38.50046],[-106.07762,38.50041],[-106.0776,38.50036],[-106.07759,38.50026],[-106.07761,38.5002],[-106.07768,38.50012],[-106.07768,38.50005],[-106.07764,38.49996],[-106.07762,38.49992],[-106.07761,38.4999],[-106.07754,38.49982],[-106.07749,38.49977],[-106.07732,38.49963],[-106.07725,38.4995],[-106.07706,38.49907],[-106.07693,38.4988],[-106.07692,38.49879],[-106.07689,38.49865],[-106.07689,38.49862],[-106.07688,38.49854],[-106.0769,38.49844],[-106.0769,38.49843],[-106.07693,38.49835],[-106.07698,38.49826],[-106.07702,38.49821],[-106.07706,38.49819],[-106.0771,38.49818],[-106.07716,38.49818],[-106.07718,38.49818],[-106.07722,38.49819],[-106.07726,38.49821],[-106.07729,38.49822],[-106.07733,38.49825],[-106.07735,38.49826],[-106.07736,38.49827],[-106.0774,38.4983],[-106.07746,38.49832],[-106.0775,38.49834],[-106.07755,38.49835],[-106.07762,38.49836],[-106.07769,38.49834],[-106.07776,38.49832],[-106.07781,38.49828],[-106.07785,38.49825],[-106.07788,38.49819],[-106.0779,38.49813],[-106.07792,38.49799],[-106.07792,38.49799],[-106.07798,38.49799],[-106.07804,38.49797],[-106.07809,38.49794],[-106.07814,38.49787],[-106.07816,38.49773],[-106.07818,38.49767],[-106.07834,38.49749],[-106.07848,38.49737],[-106.07862,38.49729],[-106.0788,38.49728],[-106.07902,38.49725],[-106.07911,38.49725],[-106.07925,38.49722],[-106.07935,38.49716],[-106.07945,38.49691],[-106.07948,38.49684],[-106.07959,38.49672],[-106.0799,38.49654],[-106.07991,38.49654],[-106.07998,38.49645],[-106.08005,38.49639],[-106.0802,38.49628],[-106.08027,38.49618],[-106.08034,38.49598],[-106.08048,38.49579],[-106.08049,38.49578],[-106.08051,38.4956],[-106.08051,38.49558],[-106.08048,38.49542],[-106.08046,38.49534],[-106.08041,38.49523],[-106.08038,38.49512],[-106.08041,38.49508],[-106.08041,38.49506],[-106.0805,38.49504],[-106.08071,38.49506],[-106.08093,38.49512],[-106.08107,38.49513],[-106.08108,38.49513],[-106.08129,38.4951],[-106.08137,38.49509],[-106.08147,38.495],[-106.08159,38.4949],[-106.08161,38.49486],[-106.08173,38.49471],[-106.08185,38.49457],[-106.08185,38.49456],[-106.08194,38.49437],[-106.082,38.49419],[-106.08209,38.49405],[-106.08242,38.49358],[-106.08252,38.49342],[-106.08253,38.49342],[-106.08277,38.49317],[-106.08285,38.49308],[-106.08289,38.49297],[-106.08293,38.49286],[-106.083,38.49267],[-106.08304,38.49263],[-106.08316,38.49247],[-106.08317,38.49246],[-106.08319,38.49238],[-106.08318,38.49227],[-106.08313,38.49213],[-106.0831,38.49205],[-106.08308,38.49195],[-106.08307,38.49192],[-106.08311,38.49177],[-106.08312,38.49176],[-106.08321,38.49161],[-106.08323,38.49158],[-106.08328,38.49146],[-106.08329,38.49138],[-106.08325,38.49122],[-106.08327,38.49111],[-106.08328,38.49109],[-106.08332,38.491],[-106.08346,38.49094],[-106.08355,38.49091],[-106.08362,38.49089],[-106.08374,38.49085],[-106.08385,38.49082],[-106.08387,38.49082],[-106.08403,38.4908],[-106.08412,38.49081],[-106.08437,38.49085],[-106.08437,38.49085],[-106.08445,38.4906],[-106.08457,38.4902],[-106.08466,38.48986],[-106.08479,38.48943],[-106.08494,38.48891],[-106.08502,38.48863],[-106.0851,38.48833],[-106.0852,38.48796],[-106.08525,38.48775],[-106.08526,38.48771],[-106.08548,38.48686],[-106.08557,38.48651],[-106.08573,38.48586],[-106.08576,38.48576],[-106.0858,38.48566],[-106.08581,38.48563],[-106.08585,38.48556],[-106.08589,38.48547],[-106.08589,38.48546],[-106.08592,38.4854],[-106.08603,38.48521],[-106.08607,38.48513],[-106.08608,38.48512],[-106.08614,38.48503],[-106.08624,38.48488],[-106.08635,38.48472],[-106.08642,38.48463],[-106.08647,38.48456],[-106.08652,38.48447],[-106.08659,38.48438],[-106.0867,38.48424],[-106.08675,38.48419],[-106.08679,38.48414],[-106.08682,38.48409],[-106.08686,38.48404],[-106.08686,38.48403],[-106.08689,38.48399],[-106.08691,38.48396],[-106.08693,38.48391],[-106.08696,38.48385],[-106.08701,38.48375],[-106.08704,38.48368],[-106.08707,38.4836],[-106.08709,38.48357],[-106.08711,38.48349],[-106.08714,38.4834],[-106.08716,38.48334],[-106.08717,38.4833],[-106.08719,38.48317],[-106.0872,38.48305],[-106.0872,38.48295],[-106.0872,38.48283],[-106.08719,38.48272],[-106.08718,38.48263],[-106.08716,38.48252],[-106.08715,38.48246],[-106.08711,38.48231],[-106.0871,38.48229],[-106.08705,38.48201],[-106.087,38.48177],[-106.08696,38.48151],[-106.08694,38.48136],[-106.08694,38.48116],[-106.08695,38.48109],[-106.08695,38.481],[-106.08697,38.48091],[-106.08698,38.48086],[-106.08698,38.48083],[-106.08699,38.48079],[-106.08701,38.48073],[-106.08705,38.48061],[-106.0871,38.48048],[-106.08713,38.4804],[-106.08716,38.48035],[-106.08717,38.48033],[-106.08719,38.4803],[-106.08724,38.48023],[-106.0873,38.48014],[-106.08736,38.48006],[-106.08748,38.47993],[-106.08752,38.47987],[-106.08757,38.4798],[-106.08763,38.47972],[-106.08768,38.47965],[-106.08774,38.47956],[-106.08778,38.47949],[-106.08784,38.4794],[-106.08789,38.47933],[-106.08801,38.47915],[-106.0881,38.47903],[-106.08816,38.47894],[-106.08821,38.47885],[-106.08825,38.47878],[-106.08828,38.4787],[-106.08832,38.47859],[-106.08835,38.47851],[-106.08838,38.47841],[-106.08838,38.4784],[-106.0884,38.47834],[-106.08841,38.47827],[-106.08842,38.47823],[-106.08842,38.4782],[-106.08843,38.47816],[-106.08843,38.47813],[-106.08843,38.47809],[-106.08843,38.47805],[-106.08843,38.478],[-106.08842,38.47795],[-106.08842,38.4779],[-106.0884,38.47783],[-106.08839,38.47776],[-106.08837,38.47768],[-106.08834,38.47759],[-106.08826,38.47733],[-106.08821,38.47717],[-106.08814,38.47695],[-106.08811,38.47683],[-106.08808,38.47668],[-106.08807,38.47661],[-106.08806,38.47653],[-106.08806,38.47646],[-106.08806,38.47641],[-106.08806,38.47631],[-106.08806,38.47629],[-106.08807,38.47622],[-106.0881,38.47613],[-106.08812,38.47605],[-106.08815,38.47597],[-106.08818,38.4759],[-106.08821,38.47583],[-106.08825,38.47575],[-106.08828,38.47571],[-106.0883,38.47567],[-106.08833,38.47561],[-106.08834,38.4756],[-106.08838,38.47555],[-106.08844,38.47547],[-106.08846,38.47545],[-106.08848,38.47542],[-106.08852,38.47538],[-106.08859,38.47531],[-106.08862,38.47528],[-106.0887,38.47521],[-106.08907,38.4749],[-106.08923,38.47477],[-106.08937,38.47466],[-106.08944,38.4746],[-106.08954,38.47453],[-106.08961,38.47449],[-106.08968,38.47444],[-106.08972,38.47441],[-106.08974,38.47439],[-106.08978,38.47436],[-106.08981,38.47434],[-106.08989,38.47427],[-106.08996,38.4742],[-106.09002,38.47414],[-106.09004,38.47412],[-106.0901,38.47405],[-106.09015,38.47399],[-106.09016,38.47399],[-106.0902,38.47393],[-106.09025,38.47386],[-106.09034,38.47374],[-106.09037,38.47367],[-106.0904,38.47364],[-106.09045,38.47353],[-106.09046,38.47351],[-106.09049,38.47345],[-106.09054,38.47336],[-106.09054,38.47334],[-106.09061,38.47319],[-106.09067,38.47304],[-106.09073,38.4729],[-106.09084,38.47259],[-106.0909,38.47246],[-106.09095,38.47236],[-106.091,38.47227],[-106.09107,38.47215],[-106.09114,38.47205],[-106.0912,38.47198],[-106.09127,38.4719],[-106.09129,38.47188],[-106.09143,38.47172],[-106.09171,38.47144],[-106.09181,38.47135],[-106.09182,38.47133],[-106.09195,38.4712],[-106.09196,38.4712],[-106.09208,38.47107],[-106.09211,38.47103],[-106.09217,38.47098],[-106.09221,38.47092],[-106.0923,38.47081],[-106.09234,38.47076],[-106.0924,38.47069],[-106.09249,38.47056],[-106.09253,38.47051],[-106.09256,38.47047],[-106.09257,38.47045],[-106.09258,38.47043],[-106.0926,38.4704],[-106.09264,38.47032],[-106.09273,38.47016],[-106.09281,38.47004],[-106.09286,38.46996],[-106.09287,38.46995],[-106.09289,38.46991],[-106.09295,38.4698],[-106.09301,38.46971],[-106.09307,38.46961],[-106.09312,38.46954],[-106.09317,38.46947],[-106.09323,38.46938],[-106.09327,38.46932],[-106.09328,38.46931],[-106.09333,38.46923],[-106.09342,38.4691],[-106.09352,38.46895],[-106.09361,38.46882],[-106.09368,38.46874],[-106.09377,38.46862],[-106.09387,38.4685],[-106.09396,38.4684],[-106.09408,38.46826],[-106.09424,38.46809],[-106.0944,38.46793],[-106.09448,38.46784],[-106.09456,38.46776],[-106.09464,38.46768],[-106.09465,38.46767],[-106.09474,38.46759],[-106.09481,38.46752],[-106.09486,38.46747],[-106.09493,38.46739],[-106.09499,38.4673],[-106.09505,38.46723],[-106.09512,38.46713],[-106.09516,38.46707],[-106.09528,38.4669],[-106.09536,38.46676],[-106.09537,38.46674],[-106.09546,38.46659],[-106.0955,38.46653],[-106.09557,38.46641],[-106.09565,38.46628],[-106.09568,38.46622],[-106.09573,38.46613],[-106.09576,38.46607],[-106.09582,38.46591],[-106.09589,38.46576],[-106.09596,38.46559],[-106.09605,38.46537],[-106.09619,38.46501],[-106.09629,38.46473],[-106.09643,38.46439],[-106.09643,38.46438],[-106.09644,38.46436],[-106.0965,38.46422],[-106.09659,38.46399],[-106.09664,38.46387],[-106.09668,38.46377],[-106.09671,38.46368],[-106.09682,38.46342],[-106.09685,38.46336],[-106.09688,38.46329],[-106.09693,38.46319],[-106.09694,38.46317],[-106.09701,38.46302],[-106.09703,38.46299],[-106.09709,38.46289],[-106.09713,38.46282],[-106.09716,38.46277],[-106.09725,38.46264],[-106.09735,38.46251],[-106.09744,38.46239],[-106.09752,38.46228],[-106.09761,38.46215],[-106.09766,38.46207],[-106.09768,38.46204],[-106.09776,38.46194],[-106.09782,38.46185],[-106.09786,38.46177],[-106.0979,38.4617],[-106.09793,38.46164],[-106.09796,38.46158],[-106.09799,38.46151],[-106.09801,38.46145],[-106.09803,38.46141],[-106.09805,38.46135],[-106.09806,38.46131],[-106.09807,38.46126],[-106.09808,38.46124],[-106.09809,38.46119],[-106.09811,38.46111],[-106.09815,38.46091],[-106.09816,38.46082],[-106.09818,38.46076],[-106.09819,38.46072],[-106.09821,38.46065],[-106.09821,38.46062],[-106.09822,38.46054],[-106.09823,38.46049],[-106.09824,38.46041],[-106.09826,38.46026],[-106.09827,38.46016],[-106.09828,38.46009],[-106.0983,38.45998],[-106.09833,38.45988],[-106.09835,38.4598],[-106.09837,38.45975],[-106.09839,38.4597],[-106.09841,38.45964],[-106.09854,38.45941],[-106.09861,38.45929],[-106.09869,38.45919],[-106.09879,38.45905],[-106.09885,38.45897],[-106.0989,38.45889],[-106.09893,38.45886],[-106.09896,38.45881],[-106.09902,38.45873],[-106.09912,38.45858],[-106.09916,38.45853],[-106.09927,38.45836],[-106.0993,38.4583],[-106.09933,38.45826],[-106.09935,38.45821],[-106.09937,38.45817],[-106.09938,38.45815],[-106.0994,38.45809],[-106.09941,38.45808],[-106.09943,38.45803],[-106.09947,38.45792],[-106.0995,38.45782],[-106.09951,38.45776],[-106.09952,38.45774],[-106.09954,38.45763],[-106.09956,38.45752],[-106.0996,38.4573],[-106.09963,38.45714],[-106.09966,38.45703],[-106.09968,38.45691],[-106.09969,38.45685],[-106.09972,38.45664],[-106.09974,38.45658],[-106.09975,38.45649],[-106.09978,38.45633],[-106.0998,38.45619],[-106.09982,38.4561],[-106.09984,38.45602],[-106.09986,38.45595],[-106.09989,38.45583],[-106.0999,38.45578],[-106.09994,38.45565],[-106.09997,38.45555],[-106.1,38.45548],[-106.10004,38.4554],[-106.10008,38.4553],[-106.1001,38.45527],[-106.10011,38.45524],[-106.10016,38.45515],[-106.10024,38.45501],[-106.10025,38.455],[-106.10028,38.45494],[-106.1003,38.4549],[-106.10034,38.45485],[-106.10036,38.45482],[-106.10044,38.4547],[-106.10051,38.4546],[-106.10064,38.45441],[-106.10072,38.4543],[-106.10077,38.45423],[-106.10083,38.45415],[-106.10086,38.45411],[-106.1009,38.45407],[-106.10097,38.45396],[-106.10104,38.45387],[-106.10113,38.45373],[-106.10122,38.45359],[-106.10127,38.45352],[-106.10128,38.45351],[-106.10133,38.45343],[-106.10136,38.4534],[-106.10145,38.45327],[-106.10151,38.45321],[-106.10158,38.45312],[-106.1017,38.45297],[-106.10178,38.45289],[-106.10187,38.4528],[-106.10198,38.45268],[-106.10202,38.45264],[-106.10209,38.45258],[-106.10218,38.4525],[-106.10226,38.45244],[-106.10232,38.45239],[-106.10236,38.45236],[-106.10238,38.45234],[-106.10244,38.4523],[-106.10249,38.45227],[-106.10255,38.45223],[-106.10262,38.45218],[-106.10282,38.45207],[-106.103,38.45196],[-106.10336,38.45175],[-106.1034,38.45172],[-106.10344,38.4517],[-106.10354,38.45164],[-106.10378,38.45149],[-106.1042,38.45125],[-106.10427,38.4512],[-106.1045,38.45108],[-106.10466,38.45098],[-106.10479,38.45091],[-106.10491,38.45085],[-106.10492,38.45084],[-106.10501,38.4508],[-106.10516,38.45072],[-106.10529,38.45065],[-106.10535,38.45062],[-106.1054,38.45059],[-106.10545,38.45056],[-106.10549,38.45054],[-106.10553,38.45051],[-106.10562,38.45046],[-106.10574,38.45038],[-106.10576,38.45037],[-106.10582,38.45033],[-106.10588,38.45028],[-106.10593,38.45024],[-106.10594,38.45024],[-106.10599,38.4502],[-106.10601,38.45018],[-106.10605,38.45015],[-106.1061,38.45011],[-106.10614,38.45007],[-106.10616,38.45005],[-106.10622,38.44999],[-106.10624,38.44997],[-106.10627,38.44994],[-106.10633,38.44988],[-106.10637,38.44983],[-106.10638,38.44982],[-106.10643,38.44976],[-106.10646,38.44972],[-106.10651,38.44965],[-106.10654,38.44959],[-106.10658,38.44954],[-106.10661,38.44949],[-106.10664,38.44944],[-106.10668,38.44935],[-106.1067,38.4493],[-106.10672,38.44926],[-106.10674,38.4492],[-106.10677,38.44912],[-106.10677,38.4491],[-106.10679,38.44903],[-106.10681,38.44895],[-106.10681,38.44892],[-106.10682,38.44889],[-106.10682,38.44883],[-106.10683,38.44876],[-106.10683,38.44869],[-106.10683,38.44865],[-106.10683,38.44859],[-106.10683,38.44854],[-106.10683,38.44845],[-106.10682,38.44838],[-106.1068,38.44829],[-106.10678,38.4482],[-106.10678,38.4482],[-106.10706,38.4481],[-106.10732,38.44795],[-106.10734,38.44794],[-106.1077,38.44772],[-106.10787,38.44761],[-106.10876,38.44705],[-106.10877,38.44705],[-106.10896,38.44694],[-106.10931,38.44675],[-106.10947,38.44664],[-106.1095,38.44661],[-106.10959,38.44652],[-106.10963,38.44646],[-106.10973,38.44633],[-106.10975,38.44631],[-106.11014,38.44577],[-106.11022,38.44569],[-106.11027,38.44564],[-106.11037,38.44556],[-106.11046,38.44545],[-106.11065,38.44536],[-106.11072,38.44534],[-106.11079,38.44531],[-106.11093,38.44527],[-106.11096,38.44526],[-106.11107,38.44524],[-106.11118,38.44521],[-106.1113,38.44517],[-106.11136,38.44514],[-106.11139,38.44512],[-106.11145,38.44508],[-106.11153,38.44503],[-106.11163,38.44495],[-106.11183,38.44476],[-106.11199,38.4446],[-106.11213,38.44448],[-106.11226,38.44436],[-106.11245,38.44422],[-106.11254,38.44415],[-106.1128,38.44401],[-106.11295,38.44388],[-106.11306,38.44377],[-106.11317,38.44363],[-106.1133,38.4434],[-106.11341,38.4432],[-106.11354,38.44305],[-106.1137,38.44291],[-106.11386,38.4428],[-106.11401,38.44271],[-106.11427,38.44254],[-106.11441,38.44247],[-106.11446,38.44244],[-106.11461,38.44239],[-106.11472,38.44235],[-106.11501,38.44225],[-106.11524,38.44218],[-106.11557,38.442],[-106.11595,38.44178],[-106.11613,38.44167],[-106.11624,38.44158],[-106.11632,38.44151],[-106.11636,38.44147],[-106.11648,38.44133],[-106.11673,38.44105],[-106.11686,38.44093],[-106.117,38.44079],[-106.11706,38.44074],[-106.11728,38.44051],[-106.11742,38.44036],[-106.11757,38.44016],[-106.11764,38.44008],[-106.11767,38.44006],[-106.11774,38.43998],[-106.11782,38.43991],[-106.11794,38.43982],[-106.11828,38.43959],[-106.11868,38.43933],[-106.11875,38.43927],[-106.11909,38.43905],[-106.1192,38.43898],[-106.11933,38.43889],[-106.11972,38.43863],[-106.11977,38.4386],[-106.11999,38.43845],[-106.12021,38.4383],[-106.12045,38.43812],[-106.1207,38.43793],[-106.12075,38.43788],[-106.12084,38.4378],[-106.12094,38.43767],[-106.12106,38.4375],[-106.12127,38.43713],[-106.12136,38.43699],[-106.12141,38.43691],[-106.12166,38.43629],[-106.12172,38.43613],[-106.12179,38.43596],[-106.1218,38.43594],[-106.12181,38.43591],[-106.12197,38.43556],[-106.12217,38.43525],[-106.12225,38.43514],[-106.12227,38.43512],[-106.12238,38.43499],[-106.12242,38.43494],[-106.12266,38.43473],[-106.1227,38.43471],[-106.12287,38.43458],[-106.12293,38.43454],[-106.12303,38.43446],[-106.12339,38.43419],[-106.12368,38.43395],[-106.12383,38.43382],[-106.12383,38.43381],[-106.12409,38.43359],[-106.12426,38.43343],[-106.12437,38.43328],[-106.12439,38.43325],[-106.12443,38.43317],[-106.12448,38.43308],[-106.12452,38.433],[-106.12456,38.43291],[-106.12459,38.43282],[-106.12466,38.43266],[-106.1248,38.4324],[-106.12488,38.43229],[-106.12491,38.43225],[-106.12497,38.43218],[-106.12508,38.43208],[-106.12525,38.43193],[-106.12552,38.43171],[-106.12574,38.43154],[-106.12596,38.43136],[-106.126,38.43133],[-106.1262,38.43114],[-106.12641,38.43093],[-106.12668,38.4306],[-106.12678,38.43046],[-106.12686,38.43031],[-106.12687,38.43028],[-106.12694,38.4301],[-106.12706,38.42982],[-106.12717,38.4296],[-106.12724,38.42946],[-106.12735,38.42926],[-106.12751,38.42897],[-106.12773,38.42861],[-106.12773,38.42859],[-106.12781,38.42848],[-106.12788,38.4284],[-106.12798,38.42831],[-106.12801,38.42829],[-106.1282,38.42813],[-106.12829,38.42805],[-106.12841,38.42795],[-106.12852,38.42783],[-106.12861,38.42771],[-106.12875,38.42743],[-106.12885,38.42725],[-106.12892,38.42715],[-106.12905,38.42699],[-106.1291,38.42692],[-106.12913,38.42686],[-106.12918,38.42676],[-106.12922,38.42667],[-106.12923,38.42662],[-106.12925,38.42656],[-106.12927,38.42644],[-106.12928,38.42628],[-106.12929,38.42615],[-106.12931,38.42608],[-106.12934,38.426],[-106.12948,38.42555],[-106.12956,38.42509],[-106.12961,38.42472],[-106.12958,38.4244],[-106.12957,38.42429],[-106.12954,38.42398],[-106.12954,38.42356],[-106.12946,38.42333],[-106.12938,38.42316],[-106.1293,38.42301],[-106.12906,38.42254],[-106.12902,38.42243],[-106.12899,38.42235],[-106.12898,38.42226],[-106.12899,38.42218],[-106.12904,38.42205],[-106.12916,38.4219],[-106.12916,38.4219],[-106.12925,38.42176],[-106.1294,38.42152],[-106.12966,38.42117],[-106.12971,38.42111],[-106.12997,38.42078],[-106.13009,38.4206],[-106.13015,38.42048],[-106.13016,38.42046],[-106.13016,38.42041],[-106.13014,38.42035],[-106.1301,38.4203],[-106.13002,38.42021],[-106.12985,38.42002],[-106.12985,38.42002],[-106.1302,38.41956],[-106.13035,38.41938],[-106.13068,38.41895],[-106.13098,38.41858],[-106.13133,38.41811],[-106.1314,38.41803],[-106.13161,38.4178],[-106.1318,38.41762],[-106.13203,38.41748],[-106.13248,38.41729],[-106.13344,38.41695],[-106.13384,38.41682],[-106.13387,38.41681],[-106.13423,38.41668],[-106.13483,38.41647],[-106.13492,38.41644],[-106.13531,38.4163],[-106.13554,38.41621],[-106.1358,38.41611],[-106.13607,38.41601],[-106.13631,38.41589],[-106.13646,38.41576],[-106.13658,38.41563],[-106.13662,38.41558],[-106.13668,38.41548],[-106.13678,38.41533],[-106.13684,38.41526],[-106.1369,38.4152],[-106.13712,38.41509],[-106.13721,38.41507],[-106.13736,38.41504],[-106.13763,38.41505],[-106.13786,38.41509],[-106.13788,38.41511],[-106.13804,38.41519],[-106.13807,38.41522],[-106.13821,38.41536],[-106.1383,38.41551],[-106.13841,38.41568],[-106.13841,38.41568],[-106.13828,38.41582],[-106.13809,38.41602],[-106.13799,38.4161],[-106.13774,38.41629],[-106.13738,38.41648],[-106.13705,38.41661],[-106.13634,38.41691],[-106.13625,38.41696],[-106.13605,38.41706],[-106.13561,38.41727],[-106.13546,38.41734],[-106.13526,38.41742],[-106.13446,38.41777],[-106.13433,38.41782],[-106.13426,38.41785],[-106.13405,38.41794],[-106.13392,38.418],[-106.13354,38.4182],[-106.13349,38.41824],[-106.13333,38.41836]]}},{"type":"Feature","properties":{"_gpxType":"trk","name":"225 Grand Ave - 8380 Co Rd 144 - 9399 Co Rd 120 - Forest Rd 200 - Tomichi Creek Trading Post, 71420 US-50, Sargents, CO 81248","coordinateProperties":{},"id":63},"geometry":{"type":"LineString","coordinates":[[-106.13333,38.41836],[-106.13325,38.41843],[-106.13306,38.41865],[-106.13305,38.41866],[-106.13295,38.41882],[-106.13275,38.41911],[-106.13244,38.41957],[-106.13212,38.41998],[-106.13205,38.42007],[-106.13181,38.42038],[-106.1318,38.42039],[-106.13177,38.42066],[-106.13182,38.42091],[-106.13183,38.42093],[-106.13195,38.42106],[-106.13205,38.42117],[-106.13256,38.42133],[-106.13275,38.42137],[-106.13325,38.42149],[-106.13363,38.42167],[-106.13376,38.42174],[-106.13378,38.42175],[-106.13399,38.42189],[-106.13414,38.42197],[-106.13415,38.42197],[-106.13429,38.42201],[-106.13444,38.42203],[-106.13469,38.42205],[-106.13512,38.42201],[-106.13515,38.42201],[-106.13568,38.42197],[-106.13584,38.42197],[-106.13607,38.42197],[-106.13627,38.42197],[-106.1368,38.42202],[-106.1372,38.4221],[-106.13744,38.42215],[-106.13809,38.42226],[-106.1381,38.42226],[-106.13851,38.42233],[-106.13854,38.42233],[-106.13877,38.42235],[-106.13896,38.42236],[-106.13937,38.42234],[-106.13979,38.42227],[-106.14007,38.42221],[-106.14033,38.42215],[-106.14057,38.42212],[-106.14064,38.42211],[-106.14088,38.42214],[-106.14108,38.42224],[-106.14118,38.42231],[-106.14122,38.42234],[-106.14132,38.42245],[-106.14135,38.42249],[-106.14145,38.42266],[-106.14148,38.42279],[-106.14148,38.42279],[-106.14145,38.42301],[-106.14141,38.42326],[-106.14138,38.42332],[-106.14129,38.42351],[-106.14108,38.42377],[-106.14087,38.4239],[-106.14081,38.42394],[-106.1405,38.42405],[-106.14046,38.42406],[-106.14013,38.42413],[-106.1397,38.42421],[-106.13916,38.4243],[-106.13912,38.4243],[-106.13864,38.42437],[-106.13819,38.42443],[-106.13771,38.42453],[-106.13755,38.42457],[-106.13737,38.4246],[-106.13701,38.42462],[-106.13664,38.42461],[-106.13617,38.42464],[-106.13597,38.42471],[-106.13594,38.42473],[-106.13577,38.42487],[-106.13571,38.425],[-106.13567,38.42508],[-106.13565,38.42541],[-106.13564,38.42553],[-106.13562,38.42582],[-106.13557,38.42608],[-106.13547,38.42623],[-106.13545,38.42627],[-106.13528,38.42643],[-106.13506,38.42654],[-106.13476,38.42664],[-106.13474,38.42665],[-106.1343,38.42667],[-106.13424,38.42667],[-106.13384,38.42667],[-106.13368,38.42666],[-106.13338,38.42666],[-106.13312,38.42666],[-106.13283,38.42669],[-106.1326,38.4268],[-106.13241,38.42696],[-106.13239,38.42699],[-106.13227,38.42716],[-106.13225,38.42733],[-106.13225,38.42737],[-106.13231,38.42758],[-106.13238,38.42775],[-106.13239,38.42785],[-106.1324,38.42799],[-106.13239,38.42803],[-106.13234,38.42823],[-106.13219,38.42847],[-106.13204,38.42871],[-106.13201,38.42891],[-106.13206,38.42904],[-106.1321,38.42915],[-106.13226,38.42932],[-106.13248,38.42941],[-106.13288,38.42955],[-106.13293,38.42956],[-106.13315,38.42962],[-106.13334,38.42967],[-106.13356,38.42977],[-106.13405,38.42999],[-106.13416,38.43003],[-106.13437,38.43011],[-106.13451,38.43017],[-106.13525,38.4303],[-106.13527,38.4303],[-106.13594,38.43028],[-106.13604,38.43028],[-106.13617,38.43027],[-106.1364,38.43026],[-106.13708,38.43021],[-106.13717,38.4302],[-106.13731,38.43022],[-106.13779,38.43029],[-106.13799,38.43032],[-106.13847,38.43039],[-106.13878,38.43053],[-106.13902,38.43067],[-106.13934,38.43093],[-106.1394,38.43105],[-106.13949,38.43128],[-106.1395,38.43148],[-106.13935,38.43178],[-106.1392,38.43192],[-106.13894,38.43207],[-106.13869,38.43211],[-106.13817,38.43205],[-106.13812,38.43204],[-106.1379,38.432],[-106.13753,38.43193],[-106.13724,38.43186],[-106.13723,38.43186],[-106.13687,38.43188],[-106.13646,38.43205],[-106.13586,38.43229],[-106.13559,38.43241],[-106.13535,38.43256],[-106.13516,38.43284],[-106.13513,38.43288],[-106.13511,38.43301],[-106.13509,38.43311],[-106.13515,38.43327],[-106.13526,38.43339],[-106.13543,38.43356],[-106.13551,38.43362],[-106.13587,38.43388],[-106.13618,38.43411],[-106.1363,38.43419],[-106.13654,38.4343],[-106.13685,38.43438],[-106.13715,38.43437],[-106.13723,38.43435],[-106.13748,38.43428],[-106.13782,38.43408],[-106.13793,38.43402],[-106.13801,38.43398],[-106.13839,38.4338],[-106.1386,38.43364],[-106.13895,38.4335],[-106.13959,38.43331],[-106.13961,38.4333],[-106.13996,38.43312],[-106.14025,38.43283],[-106.14031,38.43277],[-106.14048,38.43251],[-106.14061,38.4323],[-106.14078,38.43207],[-106.14096,38.43191],[-106.14113,38.43176],[-106.14129,38.43165],[-106.14151,38.43151],[-106.14185,38.43134],[-106.14206,38.43124],[-106.14247,38.43112],[-106.14289,38.43101],[-106.14333,38.43086],[-106.14417,38.43058],[-106.14422,38.43056],[-106.14439,38.43053],[-106.14526,38.4304],[-106.14529,38.43039],[-106.14552,38.43035],[-106.14605,38.43026],[-106.1465,38.43005],[-106.14656,38.43001],[-106.14717,38.42958],[-106.14746,38.42946],[-106.14781,38.42932],[-106.14786,38.42929],[-106.1481,38.42916],[-106.14843,38.42874],[-106.14855,38.42859],[-106.14889,38.42834],[-106.14923,38.42819],[-106.14966,38.42819],[-106.14975,38.4282],[-106.14998,38.42823],[-106.15007,38.42824],[-106.15034,38.42834],[-106.1505,38.42854],[-106.15057,38.42863],[-106.1506,38.4287],[-106.15066,38.42885],[-106.15059,38.42921],[-106.15051,38.4294],[-106.15043,38.4296],[-106.15055,38.4299],[-106.15072,38.43004],[-106.15077,38.43008],[-106.15116,38.43023],[-106.15156,38.43024],[-106.15157,38.43024],[-106.1518,38.43021],[-106.15204,38.43018],[-106.15242,38.43],[-106.1525,38.42996],[-106.15299,38.42977],[-106.15304,38.42976],[-106.15337,38.42968],[-106.15363,38.42972],[-106.15397,38.42989],[-106.15409,38.42993],[-106.15431,38.43],[-106.15459,38.43009],[-106.15535,38.43035],[-106.15559,38.43039],[-106.1556,38.43039],[-106.15588,38.43036],[-106.15616,38.43032],[-106.15645,38.43012],[-106.15657,38.43001],[-106.15671,38.42987],[-106.15672,38.42987],[-106.15732,38.42933],[-106.1574,38.42926],[-106.15781,38.42917],[-106.15817,38.4292],[-106.15827,38.42921],[-106.15898,38.42935],[-106.15973,38.4295],[-106.15996,38.42954],[-106.16015,38.42958],[-106.16151,38.42986],[-106.16166,38.42989],[-106.16189,38.42998],[-106.16205,38.43016],[-106.16208,38.43021],[-106.16215,38.43071],[-106.16216,38.43105],[-106.16216,38.43111],[-106.1623,38.43129],[-106.16247,38.43141],[-106.16278,38.43147],[-106.1628,38.43147],[-106.16303,38.43149],[-106.16327,38.43147],[-106.16362,38.43124],[-106.16373,38.43108],[-106.16388,38.43087],[-106.16433,38.43057],[-106.16487,38.43054],[-106.16503,38.43055],[-106.16526,38.43058],[-106.16541,38.43059],[-106.16617,38.43062],[-106.16632,38.43062],[-106.1664,38.43064],[-106.1676,38.43093],[-106.16815,38.43108],[-106.16881,38.43127],[-106.16925,38.43133],[-106.17038,38.43149],[-106.17045,38.4315],[-106.17077,38.43149],[-106.17083,38.43147],[-106.17103,38.43139],[-106.17123,38.43124],[-106.17128,38.43111],[-106.17129,38.4311],[-106.17134,38.43096],[-106.17134,38.43092],[-106.17135,38.43087],[-106.17135,38.43076],[-106.17135,38.43074],[-106.17133,38.43069],[-106.17128,38.43058],[-106.17103,38.43036],[-106.17097,38.4303],[-106.17072,38.43007],[-106.17069,38.43003],[-106.17057,38.42987],[-106.17052,38.42981],[-106.1704,38.4295],[-106.17032,38.429],[-106.17029,38.42882],[-106.17028,38.42851],[-106.17029,38.42846],[-106.17034,38.4281],[-106.17034,38.42804],[-106.17064,38.42766],[-106.17067,38.42764],[-106.17084,38.42752],[-106.17101,38.4274],[-106.17103,38.42738],[-106.17129,38.42726],[-106.17163,38.42719],[-106.17173,38.42717],[-106.17247,38.42712],[-106.17254,38.4271],[-106.17268,38.42704],[-106.17273,38.427],[-106.17297,38.42678],[-106.17299,38.42671],[-106.17308,38.42645],[-106.17335,38.42586],[-106.17343,38.42569],[-106.17354,38.42545],[-106.17384,38.42473],[-106.174,38.42445],[-106.17408,38.42435],[-106.17421,38.4242],[-106.17422,38.42419],[-106.17455,38.42402],[-106.17498,38.42385],[-106.17516,38.42371],[-106.17531,38.42359],[-106.17571,38.42318],[-106.17583,38.42299],[-106.17593,38.42283],[-106.17598,38.42273],[-106.17614,38.42243],[-106.17617,38.42217],[-106.17614,38.42183],[-106.17614,38.42153],[-106.17613,38.42143],[-106.17615,38.42135],[-106.17619,38.42106],[-106.17623,38.42071],[-106.17625,38.42064],[-106.17631,38.42046],[-106.17633,38.42039],[-106.17655,38.42016],[-106.17662,38.42008],[-106.17695,38.41992],[-106.17707,38.41982],[-106.1772,38.41972],[-106.1773,38.41957],[-106.17731,38.41952],[-106.17734,38.41932],[-106.17723,38.4191],[-106.17711,38.41888],[-106.1771,38.41884],[-106.17708,38.4187],[-106.17709,38.41867],[-106.17716,38.41849],[-106.17729,38.41822],[-106.17732,38.41816],[-106.1774,38.41794],[-106.17741,38.4177],[-106.17731,38.4175],[-106.17728,38.41747],[-106.17712,38.41735],[-106.17681,38.41721],[-106.17662,38.41706],[-106.17659,38.41701],[-106.1765,38.41686],[-106.17645,38.41668],[-106.17649,38.41644],[-106.17664,38.41615],[-106.17669,38.41606],[-106.17673,38.41599],[-106.1769,38.41568],[-106.17705,38.41525],[-106.17716,38.41496],[-106.17722,38.4148],[-106.17727,38.41425],[-106.17728,38.41412],[-106.17727,38.41407],[-106.17718,38.4138],[-106.17713,38.41355],[-106.17711,38.41345],[-106.17712,38.41337],[-106.17714,38.41316],[-106.17725,38.41294],[-106.17748,38.41273],[-106.17755,38.41266],[-106.17765,38.41261],[-106.17797,38.41245],[-106.17818,38.41227],[-106.17827,38.4122],[-106.17834,38.41195],[-106.17834,38.41194],[-106.17836,38.41157],[-106.17838,38.41123],[-106.17838,38.41116],[-106.17842,38.41105],[-106.17845,38.41093],[-106.17854,38.4108],[-106.17871,38.41062],[-106.17894,38.4105],[-106.17895,38.4105],[-106.17915,38.41042],[-106.17946,38.41041],[-106.17961,38.41043],[-106.17995,38.41047],[-106.18032,38.41054],[-106.18051,38.41055],[-106.18073,38.41057],[-106.18074,38.41057],[-106.18112,38.41052],[-106.18145,38.41042],[-106.18167,38.41031],[-106.18176,38.41022],[-106.18183,38.41015],[-106.18187,38.41006],[-106.18191,38.40998],[-106.18194,38.40978],[-106.18192,38.40953],[-106.18189,38.40935],[-106.18188,38.40929],[-106.18193,38.40918],[-106.18197,38.40909],[-106.18202,38.40901],[-106.18214,38.40886],[-106.18215,38.40885],[-106.18237,38.40858],[-106.18254,38.40842],[-106.18269,38.40829],[-106.1827,38.40828],[-106.18285,38.40815],[-106.183,38.40802],[-106.18302,38.40801],[-106.1836,38.40776],[-106.18391,38.40762],[-106.184,38.40758],[-106.18429,38.40742],[-106.18468,38.4071],[-106.18472,38.40707],[-106.18488,38.40702],[-106.18507,38.40696],[-106.18509,38.40696],[-106.18535,38.40689],[-106.18564,38.40691],[-106.18575,38.40696],[-106.18585,38.407],[-106.18595,38.40705],[-106.18614,38.40714],[-106.18631,38.40727],[-106.18649,38.4074],[-106.18666,38.40746],[-106.18691,38.40748],[-106.18692,38.40748],[-106.18718,38.40741],[-106.18733,38.40727],[-106.18741,38.40715],[-106.18743,38.4071],[-106.18757,38.40681],[-106.18763,38.4067],[-106.18797,38.40627],[-106.18805,38.4062],[-106.18821,38.40607],[-106.18831,38.40598],[-106.18854,38.40582],[-106.18858,38.40579],[-106.18901,38.40557],[-106.18912,38.40554],[-106.18934,38.40549],[-106.18939,38.40547],[-106.18957,38.40546],[-106.18974,38.40544],[-106.18979,38.40543],[-106.1903,38.40537],[-106.19092,38.40533],[-106.19093,38.40533],[-106.19119,38.40526],[-106.19145,38.40515],[-106.1916,38.40508],[-106.19266,38.40487],[-106.19356,38.40469],[-106.19395,38.40464],[-106.194,38.40464],[-106.19423,38.40464],[-106.19523,38.40463],[-106.19567,38.40467],[-106.19644,38.4047],[-106.19652,38.40471],[-106.19744,38.40477],[-106.19767,38.40479],[-106.19775,38.40479],[-106.19818,38.40489],[-106.19861,38.40508],[-106.19883,38.40509],[-106.19896,38.40508],[-106.1991,38.40503],[-106.19928,38.4049],[-106.19942,38.40473],[-106.19945,38.4045],[-106.19943,38.40443],[-106.19941,38.40434],[-106.19942,38.40425],[-106.19942,38.40421],[-106.19953,38.4039],[-106.19955,38.40383],[-106.19966,38.40355],[-106.19978,38.40325],[-106.19993,38.40306],[-106.19999,38.40299],[-106.20019,38.40277],[-106.20022,38.40274],[-106.20036,38.40243],[-106.20043,38.40226],[-106.20051,38.40209],[-106.20061,38.40187],[-106.20072,38.40177],[-106.20091,38.4017],[-106.20102,38.40165],[-106.20126,38.40159],[-106.20134,38.40157],[-106.20177,38.40145],[-106.20198,38.40139],[-106.20218,38.40129],[-106.20238,38.40119],[-106.203,38.40088],[-106.20332,38.40068],[-106.20376,38.40041],[-106.20421,38.40021],[-106.20428,38.4002],[-106.2045,38.40016],[-106.20461,38.40014],[-106.20504,38.40017],[-106.20519,38.40018],[-106.20572,38.40019],[-106.2061,38.40013],[-106.20626,38.40011],[-106.20694,38.39984],[-106.20724,38.39965],[-106.20726,38.3996],[-106.20737,38.3993],[-106.20754,38.39892],[-106.20772,38.39877],[-106.20789,38.39869],[-106.20795,38.39866],[-106.20822,38.39861],[-106.20833,38.39863],[-106.20855,38.39865],[-106.20884,38.39879],[-106.20894,38.39885],[-106.20917,38.39898],[-106.20949,38.39918],[-106.20976,38.39934],[-106.21022,38.39961],[-106.21081,38.39995],[-106.21097,38.40002],[-106.21157,38.4003],[-106.21173,38.40037],[-106.21193,38.40051],[-106.21215,38.40066],[-106.21226,38.40078],[-106.21238,38.40088],[-106.21249,38.40093],[-106.21262,38.40095],[-106.21268,38.40096],[-106.21293,38.40095],[-106.21314,38.40091],[-106.21327,38.40083],[-106.2133,38.40081],[-106.2134,38.40069],[-106.21341,38.40067],[-106.2136,38.40047],[-106.21384,38.40027],[-106.21399,38.40014],[-106.21405,38.40009],[-106.21414,38.4],[-106.21436,38.39979],[-106.21441,38.39971],[-106.21452,38.39955],[-106.21458,38.39946],[-106.2148,38.399],[-106.21496,38.39861],[-106.21501,38.39835],[-106.21501,38.39818],[-106.21501,38.39794],[-106.21503,38.39763],[-106.2151,38.39747],[-106.21511,38.39745],[-106.21524,38.39732],[-106.21543,38.39723],[-106.21565,38.39718],[-106.21576,38.39715],[-106.21622,38.39711],[-106.21656,38.39708],[-106.21679,38.39706],[-106.21692,38.39704],[-106.21745,38.39692],[-106.21793,38.39681],[-106.21817,38.39685],[-106.21849,38.39695],[-106.2187,38.3971],[-106.21904,38.39735],[-106.21923,38.3975],[-106.2197,38.39766],[-106.22005,38.39774],[-106.22023,38.39778],[-106.22059,38.39779],[-106.22097,38.39771],[-106.22116,38.39764],[-106.22126,38.3976],[-106.22166,38.39735],[-106.22186,38.39719],[-106.22203,38.39705],[-106.22245,38.3967],[-106.22266,38.39654],[-106.22283,38.39642],[-106.22311,38.39621],[-106.22332,38.39604],[-106.2238,38.39565],[-106.22396,38.39552],[-106.22412,38.39539],[-106.22451,38.39507],[-106.22479,38.3949],[-106.22486,38.39486],[-106.22499,38.39482],[-106.22509,38.39478],[-106.2252,38.39476],[-106.22532,38.39473],[-106.22543,38.39475],[-106.22568,38.39478],[-106.22609,38.39489],[-106.2265,38.39501],[-106.22652,38.39501],[-106.22674,38.39507],[-106.22784,38.39533],[-106.22827,38.39544],[-106.22869,38.39559],[-106.2289,38.39566],[-106.22931,38.3958],[-106.22981,38.39612],[-106.22984,38.39616],[-106.23001,38.39636],[-106.23009,38.39671],[-106.23015,38.39678],[-106.23036,38.39692],[-106.23056,38.39705],[-106.23095,38.39705],[-106.23128,38.39693],[-106.23137,38.39686],[-106.23189,38.39642],[-106.23199,38.39633],[-106.23215,38.39619],[-106.23241,38.39596],[-106.23311,38.39574],[-106.23324,38.39569],[-106.23401,38.39563],[-106.23469,38.39557],[-106.23479,38.39556],[-106.23538,38.39556],[-106.23653,38.39556],[-106.23661,38.39556],[-106.23676,38.39556],[-106.23745,38.39556],[-106.23768,38.39556],[-106.23859,38.39556],[-106.23951,38.39556],[-106.24112,38.39556],[-106.24177,38.39556],[-106.24318,38.39555],[-106.24456,38.39555],[-106.24617,38.39555],[-106.24647,38.39555],[-106.24663,38.39553],[-106.24679,38.39552],[-106.24701,38.39545],[-106.24726,38.39535],[-106.24747,38.39526],[-106.24763,38.39512],[-106.24777,38.39494],[-106.24786,38.3948],[-106.24796,38.39462],[-106.24798,38.39451],[-106.248,38.39443],[-106.24799,38.39421],[-106.24795,38.39399],[-106.24785,38.39375],[-106.24778,38.39364],[-106.24771,38.39353],[-106.24768,38.39348],[-106.24755,38.39327],[-106.24747,38.39315],[-106.24738,38.39302],[-106.24724,38.39283],[-106.24715,38.39268],[-106.24713,38.39252],[-106.24714,38.39236],[-106.24716,38.39232],[-106.24723,38.39215],[-106.24724,38.39211],[-106.24741,38.39192],[-106.2477,38.39174],[-106.248,38.39169],[-106.24801,38.39169],[-106.24828,38.39168],[-106.24844,38.39174],[-106.2486,38.39184],[-106.2486,38.39185],[-106.24878,38.39199],[-106.24895,38.39218],[-106.24973,38.39307],[-106.25015,38.39339],[-106.2508,38.3939],[-106.2513,38.39429],[-106.25207,38.39508],[-106.25231,38.39525],[-106.25264,38.39548],[-106.25328,38.39572],[-106.25366,38.39587],[-106.25449,38.39601],[-106.25504,38.3961],[-106.25554,38.39618],[-106.25587,38.39632],[-106.25601,38.39649],[-106.25614,38.39666],[-106.25662,38.39712],[-106.25673,38.39748],[-106.2567,38.39792],[-106.2567,38.39794],[-106.25679,38.39832],[-106.25698,38.39857],[-106.25721,38.39873],[-106.25765,38.39897],[-106.25775,38.39903],[-106.25817,38.39929],[-106.25845,38.3993],[-106.25855,38.39928],[-106.25869,38.39924],[-106.25924,38.39909],[-106.25965,38.39906],[-106.25977,38.39905],[-106.26007,38.39917],[-106.26046,38.39933],[-106.26048,38.39934],[-106.26152,38.39989],[-106.26202,38.40006],[-106.26206,38.40006],[-106.26233,38.40005],[-106.26263,38.39996],[-106.26309,38.39973],[-106.2631,38.39973],[-106.26385,38.39936],[-106.26388,38.39935],[-106.26409,38.39928],[-106.26432,38.3992],[-106.26455,38.3992],[-106.26485,38.39931],[-106.26492,38.39937],[-106.26506,38.39948],[-106.26519,38.3997],[-106.26527,38.39995],[-106.26531,38.4],[-106.26555,38.4003],[-106.26588,38.40056],[-106.26636,38.40092],[-106.26687,38.40131],[-106.26752,38.40182],[-106.26769,38.40194],[-106.26792,38.40213],[-106.26831,38.40247],[-106.269,38.40308],[-106.2693,38.40321],[-106.2694,38.40326],[-106.26971,38.40345],[-106.27014,38.40382],[-106.27032,38.40397],[-106.27059,38.40412],[-106.27078,38.40416],[-106.27098,38.40415],[-106.27113,38.40412],[-106.27119,38.40411],[-106.27141,38.40399],[-106.27182,38.40363],[-106.27191,38.40349],[-106.27221,38.40305],[-106.27264,38.40258],[-106.27336,38.4018],[-106.2737,38.4014],[-106.27458,38.40035],[-106.27471,38.40021],[-106.27492,38.39988],[-106.27505,38.39968],[-106.27511,38.39955],[-106.27526,38.39921],[-106.27536,38.39899],[-106.27556,38.39858],[-106.2756,38.39855],[-106.27572,38.39845],[-106.27603,38.39816],[-106.27621,38.39801],[-106.27657,38.39771],[-106.27682,38.39748],[-106.27749,38.39686],[-106.27755,38.39678],[-106.27794,38.39634],[-106.27824,38.39599],[-106.2783,38.39588],[-106.27856,38.39544],[-106.27863,38.39521],[-106.27873,38.39493],[-106.27876,38.39469],[-106.27881,38.39433],[-106.27886,38.39398],[-106.27884,38.39379],[-106.27882,38.39343],[-106.27882,38.39336],[-106.27858,38.39255],[-106.27857,38.39253],[-106.27839,38.39216],[-106.27802,38.39196],[-106.27775,38.39191],[-106.27764,38.39191],[-106.27737,38.39191],[-106.27698,38.39194],[-106.27674,38.39194],[-106.27645,38.39188],[-106.27576,38.39164],[-106.27565,38.39161],[-106.27531,38.3915],[-106.27486,38.39141],[-106.27459,38.39128],[-106.27458,38.39128],[-106.27422,38.39095],[-106.27414,38.39088],[-106.27389,38.39067],[-106.27354,38.39039],[-106.27333,38.39025],[-106.27312,38.39019],[-106.27311,38.39019],[-106.27246,38.3901],[-106.27243,38.39009],[-106.27186,38.39001],[-106.27175,38.38998],[-106.27131,38.3899],[-106.27129,38.3899],[-106.27089,38.38984],[-106.27059,38.38989],[-106.27028,38.39004],[-106.27024,38.39006],[-106.26994,38.39027],[-106.26975,38.39065],[-106.2696,38.39096],[-106.26942,38.39132],[-106.2693,38.39156],[-106.26924,38.39165],[-106.26909,38.39187],[-106.26882,38.39204],[-106.26879,38.39205],[-106.26848,38.39215],[-106.26825,38.39217],[-106.26807,38.39215],[-106.26792,38.3921],[-106.26784,38.39207],[-106.26775,38.39198],[-106.26766,38.39189],[-106.26767,38.39147],[-106.26768,38.39094],[-106.26767,38.39093],[-106.26762,38.39064],[-106.26743,38.39042],[-106.26725,38.39034],[-106.26711,38.39027],[-106.26684,38.39029],[-106.26647,38.39038],[-106.26594,38.39076],[-106.26571,38.39092],[-106.2652,38.39128],[-106.26497,38.39144],[-106.26435,38.39189],[-106.26434,38.3919],[-106.26382,38.39231],[-106.2635,38.3925],[-106.26329,38.39254],[-106.2632,38.39256],[-106.26286,38.39257],[-106.26252,38.39247],[-106.26243,38.39241],[-106.26213,38.39222],[-106.26209,38.39217],[-106.26195,38.39201],[-106.26183,38.39182],[-106.26183,38.39168],[-106.26183,38.39161],[-106.26186,38.39151],[-106.26187,38.39147],[-106.26195,38.39134],[-106.26221,38.39092],[-106.26231,38.39076],[-106.2624,38.39059],[-106.2626,38.39027],[-106.26265,38.39018],[-106.26297,38.38981],[-106.26309,38.38966],[-106.26322,38.38951],[-106.26325,38.38948],[-106.26356,38.38927],[-106.2639,38.38903],[-106.26407,38.38891],[-106.26416,38.38885],[-106.26457,38.38854],[-106.26473,38.38841],[-106.26521,38.38805],[-106.26523,38.38804],[-106.26538,38.3879],[-106.26554,38.38777],[-106.26565,38.38761],[-106.26576,38.38746],[-106.26595,38.38719],[-106.26603,38.38696],[-106.26609,38.38679],[-106.26625,38.38634],[-106.26632,38.38629],[-106.26645,38.38618],[-106.26648,38.38617],[-106.26671,38.38606],[-106.26697,38.38598],[-106.26728,38.38599],[-106.26735,38.38599],[-106.26757,38.38602],[-106.26788,38.38606],[-106.26802,38.38608],[-106.26831,38.38611],[-106.26881,38.38608],[-106.26903,38.386],[-106.26912,38.38594],[-106.26934,38.3858],[-106.26964,38.38559],[-106.26977,38.3855],[-106.26983,38.38549],[-106.26998,38.38546],[-106.27005,38.38544],[-106.27017,38.38542],[-106.27046,38.38541],[-106.2705,38.38542],[-106.27073,38.38543],[-106.27093,38.38544],[-106.27096,38.38544],[-106.27119,38.38545],[-106.27127,38.38545],[-106.27142,38.38545],[-106.27257,38.38546],[-106.27275,38.38546],[-106.27348,38.3855],[-106.27368,38.38551],[-106.27417,38.38553],[-106.2744,38.38555],[-106.27454,38.38555],[-106.27463,38.38555],[-106.27509,38.38552],[-106.27573,38.38538],[-106.27575,38.38538],[-106.27598,38.38535],[-106.27625,38.38532],[-106.27643,38.38529],[-106.2767,38.38524],[-106.27686,38.38517],[-106.27725,38.38499],[-106.27727,38.38498],[-106.27746,38.38491],[-106.27763,38.38484],[-106.27767,38.38483],[-106.27776,38.3848],[-106.27788,38.38476],[-106.27799,38.38473],[-106.27843,38.38475],[-106.27855,38.38478],[-106.27878,38.38482],[-106.279,38.38486],[-106.27927,38.38492],[-106.27945,38.38493],[-106.27964,38.38495],[-106.27968,38.38495],[-106.2799,38.38493],[-106.2801,38.38491],[-106.28036,38.38492],[-106.28059,38.38492],[-106.28086,38.38493],[-106.28105,38.38496],[-106.28142,38.38502],[-106.28149,38.38505],[-106.28171,38.38511],[-106.28174,38.38512],[-106.28214,38.38522],[-106.28233,38.38526],[-106.28236,38.38526],[-106.28258,38.38526],[-106.28281,38.38521],[-106.28286,38.3852],[-106.283,38.38513],[-106.28338,38.38491],[-106.28352,38.38482],[-106.28356,38.3848],[-106.28407,38.38444],[-106.28437,38.38423],[-106.28441,38.38419],[-106.28456,38.38406],[-106.28477,38.38375],[-106.2848,38.38363],[-106.28481,38.38343],[-106.28479,38.38339],[-106.28471,38.38323],[-106.28471,38.38322],[-106.28464,38.38314],[-106.28455,38.38304],[-106.28445,38.38296],[-106.28411,38.38277],[-106.28387,38.38262],[-106.28378,38.38257],[-106.28339,38.38224],[-106.28338,38.38223],[-106.28324,38.3821],[-106.28308,38.38196],[-106.283,38.38189],[-106.28277,38.38171],[-106.28276,38.38171],[-106.28249,38.38163],[-106.28234,38.38157],[-106.2822,38.38152],[-106.28213,38.38149],[-106.28199,38.38143],[-106.28195,38.38139],[-106.28169,38.38109],[-106.28166,38.38106],[-106.28156,38.38095],[-106.28121,38.38056],[-106.28086,38.38033],[-106.28059,38.3802],[-106.28056,38.38019],[-106.2804,38.3801],[-106.28012,38.37995],[-106.27982,38.37981],[-106.27962,38.37972],[-106.27938,38.37961],[-106.27899,38.3795],[-106.27864,38.37941],[-106.27856,38.37939],[-106.27811,38.37924],[-106.2778,38.37916],[-106.27762,38.37915],[-106.27739,38.37912],[-106.27709,38.37913],[-106.27682,38.37914],[-106.27678,38.37914],[-106.27656,38.37915],[-106.27656,38.37914],[-106.27633,38.3791],[-106.27628,38.37909],[-106.27614,38.379],[-106.27609,38.37897],[-106.27591,38.37881],[-106.27587,38.37873],[-106.27581,38.37859],[-106.2758,38.37847],[-106.27585,38.37838],[-106.27586,38.37836],[-106.276,38.37825],[-106.2763,38.37803],[-106.27635,38.37802],[-106.27656,38.37795],[-106.27679,38.37793],[-106.27688,38.37792],[-106.27702,38.37792],[-106.27743,38.37793],[-106.27768,38.37789],[-106.2777,38.37789],[-106.2779,38.3778],[-106.27794,38.37779],[-106.27831,38.37765],[-106.27836,38.37763],[-106.27874,38.37751],[-106.27895,38.37744],[-106.27901,38.37742],[-106.27933,38.37736],[-106.27939,38.37736],[-106.27962,38.37737],[-106.27969,38.37738],[-106.28005,38.37744],[-106.28007,38.37745],[-106.28039,38.37754],[-106.28074,38.37777],[-106.28092,38.378],[-106.28105,38.37818],[-106.28119,38.37848],[-106.28136,38.37882],[-106.28136,38.37883],[-106.28144,38.37896],[-106.28147,38.37899],[-106.2816,38.3791],[-106.28182,38.37921],[-106.28183,38.37921],[-106.28213,38.37934],[-106.28223,38.37938],[-106.28243,38.37946],[-106.28246,38.37948],[-106.28282,38.37966],[-106.28301,38.37976],[-106.28314,38.37983],[-106.28358,38.38006],[-106.28377,38.38016],[-106.28391,38.38024],[-106.28426,38.38035],[-106.28439,38.38038],[-106.28462,38.38043],[-106.28465,38.38044],[-106.28484,38.38047],[-106.28521,38.38054],[-106.28549,38.38064],[-106.28581,38.38076],[-106.28603,38.38089],[-106.28608,38.3809],[-106.28644,38.38097],[-106.28653,38.38098],[-106.28664,38.38099],[-106.28676,38.38099],[-106.28708,38.38097],[-106.28736,38.38098],[-106.28745,38.38098],[-106.28759,38.38098],[-106.28795,38.38101],[-106.28812,38.38107],[-106.28821,38.3811],[-106.28842,38.38123],[-106.28868,38.38138],[-106.28887,38.38148],[-106.28942,38.3818],[-106.28945,38.38182],[-106.2896,38.38191],[-106.28988,38.38208],[-106.29021,38.38214],[-106.29025,38.38214],[-106.29044,38.38215],[-106.29053,38.38215],[-106.29066,38.38211],[-106.29085,38.38207],[-106.29088,38.38205],[-106.29121,38.38195],[-106.29153,38.38187],[-106.2919,38.38179],[-106.29196,38.38176],[-106.29215,38.38166],[-106.29235,38.38157],[-106.29254,38.38147],[-106.29274,38.38138],[-106.29293,38.38129],[-106.29318,38.38117],[-106.29332,38.38109],[-106.29369,38.38088],[-106.29386,38.38079],[-106.29388,38.38078],[-106.29441,38.38043],[-106.29458,38.38032],[-106.29519,38.37992],[-106.29528,38.37985],[-106.29544,38.37972],[-106.2956,38.37959],[-106.29581,38.37943],[-106.29592,38.37933],[-106.29654,38.37872],[-106.29691,38.37834],[-106.29705,38.3782],[-106.29718,38.37807],[-106.29719,38.37805],[-106.29733,38.37791],[-106.29761,38.37763],[-106.29775,38.37749],[-106.2979,38.37733],[-106.29824,38.37711],[-106.29825,38.3771],[-106.29845,38.37704],[-106.29899,38.37686],[-106.29908,38.37682],[-106.29927,38.37672],[-106.29934,38.37669],[-106.29957,38.37647],[-106.29976,38.37615],[-106.29977,38.37613],[-106.29988,38.37597],[-106.29991,38.37592],[-106.29998,38.37581],[-106.30023,38.37547],[-106.30084,38.37475],[-106.30095,38.37463],[-106.30097,38.3746],[-106.30169,38.37371],[-106.30199,38.37341],[-106.3021,38.37325],[-106.30239,38.37295],[-106.30282,38.37261],[-106.30316,38.37249],[-106.30355,38.3724],[-106.30395,38.37239],[-106.30434,38.37241],[-106.30437,38.37241],[-106.30468,38.37239],[-106.30497,38.37231],[-106.30523,38.37219],[-106.3053,38.37216],[-106.30577,38.37188],[-106.30593,38.37173],[-106.30617,38.37154],[-106.30637,38.37132],[-106.30677,38.37091],[-106.30689,38.37073],[-106.30693,38.37065],[-106.30699,38.37057],[-106.30704,38.3705],[-106.30715,38.37034],[-106.30728,38.37017],[-106.30759,38.3698],[-106.30766,38.36969],[-106.30768,38.36964],[-106.30801,38.36896],[-106.30803,38.36892],[-106.30808,38.36879],[-106.30832,38.36813],[-106.30845,38.36757],[-106.30853,38.36727],[-106.30855,38.36705],[-106.30854,38.36704],[-106.30851,38.36685],[-106.30843,38.3665],[-106.30831,38.36597],[-106.30828,38.36584],[-106.30822,38.36562],[-106.30817,38.36544],[-106.30809,38.36508],[-106.30797,38.36474],[-106.30794,38.36467],[-106.30784,38.3644],[-106.30781,38.3643],[-106.30769,38.36411],[-106.30763,38.36392],[-106.30763,38.36389],[-106.30762,38.36383],[-106.30767,38.3637],[-106.30776,38.36344],[-106.30794,38.36323],[-106.30801,38.36315],[-106.30842,38.36284],[-106.30868,38.36265],[-106.30875,38.36259],[-106.3092,38.36222],[-106.30979,38.36167],[-106.31014,38.36124],[-106.31058,38.36085],[-106.31085,38.36071],[-106.31104,38.36062],[-106.31131,38.36056],[-106.3116,38.36055],[-106.3119,38.36057],[-106.31217,38.3606],[-106.31241,38.36063],[-106.31268,38.36066],[-106.31278,38.36067],[-106.31293,38.36064],[-106.31325,38.36058],[-106.31395,38.36038],[-106.31408,38.36034],[-106.31472,38.36026],[-106.31484,38.36023],[-106.31505,38.36018],[-106.31547,38.36001],[-106.31556,38.35997],[-106.31592,38.35993],[-106.31634,38.35995],[-106.31685,38.36002],[-106.31704,38.36006],[-106.31733,38.36012],[-106.31766,38.36021],[-106.3177,38.36021],[-106.31824,38.36018],[-106.31885,38.36021],[-106.31911,38.36022],[-106.31948,38.3602],[-106.31982,38.36019],[-106.32005,38.36023],[-106.32021,38.36027],[-106.32028,38.36029],[-106.32062,38.36043],[-106.32099,38.36054],[-106.32105,38.36055],[-106.32132,38.36058],[-106.3218,38.36053],[-106.32233,38.3604],[-106.32276,38.36026],[-106.32314,38.36021],[-106.3233,38.36019],[-106.32392,38.3601],[-106.32395,38.36009],[-106.32417,38.36006],[-106.32463,38.36001],[-106.3249,38.35998],[-106.32507,38.35993],[-106.32536,38.35983],[-106.32592,38.35965],[-106.32657,38.35944],[-106.32687,38.35942],[-106.32701,38.35944],[-106.32719,38.35945],[-106.32749,38.3595],[-106.32789,38.35964],[-106.3279,38.35964],[-106.32843,38.35984],[-106.3288,38.36006],[-106.32886,38.3601],[-106.32907,38.36025],[-106.32924,38.3604],[-106.32932,38.36056],[-106.32936,38.36074],[-106.32937,38.36095],[-106.32933,38.36117],[-106.32932,38.36137],[-106.32929,38.36153],[-106.3293,38.36158],[-106.32932,38.36163],[-106.3294,38.36182],[-106.3295,38.36198],[-106.32968,38.36217],[-106.32989,38.36228],[-106.33011,38.36234],[-106.33015,38.36235],[-106.33037,38.36239],[-106.3306,38.3624],[-106.33082,38.3624],[-106.33093,38.36238],[-106.33136,38.36231],[-106.33188,38.36225],[-106.33216,38.36228],[-106.33233,38.36236],[-106.33243,38.36246],[-106.33252,38.36256],[-106.33274,38.36281],[-106.33304,38.36319],[-106.33306,38.36321],[-106.33327,38.36355],[-106.3336,38.36384],[-106.33387,38.36406],[-106.3339,38.36408],[-106.33414,38.36423],[-106.33458,38.36442],[-106.33464,38.36445],[-106.33477,38.36454],[-106.33482,38.3646],[-106.33515,38.36494],[-106.33555,38.36526],[-106.33563,38.36533],[-106.33596,38.36558],[-106.33615,38.36572],[-106.33626,38.36587],[-106.33642,38.36618],[-106.33663,38.36654],[-106.33683,38.36671],[-106.33699,38.36685],[-106.33706,38.36691],[-106.3375,38.36709],[-106.33777,38.36716],[-106.33806,38.36718],[-106.33866,38.36716],[-106.33872,38.36717],[-106.33894,38.3672],[-106.33919,38.36727],[-106.34015,38.36772],[-106.34021,38.36775],[-106.34088,38.36812],[-106.3409,38.36813],[-106.34138,38.36845],[-106.34159,38.36861],[-106.3417,38.36869],[-106.34214,38.36905],[-106.34236,38.36927],[-106.34239,38.3693],[-106.34283,38.3697],[-106.34312,38.36991],[-106.34315,38.36992],[-106.34338,38.37002],[-106.34375,38.37019],[-106.34393,38.37023],[-106.34424,38.37028],[-106.34446,38.37026],[-106.34452,38.37026],[-106.34468,38.37023],[-106.34498,38.37023],[-106.34517,38.37013],[-106.34546,38.37001],[-106.34588,38.36997],[-106.34601,38.36999],[-106.34631,38.37002],[-106.3466,38.37013],[-106.34688,38.37027],[-106.34702,38.37036],[-106.34709,38.37041],[-106.34732,38.37056],[-106.34762,38.37077],[-106.3479,38.37102],[-106.34798,38.37113],[-106.34803,38.37119],[-106.34824,38.37164],[-106.34832,38.37176],[-106.34842,38.37187],[-106.3485,38.37192],[-106.34872,38.37203],[-106.34908,38.37225],[-106.3494,38.37244],[-106.34962,38.37257],[-106.34997,38.37279],[-106.35012,38.3729],[-106.35013,38.37291],[-106.35027,38.373],[-106.35064,38.37313],[-106.35109,38.37332],[-106.35113,38.37334],[-106.35135,38.3735],[-106.35157,38.37365],[-106.35171,38.37378],[-106.35194,38.37395],[-106.35217,38.37412],[-106.35223,38.37416],[-106.3523,38.3742],[-106.3525,38.37433],[-106.35264,38.37444],[-106.35276,38.37454],[-106.35291,38.37462],[-106.35305,38.3747],[-106.35329,38.37478],[-106.35363,38.37487],[-106.35397,38.3749],[-106.35461,38.37492],[-106.35542,38.37493],[-106.35638,38.37495],[-106.35692,38.37496],[-106.35753,38.37495],[-106.35756,38.37495],[-106.35798,38.37491],[-106.3582,38.37489],[-106.35844,38.37485],[-106.35963,38.37441],[-106.36029,38.37413],[-106.36049,38.37404],[-106.36119,38.37375],[-106.36125,38.37372],[-106.36255,38.37325],[-106.36279,38.37317],[-106.36332,38.37294],[-106.36336,38.37292],[-106.36362,38.37279],[-106.36393,38.37272],[-106.36417,38.37267],[-106.36443,38.37265],[-106.36444,38.37265],[-106.36536,38.37256],[-106.36605,38.37256],[-106.36628,38.37255],[-106.3666,38.37255],[-106.36719,38.3726],[-106.36787,38.37266],[-106.3681,38.37268],[-106.36856,38.37271],[-106.36908,38.37281],[-106.3694,38.37282],[-106.37016,38.3727],[-106.37036,38.37268],[-106.37082,38.37263],[-106.37086,38.37263],[-106.37118,38.37264],[-106.37174,38.37271],[-106.37256,38.37285],[-106.37263,38.37286],[-106.37312,38.3729],[-106.37377,38.37293],[-106.37416,38.37294],[-106.37454,38.37296],[-106.37468,38.373],[-106.37489,38.37306],[-106.37509,38.37312],[-106.37511,38.37312],[-106.37523,38.37316],[-106.37563,38.37328],[-106.37611,38.37339],[-106.37648,38.37346],[-106.37674,38.37346],[-106.37711,38.37346],[-106.37732,38.37347],[-106.37825,38.37344],[-106.37832,38.37343],[-106.37932,38.37339],[-106.37986,38.37338],[-106.38035,38.37337],[-106.38061,38.37342],[-106.381,38.37352],[-106.38119,38.37358],[-106.38127,38.37361],[-106.38155,38.37371],[-106.38179,38.37384],[-106.3821,38.37406],[-106.38228,38.37413],[-106.38247,38.37422],[-106.38254,38.37424],[-106.38272,38.37428],[-106.3829,38.37428],[-106.3832,38.37436],[-106.38355,38.3745],[-106.38361,38.37453],[-106.38387,38.37463],[-106.38398,38.3747],[-106.38418,38.37481],[-106.38419,38.37481],[-106.38437,38.37493],[-106.38442,38.37497],[-106.38467,38.37519],[-106.38509,38.3756],[-106.38571,38.3762],[-106.38642,38.37704],[-106.38644,38.37707],[-106.38687,38.37769],[-106.38763,38.37902],[-106.38766,38.37908],[-106.38779,38.37935],[-106.38787,38.3797],[-106.38801,38.3801],[-106.38808,38.38023],[-106.38816,38.38037],[-106.38843,38.38078],[-106.38858,38.38103],[-106.38878,38.38137],[-106.3891,38.38195],[-106.38924,38.38218],[-106.38962,38.38284],[-106.38971,38.38299],[-106.38974,38.38309],[-106.39018,38.38423],[-106.39024,38.38438],[-106.39051,38.38511],[-106.39065,38.38541],[-106.39067,38.38546],[-106.39081,38.38567],[-106.39094,38.38586],[-106.39116,38.38615],[-106.3914,38.38645],[-106.39156,38.38662],[-106.39168,38.38674],[-106.39179,38.38685],[-106.39205,38.38719],[-106.39207,38.38722],[-106.39234,38.38757],[-106.39246,38.38783],[-106.39248,38.38787],[-106.39266,38.38826],[-106.39277,38.38851],[-106.3929,38.3888],[-106.39311,38.38924],[-106.39318,38.38938],[-106.39341,38.38989],[-106.39346,38.39008],[-106.39352,38.39029],[-106.3936,38.39095],[-106.3936,38.39097],[-106.39366,38.39126],[-106.39376,38.39157],[-106.39381,38.39167],[-106.39387,38.39178],[-106.39397,38.39206],[-106.39409,38.39239],[-106.39411,38.39253],[-106.39412,38.39259],[-106.39413,38.39274],[-106.39416,38.39296],[-106.39419,38.39311],[-106.39429,38.39345],[-106.39431,38.39354],[-106.39441,38.39368],[-106.39457,38.39392],[-106.39464,38.39402],[-106.39467,38.39407],[-106.39484,38.39432],[-106.39502,38.39464],[-106.39514,38.39496],[-106.39517,38.39507],[-106.39521,38.39521],[-106.39536,38.39568],[-106.39545,38.39594],[-106.3956,38.39639],[-106.39574,38.39671],[-106.39593,38.39693],[-106.39617,38.39719],[-106.39621,38.39723],[-106.39652,38.3975],[-106.39729,38.39827],[-106.39752,38.39853],[-106.39761,38.39865],[-106.39791,38.39902],[-106.39832,38.39959],[-106.39852,38.39987],[-106.39853,38.39989],[-106.39873,38.40013],[-106.39886,38.40025],[-106.39913,38.40047],[-106.3994,38.40073],[-106.39944,38.40077],[-106.39986,38.40113],[-106.40025,38.40147],[-106.40063,38.40179],[-106.4008,38.40191],[-106.40096,38.40203],[-106.40166,38.40244],[-106.40254,38.40291],[-106.40303,38.40322],[-106.40357,38.40358],[-106.40386,38.40373],[-106.40482,38.40423],[-106.40497,38.40431],[-106.40541,38.40451],[-106.40581,38.40469],[-106.40641,38.40495],[-106.40652,38.40499],[-106.40661,38.40503],[-106.4076,38.40548],[-106.40807,38.40569],[-106.40853,38.40585],[-106.40884,38.40595],[-106.40905,38.40602],[-106.40927,38.40609],[-106.40948,38.40615],[-106.40997,38.40631],[-106.41024,38.40638],[-106.41056,38.40644],[-106.41113,38.40655],[-106.41192,38.4066],[-106.4124,38.40664],[-106.41286,38.40675],[-106.41345,38.40696],[-106.41386,38.40711],[-106.41387,38.40711],[-106.41409,38.40713],[-106.41432,38.40715],[-106.41459,38.40715],[-106.41481,38.40714],[-106.41496,38.40718],[-106.415,38.40719],[-106.41509,38.40722],[-106.41519,38.40728],[-106.41535,38.40737],[-106.41535,38.40737],[-106.41561,38.40718],[-106.41596,38.40699],[-106.41633,38.40681],[-106.41659,38.4067],[-106.41681,38.40661]]}}]}