{"type":"FeatureCollection","features":[{"type":"Feature","properties":{"_gpxType":"trk","name":"Tomichi Creek Trading Post, U.S. 50, Sargents, CO - Unnamed Road","coordinateProperties":{},"id":64},"geometry":{"type":"LineString","coordinates":[[-106.41681,38.40661],[-106.41698,38.40655],[-106.41728,38.40644],[-106.41774,38.40627],[-106.41826,38.40607],[-106.41837,38.40604],[-106.41873,38.4059],[-106.41874,38.4059],[-106.41928,38.40569],[-106.41952,38.40558],[-106.41974,38.40548],[-106.41977,38.40546],[-106.41993,38.40538],[-106.42009,38.4053],[-106.4203,38.40517],[-106.42043,38.40509],[-106.42061,38.40496],[-106.42082,38.40481],[-106.42095,38.40471],[-106.42116,38.40454],[-106.42142,38.40429],[-106.42163,38.40408],[-106.42187,38.4038],[-106.42203,38.40357],[-106.42217,38.40337],[-106.42239,38.40293],[-106.42264,38.40234],[-106.42271,38.40209],[-106.42276,38.40191],[-106.42279,38.40174],[-106.42279,38.4017],[-106.4228,38.40161],[-106.42283,38.40137],[-106.42284,38.40102],[-106.42282,38.40047],[-106.42279,38.39974],[-106.42277,38.39925],[-106.42276,38.39919],[-106.42275,38.39896],[-106.42275,38.39883],[-106.42274,38.39853],[-106.42274,38.39847],[-106.42273,38.39835],[-106.42273,38.39829],[-106.42271,38.398],[-106.4227,38.39793],[-106.42269,38.39775],[-106.42268,38.39757],[-106.42268,38.39739],[-106.42269,38.39701],[-106.42273,38.39672],[-106.42277,38.3965],[-106.42281,38.39636],[-106.42286,38.39623],[-106.4229,38.39615],[-106.42292,38.3961],[-106.42305,38.3959],[-106.42318,38.39574],[-106.42323,38.39568],[-106.42334,38.39555],[-106.42351,38.39539],[-106.4238,38.39517],[-106.42401,38.39502],[-106.42438,38.39477],[-106.42458,38.39465],[-106.42476,38.39454],[-106.425,38.3944],[-106.42509,38.39436],[-106.42522,38.3943],[-106.4253,38.39427],[-106.42576,38.39405],[-106.42635,38.39379],[-106.42697,38.39353],[-106.42709,38.39348],[-106.42729,38.39339],[-106.42734,38.39337],[-106.42765,38.39322],[-106.42788,38.39312],[-106.42822,38.39295],[-106.42885,38.39269],[-106.42909,38.39259],[-106.42929,38.39251],[-106.42946,38.39243],[-106.42949,38.39242],[-106.42971,38.39232],[-106.43056,38.39195],[-106.43147,38.39156],[-106.43192,38.39137],[-106.4327,38.39103],[-106.43305,38.39088],[-106.4331,38.39085],[-106.4337,38.39059],[-106.4339,38.3905],[-106.43418,38.39037],[-106.43459,38.39019],[-106.4351,38.38999],[-106.43542,38.38988],[-106.43554,38.38984],[-106.43567,38.38981],[-106.43576,38.38979],[-106.43584,38.38977],[-106.436,38.38974],[-106.4362,38.38971],[-106.43643,38.38969],[-106.43653,38.38968],[-106.43666,38.38967],[-106.43687,38.38966],[-106.43724,38.38966],[-106.43755,38.38969],[-106.43797,38.38972],[-106.43874,38.38976],[-106.43895,38.38978],[-106.43918,38.38979],[-106.4394,38.38981],[-106.43957,38.38982],[-106.4403,38.38987],[-106.44056,38.38989],[-106.44115,38.38993],[-106.44165,38.38995],[-106.44169,38.38995],[-106.44204,38.38994],[-106.44272,38.3899],[-106.44306,38.38987],[-106.44321,38.38985],[-106.44329,38.38984],[-106.44348,38.38982],[-106.4439,38.38978],[-106.4443,38.38973],[-106.44498,38.38963],[-106.44526,38.38959],[-106.44556,38.38956],[-106.44621,38.38947],[-106.44649,38.38943],[-106.4472,38.38934],[-106.44775,38.38928],[-106.44791,38.38926],[-106.44848,38.38919],[-106.44868,38.38916],[-106.44933,38.38908],[-106.44956,38.38905],[-106.44982,38.38902],[-106.45018,38.38898],[-106.45053,38.38895],[-106.4507,38.38894],[-106.45084,38.38894],[-106.45114,38.38894],[-106.45138,38.38896],[-106.45165,38.38899],[-106.45193,38.38904],[-106.45228,38.38913],[-106.45262,38.38924],[-106.45291,38.38936],[-106.45294,38.38938],[-106.4531,38.38945],[-106.45311,38.38946],[-106.45329,38.38956],[-106.45339,38.38961],[-106.45355,38.38972],[-106.45372,38.38982],[-106.45458,38.39038],[-106.4547,38.39047],[-106.45507,38.39071],[-106.45513,38.39074],[-106.45523,38.39081],[-106.45525,38.39082],[-106.45537,38.39091],[-106.45541,38.39093],[-106.45543,38.39094],[-106.45567,38.39111],[-106.45592,38.39126],[-106.45625,38.39146],[-106.45655,38.39163],[-106.45696,38.39185],[-106.45708,38.39191],[-106.45727,38.39201],[-106.45732,38.39203],[-106.45764,38.3922],[-106.45785,38.39231],[-106.45822,38.39249],[-106.4589,38.39285],[-106.45938,38.39309],[-106.45974,38.39328],[-106.45978,38.3933],[-106.4607,38.39378],[-106.46122,38.39404],[-106.4613,38.39408],[-106.4614,38.39414],[-106.46147,38.39417],[-106.46149,38.39418],[-106.46173,38.39431],[-106.4621,38.39449],[-106.46245,38.39466],[-106.46277,38.3948],[-106.46304,38.39491],[-106.46305,38.39491],[-106.46307,38.39491],[-106.46325,38.39498],[-106.46326,38.39499],[-106.46352,38.39508],[-106.46391,38.3952],[-106.46427,38.39531],[-106.46486,38.39546],[-106.46531,38.39558],[-106.46573,38.3957],[-106.46584,38.39572],[-106.46587,38.39573],[-106.46595,38.39575],[-106.4668,38.39598],[-106.46747,38.39615],[-106.46751,38.39616],[-106.46758,38.39618],[-106.46769,38.39621],[-106.46777,38.39623],[-106.46812,38.39632],[-106.46824,38.39635],[-106.46835,38.39637],[-106.46845,38.3964],[-106.46879,38.39648],[-106.46886,38.3965],[-106.46933,38.39659],[-106.46957,38.39663],[-106.46991,38.39668],[-106.47031,38.39672],[-106.47057,38.39675],[-106.47103,38.39677],[-106.47105,38.39677],[-106.4715,38.39679],[-106.47169,38.3968],[-106.47173,38.3968],[-106.47196,38.39681],[-106.47218,38.39681],[-106.47253,38.39683],[-106.47281,38.39684],[-106.47333,38.39685],[-106.47334,38.39685],[-106.47339,38.39685],[-106.47345,38.39685],[-106.47357,38.39685],[-106.47401,38.39687],[-106.47414,38.39687],[-106.47453,38.39688],[-106.47507,38.3969],[-106.4754,38.39692],[-106.47547,38.39692],[-106.47585,38.39695],[-106.47601,38.39696],[-106.47632,38.39699],[-106.47643,38.397],[-106.47676,38.39704],[-106.47686,38.39705],[-106.4774,38.39713],[-106.47745,38.39714],[-106.47761,38.39716],[-106.47767,38.39717],[-106.47835,38.39729],[-106.4786,38.39733],[-106.47901,38.3974],[-106.47918,38.39742],[-106.47993,38.39754],[-106.48037,38.39761],[-106.4807,38.39766],[-106.48083,38.39767],[-106.48108,38.39769],[-106.48133,38.39769],[-106.48169,38.39769],[-106.48243,38.39765],[-106.48288,38.39761],[-106.48294,38.3976],[-106.48311,38.39758],[-106.48377,38.39752],[-106.48488,38.39739],[-106.48525,38.39736],[-106.48583,38.3973],[-106.48706,38.39718],[-106.4877,38.39711],[-106.48825,38.39706],[-106.48874,38.39703],[-106.4891,38.39702],[-106.48941,38.39702],[-106.48971,38.39705],[-106.48989,38.39708],[-106.49013,38.39712],[-106.49038,38.39719],[-106.49047,38.39721],[-106.49059,38.39725],[-106.49073,38.3973],[-106.49088,38.39735],[-106.4911,38.39744],[-106.49132,38.39755],[-106.49152,38.39767],[-106.4917,38.39778],[-106.49193,38.39796],[-106.49223,38.39819],[-106.49224,38.3982],[-106.49281,38.39865],[-106.49289,38.39871],[-106.49294,38.39875],[-106.49332,38.39907],[-106.49362,38.39935],[-106.49377,38.39951],[-106.49404,38.39983],[-106.49422,38.40007],[-106.49426,38.40014],[-106.49439,38.40032],[-106.49469,38.40081],[-106.49512,38.40154],[-106.49527,38.4018],[-106.49556,38.40227],[-106.49589,38.40283],[-106.49593,38.4029],[-106.49618,38.40333],[-106.49639,38.40366],[-106.49643,38.40371],[-106.49661,38.40399],[-106.49679,38.4042],[-106.49692,38.40435],[-106.49712,38.40456],[-106.49745,38.40487],[-106.49768,38.40507],[-106.49779,38.40516],[-106.49841,38.40569],[-106.49932,38.40644],[-106.49956,38.40664],[-106.50003,38.40703],[-106.50039,38.40734],[-106.50048,38.40741],[-106.50058,38.40751],[-106.50078,38.4077],[-106.50094,38.40785],[-106.50115,38.40807],[-106.5015,38.40846],[-106.50159,38.40856],[-106.50171,38.40871],[-106.50201,38.40905],[-106.50223,38.4093],[-106.50236,38.40945],[-106.5025,38.40961],[-106.50274,38.4099],[-106.50287,38.41005],[-106.50297,38.41016],[-106.5033,38.41053],[-106.50383,38.41106],[-106.50402,38.41124],[-106.50432,38.41146],[-106.50446,38.41158],[-106.50464,38.41169],[-106.50472,38.41175],[-106.50482,38.41181],[-106.505,38.41193],[-106.50533,38.41212],[-106.50557,38.41224],[-106.50588,38.41239],[-106.5061,38.41249],[-106.50615,38.41251],[-106.5066,38.41268],[-106.50672,38.41272],[-106.50687,38.41277],[-106.50714,38.41285],[-106.50752,38.41296],[-106.50764,38.41298],[-106.50796,38.41305],[-106.5084,38.41312],[-106.50899,38.41322],[-106.50988,38.41337],[-106.5101,38.41341],[-106.51035,38.41345],[-106.51077,38.41354],[-106.51099,38.41359],[-106.51105,38.41361],[-106.5112,38.41365],[-106.51162,38.41377],[-106.51188,38.41386],[-106.5129,38.41421],[-106.51311,38.41428],[-106.5133,38.41434],[-106.51332,38.41435],[-106.51426,38.41466],[-106.51466,38.4148],[-106.51564,38.41513],[-106.51673,38.41549],[-106.51716,38.41563],[-106.5178,38.41585],[-106.51848,38.41608],[-106.51913,38.41629],[-106.51975,38.4165],[-106.52008,38.41661],[-106.52043,38.41675],[-106.52073,38.41688],[-106.52091,38.41697],[-106.52105,38.41705],[-106.52121,38.41713],[-106.52129,38.41718],[-106.52145,38.41727],[-106.52175,38.41747],[-106.52203,38.41768],[-106.52219,38.41781],[-106.5223,38.4179],[-106.52238,38.41797],[-106.52245,38.41804],[-106.52253,38.41812],[-106.52259,38.41818],[-106.52267,38.41825],[-106.5228,38.4184],[-106.52298,38.41861],[-106.52309,38.41876],[-106.5231,38.41878],[-106.52325,38.419],[-106.52337,38.41918],[-106.5234,38.41924],[-106.52361,38.41965],[-106.52369,38.41984],[-106.52378,38.4201],[-106.52387,38.42037],[-106.5239,38.42049],[-106.52397,38.42073],[-106.52405,38.42097],[-106.52408,38.42109],[-106.52416,38.42137],[-106.52431,38.4219],[-106.52444,38.42232],[-106.52446,38.42239],[-106.52449,38.4225],[-106.52458,38.42285],[-106.52463,38.42302],[-106.52465,38.42309],[-106.52473,38.42337],[-106.52483,38.42373],[-106.52484,38.42374],[-106.52503,38.42443],[-106.52512,38.42467],[-106.52529,38.42504],[-106.52543,38.42527],[-106.52556,38.42545],[-106.52568,38.42558],[-106.5257,38.42561],[-106.52587,38.42578],[-106.52608,38.42596],[-106.52649,38.42626],[-106.52725,38.4267],[-106.52797,38.42712],[-106.52824,38.42727],[-106.5284,38.42736],[-106.52866,38.42752],[-106.52871,38.42754],[-106.52889,38.42765],[-106.52917,38.42781],[-106.52944,38.42797],[-106.52998,38.42828],[-106.53019,38.4284],[-106.53075,38.42873],[-106.5311,38.42893],[-106.53219,38.42956],[-106.5329,38.42997],[-106.53367,38.43042],[-106.53425,38.43075],[-106.53495,38.43116],[-106.53547,38.43146],[-106.53669,38.43217],[-106.53715,38.43244],[-106.5375,38.43264],[-106.53816,38.43302],[-106.53883,38.43341],[-106.53947,38.43379],[-106.53984,38.43398],[-106.54003,38.43408],[-106.54017,38.43415],[-106.54044,38.43428],[-106.54052,38.43431],[-106.54103,38.43452],[-106.54116,38.43457],[-106.54126,38.43461],[-106.54161,38.43472],[-106.54166,38.43474],[-106.54175,38.43477],[-106.54187,38.4348],[-106.542,38.43484],[-106.54218,38.43489],[-106.54242,38.43495],[-106.54261,38.435],[-106.54289,38.43506],[-106.54333,38.43513],[-106.54335,38.43514],[-106.54357,38.43517],[-106.54368,38.43519],[-106.54417,38.43526],[-106.54424,38.43527],[-106.54425,38.43527],[-106.54448,38.43531],[-106.54459,38.43532],[-106.54493,38.43537],[-106.5452,38.43541],[-106.54538,38.43543],[-106.5456,38.43547],[-106.54601,38.43553],[-106.54627,38.43557],[-106.54628,38.43557],[-106.54672,38.43563],[-106.54688,38.43566],[-106.54695,38.43566],[-106.54696,38.43567],[-106.54728,38.43571],[-106.54783,38.43579],[-106.5483,38.43585],[-106.54831,38.43586],[-106.54848,38.43588],[-106.54854,38.43589],[-106.54879,38.43592],[-106.54996,38.43609],[-106.55101,38.43624],[-106.55102,38.43625],[-106.55124,38.43628],[-106.55215,38.43641],[-106.55237,38.43644],[-106.55252,38.43646],[-106.5526,38.43647],[-106.55283,38.43651],[-106.55333,38.43658],[-106.55351,38.4366],[-106.5543,38.43671],[-106.55486,38.4368],[-106.55509,38.43683],[-106.5558,38.43693],[-106.5569,38.43709],[-106.55802,38.43726],[-106.55824,38.43729],[-106.55847,38.43732],[-106.55869,38.43735],[-106.55892,38.43738],[-106.55915,38.43742],[-106.55916,38.43742],[-106.55982,38.43751],[-106.55996,38.43753],[-106.56027,38.43757],[-106.56072,38.43764],[-106.56127,38.43772],[-106.56136,38.43773],[-106.56207,38.43783],[-106.56272,38.43792],[-106.56317,38.43799],[-106.56338,38.43802],[-106.56407,38.43812],[-106.56484,38.43823],[-106.56557,38.43833],[-106.56588,38.43838],[-106.56608,38.4384],[-106.56611,38.43841],[-106.56678,38.4385],[-106.56687,38.43851],[-106.56701,38.43853],[-106.56721,38.43856],[-106.56762,38.43862],[-106.56806,38.43868],[-106.56814,38.4387],[-106.56837,38.43873],[-106.56892,38.43882],[-106.56904,38.43884],[-106.56934,38.43888],[-106.56949,38.4389],[-106.56994,38.43897],[-106.56995,38.43898],[-106.57018,38.43901],[-106.5704,38.43906],[-106.5706,38.43909],[-106.57061,38.4391],[-106.57084,38.43914],[-106.57086,38.43914],[-106.5714,38.43925],[-106.57195,38.43936],[-106.57217,38.4394],[-106.57235,38.43944],[-106.57293,38.43955],[-106.57319,38.4396],[-106.57374,38.43971],[-106.57385,38.43973],[-106.57442,38.43985],[-106.57489,38.43994],[-106.5754,38.44005],[-106.57556,38.44008],[-106.57574,38.44012],[-106.57578,38.44012],[-106.57594,38.44015],[-106.57645,38.44026],[-106.57664,38.44029],[-106.57667,38.4403],[-106.57705,38.44038],[-106.57716,38.4404],[-106.57825,38.44061],[-106.57895,38.44075],[-106.57917,38.4408],[-106.57945,38.44086],[-106.57989,38.44095],[-106.58006,38.44098],[-106.58042,38.44106],[-106.58063,38.44111],[-106.58087,38.44116],[-106.58104,38.44121],[-106.58151,38.44133],[-106.58176,38.4414],[-106.58202,38.44148],[-106.58217,38.44152],[-106.58246,38.44161],[-106.58275,38.4417],[-106.58288,38.44175],[-106.58306,38.44181],[-106.58342,38.44194],[-106.58361,38.44201],[-106.5839,38.44212],[-106.58432,38.44229],[-106.58435,38.4423],[-106.58516,38.44264],[-106.58554,38.44279],[-106.58625,38.44309],[-106.58656,38.44321],[-106.58801,38.4438],[-106.58838,38.44396],[-106.58907,38.44424],[-106.58943,38.44439],[-106.58963,38.44447],[-106.58969,38.4445],[-106.5899,38.44459],[-106.59014,38.44469],[-106.59023,38.44474],[-106.59033,38.44478],[-106.59043,38.44483],[-106.59063,38.44492],[-106.59066,38.44494],[-106.59097,38.44509],[-106.59131,38.44526],[-106.5916,38.4454],[-106.59179,38.4455],[-106.59218,38.4457],[-106.59353,38.44638],[-106.59366,38.44644],[-106.59372,38.44647],[-106.59392,38.44657],[-106.5943,38.44677],[-106.59488,38.44706],[-106.59527,38.44725],[-106.59542,38.44733],[-106.59565,38.44745],[-106.59585,38.44755],[-106.5961,38.44767],[-106.59643,38.44783],[-106.59652,38.44788],[-106.59663,38.44792],[-106.59683,38.44801],[-106.59703,38.4481],[-106.5971,38.44813],[-106.59723,38.44819],[-106.59742,38.44827],[-106.59774,38.4484],[-106.59791,38.44847],[-106.59838,38.44865],[-106.59887,38.44883],[-106.59908,38.44891],[-106.59969,38.44915],[-106.59973,38.44916],[-106.5999,38.44923],[-106.60011,38.44931],[-106.60029,38.44938],[-106.60073,38.44954],[-106.60122,38.44973],[-106.60164,38.44989],[-106.60381,38.45071],[-106.60399,38.45077],[-106.60442,38.45093],[-106.6049,38.45112],[-106.60564,38.4514],[-106.60585,38.45148],[-106.60666,38.45178],[-106.60688,38.45187],[-106.60792,38.45226],[-106.6086,38.45252],[-106.60929,38.45278],[-106.60969,38.45293],[-106.60988,38.453],[-106.61012,38.45309],[-106.611,38.45343],[-106.61174,38.45372],[-106.61184,38.45376],[-106.61202,38.45383],[-106.61223,38.45392],[-106.61256,38.45406],[-106.61276,38.45415],[-106.61294,38.45422],[-106.61296,38.45423],[-106.61341,38.45443],[-106.61356,38.4545],[-106.61376,38.45459],[-106.614,38.45469],[-106.61436,38.45485],[-106.61456,38.45494],[-106.61496,38.45512],[-106.61516,38.4552],[-106.61544,38.45533],[-106.61556,38.45538],[-106.61596,38.45556],[-106.6165,38.45579],[-106.61732,38.45616],[-106.61806,38.45649],[-106.61876,38.45679],[-106.61956,38.45715],[-106.62018,38.45742],[-106.62095,38.45777],[-106.62164,38.45808],[-106.62238,38.45841],[-106.62258,38.4585],[-106.62338,38.45886],[-106.62358,38.45894],[-106.62418,38.45921],[-106.62498,38.45957],[-106.62527,38.4597],[-106.62577,38.45992],[-106.62657,38.46027],[-106.62842,38.46109],[-106.62869,38.46121],[-106.62888,38.46129],[-106.62909,38.46138],[-106.62969,38.46165],[-106.62989,38.46174],[-106.63061,38.46206],[-106.63089,38.46218],[-106.63096,38.46221],[-106.63109,38.46227],[-106.63129,38.46236],[-106.63149,38.46244],[-106.63169,38.46253],[-106.63209,38.46271],[-106.63359,38.46337],[-106.63492,38.46396],[-106.63549,38.46421],[-106.63572,38.46431],[-106.63729,38.46501],[-106.63774,38.4652],[-106.63821,38.46541],[-106.63883,38.46568],[-106.6392,38.46584],[-106.63943,38.46595],[-106.63983,38.46612],[-106.64012,38.46625],[-106.64125,38.46674],[-106.64213,38.46714],[-106.64345,38.46772],[-106.646,38.46883],[-106.64633,38.46898],[-106.64653,38.46907],[-106.64698,38.46927],[-106.64733,38.46943],[-106.64797,38.4697],[-106.64839,38.46989],[-106.64894,38.47013],[-106.65004,38.47062],[-106.65009,38.47064],[-106.65104,38.47106],[-106.65154,38.47127],[-106.65164,38.47132],[-106.6526,38.47174],[-106.65382,38.47228],[-106.65505,38.47282],[-106.65651,38.47347],[-106.65704,38.4737],[-106.65804,38.47414],[-106.65922,38.47466],[-106.6593,38.47469],[-106.65942,38.47475],[-106.66037,38.47516],[-106.66122,38.47554],[-106.66136,38.4756],[-106.66153,38.47568],[-106.66168,38.47576],[-106.66181,38.47583],[-106.66194,38.4759],[-106.66213,38.476],[-106.66233,38.47612],[-106.66237,38.47614],[-106.6625,38.47623],[-106.66251,38.47624],[-106.66259,38.47629],[-106.66266,38.47633],[-106.6628,38.47643],[-106.66295,38.47654],[-106.66312,38.47666],[-106.66338,38.47688],[-106.66359,38.47705],[-106.6638,38.47725],[-106.66396,38.47741],[-106.66437,38.47782],[-106.66457,38.47803],[-106.66482,38.47827],[-106.66493,38.47838],[-106.66513,38.47855],[-106.66536,38.47875],[-106.66541,38.47878],[-106.66555,38.47889],[-106.66557,38.47891],[-106.66565,38.47896],[-106.66579,38.47906],[-106.66587,38.47911],[-106.66596,38.47917],[-106.66614,38.47927],[-106.66624,38.47933],[-106.66636,38.47939],[-106.6666,38.47952],[-106.66705,38.47974],[-106.66788,38.48016],[-106.66842,38.48042],[-106.66873,38.48058],[-106.66912,38.48077],[-106.66936,38.4809],[-106.66953,38.48099],[-106.6697,38.48109],[-106.66976,38.48112],[-106.66983,38.48117],[-106.67009,38.48133],[-106.67026,38.48144],[-106.6704,38.48155],[-106.67064,38.48171],[-106.67079,38.48182],[-106.6712,38.48213],[-106.67129,38.4822],[-106.67159,38.48242],[-106.67163,38.48245],[-106.6718,38.48257],[-106.67201,38.48274],[-106.67249,38.48309],[-106.67284,38.48335],[-106.67313,38.48357],[-106.67316,38.48359],[-106.67346,38.48381],[-106.67378,38.48405],[-106.67399,38.4842],[-106.6743,38.4844],[-106.67431,38.48442],[-106.67452,38.48455],[-106.67476,38.4847],[-106.67497,38.48483],[-106.6752,38.48497],[-106.67543,38.4851],[-106.67575,38.48527],[-106.67588,38.48534],[-106.676,38.4854],[-106.67624,38.48552],[-106.67643,38.48561],[-106.6766,38.48569],[-106.67676,38.48576],[-106.67722,38.48596],[-106.67748,38.48606],[-106.67772,38.48615],[-106.67811,38.4863],[-106.67838,38.48639],[-106.67857,38.48646],[-106.67876,38.48652],[-106.67904,38.4866],[-106.67925,38.48666],[-106.67949,38.48673],[-106.67969,38.48678],[-106.67975,38.4868],[-106.67998,38.48686],[-106.68014,38.4869],[-106.68038,38.48695],[-106.68058,38.487],[-106.68081,38.48705],[-106.68146,38.48718],[-106.68234,38.48736],[-106.68235,38.48736],[-106.68279,38.48745],[-106.68376,38.48766],[-106.68434,38.48778],[-106.68549,38.48802],[-106.68663,38.48826],[-106.68723,38.48838],[-106.68789,38.48853],[-106.68811,38.48857],[-106.68839,38.48863],[-106.68856,38.48867],[-106.68944,38.48886],[-106.68967,38.4889],[-106.69054,38.48909],[-106.69055,38.48909],[-106.69081,38.48915],[-106.69119,38.48922],[-106.69131,38.48925],[-106.69151,38.48928],[-106.69172,38.48931],[-106.69189,38.48934],[-106.69195,38.48934],[-106.69211,38.48936],[-106.69222,38.48937],[-106.69242,38.48939],[-106.69267,38.48941],[-106.69277,38.48941],[-106.69294,38.48942],[-106.69371,38.48947],[-106.69372,38.48947],[-106.69417,38.4895],[-106.69441,38.48951],[-106.69477,38.48953],[-106.69533,38.48957],[-106.69603,38.4896],[-106.69655,38.48964],[-106.69689,38.48968],[-106.69728,38.48973],[-106.69767,38.48979],[-106.69807,38.48985],[-106.69856,38.48995],[-106.69888,38.49002],[-106.69919,38.4901],[-106.69943,38.49016],[-106.69975,38.49025],[-106.70019,38.49039],[-106.70064,38.49055],[-106.701,38.49068],[-106.70108,38.49072],[-106.70129,38.4908],[-106.70171,38.49098],[-106.70196,38.49108],[-106.70296,38.49149],[-106.70302,38.49152],[-106.70371,38.4918],[-106.70398,38.49191],[-106.70443,38.4921],[-106.70469,38.49219],[-106.70489,38.49226],[-106.70517,38.49236],[-106.70545,38.49245],[-106.70565,38.49251],[-106.70574,38.49254],[-106.70612,38.49264],[-106.70639,38.49271],[-106.7067,38.49279],[-106.70718,38.4929],[-106.70752,38.49298],[-106.70876,38.49325],[-106.70917,38.49335],[-106.70948,38.49342],[-106.71009,38.49355],[-106.71094,38.49374],[-106.71135,38.49383],[-106.71185,38.49395],[-106.71217,38.49403],[-106.7125,38.49411],[-106.71285,38.49422],[-106.71323,38.49433],[-106.71349,38.49442],[-106.71354,38.49444],[-106.7137,38.49449],[-106.71441,38.49477],[-106.71458,38.49483],[-106.71478,38.49491],[-106.71549,38.49518],[-106.71627,38.49548],[-106.71688,38.49571],[-106.71729,38.49587],[-106.71833,38.49626],[-106.71932,38.49665],[-106.71952,38.49673],[-106.71973,38.49681],[-106.72077,38.4972],[-106.7211,38.49733],[-106.72131,38.49741],[-106.72263,38.49791],[-106.72296,38.49804],[-106.72324,38.49815],[-106.72345,38.49823],[-106.72392,38.49841],[-106.72413,38.49849],[-106.72468,38.49873],[-106.72495,38.49888],[-106.72509,38.49895],[-106.72528,38.49907],[-106.72541,38.49916],[-106.72552,38.49923],[-106.72577,38.49941],[-106.72593,38.49955],[-106.726,38.49961],[-106.72618,38.49978],[-106.72622,38.49983],[-106.72641,38.50004],[-106.72667,38.50034],[-106.72687,38.50057],[-106.72725,38.50102],[-106.72746,38.50128],[-106.72791,38.50181],[-106.72813,38.50206],[-106.72879,38.50284],[-106.7292,38.50333],[-106.72956,38.50378],[-106.72959,38.50382],[-106.72968,38.50394],[-106.72992,38.50424],[-106.73004,38.5044],[-106.73011,38.50448],[-106.7304,38.50486],[-106.73052,38.50501],[-106.73067,38.5052],[-106.73087,38.50546],[-106.73118,38.50586],[-106.73134,38.50606],[-106.73146,38.50622],[-106.73182,38.50668],[-106.73194,38.50683],[-106.73206,38.50698],[-106.7322,38.50716],[-106.7323,38.50729],[-106.73254,38.5076],[-106.73266,38.50775],[-106.73268,38.50777],[-106.7329,38.50806],[-106.733,38.50818],[-106.73313,38.50836],[-106.73314,38.50836],[-106.73327,38.50852],[-106.7333,38.50856],[-106.73339,38.50867],[-106.73356,38.50885],[-106.73369,38.509],[-106.73387,38.50919],[-106.73419,38.50949],[-106.73435,38.50965],[-106.73446,38.50975],[-106.7346,38.50986],[-106.73471,38.50995],[-106.73481,38.51003],[-106.73492,38.51012],[-106.73523,38.51034],[-106.73545,38.5105],[-106.7357,38.51068],[-106.73605,38.51089],[-106.73632,38.51105],[-106.73645,38.51112],[-106.73664,38.51123],[-106.73683,38.51132],[-106.73698,38.5114],[-106.73719,38.5115],[-106.73725,38.51153],[-106.73738,38.51159],[-106.73743,38.51161],[-106.73772,38.51174],[-106.73801,38.51186],[-106.73826,38.51195],[-106.73852,38.51204],[-106.73872,38.51211],[-106.73898,38.5122],[-106.73925,38.51228],[-106.73958,38.51237],[-106.73993,38.51246],[-106.7402,38.51252],[-106.74057,38.51259],[-106.7408,38.51263],[-106.74102,38.51267],[-106.74107,38.51268],[-106.74125,38.5127],[-106.74132,38.51271],[-106.7415,38.51274],[-106.74166,38.51276],[-106.74193,38.51279],[-106.74219,38.51281],[-106.74249,38.51283],[-106.74276,38.51285],[-106.74318,38.51286],[-106.74356,38.51287],[-106.74404,38.51288],[-106.74449,38.51289],[-106.74489,38.5129],[-106.74491,38.5129],[-106.7453,38.51291],[-106.74537,38.51291],[-106.74571,38.51291],[-106.74606,38.51292],[-106.74664,38.51293],[-106.74785,38.51295],[-106.74836,38.51296],[-106.74992,38.51299],[-106.7511,38.51301],[-106.75135,38.51303],[-106.75153,38.51305],[-106.75173,38.51307],[-106.75197,38.5131],[-106.75221,38.51313],[-106.75241,38.51317],[-106.7527,38.51323],[-106.7529,38.51328],[-106.75305,38.51332],[-106.75322,38.51337],[-106.75339,38.51342],[-106.75397,38.51363],[-106.75404,38.51365],[-106.75418,38.5137],[-106.75563,38.51425],[-106.75645,38.51456],[-106.75726,38.51487],[-106.75831,38.51527],[-106.75933,38.51566],[-106.75935,38.51566],[-106.75954,38.51573],[-106.75956,38.51574],[-106.76119,38.51636],[-106.76253,38.51687],[-106.76315,38.51711],[-106.76336,38.51719],[-106.76352,38.51725],[-106.76377,38.51734],[-106.76398,38.51742],[-106.76419,38.5175],[-106.76449,38.51762],[-106.76547,38.51799],[-106.76625,38.51828],[-106.76646,38.51836],[-106.76695,38.51854],[-106.76742,38.5187],[-106.76783,38.51884],[-106.7684,38.51901],[-106.76939,38.51927],[-106.76949,38.5193],[-106.76993,38.51941],[-106.77086,38.51965],[-106.77172,38.51986],[-106.77239,38.52004],[-106.77532,38.5208],[-106.77758,38.52139],[-106.77956,38.52189],[-106.77997,38.52199],[-106.78159,38.5224],[-106.78227,38.52257],[-106.78237,38.52259],[-106.78329,38.52283],[-106.78376,38.52295],[-106.78444,38.52311],[-106.78468,38.52316],[-106.78511,38.52321],[-106.78559,38.52328],[-106.78595,38.52332],[-106.78636,38.52336],[-106.78867,38.52353],[-106.79056,38.52366],[-106.79394,38.52391],[-106.7944,38.52394],[-106.79531,38.524],[-106.79554,38.52402],[-106.79707,38.52413],[-106.79714,38.52413],[-106.79749,38.52415],[-106.7978,38.52417],[-106.79921,38.52422],[-106.7998,38.52424],[-106.80033,38.52426],[-106.80193,38.52433],[-106.80218,38.52434],[-106.80227,38.52434],[-106.80377,38.5244],[-106.80431,38.52442],[-106.80483,38.52445],[-106.80492,38.52445],[-106.80543,38.52447],[-106.80569,38.52448],[-106.80607,38.5245],[-106.80675,38.52453],[-106.80698,38.52454],[-106.80749,38.52456],[-106.80797,38.52458],[-106.80813,38.52458],[-106.80822,38.52459],[-106.80841,38.5246],[-106.80884,38.52462],[-106.80922,38.52464],[-106.80953,38.52467],[-106.80987,38.52472],[-106.81003,38.52475],[-106.81015,38.52477],[-106.81043,38.52485],[-106.81076,38.52494],[-106.81096,38.525],[-106.81107,38.52504],[-106.81114,38.52506],[-106.81138,38.52515],[-106.81159,38.52524],[-106.81169,38.52528],[-106.81254,38.52569],[-106.81326,38.52604],[-106.81378,38.52629],[-106.81447,38.52662],[-106.81504,38.52689],[-106.81525,38.527],[-106.81584,38.52728],[-106.81604,38.52737],[-106.81662,38.52765],[-106.81682,38.52775],[-106.81686,38.52776],[-106.81741,38.52803],[-106.81761,38.52812],[-106.81793,38.52827],[-106.818,38.52831],[-106.8182,38.5284],[-106.81895,38.52875],[-106.82017,38.52933],[-106.82075,38.52961],[-106.82085,38.52965],[-106.82115,38.5298],[-106.82134,38.52989],[-106.8214,38.52992],[-106.82144,38.52993],[-106.82225,38.53033],[-106.82249,38.53044],[-106.82266,38.53051],[-106.82305,38.53068],[-106.82319,38.53073],[-106.82347,38.53083],[-106.82386,38.53096],[-106.82426,38.53108],[-106.82456,38.53116],[-106.82473,38.5312],[-106.82492,38.53124],[-106.82514,38.53129],[-106.82606,38.53144],[-106.82692,38.53157],[-106.82696,38.53158],[-106.82719,38.53161],[-106.82801,38.53173],[-106.82854,38.53182],[-106.82877,38.53186],[-106.82891,38.53188],[-106.82922,38.53193],[-106.8294,38.53196],[-106.82944,38.53197],[-106.8297,38.53201],[-106.83012,38.53207],[-106.83034,38.5321],[-106.8304,38.53211],[-106.83101,38.53221],[-106.83102,38.53221],[-106.83124,38.53225],[-106.83147,38.53228],[-106.83157,38.53229],[-106.83192,38.53235],[-106.83215,38.53239],[-106.83257,38.53245],[-106.83281,38.53249],[-106.83305,38.53253],[-106.83311,38.53255],[-106.83339,38.5326],[-106.83365,38.53266],[-106.83394,38.53274],[-106.83411,38.53279],[-106.83428,38.53284],[-106.83438,38.53287],[-106.83454,38.53292],[-106.83471,38.53298],[-106.83505,38.5331],[-106.83548,38.53327],[-106.83612,38.53356],[-106.83647,38.53372],[-106.83706,38.53398],[-106.83728,38.53409],[-106.83766,38.53426],[-106.83887,38.53482],[-106.83945,38.53508],[-106.83959,38.53514],[-106.84026,38.53545],[-106.84069,38.53564],[-106.841,38.53577],[-106.8413,38.53589],[-106.84163,38.53602],[-106.84207,38.53617],[-106.84236,38.53626],[-106.8426,38.53634],[-106.84283,38.5364],[-106.84326,38.5365],[-106.84349,38.53656],[-106.84394,38.53664],[-106.8442,38.53669],[-106.84446,38.53673],[-106.84478,38.53678],[-106.84492,38.53679],[-106.84505,38.5368],[-106.84523,38.53682],[-106.84561,38.53685],[-106.84583,38.53686],[-106.84603,38.53687],[-106.84606,38.53687],[-106.84627,38.53688],[-106.84641,38.53688],[-106.84651,38.53688],[-106.84728,38.53688],[-106.84747,38.53688],[-106.84802,38.53687],[-106.84877,38.53686],[-106.84946,38.53685],[-106.84954,38.53685],[-106.84967,38.53686],[-106.84983,38.53686],[-106.85,38.53686],[-106.85022,38.53688],[-106.85042,38.53689],[-106.85067,38.53692],[-106.85075,38.53693],[-106.85101,38.53698],[-106.85119,38.53701],[-106.85135,38.53704],[-106.85143,38.53706],[-106.8515,38.53708],[-106.85154,38.53709],[-106.85157,38.5371],[-106.85171,38.53713],[-106.85194,38.5372],[-106.85214,38.53726],[-106.85235,38.53733],[-106.85242,38.53736],[-106.85256,38.53741],[-106.85257,38.53741],[-106.85274,38.53748],[-106.85289,38.53754],[-106.85301,38.5376],[-106.85315,38.53767],[-106.85326,38.53773],[-106.85342,38.53781],[-106.85352,38.53787],[-106.85363,38.53793],[-106.85382,38.53804],[-106.85396,38.53814],[-106.85415,38.53827],[-106.85427,38.53835],[-106.85439,38.53846],[-106.85446,38.53851],[-106.85452,38.53856],[-106.8546,38.53862],[-106.85477,38.53879],[-106.8549,38.53891],[-106.85564,38.53971],[-106.8562,38.54029],[-106.85624,38.54034],[-106.85678,38.54092],[-106.85698,38.54114],[-106.85706,38.54123],[-106.85707,38.54124],[-106.85719,38.54137],[-106.85731,38.5415],[-106.85761,38.54184],[-106.85826,38.54254],[-106.85846,38.54276],[-106.85871,38.54302],[-106.85892,38.54323],[-106.859,38.5433],[-106.85917,38.54346],[-106.85931,38.54357],[-106.8594,38.54363],[-106.85951,38.54372],[-106.85965,38.54381],[-106.85978,38.54389],[-106.8599,38.54397],[-106.8601,38.54407],[-106.86026,38.54416],[-106.86038,38.54421],[-106.86048,38.54425],[-106.86074,38.54436],[-106.86088,38.5444],[-106.86102,38.54445],[-106.86113,38.54448],[-106.86125,38.54452],[-106.86137,38.54455],[-106.86147,38.54457],[-106.86173,38.54463],[-106.86198,38.54467],[-106.86211,38.54468],[-106.86222,38.54469],[-106.86234,38.5447],[-106.86246,38.54471],[-106.86268,38.54472],[-106.86291,38.54473],[-106.86315,38.54473],[-106.86333,38.54473],[-106.86341,38.54474],[-106.86367,38.54474],[-106.86379,38.54474],[-106.86414,38.54474],[-106.86436,38.54474],[-106.86495,38.54474],[-106.86597,38.54473],[-106.86663,38.54473],[-106.86709,38.54473],[-106.86778,38.54473],[-106.86847,38.54473],[-106.86939,38.54473],[-106.87054,38.54473],[-106.871,38.54473],[-106.87197,38.54473],[-106.87215,38.54473],[-106.87235,38.54473],[-106.87366,38.54473],[-106.87422,38.54473],[-106.87449,38.54473],[-106.87478,38.54472],[-106.87499,38.54472],[-106.87519,38.54471],[-106.87548,38.5447],[-106.87584,38.54469],[-106.87625,38.54466],[-106.87657,38.54464],[-106.87693,38.54461],[-106.87714,38.54458],[-106.87765,38.54452],[-106.87785,38.5445],[-106.87791,38.54449],[-106.87832,38.54443],[-106.87891,38.54433],[-106.87942,38.54424],[-106.8798,38.54418],[-106.88011,38.54413],[-106.8803,38.5441],[-106.88061,38.54405],[-106.88082,38.54403],[-106.88102,38.54402],[-106.88107,38.54402],[-106.88125,38.54401],[-106.88146,38.544],[-106.88173,38.544],[-106.88205,38.54402],[-106.88219,38.54403],[-106.88237,38.54404],[-106.88256,38.54406],[-106.88282,38.5441],[-106.88285,38.5441],[-106.88298,38.54414],[-106.88312,38.54417],[-106.88327,38.5442],[-106.88355,38.54426],[-106.88414,38.54438],[-106.8843,38.54441],[-106.88462,38.54447],[-106.88496,38.54452],[-106.88517,38.54454],[-106.88548,38.54455],[-106.88582,38.54456],[-106.886,38.54453],[-106.8864,38.54453],[-106.88684,38.54452],[-106.88784,38.54452],[-106.88905,38.5445],[-106.89039,38.54449],[-106.89207,38.54449],[-106.89406,38.54448],[-106.89443,38.54449],[-106.89464,38.54448],[-106.89498,38.54448],[-106.89612,38.54448],[-106.89734,38.54447],[-106.89824,38.54447],[-106.8989,38.54446],[-106.89899,38.54446],[-106.90024,38.54446],[-106.90139,38.54446],[-106.90149,38.54446],[-106.90153,38.54446],[-106.90195,38.54446],[-106.90287,38.54445],[-106.9031,38.54445],[-106.90314,38.54445],[-106.90333,38.54445],[-106.90337,38.54445],[-106.90347,38.54445],[-106.9054,38.54444],[-106.90632,38.54444],[-106.90682,38.54444],[-106.90722,38.54444],[-106.90816,38.54444],[-106.90939,38.54443],[-106.91023,38.54443],[-106.91027,38.54443],[-106.91046,38.54443],[-106.91193,38.54442],[-106.91322,38.54442],[-106.91488,38.54441],[-106.91502,38.54441],[-106.91567,38.54441],[-106.91634,38.54441],[-106.91767,38.5444],[-106.91786,38.5444],[-106.91809,38.5444],[-106.9182,38.5444],[-106.91914,38.54439],[-106.92086,38.5444],[-106.92174,38.5444],[-106.92241,38.54441],[-106.92303,38.54441],[-106.92368,38.54441],[-106.92433,38.5444],[-106.92496,38.54441],[-106.92561,38.54441],[-106.92589,38.54441],[-106.92627,38.54441],[-106.92657,38.54441],[-106.92692,38.54441],[-106.92738,38.54441],[-106.92758,38.54441],[-106.92795,38.54441],[-106.92821,38.54441],[-106.92861,38.54441],[-106.92868,38.54441],[-106.9289,38.54441],[-106.9291,38.54441],[-106.92952,38.54441],[-106.92985,38.54441],[-106.93017,38.54441],[-106.93038,38.54441],[-106.93079,38.54441],[-106.93124,38.54441],[-106.93145,38.54441],[-106.9321,38.54441],[-106.93275,38.54441],[-106.93337,38.54441],[-106.93356,38.54441],[-106.93418,38.54441],[-106.93482,38.54441],[-106.93547,38.54441],[-106.93609,38.54441],[-106.9365,38.54442],[-106.93678,38.54442],[-106.93684,38.54442],[-106.93692,38.54441],[-106.93701,38.54441],[-106.93711,38.54439],[-106.93719,38.54438],[-106.9374,38.54433],[-106.93774,38.54419],[-106.93785,38.54413],[-106.93787,38.54413],[-106.93794,38.5441],[-106.93801,38.54406],[-106.9381,38.54401],[-106.93818,38.54396],[-106.93825,38.54392],[-106.9384,38.5438],[-106.93847,38.54374],[-106.93858,38.54363],[-106.93866,38.54353],[-106.93871,38.54346],[-106.93875,38.5434],[-106.93881,38.54328],[-106.93887,38.54312],[-106.93893,38.54294],[-106.93898,38.54279],[-106.93915,38.54219],[-106.93921,38.54198],[-106.93921,38.54197],[-106.93926,38.5418],[-106.93935,38.54145],[-106.93938,38.54134],[-106.93961,38.54053],[-106.93965,38.54039],[-106.93977,38.53995],[-106.93978,38.53992],[-106.93985,38.53967],[-106.93987,38.53958],[-106.9399,38.53949],[-106.93991,38.53945],[-106.93995,38.5393],[-106.94,38.53917],[-106.94007,38.53897],[-106.94024,38.53865],[-106.94032,38.53851],[-106.94049,38.53822],[-106.94068,38.53795],[-106.94077,38.53783],[-106.94086,38.53774],[-106.94101,38.53758],[-106.94116,38.53742],[-106.94125,38.53733],[-106.9413,38.53728],[-106.94161,38.537],[-106.94178,38.53687],[-106.9419,38.53678],[-106.94196,38.53674],[-106.94213,38.53661],[-106.94232,38.53649],[-106.9425,38.53638],[-106.94257,38.53633],[-106.94266,38.53629],[-106.94282,38.53621],[-106.94296,38.53614],[-106.94303,38.53611],[-106.94325,38.53601],[-106.94343,38.53593],[-106.94364,38.53584],[-106.94365,38.53584],[-106.94388,38.53575],[-106.94417,38.53563],[-106.94438,38.53554],[-106.94448,38.5355],[-106.94499,38.5353],[-106.9451,38.53528],[-106.94537,38.53519],[-106.94576,38.53504],[-106.94595,38.53497],[-106.94639,38.53479],[-106.94651,38.53474],[-106.94675,38.53464],[-106.94701,38.53454],[-106.94772,38.53426],[-106.94805,38.53412],[-106.94848,38.53393],[-106.94873,38.53382],[-106.94881,38.53377],[-106.94901,38.53369],[-106.94932,38.53357],[-106.94983,38.53336],[-106.95035,38.53315],[-106.95199,38.53249],[-106.9522,38.53241],[-106.95242,38.53232],[-106.95346,38.5319],[-106.95354,38.53188],[-106.95358,38.53187],[-106.95446,38.53152],[-106.95591,38.53096],[-106.95592,38.53095],[-106.95675,38.53063],[-106.9569,38.53058],[-106.95697,38.5305],[-106.95711,38.53045],[-106.95748,38.5303],[-106.95792,38.53011],[-106.95805,38.53011],[-106.95814,38.53008],[-106.95894,38.52975],[-106.95908,38.5297],[-106.9596,38.52949],[-106.96019,38.52926],[-106.96098,38.52893],[-106.96166,38.52866],[-106.96306,38.5281],[-106.96372,38.52783],[-106.96725,38.5264],[-106.96735,38.52632],[-106.96786,38.52612],[-106.968,38.52606],[-106.96824,38.52596],[-106.96836,38.52591],[-106.96894,38.52568],[-106.96958,38.52543],[-106.97028,38.52514],[-106.97083,38.52491],[-106.97106,38.52481],[-106.97115,38.52477],[-106.97117,38.52477],[-106.97117,38.52476],[-106.97118,38.52476],[-106.9713,38.52471],[-106.9722,38.52436],[-106.97454,38.52341],[-106.97515,38.52316],[-106.97536,38.52308],[-106.97558,38.523],[-106.97582,38.5229],[-106.97597,38.52286],[-106.97604,38.52283],[-106.9761,38.52281],[-106.9763,38.52276],[-106.97643,38.52272],[-106.97658,38.52269],[-106.97663,38.52268],[-106.97679,38.52265],[-106.97733,38.52255],[-106.97765,38.52251],[-106.9778,38.5225],[-106.97792,38.52249],[-106.97808,38.52248],[-106.9783,38.52247],[-106.97862,38.52247],[-106.97902,38.52247],[-106.97903,38.52247],[-106.97992,38.52249],[-106.98089,38.52252],[-106.98279,38.52257],[-106.98443,38.52261],[-106.98695,38.52268],[-106.98817,38.52271],[-106.98861,38.52273],[-106.98887,38.52273],[-106.98917,38.52273],[-106.98948,38.52272],[-106.98977,38.5227],[-106.9901,38.52268],[-106.99057,38.52263],[-106.99087,38.52259],[-106.99107,38.52256],[-106.99137,38.52251],[-106.99156,38.52247],[-106.99234,38.52232],[-106.99352,38.52209],[-106.99471,38.52186],[-106.99516,38.52177],[-106.99567,38.52167],[-106.99646,38.52152],[-106.99712,38.52138],[-106.99779,38.52125],[-106.99789,38.52123],[-107.00026,38.52077],[-107.00054,38.52071],[-107.00076,38.52067],[-107.00143,38.52054],[-107.0021,38.52041],[-107.00277,38.52028],[-107.00321,38.52019],[-107.00341,38.52015],[-107.00344,38.52014],[-107.00389,38.52004],[-107.00429,38.51995],[-107.00476,38.51984],[-107.00495,38.51979],[-107.00562,38.5196],[-107.00616,38.51944],[-107.00648,38.51934],[-107.0067,38.51928],[-107.00704,38.51917],[-107.00781,38.51893],[-107.00905,38.51854],[-107.00947,38.5184],[-107.00969,38.51834],[-107.0099,38.51827],[-107.01016,38.51819],[-107.01087,38.51797],[-107.01097,38.51794],[-107.01118,38.51787],[-107.01165,38.51773],[-107.01222,38.51756],[-107.01311,38.51734],[-107.01313,38.51734],[-107.01335,38.51729],[-107.01404,38.51714],[-107.01461,38.51702],[-107.01491,38.51697],[-107.01565,38.51684],[-107.01581,38.51682],[-107.01603,38.51678],[-107.01693,38.51662],[-107.01738,38.51655],[-107.01787,38.51647],[-107.01818,38.51641],[-107.01828,38.51639],[-107.01863,38.51629],[-107.01893,38.51619],[-107.01919,38.51608],[-107.01925,38.51605],[-107.01944,38.51595],[-107.0195,38.51592],[-107.01962,38.51584],[-107.01972,38.51578],[-107.0198,38.51573],[-107.01989,38.51566],[-107.02006,38.51552],[-107.02012,38.51547],[-107.02027,38.51533],[-107.02028,38.51532],[-107.02041,38.51519],[-107.02058,38.51502],[-107.02095,38.51462],[-107.02123,38.51433],[-107.0215,38.51404],[-107.02164,38.51389],[-107.02178,38.51375],[-107.0221,38.5134],[-107.02286,38.51258],[-107.02314,38.51229],[-107.02356,38.51185],[-107.02382,38.51156],[-107.02399,38.51136],[-107.02407,38.51127],[-107.02418,38.51115],[-107.02432,38.51098],[-107.02445,38.5108],[-107.0246,38.51059],[-107.02481,38.51027],[-107.02497,38.51001],[-107.02519,38.50964],[-107.02545,38.50924],[-107.02566,38.5089],[-107.02576,38.50874],[-107.02596,38.50842],[-107.02606,38.50826],[-107.0262,38.50804],[-107.02627,38.50793],[-107.02647,38.50761],[-107.0265,38.50756],[-107.02667,38.50726],[-107.02675,38.50712],[-107.02683,38.50696],[-107.02683,38.50695],[-107.0269,38.50678],[-107.02691,38.50676],[-107.02697,38.50658],[-107.02703,38.50635],[-107.02706,38.50618],[-107.02708,38.50607],[-107.02708,38.50604],[-107.0271,38.50589],[-107.0271,38.50588],[-107.0271,38.50569],[-107.0271,38.50548],[-107.02709,38.50532],[-107.02704,38.505],[-107.02688,38.50427],[-107.0267,38.50347],[-107.0266,38.50305],[-107.02656,38.50287],[-107.0264,38.50218],[-107.02626,38.50144],[-107.02615,38.50101],[-107.02612,38.50081],[-107.02609,38.50064],[-107.02609,38.50063],[-107.02607,38.50041],[-107.02607,38.50027],[-107.02607,38.50009],[-107.02607,38.49995],[-107.02608,38.49973],[-107.0261,38.4995],[-107.02616,38.49917],[-107.02626,38.49885],[-107.02628,38.49876],[-107.02642,38.49836],[-107.02659,38.49802],[-107.02681,38.49767],[-107.02688,38.49754],[-107.02691,38.49751],[-107.02708,38.49728],[-107.02739,38.49693],[-107.02768,38.49665],[-107.02801,38.49638],[-107.02829,38.49619],[-107.02838,38.49614],[-107.02847,38.49607],[-107.02855,38.49602],[-107.02936,38.49554],[-107.03001,38.49515],[-107.03093,38.49461],[-107.03112,38.4945],[-107.03131,38.49439],[-107.03239,38.49377],[-107.03245,38.49374],[-107.03248,38.49372],[-107.0329,38.49347],[-107.03314,38.49332],[-107.03334,38.49317],[-107.03337,38.49315],[-107.03351,38.49305],[-107.03365,38.49294],[-107.03379,38.49279],[-107.03381,38.49278],[-107.0339,38.49268],[-107.03403,38.49251],[-107.03412,38.49236],[-107.03418,38.49223],[-107.03428,38.492],[-107.03433,38.49182],[-107.03434,38.49179],[-107.03441,38.49156],[-107.03443,38.49144],[-107.03448,38.49126],[-107.0345,38.49118],[-107.03463,38.4907],[-107.03469,38.49052],[-107.03474,38.4904],[-107.0348,38.4903],[-107.03484,38.49023],[-107.03486,38.49019],[-107.03492,38.4901],[-107.03495,38.49007],[-107.03502,38.48998],[-107.03508,38.48992],[-107.03513,38.48987],[-107.03523,38.48978],[-107.03527,38.48974],[-107.03551,38.48958],[-107.03569,38.48947],[-107.0359,38.48938],[-107.03596,38.48936],[-107.03609,38.48932],[-107.03619,38.48929],[-107.0363,38.48926],[-107.03641,38.48924],[-107.03653,38.48922],[-107.03665,38.48921],[-107.03677,38.4892],[-107.03694,38.4892],[-107.03718,38.48921],[-107.03766,38.48927],[-107.03776,38.48928],[-107.03799,38.48932],[-107.03817,38.48935],[-107.03835,38.48938],[-107.03855,38.48941],[-107.03872,38.48942],[-107.0389,38.48943],[-107.03905,38.48942],[-107.03915,38.48942],[-107.03928,38.4894],[-107.03935,38.48939],[-107.03942,38.48938],[-107.03956,38.48934],[-107.03973,38.4893],[-107.03988,38.48926],[-107.04004,38.48919],[-107.04018,38.48912],[-107.04026,38.48908],[-107.04033,38.48904],[-107.04047,38.48894],[-107.04054,38.48889],[-107.04067,38.48879],[-107.04075,38.48872],[-107.04085,38.48861],[-107.04093,38.4885],[-107.04103,38.48835],[-107.04106,38.4883],[-107.04115,38.48811],[-107.04127,38.48783],[-107.04129,38.48779],[-107.0414,38.48753],[-107.04151,38.48729],[-107.04159,38.48716],[-107.04165,38.48706],[-107.04176,38.48692],[-107.0419,38.48678],[-107.04205,38.48666],[-107.04218,38.48657],[-107.04219,38.48656],[-107.04233,38.48647],[-107.04237,38.48645],[-107.04245,38.4864],[-107.04256,38.48635],[-107.04258,38.48634],[-107.04272,38.48628],[-107.04283,38.48625],[-107.04294,38.48621],[-107.04308,38.48617],[-107.04321,38.48614],[-107.04335,38.48612],[-107.04354,38.4861],[-107.04375,38.48609],[-107.04392,38.4861],[-107.04408,38.48611],[-107.04422,38.48614],[-107.04433,38.48617],[-107.04438,38.48618],[-107.04458,38.48623],[-107.04472,38.48628],[-107.04484,38.48633],[-107.04522,38.48652],[-107.04553,38.48668],[-107.04565,38.48675],[-107.04599,38.48691],[-107.04616,38.48698],[-107.04633,38.48704],[-107.04635,38.48704],[-107.04658,38.48711],[-107.04677,38.48714],[-107.04683,38.48715],[-107.04699,38.48716],[-107.04705,38.48717],[-107.04722,38.48717],[-107.04736,38.48717],[-107.04745,38.48716],[-107.04754,38.48715],[-107.04774,38.48712],[-107.04797,38.48707],[-107.04822,38.48698],[-107.04842,38.4869],[-107.04858,38.48681],[-107.04877,38.48671],[-107.04889,38.48664],[-107.04908,38.48653],[-107.04931,38.4864],[-107.04946,38.48633],[-107.04961,38.48626],[-107.04984,38.48616],[-107.05003,38.4861],[-107.05019,38.48605],[-107.05033,38.48603],[-107.05046,38.486],[-107.05061,38.48599],[-107.05074,38.48598],[-107.05076,38.48598],[-107.05096,38.48598],[-107.05114,38.48599],[-107.05138,38.48603],[-107.05156,38.48607],[-107.05174,38.48613],[-107.05188,38.48617],[-107.052,38.48622],[-107.05217,38.48631],[-107.05227,38.48637],[-107.05239,38.48645],[-107.05242,38.48647],[-107.0525,38.48654],[-107.05258,38.4866],[-107.05258,38.48661],[-107.05266,38.48668],[-107.05272,38.48675],[-107.05274,38.48678],[-107.05284,38.48688],[-107.05285,38.48689],[-107.05297,38.48705],[-107.05315,38.48729],[-107.05365,38.48804],[-107.05389,38.48837],[-107.05412,38.48867],[-107.05421,38.48877],[-107.05426,38.48883],[-107.05434,38.48892],[-107.05438,38.48896],[-107.05452,38.48907],[-107.05462,38.48914],[-107.05475,38.48923],[-107.0549,38.48932],[-107.05513,38.48942],[-107.05533,38.48951],[-107.05552,38.48957],[-107.05571,38.48962],[-107.05588,38.48965],[-107.056,38.48969],[-107.05607,38.4897],[-107.05619,38.48972],[-107.0563,38.48973],[-107.05642,38.48974],[-107.05654,38.48974],[-107.05666,38.48974],[-107.05689,38.48972],[-107.05705,38.48971],[-107.05727,38.48969],[-107.05745,38.48968],[-107.05749,38.48967],[-107.05765,38.48965],[-107.05818,38.48959],[-107.05888,38.48951],[-107.05943,38.48946],[-107.05976,38.48942],[-107.06013,38.48936],[-107.06059,38.4893],[-107.06065,38.48929],[-107.06077,38.48924],[-107.06092,38.48921],[-107.06106,38.48918],[-107.06116,38.48914],[-107.06135,38.48907],[-107.06148,38.48903],[-107.0616,38.48898],[-107.06172,38.48892],[-107.06231,38.48847],[-107.06239,38.4884],[-107.06256,38.48826],[-107.06258,38.48825],[-107.06305,38.48783],[-107.0632,38.48773],[-107.06336,38.48762],[-107.06356,38.4875],[-107.06376,38.48739],[-107.06397,38.48728],[-107.06412,38.48721],[-107.06421,38.48717],[-107.06439,38.48709],[-107.06458,38.48703],[-107.06479,38.48696],[-107.06501,38.4869],[-107.06517,38.48686],[-107.06518,38.48686],[-107.06525,38.48684],[-107.0654,38.48681],[-107.06548,38.4868],[-107.06553,38.48679],[-107.06576,38.48675],[-107.0661,38.48672],[-107.06635,38.48671],[-107.06659,38.48672],[-107.06683,38.48672],[-107.06703,38.48673],[-107.06721,38.48675],[-107.06736,38.48676],[-107.06753,38.48679],[-107.06768,38.48681],[-107.06774,38.48682],[-107.06798,38.48686],[-107.06816,38.48691],[-107.06832,38.48695],[-107.06857,38.48704],[-107.06865,38.48707],[-107.06895,38.48717],[-107.06901,38.4872],[-107.06922,38.4873],[-107.06929,38.48734],[-107.06953,38.48743],[-107.06956,38.48745],[-107.06957,38.48745],[-107.07004,38.48767],[-107.07022,38.48775],[-107.07039,38.48782],[-107.07056,38.48788],[-107.07058,38.48788],[-107.07075,38.48794],[-107.07078,38.48794],[-107.07079,38.48795],[-107.07101,38.48799],[-107.07122,38.48804],[-107.07152,38.48808],[-107.07174,38.48811],[-107.07185,38.48812],[-107.07415,38.4884],[-107.07438,38.48843],[-107.07467,38.48847],[-107.07553,38.48857],[-107.0757,38.48859],[-107.0763,38.48866],[-107.07638,38.48867],[-107.07661,38.4887],[-107.07665,38.4887],[-107.07715,38.48876],[-107.07774,38.48882],[-107.07825,38.48886],[-107.0789,38.48891],[-107.07912,38.48892],[-107.07951,38.48895],[-107.07958,38.48895],[-107.0798,38.48896],[-107.08001,38.48897],[-107.08026,38.48898],[-107.08049,38.48899],[-107.08058,38.489],[-107.08072,38.489],[-107.0811,38.48901],[-107.08118,38.48902],[-107.08153,38.48902],[-107.08164,38.48903],[-107.0821,38.48903],[-107.08213,38.48903],[-107.08272,38.48903],[-107.08302,38.48903],[-107.08318,38.48903],[-107.08325,38.48903],[-107.08356,38.48902],[-107.0843,38.489],[-107.08462,38.48899],[-107.08487,38.48898],[-107.08509,38.48897],[-107.0856,38.48894],[-107.08588,38.48892],[-107.08607,38.48891],[-107.08629,38.48889],[-107.08661,38.48886],[-107.08692,38.48884],[-107.08702,38.48883],[-107.08742,38.48879],[-107.08776,38.48876],[-107.08804,38.48873],[-107.08852,38.48867],[-107.08909,38.4886],[-107.0895,38.48857],[-107.08974,38.48853],[-107.09035,38.48845],[-107.09062,38.48841],[-107.09079,38.48838],[-107.09112,38.48833],[-107.09156,38.48826],[-107.09216,38.48814],[-107.09223,38.48813],[-107.09277,38.48802],[-107.09303,38.48796],[-107.09335,38.48788],[-107.09382,38.48777],[-107.09409,38.4877],[-107.0945,38.48759],[-107.09457,38.48756],[-107.09773,38.48675],[-107.10061,38.48601],[-107.10114,38.48588],[-107.10162,38.48575],[-107.1019,38.48568],[-107.10256,38.48551],[-107.10322,38.48534],[-107.10344,38.48529],[-107.1065,38.48451],[-107.10737,38.48428],[-107.10759,38.48423],[-107.10824,38.48406],[-107.10846,38.484],[-107.11348,38.48272],[-107.11461,38.48243],[-107.11548,38.48221],[-107.11667,38.48188],[-107.11677,38.48186],[-107.11713,38.48175],[-107.11742,38.48166],[-107.11765,38.48158],[-107.11793,38.48148],[-107.11816,38.4814],[-107.11898,38.48111],[-107.11932,38.48096],[-107.11956,38.48085],[-107.11989,38.48069],[-107.12023,38.48053],[-107.12049,38.48039],[-107.12067,38.48029],[-107.12109,38.48006],[-107.12144,38.47986],[-107.12158,38.47977],[-107.12213,38.4794],[-107.1235,38.47843],[-107.12356,38.47836],[-107.12449,38.47773],[-107.12536,38.47714],[-107.12622,38.47655],[-107.12644,38.47641],[-107.12729,38.47583],[-107.12752,38.47568],[-107.12773,38.47554],[-107.12784,38.47548],[-107.12808,38.47533],[-107.12825,38.47524],[-107.1284,38.47516],[-107.12851,38.4751],[-107.12879,38.47496],[-107.12897,38.47488],[-107.12898,38.47488],[-107.12912,38.47481],[-107.12918,38.47479],[-107.12928,38.47475],[-107.12952,38.47465],[-107.12975,38.47456],[-107.13002,38.47447],[-107.13022,38.4744],[-107.13024,38.4744],[-107.13051,38.47431],[-107.13065,38.47427],[-107.13073,38.47425],[-107.13094,38.47419],[-107.13108,38.47416],[-107.13121,38.47413],[-107.13147,38.47408],[-107.1318,38.47401],[-107.13204,38.47397],[-107.13229,38.47394],[-107.13243,38.47392],[-107.13253,38.4739],[-107.13267,38.47389],[-107.13282,38.47387],[-107.13298,38.47386],[-107.13312,38.47385],[-107.13342,38.47383],[-107.13357,38.47382],[-107.13427,38.47378],[-107.13561,38.4737],[-107.13653,38.47365],[-107.13735,38.4736],[-107.13792,38.47357],[-107.13814,38.47356],[-107.13815,38.47356],[-107.13944,38.47348],[-107.14026,38.47344],[-107.14044,38.47343],[-107.14205,38.47333],[-107.14319,38.47327],[-107.14394,38.47322],[-107.14463,38.47318],[-107.14519,38.47315],[-107.14529,38.47314],[-107.14541,38.47313],[-107.1456,38.47311],[-107.14575,38.4731],[-107.1458,38.4731],[-107.14597,38.47308],[-107.14598,38.47308],[-107.1462,38.47305],[-107.14623,38.47305],[-107.14649,38.47302],[-107.1468,38.47298],[-107.14708,38.47294],[-107.14744,38.47287],[-107.14823,38.47274],[-107.14958,38.4725],[-107.1507,38.4723],[-107.15182,38.4721],[-107.15271,38.47194],[-107.15294,38.4719],[-107.15361,38.47178],[-107.15383,38.47174],[-107.15405,38.4717],[-107.15473,38.47158],[-107.15495,38.47154],[-107.15517,38.4715],[-107.15562,38.47141],[-107.1574,38.4711],[-107.15923,38.47078],[-107.15937,38.47079],[-107.1598,38.47072],[-107.1605,38.47059],[-107.16202,38.47032],[-107.16259,38.47022],[-107.16351,38.47005],[-107.16351,38.47005],[-107.16349,38.46998],[-107.16343,38.46981],[-107.16333,38.46948],[-107.16331,38.46935],[-107.16331,38.46928],[-107.1633,38.46925],[-107.16331,38.46914],[-107.16334,38.46901],[-107.16338,38.46893],[-107.1634,38.46888],[-107.16346,38.46876],[-107.16355,38.46867],[-107.16359,38.46861],[-107.16363,38.46858],[-107.16369,38.46853],[-107.16385,38.46842],[-107.16414,38.46826],[-107.16452,38.46807],[-107.16463,38.46801],[-107.16476,38.46791],[-107.16485,38.46781],[-107.1649,38.46776],[-107.16508,38.46754],[-107.1653,38.46718],[-107.16537,38.46707],[-107.1655,38.46686],[-107.16566,38.46663],[-107.16579,38.46646],[-107.16584,38.46642],[-107.16601,38.46626],[-107.16615,38.46615],[-107.1667,38.46571],[-107.1667,38.46571],[-107.16692,38.46576],[-107.16717,38.46583],[-107.1674,38.46587],[-107.16774,38.46591],[-107.16776,38.46591],[-107.16793,38.46593],[-107.16823,38.46593],[-107.16882,38.4659],[-107.16895,38.46589],[-107.17023,38.46583],[-107.17085,38.4658],[-107.17099,38.46584],[-107.17105,38.46586],[-107.1714,38.466],[-107.17171,38.46612],[-107.17178,38.46614],[-107.17189,38.46616],[-107.17194,38.46617],[-107.172,38.46619],[-107.17209,38.46623],[-107.17215,38.46626],[-107.1722,38.4663],[-107.17225,38.46634],[-107.17229,38.46637],[-107.17235,38.46644],[-107.17236,38.46652],[-107.17235,38.4666],[-107.17234,38.46665],[-107.17232,38.4667],[-107.17224,38.46688],[-107.1722,38.46696],[-107.17217,38.46704],[-107.17216,38.46712],[-107.17215,38.46714],[-107.17214,38.4673],[-107.17214,38.4673],[-107.17249,38.46732],[-107.1729,38.46739],[-107.17301,38.4674],[-107.17308,38.4674],[-107.17337,38.46735],[-107.17353,38.46735],[-107.17363,38.46735],[-107.17371,38.46735],[-107.17385,38.46737],[-107.17487,38.46756],[-107.17497,38.46757],[-107.17518,38.46761],[-107.17519,38.46761],[-107.1753,38.4676],[-107.1754,38.46759],[-107.17542,38.46758],[-107.17551,38.46755],[-107.17561,38.46749],[-107.17563,38.46746]]}}]}