{"type":"FeatureCollection","features":[{"type":"Feature","properties":{"_gpxType":"trk","name":"Pleasant Valley, U.S. 50, Cimarron, CO - South Rim Campground, South Rim Road, Montrose, CO","coordinateProperties":{},"id":66},"geometry":{"type":"LineString","coordinates":[[-107.52053,38.4109],[-107.52053,38.41091],[-107.52052,38.41092],[-107.52051,38.41093],[-107.5205,38.41093],[-107.52049,38.41093],[-107.52048,38.41093],[-107.52046,38.41093],[-107.52038,38.41093],[-107.52023,38.41093],[-107.52023,38.41093],[-107.52067,38.41124],[-107.52085,38.41136],[-107.52095,38.41142],[-107.52097,38.41144],[-107.52102,38.41147],[-107.52108,38.4115],[-107.52119,38.41156],[-107.52129,38.41162],[-107.52139,38.41168],[-107.52149,38.41173],[-107.5215,38.41173],[-107.52154,38.41175],[-107.5216,38.41178],[-107.5217,38.41182],[-107.5218,38.41186],[-107.52189,38.4119],[-107.52198,38.41193],[-107.52207,38.41196],[-107.52219,38.412],[-107.52228,38.41203],[-107.52239,38.41207],[-107.52248,38.4121],[-107.52256,38.41212],[-107.5227,38.41217],[-107.52282,38.4122],[-107.52293,38.41224],[-107.52299,38.41226],[-107.523,38.41226],[-107.52315,38.41231],[-107.52326,38.41234],[-107.52336,38.41237],[-107.52364,38.41246],[-107.52386,38.41253],[-107.52387,38.41254],[-107.52388,38.41255],[-107.52389,38.41255],[-107.5239,38.41256],[-107.52392,38.41257],[-107.52401,38.4126],[-107.52415,38.41264],[-107.52432,38.4127],[-107.52445,38.41274],[-107.52457,38.41279],[-107.52467,38.41283],[-107.52468,38.41283],[-107.52478,38.41287],[-107.52488,38.41291],[-107.52497,38.41295],[-107.52505,38.41299],[-107.52515,38.41304],[-107.52521,38.41308],[-107.52533,38.41314],[-107.52543,38.41319],[-107.5255,38.41324],[-107.52559,38.4133],[-107.52563,38.41333],[-107.52568,38.41336],[-107.52578,38.41344],[-107.52585,38.41349],[-107.52596,38.41358],[-107.52604,38.41366],[-107.5261,38.41371],[-107.52614,38.41374],[-107.52619,38.41379],[-107.52626,38.41386],[-107.5263,38.41392],[-107.52636,38.41398],[-107.52642,38.41405],[-107.52649,38.41415],[-107.52655,38.41423],[-107.52663,38.41433],[-107.52668,38.41441],[-107.52672,38.41447],[-107.5268,38.41458],[-107.52707,38.41497],[-107.52715,38.41507],[-107.52731,38.4153],[-107.52738,38.41539],[-107.5274,38.41542],[-107.52741,38.41544],[-107.52743,38.41545],[-107.52744,38.41546],[-107.52746,38.41546],[-107.52748,38.41547],[-107.52786,38.41603],[-107.52802,38.41626],[-107.52885,38.41746],[-107.52937,38.41822],[-107.52981,38.41885],[-107.52989,38.41898],[-107.52991,38.419],[-107.53018,38.41939],[-107.53023,38.41945],[-107.53039,38.41967],[-107.53047,38.41978],[-107.53054,38.41988],[-107.53061,38.41996],[-107.53068,38.42005],[-107.53075,38.42014],[-107.53083,38.42023],[-107.53085,38.42025],[-107.53091,38.42031],[-107.53096,38.42037],[-107.531,38.42041],[-107.53108,38.42049],[-107.53117,38.42059],[-107.53127,38.42068],[-107.53136,38.42077],[-107.53148,38.42088],[-107.53161,38.421],[-107.53176,38.42113],[-107.53194,38.42131],[-107.53207,38.42142],[-107.53216,38.4215],[-107.53222,38.42156],[-107.53228,38.42161],[-107.53248,38.42179],[-107.53267,38.42198],[-107.53284,38.42215],[-107.53294,38.42227],[-107.53301,38.42235],[-107.53309,38.42247],[-107.53317,38.42259],[-107.53323,38.42269],[-107.53328,38.42277],[-107.53329,38.4228],[-107.5333,38.42283],[-107.53331,38.42283],[-107.53332,38.42286],[-107.53335,38.42292],[-107.53337,38.42297],[-107.53338,38.42299],[-107.53338,38.42301],[-107.53342,38.4231],[-107.53346,38.42322],[-107.53351,38.42335],[-107.53354,38.42349],[-107.53357,38.42359],[-107.53363,38.42387],[-107.53372,38.42424],[-107.53376,38.42437],[-107.53378,38.42443],[-107.53383,38.42459],[-107.53383,38.4246],[-107.53388,38.42472],[-107.53391,38.4248],[-107.534,38.42498],[-107.53408,38.42514],[-107.5342,38.42533],[-107.53428,38.42544],[-107.53431,38.42549],[-107.53444,38.42564],[-107.53455,38.42577],[-107.5347,38.42596],[-107.53494,38.42624],[-107.53498,38.42629],[-107.53501,38.42632],[-107.53519,38.42655],[-107.53547,38.42688],[-107.53577,38.42724],[-107.5362,38.42775],[-107.53675,38.42839],[-107.53708,38.42879],[-107.5372,38.42893],[-107.53729,38.42903],[-107.5374,38.42915],[-107.53751,38.42927],[-107.53764,38.42941],[-107.53778,38.42955],[-107.53787,38.42964],[-107.53795,38.42973],[-107.53803,38.42981],[-107.53815,38.42992],[-107.53825,38.43002],[-107.53864,38.43038],[-107.53896,38.43065],[-107.53923,38.43089],[-107.53946,38.43109],[-107.5396,38.43121],[-107.53961,38.43122],[-107.53998,38.43155],[-107.54046,38.43196],[-107.54085,38.43228],[-107.541,38.43241],[-107.54116,38.43255],[-107.54125,38.43262],[-107.54163,38.43294],[-107.54182,38.43309],[-107.54211,38.43333],[-107.54366,38.43457],[-107.54414,38.43496],[-107.54434,38.43513],[-107.54467,38.4354],[-107.54498,38.43564],[-107.54514,38.43577],[-107.54521,38.43582],[-107.54524,38.43585],[-107.54556,38.43609],[-107.54573,38.43623],[-107.5458,38.43627],[-107.54584,38.4363],[-107.54599,38.4364],[-107.54615,38.43649],[-107.54632,38.43658],[-107.54643,38.43663],[-107.54662,38.43672],[-107.54683,38.4368],[-107.54695,38.43684],[-107.54704,38.43687],[-107.54712,38.43689],[-107.54727,38.43694],[-107.54739,38.43697],[-107.54743,38.43698],[-107.54752,38.437],[-107.54761,38.43702],[-107.54776,38.43706],[-107.54791,38.4371],[-107.54843,38.43724],[-107.54874,38.43733],[-107.54888,38.43737],[-107.54899,38.43741],[-107.54916,38.43748],[-107.54924,38.43751],[-107.54932,38.43754],[-107.54935,38.43755],[-107.5496,38.43765],[-107.54991,38.43779],[-107.55032,38.43798],[-107.55052,38.43807],[-107.55072,38.43816],[-107.55092,38.43825],[-107.55203,38.43875],[-107.55243,38.43894],[-107.55262,38.43903],[-107.55274,38.43909],[-107.55313,38.4393],[-107.55328,38.4394],[-107.55339,38.43946],[-107.55348,38.43953],[-107.55357,38.43958],[-107.55369,38.43967],[-107.55382,38.43978],[-107.55396,38.43989],[-107.55407,38.43999],[-107.5542,38.44011],[-107.55435,38.44025],[-107.55449,38.44039],[-107.55465,38.44056],[-107.55482,38.44075],[-107.55499,38.44095],[-107.55504,38.44102],[-107.55513,38.44113],[-107.55521,38.44123],[-107.5553,38.44134],[-107.55539,38.44144],[-107.55551,38.44155],[-107.55564,38.44168],[-107.55572,38.44175],[-107.5558,38.44182],[-107.55591,38.44192],[-107.55605,38.44202],[-107.55618,38.4421],[-107.55628,38.44217],[-107.55637,38.44223],[-107.55644,38.44227],[-107.55652,38.44231],[-107.55659,38.44235],[-107.55667,38.44239],[-107.55679,38.44245],[-107.55685,38.44247],[-107.55693,38.4425],[-107.55704,38.44255],[-107.55714,38.44258],[-107.55732,38.44263],[-107.5574,38.44266],[-107.55749,38.44268],[-107.5576,38.44271],[-107.55765,38.44272],[-107.55772,38.44273],[-107.55783,38.44275],[-107.55798,38.44277],[-107.55813,38.44279],[-107.55822,38.4428],[-107.5583,38.44281],[-107.55838,38.44281],[-107.55844,38.44281],[-107.55859,38.44282],[-107.55873,38.44281],[-107.55881,38.44281],[-107.55893,38.44281],[-107.55904,38.4428],[-107.5592,38.44278],[-107.55926,38.44278],[-107.55952,38.44276],[-107.55985,38.44272],[-107.55986,38.44272],[-107.56029,38.44268],[-107.5603,38.44268],[-107.56043,38.44266],[-107.56053,38.44265],[-107.56064,38.44264],[-107.56076,38.44263],[-107.56082,38.44262],[-107.56094,38.44261],[-107.56105,38.44259],[-107.56111,38.44258],[-107.56117,38.44257],[-107.56129,38.44254],[-107.56143,38.44251],[-107.5616,38.44247],[-107.56165,38.44246],[-107.56171,38.44244],[-107.56181,38.44241],[-107.56235,38.44226],[-107.56273,38.44215],[-107.56337,38.44196],[-107.56359,38.44189],[-107.56371,38.44186],[-107.56381,38.44183],[-107.56445,38.44164],[-107.56457,38.44161],[-107.56466,38.44158],[-107.56467,38.44158],[-107.56523,38.44142],[-107.56531,38.4414],[-107.56543,38.44137],[-107.56543,38.44136],[-107.56553,38.44134],[-107.5656,38.44132],[-107.56571,38.44129],[-107.56583,38.44126],[-107.56594,38.44124],[-107.56603,38.44121],[-107.56617,38.44119],[-107.56631,38.44116],[-107.56641,38.44114],[-107.56642,38.44114],[-107.56655,38.44111],[-107.56671,38.44108],[-107.56689,38.44105],[-107.56704,38.44102],[-107.56715,38.44101],[-107.56727,38.44099],[-107.56742,38.44097],[-107.56756,38.44095],[-107.5677,38.44093],[-107.56782,38.44092],[-107.56799,38.4409],[-107.56813,38.44089],[-107.56831,38.44088],[-107.56847,38.44087],[-107.56857,38.44086],[-107.5686,38.44086],[-107.56867,38.44085],[-107.56875,38.44085],[-107.5689,38.44084],[-107.56897,38.44084],[-107.56913,38.44083],[-107.5692,38.44083],[-107.56936,38.44082],[-107.56939,38.44082],[-107.56949,38.44082],[-107.56955,38.44082],[-107.56969,38.44082],[-107.56982,38.44082],[-107.56997,38.44083],[-107.57018,38.44083],[-107.57038,38.44084],[-107.57061,38.44085],[-107.57064,38.44085],[-107.57074,38.44086],[-107.57079,38.44086],[-107.57096,38.44087],[-107.57097,38.44088],[-107.57115,38.44089],[-107.57131,38.44091],[-107.57147,38.44092],[-107.57164,38.44094],[-107.57182,38.44096],[-107.572,38.44099],[-107.57213,38.44101],[-107.57255,38.44108],[-107.57268,38.4411],[-107.57277,38.44112],[-107.57323,38.44119],[-107.57345,38.44123],[-107.5738,38.44129],[-107.57435,38.44138],[-107.57457,38.44142],[-107.5747,38.44144],[-107.57502,38.4415],[-107.57525,38.44153],[-107.57555,38.44159],[-107.5757,38.44161],[-107.57614,38.44169],[-107.57674,38.44179],[-107.57697,38.44183],[-107.57719,38.44187],[-107.57764,38.44194],[-107.57854,38.4421],[-107.57876,38.44213],[-107.57889,38.44215],[-107.5799,38.44232],[-107.58008,38.44235],[-107.58016,38.44236],[-107.58029,38.44237],[-107.58038,38.44237],[-107.58049,38.44238],[-107.58064,38.44237],[-107.58079,38.44237],[-107.58095,38.44236],[-107.58106,38.44235],[-107.58115,38.44233],[-107.58125,38.44232],[-107.58136,38.4423],[-107.58148,38.44227],[-107.58157,38.44225],[-107.58167,38.44223],[-107.58171,38.44222],[-107.58177,38.4422],[-107.58191,38.44215],[-107.58192,38.44215],[-107.58203,38.44211],[-107.58213,38.44207],[-107.58216,38.44205],[-107.58224,38.44202],[-107.58237,38.44196],[-107.58251,38.44188],[-107.58264,38.4418],[-107.5827,38.44177],[-107.58277,38.44172],[-107.58286,38.44165],[-107.58287,38.44165],[-107.58296,38.44158],[-107.58306,38.44149],[-107.58316,38.4414],[-107.58329,38.44127],[-107.58345,38.44109],[-107.58346,38.44109],[-107.58362,38.44091],[-107.58385,38.44065],[-107.58411,38.44036],[-107.58412,38.44035],[-107.58437,38.44006],[-107.58501,38.43934],[-107.58513,38.43921],[-107.58524,38.4391],[-107.58535,38.439],[-107.58545,38.43891],[-107.58552,38.43886],[-107.5856,38.43879],[-107.58568,38.43874],[-107.58583,38.43864],[-107.58594,38.43858],[-107.58612,38.43848],[-107.58627,38.43841],[-107.58637,38.43837],[-107.58646,38.43834],[-107.58659,38.43829],[-107.5867,38.43826],[-107.5868,38.43823],[-107.58683,38.43822],[-107.58695,38.4382],[-107.58702,38.43818],[-107.58708,38.43817],[-107.58723,38.43814],[-107.58724,38.43814],[-107.58737,38.43812],[-107.58752,38.43811],[-107.58762,38.4381],[-107.58785,38.43809],[-107.58806,38.43808],[-107.58861,38.43806],[-107.58978,38.43801],[-107.59013,38.438],[-107.59096,38.43796],[-107.59138,38.43795],[-107.59157,38.43795],[-107.5917,38.43795],[-107.59181,38.43795],[-107.59198,38.43796],[-107.5921,38.43797],[-107.59223,38.43797],[-107.59235,38.43799],[-107.59246,38.438],[-107.59259,38.43801],[-107.59271,38.43803],[-107.59284,38.43805],[-107.59287,38.43806],[-107.59298,38.43808],[-107.59309,38.4381],[-107.59313,38.43811],[-107.59325,38.43814],[-107.59334,38.43816],[-107.59342,38.43818],[-107.59352,38.4382],[-107.59361,38.43823],[-107.5948,38.43863],[-107.59501,38.4387],[-107.59535,38.43881],[-107.59565,38.43891],[-107.59586,38.43898],[-107.59649,38.43919],[-107.5967,38.43926],[-107.5974,38.4395],[-107.59899,38.44004],[-107.59902,38.44005],[-107.59923,38.44012],[-107.59944,38.44019],[-107.59986,38.44033],[-107.60007,38.4404],[-107.60028,38.44048],[-107.6005,38.44055],[-107.60067,38.4406],[-107.6009,38.44068],[-107.60132,38.44082],[-107.60153,38.44089],[-107.60191,38.44101],[-107.60196,38.44103],[-107.60216,38.44109],[-107.60237,38.44115],[-107.60257,38.44121],[-107.6026,38.44122],[-107.60277,38.44126],[-107.60278,38.44126],[-107.60282,38.44127],[-107.60307,38.44133],[-107.60336,38.44141],[-107.60358,38.44146],[-107.60387,38.44154],[-107.60392,38.44155],[-107.60397,38.44156],[-107.60447,38.44169],[-107.60493,38.4418],[-107.6063,38.44215],[-107.6065,38.4422],[-107.60654,38.44221],[-107.60676,38.44226],[-107.60753,38.44245],[-107.60831,38.44265],[-107.60895,38.4428],[-107.60896,38.4428],[-107.60952,38.44294],[-107.60956,38.44295],[-107.60983,38.44302],[-107.61004,38.44307],[-107.61037,38.44315],[-107.61048,38.44318],[-107.61088,38.44328],[-107.61092,38.44329],[-107.61128,38.44338],[-107.61136,38.4434],[-107.61175,38.44349],[-107.61183,38.44351],[-107.61192,38.44352],[-107.61206,38.44354],[-107.61217,38.44356],[-107.61218,38.44356],[-107.61227,38.44357],[-107.61236,38.44357],[-107.61249,38.44358],[-107.61263,38.44358],[-107.61264,38.44358],[-107.6128,38.44358],[-107.61294,38.44357],[-107.61309,38.44356],[-107.6131,38.44356],[-107.61323,38.44354],[-107.61337,38.44352],[-107.61348,38.44349],[-107.61358,38.44347],[-107.61369,38.44345],[-107.61379,38.44342],[-107.61392,38.44339],[-107.614,38.44336],[-107.61408,38.44333],[-107.61417,38.4433],[-107.6143,38.44325],[-107.61445,38.44317],[-107.61477,38.44303],[-107.61479,38.44302],[-107.61507,38.4429],[-107.61556,38.44268],[-107.6157,38.44263],[-107.61583,38.44259],[-107.61596,38.44256],[-107.61602,38.44255],[-107.61615,38.44253],[-107.61634,38.4425],[-107.61659,38.44248],[-107.61682,38.44247],[-107.617,38.44249],[-107.61713,38.4425],[-107.61728,38.44252],[-107.6174,38.44254],[-107.61754,38.44258],[-107.61768,38.44261],[-107.61779,38.44265],[-107.61793,38.4427],[-107.61805,38.44275],[-107.61815,38.44279],[-107.61825,38.44285],[-107.61836,38.44291],[-107.6184,38.44293],[-107.61845,38.44296],[-107.61853,38.44301],[-107.61859,38.44306],[-107.61867,38.44313],[-107.61876,38.4432],[-107.61883,38.44327],[-107.6189,38.44335],[-107.61896,38.44341],[-107.61901,38.44347],[-107.61902,38.44349],[-107.61909,38.44359],[-107.61912,38.44363],[-107.61916,38.44369],[-107.6192,38.44378],[-107.61924,38.44387],[-107.61928,38.44394],[-107.61929,38.44396],[-107.6193,38.44401],[-107.61933,38.44409],[-107.61935,38.44414],[-107.61935,38.44416],[-107.61937,38.44423],[-107.61938,38.44429],[-107.6194,38.44436],[-107.61948,38.44482],[-107.61952,38.44503],[-107.61955,38.44518],[-107.61957,38.44528],[-107.61959,38.44534],[-107.61962,38.44542],[-107.61964,38.44546],[-107.61965,38.44548],[-107.61969,38.44557],[-107.61972,38.44563],[-107.61972,38.44564],[-107.61976,38.44571],[-107.61981,38.44579],[-107.61981,38.4458],[-107.61986,38.44587],[-107.61996,38.44601],[-107.62005,38.44611],[-107.62014,38.44619],[-107.62026,38.44629],[-107.62037,38.44638],[-107.62048,38.44645],[-107.62059,38.44652],[-107.62073,38.44659],[-107.62081,38.44663],[-107.62094,38.44669],[-107.62103,38.44673],[-107.62112,38.44675],[-107.62122,38.44678],[-107.62131,38.44681],[-107.62142,38.44683],[-107.62154,38.44686],[-107.62165,38.44688],[-107.62174,38.44689],[-107.62184,38.4469],[-107.62193,38.4469],[-107.62207,38.44691],[-107.62222,38.44691],[-107.62237,38.4469],[-107.62254,38.44688],[-107.62271,38.44686],[-107.62275,38.44686],[-107.62286,38.44684],[-107.62293,38.44682],[-107.62301,38.4468],[-107.62311,38.44677],[-107.62325,38.44673],[-107.62339,38.44668],[-107.62354,38.44661],[-107.62363,38.44657],[-107.62371,38.44653],[-107.62394,38.4464],[-107.62466,38.44596],[-107.62484,38.44584],[-107.62511,38.44568],[-107.62538,38.44551],[-107.62566,38.44534],[-107.62574,38.44529],[-107.62592,38.44517],[-107.62646,38.44484],[-107.62664,38.44472],[-107.6268,38.44462],[-107.62694,38.44454],[-107.62711,38.44445],[-107.62735,38.44431],[-107.62747,38.44425],[-107.62761,38.44417],[-107.62776,38.4441],[-107.62781,38.44408],[-107.62796,38.44402],[-107.62807,38.44397],[-107.62832,38.44387],[-107.62851,38.4438],[-107.62867,38.44375],[-107.6288,38.4437],[-107.629,38.44364],[-107.62926,38.44357],[-107.63038,38.44326],[-107.63117,38.44304],[-107.63189,38.44284],[-107.63296,38.44255],[-107.63365,38.44238],[-107.63378,38.44236],[-107.63391,38.44233],[-107.63404,38.44231],[-107.63416,38.4423],[-107.63428,38.44228],[-107.63441,38.44227],[-107.63453,38.44226],[-107.63467,38.44226],[-107.63478,38.44226],[-107.6349,38.44226],[-107.63492,38.44226],[-107.63502,38.44226],[-107.63515,38.44226],[-107.6353,38.44228],[-107.63538,38.44228],[-107.63543,38.44229],[-107.63557,38.44231],[-107.6357,38.44233],[-107.63599,38.44239],[-107.63614,38.44242],[-107.63627,38.44246],[-107.63642,38.4425],[-107.63659,38.44256],[-107.63676,38.44263],[-107.6369,38.4427],[-107.63704,38.44276],[-107.63718,38.44284],[-107.63731,38.44291],[-107.63742,38.44298],[-107.63754,38.44306],[-107.63782,38.44326],[-107.63796,38.44337],[-107.63812,38.44349],[-107.63861,38.44389],[-107.6387,38.44396],[-107.63925,38.4444],[-107.63967,38.44475],[-107.63997,38.445],[-107.64047,38.44542],[-107.64063,38.44557],[-107.64081,38.44572],[-107.64096,38.44585],[-107.64114,38.44601],[-107.64135,38.44619],[-107.64139,38.44623],[-107.64145,38.44627],[-107.64155,38.44635],[-107.64158,38.44637],[-107.6417,38.44645],[-107.64185,38.44654],[-107.64201,38.44663],[-107.64218,38.44672],[-107.64234,38.44679],[-107.64253,38.44686],[-107.64274,38.44694],[-107.64321,38.44708],[-107.64343,38.44714],[-107.64353,38.44717],[-107.64359,38.4472],[-107.64364,38.44722],[-107.64369,38.44724],[-107.64379,38.44728],[-107.6438,38.44729],[-107.64387,38.44732],[-107.64396,38.44737],[-107.64409,38.44745],[-107.64421,38.44755],[-107.64431,38.44763],[-107.64438,38.44769],[-107.64445,38.44775],[-107.64451,38.44782],[-107.64456,38.44787],[-107.6446,38.44792],[-107.64466,38.448],[-107.64474,38.44811],[-107.64484,38.44826],[-107.6449,38.44836],[-107.64493,38.44843],[-107.64509,38.44873],[-107.64511,38.44876],[-107.64517,38.44886],[-107.64524,38.44901],[-107.64529,38.4491],[-107.64537,38.4492],[-107.64538,38.44922],[-107.64542,38.44928],[-107.64549,38.44936],[-107.64554,38.44941],[-107.64566,38.44953],[-107.64572,38.4496],[-107.64578,38.44965],[-107.64587,38.44972],[-107.64598,38.4498],[-107.64611,38.44988],[-107.64623,38.44995],[-107.64634,38.45001],[-107.64651,38.45008],[-107.6467,38.45016],[-107.64687,38.45021],[-107.64694,38.45023],[-107.64703,38.45025],[-107.64717,38.45029],[-107.6473,38.45031],[-107.64749,38.45033],[-107.64767,38.45036],[-107.64831,38.45043],[-107.64943,38.45055],[-107.64969,38.45057],[-107.65034,38.45064],[-107.65125,38.45074],[-107.65153,38.45077],[-107.65177,38.4508],[-107.65189,38.45082],[-107.65202,38.45084],[-107.65215,38.45087],[-107.6523,38.45091],[-107.65245,38.45095],[-107.65257,38.451],[-107.65258,38.451],[-107.65267,38.45103],[-107.6528,38.45109],[-107.65292,38.45115],[-107.65301,38.4512],[-107.65313,38.45126],[-107.65326,38.45134],[-107.65351,38.45149],[-107.65353,38.45151],[-107.65378,38.45167],[-107.65394,38.45177],[-107.65404,38.45183],[-107.65412,38.45187],[-107.6542,38.45191],[-107.65426,38.45193],[-107.65434,38.45197],[-107.65444,38.45201],[-107.6545,38.45203],[-107.65461,38.45207],[-107.65474,38.45211],[-107.65492,38.45215],[-107.65514,38.45219],[-107.65527,38.45221],[-107.65542,38.45222],[-107.65558,38.45223],[-107.65574,38.45223],[-107.6558,38.45223],[-107.65591,38.45223],[-107.65608,38.45221],[-107.65627,38.45218],[-107.65644,38.45215],[-107.65658,38.45212],[-107.65674,38.45208],[-107.65692,38.45203],[-107.65705,38.45199],[-107.65714,38.45197],[-107.65733,38.45191],[-107.65766,38.45181],[-107.65796,38.45173],[-107.65825,38.45166],[-107.65841,38.45163],[-107.65851,38.45161],[-107.6586,38.4516],[-107.65866,38.45159],[-107.65871,38.45158],[-107.65884,38.45157],[-107.65895,38.45157],[-107.65911,38.45157],[-107.65926,38.45157],[-107.65935,38.45158],[-107.65944,38.45159],[-107.65961,38.45161],[-107.65974,38.45163],[-107.6599,38.45166],[-107.66001,38.45169],[-107.66012,38.45172],[-107.66024,38.45176],[-107.66031,38.45179],[-107.66043,38.45184],[-107.66055,38.45189],[-107.66067,38.45196],[-107.66078,38.45202],[-107.6609,38.45209],[-107.66103,38.45219],[-107.66115,38.45228],[-107.66125,38.45237],[-107.66138,38.4525],[-107.66151,38.45263],[-107.66161,38.45274],[-107.66164,38.45278],[-107.66169,38.45284],[-107.66178,38.45296],[-107.6619,38.45311],[-107.66201,38.45326],[-107.66225,38.45359],[-107.66251,38.45393],[-107.66264,38.4541],[-107.66275,38.45427],[-107.66286,38.45442],[-107.66328,38.455],[-107.66341,38.45519],[-107.66353,38.45536],[-107.66358,38.45542],[-107.66364,38.45549],[-107.66369,38.45555],[-107.66375,38.45561],[-107.66385,38.45572],[-107.66393,38.4558],[-107.66401,38.45587],[-107.66415,38.456],[-107.66427,38.45611],[-107.66436,38.45619],[-107.66443,38.45624],[-107.66465,38.45641],[-107.66477,38.45651],[-107.66489,38.45659],[-107.66501,38.45667],[-107.66508,38.45672],[-107.66517,38.45677],[-107.66523,38.45681],[-107.66529,38.45684],[-107.66542,38.45691],[-107.66552,38.45697],[-107.66567,38.45704],[-107.66578,38.45709],[-107.66595,38.45718],[-107.666,38.4572],[-107.66609,38.45724],[-107.66618,38.45729],[-107.66651,38.45745],[-107.66683,38.45761],[-107.66729,38.45784],[-107.66758,38.45798],[-107.66788,38.45812],[-107.66835,38.45835],[-107.66849,38.45842],[-107.66853,38.45844],[-107.66858,38.45847],[-107.66868,38.45851],[-107.66881,38.45857],[-107.66901,38.45866],[-107.66913,38.45871],[-107.66929,38.45878],[-107.66934,38.45879],[-107.66943,38.45882],[-107.66944,38.45883],[-107.66955,38.45885],[-107.6696,38.45886],[-107.66976,38.45889],[-107.66978,38.4589],[-107.66991,38.45891],[-107.67006,38.45893],[-107.67025,38.45894],[-107.67046,38.45894],[-107.67066,38.45893],[-107.67081,38.45891],[-107.67102,38.45888],[-107.67114,38.45886],[-107.67128,38.45883],[-107.67155,38.45877],[-107.67181,38.45872],[-107.67204,38.45867],[-107.67212,38.45865],[-107.67244,38.45857],[-107.67247,38.45857],[-107.67262,38.45853],[-107.67276,38.4585],[-107.67278,38.45849],[-107.67292,38.45846],[-107.6731,38.45842],[-107.67313,38.45842],[-107.67325,38.45839],[-107.67339,38.45836],[-107.67345,38.45835],[-107.67351,38.45834],[-107.67368,38.45832],[-107.6738,38.45831],[-107.67381,38.45831],[-107.67398,38.4583],[-107.67413,38.45829],[-107.67429,38.45829],[-107.67441,38.45829],[-107.67457,38.45829],[-107.67474,38.4583],[-107.67494,38.45833],[-107.67513,38.45836],[-107.67532,38.45839],[-107.67544,38.45842],[-107.67554,38.45845],[-107.67564,38.45848],[-107.67574,38.4585],[-107.67589,38.45855],[-107.67602,38.4586],[-107.67613,38.45864],[-107.6763,38.45871],[-107.67646,38.45879],[-107.67659,38.45886],[-107.6767,38.45893],[-107.67671,38.45893],[-107.67681,38.459],[-107.677,38.45912],[-107.67737,38.45935],[-107.67761,38.4595],[-107.67778,38.4596],[-107.67817,38.45983],[-107.67887,38.4602],[-107.67906,38.4603],[-107.68001,38.46077],[-107.68119,38.46136],[-107.68169,38.46161],[-107.68188,38.4617],[-107.682,38.46176],[-107.68217,38.46182],[-107.68228,38.46186],[-107.68241,38.4619],[-107.68252,38.46192],[-107.68266,38.46196],[-107.68277,38.46198],[-107.68295,38.46201],[-107.68314,38.46204],[-107.68334,38.46207],[-107.68337,38.46207],[-107.68361,38.4621],[-107.68388,38.46213],[-107.68423,38.46218],[-107.6844,38.4622],[-107.68453,38.46223],[-107.68466,38.46226],[-107.68469,38.46227],[-107.68476,38.46229],[-107.6849,38.46234],[-107.68512,38.46243],[-107.68545,38.46259],[-107.68569,38.46271],[-107.68588,38.46281],[-107.68687,38.46331],[-107.68742,38.46359],[-107.68775,38.46376],[-107.68818,38.46396],[-107.68848,38.46411],[-107.68879,38.46429],[-107.6891,38.46449],[-107.68913,38.4645],[-107.68929,38.46463],[-107.68932,38.46466],[-107.6896,38.46489],[-107.69044,38.46574],[-107.69088,38.46618],[-107.69095,38.46625],[-107.69101,38.46631],[-107.69112,38.4664],[-107.69121,38.46648],[-107.69131,38.46657],[-107.69142,38.46666],[-107.69156,38.46677],[-107.69166,38.46684],[-107.69176,38.46691],[-107.69181,38.46695],[-107.69192,38.46702],[-107.6921,38.46713],[-107.69232,38.46726],[-107.69246,38.46734],[-107.69273,38.46748],[-107.69312,38.46767],[-107.69331,38.46777],[-107.69369,38.46797],[-107.69389,38.46806],[-107.69427,38.46826],[-107.69447,38.46836],[-107.69468,38.46846],[-107.69714,38.46971],[-107.69757,38.46993],[-107.6976,38.46994],[-107.69776,38.47003],[-107.69783,38.47006],[-107.69796,38.47013],[-107.69818,38.47024],[-107.69848,38.47041],[-107.69922,38.47084],[-107.69941,38.47094],[-107.6998,38.47117],[-107.69996,38.47126],[-107.70052,38.47158],[-107.70113,38.47193],[-107.70191,38.47237],[-107.70278,38.47287],[-107.70483,38.47403],[-107.7052,38.47424],[-107.70617,38.4748],[-107.7071,38.47533],[-107.70824,38.47597],[-107.70994,38.47693],[-107.7107,38.47736],[-107.71149,38.47781],[-107.71261,38.47844],[-107.71279,38.47855],[-107.71353,38.47896],[-107.71419,38.47934],[-107.71507,38.47984],[-107.71637,38.48058],[-107.71754,38.48124],[-107.71884,38.48197],[-107.71961,38.48241],[-107.72066,38.48301],[-107.72122,38.48332],[-107.72178,38.48364],[-107.72215,38.48385],[-107.72382,38.48479],[-107.72461,38.48523],[-107.72572,38.48586],[-107.72576,38.48589],[-107.72591,38.48597],[-107.72651,38.48632],[-107.72701,38.4866],[-107.72739,38.4868],[-107.72778,38.48702],[-107.72806,38.48716],[-107.72838,38.48731],[-107.72856,38.48739],[-107.72862,38.48742],[-107.72876,38.48748],[-107.72889,38.48753],[-107.72915,38.48763],[-107.72917,38.48764],[-107.72935,38.4877],[-107.72938,38.48772],[-107.72953,38.48777],[-107.72982,38.48787],[-107.73017,38.48798],[-107.73044,38.48806],[-107.73051,38.48808],[-107.73067,38.48813],[-107.731,38.48821],[-107.73122,38.48827],[-107.73153,38.48834],[-107.73175,38.48839],[-107.73188,38.48841],[-107.73204,38.48844],[-107.73242,38.4885],[-107.73277,38.48856],[-107.73317,38.4886],[-107.73355,38.48864],[-107.73395,38.48867],[-107.73438,38.48869],[-107.73471,38.4887],[-107.73501,38.48871],[-107.73512,38.48871],[-107.7353,38.4887],[-107.73556,38.48869],[-107.73563,38.48869],[-107.73579,38.48868],[-107.73608,38.48867],[-107.73625,38.48866],[-107.73693,38.48862],[-107.73705,38.48864],[-107.73707,38.48863],[-107.73779,38.48861],[-107.73839,38.4886],[-107.73922,38.48856],[-107.74058,38.48849],[-107.74058,38.48849],[-107.74055,38.48857],[-107.74054,38.48859],[-107.74053,38.48862],[-107.74046,38.48876],[-107.74045,38.48877],[-107.74045,38.48878],[-107.74037,38.48892],[-107.74024,38.48916],[-107.74024,38.48917],[-107.74019,38.48926],[-107.73999,38.4896],[-107.73982,38.48991],[-107.73963,38.49026],[-107.73952,38.49046],[-107.73945,38.49057],[-107.73917,38.49107],[-107.73884,38.49166],[-107.73844,38.49238],[-107.73835,38.49255],[-107.7383,38.49262],[-107.73818,38.49287],[-107.73813,38.49303],[-107.7381,38.49314],[-107.73806,38.49344],[-107.73805,38.49366],[-107.73804,38.49395],[-107.73803,38.49431],[-107.73803,38.49444],[-107.73803,38.49449],[-107.73802,38.49467],[-107.73802,38.4947],[-107.73802,38.49485],[-107.73802,38.49503],[-107.73802,38.49506],[-107.73802,38.49521],[-107.73802,38.49536],[-107.73805,38.49575],[-107.73808,38.49611],[-107.7381,38.49636],[-107.73811,38.49647],[-107.73811,38.49649],[-107.73813,38.49665],[-107.73815,38.49678],[-107.73818,38.49711],[-107.73818,38.49724],[-107.73818,38.49738],[-107.73817,38.4975],[-107.73815,38.49757],[-107.73812,38.49773],[-107.73802,38.4981],[-107.73792,38.49844],[-107.73791,38.49856],[-107.73791,38.49863],[-107.73791,38.49878],[-107.73791,38.49881],[-107.738,38.4997],[-107.73801,38.49988],[-107.73804,38.50023],[-107.73804,38.50036],[-107.73798,38.50051],[-107.73794,38.50059],[-107.7379,38.50065],[-107.73778,38.50081],[-107.73769,38.50089],[-107.73762,38.50094],[-107.73748,38.50101],[-107.73735,38.50105],[-107.73706,38.50108],[-107.73684,38.50111],[-107.7366,38.50114],[-107.73625,38.50117],[-107.73579,38.50121],[-107.73577,38.50121],[-107.73474,38.5013],[-107.73442,38.50131],[-107.73371,38.50133],[-107.7335,38.50133],[-107.73327,38.50134],[-107.73304,38.50134],[-107.73302,38.50134],[-107.73281,38.50135],[-107.73267,38.50135],[-107.73257,38.50137],[-107.73236,38.50141],[-107.73192,38.50151],[-107.73169,38.50156],[-107.73155,38.50157],[-107.73137,38.50158],[-107.73124,38.50156],[-107.73122,38.50156],[-107.73104,38.50154],[-107.73056,38.50149],[-107.73054,38.50149],[-107.73043,38.50148],[-107.7301,38.50145],[-107.73003,38.50144],[-107.72986,38.50145],[-107.72973,38.50147],[-107.72961,38.50153],[-107.72951,38.50158],[-107.72946,38.50162],[-107.7294,38.50168],[-107.72933,38.50175],[-107.72928,38.50183],[-107.72924,38.50191],[-107.72922,38.50196],[-107.7292,38.50209],[-107.72926,38.50231],[-107.72929,38.50238],[-107.72932,38.50244],[-107.72939,38.50254],[-107.72942,38.50261],[-107.72965,38.50304],[-107.72978,38.50329],[-107.72977,38.50338],[-107.72977,38.50382],[-107.72976,38.50392],[-107.72976,38.504],[-107.72976,38.5041],[-107.72976,38.50436],[-107.72975,38.50454],[-107.72975,38.50472],[-107.72975,38.50508],[-107.72975,38.50526],[-107.72975,38.50529],[-107.72975,38.50544],[-107.72976,38.50754],[-107.72976,38.50799],[-107.72976,38.50817],[-107.72976,38.50826],[-107.72978,38.50916],[-107.72979,38.50934],[-107.72979,38.50949],[-107.72978,38.50951],[-107.72972,38.50969],[-107.72971,38.50972],[-107.72964,38.50986],[-107.7296,38.50994],[-107.72941,38.51016],[-107.72933,38.51026],[-107.72905,38.51048],[-107.72878,38.51061],[-107.72854,38.51074],[-107.72811,38.51095],[-107.72767,38.51116],[-107.72728,38.51135],[-107.72709,38.51144],[-107.72689,38.51154],[-107.72611,38.51192],[-107.72576,38.51209],[-107.72562,38.51213],[-107.72529,38.5122],[-107.72491,38.51231],[-107.72468,38.5124],[-107.72464,38.51242],[-107.72445,38.51251],[-107.72443,38.51251],[-107.72425,38.51264],[-107.72405,38.51279],[-107.72371,38.51309],[-107.72267,38.51408],[-107.72221,38.51456],[-107.72208,38.5147],[-107.7218,38.51499],[-107.72171,38.51508],[-107.72146,38.51546],[-107.72108,38.51601],[-107.72091,38.51624],[-107.72079,38.5164],[-107.72076,38.51645],[-107.72067,38.51656],[-107.72044,38.51687],[-107.72039,38.51693],[-107.72034,38.51703],[-107.72019,38.51733],[-107.72011,38.51754],[-107.72009,38.51771],[-107.72006,38.51787],[-107.72006,38.51789],[-107.72007,38.51809],[-107.72009,38.51825],[-107.72009,38.51827],[-107.72013,38.51843],[-107.72014,38.51846],[-107.72024,38.51878],[-107.72029,38.51894],[-107.72033,38.5191],[-107.72033,38.51913],[-107.72035,38.51932],[-107.72033,38.52003],[-107.72033,38.52009],[-107.72032,38.52039],[-107.7203,38.52078],[-107.72031,38.52105],[-107.72035,38.52128],[-107.72041,38.52143],[-107.72051,38.52163],[-107.72064,38.52185],[-107.7207,38.52195],[-107.72081,38.52211],[-107.72088,38.5222],[-107.72091,38.52227],[-107.72098,38.52239],[-107.72105,38.52256],[-107.72107,38.52261],[-107.72112,38.52274],[-107.72116,38.52298],[-107.72115,38.52326],[-107.72115,38.52332],[-107.72109,38.5244],[-107.72107,38.52475],[-107.72107,38.52486],[-107.72106,38.52493],[-107.72103,38.52526],[-107.72102,38.52529],[-107.72098,38.52558],[-107.72075,38.52643],[-107.72037,38.52728],[-107.72017,38.52773],[-107.7193,38.52886],[-107.71918,38.52902],[-107.7188,38.52952],[-107.71841,38.52991],[-107.71805,38.53028],[-107.71767,38.5306],[-107.71751,38.53072],[-107.71735,38.53085],[-107.71704,38.5311],[-107.71658,38.53146],[-107.71598,38.53175],[-107.71577,38.53182],[-107.71531,38.53178],[-107.71508,38.53176],[-107.71498,38.53175],[-107.71485,38.53175],[-107.71439,38.53176],[-107.71431,38.53176],[-107.71418,38.53182],[-107.71397,38.53191],[-107.71388,38.53206],[-107.71378,38.53223],[-107.71375,38.5325],[-107.71379,38.53258],[-107.71383,38.53268],[-107.7139,38.53273],[-107.71405,38.53287],[-107.71414,38.53294],[-107.71446,38.53302],[-107.71468,38.53299],[-107.71496,38.53295],[-107.71512,38.53289],[-107.71552,38.53275],[-107.71594,38.53275],[-107.71633,38.53285],[-107.71667,38.53318],[-107.71677,38.53327],[-107.71677,38.53333],[-107.7168,38.53369],[-107.7168,38.53377],[-107.7168,38.53378],[-107.71677,38.53386],[-107.7167,38.53403],[-107.71666,38.53412],[-107.71665,38.53415],[-107.71633,38.53448],[-107.7162,38.53462],[-107.71597,38.53469],[-107.71586,38.53472],[-107.71554,38.5348],[-107.71543,38.53484],[-107.71532,38.53486],[-107.71489,38.53498],[-107.71477,38.53502],[-107.71444,38.53508],[-107.71433,38.5351],[-107.71422,38.53512],[-107.71377,38.53521],[-107.71355,38.53525],[-107.71344,38.53527],[-107.71333,38.53529],[-107.71299,38.53535],[-107.71287,38.53538],[-107.71184,38.53541],[-107.71165,38.53541],[-107.71127,38.53542],[-107.71058,38.53542],[-107.70994,38.53562],[-107.70983,38.53565],[-107.70887,38.53594],[-107.70833,38.53611],[-107.70718,38.53651],[-107.70627,38.53703],[-107.70596,38.53719],[-107.70589,38.53724],[-107.70572,38.5373],[-107.70488,38.53762],[-107.70476,38.53768],[-107.70474,38.53768],[-107.70397,38.53795],[-107.70381,38.53802],[-107.7033,38.53825],[-107.70327,38.53827],[-107.70316,38.53832],[-107.70286,38.53854],[-107.70278,38.5386],[-107.70271,38.53865],[-107.7027,38.53866],[-107.7026,38.53873],[-107.70254,38.53879],[-107.7024,38.53893],[-107.70232,38.539],[-107.70231,38.53902],[-107.70227,38.53908],[-107.70221,38.53916],[-107.70216,38.53924],[-107.70205,38.5394],[-107.70204,38.53941],[-107.70199,38.53948],[-107.70194,38.53955],[-107.70188,38.53964],[-107.70183,38.53971],[-107.70179,38.53977],[-107.70177,38.53979],[-107.7017,38.53986],[-107.70156,38.54],[-107.70148,38.54007],[-107.70135,38.54022],[-107.70128,38.54029],[-107.70119,38.54035],[-107.70105,38.54046],[-107.70105,38.54046],[-107.70059,38.5405],[-107.69991,38.54056],[-107.69945,38.5406],[-107.69922,38.54063],[-107.69854,38.54069],[-107.69831,38.54071],[-107.69808,38.54073],[-107.69785,38.54075],[-107.69762,38.54077],[-107.69694,38.54083],[-107.69671,38.54085],[-107.69648,38.54087],[-107.69625,38.54089],[-107.69557,38.54096],[-107.69534,38.54098],[-107.69511,38.541],[-107.69488,38.54102],[-107.69465,38.54104],[-107.69443,38.54106],[-107.69324,38.54117],[-107.6929,38.54106],[-107.69246,38.54087],[-107.69231,38.54078],[-107.69213,38.54067],[-107.69195,38.54056],[-107.69176,38.54045],[-107.69158,38.54034],[-107.69147,38.54027],[-107.69105,38.54015],[-107.69095,38.54016],[-107.69077,38.54016],[-107.69072,38.54017],[-107.69057,38.54019],[-107.6904,38.54025],[-107.69025,38.54033],[-107.69012,38.54042],[-107.69003,38.54052],[-107.68999,38.54056],[-107.68997,38.54059],[-107.68991,38.54069],[-107.6899,38.54073],[-107.68985,38.54083],[-107.68982,38.54096],[-107.68982,38.54096],[-107.68951,38.54097],[-107.68936,38.54099],[-107.68927,38.541],[-107.68908,38.54105],[-107.68895,38.5411],[-107.68893,38.5411],[-107.6889,38.54112],[-107.68875,38.54121],[-107.68873,38.54122],[-107.68861,38.54132],[-107.6885,38.54143],[-107.68842,38.54154],[-107.68836,38.54165],[-107.68831,38.54176],[-107.6883,38.54182],[-107.68828,38.5419],[-107.68828,38.54206],[-107.68833,38.54229],[-107.68833,38.5423],[-107.68858,38.54298],[-107.68864,38.54316],[-107.6887,38.54333],[-107.68875,38.5435],[-107.68878,38.54367],[-107.68879,38.54371],[-107.68881,38.54406],[-107.68881,38.54406],[-107.689,38.54404],[-107.689,38.54404],[-107.68903,38.54387],[-107.68906,38.54379],[-107.6891,38.54373],[-107.68914,38.5437],[-107.68917,38.54368],[-107.68926,38.54365],[-107.68935,38.54364],[-107.68938,38.54363],[-107.68958,38.54364]]}}]}