{"type":"FeatureCollection","features":[{"type":"Feature","properties":{"_gpxType":"trk","name":"South Rim Campground, South Rim Road, Montrose, CO - Red Arrow Inn & Suites - Pet Friendly Hotel - Montrose Colorado, East Main Street, Montrose, CO","coordinateProperties":{},"id":67},"geometry":{"type":"LineString","coordinates":[[-107.68958,38.54364],[-107.68938,38.54363],[-107.68935,38.54364],[-107.68926,38.54365],[-107.68917,38.54368],[-107.68914,38.5437],[-107.6891,38.54373],[-107.68906,38.54379],[-107.68903,38.54387],[-107.689,38.54404],[-107.689,38.54404],[-107.68881,38.54406],[-107.68881,38.54406],[-107.68879,38.54371],[-107.68878,38.54367],[-107.68875,38.5435],[-107.6887,38.54333],[-107.68864,38.54316],[-107.68858,38.54298],[-107.68833,38.5423],[-107.68833,38.54229],[-107.68828,38.54206],[-107.68828,38.5419],[-107.6883,38.54182],[-107.68831,38.54176],[-107.68836,38.54165],[-107.68842,38.54154],[-107.6885,38.54143],[-107.68861,38.54132],[-107.68873,38.54122],[-107.68875,38.54121],[-107.6889,38.54112],[-107.68893,38.5411],[-107.68895,38.5411],[-107.68908,38.54105],[-107.68927,38.541],[-107.68936,38.54099],[-107.68951,38.54097],[-107.68982,38.54096],[-107.68982,38.54096],[-107.68985,38.54083],[-107.6899,38.54073],[-107.68991,38.54069],[-107.68997,38.54059],[-107.68999,38.54056],[-107.69003,38.54052],[-107.69012,38.54042],[-107.69025,38.54033],[-107.6904,38.54025],[-107.69057,38.54019],[-107.69072,38.54017],[-107.69077,38.54016],[-107.69095,38.54016],[-107.69105,38.54015],[-107.69147,38.54027],[-107.69158,38.54034],[-107.69176,38.54045],[-107.69195,38.54056],[-107.69213,38.54067],[-107.69231,38.54078],[-107.69246,38.54087],[-107.6929,38.54106],[-107.69324,38.54117],[-107.69443,38.54106],[-107.69465,38.54104],[-107.69488,38.54102],[-107.69511,38.541],[-107.69534,38.54098],[-107.69557,38.54096],[-107.69625,38.54089],[-107.69648,38.54087],[-107.69671,38.54085],[-107.69694,38.54083],[-107.69762,38.54077],[-107.69785,38.54075],[-107.69808,38.54073],[-107.69831,38.54071],[-107.69854,38.54069],[-107.69922,38.54063],[-107.69945,38.5406],[-107.69991,38.54056],[-107.70059,38.5405],[-107.70105,38.54046],[-107.70105,38.54046],[-107.70119,38.54035],[-107.70128,38.54029],[-107.70135,38.54022],[-107.70148,38.54007],[-107.70156,38.54],[-107.7017,38.53986],[-107.70177,38.53979],[-107.70179,38.53977],[-107.70183,38.53971],[-107.70188,38.53964],[-107.70194,38.53955],[-107.70199,38.53948],[-107.70204,38.53941],[-107.70205,38.5394],[-107.70216,38.53924],[-107.70221,38.53916],[-107.70227,38.53908],[-107.70231,38.53902],[-107.70232,38.539],[-107.7024,38.53893],[-107.70254,38.53879],[-107.7026,38.53873],[-107.7027,38.53866],[-107.70271,38.53865],[-107.70278,38.5386],[-107.70286,38.53854],[-107.70316,38.53832],[-107.70327,38.53827],[-107.7033,38.53825],[-107.70381,38.53802],[-107.70397,38.53795],[-107.70474,38.53768],[-107.70476,38.53768],[-107.70488,38.53762],[-107.70572,38.5373],[-107.70589,38.53724],[-107.70596,38.53719],[-107.70627,38.53703],[-107.70718,38.53651],[-107.70833,38.53611],[-107.70887,38.53594],[-107.70983,38.53565],[-107.70994,38.53562],[-107.71058,38.53542],[-107.71127,38.53542],[-107.71165,38.53541],[-107.71184,38.53541],[-107.71287,38.53538],[-107.71299,38.53535],[-107.71333,38.53529],[-107.71344,38.53527],[-107.71355,38.53525],[-107.71377,38.53521],[-107.71422,38.53512],[-107.71433,38.5351],[-107.71444,38.53508],[-107.71477,38.53502],[-107.71489,38.53498],[-107.71532,38.53486],[-107.71543,38.53484],[-107.71554,38.5348],[-107.71586,38.53472],[-107.71597,38.53469],[-107.7162,38.53462],[-107.71633,38.53448],[-107.71665,38.53415],[-107.71666,38.53412],[-107.7167,38.53403],[-107.71677,38.53386],[-107.7168,38.53378],[-107.7168,38.53377],[-107.7168,38.53369],[-107.71677,38.53333],[-107.71677,38.53327],[-107.71667,38.53318],[-107.71633,38.53285],[-107.71594,38.53275],[-107.71552,38.53275],[-107.71512,38.53289],[-107.71496,38.53295],[-107.71468,38.53299],[-107.71446,38.53302],[-107.71414,38.53294],[-107.71405,38.53287],[-107.7139,38.53273],[-107.71383,38.53268],[-107.71379,38.53258],[-107.71375,38.5325],[-107.71378,38.53223],[-107.71388,38.53206],[-107.71397,38.53191],[-107.71418,38.53182],[-107.71431,38.53176],[-107.71439,38.53176],[-107.71485,38.53175],[-107.71498,38.53175],[-107.71508,38.53176],[-107.71531,38.53178],[-107.71577,38.53182],[-107.71598,38.53175],[-107.71658,38.53146],[-107.71704,38.5311],[-107.71735,38.53085],[-107.71751,38.53072],[-107.71767,38.5306],[-107.71805,38.53028],[-107.71841,38.52991],[-107.7188,38.52952],[-107.71918,38.52902],[-107.7193,38.52886],[-107.72017,38.52773],[-107.72037,38.52728],[-107.72075,38.52643],[-107.72098,38.52558],[-107.72102,38.52529],[-107.72103,38.52526],[-107.72106,38.52493],[-107.72107,38.52486],[-107.72107,38.52475],[-107.72109,38.5244],[-107.72115,38.52332],[-107.72115,38.52326],[-107.72116,38.52298],[-107.72112,38.52274],[-107.72107,38.52261],[-107.72105,38.52256],[-107.72098,38.52239],[-107.72091,38.52227],[-107.72088,38.5222],[-107.72081,38.52211],[-107.7207,38.52195],[-107.72064,38.52185],[-107.72051,38.52163],[-107.72041,38.52143],[-107.72035,38.52128],[-107.72031,38.52105],[-107.7203,38.52078],[-107.72032,38.52039],[-107.72033,38.52009],[-107.72033,38.52003],[-107.72035,38.51932],[-107.72033,38.51913],[-107.72033,38.5191],[-107.72029,38.51894],[-107.72024,38.51878],[-107.72014,38.51846],[-107.72013,38.51843],[-107.72009,38.51827],[-107.72009,38.51825],[-107.72007,38.51809],[-107.72006,38.51789],[-107.72006,38.51787],[-107.72009,38.51771],[-107.72011,38.51754],[-107.72019,38.51733],[-107.72034,38.51703],[-107.72039,38.51693],[-107.72044,38.51687],[-107.72067,38.51656],[-107.72076,38.51645],[-107.72079,38.5164],[-107.72091,38.51624],[-107.72108,38.51601],[-107.72146,38.51546],[-107.72171,38.51508],[-107.7218,38.51499],[-107.72208,38.5147],[-107.72221,38.51456],[-107.72267,38.51408],[-107.72371,38.51309],[-107.72405,38.51279],[-107.72425,38.51264],[-107.72443,38.51251],[-107.72445,38.51251],[-107.72464,38.51242],[-107.72468,38.5124],[-107.72491,38.51231],[-107.72529,38.5122],[-107.72562,38.51213],[-107.72576,38.51209],[-107.72611,38.51192],[-107.72689,38.51154],[-107.72709,38.51144],[-107.72728,38.51135],[-107.72767,38.51116],[-107.72811,38.51095],[-107.72854,38.51074],[-107.72878,38.51061],[-107.72905,38.51048],[-107.72933,38.51026],[-107.72941,38.51016],[-107.7296,38.50994],[-107.72964,38.50986],[-107.72971,38.50972],[-107.72972,38.50969],[-107.72978,38.50951],[-107.72979,38.50949],[-107.72979,38.50934],[-107.72978,38.50916],[-107.72976,38.50826],[-107.72976,38.50817],[-107.72976,38.50799],[-107.72976,38.50754],[-107.72975,38.50544],[-107.72975,38.50529],[-107.72975,38.50526],[-107.72975,38.50508],[-107.72975,38.50472],[-107.72975,38.50454],[-107.72976,38.50436],[-107.72976,38.5041],[-107.72976,38.504],[-107.72976,38.50392],[-107.72977,38.50382],[-107.72977,38.50338],[-107.72978,38.50329],[-107.72965,38.50304],[-107.72942,38.50261],[-107.72939,38.50254],[-107.72932,38.50244],[-107.72929,38.50238],[-107.72926,38.50231],[-107.7292,38.50209],[-107.72922,38.50196],[-107.72924,38.50191],[-107.72928,38.50183],[-107.72933,38.50175],[-107.7294,38.50168],[-107.72946,38.50162],[-107.72951,38.50158],[-107.72961,38.50153],[-107.72973,38.50147],[-107.72986,38.50145],[-107.73003,38.50144],[-107.7301,38.50145],[-107.73043,38.50148],[-107.73054,38.50149],[-107.73056,38.50149],[-107.73104,38.50154],[-107.73122,38.50156],[-107.73124,38.50156],[-107.73137,38.50158],[-107.73155,38.50157],[-107.73169,38.50156],[-107.73192,38.50151],[-107.73236,38.50141],[-107.73257,38.50137],[-107.73267,38.50135],[-107.73281,38.50135],[-107.73302,38.50134],[-107.73304,38.50134],[-107.73327,38.50134],[-107.7335,38.50133],[-107.73371,38.50133],[-107.73442,38.50131],[-107.73474,38.5013],[-107.73577,38.50121],[-107.73579,38.50121],[-107.73625,38.50117],[-107.7366,38.50114],[-107.73684,38.50111],[-107.73706,38.50108],[-107.73735,38.50105],[-107.73748,38.50101],[-107.73762,38.50094],[-107.73769,38.50089],[-107.73778,38.50081],[-107.7379,38.50065],[-107.73794,38.50059],[-107.73798,38.50051],[-107.73804,38.50036],[-107.73804,38.50023],[-107.73801,38.49988],[-107.738,38.4997],[-107.73791,38.49881],[-107.73791,38.49878],[-107.73791,38.49863],[-107.73791,38.49856],[-107.73792,38.49844],[-107.73802,38.4981],[-107.73812,38.49773],[-107.73815,38.49757],[-107.73817,38.4975],[-107.73818,38.49738],[-107.73818,38.49724],[-107.73818,38.49711],[-107.73815,38.49678],[-107.73813,38.49665],[-107.73811,38.49649],[-107.73811,38.49647],[-107.7381,38.49636],[-107.73808,38.49611],[-107.73805,38.49575],[-107.73802,38.49536],[-107.73802,38.49521],[-107.73802,38.49506],[-107.73802,38.49503],[-107.73802,38.49485],[-107.73802,38.4947],[-107.73802,38.49467],[-107.73803,38.49449],[-107.73803,38.49444],[-107.73803,38.49431],[-107.73804,38.49395],[-107.73805,38.49366],[-107.73806,38.49344],[-107.7381,38.49314],[-107.73813,38.49303],[-107.73818,38.49287],[-107.7383,38.49262],[-107.73835,38.49255],[-107.73844,38.49238],[-107.73884,38.49166],[-107.73917,38.49107],[-107.73945,38.49057],[-107.73952,38.49046],[-107.73963,38.49026],[-107.73982,38.48991],[-107.73999,38.4896],[-107.74019,38.48926],[-107.74024,38.48917],[-107.74024,38.48916],[-107.74037,38.48892],[-107.74045,38.48878],[-107.74045,38.48877],[-107.74046,38.48876],[-107.74053,38.48862],[-107.74054,38.48859],[-107.74055,38.48857],[-107.74058,38.48849],[-107.74058,38.48849],[-107.74127,38.48845],[-107.74196,38.48841],[-107.7433,38.48833],[-107.74421,38.48827],[-107.74444,38.48825],[-107.74467,38.48823],[-107.74497,38.48821],[-107.74507,38.48819],[-107.74553,38.48816],[-107.74588,38.48814],[-107.74622,38.48813],[-107.74644,38.48811],[-107.74667,38.4881],[-107.7469,38.48809],[-107.74818,38.48802],[-107.74952,38.48795],[-107.74952,38.48795],[-107.74951,38.48723],[-107.74951,38.48705],[-107.74951,38.48687],[-107.7495,38.48669],[-107.7495,38.48628],[-107.74951,38.48579],[-107.74951,38.48561],[-107.74951,38.48551],[-107.74952,38.48538],[-107.74953,38.48528],[-107.74954,38.48516],[-107.74957,38.48505],[-107.7496,38.48495],[-107.74964,38.48487],[-107.7497,38.48478],[-107.74976,38.48472],[-107.74986,38.48466],[-107.74997,38.48463],[-107.75007,38.48462],[-107.7501,38.48462],[-107.75023,38.48462],[-107.7504,38.48464],[-107.75057,38.48464],[-107.7508,38.48462],[-107.75115,38.48455],[-107.75149,38.48445],[-107.75213,38.48431],[-107.7535,38.4841],[-107.75464,38.48393],[-107.75486,38.48389],[-107.75689,38.48359],[-107.75698,38.48357],[-107.7578,38.48346],[-107.75803,38.48343],[-107.75815,38.48342],[-107.75916,38.48328],[-107.75948,38.48324],[-107.76029,38.48312],[-107.76051,38.48309],[-107.76052,38.48309],[-107.76188,38.48292],[-107.76207,38.4829],[-107.76265,38.48282],[-107.76301,38.48278],[-107.76347,38.48272],[-107.76392,38.48265],[-107.76523,38.48246],[-107.76527,38.48245],[-107.7655,38.48242],[-107.76617,38.48231],[-107.7664,38.48228],[-107.76661,38.48225],[-107.76737,38.48214],[-107.76753,38.48211],[-107.76775,38.48208],[-107.768,38.48205],[-107.7683,38.48201],[-107.76843,38.48198],[-107.76848,38.48197],[-107.76864,38.48192],[-107.76865,38.48192],[-107.76883,38.48187],[-107.76886,38.48186],[-107.76902,38.48181],[-107.76919,38.48177],[-107.7693,38.48175],[-107.76944,38.48172],[-107.76975,38.48168],[-107.7698,38.48167],[-107.76997,38.48164],[-107.77032,38.48159],[-107.77335,38.48114],[-107.77404,38.48104],[-107.77411,38.48103],[-107.77423,38.48101],[-107.77426,38.48099],[-107.77433,38.48096],[-107.7744,38.4809],[-107.77444,38.48082],[-107.77446,38.48075],[-107.77445,38.48071],[-107.77445,38.48068],[-107.77441,38.48057],[-107.77438,38.48048],[-107.77435,38.48041],[-107.77433,38.48035],[-107.77429,38.48025],[-107.77426,38.48015],[-107.77424,38.48008],[-107.77424,38.48001],[-107.77424,38.47993],[-107.77424,38.47986],[-107.77426,38.47976],[-107.77427,38.47972],[-107.77507,38.47955],[-107.77529,38.4795],[-107.77619,38.47931],[-107.77641,38.47929],[-107.77689,38.4793],[-107.77758,38.47934],[-107.77778,38.47934],[-107.77781,38.47934],[-107.77912,38.47929],[-107.77946,38.47924],[-107.77991,38.47918],[-107.78096,38.47912],[-107.7815,38.47911],[-107.78173,38.47911],[-107.78196,38.47911],[-107.78216,38.47911],[-107.78241,38.47913],[-107.7831,38.4792],[-107.78355,38.47926],[-107.78368,38.47927],[-107.78378,38.47929],[-107.784,38.47931],[-107.78411,38.47933],[-107.78423,38.47935],[-107.78436,38.47937],[-107.78445,38.47939],[-107.7849,38.47946],[-107.78499,38.47948],[-107.78536,38.47952],[-107.78542,38.47952],[-107.78594,38.47952],[-107.78595,38.47952],[-107.78598,38.47952],[-107.78622,38.47958],[-107.78658,38.47971],[-107.78684,38.4798],[-107.787,38.47987],[-107.78801,38.48028],[-107.78802,38.48028],[-107.78816,38.48034],[-107.78822,38.48036],[-107.78863,38.48052],[-107.78864,38.48053],[-107.78883,38.48061],[-107.78945,38.48086],[-107.78969,38.48095],[-107.7901,38.4811],[-107.79052,38.48126],[-107.79061,38.48129],[-107.79093,38.48141],[-107.79227,38.48191],[-107.79394,38.48252],[-107.79413,38.48259],[-107.79532,38.48304],[-107.79658,38.48354],[-107.79661,38.48356],[-107.79703,38.48371],[-107.79734,38.48383],[-107.79756,38.48391],[-107.79765,38.48394],[-107.79802,38.48406],[-107.79886,38.48431],[-107.79924,38.48445],[-107.7999,38.48471],[-107.80016,38.4848],[-107.80161,38.48533],[-107.80224,38.48555],[-107.80251,38.48565],[-107.80277,38.48574],[-107.80287,38.48587],[-107.80291,38.48599],[-107.80293,38.48612],[-107.80292,38.48731],[-107.80292,38.48767],[-107.80291,38.48834],[-107.80299,38.48865],[-107.80299,38.48865],[-107.80343,38.48862],[-107.80369,38.48861],[-107.80393,38.4886],[-107.80423,38.48859],[-107.80456,38.48859],[-107.80479,38.48859],[-107.80515,38.48859],[-107.80605,38.4886],[-107.80812,38.48861],[-107.80822,38.48863],[-107.80956,38.48864],[-107.81082,38.48864],[-107.81152,38.48865],[-107.81152,38.48865],[-107.81152,38.48859],[-107.81153,38.4885],[-107.81154,38.48845],[-107.81157,38.48839],[-107.8116,38.48836],[-107.81164,38.48832],[-107.81171,38.48828],[-107.81177,38.48826],[-107.81189,38.48821],[-107.81202,38.48817],[-107.81305,38.48776],[-107.81373,38.4875],[-107.81408,38.48736],[-107.81434,38.48726],[-107.81449,38.4872],[-107.81564,38.48675],[-107.82058,38.48483],[-107.82382,38.48358],[-107.82432,38.48338],[-107.82498,38.48312],[-107.82686,38.48237],[-107.82702,38.48231],[-107.82795,38.48194],[-107.82824,38.48183],[-107.82865,38.48172],[-107.82895,38.48166],[-107.82936,38.48167],[-107.82944,38.48167],[-107.8302,38.48167],[-107.83031,38.48167],[-107.83036,38.48167],[-107.83078,38.48167],[-107.83193,38.48168],[-107.83293,38.48169],[-107.83407,38.48169],[-107.83426,38.48169],[-107.83432,38.48169],[-107.83501,38.4817],[-107.83727,38.48171],[-107.83843,38.48171],[-107.83868,38.48172],[-107.83896,38.48172],[-107.83966,38.48172],[-107.84035,38.48172],[-107.8415,38.48172],[-107.84234,38.48172],[-107.84287,38.48172],[-107.84356,38.48172],[-107.84358,38.48172],[-107.84406,38.48171],[-107.84417,38.48171],[-107.84437,38.48171],[-107.84449,38.48171],[-107.84546,38.48172],[-107.84564,38.48172],[-107.84661,38.48173],[-107.84684,38.48173],[-107.84785,38.48173],[-107.84836,38.48173],[-107.84844,38.48173],[-107.84856,38.48173],[-107.84882,38.48173],[-107.84948,38.48173],[-107.8498,38.48174],[-107.85041,38.48173],[-107.8505,38.48173],[-107.8511,38.48173],[-107.85122,38.48173],[-107.85129,38.48173],[-107.8514,38.48173],[-107.85157,38.48173],[-107.85207,38.48173],[-107.85244,38.48173],[-107.85258,38.48173],[-107.85289,38.48173],[-107.85407,38.48174],[-107.8543,38.48174],[-107.85522,38.48175],[-107.85531,38.48175],[-107.85614,38.48176],[-107.8562,38.48176],[-107.85636,38.48178],[-107.85645,38.48181],[-107.85654,38.48185],[-107.85654,38.48185],[-107.85654,38.48186],[-107.85655,38.48188],[-107.85656,38.48189],[-107.85657,38.4819],[-107.85658,38.48191],[-107.85659,38.48192],[-107.8566,38.48193],[-107.85662,38.48194],[-107.85663,38.48194],[-107.85664,38.48195],[-107.85666,38.48196],[-107.85668,38.48196],[-107.85669,38.48196],[-107.85671,38.48197],[-107.85683,38.48207],[-107.85692,38.48215],[-107.857,38.48226],[-107.85705,38.48238],[-107.85708,38.48251],[-107.85711,38.48264],[-107.85712,38.48277],[-107.85711,38.48323],[-107.8571,38.48349],[-107.8571,38.48389],[-107.85712,38.48456],[-107.85712,38.48487],[-107.85712,38.485],[-107.85712,38.48513],[-107.85713,38.48517],[-107.85713,38.48527],[-107.85713,38.48549],[-107.85712,38.48607],[-107.85712,38.48661],[-107.85712,38.48661],[-107.85829,38.48661],[-107.8591,38.48661],[-107.8591,38.48661],[-107.85911,38.48668],[-107.85909,38.48686],[-107.85907,38.48758],[-107.85906,38.48786],[-107.85906,38.48786],[-107.85947,38.48779],[-107.85951,38.48779],[-107.8596,38.48778],[-107.85968,38.48778],[-107.85975,38.4878],[-107.85978,38.48782],[-107.85981,38.48785],[-107.85983,38.48789],[-107.8599,38.48803],[-107.8599,38.48803],[-107.8607,38.48798],[-107.86083,38.48797],[-107.86105,38.48796],[-107.8615,38.48793],[-107.86172,38.48791]]}}]}