{"type":"FeatureCollection","features":[{"type":"Feature","properties":{"_gpxType":"trk","name":"293 S Laura St, Ridgway, CO 81432 - 220 Surprise Ave, Placerville, CO 81320","coordinateProperties":{},"id":70},"geometry":{"type":"LineString","coordinates":[[-107.75916,38.14947],[-107.75924,38.14947],[-107.75992,38.14947],[-107.76015,38.14947],[-107.76015,38.14947],[-107.76015,38.1499],[-107.76015,38.15008],[-107.76015,38.15043],[-107.76014,38.15072],[-107.76014,38.15126],[-107.76013,38.15144],[-107.76013,38.15144],[-107.76078,38.15143],[-107.76143,38.15141],[-107.76181,38.15139],[-107.76227,38.15135],[-107.76272,38.1513],[-107.763,38.15128],[-107.76335,38.15125],[-107.76346,38.15124],[-107.76368,38.15124],[-107.76382,38.15124],[-107.76395,38.15125],[-107.76421,38.15131],[-107.76447,38.15139],[-107.76452,38.15141],[-107.76466,38.15146],[-107.76487,38.15156],[-107.76501,38.15164],[-107.7651,38.1517],[-107.76529,38.15186],[-107.76547,38.15204],[-107.76594,38.15253],[-107.766,38.15259],[-107.76617,38.15277],[-107.76636,38.15295],[-107.76638,38.15297],[-107.76653,38.15311],[-107.76662,38.1532],[-107.76674,38.15329],[-107.76716,38.15366],[-107.76719,38.15369],[-107.76737,38.15385],[-107.76748,38.15394],[-107.76758,38.15403],[-107.76768,38.15413],[-107.76768,38.15414],[-107.76777,38.15423],[-107.76787,38.15434],[-107.76797,38.15446],[-107.76805,38.15457],[-107.76813,38.15468],[-107.7682,38.15479],[-107.76826,38.15491],[-107.76834,38.15507],[-107.76841,38.15523],[-107.76848,38.1554],[-107.76853,38.15557],[-107.7686,38.15577],[-107.76865,38.1559],[-107.76871,38.15606],[-107.76878,38.15622],[-107.76882,38.1563],[-107.76886,38.15637],[-107.76887,38.15639],[-107.7689,38.15645],[-107.76891,38.15645],[-107.76896,38.15652],[-107.76901,38.15659],[-107.76906,38.15666],[-107.76918,38.15678],[-107.76929,38.15688],[-107.7694,38.15697],[-107.76954,38.15708],[-107.76975,38.15723],[-107.77011,38.15748],[-107.77022,38.15755],[-107.77025,38.15758],[-107.77042,38.1577],[-107.77047,38.15773],[-107.77074,38.1579],[-107.77112,38.15816],[-107.77116,38.15819],[-107.77116,38.1582],[-107.77129,38.15828],[-107.77134,38.15831],[-107.7714,38.15836],[-107.77151,38.15843],[-107.77166,38.15852],[-107.77179,38.1586],[-107.77183,38.15862],[-107.77188,38.15864],[-107.77192,38.15867],[-107.77202,38.15871],[-107.77207,38.15874],[-107.7722,38.1588],[-107.77253,38.15892],[-107.77269,38.15897],[-107.77287,38.15903],[-107.7729,38.15903],[-107.77302,38.15906],[-107.77313,38.15908],[-107.77335,38.15912],[-107.77341,38.15913],[-107.77372,38.15916],[-107.7738,38.15917],[-107.77392,38.15918],[-107.77397,38.15918],[-107.77403,38.15918],[-107.77423,38.15919],[-107.77449,38.15919],[-107.77494,38.15919],[-107.7752,38.15919],[-107.77565,38.15919],[-107.77588,38.15919],[-107.77611,38.15919],[-107.77725,38.15919],[-107.7784,38.1592],[-107.77955,38.1592],[-107.78091,38.1592],[-107.78191,38.1592],[-107.7826,38.1592],[-107.78283,38.1592],[-107.78512,38.15921],[-107.78603,38.15921],[-107.78626,38.15921],[-107.78672,38.15921],[-107.78695,38.15921],[-107.7874,38.15921],[-107.78763,38.15922],[-107.78836,38.15922],[-107.78919,38.15922],[-107.7897,38.15922],[-107.79022,38.15924],[-107.79033,38.15925],[-107.79048,38.15926],[-107.79056,38.15926],[-107.79074,38.15928],[-107.79116,38.15932],[-107.79162,38.15936],[-107.79193,38.15939],[-107.79225,38.1594],[-107.7923,38.1594],[-107.79276,38.15941],[-107.79287,38.15941],[-107.79299,38.15941],[-107.79344,38.1594],[-107.79413,38.15939],[-107.7955,38.15936],[-107.79665,38.15934],[-107.79752,38.15932],[-107.79838,38.15931],[-107.79922,38.15929],[-107.80032,38.15927],[-107.80175,38.15923],[-107.8021,38.15921],[-107.80238,38.15919],[-107.80244,38.15918],[-107.8026,38.15916],[-107.80278,38.15913],[-107.8031,38.15908],[-107.80342,38.15901],[-107.80349,38.15899],[-107.80371,38.15894],[-107.80373,38.15893],[-107.80393,38.15887],[-107.80417,38.15879],[-107.80444,38.1587],[-107.8047,38.15859],[-107.80492,38.15848],[-107.80495,38.15847],[-107.80514,38.15838],[-107.80518,38.15836],[-107.80533,38.15828],[-107.80548,38.1582],[-107.8057,38.15807],[-107.80576,38.15803],[-107.80588,38.15795],[-107.80602,38.15785],[-107.80627,38.15766],[-107.80652,38.15746],[-107.80675,38.15725],[-107.80693,38.15707],[-107.80709,38.15689],[-107.80723,38.15671],[-107.80738,38.15653],[-107.80761,38.15618],[-107.80767,38.15607],[-107.80776,38.1559],[-107.80779,38.15585],[-107.80784,38.15574],[-107.8079,38.15561],[-107.80792,38.15557],[-107.80798,38.1554],[-107.80799,38.15539],[-107.80805,38.15522],[-107.80824,38.1547],[-107.8084,38.15427],[-107.80873,38.15332],[-107.80903,38.15245],[-107.80909,38.15225],[-107.80915,38.15203],[-107.80925,38.15163],[-107.80932,38.15113],[-107.80941,38.15063],[-107.80943,38.15054],[-107.80951,38.15019],[-107.80963,38.14985],[-107.80967,38.14977],[-107.80988,38.14925],[-107.80993,38.14913],[-107.81003,38.14891],[-107.81008,38.14882],[-107.81011,38.14875],[-107.81026,38.14843],[-107.81042,38.14807],[-107.81047,38.14796],[-107.81057,38.14773],[-107.81065,38.14756],[-107.81069,38.14748],[-107.8107,38.14747],[-107.81073,38.14739],[-107.81086,38.14713],[-107.81098,38.14689],[-107.81099,38.14688],[-107.81103,38.1468],[-107.81107,38.14672],[-107.81112,38.14663],[-107.81118,38.14652],[-107.81151,38.14598],[-107.81182,38.14549],[-107.81196,38.14527],[-107.81216,38.14496],[-107.81226,38.1448],[-107.81237,38.14464],[-107.81262,38.14424],[-107.81278,38.14399],[-107.81288,38.14383],[-107.813,38.14364],[-107.81319,38.14335],[-107.81334,38.14311],[-107.81377,38.14244],[-107.81394,38.14219],[-107.81413,38.14191],[-107.81421,38.14178],[-107.81424,38.14175],[-107.81435,38.1416],[-107.81448,38.14142],[-107.81459,38.14129],[-107.81485,38.14095],[-107.81512,38.14063],[-107.81528,38.14044],[-107.81533,38.14038],[-107.81544,38.14027],[-107.81547,38.14024],[-107.8156,38.14011],[-107.81561,38.1401],[-107.81569,38.14002],[-107.8158,38.13992],[-107.81599,38.13977],[-107.81609,38.13969],[-107.81637,38.13949],[-107.81656,38.13937],[-107.81677,38.13924],[-107.81709,38.13905],[-107.81717,38.13901],[-107.81776,38.13866],[-107.81841,38.13828],[-107.81843,38.13827],[-107.81862,38.13816],[-107.81917,38.13784],[-107.81965,38.13756],[-107.82,38.13735],[-107.82019,38.13725],[-107.8203,38.13718],[-107.8207,38.13694],[-107.8211,38.1367],[-107.82112,38.13669],[-107.82115,38.13667],[-107.82135,38.13654],[-107.82145,38.13647],[-107.82159,38.13638],[-107.82162,38.13635],[-107.82164,38.13634],[-107.82179,38.13622],[-107.82209,38.13596],[-107.82211,38.13595],[-107.82224,38.13582],[-107.82225,38.13581],[-107.82236,38.13571],[-107.82253,38.13554],[-107.82257,38.1355],[-107.82267,38.1354],[-107.82281,38.13526],[-107.82282,38.13525],[-107.82285,38.13522],[-107.82295,38.13512],[-107.82297,38.13511],[-107.8234,38.13468],[-107.82353,38.13454],[-107.82391,38.13418],[-107.82424,38.13385],[-107.82443,38.13367],[-107.82468,38.13342],[-107.82477,38.13333],[-107.82508,38.13303],[-107.82511,38.133],[-107.82525,38.13286],[-107.82536,38.13276],[-107.82539,38.13272],[-107.8255,38.13262],[-107.82554,38.13258],[-107.82568,38.13244],[-107.82582,38.1323],[-107.82591,38.13221],[-107.82593,38.13219],[-107.82596,38.13216],[-107.8261,38.13202],[-107.82615,38.13197],[-107.82624,38.13187],[-107.82636,38.13175],[-107.82638,38.13173],[-107.82646,38.13164],[-107.82652,38.13158],[-107.82656,38.13153],[-107.82664,38.13143],[-107.82667,38.1314],[-107.8268,38.13123],[-107.82688,38.13113],[-107.82698,38.13099],[-107.82729,38.13049],[-107.82739,38.13032],[-107.82758,38.12999],[-107.82774,38.12973],[-107.82785,38.12958],[-107.8279,38.12952],[-107.82795,38.12945],[-107.82805,38.12933],[-107.82815,38.12924],[-107.82825,38.12915],[-107.82834,38.12907],[-107.82843,38.12899],[-107.82847,38.12896],[-107.82859,38.12887],[-107.82895,38.12862],[-107.82943,38.1283],[-107.82982,38.12805],[-107.83013,38.12784],[-107.83021,38.12779],[-107.83038,38.12767],[-107.83055,38.12755],[-107.83063,38.1275],[-107.83092,38.1273],[-107.83112,38.12714],[-107.83122,38.12706],[-107.83133,38.12697],[-107.83151,38.1268],[-107.83163,38.12668],[-107.83177,38.12653],[-107.83179,38.1265],[-107.83192,38.12635],[-107.83193,38.12635],[-107.83204,38.1262],[-107.83239,38.12574],[-107.83251,38.12558],[-107.83263,38.12543],[-107.83275,38.12527],[-107.83286,38.12514],[-107.83316,38.12474],[-107.8333,38.12454],[-107.83349,38.12429],[-107.83354,38.12423],[-107.8337,38.12403],[-107.83387,38.12381],[-107.83404,38.12364],[-107.83418,38.12349],[-107.83434,38.12335],[-107.83451,38.1232],[-107.83472,38.12304],[-107.83487,38.12293],[-107.83505,38.12281],[-107.83535,38.12263],[-107.83547,38.12257],[-107.83571,38.12244],[-107.83589,38.12237],[-107.83608,38.12229],[-107.83631,38.1222],[-107.83634,38.12219],[-107.83649,38.12214],[-107.83655,38.12212],[-107.83669,38.12208],[-107.83677,38.12206],[-107.83695,38.12201],[-107.83709,38.12198],[-107.83728,38.12194],[-107.83743,38.12192],[-107.83746,38.12191],[-107.83765,38.12189],[-107.83769,38.12188],[-107.83792,38.12185],[-107.83811,38.12184],[-107.8383,38.12183],[-107.83834,38.12182],[-107.83852,38.12182],[-107.83856,38.12182],[-107.83875,38.12182],[-107.83899,38.12183],[-107.83956,38.12185],[-107.84014,38.12188],[-107.84048,38.12189],[-107.84062,38.12189],[-107.84065,38.12189],[-107.84081,38.12188],[-107.84085,38.12188],[-107.84106,38.12187],[-107.84122,38.12186],[-107.84133,38.12185],[-107.84143,38.12184],[-107.84154,38.12182],[-107.84171,38.12179],[-107.84196,38.12174],[-107.84216,38.12169],[-107.84228,38.12166],[-107.84245,38.12161],[-107.84279,38.1215],[-107.84282,38.12149],[-107.84319,38.12136],[-107.84344,38.12127],[-107.84399,38.12107],[-107.84489,38.12076],[-107.84536,38.1206],[-107.8455,38.12055],[-107.84594,38.1204],[-107.84639,38.12024],[-107.84676,38.1201],[-107.84699,38.12001],[-107.84739,38.11987],[-107.8474,38.11987],[-107.8476,38.1198],[-107.8477,38.11976],[-107.84809,38.11962],[-107.84843,38.1195],[-107.84855,38.11946],[-107.84897,38.1193],[-107.84933,38.11916],[-107.84971,38.11901],[-107.85005,38.11884],[-107.85023,38.11875],[-107.85042,38.11865],[-107.85047,38.11863],[-107.85061,38.11856],[-107.85072,38.1185],[-107.85099,38.11835],[-107.85107,38.11831],[-107.85136,38.11814],[-107.85144,38.1181],[-107.85174,38.11793],[-107.85182,38.11789],[-107.85192,38.11783],[-107.85222,38.11766],[-107.85274,38.11737],[-107.85285,38.11731],[-107.85334,38.11704],[-107.85372,38.11684],[-107.8539,38.11675],[-107.85408,38.11667],[-107.85428,38.11659],[-107.85447,38.11652],[-107.8547,38.11646],[-107.85477,38.11644],[-107.85492,38.11641],[-107.85499,38.11639],[-107.85508,38.11637],[-107.85518,38.11636],[-107.85522,38.11635],[-107.85536,38.11633],[-107.85555,38.11631],[-107.85567,38.11631],[-107.85577,38.1163],[-107.85593,38.1163],[-107.85608,38.1163],[-107.85613,38.11631],[-107.8563,38.11631],[-107.85636,38.11632],[-107.85651,38.11633],[-107.85658,38.11634],[-107.85667,38.11635],[-107.85683,38.11638],[-107.857,38.11641],[-107.85703,38.11642],[-107.85716,38.11645],[-107.8573,38.11649],[-107.85747,38.11654],[-107.85766,38.1166],[-107.85767,38.1166],[-107.85787,38.11667],[-107.85826,38.11681],[-107.85983,38.11739],[-107.86016,38.11751],[-107.86079,38.11773],[-107.86099,38.11781],[-107.8615,38.11799],[-107.86183,38.11811],[-107.86203,38.11818],[-107.86223,38.11825],[-107.86245,38.11832],[-107.86255,38.11836],[-107.86272,38.11841],[-107.86305,38.1185],[-107.86325,38.11853],[-107.86337,38.11855],[-107.86354,38.11857],[-107.86371,38.11857],[-107.86391,38.11857],[-107.86409,38.11856],[-107.86436,38.11853],[-107.86451,38.11851],[-107.86476,38.11846],[-107.86499,38.11839],[-107.86521,38.11831],[-107.86542,38.11821],[-107.86553,38.11816],[-107.86567,38.11808],[-107.86586,38.11796],[-107.86598,38.11786],[-107.86612,38.11775],[-107.86627,38.1176],[-107.86635,38.1175],[-107.86643,38.11742],[-107.86652,38.11728],[-107.86655,38.11724],[-107.8666,38.11715],[-107.86664,38.11707],[-107.86669,38.11696],[-107.86678,38.11674],[-107.8668,38.11667],[-107.86682,38.11658],[-107.86685,38.11645],[-107.86687,38.11631],[-107.86687,38.1162],[-107.86687,38.11617],[-107.86687,38.116],[-107.86685,38.11587],[-107.86685,38.11584],[-107.86682,38.11569],[-107.86681,38.11566],[-107.86678,38.11555],[-107.86673,38.11542],[-107.86669,38.11531],[-107.86663,38.1152],[-107.86654,38.11505],[-107.8664,38.11485],[-107.86633,38.11476],[-107.86614,38.11455],[-107.86612,38.11454],[-107.86591,38.11432],[-107.86584,38.11425],[-107.8657,38.11411],[-107.86561,38.11402],[-107.86556,38.11397],[-107.86491,38.11333],[-107.86463,38.11304],[-107.86445,38.11283],[-107.86433,38.11266],[-107.86424,38.11251],[-107.86423,38.11248],[-107.86415,38.11232],[-107.8641,38.1122],[-107.86409,38.11217],[-107.86403,38.11197],[-107.864,38.11182],[-107.86398,38.11168],[-107.86397,38.11158],[-107.86397,38.11146],[-107.86397,38.11142],[-107.86398,38.11124],[-107.86399,38.11112],[-107.86404,38.11093],[-107.86408,38.11077],[-107.86418,38.11055],[-107.86434,38.11026],[-107.86457,38.10993],[-107.86462,38.10985],[-107.86468,38.10977],[-107.86479,38.10962],[-107.86523,38.10902],[-107.86536,38.10884],[-107.8657,38.10837],[-107.8663,38.10757],[-107.8672,38.10635],[-107.86779,38.10554],[-107.86872,38.10427],[-107.86896,38.10394],[-107.86917,38.10364],[-107.86934,38.1034],[-107.86943,38.10325],[-107.86956,38.10299],[-107.86968,38.10275],[-107.86985,38.10238],[-107.86986,38.10235],[-107.87005,38.10196],[-107.87022,38.10158],[-107.8703,38.10138],[-107.8704,38.10116],[-107.87048,38.101],[-107.87058,38.10082],[-107.8707,38.10065],[-107.87076,38.10057],[-107.87083,38.10049],[-107.87094,38.10036],[-107.87105,38.10025],[-107.87116,38.10015],[-107.87123,38.10009],[-107.87142,38.09994],[-107.87164,38.09979],[-107.8718,38.09969],[-107.87191,38.09964],[-107.87206,38.09956],[-107.87225,38.09947],[-107.87242,38.09941],[-107.87262,38.09934],[-107.8728,38.09929],[-107.87303,38.09923],[-107.8731,38.09921],[-107.87332,38.09915],[-107.8734,38.09913],[-107.87433,38.0989],[-107.87441,38.09888],[-107.87506,38.09872],[-107.87529,38.09866],[-107.87573,38.09856],[-107.87598,38.09848],[-107.87637,38.09835],[-107.87652,38.09828],[-107.8767,38.09819],[-107.87674,38.09817],[-107.87692,38.09807],[-107.87693,38.09806],[-107.87713,38.09792],[-107.87727,38.09782],[-107.8773,38.0978],[-107.87746,38.09765],[-107.87752,38.0976],[-107.87759,38.09752],[-107.87778,38.09731],[-107.87813,38.09689],[-107.87835,38.09665],[-107.87876,38.09616],[-107.87926,38.09557],[-107.87934,38.09546],[-107.87968,38.09508],[-107.87975,38.09501],[-107.87992,38.09484],[-107.88007,38.09471],[-107.88025,38.09457],[-107.88028,38.09454],[-107.88042,38.09445],[-107.88046,38.09443],[-107.88055,38.09436],[-107.88068,38.09429],[-107.88082,38.09422],[-107.88083,38.09422],[-107.88099,38.09415],[-107.88103,38.09414],[-107.88118,38.09409],[-107.88128,38.09406],[-107.88138,38.09404],[-107.88152,38.09402],[-107.88172,38.094],[-107.8819,38.09399],[-107.88192,38.09399],[-107.88204,38.09399],[-107.88219,38.094],[-107.88246,38.09403],[-107.88266,38.09407],[-107.88282,38.0941],[-107.88304,38.09415],[-107.8831,38.09416],[-107.88345,38.09424],[-107.88364,38.09428],[-107.88387,38.09434],[-107.88392,38.09435],[-107.88417,38.0944],[-107.88438,38.09444],[-107.88458,38.09448],[-107.88461,38.09449],[-107.88474,38.09451],[-107.88481,38.09452],[-107.88503,38.09456],[-107.88513,38.09457],[-107.88526,38.09459],[-107.88536,38.0946],[-107.88569,38.09464],[-107.88589,38.09466],[-107.88593,38.09466],[-107.88616,38.09468],[-107.88636,38.0947],[-107.88662,38.09472],[-107.88692,38.09474],[-107.88725,38.09476],[-107.88749,38.09477],[-107.88756,38.09478],[-107.88775,38.09479],[-107.888,38.09481],[-107.88825,38.09482],[-107.8885,38.09484],[-107.88872,38.09486],[-107.88876,38.09487],[-107.88895,38.09489],[-107.88898,38.09489],[-107.88918,38.09492],[-107.88919,38.09492],[-107.88921,38.09492],[-107.88935,38.09494],[-107.8894,38.09495],[-107.88951,38.09497],[-107.88986,38.09504],[-107.89006,38.09509],[-107.89009,38.0951],[-107.89022,38.09513],[-107.8905,38.0952],[-107.89115,38.09536],[-107.89123,38.09538],[-107.892,38.09558],[-107.89205,38.09559],[-107.89227,38.09565],[-107.89246,38.09569],[-107.89249,38.0957],[-107.89304,38.09584],[-107.89311,38.09586],[-107.89314,38.09586],[-107.89336,38.09592],[-107.89358,38.09597],[-107.89399,38.09607],[-107.89489,38.0963],[-107.89529,38.09639],[-107.89554,38.09646],[-107.89616,38.09661],[-107.8962,38.09662],[-107.89636,38.09666],[-107.8966,38.09672],[-107.89682,38.09677],[-107.89685,38.09678],[-107.89752,38.09694],[-107.89835,38.09714],[-107.89918,38.09735],[-107.89966,38.09747],[-107.89971,38.09748],[-107.89997,38.09754],[-107.9001,38.09758],[-107.90015,38.09759],[-107.90031,38.09764],[-107.90036,38.09765],[-107.90056,38.09772],[-107.90072,38.09778],[-107.90078,38.0978],[-107.90093,38.09787],[-107.90112,38.09796],[-107.9013,38.09806],[-107.90161,38.09822],[-107.90176,38.0983],[-107.90204,38.09844],[-107.90225,38.09855],[-107.90247,38.09865],[-107.90251,38.09867],[-107.90267,38.09874],[-107.90275,38.09877],[-107.90294,38.09885],[-107.90317,38.09894],[-107.90333,38.09898],[-107.9035,38.09903],[-107.90371,38.09907],[-107.90389,38.0991],[-107.90415,38.09914],[-107.9044,38.09916],[-107.90445,38.09917],[-107.90456,38.09918],[-107.90467,38.09919],[-107.90485,38.09922],[-107.9049,38.09922],[-107.90502,38.09924],[-107.90533,38.09929],[-107.90544,38.09932],[-107.90554,38.09934],[-107.90556,38.09935],[-107.90557,38.09935],[-107.90579,38.0994],[-107.90605,38.09947],[-107.90633,38.09955],[-107.90655,38.09961],[-107.90678,38.09967],[-107.90706,38.09973],[-107.90724,38.09977],[-107.90738,38.0998],[-107.90761,38.09984],[-107.9078,38.09988],[-107.90792,38.09989],[-107.90822,38.09994],[-107.90865,38.09998],[-107.90894,38.10001],[-107.90935,38.10003],[-107.90953,38.10004],[-107.90957,38.10004],[-107.9098,38.10004],[-107.90984,38.10004],[-107.91001,38.10003],[-107.91002,38.10003],[-107.91016,38.10003],[-107.91024,38.10003],[-107.9104,38.10002],[-107.91047,38.10002],[-107.91048,38.10002],[-107.9107,38.10001],[-107.91071,38.10001],[-107.91117,38.09997],[-107.9118,38.09994],[-107.91244,38.09994],[-107.91265,38.09996],[-107.91295,38.09998],[-107.91326,38.10002],[-107.91335,38.10003],[-107.91357,38.10006],[-107.91368,38.10008],[-107.91389,38.10012],[-107.91411,38.10016],[-107.91424,38.10019],[-107.91446,38.10025],[-107.9147,38.1003],[-107.91511,38.10041],[-107.91551,38.10052],[-107.91643,38.10079],[-107.91737,38.10104],[-107.91792,38.10118],[-107.9181,38.10122],[-107.91814,38.10123],[-107.91857,38.10133],[-107.91905,38.10143],[-107.91997,38.10161],[-107.92077,38.10177],[-107.92152,38.10192],[-107.92209,38.10203],[-107.9228,38.10217],[-107.92301,38.10221],[-107.92323,38.10225],[-107.92351,38.1023],[-107.92406,38.10239],[-107.92412,38.1024],[-107.92435,38.10243],[-107.92452,38.10244],[-107.92475,38.10246],[-107.92497,38.10247],[-107.92669,38.10245],[-107.92732,38.10245],[-107.92761,38.10244],[-107.92793,38.10245],[-107.928,38.10246],[-107.92825,38.10248],[-107.9286,38.10252],[-107.92886,38.10256],[-107.92912,38.10262],[-107.92972,38.10274],[-107.92979,38.10276],[-107.93124,38.10306],[-107.93298,38.10344],[-107.93317,38.10348],[-107.93391,38.10363],[-107.93398,38.10365],[-107.93437,38.10373],[-107.93473,38.10381],[-107.93494,38.10387],[-107.93514,38.10393],[-107.93536,38.10401],[-107.93556,38.10408],[-107.93557,38.10409],[-107.93563,38.10411],[-107.93576,38.10417],[-107.9358,38.10419],[-107.93603,38.1043],[-107.93631,38.10445],[-107.93633,38.10446],[-107.9364,38.1045],[-107.93645,38.10454],[-107.93663,38.10465],[-107.93688,38.10482],[-107.93702,38.10493],[-107.93712,38.105],[-107.93761,38.10538],[-107.93763,38.10539],[-107.93779,38.10551],[-107.93785,38.10555],[-107.93792,38.10559],[-107.93799,38.10564],[-107.93823,38.10578],[-107.9384,38.10586],[-107.93854,38.10592],[-107.93867,38.10597],[-107.93883,38.10602],[-107.93903,38.10608],[-107.93921,38.10612],[-107.93939,38.10616],[-107.9395,38.10617],[-107.93961,38.10619],[-107.93977,38.1062],[-107.93991,38.10621],[-107.94014,38.10621],[-107.94032,38.10621],[-107.94039,38.10621],[-107.94047,38.10621],[-107.9405,38.10621],[-107.94215,38.10615],[-107.94221,38.10615],[-107.9423,38.10614],[-107.94298,38.10612],[-107.94306,38.10612],[-107.94313,38.10611],[-107.9433,38.10611],[-107.94404,38.10608],[-107.94444,38.10607],[-107.94458,38.10606],[-107.94467,38.10606],[-107.94471,38.10606],[-107.94473,38.10606],[-107.94572,38.10603],[-107.94612,38.10601],[-107.94632,38.10601],[-107.94633,38.10601],[-107.94641,38.10602],[-107.9465,38.10602],[-107.94652,38.10602],[-107.94655,38.10602],[-107.94664,38.10602],[-107.94666,38.10603],[-107.9468,38.10603],[-107.94701,38.10606],[-107.94705,38.10607],[-107.94729,38.1061],[-107.94732,38.10611],[-107.9474,38.10612],[-107.94746,38.10613],[-107.94753,38.10614],[-107.94768,38.10617],[-107.94805,38.10625],[-107.9483,38.10629],[-107.94844,38.10631],[-107.94855,38.10632],[-107.94864,38.10632],[-107.94873,38.10632],[-107.9488,38.10632],[-107.94883,38.10632],[-107.94892,38.10632],[-107.94898,38.10631],[-107.94903,38.10631],[-107.94915,38.10629],[-107.94927,38.10628],[-107.94939,38.10625],[-107.94941,38.10624],[-107.94947,38.10623],[-107.94952,38.10621],[-107.94966,38.10618],[-107.9499,38.10609],[-107.94998,38.10607],[-107.9501,38.10601],[-107.95031,38.10593],[-107.95051,38.10584],[-107.95065,38.10578],[-107.95066,38.10577],[-107.95091,38.10567],[-107.95096,38.10565],[-107.95117,38.10557],[-107.95148,38.10546],[-107.95153,38.10545],[-107.95162,38.10542],[-107.95176,38.10539],[-107.95197,38.10535],[-107.95199,38.10534],[-107.95223,38.10531],[-107.95247,38.10528],[-107.95265,38.10527],[-107.95294,38.10524],[-107.95304,38.10524],[-107.9531,38.10523],[-107.95356,38.10519],[-107.95372,38.10518],[-107.95379,38.10518],[-107.95423,38.10514],[-107.95453,38.10511],[-107.95462,38.1051],[-107.95477,38.10508],[-107.9549,38.10505],[-107.955,38.10503],[-107.9551,38.10501],[-107.95527,38.10495],[-107.95535,38.10493],[-107.95543,38.10489],[-107.95548,38.10487],[-107.95557,38.10484],[-107.9557,38.10479],[-107.95588,38.10469],[-107.95601,38.10463],[-107.95663,38.10428],[-107.95685,38.10416],[-107.957,38.10409],[-107.95715,38.10403],[-107.95729,38.10398],[-107.95744,38.10392],[-107.95757,38.10387],[-107.9577,38.10383],[-107.95783,38.10379],[-107.95797,38.10375],[-107.95824,38.10369],[-107.95925,38.10347],[-107.96026,38.10326],[-107.96089,38.10312],[-107.96151,38.10299],[-107.96168,38.10296],[-107.96188,38.10291],[-107.96195,38.10289],[-107.96208,38.10286],[-107.96217,38.10283],[-107.96239,38.10277],[-107.96274,38.10264],[-107.96279,38.10261],[-107.963,38.10253],[-107.96303,38.10251],[-107.96333,38.10239],[-107.9644,38.10192],[-107.9646,38.10183],[-107.9654,38.10149],[-107.9656,38.1014],[-107.96618,38.10114],[-107.9666,38.10097],[-107.9668,38.10088],[-107.967,38.1008],[-107.96819,38.1003],[-107.96848,38.10018],[-107.96876,38.10005],[-107.969,38.09994],[-107.96925,38.09981],[-107.96977,38.09954],[-107.96982,38.09951],[-107.96996,38.09944],[-107.97039,38.0992],[-107.97105,38.09886],[-107.97128,38.09873],[-107.97185,38.09843],[-107.97217,38.09826],[-107.97246,38.09811],[-107.9727,38.09801],[-107.97283,38.09797],[-107.97297,38.09792],[-107.97313,38.09789],[-107.97329,38.09786],[-107.97344,38.09783],[-107.97349,38.09783],[-107.97363,38.09782],[-107.97376,38.09781],[-107.97394,38.09781],[-107.97395,38.09781],[-107.97412,38.09782],[-107.97418,38.09783],[-107.97428,38.09783],[-107.97443,38.09786],[-107.97458,38.09788],[-107.97477,38.09793],[-107.97493,38.09797],[-107.97506,38.09801],[-107.97527,38.09808],[-107.97535,38.09811],[-107.97546,38.09813],[-107.9756,38.09816],[-107.97574,38.09818],[-107.97587,38.09819],[-107.97599,38.0982],[-107.97615,38.0982],[-107.97636,38.0982],[-107.97639,38.0982],[-107.97763,38.09818],[-107.97889,38.09816],[-107.9789,38.09816],[-107.97913,38.09815],[-107.97982,38.09814],[-107.9806,38.09812],[-107.98073,38.09812],[-107.98096,38.09812],[-107.98208,38.0981],[-107.9823,38.09808],[-107.98233,38.09808],[-107.98245,38.09807],[-107.98256,38.09805],[-107.98258,38.09805],[-107.98274,38.09802],[-107.98278,38.09801],[-107.98284,38.098],[-107.98295,38.09797],[-107.983,38.09796],[-107.98313,38.09791],[-107.98332,38.09783],[-107.98347,38.09775],[-107.98369,38.09763],[-107.98395,38.09747],[-107.98414,38.09737],[-107.98432,38.09726],[-107.9845,38.09715],[-107.98468,38.09704],[-107.98501,38.09684],[-107.98541,38.09661],[-107.98561,38.09651],[-107.98564,38.09649],[-107.9858,38.09642],[-107.98595,38.09636],[-107.98601,38.09634],[-107.98617,38.09628],[-107.98622,38.09627],[-107.98628,38.09625],[-107.98639,38.09622],[-107.98653,38.09619],[-107.98668,38.09616],[-107.98682,38.09615],[-107.98688,38.09614],[-107.98696,38.09613],[-107.98711,38.09612],[-107.98722,38.09612],[-107.98788,38.09611],[-107.98825,38.09611],[-107.98848,38.09612],[-107.98856,38.09612],[-107.98871,38.09611],[-107.98873,38.09611],[-107.98884,38.0961],[-107.98896,38.09609],[-107.98915,38.09606],[-107.98916,38.09606],[-107.98935,38.09602],[-107.98938,38.09601],[-107.98952,38.09597],[-107.98984,38.09586],[-107.99042,38.09564],[-107.99109,38.09538],[-107.99133,38.09528],[-107.99157,38.09518],[-107.99177,38.09507],[-107.99188,38.09501],[-107.99196,38.09497],[-107.99204,38.09492],[-107.99211,38.09487],[-107.99219,38.09482],[-107.99219,38.09481],[-107.99234,38.09469],[-107.9925,38.09456],[-107.99301,38.09413],[-107.99313,38.09404],[-107.99396,38.09334],[-107.99441,38.09297],[-107.99454,38.09286],[-107.99467,38.09275],[-107.99485,38.09259],[-107.99495,38.09251],[-107.99516,38.09233],[-107.99532,38.0922],[-107.99533,38.09219],[-107.99605,38.09159],[-107.99635,38.09136],[-107.99665,38.09113],[-107.99676,38.09105],[-107.99692,38.09093],[-107.9971,38.0908],[-107.99726,38.09069],[-107.99727,38.09068],[-107.99761,38.09044],[-107.99796,38.0902],[-107.99824,38.09002],[-107.9984,38.08995],[-107.99857,38.08987],[-107.99872,38.08981],[-107.99875,38.0898],[-107.99893,38.08974],[-107.99894,38.08974],[-107.99909,38.0897],[-107.99923,38.08966],[-107.99936,38.08964],[-107.99958,38.08959],[-107.99964,38.08958],[-108,38.08951],[-108.00012,38.08948],[-108.00024,38.08944],[-108.00042,38.08938],[-108.00059,38.08931],[-108.00065,38.08928],[-108.00075,38.08923],[-108.00084,38.08918],[-108.0009,38.08914],[-108.00103,38.08905],[-108.00117,38.08894],[-108.00134,38.08878],[-108.00174,38.08837],[-108.00188,38.08823],[-108.00206,38.08805],[-108.00232,38.08779],[-108.00256,38.08756],[-108.0026,38.08753],[-108.00277,38.08741],[-108.0028,38.08739],[-108.00294,38.08729],[-108.00303,38.08723],[-108.00312,38.08718],[-108.00343,38.087],[-108.00349,38.08697],[-108.00383,38.08678],[-108.00386,38.08676],[-108.00404,38.08665],[-108.00409,38.08662],[-108.00442,38.08639],[-108.00456,38.08629],[-108.00475,38.08616],[-108.00545,38.08565],[-108.00573,38.08544],[-108.00587,38.08533],[-108.00627,38.08504],[-108.0065,38.0849],[-108.00675,38.08476],[-108.00697,38.08464],[-108.00716,38.08454],[-108.00731,38.08446],[-108.00735,38.08444],[-108.00747,38.08436],[-108.00762,38.08426],[-108.00786,38.08404],[-108.0081,38.08379],[-108.00837,38.08348],[-108.00851,38.08334],[-108.00851,38.08333],[-108.00896,38.08292],[-108.0092,38.08273],[-108.00944,38.08254],[-108.00957,38.08244],[-108.0096,38.08242],[-108.00971,38.08235],[-108.00984,38.08227],[-108.00997,38.0822],[-108.00998,38.08219],[-108.01033,38.08199],[-108.01052,38.08188],[-108.01056,38.08186],[-108.01069,38.08177],[-108.01082,38.08168],[-108.01086,38.08164],[-108.01093,38.08158],[-108.01101,38.08151],[-108.01104,38.08148],[-108.01113,38.08138],[-108.01115,38.08137],[-108.01122,38.08127],[-108.01131,38.08115],[-108.01138,38.08103],[-108.01146,38.08089],[-108.01159,38.08066],[-108.01176,38.08039],[-108.01183,38.08029],[-108.01187,38.08024],[-108.01191,38.08019],[-108.01208,38.07999],[-108.01213,38.07995],[-108.01218,38.0799],[-108.01228,38.07981],[-108.01228,38.0798],[-108.01245,38.07967],[-108.01263,38.07955],[-108.01278,38.07945],[-108.0128,38.07944],[-108.01296,38.07933],[-108.01297,38.07933],[-108.01314,38.07923],[-108.01332,38.07912],[-108.0135,38.07901],[-108.01369,38.0789],[-108.01387,38.07879],[-108.01405,38.07868],[-108.01423,38.07857],[-108.01441,38.07846],[-108.01459,38.07835],[-108.01491,38.07817],[-108.01512,38.07801],[-108.01513,38.078],[-108.01533,38.07783],[-108.01553,38.07763],[-108.01556,38.0776],[-108.0157,38.07745],[-108.01572,38.07742],[-108.01583,38.0773],[-108.01608,38.07701],[-108.0166,38.07641],[-108.01673,38.07626],[-108.01696,38.076],[-108.01711,38.07581],[-108.01715,38.07575],[-108.01722,38.07566],[-108.01727,38.0756],[-108.01733,38.0755],[-108.01734,38.07549],[-108.01742,38.07535],[-108.01743,38.07534],[-108.01752,38.07517],[-108.01771,38.07485],[-108.01773,38.0748],[-108.01781,38.07469],[-108.01782,38.07468],[-108.01789,38.07458],[-108.01793,38.07453],[-108.01794,38.07452],[-108.01799,38.07447],[-108.01807,38.07439],[-108.0181,38.07436],[-108.01817,38.0743],[-108.01825,38.07424],[-108.01839,38.07414],[-108.0185,38.07407],[-108.01857,38.07402],[-108.01861,38.074],[-108.01875,38.07391],[-108.01893,38.0738],[-108.01895,38.07379],[-108.01911,38.07369],[-108.0193,38.07358],[-108.01948,38.07348],[-108.01966,38.07337],[-108.0198,38.07329],[-108.02008,38.07314],[-108.02022,38.07306],[-108.02042,38.07296],[-108.0207,38.07283],[-108.02122,38.0726],[-108.02125,38.07259],[-108.02142,38.07251],[-108.02182,38.07234],[-108.02211,38.07219],[-108.0222,38.07214],[-108.02223,38.07212],[-108.02237,38.07202],[-108.02246,38.07195],[-108.02261,38.07182],[-108.02268,38.07175],[-108.02279,38.07163],[-108.02304,38.07137],[-108.02341,38.07093],[-108.02346,38.07086],[-108.02395,38.07026],[-108.02418,38.06997],[-108.0244,38.06969],[-108.02442,38.06966],[-108.02447,38.06961],[-108.02455,38.06951],[-108.02467,38.06936],[-108.02484,38.06914],[-108.02505,38.06886],[-108.02525,38.06858],[-108.02544,38.06826],[-108.02551,38.06814],[-108.02553,38.06809],[-108.02572,38.06774],[-108.02585,38.06744],[-108.02597,38.06715],[-108.02618,38.06656],[-108.02632,38.06617],[-108.02648,38.06569],[-108.02657,38.06544],[-108.02668,38.06502],[-108.02673,38.0648],[-108.02679,38.06453],[-108.02684,38.06419],[-108.02687,38.06384],[-108.02689,38.06368],[-108.02693,38.06332],[-108.02694,38.06327],[-108.02694,38.06321],[-108.02695,38.06314],[-108.02696,38.06309],[-108.02698,38.06293],[-108.02702,38.06275],[-108.02708,38.06251],[-108.0271,38.06243],[-108.02719,38.06213],[-108.0273,38.06179],[-108.02732,38.06173],[-108.02739,38.06156],[-108.02757,38.06104],[-108.02759,38.06099],[-108.02765,38.06082],[-108.0277,38.06069],[-108.02786,38.06023],[-108.02788,38.06017],[-108.02795,38.06],[-108.02797,38.05995],[-108.02805,38.05976],[-108.02818,38.05949],[-108.02821,38.05945],[-108.02822,38.05942],[-108.02828,38.05933],[-108.0283,38.05928],[-108.02838,38.05917],[-108.02846,38.05904],[-108.02851,38.05896],[-108.0286,38.05885],[-108.02863,38.05881],[-108.02886,38.05851],[-108.02919,38.05812],[-108.02965,38.05756],[-108.02985,38.05732],[-108.03003,38.0571],[-108.03026,38.05679],[-108.03041,38.05657],[-108.03044,38.05652],[-108.03062,38.05625],[-108.03064,38.05622],[-108.03072,38.05609],[-108.03075,38.05604],[-108.03085,38.05588],[-108.03111,38.05545],[-108.03112,38.05544],[-108.03115,38.05539],[-108.03135,38.05508],[-108.03165,38.05461],[-108.03173,38.05447],[-108.03191,38.0542],[-108.03208,38.05393],[-108.03258,38.05313],[-108.03282,38.05271],[-108.03291,38.05255],[-108.03299,38.05239],[-108.03317,38.05206],[-108.03328,38.05181],[-108.03334,38.05169],[-108.03339,38.0516],[-108.03342,38.05153],[-108.03357,38.05118],[-108.03376,38.05076],[-108.03427,38.04957],[-108.0346,38.04882],[-108.03469,38.04864],[-108.03477,38.04847],[-108.0348,38.04842],[-108.03481,38.04839],[-108.03488,38.04825],[-108.03508,38.04787],[-108.03512,38.0478],[-108.03522,38.04764],[-108.03534,38.04743],[-108.03548,38.04719],[-108.03574,38.04678],[-108.03575,38.04676],[-108.0359,38.0465],[-108.03607,38.04621],[-108.03627,38.04583],[-108.03643,38.0455],[-108.03659,38.04517],[-108.03681,38.04469],[-108.03727,38.04365],[-108.03744,38.04331],[-108.03747,38.04326],[-108.03766,38.04293],[-108.03767,38.04292],[-108.03774,38.04282],[-108.03777,38.04278],[-108.03785,38.04266],[-108.03807,38.04239],[-108.03843,38.04201],[-108.03864,38.04178],[-108.03867,38.04174],[-108.03876,38.04163],[-108.03887,38.0415],[-108.0391,38.04121],[-108.03931,38.04091],[-108.03949,38.04066],[-108.03952,38.04061],[-108.03956,38.04054],[-108.03968,38.04035],[-108.03969,38.04033],[-108.03982,38.04011],[-108.03988,38.04],[-108.03995,38.03987],[-108.04002,38.03972],[-108.04005,38.03967],[-108.04011,38.03955],[-108.04012,38.03953],[-108.04013,38.0395],[-108.04035,38.03902],[-108.04046,38.03872],[-108.04069,38.03813],[-108.04081,38.03784],[-108.04085,38.03774],[-108.04102,38.03735],[-108.04132,38.03659],[-108.04142,38.03634],[-108.04155,38.03609],[-108.0416,38.036],[-108.04161,38.03597],[-108.04164,38.03592],[-108.04171,38.0358],[-108.04188,38.03553],[-108.04201,38.03536],[-108.04217,38.03518],[-108.0422,38.03515],[-108.04238,38.03496],[-108.04263,38.03474],[-108.04282,38.03459],[-108.04307,38.03441],[-108.04342,38.03414],[-108.04344,38.03413],[-108.04363,38.03398],[-108.04364,38.03397],[-108.04385,38.03381],[-108.04391,38.03377],[-108.04416,38.03358],[-108.0444,38.03339],[-108.04445,38.03335],[-108.04454,38.03328],[-108.04457,38.03326],[-108.0447,38.03315],[-108.04488,38.033],[-108.04499,38.03292],[-108.04519,38.03273],[-108.04534,38.03259],[-108.04551,38.03242],[-108.04582,38.03211],[-108.04602,38.03188],[-108.04613,38.03175],[-108.04636,38.03147],[-108.04659,38.03117],[-108.0468,38.03087],[-108.04736,38.03],[-108.04739,38.02996],[-108.04743,38.0299],[-108.04747,38.02984],[-108.04749,38.02979],[-108.04756,38.02968],[-108.04805,38.02887],[-108.04815,38.0287],[-108.04818,38.02866],[-108.04838,38.02833],[-108.04845,38.02822],[-108.04859,38.02801],[-108.04871,38.02784],[-108.04885,38.02762],[-108.04898,38.0274],[-108.049,38.02737],[-108.04908,38.02726],[-108.04911,38.02721],[-108.04918,38.0271],[-108.04929,38.02694],[-108.04946,38.0267],[-108.04958,38.02655],[-108.04974,38.02636],[-108.04977,38.02633],[-108.04981,38.02629],[-108.04991,38.02619],[-108.04994,38.02615],[-108.04995,38.02614],[-108.05019,38.02592],[-108.05031,38.02581],[-108.05052,38.02565],[-108.05053,38.02564],[-108.05068,38.02553],[-108.05073,38.02549],[-108.05085,38.02541],[-108.0509,38.02537],[-108.05102,38.02528],[-108.05113,38.0252],[-108.05153,38.02492],[-108.05175,38.02477],[-108.05187,38.02468],[-108.05196,38.02462],[-108.05235,38.02434],[-108.05265,38.02413],[-108.05305,38.02384],[-108.05356,38.02348],[-108.05414,38.02306],[-108.05429,38.02296],[-108.05444,38.02286],[-108.05446,38.02284],[-108.05473,38.02267],[-108.05495,38.02254],[-108.05528,38.02236],[-108.05564,38.02217],[-108.05596,38.02202],[-108.05609,38.02196],[-108.05632,38.02186],[-108.05654,38.02178],[-108.05683,38.02167],[-108.05715,38.02156],[-108.05732,38.0215],[-108.05738,38.02149],[-108.05761,38.02142],[-108.05798,38.02132],[-108.05847,38.02122],[-108.0587,38.02117],[-108.05893,38.02114],[-108.05933,38.02107],[-108.0595,38.02105],[-108.05985,38.021],[-108.05988,38.021],[-108.06018,38.02096],[-108.06022,38.02095],[-108.06056,38.0209],[-108.06066,38.02089],[-108.0611,38.02082],[-108.0611,38.02082],[-108.06103,38.02063],[-108.06097,38.02047],[-108.06084,38.02014],[-108.0608,38.02004],[-108.06074,38.01994],[-108.06065,38.01984],[-108.06061,38.01979],[-108.06056,38.01974],[-108.06044,38.01965],[-108.06031,38.01957],[-108.0602,38.01951],[-108.06009,38.01946],[-108.06001,38.01942],[-108.05985,38.01935],[-108.05957,38.01922],[-108.05919,38.01906],[-108.05917,38.01905],[-108.05886,38.01893],[-108.05871,38.01887],[-108.05865,38.01885],[-108.05855,38.01882],[-108.05836,38.01877],[-108.05818,38.01875],[-108.05807,38.01873],[-108.05794,38.01873],[-108.05765,38.01872],[-108.05702,38.01871],[-108.05689,38.0187],[-108.05674,38.01869],[-108.05657,38.01866],[-108.05644,38.01864],[-108.05625,38.0186],[-108.05603,38.01853],[-108.05593,38.01849],[-108.05584,38.01845],[-108.05572,38.0184],[-108.05562,38.01834],[-108.05541,38.01823],[-108.05513,38.01805],[-108.05508,38.01802],[-108.05506,38.01801],[-108.05478,38.01782],[-108.05443,38.01759],[-108.05428,38.01747],[-108.05414,38.01735],[-108.05401,38.01722],[-108.05388,38.01708],[-108.05381,38.01699],[-108.05375,38.01691],[-108.05364,38.01673],[-108.05353,38.01656],[-108.05344,38.0164],[-108.05324,38.01606],[-108.05296,38.01552],[-108.05296,38.01552],[-108.05261,38.01564],[-108.05261,38.01564],[-108.05252,38.01548],[-108.05251,38.01547],[-108.05242,38.01531],[-108.05224,38.01499],[-108.05201,38.01459],[-108.05196,38.01452],[-108.05194,38.0145],[-108.05194,38.01449],[-108.0519,38.01445],[-108.05184,38.01437],[-108.0518,38.01434],[-108.05177,38.01432],[-108.05165,38.01424],[-108.05151,38.01417],[-108.05141,38.01411],[-108.05133,38.01407],[-108.05128,38.01407],[-108.05123,38.01407],[-108.05123,38.01407],[-108.05118,38.0141],[-108.05116,38.01412],[-108.05115,38.01415],[-108.05115,38.01418],[-108.05115,38.01422],[-108.05117,38.01428],[-108.05119,38.01438],[-108.05127,38.01449],[-108.0513,38.01455],[-108.05132,38.01461],[-108.05132,38.01461],[-108.05124,38.01468],[-108.05113,38.01478],[-108.05109,38.01482],[-108.05104,38.01485],[-108.05099,38.01487],[-108.0509,38.01491]]}}]}