{"type":"FeatureCollection","features":[{"type":"Feature","properties":{"_gpxType":"trk","name":"220 Surprise Ave, Placerville, CO 81320 - Town Park, East Colorado Avenue, Telluride, CO","coordinateProperties":{},"id":71},"geometry":{"type":"LineString","coordinates":[[-108.0509,38.01491],[-108.05099,38.01487],[-108.05104,38.01485],[-108.05109,38.01482],[-108.05113,38.01478],[-108.05124,38.01468],[-108.05132,38.01461],[-108.05132,38.01461],[-108.0513,38.01455],[-108.05127,38.01449],[-108.05119,38.01438],[-108.05117,38.01428],[-108.05115,38.01422],[-108.05115,38.01418],[-108.05115,38.01415],[-108.05116,38.01412],[-108.05118,38.0141],[-108.05123,38.01407],[-108.05123,38.01407],[-108.05128,38.01407],[-108.05133,38.01407],[-108.05141,38.01411],[-108.05151,38.01417],[-108.05165,38.01424],[-108.05177,38.01432],[-108.0518,38.01434],[-108.05184,38.01437],[-108.0519,38.01445],[-108.05194,38.01449],[-108.05194,38.0145],[-108.05196,38.01452],[-108.05201,38.01459],[-108.05224,38.01499],[-108.05242,38.01531],[-108.05251,38.01547],[-108.05252,38.01548],[-108.05261,38.01564],[-108.05261,38.01564],[-108.05296,38.01552],[-108.05296,38.01552],[-108.05241,38.01459],[-108.05212,38.01409],[-108.05196,38.01385],[-108.05184,38.01369],[-108.05179,38.01363],[-108.05178,38.01362],[-108.05176,38.0136],[-108.05165,38.01348],[-108.05164,38.01347],[-108.05151,38.01334],[-108.05138,38.01322],[-108.05124,38.01311],[-108.05111,38.013],[-108.05097,38.01289],[-108.05046,38.01249],[-108.05043,38.01247],[-108.0499,38.01206],[-108.04989,38.01205],[-108.04983,38.012],[-108.04973,38.01193],[-108.04915,38.01149],[-108.04908,38.01144],[-108.04907,38.01143],[-108.04842,38.01096],[-108.0484,38.01095],[-108.04823,38.01083],[-108.04822,38.01082],[-108.04798,38.01065],[-108.04754,38.01033],[-108.04738,38.01021],[-108.04723,38.01009],[-108.0469,38.00982],[-108.04676,38.0097],[-108.04666,38.0096],[-108.04655,38.00949],[-108.04636,38.00929],[-108.04598,38.00883],[-108.0457,38.00849],[-108.04551,38.00829],[-108.04543,38.00821],[-108.04536,38.00815],[-108.04529,38.0081],[-108.04526,38.00807],[-108.04515,38.008],[-108.04499,38.00792],[-108.04475,38.0078],[-108.04454,38.00771],[-108.04442,38.00765],[-108.04431,38.00759],[-108.04421,38.00752],[-108.04417,38.00749],[-108.04409,38.00743],[-108.04401,38.00735],[-108.044,38.00734],[-108.0439,38.00724],[-108.04382,38.00714],[-108.04362,38.00689],[-108.04353,38.00678],[-108.04351,38.00676],[-108.0435,38.00675],[-108.04346,38.00671],[-108.04337,38.00664],[-108.0433,38.00658],[-108.04321,38.00654],[-108.04313,38.00649],[-108.04303,38.00645],[-108.04297,38.00643],[-108.04292,38.00641],[-108.04279,38.00637],[-108.04265,38.00633],[-108.04221,38.00623],[-108.04196,38.00617],[-108.0417,38.00611],[-108.04155,38.00606],[-108.0414,38.006],[-108.04125,38.00594],[-108.04111,38.00586],[-108.04107,38.00584],[-108.04086,38.00571],[-108.04075,38.00564],[-108.04064,38.00559],[-108.04053,38.00555],[-108.04042,38.00551],[-108.04019,38.00544],[-108.03974,38.00531],[-108.03959,38.00526],[-108.03946,38.00521],[-108.03936,38.00516],[-108.03926,38.00511],[-108.03916,38.00505],[-108.03906,38.00498],[-108.03894,38.00489],[-108.03885,38.00482],[-108.03876,38.00474],[-108.03863,38.00459],[-108.0385,38.00444],[-108.03845,38.00438],[-108.03808,38.00388],[-108.03792,38.00365],[-108.03784,38.00354],[-108.03777,38.00342],[-108.03766,38.00321],[-108.03765,38.00318],[-108.03731,38.00251],[-108.03725,38.00238],[-108.03698,38.00184],[-108.03696,38.0018],[-108.0368,38.00151],[-108.03671,38.00134],[-108.03667,38.00125],[-108.03655,38.00106],[-108.03644,38.00091],[-108.03637,38.00082],[-108.03624,38.00067],[-108.0362,38.00064],[-108.03609,38.00053],[-108.03598,38.00044],[-108.03583,38.0003],[-108.03567,38.00017],[-108.03541,37.99995],[-108.03525,37.9998],[-108.03507,37.99963],[-108.03494,37.99951],[-108.03482,37.9994],[-108.03469,37.99928],[-108.03467,37.99925],[-108.03451,37.9991],[-108.03444,37.99904],[-108.03428,37.99887],[-108.03427,37.99885],[-108.0341,37.99864],[-108.03401,37.9985],[-108.0338,37.99816],[-108.03351,37.99767],[-108.03318,37.9971],[-108.03315,37.99705],[-108.03304,37.99689],[-108.03294,37.99675],[-108.03277,37.99656],[-108.03264,37.99644],[-108.03249,37.99633],[-108.03237,37.99626],[-108.03224,37.99618],[-108.03195,37.99604],[-108.0315,37.99585],[-108.03101,37.99566],[-108.03063,37.9955],[-108.02985,37.99518],[-108.02961,37.99505],[-108.02953,37.995],[-108.02932,37.99486],[-108.0291,37.9947],[-108.02906,37.99466],[-108.02889,37.99454],[-108.02872,37.99441],[-108.0285,37.99425],[-108.02831,37.99413],[-108.02825,37.9941],[-108.0282,37.99408],[-108.0281,37.99403],[-108.02805,37.99401],[-108.02798,37.99398],[-108.02786,37.99394],[-108.0277,37.99389],[-108.02749,37.99384],[-108.02732,37.99381],[-108.02714,37.9938],[-108.02693,37.99379],[-108.02683,37.99379],[-108.02681,37.99379],[-108.02674,37.99379],[-108.02658,37.99381],[-108.02641,37.99383],[-108.02569,37.99395],[-108.02567,37.99395],[-108.02544,37.99399],[-108.02513,37.99403],[-108.02498,37.99404],[-108.02479,37.99404],[-108.02463,37.99404],[-108.02445,37.99404],[-108.02435,37.99403],[-108.02426,37.99402],[-108.02408,37.994],[-108.0238,37.99397],[-108.0237,37.99396],[-108.02337,37.99393],[-108.02314,37.99392],[-108.02302,37.99391],[-108.02287,37.99392],[-108.02271,37.99393],[-108.02246,37.99394],[-108.02226,37.99396],[-108.02175,37.99399],[-108.02157,37.994],[-108.02144,37.99401],[-108.0213,37.99401],[-108.02114,37.99401],[-108.02097,37.99399],[-108.02085,37.99398],[-108.02073,37.99396],[-108.02059,37.99394],[-108.02046,37.9939],[-108.02028,37.99386],[-108.02017,37.99383],[-108.0201,37.99381],[-108.01968,37.99367],[-108.01926,37.99354],[-108.01911,37.99349],[-108.01847,37.9933],[-108.01834,37.99325],[-108.01826,37.99323],[-108.01781,37.9931],[-108.01737,37.99298],[-108.017,37.9929],[-108.01679,37.99287],[-108.01659,37.99284],[-108.01639,37.99282],[-108.01618,37.9928],[-108.01597,37.99278],[-108.0158,37.99277],[-108.01563,37.99277],[-108.01537,37.99277],[-108.0151,37.99278],[-108.01507,37.99278],[-108.01484,37.99279],[-108.01451,37.99283],[-108.01418,37.99287],[-108.01345,37.99295],[-108.01267,37.99305],[-108.01258,37.99306],[-108.0121,37.99311],[-108.01168,37.99316],[-108.01095,37.99326],[-108.01091,37.99326],[-108.01015,37.99335],[-108.0101,37.99336],[-108.01004,37.99336],[-108.00961,37.99341],[-108.00938,37.99344],[-108.009,37.99348],[-108.00877,37.9935],[-108.00868,37.9935],[-108.00854,37.99351],[-108.0081,37.99353],[-108.00741,37.99357],[-108.00717,37.99359],[-108.00694,37.99363],[-108.00673,37.99367],[-108.00658,37.99371],[-108.00626,37.99379],[-108.00594,37.99388],[-108.005,37.99415],[-108.00479,37.9942],[-108.00474,37.99422],[-108.00429,37.99434],[-108.00417,37.99437],[-108.00407,37.9944],[-108.00394,37.99443],[-108.00377,37.99447],[-108.00363,37.99449],[-108.00351,37.99451],[-108.00328,37.99453],[-108.00305,37.99456],[-108.00294,37.99456],[-108.00283,37.99457],[-108.00263,37.99457],[-108.00243,37.99456],[-108.00205,37.99455],[-108.00182,37.99454],[-108.0016,37.99454],[-108.00132,37.99454],[-108.00114,37.99454],[-108.0007,37.99455],[-108.00041,37.99456],[-108.00021,37.99455],[-108.00005,37.99453],[-107.99993,37.99452],[-107.99981,37.99449],[-107.99971,37.99446],[-107.99961,37.99443],[-107.99955,37.9944],[-107.99952,37.99439],[-107.99943,37.99434],[-107.99922,37.99424],[-107.99902,37.99413],[-107.99886,37.99404],[-107.99864,37.99393],[-107.99845,37.99384],[-107.99824,37.99376],[-107.9981,37.9937],[-107.99798,37.99366],[-107.99773,37.99356],[-107.99752,37.99348],[-107.99735,37.99341],[-107.99721,37.99336],[-107.99707,37.9933],[-107.99692,37.99324],[-107.99679,37.99318],[-107.99628,37.99295],[-107.99568,37.99268],[-107.9956,37.99265],[-107.9956,37.99264],[-107.99532,37.99252],[-107.99505,37.99239],[-107.99488,37.99229],[-107.9947,37.99219],[-107.99456,37.99209],[-107.99446,37.99201],[-107.99439,37.99195],[-107.99429,37.99185],[-107.99419,37.99174],[-107.99398,37.99151],[-107.99387,37.99136],[-107.99381,37.9913],[-107.99374,37.99121],[-107.99371,37.99117],[-107.99369,37.99115],[-107.99344,37.99081],[-107.99316,37.99046],[-107.99298,37.99022],[-107.99279,37.98997],[-107.99275,37.98991],[-107.99273,37.98988],[-107.9927,37.98982],[-107.99268,37.98979],[-107.99263,37.98968],[-107.9926,37.98958],[-107.99255,37.98941],[-107.99251,37.98924],[-107.99246,37.98897],[-107.99243,37.98881],[-107.99238,37.98864],[-107.99232,37.98848],[-107.99225,37.98833],[-107.99216,37.98819],[-107.99214,37.98815],[-107.99201,37.98797],[-107.99181,37.98772],[-107.99173,37.98763],[-107.99169,37.98757],[-107.99157,37.98742],[-107.99156,37.9874],[-107.99142,37.98717],[-107.99137,37.98709],[-107.99122,37.98683],[-107.99119,37.98676],[-107.99108,37.98657],[-107.99073,37.98592],[-107.99048,37.98546],[-107.99029,37.9851],[-107.99018,37.98487],[-107.99005,37.98451],[-107.98998,37.9843],[-107.98991,37.98409],[-107.9899,37.98406],[-107.9898,37.98374],[-107.98973,37.98354],[-107.98964,37.98333],[-107.98958,37.9832],[-107.98954,37.98311],[-107.98942,37.98289],[-107.9894,37.98286],[-107.9893,37.98269],[-107.9892,37.98254],[-107.98916,37.98248],[-107.98884,37.98204],[-107.98869,37.98183],[-107.98855,37.98161],[-107.98845,37.98145],[-107.98836,37.9813],[-107.98835,37.98127],[-107.98827,37.9811],[-107.98818,37.9809],[-107.98806,37.98059],[-107.98803,37.98049],[-107.98799,37.98037],[-107.98796,37.98026],[-107.98794,37.98014],[-107.98792,37.98002],[-107.98788,37.9797],[-107.98787,37.97963],[-107.98785,37.97952],[-107.98781,37.97937],[-107.98781,37.97935],[-107.98776,37.97921],[-107.98774,37.97917],[-107.9877,37.97906],[-107.98758,37.97882],[-107.98744,37.97859],[-107.98731,37.9784],[-107.98717,37.97821],[-107.98705,37.97806],[-107.98691,37.97792],[-107.98676,37.97776],[-107.98665,37.97764],[-107.98649,37.97747],[-107.98642,37.9774],[-107.98618,37.97717],[-107.98598,37.97699],[-107.98576,37.97682],[-107.98558,37.9767],[-107.9854,37.97658],[-107.98538,37.97657],[-107.9852,37.97646],[-107.98502,37.97635],[-107.98499,37.97633],[-107.98472,37.97618],[-107.98465,37.97614],[-107.98444,37.97603],[-107.98427,37.97594],[-107.98408,37.97584],[-107.98403,37.97581],[-107.98389,37.97574],[-107.98381,37.9757],[-107.9836,37.97558],[-107.98348,37.97551],[-107.98335,37.97543],[-107.98325,37.97535],[-107.98315,37.97528],[-107.98296,37.97513],[-107.98256,37.97476],[-107.98255,37.97475],[-107.98253,37.97474],[-107.98236,37.97459],[-107.98215,37.9744],[-107.98192,37.9742],[-107.98168,37.974],[-107.9815,37.97387],[-107.98147,37.97384],[-107.98142,37.97381],[-107.98132,37.97374],[-107.98114,37.97363],[-107.98096,37.97352],[-107.98055,37.97332],[-107.98034,37.97321],[-107.9803,37.97319],[-107.98002,37.97304],[-107.97985,37.97295],[-107.97969,37.97285],[-107.97956,37.97277],[-107.97947,37.97271],[-107.97927,37.97257],[-107.97926,37.97256],[-107.97922,37.97253],[-107.97905,37.9724],[-107.97894,37.97232],[-107.97852,37.97201],[-107.97839,37.97191],[-107.9777,37.97138],[-107.97702,37.97086],[-107.97669,37.9706],[-107.97643,37.97041],[-107.97635,37.97035],[-107.97609,37.97016],[-107.97604,37.97013],[-107.97592,37.97004],[-107.9758,37.96996],[-107.97572,37.96991],[-107.97521,37.96959],[-107.97499,37.96946],[-107.97454,37.96918],[-107.97409,37.96893],[-107.97386,37.96881],[-107.97362,37.96869],[-107.9734,37.96859],[-107.97334,37.96856],[-107.97326,37.96853],[-107.97289,37.96837],[-107.97258,37.96825],[-107.97234,37.96817],[-107.97211,37.96809],[-107.97197,37.96804],[-107.9719,37.96802],[-107.97178,37.96797],[-107.97163,37.96792],[-107.97149,37.96787],[-107.97132,37.96781],[-107.97116,37.96774],[-107.97103,37.96769],[-107.97091,37.96763],[-107.97089,37.96761],[-107.97079,37.96756],[-107.9707,37.96751],[-107.97068,37.9675],[-107.97034,37.96726],[-107.9702,37.96717],[-107.97005,37.96708],[-107.96999,37.96705],[-107.96996,37.96703],[-107.96987,37.96699],[-107.96979,37.96697],[-107.96977,37.96696],[-107.96968,37.96693],[-107.96958,37.96691],[-107.96949,37.96689],[-107.96936,37.96687],[-107.96933,37.96686],[-107.96916,37.96684],[-107.9689,37.96683],[-107.96888,37.96682],[-107.9686,37.96681],[-107.96821,37.96678],[-107.96795,37.96675],[-107.96777,37.96673],[-107.96768,37.96672],[-107.96755,37.9667],[-107.96743,37.96667],[-107.96733,37.96664],[-107.96718,37.9666],[-107.96694,37.96652],[-107.96676,37.96646],[-107.96659,37.96641],[-107.96644,37.96637],[-107.96629,37.96634],[-107.96613,37.96632],[-107.96591,37.96631],[-107.96569,37.96631],[-107.96542,37.9663],[-107.96526,37.96629],[-107.9651,37.96627],[-107.96489,37.96625],[-107.96465,37.96622],[-107.9644,37.9662],[-107.96428,37.96619],[-107.96415,37.96618],[-107.96389,37.96617],[-107.96362,37.96617],[-107.96334,37.96617],[-107.96306,37.96616],[-107.96293,37.96615],[-107.9628,37.96614],[-107.96267,37.96612],[-107.96254,37.9661],[-107.96233,37.96607],[-107.96212,37.96602],[-107.96194,37.96598],[-107.96177,37.96593],[-107.96164,37.9659],[-107.96152,37.96586],[-107.9614,37.96581],[-107.96133,37.96578],[-107.96128,37.96575],[-107.96114,37.96568],[-107.96096,37.96559],[-107.9608,37.96553],[-107.96064,37.96547],[-107.96049,37.96544],[-107.96035,37.96542],[-107.96019,37.9654],[-107.96004,37.96539],[-107.95987,37.96539],[-107.9597,37.96538],[-107.95954,37.96539],[-107.95934,37.9654],[-107.95915,37.96541],[-107.95863,37.96547],[-107.95851,37.96548],[-107.9584,37.96549],[-107.95829,37.96549],[-107.95818,37.96549],[-107.95805,37.96547],[-107.95792,37.96546],[-107.95781,37.96543],[-107.95769,37.96541],[-107.95728,37.96529],[-107.95686,37.96518],[-107.95655,37.9651],[-107.95622,37.96503],[-107.95621,37.96503],[-107.95595,37.96499],[-107.95567,37.96495],[-107.95532,37.9649],[-107.95519,37.96488],[-107.95507,37.96486],[-107.95495,37.96484],[-107.95484,37.96482],[-107.95469,37.96479],[-107.95455,37.96475],[-107.95435,37.96469],[-107.95425,37.96465],[-107.95416,37.96462],[-107.95403,37.96456],[-107.95392,37.9645],[-107.95372,37.96439],[-107.95353,37.96427],[-107.95323,37.96408],[-107.95287,37.96385],[-107.9526,37.96369],[-107.95233,37.96353],[-107.95205,37.96337],[-107.95195,37.96332],[-107.9519,37.9633],[-107.95175,37.96324],[-107.95175,37.96323],[-107.95154,37.96316],[-107.95132,37.96309],[-107.95058,37.96289],[-107.95022,37.96279],[-107.94987,37.96269],[-107.94983,37.96267],[-107.94957,37.96259],[-107.94944,37.96254],[-107.9493,37.96248],[-107.94906,37.96236],[-107.94882,37.96224],[-107.94862,37.96212],[-107.94852,37.96206],[-107.94842,37.96199],[-107.94814,37.96177],[-107.94787,37.96157],[-107.94732,37.96115],[-107.94715,37.96102],[-107.94677,37.96073],[-107.9465,37.96053],[-107.94648,37.96052],[-107.94635,37.96041],[-107.94633,37.9604],[-107.94622,37.96031],[-107.94613,37.96023],[-107.94606,37.96015],[-107.94596,37.96003],[-107.94588,37.95991],[-107.94583,37.95984],[-107.9458,37.95977],[-107.94573,37.95964],[-107.94562,37.95939],[-107.94552,37.95917],[-107.94551,37.95916],[-107.94547,37.95908],[-107.94543,37.95899],[-107.94542,37.95899],[-107.94535,37.95889],[-107.94526,37.95878],[-107.9452,37.95871],[-107.94513,37.95866],[-107.94508,37.95862],[-107.94498,37.95855],[-107.94487,37.95849],[-107.94475,37.95845],[-107.94463,37.9584],[-107.94458,37.95839],[-107.94406,37.95824],[-107.94398,37.95821],[-107.94383,37.95817],[-107.94341,37.95805],[-107.94319,37.95798],[-107.94298,37.95792],[-107.94263,37.95783],[-107.94225,37.95775],[-107.94223,37.95775],[-107.94211,37.95772],[-107.94207,37.95771],[-107.94187,37.95768],[-107.9417,37.95766],[-107.94166,37.95765],[-107.94159,37.95764],[-107.94148,37.95762],[-107.94122,37.95758],[-107.94119,37.95758],[-107.94114,37.95757],[-107.94098,37.95754],[-107.94092,37.95753],[-107.9406,37.95747],[-107.9403,37.95743],[-107.94016,37.95741],[-107.93992,37.95738],[-107.9398,37.95736],[-107.9397,37.95735],[-107.93965,37.95734],[-107.93957,37.95733],[-107.93949,37.95733],[-107.93921,37.95729],[-107.9392,37.95729],[-107.93912,37.95728],[-107.93896,37.95726],[-107.93889,37.95725],[-107.93864,37.95722],[-107.93852,37.95721],[-107.93838,37.95719],[-107.93816,37.95715],[-107.93801,37.95713],[-107.93786,37.9571],[-107.93753,37.95703],[-107.93723,37.95698],[-107.93711,37.95695],[-107.9369,37.95691],[-107.93674,37.95687],[-107.93654,37.95683],[-107.93624,37.95677],[-107.93623,37.95677],[-107.93588,37.9567],[-107.93558,37.95665],[-107.9353,37.95659],[-107.935,37.95653],[-107.9349,37.95651],[-107.93473,37.95648],[-107.93446,37.95642],[-107.93439,37.95641],[-107.93424,37.95638],[-107.93405,37.95633],[-107.9339,37.95629],[-107.93388,37.95628],[-107.9338,37.95626],[-107.93377,37.95625],[-107.93364,37.9562],[-107.9336,37.95619],[-107.93352,37.95615],[-107.93324,37.95603],[-107.93301,37.9559],[-107.93298,37.95589],[-107.93289,37.95584],[-107.93283,37.9558],[-107.93264,37.9557],[-107.93246,37.95559],[-107.93245,37.95559],[-107.93192,37.95529],[-107.9319,37.95528],[-107.93172,37.95517],[-107.93153,37.95506],[-107.93118,37.95486],[-107.93101,37.95476],[-107.93083,37.95466],[-107.93061,37.95453],[-107.92976,37.95405],[-107.92955,37.95393],[-107.92953,37.95392],[-107.92934,37.95381],[-107.92914,37.95369],[-107.92894,37.95357],[-107.92873,37.95344],[-107.92863,37.95337],[-107.92858,37.95333],[-107.92843,37.95323],[-107.92824,37.95308],[-107.92804,37.95292],[-107.92793,37.95281],[-107.92781,37.95271],[-107.92769,37.95259],[-107.92758,37.95247],[-107.92741,37.95231],[-107.92732,37.95222],[-107.92727,37.95216],[-107.92707,37.95196],[-107.92685,37.95174],[-107.9267,37.9516],[-107.92664,37.95154],[-107.92639,37.9513],[-107.92618,37.9511],[-107.92602,37.95097],[-107.92573,37.95073],[-107.92558,37.95061],[-107.92543,37.9505],[-107.92537,37.95046],[-107.92521,37.95034],[-107.92512,37.95028],[-107.92504,37.95022],[-107.92488,37.95011],[-107.92465,37.94995],[-107.92428,37.9497],[-107.92425,37.94968],[-107.92394,37.94946],[-107.92377,37.94935],[-107.92358,37.94924],[-107.92355,37.94922],[-107.9235,37.94919],[-107.92333,37.94909],[-107.92321,37.94903],[-107.92317,37.949],[-107.92303,37.94893],[-107.92291,37.94888],[-107.92277,37.94882],[-107.9226,37.94875],[-107.9225,37.94872],[-107.92241,37.94869],[-107.92225,37.94863],[-107.92204,37.94856],[-107.92193,37.94853],[-107.92167,37.94846],[-107.92148,37.94841],[-107.92136,37.94838],[-107.92116,37.94834],[-107.92088,37.94829],[-107.92078,37.94827],[-107.92062,37.94825],[-107.92045,37.94823],[-107.92024,37.94821],[-107.92012,37.9482],[-107.92011,37.9482],[-107.91977,37.94817],[-107.91957,37.94816],[-107.91919,37.94813],[-107.9189,37.94811],[-107.91885,37.94811],[-107.91871,37.94809],[-107.91866,37.94809],[-107.91848,37.94808],[-107.9184,37.94808],[-107.91824,37.94807],[-107.91813,37.94807],[-107.91767,37.94807],[-107.91755,37.94807],[-107.91734,37.94807],[-107.91715,37.94807],[-107.91662,37.94808],[-107.91616,37.94809],[-107.91602,37.94809],[-107.91579,37.94809],[-107.915,37.94809],[-107.91497,37.94809],[-107.9142,37.9481],[-107.9139,37.94811],[-107.91361,37.94811],[-107.91346,37.94811],[-107.91331,37.9481],[-107.91301,37.94808],[-107.91271,37.94806],[-107.91238,37.94802],[-107.91206,37.94798],[-107.91187,37.94797],[-107.91153,37.94793],[-107.91134,37.94791],[-107.91113,37.9479],[-107.91101,37.94789],[-107.91075,37.94787],[-107.91061,37.94787],[-107.91057,37.94787],[-107.91037,37.94786],[-107.91034,37.94786],[-107.91033,37.94786],[-107.91005,37.94786],[-107.90989,37.94786],[-107.9098,37.94787],[-107.90944,37.94787],[-107.90922,37.94787],[-107.90908,37.94787],[-107.90897,37.94786],[-107.90888,37.94786],[-107.90877,37.94785],[-107.90869,37.94784],[-107.90836,37.9478],[-107.90824,37.94779],[-107.90807,37.94776],[-107.90801,37.94776],[-107.90791,37.94774],[-107.90785,37.94773],[-107.90779,37.94772],[-107.90768,37.9477],[-107.9074,37.94765],[-107.90734,37.94764],[-107.90718,37.94762],[-107.90712,37.94761],[-107.90695,37.9476],[-107.90689,37.94759],[-107.90618,37.94752],[-107.90537,37.94744],[-107.90514,37.94742],[-107.905,37.94741],[-107.90491,37.9474],[-107.90417,37.94733],[-107.90389,37.94731],[-107.90361,37.94728],[-107.90342,37.94725],[-107.90324,37.94722],[-107.90306,37.94718],[-107.90288,37.94714],[-107.90267,37.94709],[-107.90252,37.94706],[-107.90234,37.94701],[-107.90216,37.94697],[-107.90193,37.94693],[-107.90169,37.9469],[-107.90145,37.94688],[-107.9012,37.94687],[-107.90093,37.94687],[-107.90066,37.94689],[-107.89997,37.94697],[-107.89995,37.94697],[-107.89952,37.94702],[-107.89859,37.94714],[-107.89791,37.94722],[-107.89755,37.94726],[-107.89724,37.94731],[-107.89672,37.94739],[-107.89622,37.94748],[-107.89584,37.94755],[-107.89571,37.94758],[-107.89565,37.94758],[-107.89546,37.94763],[-107.89523,37.94767],[-107.89517,37.94768],[-107.895,37.94771],[-107.89488,37.94773],[-107.89478,37.94775],[-107.89472,37.94775],[-107.89442,37.94779],[-107.89429,37.9478],[-107.89413,37.94781],[-107.89383,37.94782],[-107.89372,37.94783],[-107.89322,37.94785],[-107.89292,37.94786],[-107.89273,37.94786],[-107.89218,37.94788],[-107.89212,37.94788],[-107.89181,37.94789],[-107.89145,37.94791],[-107.89127,37.94791],[-107.89109,37.94791],[-107.89098,37.94791],[-107.89093,37.94791],[-107.89078,37.9479],[-107.89058,37.94788],[-107.89043,37.94786],[-107.89027,37.94782],[-107.89013,37.94778],[-107.89004,37.94776],[-107.88996,37.94773],[-107.88988,37.9477],[-107.8897,37.94764],[-107.88967,37.94763],[-107.88944,37.94756],[-107.88925,37.94751],[-107.88906,37.94748],[-107.88902,37.94747],[-107.8889,37.94746],[-107.8888,37.94745],[-107.88874,37.94745],[-107.88858,37.94745],[-107.88857,37.94745],[-107.88841,37.94745],[-107.88834,37.94746],[-107.8882,37.94747],[-107.88812,37.94748],[-107.88798,37.9475],[-107.88789,37.94752],[-107.88767,37.94756],[-107.88745,37.9476],[-107.88722,37.94764],[-107.88701,37.94768],[-107.88678,37.94772],[-107.88657,37.94775],[-107.88633,37.94779],[-107.8861,37.94784],[-107.88567,37.94791],[-107.8855,37.94794],[-107.88546,37.94795],[-107.88523,37.94798],[-107.8849,37.94804],[-107.88477,37.94806],[-107.88464,37.94809],[-107.88457,37.94811],[-107.88437,37.94815],[-107.88404,37.94824],[-107.88373,37.94833],[-107.88341,37.94843],[-107.88283,37.94861],[-107.88225,37.9488],[-107.88201,37.94887],[-107.88179,37.94893],[-107.88178,37.94894],[-107.88092,37.94917],[-107.88043,37.9493],[-107.88015,37.94936],[-107.87986,37.94943],[-107.87919,37.94959],[-107.87897,37.94964],[-107.87885,37.94967],[-107.87867,37.94972],[-107.87832,37.9498],[-107.87789,37.94991],[-107.87727,37.95005],[-107.87705,37.9501],[-107.87703,37.95011],[-107.87689,37.95013],[-107.87688,37.95014],[-107.87661,37.95019],[-107.87642,37.95023],[-107.87639,37.95024],[-107.87595,37.95031],[-107.87547,37.95037],[-107.87509,37.9504],[-107.87508,37.9504],[-107.87463,37.95043],[-107.87458,37.95044],[-107.87449,37.95044],[-107.8744,37.95044],[-107.87435,37.95045],[-107.87401,37.95046],[-107.87342,37.95048],[-107.87281,37.9505],[-107.87241,37.95051],[-107.87234,37.95049],[-107.8723,37.95048],[-107.8722,37.95047],[-107.87203,37.95046],[-107.8719,37.95045],[-107.87177,37.95044],[-107.87172,37.95043],[-107.87167,37.95041],[-107.87159,37.95038],[-107.87147,37.9503],[-107.87147,37.9503],[-107.87146,37.95029],[-107.87145,37.95028],[-107.87144,37.95027],[-107.87143,37.95026],[-107.87142,37.95026],[-107.87141,37.95025],[-107.8714,37.95024],[-107.87139,37.95024],[-107.87138,37.95024],[-107.87137,37.95024],[-107.87136,37.95023],[-107.87135,37.95023],[-107.87134,37.95023],[-107.87133,37.95023],[-107.87132,37.95023],[-107.87131,37.95023],[-107.8713,37.95023],[-107.87129,37.95023],[-107.87128,37.95024],[-107.87127,37.95024],[-107.87126,37.95024],[-107.87125,37.95024],[-107.87125,37.95025],[-107.87124,37.95025],[-107.87123,37.95025],[-107.87122,37.95026],[-107.87121,37.95027],[-107.8712,37.95027],[-107.87119,37.95028],[-107.87118,37.95029],[-107.87117,37.9503],[-107.87117,37.95031],[-107.87116,37.95031],[-107.87116,37.95032],[-107.87115,37.95032],[-107.87115,37.95033],[-107.87115,37.95034],[-107.87099,37.9504],[-107.87091,37.95043],[-107.87082,37.95046],[-107.87075,37.95047],[-107.8705,37.95053],[-107.87015,37.95057],[-107.86999,37.95059],[-107.86978,37.9506],[-107.86957,37.95062],[-107.86953,37.95063],[-107.86948,37.95065],[-107.86943,37.95067],[-107.86936,37.95068],[-107.86825,37.95076],[-107.86783,37.95081],[-107.86757,37.95085],[-107.86746,37.95086],[-107.86735,37.95088],[-107.86724,37.95089],[-107.86658,37.95097],[-107.86656,37.95097],[-107.86645,37.95099],[-107.8659,37.95105],[-107.8646,37.95117],[-107.8636,37.95123],[-107.86227,37.95129],[-107.86214,37.9513],[-107.86172,37.95132],[-107.85936,37.95142],[-107.85884,37.95144],[-107.85869,37.95144],[-107.85852,37.95143],[-107.85827,37.95142],[-107.85809,37.95141],[-107.85775,37.95136],[-107.8575,37.95132],[-107.85714,37.95125],[-107.85421,37.95065],[-107.85385,37.95057],[-107.85357,37.95051],[-107.85341,37.95047],[-107.853,37.95037],[-107.85299,37.95036],[-107.85278,37.9503],[-107.85276,37.9503],[-107.8525,37.95023],[-107.85212,37.95009],[-107.85193,37.95001],[-107.85078,37.94953],[-107.85012,37.94925],[-107.84936,37.94892],[-107.84905,37.94879],[-107.84867,37.94866],[-107.84842,37.94858],[-107.84829,37.94854],[-107.8482,37.94852],[-107.84781,37.94841],[-107.84778,37.94841],[-107.84725,37.9483],[-107.84608,37.94815],[-107.84486,37.94799],[-107.84464,37.94795],[-107.84452,37.94794],[-107.84396,37.94786],[-107.84374,37.94783],[-107.84205,37.94758],[-107.84149,37.9475],[-107.8406,37.94738],[-107.83858,37.94709],[-107.83835,37.94706],[-107.83805,37.94702],[-107.83723,37.9469],[-107.83701,37.94687],[-107.83634,37.94677],[-107.83546,37.94664],[-107.83485,37.94655],[-107.83483,37.94655],[-107.83343,37.94635],[-107.83286,37.94621],[-107.83262,37.94616],[-107.83241,37.9461],[-107.83221,37.94606],[-107.83219,37.94605],[-107.83083,37.94568],[-107.83001,37.94543],[-107.82983,37.94537],[-107.82883,37.94506],[-107.82812,37.94485],[-107.82716,37.94455],[-107.82707,37.94452],[-107.82686,37.94446],[-107.82647,37.94434],[-107.82607,37.94419],[-107.82602,37.94417],[-107.82582,37.94409],[-107.82566,37.94402],[-107.82559,37.94399],[-107.82542,37.94392],[-107.82445,37.94349],[-107.8241,37.94334],[-107.82403,37.9433],[-107.82366,37.94311],[-107.82329,37.94288],[-107.82215,37.94217],[-107.822,37.94206],[-107.82196,37.94203],[-107.82185,37.94195],[-107.82176,37.94187],[-107.82154,37.94167],[-107.82154,37.94166],[-107.82152,37.94163],[-107.82151,37.94161],[-107.82149,37.94159],[-107.82138,37.94149],[-107.82136,37.94148],[-107.82121,37.94134],[-107.8211,37.94121],[-107.8211,37.94121],[-107.8211,37.9412],[-107.8211,37.94119],[-107.8211,37.94118],[-107.8211,37.94117],[-107.8211,37.94116],[-107.82109,37.94115],[-107.82109,37.94114],[-107.82108,37.94113],[-107.82107,37.94112],[-107.82106,37.94111],[-107.82105,37.9411],[-107.82104,37.9411],[-107.82103,37.94109],[-107.82102,37.94109],[-107.82101,37.94108],[-107.821,37.94108],[-107.82099,37.94108],[-107.82098,37.94108],[-107.82097,37.94108],[-107.82097,37.94107],[-107.82096,37.94107],[-107.82095,37.94107],[-107.82094,37.94107],[-107.82093,37.94108],[-107.82092,37.94108],[-107.82091,37.94108],[-107.8209,37.94108],[-107.82089,37.94108],[-107.82083,37.94105],[-107.82075,37.94102],[-107.8207,37.94099],[-107.82053,37.94088],[-107.8205,37.94085],[-107.82046,37.94083],[-107.8204,37.94082],[-107.82022,37.94068],[-107.81978,37.94032],[-107.81947,37.94007],[-107.81941,37.94002],[-107.81914,37.9398],[-107.81909,37.93976],[-107.81898,37.93967],[-107.8188,37.93953],[-107.8186,37.93939],[-107.81826,37.93915],[-107.81793,37.93901],[-107.81788,37.93899],[-107.81779,37.93896],[-107.81768,37.93893],[-107.81745,37.93887],[-107.81723,37.93881],[-107.81702,37.93875],[-107.8168,37.9387],[-107.81593,37.93847],[-107.81572,37.93841],[-107.81559,37.93838],[-107.81527,37.9383],[-107.81506,37.93824],[-107.81462,37.93813],[-107.81419,37.93802],[-107.81397,37.93796],[-107.81376,37.9379],[-107.81332,37.9378],[-107.8131,37.93775],[-107.81276,37.93767],[-107.81177,37.93741],[-107.81078,37.93715],[-107.80982,37.93692],[-107.80917,37.93675],[-107.80882,37.93666],[-107.80817,37.93648],[-107.80795,37.93642],[-107.80782,37.93639],[-107.8076,37.93633],[-107.80682,37.93612],[-107.80682,37.93612],[-107.80687,37.93602],[-107.80688,37.93601],[-107.80698,37.93575],[-107.80699,37.93565],[-107.807,37.93557],[-107.80697,37.93547],[-107.80691,37.93538],[-107.80681,37.9353],[-107.80669,37.93523],[-107.80651,37.93519],[-107.80637,37.93517],[-107.8063,37.93515],[-107.80568,37.935],[-107.80561,37.93496],[-107.80558,37.93492],[-107.80554,37.93488],[-107.80551,37.93484],[-107.80549,37.93482],[-107.80546,37.93475],[-107.80539,37.93466],[-107.80536,37.93463],[-107.80537,37.9346],[-107.80537,37.93452],[-107.80536,37.93445],[-107.80535,37.93439],[-107.80532,37.93437],[-107.80529,37.93434],[-107.80516,37.93429],[-107.80513,37.93429],[-107.8051,37.93422],[-107.80507,37.93413],[-107.80505,37.93406],[-107.80503,37.93399],[-107.80502,37.93394],[-107.80503,37.93389],[-107.80505,37.93384],[-107.80508,37.93382],[-107.80513,37.93379],[-107.8053,37.93373],[-107.80533,37.93371],[-107.8054,37.93369],[-107.80553,37.93365],[-107.80555,37.93365],[-107.80566,37.93363],[-107.80577,37.93365],[-107.80583,37.93366],[-107.80602,37.93369],[-107.80619,37.93372],[-107.80632,37.93376],[-107.8064,37.93377],[-107.80643,37.93377],[-107.80648,37.93375],[-107.8065,37.93374]]}}]}