{"type":"FeatureCollection","features":[{"type":"Feature","properties":{"_gpxType":"trk","name":"Town Park, East Colorado Avenue, Telluride, CO - Priest Gulch Campground & RV, Colorado 145, Dolores, CO","coordinateProperties":{},"id":72},"geometry":{"type":"LineString","coordinates":[[-107.8065,37.93374],[-107.80648,37.93375],[-107.80643,37.93377],[-107.8064,37.93377],[-107.80632,37.93376],[-107.80619,37.93372],[-107.80602,37.93369],[-107.80583,37.93366],[-107.80577,37.93365],[-107.80566,37.93363],[-107.80555,37.93365],[-107.80553,37.93365],[-107.8054,37.93369],[-107.80533,37.93371],[-107.8053,37.93373],[-107.80513,37.93379],[-107.80508,37.93382],[-107.80505,37.93384],[-107.80503,37.93389],[-107.80502,37.93394],[-107.80503,37.93399],[-107.80505,37.93406],[-107.80507,37.93413],[-107.8051,37.93422],[-107.80513,37.93429],[-107.80512,37.93434],[-107.80511,37.93439],[-107.80511,37.93444],[-107.80512,37.93447],[-107.80514,37.9345],[-107.80517,37.93454],[-107.80526,37.93459],[-107.80536,37.93463],[-107.80539,37.93466],[-107.80546,37.93475],[-107.80549,37.93482],[-107.80551,37.93484],[-107.80554,37.93488],[-107.80558,37.93492],[-107.80561,37.93496],[-107.80568,37.935],[-107.8063,37.93515],[-107.80637,37.93517],[-107.80651,37.93519],[-107.80669,37.93523],[-107.80681,37.9353],[-107.80691,37.93538],[-107.80697,37.93547],[-107.807,37.93557],[-107.80699,37.93565],[-107.80698,37.93575],[-107.80688,37.93601],[-107.80687,37.93602],[-107.80682,37.93612],[-107.80682,37.93612],[-107.8076,37.93633],[-107.80782,37.93639],[-107.80795,37.93642],[-107.80817,37.93648],[-107.80882,37.93666],[-107.80917,37.93675],[-107.80982,37.93692],[-107.81078,37.93715],[-107.81177,37.93741],[-107.81276,37.93767],[-107.8131,37.93775],[-107.81332,37.9378],[-107.81376,37.9379],[-107.81397,37.93796],[-107.81419,37.93802],[-107.81462,37.93813],[-107.81506,37.93824],[-107.81527,37.9383],[-107.81559,37.93838],[-107.81572,37.93841],[-107.81593,37.93847],[-107.8168,37.9387],[-107.81702,37.93875],[-107.81723,37.93881],[-107.81745,37.93887],[-107.81768,37.93893],[-107.81779,37.93896],[-107.81788,37.93899],[-107.81793,37.93901],[-107.81826,37.93915],[-107.8186,37.93939],[-107.8188,37.93953],[-107.81898,37.93967],[-107.81909,37.93976],[-107.81914,37.9398],[-107.81941,37.94002],[-107.81947,37.94007],[-107.81978,37.94032],[-107.82022,37.94068],[-107.8204,37.94082],[-107.82044,37.94089],[-107.82046,37.94092],[-107.82049,37.94095],[-107.82067,37.94107],[-107.8207,37.94109],[-107.82075,37.94113],[-107.8208,37.94119],[-107.8208,37.94119],[-107.8208,37.9412],[-107.82081,37.94121],[-107.82081,37.94122],[-107.82081,37.94123],[-107.82082,37.94124],[-107.82082,37.94125],[-107.82083,37.94126],[-107.82084,37.94127],[-107.82085,37.94128],[-107.82086,37.94128],[-107.82087,37.94129],[-107.82088,37.9413],[-107.82089,37.9413],[-107.8209,37.9413],[-107.82091,37.9413],[-107.82092,37.94131],[-107.82093,37.94131],[-107.82094,37.94131],[-107.82095,37.94131],[-107.82096,37.94131],[-107.82097,37.94131],[-107.82098,37.94131],[-107.82099,37.94131],[-107.82109,37.94135],[-107.82117,37.9414],[-107.82118,37.9414],[-107.82122,37.94143],[-107.82144,37.94161],[-107.82148,37.94163],[-107.82149,37.94164],[-107.82151,37.94165],[-107.82154,37.94166],[-107.82154,37.94167],[-107.82176,37.94187],[-107.82185,37.94195],[-107.82196,37.94203],[-107.822,37.94206],[-107.82215,37.94217],[-107.82329,37.94288],[-107.82366,37.94311],[-107.82403,37.9433],[-107.8241,37.94334],[-107.82445,37.94349],[-107.82542,37.94392],[-107.82559,37.94399],[-107.82566,37.94402],[-107.82582,37.94409],[-107.82602,37.94417],[-107.82607,37.94419],[-107.82647,37.94434],[-107.82686,37.94446],[-107.82707,37.94452],[-107.82716,37.94455],[-107.82812,37.94485],[-107.82883,37.94506],[-107.82983,37.94537],[-107.83001,37.94543],[-107.83083,37.94568],[-107.83219,37.94605],[-107.83221,37.94606],[-107.83241,37.9461],[-107.83262,37.94616],[-107.83286,37.94621],[-107.83343,37.94635],[-107.83483,37.94655],[-107.83485,37.94655],[-107.83546,37.94664],[-107.83634,37.94677],[-107.83701,37.94687],[-107.83723,37.9469],[-107.83805,37.94702],[-107.83835,37.94706],[-107.83858,37.94709],[-107.8406,37.94738],[-107.84149,37.9475],[-107.84205,37.94758],[-107.84374,37.94783],[-107.84396,37.94786],[-107.84452,37.94794],[-107.84464,37.94795],[-107.84486,37.94799],[-107.84608,37.94815],[-107.84725,37.9483],[-107.84778,37.94841],[-107.84781,37.94841],[-107.8482,37.94852],[-107.84829,37.94854],[-107.84842,37.94858],[-107.84867,37.94866],[-107.84905,37.94879],[-107.84936,37.94892],[-107.85012,37.94925],[-107.85078,37.94953],[-107.85193,37.95001],[-107.85212,37.95009],[-107.8525,37.95023],[-107.85276,37.9503],[-107.85278,37.9503],[-107.85299,37.95036],[-107.853,37.95037],[-107.85341,37.95047],[-107.85357,37.95051],[-107.85385,37.95057],[-107.85421,37.95065],[-107.85714,37.95125],[-107.8575,37.95132],[-107.85775,37.95136],[-107.85809,37.95141],[-107.85827,37.95142],[-107.85852,37.95143],[-107.85869,37.95144],[-107.85884,37.95144],[-107.85936,37.95142],[-107.86172,37.95132],[-107.86214,37.9513],[-107.86227,37.95129],[-107.8636,37.95123],[-107.8646,37.95117],[-107.8659,37.95105],[-107.86645,37.95099],[-107.86656,37.95097],[-107.86658,37.95097],[-107.86724,37.95089],[-107.86735,37.95088],[-107.86746,37.95086],[-107.86757,37.95085],[-107.86783,37.95081],[-107.86825,37.95076],[-107.86936,37.95068],[-107.86943,37.95067],[-107.86951,37.95068],[-107.86957,37.95068],[-107.87031,37.95062],[-107.87053,37.95059],[-107.87074,37.95053],[-107.87082,37.95051],[-107.87091,37.95049],[-107.87098,37.95047],[-107.87106,37.95047],[-107.87114,37.95047],[-107.87122,37.95048],[-107.87122,37.95048],[-107.87123,37.95048],[-107.87124,37.95049],[-107.87125,37.95049],[-107.87126,37.95049],[-107.87127,37.9505],[-107.87128,37.9505],[-107.87129,37.9505],[-107.8713,37.9505],[-107.87131,37.9505],[-107.87132,37.9505],[-107.87133,37.9505],[-107.87134,37.9505],[-107.87135,37.9505],[-107.87136,37.9505],[-107.87137,37.9505],[-107.87138,37.9505],[-107.87139,37.9505],[-107.87139,37.95049],[-107.8714,37.95049],[-107.87141,37.95049],[-107.87142,37.95048],[-107.87143,37.95047],[-107.87144,37.95047],[-107.87145,37.95046],[-107.87146,37.95045],[-107.87146,37.95044],[-107.87147,37.95044],[-107.87147,37.95043],[-107.87148,37.95042],[-107.87148,37.95041],[-107.87149,37.9504],[-107.87149,37.95039],[-107.87149,37.95038],[-107.87149,37.95037],[-107.87149,37.95036],[-107.87149,37.95035],[-107.87149,37.95034],[-107.87148,37.95033],[-107.87148,37.95032],[-107.87148,37.95031],[-107.87147,37.95031],[-107.87147,37.9503],[-107.87146,37.95029],[-107.87145,37.95028],[-107.87144,37.95027],[-107.87143,37.95026],[-107.87142,37.95026],[-107.8714,37.95018],[-107.87138,37.95009],[-107.87137,37.95],[-107.87136,37.94995],[-107.87135,37.94991],[-107.87132,37.94987],[-107.87132,37.94976],[-107.87134,37.94958],[-107.87136,37.94951],[-107.87139,37.94937],[-107.87145,37.94918],[-107.87148,37.94907],[-107.87159,37.94859],[-107.87161,37.94848],[-107.87173,37.94793],[-107.87175,37.94775],[-107.87178,37.9476],[-107.87184,37.9473],[-107.87185,37.94724],[-107.87189,37.94708],[-107.87195,37.94684],[-107.87198,37.94675],[-107.87201,37.94668],[-107.87203,37.94663],[-107.87204,37.94661],[-107.87207,37.94656],[-107.87208,37.94655],[-107.87212,37.94647],[-107.87224,37.94631],[-107.87232,37.94621],[-107.87247,37.94608],[-107.87256,37.94601],[-107.87261,37.94598],[-107.87266,37.94595],[-107.87287,37.94584],[-107.87298,37.94579],[-107.87311,37.94574],[-107.87312,37.94574],[-107.87322,37.94572],[-107.87334,37.94568],[-107.87336,37.94568],[-107.8735,37.94565],[-107.87369,37.94563],[-107.87386,37.94561],[-107.87403,37.9456],[-107.87441,37.94561],[-107.87447,37.94561],[-107.87469,37.94562],[-107.8747,37.94562],[-107.87477,37.94562],[-107.87515,37.94563],[-107.87516,37.94563],[-107.87538,37.94564],[-107.87539,37.94564],[-107.87555,37.94565],[-107.87647,37.94569],[-107.87676,37.9457],[-107.87688,37.94571],[-107.87698,37.94571],[-107.87722,37.94572],[-107.87741,37.94573],[-107.87762,37.94573],[-107.8779,37.94572],[-107.87791,37.94572],[-107.87804,37.94571],[-107.87819,37.94569],[-107.87842,37.94563],[-107.87863,37.94556],[-107.87876,37.9455],[-107.8788,37.94548],[-107.87894,37.94539],[-107.87905,37.94532],[-107.87914,37.94524],[-107.87925,37.94514],[-107.87926,37.94514],[-107.87936,37.94504],[-107.87953,37.94488],[-107.87971,37.94469],[-107.87996,37.94448],[-107.88015,37.94436],[-107.88033,37.94426],[-107.88037,37.94424],[-107.88052,37.94417],[-107.88096,37.94398],[-107.88097,37.94398],[-107.88116,37.9439],[-107.88117,37.9439],[-107.88123,37.94387],[-107.88136,37.94381],[-107.88138,37.9438],[-107.88151,37.94372],[-107.88154,37.9437],[-107.8816,37.94366],[-107.8817,37.94357],[-107.88175,37.94351],[-107.88181,37.94343],[-107.88185,37.94331],[-107.88186,37.94324],[-107.88187,37.94317],[-107.88186,37.94309],[-107.88184,37.943],[-107.88181,37.94293],[-107.88178,37.94287],[-107.88175,37.94282],[-107.8817,37.94276],[-107.88167,37.94274],[-107.88166,37.94273],[-107.88165,37.94272],[-107.88147,37.94257],[-107.88097,37.94228],[-107.88095,37.94227],[-107.88036,37.94193],[-107.88022,37.94185],[-107.87977,37.94158],[-107.87955,37.94141],[-107.87952,37.94139],[-107.87941,37.94127],[-107.87939,37.94124],[-107.8793,37.94114],[-107.87928,37.9411],[-107.87927,37.94109],[-107.87921,37.94099],[-107.87916,37.94087],[-107.87914,37.94082],[-107.8791,37.94065],[-107.8791,37.94058],[-107.87909,37.94052],[-107.87908,37.94041],[-107.87909,37.94028],[-107.87912,37.94015],[-107.87917,37.93998],[-107.8793,37.93963],[-107.87935,37.9395],[-107.87959,37.93892],[-107.87969,37.93868],[-107.87975,37.9385],[-107.87983,37.93829],[-107.87991,37.93803],[-107.87997,37.93785],[-107.87999,37.93771],[-107.88002,37.93757],[-107.88003,37.9375],[-107.88003,37.93744],[-107.88004,37.93733],[-107.88004,37.93719],[-107.88002,37.93694],[-107.88,37.93676],[-107.87997,37.93657],[-107.87997,37.93654],[-107.87995,37.93639],[-107.87994,37.93637],[-107.87992,37.93616],[-107.87988,37.93592],[-107.8798,37.93529],[-107.87974,37.93492],[-107.87974,37.9349],[-107.87972,37.93479],[-107.87965,37.93428],[-107.87964,37.93424],[-107.87964,37.93408],[-107.87964,37.93405],[-107.87963,37.93387],[-107.87963,37.93386],[-107.87963,37.93362],[-107.87964,37.93342],[-107.87968,37.93316],[-107.87973,37.933],[-107.87981,37.93282],[-107.87987,37.9327],[-107.87993,37.93255],[-107.87999,37.93244],[-107.88004,37.93237],[-107.88009,37.93225],[-107.88025,37.93198],[-107.88033,37.93185],[-107.88045,37.93166],[-107.88056,37.93146],[-107.88064,37.93129],[-107.88074,37.93104],[-107.88081,37.93087],[-107.88086,37.93077],[-107.8809,37.93064],[-107.8811,37.93013],[-107.88118,37.92993],[-107.88125,37.92976],[-107.88132,37.92958],[-107.88141,37.92936],[-107.88145,37.92924],[-107.88158,37.9289],[-107.88164,37.92872],[-107.88177,37.92837],[-107.88184,37.9282],[-107.88195,37.92788],[-107.88209,37.92751],[-107.88217,37.9273],[-107.8823,37.92695],[-107.88232,37.92692],[-107.88257,37.92615],[-107.88267,37.92583],[-107.8827,37.92571],[-107.88282,37.92531],[-107.88298,37.92475],[-107.88299,37.92472],[-107.88314,37.9242],[-107.88319,37.92404],[-107.88327,37.92374],[-107.8834,37.92332],[-107.88345,37.92315],[-107.8835,37.92299],[-107.88351,37.92297],[-107.88352,37.92292],[-107.8836,37.92262],[-107.88362,37.92255],[-107.88374,37.92218],[-107.8838,37.92192],[-107.88384,37.92166],[-107.88385,37.92156],[-107.88386,37.9215],[-107.88387,37.92135],[-107.88389,37.92119],[-107.88389,37.92101],[-107.88385,37.92055],[-107.88385,37.92049],[-107.88382,37.92031],[-107.88378,37.92009],[-107.88373,37.91984],[-107.88372,37.91978],[-107.8837,37.9196],[-107.88367,37.91942],[-107.88367,37.91939],[-107.88365,37.91924],[-107.88364,37.91916],[-107.88362,37.91906],[-107.88356,37.91871],[-107.88354,37.91863],[-107.88345,37.91817],[-107.88339,37.91785],[-107.88338,37.91782],[-107.88329,37.91728],[-107.88328,37.9172],[-107.88327,37.9171],[-107.88325,37.91693],[-107.8832,37.91655],[-107.88314,37.91608],[-107.88313,37.91603],[-107.8831,37.91562],[-107.88309,37.91537],[-107.88312,37.91516],[-107.88317,37.91493],[-107.88321,37.91478],[-107.88322,37.91476],[-107.88328,37.91461],[-107.88332,37.9145],[-107.88335,37.91444],[-107.88339,37.91434],[-107.88348,37.91419],[-107.88363,37.91395],[-107.88384,37.91369],[-107.88397,37.91354],[-107.88406,37.91345],[-107.88415,37.91336],[-107.88431,37.91322],[-107.88451,37.91304],[-107.88483,37.91277],[-107.88491,37.91271],[-107.88499,37.91264],[-107.88515,37.91251],[-107.88522,37.91245],[-107.88531,37.91238],[-107.88547,37.91226],[-107.88559,37.91215],[-107.88574,37.91202],[-107.88574,37.91201],[-107.8859,37.91188],[-107.88601,37.91179],[-107.88605,37.91175],[-107.88622,37.91163],[-107.88638,37.9115],[-107.88648,37.91143],[-107.8867,37.91125],[-107.88672,37.91124],[-107.88686,37.91112],[-107.88706,37.91096],[-107.88718,37.91086],[-107.88734,37.91073],[-107.88735,37.91072],[-107.88762,37.9105],[-107.88765,37.91047],[-107.88767,37.91046],[-107.88781,37.91034],[-107.88783,37.91033],[-107.88798,37.9102],[-107.8882,37.91001],[-107.88828,37.90995],[-107.88829,37.90994],[-107.88851,37.90975],[-107.8886,37.90967],[-107.88876,37.90954],[-107.88885,37.90946],[-107.8889,37.90942],[-107.88891,37.90941],[-107.88907,37.90928],[-107.88921,37.90916],[-107.88922,37.90914],[-107.88937,37.90903],[-107.88938,37.90901],[-107.8894,37.909],[-107.88952,37.9089],[-107.88954,37.90888],[-107.88989,37.9086],[-107.89018,37.90835],[-107.89028,37.90827],[-107.89031,37.90825],[-107.89046,37.90809],[-107.89065,37.90783],[-107.89073,37.90773],[-107.89078,37.90763],[-107.8908,37.9076],[-107.89087,37.90747],[-107.89088,37.90745],[-107.89089,37.90744],[-107.89095,37.9073],[-107.89098,37.90722],[-107.89105,37.90704],[-107.89112,37.90682],[-107.89115,37.90669],[-107.89118,37.90656],[-107.89119,37.90642],[-107.8912,37.90637],[-107.89121,37.90624],[-107.89121,37.90619],[-107.89121,37.90599],[-107.8912,37.90587],[-107.89118,37.90534],[-107.89117,37.90515],[-107.89116,37.90497],[-107.89116,37.9048],[-107.89116,37.90479],[-107.89114,37.90443],[-107.89113,37.90438],[-107.89113,37.90425],[-107.89111,37.90407],[-107.89111,37.90363],[-107.8911,37.90353],[-107.89109,37.90335],[-107.89109,37.90329],[-107.89106,37.90286],[-107.89101,37.90245],[-107.89098,37.90215],[-107.89095,37.90179],[-107.89095,37.90172],[-107.89094,37.90155],[-107.89094,37.90154],[-107.89093,37.9014],[-107.89091,37.901],[-107.8909,37.90085],[-107.8909,37.90083],[-107.8909,37.90081],[-107.89089,37.90063],[-107.89089,37.90052],[-107.89088,37.90016],[-107.89088,37.89964],[-107.89089,37.89924],[-107.89088,37.8987],[-107.89087,37.89856],[-107.89086,37.89829],[-107.89081,37.89786],[-107.8908,37.89781],[-107.89072,37.89741],[-107.89065,37.89708],[-107.89056,37.89676],[-107.89055,37.8967],[-107.89052,37.89659],[-107.89045,37.89637],[-107.89039,37.89619],[-107.89036,37.89611],[-107.89028,37.89588],[-107.89018,37.89559],[-107.89012,37.89544],[-107.89005,37.89524],[-107.88999,37.8951],[-107.88994,37.89499],[-107.88989,37.89487],[-107.88984,37.89473],[-107.88977,37.89456],[-107.8897,37.89439],[-107.88963,37.89421],[-107.88957,37.89404],[-107.88945,37.89375],[-107.88943,37.8937],[-107.88937,37.89353],[-107.88927,37.89328],[-107.88917,37.89301],[-107.8891,37.89284],[-107.88908,37.89278],[-107.88903,37.89267],[-107.889,37.89259],[-107.88897,37.89249],[-107.88893,37.89239],[-107.88891,37.89232],[-107.88886,37.89216],[-107.88886,37.89215],[-107.8888,37.89197],[-107.8888,37.89195],[-107.88875,37.89179],[-107.88873,37.89172],[-107.88871,37.89162],[-107.88867,37.89144],[-107.88863,37.89126],[-107.8886,37.89113],[-107.88859,37.89109],[-107.88856,37.89088],[-107.8885,37.89055],[-107.88844,37.89013],[-107.88838,37.88976],[-107.88833,37.88945],[-107.8883,37.88923],[-107.88824,37.88891],[-107.88821,37.88868],[-107.88819,37.88844],[-107.8882,37.88824],[-107.88826,37.88802],[-107.88827,37.88797],[-107.88837,37.88771],[-107.8884,37.88762],[-107.88847,37.88745],[-107.88855,37.88728],[-107.88856,37.88725],[-107.88862,37.88711],[-107.88869,37.88694],[-107.88871,37.88691],[-107.88877,37.88677],[-107.88884,37.8866],[-107.88892,37.88643],[-107.88892,37.88642],[-107.88893,37.8864],[-107.88904,37.886],[-107.88906,37.88573],[-107.88907,37.88569],[-107.88906,37.88555],[-107.88906,37.88541],[-107.88905,37.88537],[-107.88905,37.88533],[-107.88902,37.88517],[-107.88891,37.88486],[-107.88882,37.88464],[-107.8888,37.88461],[-107.88866,37.88436],[-107.8886,37.88428],[-107.88834,37.8839],[-107.88807,37.88347],[-107.88805,37.88343],[-107.88795,37.88327],[-107.88794,37.88324],[-107.88786,37.8831],[-107.88783,37.88304],[-107.88775,37.88285],[-107.88771,37.88276],[-107.88767,37.88265],[-107.88766,37.88259],[-107.88762,37.88245],[-107.88758,37.88223],[-107.88757,37.88215],[-107.88758,37.88191],[-107.88763,37.88167],[-107.88767,37.88152],[-107.88768,37.88146],[-107.8877,37.88128],[-107.88768,37.88112],[-107.88764,37.88101],[-107.88758,37.8809],[-107.88755,37.88087],[-107.88748,37.8808],[-107.88733,37.88069],[-107.88722,37.88063],[-107.88717,37.88061],[-107.887,37.88055],[-107.88684,37.88049],[-107.88681,37.88048],[-107.88666,37.88042],[-107.88645,37.88033],[-107.8863,37.88023],[-107.88618,37.88014],[-107.88606,37.88002],[-107.88597,37.87992],[-107.88588,37.87977],[-107.88586,37.87974],[-107.88577,37.87956],[-107.88571,37.8794],[-107.88565,37.87928],[-107.88551,37.87887],[-107.88547,37.87871],[-107.88546,37.87866],[-107.88544,37.87852],[-107.88543,37.87835],[-107.88543,37.87817],[-107.88543,37.87811],[-107.88545,37.87779],[-107.88544,37.87769],[-107.88543,37.87761],[-107.88537,37.87737],[-107.8853,37.87722],[-107.88528,37.87717],[-107.88519,37.87699],[-107.88508,37.87679],[-107.88489,37.87643],[-107.88484,37.87632],[-107.88469,37.87603],[-107.88467,37.87599],[-107.88462,37.87585],[-107.88456,37.87563],[-107.88452,37.87546],[-107.88444,37.87506],[-107.88437,37.87475],[-107.88426,37.8743],[-107.88424,37.87422],[-107.88418,37.87401],[-107.88413,37.87387],[-107.88412,37.87384],[-107.88408,37.87371],[-107.88399,37.87353],[-107.88392,37.87339],[-107.88378,37.87314],[-107.88371,37.87304],[-107.88359,37.87288],[-107.88345,37.87269],[-107.88335,37.87258],[-107.88308,37.8723],[-107.88265,37.87187],[-107.88263,37.87185],[-107.88225,37.87148],[-107.88222,37.87145],[-107.88194,37.87117],[-107.88187,37.8711],[-107.88146,37.87068],[-107.88138,37.87059],[-107.88124,37.87043],[-107.88114,37.87029],[-107.88103,37.87013],[-107.88102,37.87012],[-107.88091,37.86994],[-107.88076,37.86969],[-107.88068,37.86956],[-107.88036,37.869],[-107.88027,37.86887],[-107.88015,37.86869],[-107.88004,37.86857],[-107.87994,37.86845],[-107.87979,37.86831],[-107.8797,37.86826],[-107.87949,37.86812],[-107.87905,37.8679],[-107.87901,37.86788],[-107.87855,37.86766],[-107.87829,37.86751],[-107.87807,37.86738],[-107.87758,37.86704],[-107.87711,37.8667],[-107.87708,37.86668],[-107.87672,37.86642],[-107.87637,37.86619],[-107.87621,37.86611],[-107.87605,37.86603],[-107.87557,37.86586],[-107.87515,37.86569],[-107.8748,37.86552],[-107.87478,37.86551],[-107.87462,37.86541],[-107.87445,37.86529],[-107.87421,37.86514],[-107.87357,37.86472],[-107.87338,37.86463],[-107.87323,37.86454],[-107.87313,37.86449],[-107.87302,37.86444],[-107.87286,37.86437],[-107.87217,37.86411],[-107.87213,37.8641],[-107.87197,37.86404],[-107.87183,37.86398],[-107.87163,37.8639],[-107.87152,37.86384],[-107.87143,37.86377],[-107.87136,37.86372],[-107.87132,37.86368],[-107.87128,37.86364],[-107.87126,37.8636],[-107.87123,37.86356],[-107.87117,37.86344],[-107.87116,37.86344],[-107.8711,37.86327],[-107.87109,37.86327],[-107.87103,37.8631],[-107.87096,37.86292],[-107.87093,37.86285],[-107.87089,37.86275],[-107.87088,37.86273],[-107.87082,37.8626],[-107.87076,37.86252],[-107.8707,37.86243],[-107.87063,37.86236],[-107.87057,37.86229],[-107.87056,37.86228],[-107.8704,37.86213],[-107.87029,37.86202],[-107.87024,37.86198],[-107.87022,37.86196],[-107.87015,37.8619],[-107.87002,37.86178],[-107.86996,37.86172],[-107.86994,37.86169],[-107.8699,37.86164],[-107.86987,37.86158],[-107.86984,37.86152],[-107.86982,37.86149],[-107.86979,37.8614],[-107.86978,37.8613],[-107.86977,37.86119],[-107.86978,37.86117],[-107.86978,37.8611],[-107.8698,37.861],[-107.8698,37.86099],[-107.86981,37.86096],[-107.86985,37.86084],[-107.86985,37.86082],[-107.86991,37.86068],[-107.86998,37.8605],[-107.87007,37.86031],[-107.87013,37.8602],[-107.87019,37.8601],[-107.87026,37.86001],[-107.87033,37.85993],[-107.8704,37.85986],[-107.87048,37.85981],[-107.87055,37.85976],[-107.87069,37.8597],[-107.87072,37.85968],[-107.87076,37.85967],[-107.87085,37.85964],[-107.87094,37.85962],[-107.87097,37.85961],[-107.87104,37.8596],[-107.87106,37.8596],[-107.87112,37.85959],[-107.87116,37.85959],[-107.87132,37.85959],[-107.87148,37.8596],[-107.87161,37.85962],[-107.87176,37.85965],[-107.8721,37.85971],[-107.87224,37.85973],[-107.87272,37.85983],[-107.87276,37.85984],[-107.87314,37.85992],[-107.87377,37.86004],[-107.87442,37.86016],[-107.87465,37.86021],[-107.87479,37.86024],[-107.87505,37.86033],[-107.87537,37.86043],[-107.87569,37.86055],[-107.87608,37.86067],[-107.87613,37.86068],[-107.87654,37.86078],[-107.87676,37.86081],[-107.87688,37.86083],[-107.87724,37.86087],[-107.87728,37.86087],[-107.87767,37.86089],[-107.8781,37.86089],[-107.8785,37.86089],[-107.87851,37.86089],[-107.87889,37.86089],[-107.87895,37.86089],[-107.87925,37.86087],[-107.87956,37.86082],[-107.8798,37.86075],[-107.87998,37.86067],[-107.8801,37.86061],[-107.88028,37.86049],[-107.88037,37.8604],[-107.88047,37.86029],[-107.88051,37.86023],[-107.88059,37.86011],[-107.88071,37.85991],[-107.88072,37.8599],[-107.88081,37.85975],[-107.88083,37.85972],[-107.88093,37.8596],[-107.88094,37.85958],[-107.88102,37.8595],[-107.88116,37.85942],[-107.88128,37.85939],[-107.88134,37.85937],[-107.88152,37.85932],[-107.88168,37.85927],[-107.88173,37.85925],[-107.88181,37.8592],[-107.88192,37.85913],[-107.88203,37.85904],[-107.88212,37.85893],[-107.88212,37.85892],[-107.8822,37.85883],[-107.88233,37.85873],[-107.88243,37.85868],[-107.8826,37.85862],[-107.88279,37.85856],[-107.88297,37.85847],[-107.88306,37.85841],[-107.88315,37.85833],[-107.88327,37.85816],[-107.88339,37.85796],[-107.88356,37.85767],[-107.88375,37.85736],[-107.88391,37.85709],[-107.88411,37.85677],[-107.88426,37.85651],[-107.88434,37.85637],[-107.8845,37.85614],[-107.88471,37.85588],[-107.88489,37.85566],[-107.88507,37.85542],[-107.88508,37.8554],[-107.88515,37.85531],[-107.8852,37.85525],[-107.88524,37.85519],[-107.88526,37.85513],[-107.88529,37.85506],[-107.88531,37.85499],[-107.88531,37.85491],[-107.88531,37.85485],[-107.8853,37.85479],[-107.88526,37.85469],[-107.8852,37.85458],[-107.88516,37.85454],[-107.88512,37.85449],[-107.88503,37.85441],[-107.88496,37.85436],[-107.88493,37.85433],[-107.88472,37.85419],[-107.88454,37.85407],[-107.88437,37.85394],[-107.8843,37.85389],[-107.88426,37.85386],[-107.8842,37.85382],[-107.88409,37.85373],[-107.88394,37.85357],[-107.88381,37.85342],[-107.88379,37.85339],[-107.88371,37.85329],[-107.88369,37.85327],[-107.88367,37.85324],[-107.88357,37.85307],[-107.88349,37.85291],[-107.88347,37.85286],[-107.88341,37.85274],[-107.8834,37.85271],[-107.88336,37.85263],[-107.88333,37.85257],[-107.88323,37.85233],[-107.88318,37.85223],[-107.88303,37.85195],[-107.88292,37.85173],[-107.88283,37.85157],[-107.88273,37.85134],[-107.88269,37.85122],[-107.88267,37.85115],[-107.88266,37.85111],[-107.88263,37.8509],[-107.88261,37.85071],[-107.88261,37.85069],[-107.8826,37.85054],[-107.88261,37.85051],[-107.88262,37.85037],[-107.88265,37.85018],[-107.88266,37.85015],[-107.88269,37.85004],[-107.88271,37.84997],[-107.88277,37.8498],[-107.88279,37.84971],[-107.88287,37.84945],[-107.88288,37.84941],[-107.8829,37.84934],[-107.88291,37.84927],[-107.88293,37.84916],[-107.88294,37.8491],[-107.88296,37.84894],[-107.88296,37.84877],[-107.88297,37.84862],[-107.88297,37.84859],[-107.88296,37.84856],[-107.88294,37.84838],[-107.88294,37.84837],[-107.88288,37.84802],[-107.88278,37.84739],[-107.88275,37.84721],[-107.88272,37.84704],[-107.88266,37.84657],[-107.88264,37.84644],[-107.88263,37.84639],[-107.8826,37.84622],[-107.88256,37.84604],[-107.88253,37.84586],[-107.88253,37.84583],[-107.88251,37.84568],[-107.88249,37.84558],[-107.88249,37.84545],[-107.88249,37.84532],[-107.88251,37.84515],[-107.88251,37.84514],[-107.88253,37.84502],[-107.88255,37.84497],[-107.88257,37.84487],[-107.88265,37.8447],[-107.88269,37.84461],[-107.88278,37.84447],[-107.88289,37.8443],[-107.88303,37.84413],[-107.88325,37.84385],[-107.8835,37.84355],[-107.88361,37.84341],[-107.88373,37.84327],[-107.88386,37.84311],[-107.88399,37.84296],[-107.88495,37.84178],[-107.8851,37.8416],[-107.88523,37.84145],[-107.88542,37.84122],[-107.88573,37.84083],[-107.88584,37.8407],[-107.88584,37.84069],[-107.88595,37.84055],[-107.88596,37.84054],[-107.88603,37.84042],[-107.88605,37.84037],[-107.8861,37.84028],[-107.88615,37.84017],[-107.88618,37.84007],[-107.8862,37.83997],[-107.88623,37.83985],[-107.88627,37.83958],[-107.8863,37.83936],[-107.8863,37.83932],[-107.88631,37.83919],[-107.88632,37.83908],[-107.88635,37.83892],[-107.88636,37.83883],[-107.88638,37.83877],[-107.88642,37.83862],[-107.88647,37.83845],[-107.88653,37.83827],[-107.88657,37.83809],[-107.88659,37.83797],[-107.88659,37.83796],[-107.88661,37.83783],[-107.88663,37.83769],[-107.88663,37.83758],[-107.88663,37.8373],[-107.88662,37.83709],[-107.88661,37.83692],[-107.8866,37.8367],[-107.88659,37.83619],[-107.8866,37.83601],[-107.88661,37.83595],[-107.88664,37.8358],[-107.88665,37.83578],[-107.88669,37.83563],[-107.8867,37.8356],[-107.88677,37.8354],[-107.88697,37.83506],[-107.8872,37.83474],[-107.88732,37.83457],[-107.88743,37.8344],[-107.88751,37.83426],[-107.88758,37.83412],[-107.8876,37.83406],[-107.88762,37.834],[-107.88764,37.83396],[-107.88766,37.83389],[-107.8877,37.83371],[-107.88773,37.83358],[-107.88776,37.83342],[-107.88778,37.8333],[-107.88782,37.83317],[-107.88787,37.83303],[-107.88792,37.83284],[-107.88803,37.83247],[-107.88811,37.8323],[-107.88816,37.83223],[-107.88826,37.83212],[-107.88839,37.83199],[-107.88853,37.83187],[-107.88861,37.83181],[-107.88881,37.83163],[-107.889,37.83147],[-107.88917,37.83132],[-107.88942,37.8311],[-107.88967,37.83087],[-107.8899,37.83065],[-107.89019,37.83039],[-107.89037,37.83022],[-107.89056,37.83005],[-107.89075,37.82988],[-107.89083,37.8298],[-107.89091,37.82975],[-107.89095,37.82972],[-107.89113,37.82958],[-107.89115,37.82956],[-107.89135,37.82942],[-107.89159,37.8293],[-107.89194,37.82913],[-107.89244,37.8289],[-107.89245,37.82889],[-107.89263,37.8288],[-107.8929,37.82867],[-107.89306,37.82857],[-107.89322,37.82845],[-107.89333,37.82836],[-107.8934,37.82829],[-107.89356,37.82813],[-107.89362,37.82805],[-107.8937,37.82794],[-107.89385,37.82774],[-107.89398,37.82754],[-107.89407,37.82741],[-107.89429,37.82708],[-107.8943,37.82706],[-107.89443,37.82683],[-107.89455,37.82664],[-107.89467,37.82639],[-107.8947,37.82633],[-107.89474,37.82623],[-107.89478,37.82612],[-107.8948,37.82605],[-107.89485,37.82588],[-107.89497,37.82548],[-107.89501,37.82536],[-107.89518,37.82484],[-107.89528,37.82449],[-107.89528,37.82448],[-107.89536,37.82422],[-107.89544,37.82399],[-107.89552,37.82377],[-107.89556,37.82361],[-107.89561,37.82343],[-107.8957,37.82309],[-107.89571,37.82308],[-107.89572,37.82302],[-107.89577,37.82291],[-107.89585,37.82272],[-107.89596,37.82252],[-107.89613,37.82226],[-107.89614,37.82226],[-107.89614,37.82225],[-107.89623,37.82213],[-107.89626,37.8221],[-107.8964,37.82195],[-107.89653,37.82182],[-107.89653,37.82181],[-107.89658,37.82177],[-107.89668,37.82167],[-107.89682,37.82154],[-107.89685,37.82151],[-107.89713,37.82127],[-107.89728,37.82114],[-107.89732,37.82111],[-107.89759,37.82089],[-107.89775,37.82075],[-107.89776,37.82075],[-107.89784,37.82068],[-107.89799,37.82054],[-107.89814,37.82039],[-107.89818,37.82033],[-107.89827,37.82021],[-107.89839,37.82005],[-107.89851,37.81986],[-107.89852,37.81984],[-107.89862,37.81965],[-107.89871,37.81947],[-107.89884,37.81916],[-107.89895,37.81891],[-107.89898,37.81885],[-107.89905,37.81868],[-107.89912,37.81851],[-107.89928,37.81817],[-107.89951,37.81766],[-107.89958,37.81749],[-107.8996,37.81746],[-107.89973,37.81715],[-107.8998,37.81698],[-107.89987,37.81681],[-107.89991,37.81671],[-107.89995,37.81664],[-107.9001,37.8163],[-107.90022,37.81608],[-107.90029,37.81597],[-107.90034,37.81588],[-107.90049,37.81568],[-107.90051,37.81566],[-107.9006,37.81556],[-107.90073,37.81543],[-107.90087,37.8153],[-107.90102,37.81518],[-107.9012,37.81505],[-107.90142,37.81492],[-107.90158,37.81483],[-107.90176,37.81474],[-107.90185,37.8147],[-107.90198,37.81463],[-107.90204,37.81461],[-107.90244,37.81443],[-107.90251,37.8144],[-107.90302,37.81418],[-107.90324,37.81409],[-107.90344,37.81401],[-107.90384,37.81383],[-107.90407,37.81373],[-107.90443,37.81356],[-107.90481,37.81336],[-107.90494,37.8133],[-107.905,37.81327],[-107.90519,37.81316],[-107.90543,37.81303],[-107.90589,37.81277],[-107.9075,37.81177],[-107.90768,37.81166],[-107.90786,37.81155],[-107.90804,37.81144],[-107.9083,37.81128],[-107.90869,37.81105],[-107.90878,37.81099],[-107.90927,37.81069],[-107.90941,37.8106],[-107.91003,37.81022],[-107.91051,37.80992],[-107.91075,37.80977],[-107.91127,37.80945],[-107.91159,37.80925],[-107.91206,37.80899],[-107.91239,37.80882],[-107.91274,37.80864],[-107.9131,37.80848],[-107.91358,37.80828],[-107.91431,37.80798],[-107.91535,37.80757],[-107.91542,37.80754],[-107.91584,37.80737],[-107.91618,37.80725],[-107.91628,37.80722],[-107.91639,37.80718],[-107.91659,37.80713],[-107.91679,37.80708],[-107.91707,37.80705],[-107.91727,37.80703],[-107.91759,37.80703],[-107.9194,37.80706],[-107.91984,37.80706],[-107.92007,37.80706],[-107.92027,37.80704],[-107.92051,37.80701],[-107.92066,37.80698],[-107.92067,37.80698],[-107.92094,37.80691],[-107.92118,37.80683],[-107.92145,37.80673],[-107.92209,37.8065],[-107.92297,37.80618],[-107.92357,37.80595],[-107.92358,37.80594],[-107.92382,37.80583],[-107.92402,37.8057],[-107.92413,37.80562],[-107.92423,37.80554],[-107.92436,37.80541],[-107.92447,37.80528],[-107.92455,37.80518],[-107.92465,37.80504],[-107.92471,37.80492],[-107.92475,37.80484],[-107.9248,37.80471],[-107.92481,37.80469],[-107.92485,37.80454],[-107.92492,37.80418],[-107.92502,37.80345],[-107.92508,37.80311],[-107.92508,37.80309],[-107.92513,37.80285],[-107.92519,37.80259],[-107.92524,37.80242],[-107.92531,37.80227],[-107.92533,37.80223],[-107.92535,37.80218],[-107.9254,37.8021],[-107.92547,37.80198],[-107.92557,37.80183],[-107.92569,37.80167],[-107.92585,37.80148],[-107.92612,37.80114],[-107.92643,37.80077],[-107.92674,37.8004],[-107.92687,37.80025],[-107.92699,37.80013],[-107.92717,37.79997],[-107.92722,37.79993],[-107.92735,37.79982],[-107.9275,37.79972],[-107.92755,37.79968],[-107.92773,37.79955],[-107.92807,37.79932],[-107.92858,37.79899],[-107.92886,37.7988],[-107.92912,37.79864],[-107.92933,37.79853],[-107.92957,37.7984],[-107.93007,37.79816],[-107.93042,37.79799],[-107.93071,37.79782],[-107.9309,37.7977],[-107.931,37.79764],[-107.93108,37.79759],[-107.93126,37.79746],[-107.93142,37.79735],[-107.93181,37.79709],[-107.93199,37.79697],[-107.93218,37.79686],[-107.93232,37.79679],[-107.93248,37.79672],[-107.93266,37.79665],[-107.93282,37.7966],[-107.93297,37.79656],[-107.93313,37.79652],[-107.93327,37.79649],[-107.93339,37.79647],[-107.93351,37.79646],[-107.93364,37.79645],[-107.93383,37.79645],[-107.93405,37.79645],[-107.93452,37.79644],[-107.9346,37.79644],[-107.93494,37.79643],[-107.93516,37.79642],[-107.93536,37.7964],[-107.93552,37.79638],[-107.93571,37.79634],[-107.93591,37.7963],[-107.93609,37.79625],[-107.93626,37.7962],[-107.93646,37.79612],[-107.93662,37.79605],[-107.93675,37.79598],[-107.93691,37.79589],[-107.93709,37.79579],[-107.93736,37.7956],[-107.93806,37.79506],[-107.93974,37.79379],[-107.93975,37.79378],[-107.94138,37.79257],[-107.9414,37.79256],[-107.94173,37.7923],[-107.94189,37.79216],[-107.94203,37.79202],[-107.94215,37.79189],[-107.9422,37.79183],[-107.9423,37.79171],[-107.94241,37.79157],[-107.94249,37.79142],[-107.94255,37.79132],[-107.94282,37.79082],[-107.94298,37.79053],[-107.94326,37.79001],[-107.9434,37.78976],[-107.94346,37.78964],[-107.94371,37.78917],[-107.94375,37.78911],[-107.94384,37.78894],[-107.94384,37.78893],[-107.94402,37.7886],[-107.94407,37.78852],[-107.94418,37.78828],[-107.94423,37.78818],[-107.94426,37.78809],[-107.9443,37.78798],[-107.94432,37.78792],[-107.94433,37.78789],[-107.94436,37.78778],[-107.94436,37.78776],[-107.94437,37.78775],[-107.94438,37.78767],[-107.94439,37.7876],[-107.94439,37.78752],[-107.94439,37.78743],[-107.94439,37.78734],[-107.94438,37.78725],[-107.94438,37.78721],[-107.94437,37.78716],[-107.94435,37.78707],[-107.94432,37.78695],[-107.94428,37.78686],[-107.94427,37.78682],[-107.94424,37.78671],[-107.94418,37.78658],[-107.94397,37.78618],[-107.94392,37.78607],[-107.94377,37.78581],[-107.9437,37.78566],[-107.94362,37.78549],[-107.94356,37.78535],[-107.94351,37.78521],[-107.94348,37.78508],[-107.94346,37.78496],[-107.94344,37.78488],[-107.94344,37.7848],[-107.94343,37.78468],[-107.94343,37.78457],[-107.94343,37.78446],[-107.94344,37.78428],[-107.94346,37.78393],[-107.94346,37.78392],[-107.94347,37.78375],[-107.94347,37.78374],[-107.9435,37.78291],[-107.94351,37.78281],[-107.94351,37.78272],[-107.94351,37.78266],[-107.94352,37.78263],[-107.94353,37.78248],[-107.94354,37.7824],[-107.94355,37.78233],[-107.94357,37.78226],[-107.94358,37.78219],[-107.94361,37.78212],[-107.94364,37.78201],[-107.94372,37.78178],[-107.94378,37.78161],[-107.94378,37.7816],[-107.94385,37.78143],[-107.94386,37.78141],[-107.94392,37.78126],[-107.94394,37.78123],[-107.94402,37.7811],[-107.94409,37.78098],[-107.94418,37.78087],[-107.94426,37.78081],[-107.94426,37.7808],[-107.94428,37.78078],[-107.94439,37.7807],[-107.9445,37.78062],[-107.94462,37.78055],[-107.94478,37.78047],[-107.94492,37.78041],[-107.94499,37.78039],[-107.945,37.78039],[-107.94506,37.78036],[-107.94524,37.78031],[-107.94534,37.78028],[-107.94542,37.78025],[-107.94548,37.78024],[-107.94584,37.78014],[-107.94586,37.78014],[-107.94598,37.78011],[-107.94624,37.78005],[-107.94643,37.78001],[-107.94663,37.77998],[-107.94665,37.77997],[-107.94687,37.77995],[-107.94707,37.77993],[-107.94728,37.77992],[-107.94749,37.77992],[-107.94775,37.77993],[-107.94801,37.77994],[-107.94824,37.77996],[-107.94828,37.77996],[-107.9487,37.78],[-107.94918,37.78007],[-107.9493,37.78009],[-107.94967,37.78015],[-107.95007,37.78021],[-107.95033,37.78024],[-107.95053,37.78025],[-107.95055,37.78025],[-107.95072,37.78026],[-107.95075,37.78027],[-107.95098,37.78028],[-107.95125,37.78029],[-107.95154,37.7803],[-107.95159,37.7803],[-107.95182,37.7803],[-107.95212,37.7803],[-107.95214,37.7803],[-107.95238,37.78029],[-107.95273,37.78026],[-107.95292,37.78024],[-107.95337,37.78018],[-107.95392,37.78011],[-107.95455,37.78002],[-107.95482,37.77998],[-107.95497,37.77996],[-107.95504,37.77995],[-107.95526,37.77992],[-107.95534,37.77991],[-107.9556,37.77987],[-107.9558,37.77984],[-107.95593,37.77981],[-107.95597,37.77981],[-107.95614,37.77977],[-107.95615,37.77976],[-107.95629,37.77973],[-107.95637,37.7797],[-107.95646,37.77967],[-107.95658,37.77963],[-107.95665,37.77961],[-107.95678,37.77956],[-107.95682,37.77954],[-107.95697,37.77946],[-107.95705,37.77942],[-107.95712,37.77937],[-107.95716,37.77935],[-107.95722,37.77931],[-107.9573,37.77926],[-107.95733,37.77924],[-107.95763,37.77903],[-107.95784,37.77887],[-107.95805,37.77872],[-107.95834,37.77851],[-107.95851,37.77839],[-107.95866,37.77831],[-107.95882,37.77823],[-107.95898,37.77814],[-107.95908,37.77809],[-107.95923,37.77802],[-107.95928,37.778],[-107.95947,37.77792],[-107.95974,37.77782],[-107.95997,37.77772],[-107.96021,37.77763],[-107.96055,37.77749],[-107.96089,37.77734],[-107.96093,37.77732],[-107.96128,37.77718],[-107.9615,37.77709],[-107.9618,37.77697],[-107.9619,37.77693],[-107.96208,37.77685],[-107.96245,37.77669],[-107.96279,37.77654],[-107.963,37.77645],[-107.96429,37.77591],[-107.96462,37.77577],[-107.965,37.77561],[-107.96505,37.7756],[-107.96551,37.77541],[-107.96607,37.7752],[-107.96613,37.77518],[-107.96669,37.77498],[-107.96714,37.77482],[-107.96749,37.77471],[-107.96753,37.7747],[-107.96801,37.77454],[-107.96965,37.77399],[-107.97012,37.77383],[-107.97052,37.7737],[-107.97074,37.77362],[-107.971,37.77353],[-107.97146,37.77335],[-107.97175,37.77323],[-107.97207,37.7731],[-107.9726,37.77287],[-107.97304,37.77268],[-107.9733,37.77258],[-107.97355,37.77249],[-107.97375,37.77243],[-107.9739,37.7724],[-107.97411,37.77236],[-107.97432,37.77233],[-107.97447,37.77232],[-107.9747,37.77231],[-107.97494,37.77231],[-107.97509,37.77232],[-107.97521,37.77233],[-107.97536,37.77234],[-107.97552,37.77236],[-107.97569,37.77238],[-107.97583,37.77239],[-107.97616,37.77242],[-107.97657,37.77243],[-107.97691,37.77244],[-107.97735,37.77244],[-107.97916,37.77242],[-107.97924,37.77242],[-107.97949,37.77242],[-107.97978,37.77242],[-107.98009,37.77241],[-107.98037,37.7724],[-107.98063,37.77239],[-107.98103,37.77236],[-107.98104,37.77236],[-107.98122,37.77234],[-107.98139,37.77233],[-107.98171,37.77228],[-107.98192,37.77225],[-107.98193,37.77225],[-107.98214,37.77222],[-107.98237,37.77217],[-107.98266,37.77211],[-107.98281,37.77207],[-107.98297,37.77203],[-107.98329,37.77194],[-107.98352,37.77187],[-107.98388,37.77176],[-107.98416,37.77166],[-107.98446,37.77154],[-107.98449,37.77153],[-107.98471,37.77143],[-107.98497,37.77131],[-107.98524,37.77118],[-107.98543,37.77108],[-107.98569,37.77094],[-107.98588,37.77083],[-107.98606,37.77072],[-107.98614,37.77067],[-107.98624,37.77061],[-107.98646,37.77045],[-107.98675,37.77024],[-107.98704,37.77003],[-107.98737,37.76978],[-107.98747,37.7697],[-107.98813,37.76921],[-107.98839,37.76901],[-107.98985,37.76792],[-107.99058,37.76738],[-107.991,37.76706],[-107.99111,37.76698],[-107.99201,37.76631],[-107.99265,37.76583],[-107.99309,37.7655],[-107.99328,37.76535],[-107.99331,37.76533],[-107.99348,37.76521],[-107.99381,37.76496],[-107.99414,37.76472],[-107.99439,37.76454],[-107.9953,37.76385],[-107.99546,37.76373],[-107.99596,37.76336],[-107.99679,37.76273],[-107.99727,37.76238],[-107.99745,37.76224],[-107.99803,37.7618],[-107.99836,37.76156],[-107.99847,37.76148],[-107.99935,37.76081],[-107.99959,37.76063],[-107.99968,37.76056],[-107.99984,37.76044],[-107.99985,37.76044],[-108.00034,37.76007],[-108.00039,37.76003],[-108.00097,37.7596],[-108.00158,37.75915],[-108.002,37.75884],[-108.00203,37.75882],[-108.0025,37.75847],[-108.00257,37.75841],[-108.0027,37.75832],[-108.00299,37.7581],[-108.00429,37.75712],[-108.00497,37.75661],[-108.00552,37.7562],[-108.0058,37.75599],[-108.00604,37.75582],[-108.00613,37.75575],[-108.00624,37.75566],[-108.00663,37.75537],[-108.00679,37.75525],[-108.00694,37.75513],[-108.00695,37.75512],[-108.0071,37.75499],[-108.00723,37.75488],[-108.00726,37.75486],[-108.0074,37.75472],[-108.00742,37.7547],[-108.00748,37.75464],[-108.00752,37.7546],[-108.00754,37.75458],[-108.00763,37.75449],[-108.00768,37.75443],[-108.00778,37.75432],[-108.00781,37.75429],[-108.00796,37.75412],[-108.00831,37.75371],[-108.00873,37.75322],[-108.00897,37.75292],[-108.00952,37.75226],[-108.0097,37.75204],[-108.00975,37.75199],[-108.00992,37.75178],[-108.00995,37.75174],[-108.0102,37.75145],[-108.01032,37.75129],[-108.01035,37.75125],[-108.01045,37.75115],[-108.01045,37.75114],[-108.01052,37.75106],[-108.01058,37.751],[-108.01072,37.75086],[-108.0108,37.75077],[-108.0109,37.75068],[-108.01104,37.75055],[-108.01119,37.75043],[-108.01157,37.75011],[-108.01179,37.74993],[-108.0118,37.74992],[-108.01196,37.7498],[-108.01219,37.74962],[-108.01259,37.74928],[-108.01283,37.74907],[-108.01293,37.74899],[-108.01307,37.74889],[-108.01322,37.74876],[-108.01332,37.74868],[-108.01341,37.7486],[-108.01345,37.74856],[-108.01349,37.74852],[-108.01352,37.74849],[-108.01357,37.74844],[-108.01363,37.74837],[-108.01365,37.74834],[-108.01368,37.74829],[-108.01375,37.7482],[-108.01383,37.74808],[-108.01394,37.7479],[-108.01396,37.74786],[-108.01409,37.74766],[-108.01426,37.74738],[-108.01427,37.74737],[-108.01432,37.7473],[-108.01436,37.74724],[-108.0144,37.74718],[-108.01446,37.7471],[-108.01449,37.74707],[-108.01456,37.74698],[-108.01464,37.7469],[-108.01474,37.7468],[-108.01483,37.74671],[-108.01486,37.74669],[-108.015,37.74656],[-108.01514,37.74645],[-108.01527,37.74636],[-108.01542,37.74626],[-108.01559,37.74616],[-108.01597,37.74593],[-108.01614,37.74582],[-108.01639,37.74567],[-108.01671,37.74548],[-108.01709,37.74525],[-108.01726,37.74515],[-108.01749,37.74501],[-108.0177,37.74488],[-108.01772,37.74487],[-108.01804,37.74468],[-108.01825,37.74454],[-108.01848,37.74439],[-108.01868,37.74425],[-108.01884,37.74413],[-108.01892,37.74407],[-108.01903,37.74398],[-108.01906,37.74395],[-108.01938,37.74369],[-108.01969,37.74342],[-108.01974,37.74338],[-108.02006,37.74308],[-108.02026,37.74291],[-108.02045,37.74272],[-108.02052,37.74264],[-108.02056,37.74258],[-108.02059,37.74255],[-108.02065,37.74246],[-108.02071,37.74236],[-108.02075,37.74227],[-108.02079,37.74218],[-108.02083,37.74207],[-108.02084,37.74204],[-108.02086,37.74195],[-108.02088,37.74184],[-108.0209,37.74169],[-108.0209,37.74157],[-108.02087,37.74115],[-108.02087,37.74106],[-108.02086,37.74101],[-108.02086,37.74097],[-108.02085,37.74085],[-108.02084,37.74064],[-108.02084,37.74054],[-108.02084,37.74043],[-108.02086,37.74031],[-108.02088,37.74018],[-108.0209,37.74012],[-108.0209,37.74008],[-108.02094,37.73998],[-108.02097,37.7399],[-108.02102,37.7398],[-108.02108,37.73968],[-108.02112,37.73961],[-108.02115,37.73957],[-108.02118,37.73952],[-108.02123,37.73944],[-108.02126,37.73941],[-108.02134,37.73932],[-108.02136,37.7393],[-108.02148,37.73918],[-108.02203,37.73864],[-108.02249,37.73819],[-108.02268,37.73801],[-108.02302,37.73767],[-108.02372,37.73699],[-108.02495,37.7358],[-108.0257,37.73508],[-108.02584,37.73494],[-108.02662,37.73418],[-108.02777,37.73307],[-108.02782,37.73302],[-108.02815,37.73269],[-108.02825,37.73259],[-108.02833,37.7325],[-108.02851,37.7323],[-108.02863,37.73215],[-108.02877,37.73196],[-108.02877,37.73195],[-108.02894,37.73168],[-108.02909,37.73142],[-108.02927,37.73108],[-108.02936,37.73092],[-108.02943,37.73078],[-108.02954,37.73053],[-108.02959,37.73039],[-108.02963,37.73024],[-108.02966,37.73013],[-108.0297,37.72995],[-108.02972,37.72982],[-108.02974,37.72965],[-108.02976,37.72943],[-108.02976,37.72926],[-108.02975,37.72908],[-108.02974,37.72875],[-108.02972,37.72861],[-108.02971,37.7284],[-108.02971,37.72823],[-108.02971,37.72818],[-108.02971,37.72808],[-108.02972,37.72789],[-108.02973,37.72776],[-108.02979,37.72729],[-108.02982,37.72705],[-108.02992,37.72631],[-108.02995,37.72603],[-108.02996,37.72597],[-108.02998,37.72577],[-108.03006,37.72501],[-108.03015,37.72423],[-108.0302,37.7237],[-108.03022,37.7236],[-108.03022,37.72359],[-108.03023,37.72347],[-108.03025,37.72335],[-108.03025,37.72333],[-108.03028,37.7232],[-108.03031,37.72309],[-108.03035,37.72298],[-108.03039,37.7229],[-108.03045,37.7228],[-108.0305,37.72273],[-108.03053,37.72268],[-108.03054,37.72267],[-108.0307,37.72244],[-108.03081,37.72229],[-108.0309,37.72216],[-108.03097,37.72203],[-108.03101,37.72194],[-108.03103,37.72187],[-108.03103,37.72185],[-108.03105,37.72177],[-108.03105,37.72176],[-108.03105,37.72168],[-108.03105,37.72156],[-108.03104,37.72151],[-108.03103,37.72142],[-108.03103,37.72131],[-108.03103,37.72122],[-108.03104,37.72115],[-108.03104,37.72114],[-108.03106,37.72107],[-108.03109,37.721],[-108.03112,37.72094],[-108.03116,37.72086],[-108.03122,37.72077],[-108.03132,37.72062],[-108.03142,37.7205],[-108.03147,37.72043],[-108.03173,37.7201],[-108.03175,37.72007],[-108.03203,37.71966],[-108.0322,37.71941],[-108.03243,37.71905],[-108.03268,37.71866],[-108.03285,37.71838],[-108.03298,37.71818],[-108.033,37.71814],[-108.03315,37.71788],[-108.03319,37.71779],[-108.03324,37.71769],[-108.03329,37.71758],[-108.03332,37.71751],[-108.03335,37.71745],[-108.0334,37.71728],[-108.03341,37.71727],[-108.03346,37.71711],[-108.0335,37.71695],[-108.03357,37.71672],[-108.03364,37.71637],[-108.03374,37.71595],[-108.03384,37.71546],[-108.03387,37.71529],[-108.03391,37.71514],[-108.03394,37.71506],[-108.03396,37.71502],[-108.03401,37.71489],[-108.03405,37.7148],[-108.03409,37.71473],[-108.03409,37.71472],[-108.03418,37.71456],[-108.03427,37.71439],[-108.0343,37.71434],[-108.0344,37.71417],[-108.03448,37.71401],[-108.03453,37.71389],[-108.03455,37.7138],[-108.03457,37.71372],[-108.03461,37.71353],[-108.03462,37.71346],[-108.03463,37.71337],[-108.03463,37.71323],[-108.03462,37.71311],[-108.0346,37.71302],[-108.03458,37.71288],[-108.03449,37.71253],[-108.03446,37.7124],[-108.0344,37.71218],[-108.03436,37.71202],[-108.03435,37.712],[-108.03431,37.71185],[-108.0343,37.71179],[-108.03423,37.71154],[-108.03422,37.71149],[-108.03421,37.71145],[-108.03414,37.71119],[-108.0341,37.71096],[-108.03407,37.71078],[-108.03406,37.71074],[-108.03404,37.71056],[-108.03403,37.71042],[-108.03403,37.7104],[-108.03402,37.71026],[-108.03402,37.71003],[-108.03403,37.70971],[-108.03404,37.70951],[-108.03404,37.70948],[-108.03406,37.70912],[-108.03407,37.70897],[-108.03407,37.70894],[-108.03409,37.70858],[-108.03411,37.70825],[-108.03413,37.70802],[-108.03419,37.7068],[-108.03419,37.70678],[-108.03419,37.70676],[-108.03419,37.70666],[-108.03418,37.70639],[-108.03416,37.70625],[-108.03416,37.7062],[-108.03412,37.70607],[-108.03411,37.70604],[-108.03407,37.70592],[-108.03399,37.70574],[-108.0339,37.70557],[-108.03388,37.70553],[-108.03381,37.70542],[-108.03379,37.7054],[-108.03363,37.70519],[-108.03354,37.7051],[-108.03327,37.70481],[-108.03277,37.70431],[-108.03258,37.7041],[-108.03252,37.70403],[-108.03246,37.70397],[-108.03235,37.70385],[-108.03228,37.70375],[-108.03215,37.70353],[-108.03214,37.70352],[-108.0321,37.70345],[-108.03208,37.70338],[-108.03207,37.70336],[-108.032,37.70319],[-108.03199,37.70318],[-108.03197,37.7031],[-108.03192,37.70296],[-108.0319,37.70284],[-108.03189,37.70279],[-108.03187,37.70248],[-108.03186,37.70235],[-108.03186,37.7023],[-108.03187,37.70221],[-108.03187,37.7022],[-108.0319,37.70198],[-108.03198,37.70171],[-108.03201,37.7016],[-108.03211,37.70125],[-108.03216,37.70109],[-108.03216,37.70107],[-108.0322,37.70092],[-108.03221,37.70086],[-108.03222,37.70072],[-108.03222,37.70071],[-108.03223,37.70058],[-108.03223,37.70049],[-108.03223,37.70047],[-108.03221,37.70032],[-108.03218,37.70018],[-108.03215,37.70004],[-108.0321,37.69991],[-108.03206,37.69981],[-108.03193,37.69957],[-108.03168,37.69911],[-108.03158,37.69891],[-108.0313,37.69842],[-108.03121,37.69825],[-108.03114,37.69812],[-108.0311,37.69804],[-108.03103,37.6979],[-108.03102,37.69787],[-108.03094,37.6977],[-108.03091,37.69759],[-108.03087,37.6974],[-108.03086,37.69731],[-108.03083,37.69715],[-108.03083,37.69704],[-108.03084,37.69695],[-108.03087,37.69679],[-108.0309,37.69664],[-108.03093,37.69655],[-108.03101,37.69638],[-108.03104,37.69631],[-108.03109,37.69622],[-108.03116,37.69611],[-108.03126,37.69595],[-108.0313,37.69589],[-108.03136,37.69578],[-108.03143,37.69565],[-108.03152,37.69543],[-108.03156,37.69531],[-108.03159,37.6951],[-108.03161,37.69502],[-108.03161,37.69485],[-108.03161,37.6946],[-108.03159,37.69436],[-108.03159,37.69434],[-108.03159,37.69421],[-108.03157,37.69367],[-108.03156,37.69349],[-108.03156,37.69331],[-108.03153,37.69265],[-108.03151,37.69231],[-108.03149,37.69195],[-108.03144,37.69106],[-108.03138,37.68951],[-108.03138,37.68909],[-108.03138,37.68878],[-108.03138,37.68872],[-108.0314,37.68854],[-108.03145,37.68835],[-108.03151,37.68817],[-108.03156,37.688],[-108.0317,37.68773],[-108.03179,37.68759],[-108.03179,37.68758],[-108.032,37.68727],[-108.03277,37.68625],[-108.03312,37.68578],[-108.03324,37.68562],[-108.03339,37.6854],[-108.0335,37.68519],[-108.03359,37.685],[-108.03366,37.6848],[-108.03371,37.6846],[-108.03374,37.68444],[-108.03376,37.68428],[-108.03377,37.68412],[-108.03378,37.68398],[-108.03377,37.6838],[-108.03375,37.68365],[-108.03373,37.6835],[-108.03367,37.68325],[-108.03355,37.68281],[-108.03351,37.68267],[-108.03349,37.68254],[-108.03348,37.68249],[-108.03348,37.68236],[-108.03349,37.6822],[-108.03352,37.68205],[-108.03357,37.68186],[-108.03358,37.68183],[-108.03362,37.68171],[-108.03364,37.68166],[-108.03376,37.68135],[-108.03377,37.68131],[-108.03384,37.68112],[-108.0339,37.68094],[-108.03396,37.68071],[-108.03398,37.68063],[-108.034,37.68043],[-108.03401,37.68033],[-108.03405,37.67986],[-108.03407,37.67962],[-108.03412,37.67932],[-108.03416,37.67914],[-108.03417,37.67909],[-108.03422,37.67892],[-108.03425,37.67884],[-108.03428,37.67874],[-108.03433,37.6786],[-108.03443,37.67837],[-108.03449,37.67823],[-108.0345,37.67821],[-108.03458,37.67807],[-108.03461,37.67802],[-108.03477,37.67774],[-108.03488,37.67758],[-108.03498,37.67742],[-108.035,37.6774],[-108.03509,37.67726],[-108.0352,37.6771],[-108.0353,37.67694],[-108.0354,37.67678],[-108.03546,37.67665],[-108.03554,37.6765],[-108.03556,37.67644],[-108.03561,37.67632],[-108.03571,37.67604],[-108.03576,37.67582],[-108.03577,37.67572],[-108.0358,37.67554],[-108.03586,37.67483],[-108.0359,37.67438],[-108.03592,37.67411],[-108.03597,37.67357],[-108.03604,37.67267],[-108.03609,37.67205],[-108.0361,37.67195],[-108.03611,37.67177],[-108.03614,37.67142],[-108.03617,37.67109],[-108.03619,37.67086],[-108.03621,37.6706],[-108.03621,37.67056],[-108.03624,37.6702],[-108.03626,37.66997],[-108.03629,37.66959],[-108.0363,37.66948],[-108.0363,37.66939],[-108.03631,37.66922],[-108.03629,37.66897],[-108.03628,37.66887],[-108.03625,37.66871],[-108.03621,37.66857],[-108.03614,37.66836],[-108.03605,37.66813],[-108.036,37.66798],[-108.03595,37.66787],[-108.03591,37.66774],[-108.03587,37.6676],[-108.03583,37.66747],[-108.03582,37.66742],[-108.03581,37.66733],[-108.03579,37.66723],[-108.03578,37.66706],[-108.03578,37.66705],[-108.03579,37.66689],[-108.03579,37.66688],[-108.03581,37.6667],[-108.03581,37.66668],[-108.03583,37.66657],[-108.03588,37.66635],[-108.03589,37.66632],[-108.03593,37.66617],[-108.03596,37.66607],[-108.03598,37.666],[-108.03606,37.66573],[-108.03614,37.66547],[-108.03615,37.66543],[-108.03627,37.66505],[-108.03632,37.66489],[-108.03641,37.66462],[-108.0365,37.66443],[-108.03653,37.66437],[-108.03658,37.66427],[-108.03662,37.66418],[-108.03682,37.66385],[-108.03694,37.66366],[-108.03703,37.66351],[-108.03711,37.66336],[-108.03721,37.66315],[-108.03722,37.66311],[-108.0373,37.66294],[-108.03737,37.66272],[-108.03743,37.66254],[-108.03748,37.66238],[-108.03757,37.66213],[-108.03774,37.66163],[-108.03782,37.66138],[-108.03792,37.6611],[-108.03799,37.66087],[-108.03801,37.6608],[-108.0382,37.66028],[-108.03828,37.66007],[-108.03837,37.65988],[-108.03845,37.65974],[-108.03845,37.65973],[-108.03855,37.65957],[-108.03862,37.65945],[-108.03871,37.65933],[-108.03882,37.65919],[-108.03889,37.65911],[-108.03899,37.65898],[-108.03926,37.65867],[-108.03946,37.65847],[-108.03956,37.65838],[-108.03961,37.65834],[-108.03972,37.65825],[-108.03987,37.65812],[-108.04002,37.65799],[-108.04012,37.6579],[-108.04037,37.65769],[-108.04064,37.65746],[-108.04094,37.65719],[-108.0411,37.65706],[-108.04112,37.65704],[-108.04135,37.65683],[-108.04154,37.65665],[-108.04171,37.65649],[-108.04183,37.65637],[-108.04209,37.65612],[-108.04278,37.65545],[-108.04301,37.65522],[-108.04341,37.65484],[-108.04355,37.6547],[-108.04359,37.65465],[-108.04384,37.65441],[-108.04398,37.65428],[-108.04454,37.65371],[-108.04494,37.65329],[-108.04508,37.65315],[-108.04522,37.65301],[-108.04536,37.65286],[-108.04546,37.65277],[-108.04589,37.65234],[-108.04623,37.65204],[-108.0463,37.65198],[-108.04654,37.65177],[-108.04656,37.65175],[-108.04669,37.65163],[-108.04675,37.65158],[-108.04689,37.65143],[-108.04697,37.65134],[-108.04706,37.65124],[-108.04709,37.6512],[-108.04712,37.65115],[-108.04718,37.65107],[-108.04726,37.65092],[-108.0473,37.65085],[-108.04736,37.65071],[-108.04739,37.65061],[-108.04741,37.65053],[-108.04741,37.65051],[-108.04742,37.65047],[-108.04742,37.65044],[-108.04744,37.65035],[-108.04744,37.65033],[-108.04746,37.65018],[-108.04747,37.64999],[-108.04746,37.64978],[-108.04747,37.64956],[-108.04748,37.64901],[-108.04748,37.64897],[-108.04748,37.64891],[-108.04748,37.64873],[-108.04748,37.64805],[-108.04748,37.64788],[-108.04749,37.6477],[-108.04749,37.64759],[-108.0475,37.64741],[-108.04751,37.64727],[-108.04752,37.64716],[-108.04752,37.64714],[-108.04755,37.64697],[-108.04759,37.64684],[-108.04763,37.64672],[-108.04768,37.64658],[-108.04774,37.64647],[-108.04776,37.64642],[-108.04782,37.6463],[-108.04789,37.64618],[-108.04795,37.64611],[-108.048,37.64604],[-108.04804,37.64598],[-108.04804,37.64597],[-108.04816,37.64583],[-108.04853,37.64538],[-108.04866,37.64523],[-108.04871,37.64517],[-108.04878,37.64508],[-108.04897,37.64486],[-108.0494,37.64435],[-108.04965,37.64407],[-108.04984,37.64384],[-108.04992,37.64374],[-108.05,37.64365],[-108.05024,37.64341],[-108.05039,37.64327],[-108.0505,37.64318],[-108.05061,37.64308],[-108.05066,37.64305],[-108.05079,37.64295],[-108.05098,37.64282],[-108.05125,37.64264],[-108.05142,37.64254],[-108.05162,37.64243],[-108.05175,37.64236],[-108.05203,37.64223],[-108.05232,37.6421],[-108.0526,37.642],[-108.05325,37.64175],[-108.05361,37.64161],[-108.05374,37.64155],[-108.0538,37.64153],[-108.05394,37.64147],[-108.05397,37.64145],[-108.05411,37.64137],[-108.05412,37.64137],[-108.05439,37.6412],[-108.05457,37.64107],[-108.05472,37.64096],[-108.05497,37.64076],[-108.05508,37.64067],[-108.05513,37.64064],[-108.05521,37.64057],[-108.0553,37.64052],[-108.05537,37.64047],[-108.05561,37.64034],[-108.05584,37.64022],[-108.05612,37.64009],[-108.05634,37.63998],[-108.0567,37.6398],[-108.05682,37.63974],[-108.05692,37.63969],[-108.05702,37.63964],[-108.0573,37.6395],[-108.05755,37.63938],[-108.05759,37.63936],[-108.05775,37.63928],[-108.05817,37.63907],[-108.05926,37.63852],[-108.05941,37.63845],[-108.05956,37.63837],[-108.06018,37.63807],[-108.06067,37.63782],[-108.06073,37.63779],[-108.06089,37.63771],[-108.06099,37.63767],[-108.06112,37.63762],[-108.06131,37.63756],[-108.06134,37.63755],[-108.06149,37.63751],[-108.06173,37.63746],[-108.06191,37.63744],[-108.0621,37.63741],[-108.06249,37.63737],[-108.06268,37.63735],[-108.06288,37.63732],[-108.0632,37.63726],[-108.06336,37.63722],[-108.0636,37.63715],[-108.06381,37.63707],[-108.064,37.63699],[-108.06419,37.63689],[-108.06439,37.63678],[-108.06454,37.63668],[-108.06469,37.63655],[-108.06484,37.6364],[-108.06496,37.63629],[-108.06499,37.63625],[-108.06508,37.63614],[-108.06518,37.63602],[-108.0652,37.63599],[-108.0653,37.63583],[-108.06532,37.63579],[-108.06541,37.63561],[-108.06548,37.63544],[-108.06554,37.63519],[-108.06558,37.63502],[-108.06558,37.63496],[-108.0656,37.63481],[-108.06559,37.63429],[-108.06557,37.63332],[-108.06555,37.63298],[-108.06555,37.6328],[-108.06553,37.63247],[-108.06552,37.63172],[-108.06552,37.63154],[-108.06552,37.63151],[-108.06552,37.63136],[-108.06555,37.63085],[-108.06557,37.63062],[-108.0656,37.63047],[-108.06562,37.63036],[-108.06568,37.63012],[-108.0658,37.62963],[-108.06586,37.62941],[-108.0659,37.62925],[-108.06591,37.62923],[-108.066,37.62888],[-108.06611,37.62849],[-108.06629,37.62784],[-108.06638,37.62753],[-108.06645,37.62727],[-108.06654,37.62695],[-108.06662,37.62665],[-108.06673,37.62625],[-108.06681,37.62596],[-108.06682,37.62592],[-108.06693,37.62554],[-108.06703,37.62515],[-108.06707,37.62501],[-108.06722,37.62449],[-108.06725,37.62437],[-108.06727,37.62431],[-108.06742,37.62379],[-108.06742,37.62378],[-108.06751,37.62345],[-108.0676,37.62313],[-108.06773,37.62268],[-108.06785,37.62231],[-108.06792,37.62216],[-108.06799,37.62202],[-108.06809,37.62187],[-108.0682,37.62172],[-108.06831,37.62158],[-108.06848,37.62142],[-108.0688,37.62115],[-108.06892,37.62107],[-108.06896,37.62105],[-108.06914,37.62095],[-108.06923,37.6209],[-108.06936,37.62083],[-108.06958,37.62073],[-108.06968,37.62068],[-108.0698,37.62062],[-108.06987,37.62059],[-108.07007,37.62049],[-108.07031,37.62037],[-108.0706,37.62023],[-108.07089,37.6201],[-108.07114,37.61998],[-108.07123,37.61993],[-108.07142,37.61984],[-108.07162,37.61975],[-108.07166,37.61973],[-108.07198,37.61958],[-108.07264,37.61933],[-108.07293,37.61925],[-108.07318,37.61919],[-108.07335,37.61916],[-108.0737,37.61909],[-108.07438,37.61898],[-108.07523,37.61884],[-108.07549,37.61879],[-108.07553,37.61878],[-108.07572,37.61875],[-108.07594,37.61872],[-108.07616,37.61868],[-108.07626,37.61866],[-108.077,37.61854],[-108.07705,37.61853],[-108.07727,37.61849],[-108.07733,37.61848],[-108.07749,37.61845],[-108.0779,37.61839],[-108.0783,37.61832],[-108.07889,37.61822],[-108.07905,37.61819],[-108.07917,37.61817],[-108.07951,37.61811],[-108.07994,37.61802],[-108.0802,37.61794],[-108.08054,37.61781],[-108.0807,37.61773],[-108.08096,37.6176],[-108.08123,37.61743],[-108.08146,37.61727],[-108.08177,37.61702],[-108.08202,37.61679],[-108.08208,37.61674],[-108.08223,37.6166],[-108.08227,37.61656],[-108.0825,37.61635],[-108.08277,37.61611],[-108.08297,37.61593],[-108.08303,37.61587],[-108.08332,37.6156],[-108.08355,37.61537],[-108.08372,37.6152],[-108.08388,37.615],[-108.08403,37.61481],[-108.08415,37.61465],[-108.08427,37.61447],[-108.08439,37.6143],[-108.08469,37.61388],[-108.08473,37.61383],[-108.08483,37.61369],[-108.085,37.61345],[-108.08517,37.61321],[-108.08521,37.61315],[-108.08529,37.61305],[-108.08541,37.6129],[-108.08544,37.61287],[-108.08558,37.6127],[-108.08567,37.61261],[-108.08574,37.61253],[-108.08592,37.61237],[-108.08612,37.6122],[-108.08613,37.61219],[-108.08629,37.61208],[-108.08642,37.61199],[-108.08646,37.61196],[-108.08654,37.61191],[-108.08664,37.61185],[-108.08675,37.61178],[-108.08702,37.61165],[-108.08715,37.61159],[-108.08748,37.61144],[-108.08797,37.61123],[-108.08821,37.61113],[-108.08834,37.61107],[-108.08873,37.6109],[-108.0888,37.61087],[-108.08896,37.61079],[-108.08919,37.61068],[-108.08926,37.61064],[-108.08962,37.61043],[-108.08973,37.61036],[-108.0899,37.61025],[-108.09015,37.6101],[-108.09053,37.60985],[-108.09096,37.60958],[-108.09098,37.60957],[-108.0912,37.60944],[-108.09146,37.6093],[-108.09153,37.60926],[-108.09157,37.60925],[-108.09178,37.60916],[-108.09207,37.60904],[-108.09226,37.60899],[-108.09245,37.60893],[-108.09278,37.60885],[-108.09309,37.60879],[-108.09323,37.60876],[-108.09338,37.60874],[-108.0938,37.60868],[-108.09414,37.60862],[-108.09448,37.60857],[-108.09473,37.60853],[-108.095,37.60849],[-108.09501,37.60849],[-108.09524,37.60845],[-108.09529,37.60844],[-108.09546,37.60842],[-108.0957,37.60838],[-108.0959,37.60833],[-108.0961,37.60828],[-108.09628,37.60824],[-108.09644,37.60819],[-108.09685,37.60808],[-108.09717,37.60798],[-108.09752,37.60786],[-108.0979,37.60774],[-108.09829,37.6076],[-108.09865,37.60748],[-108.09892,37.60739],[-108.09942,37.60722],[-108.09979,37.60709],[-108.10015,37.60697],[-108.10048,37.60685],[-108.10104,37.60666],[-108.10143,37.60653],[-108.10195,37.60635],[-108.10198,37.60634],[-108.10291,37.60602],[-108.10383,37.60571],[-108.10406,37.60563],[-108.10448,37.60548],[-108.10464,37.60543],[-108.10536,37.60519],[-108.10564,37.60509],[-108.1059,37.605],[-108.10626,37.60488],[-108.10651,37.60479],[-108.10689,37.60466],[-108.1072,37.60454],[-108.10741,37.60444],[-108.10758,37.60436],[-108.10773,37.60427],[-108.10792,37.60414],[-108.10808,37.604],[-108.10821,37.60387],[-108.10822,37.60386],[-108.10829,37.60378],[-108.10835,37.60371],[-108.10862,37.60342],[-108.10875,37.60328],[-108.10878,37.60324],[-108.10888,37.60313],[-108.10904,37.60294],[-108.10922,37.60274],[-108.10937,37.60257],[-108.10961,37.60231],[-108.10982,37.60211],[-108.10985,37.60208],[-108.11007,37.60188],[-108.11032,37.60169],[-108.11057,37.6015],[-108.11079,37.60137],[-108.11101,37.60125],[-108.11116,37.60118],[-108.11138,37.60108],[-108.11142,37.60106],[-108.11158,37.60101],[-108.11163,37.60099],[-108.11187,37.6009],[-108.11213,37.60083],[-108.11236,37.60078],[-108.11265,37.60071],[-108.11331,37.60065],[-108.11389,37.6006],[-108.11412,37.60058],[-108.1143,37.60056],[-108.1145,37.60054],[-108.11484,37.60048],[-108.11515,37.60039],[-108.11549,37.60028],[-108.11581,37.60014],[-108.11592,37.60008],[-108.11608,37.60001],[-108.11611,37.59998],[-108.11625,37.5999],[-108.11629,37.59987],[-108.11645,37.59977],[-108.11667,37.5996],[-108.1169,37.5994],[-108.11735,37.59898],[-108.11771,37.59868],[-108.11785,37.59857],[-108.118,37.59846],[-108.11802,37.59845],[-108.11818,37.59832],[-108.11835,37.5982],[-108.11853,37.59807],[-108.1187,37.59794],[-108.11884,37.59784],[-108.11898,37.59774],[-108.11902,37.59771],[-108.11927,37.59752],[-108.11934,37.59746],[-108.1195,37.59734],[-108.11953,37.59732],[-108.11978,37.59711],[-108.11994,37.59696],[-108.1201,37.5968],[-108.12018,37.59672],[-108.12029,37.59659],[-108.1204,37.59646],[-108.12056,37.59625],[-108.12059,37.59619],[-108.12071,37.59602],[-108.12081,37.59584],[-108.12088,37.5957],[-108.1209,37.59566],[-108.12096,37.59554],[-108.121,37.59546],[-108.12118,37.59506],[-108.12131,37.59478],[-108.12135,37.59469],[-108.12148,37.5944],[-108.1215,37.59435],[-108.12158,37.59418],[-108.12162,37.59411],[-108.12171,37.59396],[-108.1218,37.59383],[-108.12187,37.59374],[-108.12205,37.59353],[-108.12217,37.5934],[-108.12232,37.59326],[-108.12252,37.59308],[-108.1227,37.59294],[-108.12281,37.59286],[-108.12293,37.59278],[-108.12313,37.59267],[-108.12317,37.59264],[-108.12327,37.59259],[-108.12346,37.59249],[-108.12355,37.59245],[-108.12368,37.59239],[-108.12375,37.59236],[-108.12394,37.59229],[-108.12395,37.59228],[-108.12418,37.59221],[-108.12438,37.59216],[-108.1246,37.5921],[-108.12489,37.59204],[-108.12504,37.59202],[-108.12526,37.59199],[-108.12535,37.59198],[-108.12557,37.59197],[-108.12579,37.59196],[-108.12612,37.59196],[-108.12637,37.59198],[-108.12639,37.59198],[-108.12667,37.59201],[-108.12725,37.5921],[-108.12789,37.59223],[-108.12833,37.59233],[-108.1286,37.5924],[-108.12886,37.59246],[-108.12903,37.59251],[-108.12921,37.59256],[-108.12924,37.59257],[-108.12945,37.59263],[-108.12977,37.59273],[-108.13009,37.59283],[-108.13063,37.59301],[-108.1313,37.59324],[-108.13179,37.59339],[-108.13198,37.59344],[-108.1322,37.5935],[-108.13264,37.59357],[-108.13286,37.5936],[-108.13301,37.59361],[-108.13332,37.59362],[-108.13342,37.59362],[-108.13351,37.59362],[-108.13388,37.59361],[-108.134,37.5936],[-108.1341,37.59359],[-108.13433,37.59356],[-108.13452,37.59354],[-108.13495,37.59345],[-108.13517,37.59339],[-108.13522,37.59338],[-108.13538,37.59333],[-108.1356,37.59327],[-108.13574,37.59323],[-108.13609,37.59313],[-108.13624,37.59309],[-108.13645,37.59303],[-108.13673,37.59296],[-108.13688,37.59292],[-108.13728,37.5928],[-108.13731,37.5928],[-108.13753,37.59274],[-108.13774,37.59268],[-108.13775,37.59268],[-108.13816,37.59258],[-108.13851,37.59251],[-108.13878,37.59246],[-108.13907,37.59241],[-108.13932,37.59238],[-108.13958,37.59236],[-108.14019,37.59229],[-108.14063,37.59224],[-108.14077,37.59223],[-108.14086,37.59222],[-108.14132,37.59217],[-108.14153,37.59214],[-108.14155,37.59214],[-108.14176,37.59212],[-108.1419,37.5921],[-108.14227,37.59204],[-108.1428,37.59192],[-108.14282,37.59192],[-108.14303,37.59187],[-108.1432,37.59182],[-108.14334,37.59177],[-108.1435,37.59171],[-108.14363,37.59166],[-108.1438,37.5916],[-108.14399,37.59152],[-108.14404,37.59149],[-108.14423,37.5914],[-108.14445,37.59129],[-108.14448,37.59127],[-108.14466,37.59118],[-108.14504,37.59096],[-108.1451,37.59092],[-108.14516,37.59088],[-108.14522,37.59085],[-108.1454,37.59074],[-108.14544,37.59071],[-108.14557,37.59063],[-108.14577,37.5905],[-108.14587,37.59043],[-108.14622,37.5902],[-108.14627,37.59016],[-108.14661,37.58993],[-108.14667,37.58988],[-108.14693,37.58969],[-108.14726,37.58943],[-108.1475,37.58924],[-108.14759,37.58917],[-108.14791,37.58893],[-108.14791,37.58892],[-108.14822,37.5887],[-108.14834,37.58862],[-108.14857,37.5885],[-108.14862,37.58847],[-108.14872,37.58842],[-108.1489,37.58834],[-108.1492,37.58821],[-108.14945,37.58812],[-108.14967,37.58806],[-108.14988,37.588],[-108.15016,37.58794],[-108.15042,37.58789],[-108.15066,37.58786],[-108.151,37.58783],[-108.15132,37.58783],[-108.15142,37.58783],[-108.15177,37.58784],[-108.15222,37.58788],[-108.1523,37.58789],[-108.15245,37.58791],[-108.15267,37.58793],[-108.1529,37.58795],[-108.15309,37.58797],[-108.15349,37.58801],[-108.15389,37.58804],[-108.15411,37.58805],[-108.15429,37.58804],[-108.15455,37.58804],[-108.15475,37.58803],[-108.15499,37.58801],[-108.15525,37.58798],[-108.15547,37.58794],[-108.15569,37.5879],[-108.15595,37.58784],[-108.15619,37.58778],[-108.15633,37.58773],[-108.15646,37.58769],[-108.15658,37.58765],[-108.15667,37.58762],[-108.15693,37.58752],[-108.15748,37.5873],[-108.15753,37.58728],[-108.15789,37.58714],[-108.15827,37.58698],[-108.15829,37.58697],[-108.15849,37.58689],[-108.1586,37.58685],[-108.1587,37.58682],[-108.15896,37.58672],[-108.1592,37.58664],[-108.15933,37.58661],[-108.15943,37.58658],[-108.15954,37.58655],[-108.1598,37.58649],[-108.15998,37.58645],[-108.16022,37.5864],[-108.1604,37.58636],[-108.16068,37.58628],[-108.16087,37.58621],[-108.16104,37.58615],[-108.16111,37.58612],[-108.16134,37.586],[-108.16155,37.58588],[-108.16161,37.58584],[-108.16178,37.58573],[-108.16189,37.58566],[-108.16202,37.58557]]}}]}