{"type":"FeatureCollection","features":[{"type":"Feature","properties":{"_gpxType":"trk","name":"Priest Gulch Campground & RV, Colorado 145, Dolores, CO - The Views RV Park & Campground, Colorado 184, Dolores, CO","coordinateProperties":{},"id":73},"geometry":{"type":"LineString","coordinates":[[-108.16202,37.58557],[-108.16264,37.58514],[-108.163,37.58491],[-108.16332,37.58469],[-108.16368,37.58445],[-108.16369,37.58445],[-108.16386,37.58435],[-108.16392,37.58432],[-108.16416,37.5842],[-108.16464,37.58398],[-108.16512,37.58377],[-108.16544,37.58363],[-108.16564,37.58355],[-108.16565,37.58354],[-108.16584,37.58346],[-108.16614,37.58333],[-108.16657,37.58314],[-108.16663,37.58312],[-108.16683,37.58303],[-108.16702,37.58295],[-108.16723,37.58286],[-108.16742,37.58278],[-108.16743,37.58278],[-108.16763,37.58269],[-108.1678,37.58262],[-108.16801,37.58255],[-108.16822,37.58247],[-108.16838,37.58242],[-108.16856,37.58237],[-108.16876,37.58233],[-108.16897,37.58229],[-108.16912,37.58228],[-108.16913,37.58228],[-108.16934,37.58227],[-108.16957,37.58227],[-108.16976,37.58227],[-108.16991,37.58228],[-108.17009,37.58229],[-108.17047,37.58233],[-108.17088,37.58236],[-108.1711,37.58237],[-108.1713,37.58237],[-108.17145,37.58236],[-108.17159,37.58235],[-108.17179,37.58233],[-108.17206,37.58228],[-108.17229,37.58222],[-108.17249,37.58217],[-108.17276,37.5821],[-108.17326,37.58193],[-108.17358,37.58182],[-108.17415,37.58163],[-108.17439,37.58156],[-108.17492,37.58138],[-108.17496,37.58136],[-108.17533,37.58122],[-108.17549,37.58116],[-108.17553,37.58114],[-108.17571,37.58107],[-108.17593,37.58097],[-108.176,37.58094],[-108.17612,37.58088],[-108.17617,37.58085],[-108.17653,37.58065],[-108.17668,37.58057],[-108.17681,37.5805],[-108.17687,37.58046],[-108.17728,37.58021],[-108.1774,37.58012],[-108.17769,37.57992],[-108.1779,37.57976],[-108.17794,37.57974],[-108.17806,37.57964],[-108.17822,37.57951],[-108.17823,37.57949],[-108.17846,37.57928],[-108.17872,37.57902],[-108.17893,37.57881],[-108.17903,37.5787],[-108.17925,37.57847],[-108.17942,37.5783],[-108.1797,37.57806],[-108.1799,37.57789],[-108.17996,37.57785],[-108.18012,37.57772],[-108.18014,37.5777],[-108.18036,37.57754],[-108.18056,37.5774],[-108.18063,37.57736],[-108.18076,37.57727],[-108.18099,37.57713],[-108.18124,37.57698],[-108.18149,37.57684],[-108.18153,37.57682],[-108.18183,37.57667],[-108.18204,37.57657],[-108.18232,37.57645],[-108.18254,37.57635],[-108.18271,37.57629],[-108.18276,37.57627],[-108.18328,37.5761],[-108.18392,37.5759],[-108.18441,37.57575],[-108.18474,37.57565],[-108.18496,37.5756],[-108.18518,37.57556],[-108.18543,37.57553],[-108.18549,37.57552],[-108.18566,37.5755],[-108.18572,37.5755],[-108.18586,37.5755],[-108.18595,37.5755],[-108.18605,37.5755],[-108.18624,37.5755],[-108.18645,37.57552],[-108.18661,37.57554],[-108.18679,37.57557],[-108.18708,37.57562],[-108.18727,37.57567],[-108.18754,37.57576],[-108.18792,37.57591],[-108.18852,37.5762],[-108.18853,37.57621],[-108.1887,37.57628],[-108.18871,37.57629],[-108.18882,37.57633],[-108.18903,37.57641],[-108.18925,37.57648],[-108.18938,37.57651],[-108.18956,37.57655],[-108.18976,37.57657],[-108.18983,37.57658],[-108.19001,37.57659],[-108.19006,37.5766],[-108.19022,37.57661],[-108.19029,37.57661],[-108.19044,37.57661],[-108.19087,37.57663],[-108.19141,37.57665],[-108.19158,37.57665],[-108.19224,37.57667],[-108.19287,37.5767],[-108.19316,37.57671],[-108.19377,37.57673],[-108.19431,37.57675],[-108.19454,37.57675],[-108.19475,37.57676],[-108.19491,37.57677],[-108.19498,37.57677],[-108.1954,37.57679],[-108.19582,37.5768],[-108.19588,37.5768],[-108.19611,37.5768],[-108.19613,37.5768],[-108.19621,37.5768],[-108.19635,37.5768],[-108.19648,37.5768],[-108.19668,37.57679],[-108.1969,37.57677],[-108.19704,37.57675],[-108.19731,37.57673],[-108.19741,37.57672],[-108.19749,37.57671],[-108.19793,37.57666],[-108.19808,37.57665],[-108.1981,37.57665],[-108.19816,37.57664],[-108.19831,37.57662],[-108.19838,37.57662],[-108.19849,37.5766],[-108.19853,37.5766],[-108.19889,37.57656],[-108.19898,37.57655],[-108.19919,37.57653],[-108.19959,37.57649],[-108.19989,37.57647],[-108.20014,37.57645],[-108.20039,37.57644],[-108.20062,37.57643],[-108.20083,37.57643],[-108.20102,37.57643],[-108.20115,37.57643],[-108.20139,37.57644],[-108.20165,37.57645],[-108.20188,37.57647],[-108.20203,37.57649],[-108.20215,37.5765],[-108.20222,37.57651],[-108.20237,37.57653],[-108.20245,37.57654],[-108.20258,37.57656],[-108.20259,37.57656],[-108.20282,37.57659],[-108.20286,37.5766],[-108.20289,37.57661],[-108.20305,37.57664],[-108.20329,37.57668],[-108.20348,37.57672],[-108.20355,37.57674],[-108.20363,37.57675],[-108.20388,37.57682],[-108.20413,37.57689],[-108.20417,37.5769],[-108.2042,37.57691],[-108.20434,37.57695],[-108.20443,37.57698],[-108.20462,37.57704],[-108.20476,37.57708],[-108.20478,37.57709],[-108.20483,37.57711],[-108.20496,37.57716],[-108.20517,37.57724],[-108.20537,37.57732],[-108.20539,37.57733],[-108.20584,37.57751],[-108.20635,37.57771],[-108.20686,37.57792],[-108.20751,37.57818],[-108.20791,37.57832],[-108.20801,37.57836],[-108.20824,37.57843],[-108.20854,37.57852],[-108.20873,37.57856],[-108.20887,37.5786],[-108.20889,37.5786],[-108.20894,37.57862],[-108.20931,37.5787],[-108.20938,37.57871],[-108.20953,37.57874],[-108.20962,37.57876],[-108.20975,37.57878],[-108.20982,37.57879],[-108.20989,37.5788],[-108.20997,37.57881],[-108.21005,37.57882],[-108.21019,37.57884],[-108.21022,37.57885],[-108.21027,37.57885],[-108.21042,37.57887],[-108.2105,37.57888],[-108.21057,37.57888],[-108.21064,37.57889],[-108.21072,37.57889],[-108.21095,37.57891],[-108.21099,37.57891],[-108.2111,37.57892],[-108.21117,37.57892],[-108.21132,37.57893],[-108.21141,37.57893],[-108.21164,37.57894],[-108.21192,37.57894],[-108.2122,37.57894],[-108.21242,37.57893],[-108.21284,37.57889],[-108.21311,37.57887],[-108.21345,37.57882],[-108.2138,37.57877],[-108.21403,37.57874],[-108.21411,37.57873],[-108.21426,37.57871],[-108.21461,37.57866],[-108.2147,37.57865],[-108.21478,37.57865],[-108.21493,37.57863],[-108.21523,37.5786],[-108.21528,37.5786],[-108.21538,37.57859],[-108.2156,37.57857],[-108.21605,37.57854],[-108.21614,37.57853],[-108.21667,37.57849],[-108.21718,37.57845],[-108.21719,37.57845],[-108.21749,37.57843],[-108.21771,37.57841],[-108.218,37.57839],[-108.2181,37.57838],[-108.21816,37.57838],[-108.21907,37.57831],[-108.21952,37.57828],[-108.21975,37.57826],[-108.2211,37.57816],[-108.22155,37.57813],[-108.22178,37.57811],[-108.22291,37.57803],[-108.22314,37.57801],[-108.22381,37.57796],[-108.22421,37.57793],[-108.22427,37.57793],[-108.22449,37.57791],[-108.22472,37.57789],[-108.22494,37.57788],[-108.22517,37.57786],[-108.22623,37.57777],[-108.2263,37.57777],[-108.22878,37.57758],[-108.22901,37.57756],[-108.23002,37.57748],[-108.23041,37.57746],[-108.23087,37.57742],[-108.23127,37.57738],[-108.23153,37.57736],[-108.23195,37.57733],[-108.23249,37.57729],[-108.23301,37.57726],[-108.23353,37.57722],[-108.23375,37.57721],[-108.23389,37.5772],[-108.23421,37.57717],[-108.23443,37.57715],[-108.23459,37.57714],[-108.2349,37.57711],[-108.23556,37.57707],[-108.23579,37.57705],[-108.23581,37.57705],[-108.23601,37.57703],[-108.23624,37.57702],[-108.23639,37.57701],[-108.23646,37.577],[-108.23669,37.57698],[-108.23672,37.57698],[-108.23698,37.57695],[-108.23727,37.5769],[-108.23743,37.57687],[-108.23758,37.57684],[-108.2378,37.57679],[-108.23794,37.57675],[-108.23808,37.57671],[-108.23824,37.57666],[-108.23853,37.57655],[-108.23874,37.57647],[-108.23926,37.57622],[-108.23992,37.57587],[-108.24056,37.57551],[-108.24095,37.57529],[-108.24113,37.57519],[-108.24127,37.57511],[-108.24147,37.575],[-108.24151,37.57498],[-108.2419,37.5748],[-108.2421,37.57471],[-108.24252,37.57453],[-108.24285,37.5744],[-108.2431,37.57429],[-108.24389,37.57396],[-108.24449,37.57371],[-108.2453,37.57336],[-108.24596,37.57309],[-108.24625,37.57296],[-108.24631,37.57294],[-108.24671,37.57277],[-108.24697,37.57266],[-108.24705,37.57262],[-108.24745,37.57245],[-108.24751,37.57243],[-108.24754,37.57242],[-108.24766,37.57237],[-108.24847,37.57207],[-108.2493,37.57176],[-108.24963,37.57164],[-108.25039,37.57136],[-108.25081,37.57121],[-108.25126,37.57104],[-108.25157,37.57094],[-108.2517,37.57089],[-108.25196,37.57082],[-108.25238,37.57071],[-108.25308,37.57056],[-108.25314,37.57055],[-108.2533,37.57052],[-108.25334,37.57051],[-108.25336,37.5705],[-108.25389,37.5704],[-108.25463,37.57025],[-108.25523,37.57014],[-108.25551,37.5701],[-108.25557,37.57009],[-108.2559,37.57004],[-108.25616,37.57001],[-108.2565,37.57],[-108.25686,37.56999],[-108.25705,37.56998],[-108.25709,37.56998],[-108.25767,37.56997],[-108.25802,37.56996],[-108.25866,37.56991],[-108.25899,37.56992],[-108.25934,37.56994],[-108.25935,37.56994],[-108.25957,37.56996],[-108.26013,37.57],[-108.26093,37.57005],[-108.26145,37.57005],[-108.26165,37.57004],[-108.26187,37.57002],[-108.26211,37.56999],[-108.26225,37.56996],[-108.26233,37.56995],[-108.26255,37.5699],[-108.26256,37.5699],[-108.26277,37.56985],[-108.26289,37.56982],[-108.26313,37.56975],[-108.26351,37.56961],[-108.26361,37.56958],[-108.26413,37.56939],[-108.26492,37.5691],[-108.26505,37.56905],[-108.26526,37.56898],[-108.26559,37.56886],[-108.26609,37.56868],[-108.26617,37.56865],[-108.26671,37.56846],[-108.26692,37.56839],[-108.26695,37.56838],[-108.26748,37.56818],[-108.26753,37.56816],[-108.26774,37.56809],[-108.2679,37.56803],[-108.26795,37.56802],[-108.26817,37.56796],[-108.2682,37.56796],[-108.26851,37.56789],[-108.26886,37.56788],[-108.26921,37.56788],[-108.26964,37.56789],[-108.26995,37.56789],[-108.2702,37.56788],[-108.27028,37.56787],[-108.27042,37.56785],[-108.27064,37.56782],[-108.27073,37.5678],[-108.27087,37.56778],[-108.27109,37.56775],[-108.2712,37.56773],[-108.27131,37.56772],[-108.27174,37.56767],[-108.27199,37.56765],[-108.27221,37.56763],[-108.27222,37.56763],[-108.27244,37.56762],[-108.27267,37.56761],[-108.27285,37.5676],[-108.27335,37.56758],[-108.27339,37.56758],[-108.27357,37.56757],[-108.27377,37.56757],[-108.2738,37.56757],[-108.27411,37.56754],[-108.27425,37.56753],[-108.27442,37.56751],[-108.27447,37.5675],[-108.2747,37.56746],[-108.27492,37.56742],[-108.27503,37.5674],[-108.27536,37.56734],[-108.27569,37.56729],[-108.27581,37.56728],[-108.27603,37.56726],[-108.27626,37.56726],[-108.27627,37.56726],[-108.27652,37.56727],[-108.27686,37.56732],[-108.27714,37.56737],[-108.27715,37.56738],[-108.27736,37.56744],[-108.27739,37.56745],[-108.27757,37.56751],[-108.27766,37.56755],[-108.27796,37.5677],[-108.27808,37.56776],[-108.27861,37.56804],[-108.27872,37.56809],[-108.27892,37.56817],[-108.2794,37.56835],[-108.27975,37.56846],[-108.27985,37.56849],[-108.27996,37.56852],[-108.28037,37.56861],[-108.2804,37.56861],[-108.28063,37.56865],[-108.28085,37.56868],[-108.2813,37.56872],[-108.28153,37.56874],[-108.28164,37.56875],[-108.28198,37.56877],[-108.2822,37.56879],[-108.28227,37.56879],[-108.28243,37.5688],[-108.28279,37.56883],[-108.28288,37.56883],[-108.28311,37.56885],[-108.28366,37.56889],[-108.28379,37.5689],[-108.28401,37.56893],[-108.2842,37.56896],[-108.28423,37.56896],[-108.28469,37.56906],[-108.28503,37.56918],[-108.28527,37.56931],[-108.28535,37.56935],[-108.28545,37.56942],[-108.2856,37.56952],[-108.28578,37.56966],[-108.2859,37.56977],[-108.28594,37.56979],[-108.28618,37.57001],[-108.28623,37.57006],[-108.28651,37.57034],[-108.28664,37.5705],[-108.28684,37.57072],[-108.28691,37.57079],[-108.28704,37.57093],[-108.28714,37.57103],[-108.28737,37.57126],[-108.28771,37.57153],[-108.28796,37.57172],[-108.28821,37.57191],[-108.28863,37.57221],[-108.28893,37.57243],[-108.28912,37.57259],[-108.28919,37.57264],[-108.28941,37.57283],[-108.28957,37.57299],[-108.2897,37.57311],[-108.28998,37.57342],[-108.29012,37.57357],[-108.29025,37.57371],[-108.2903,37.57377],[-108.29051,37.57401],[-108.29077,37.5743],[-108.2909,37.57445],[-108.29104,37.57459],[-108.29117,37.57474],[-108.2913,37.57489],[-108.29137,37.57497],[-108.29143,37.57503],[-108.29169,37.57533],[-108.29182,37.57547],[-108.29185,37.57551],[-108.29208,37.57575],[-108.29209,37.57576],[-108.29223,37.57591],[-108.29241,37.57611],[-108.29263,37.57634],[-108.29267,37.57639],[-108.29276,37.57649],[-108.29283,37.57656],[-108.29305,37.57675],[-108.29324,37.57691],[-108.29338,37.57702],[-108.2934,37.57704],[-108.29366,37.57723],[-108.29392,37.57742],[-108.29403,37.5775],[-108.29404,37.57751],[-108.29426,37.57768],[-108.29445,37.57783],[-108.29452,37.57789],[-108.29462,37.57798],[-108.29466,37.57803],[-108.29475,37.57812],[-108.2948,37.57818],[-108.29488,37.57828],[-108.29491,37.57833],[-108.29499,37.57845],[-108.29521,37.57881],[-108.29522,37.57882],[-108.2954,37.57914],[-108.29543,37.57919],[-108.29559,37.57947],[-108.29561,37.5795],[-108.29569,37.57963],[-108.29578,37.57977],[-108.29594,37.57999],[-108.29604,37.58009],[-108.29613,37.58019],[-108.29634,37.58037],[-108.2965,37.58049],[-108.2966,37.58057],[-108.29666,37.58061],[-108.29687,37.58076],[-108.29721,37.58099],[-108.29735,37.58109],[-108.29739,37.58112],[-108.29751,37.58121],[-108.2976,37.58129],[-108.2978,37.58146],[-108.29781,37.58148],[-108.29792,37.5816],[-108.29809,37.58179],[-108.29816,37.5819],[-108.29824,37.58203],[-108.29828,37.58212],[-108.29837,37.58227],[-108.2986,37.58277],[-108.29865,37.58287],[-108.29873,37.58303],[-108.29891,37.58341],[-108.29908,37.5837],[-108.29911,37.58374],[-108.29919,37.58386],[-108.29937,37.58411],[-108.29953,37.58432],[-108.29958,37.58439],[-108.29979,37.58462],[-108.29982,37.58465],[-108.29993,37.58476],[-108.30005,37.58488],[-108.30032,37.58511],[-108.30089,37.58552],[-108.30105,37.58565],[-108.30191,37.58628],[-108.30222,37.5865],[-108.30238,37.58663],[-108.30285,37.58697],[-108.30305,37.58712],[-108.30366,37.58757],[-108.30388,37.58773],[-108.30405,37.58785],[-108.30422,37.58797],[-108.30448,37.58816],[-108.30456,37.58821],[-108.30473,37.58833],[-108.30503,37.58853],[-108.30507,37.58856],[-108.30526,37.58866],[-108.30545,37.58876],[-108.30566,37.58888],[-108.30603,37.58904],[-108.30619,37.58912],[-108.30623,37.58913],[-108.30643,37.58921],[-108.3066,37.58927],[-108.30685,37.58935],[-108.30706,37.58941],[-108.30709,37.58942],[-108.30749,37.58952],[-108.30771,37.58956],[-108.30787,37.58959],[-108.30794,37.5896],[-108.30816,37.58963],[-108.30838,37.58967],[-108.3084,37.58967],[-108.30883,37.58974],[-108.30905,37.58977],[-108.30912,37.58978],[-108.3095,37.58983],[-108.30973,37.58986],[-108.30994,37.58989],[-108.3103,37.58994],[-108.31039,37.58995],[-108.31082,37.58999],[-108.31125,37.59001],[-108.31146,37.59001],[-108.31169,37.59],[-108.31219,37.58997],[-108.31238,37.58996],[-108.31251,37.58994],[-108.3126,37.58993],[-108.31283,37.58991],[-108.31314,37.58988],[-108.3135,37.58984],[-108.31367,37.58982],[-108.31373,37.58981],[-108.31395,37.58979],[-108.31418,37.58976],[-108.3144,37.58974],[-108.31453,37.58972],[-108.31463,37.58971],[-108.31485,37.58969],[-108.31508,37.58967],[-108.31511,37.58966],[-108.3153,37.58964],[-108.31575,37.58959],[-108.31577,37.58959],[-108.31643,37.58952],[-108.31703,37.58945],[-108.31726,37.58942],[-108.31788,37.58935],[-108.31794,37.58935],[-108.318,37.58934],[-108.31818,37.58932],[-108.31839,37.5893],[-108.31845,37.58929],[-108.31874,37.58926],[-108.31884,37.58925],[-108.31922,37.58921],[-108.31929,37.58921],[-108.31957,37.5892],[-108.31974,37.5892],[-108.31976,37.5892],[-108.31997,37.58921],[-108.32019,37.58922],[-108.32036,37.58922],[-108.32047,37.58923],[-108.32081,37.58923],[-108.32105,37.58924],[-108.32144,37.58922],[-108.32172,37.5892],[-108.32194,37.58918],[-108.32196,37.58918],[-108.32217,37.58915],[-108.32235,37.58914],[-108.32239,37.58913],[-108.32261,37.58909],[-108.32273,37.58907],[-108.32326,37.58896],[-108.32383,37.58883],[-108.32437,37.58872],[-108.32476,37.58863],[-108.32502,37.58857],[-108.32524,37.58852],[-108.32551,37.58847],[-108.32568,37.58843],[-108.32611,37.58833],[-108.32633,37.58828],[-108.32639,37.58827],[-108.32655,37.58823],[-108.32677,37.58819],[-108.3272,37.5881],[-108.32743,37.58806],[-108.32779,37.588],[-108.32787,37.58797],[-108.32831,37.58786],[-108.32838,37.58784],[-108.32867,37.58776],[-108.32894,37.58768],[-108.32905,37.58765],[-108.32916,37.58761],[-108.32937,37.58755],[-108.32958,37.58749],[-108.3298,37.58743],[-108.33001,37.58736],[-108.33006,37.58735],[-108.33022,37.5873],[-108.33034,37.58727],[-108.33044,37.58726],[-108.3306,37.58723],[-108.33089,37.58721],[-108.3309,37.58721],[-108.33142,37.58721],[-108.33157,37.5872],[-108.33177,37.5872],[-108.3318,37.5872],[-108.33202,37.5872],[-108.33259,37.58719],[-108.33315,37.5872],[-108.3335,37.5872],[-108.33379,37.5872],[-108.33418,37.58721],[-108.33441,37.58722],[-108.33479,37.58724],[-108.33486,37.58725],[-108.33499,37.58726],[-108.33519,37.58728],[-108.33537,37.5873],[-108.33552,37.58732],[-108.3357,37.58735],[-108.33587,37.58739],[-108.33605,37.58743],[-108.33617,37.58746],[-108.33665,37.58758],[-108.33691,37.58766],[-108.33755,37.58785],[-108.33779,37.58793],[-108.33818,37.58805],[-108.3384,37.58811],[-108.33841,37.58812],[-108.33882,37.58825],[-108.33903,37.58831],[-108.33945,37.58844],[-108.33966,37.58851],[-108.33969,37.58852],[-108.33987,37.58858],[-108.34008,37.58864],[-108.34013,37.58866],[-108.34072,37.58884],[-108.34075,37.58885],[-108.34093,37.5889],[-108.34119,37.58899],[-108.34154,37.58912],[-108.34155,37.58912],[-108.34195,37.5893],[-108.34215,37.58939],[-108.34232,37.58946],[-108.34234,37.58947],[-108.34237,37.58949],[-108.34254,37.58956],[-108.34274,37.58965],[-108.34294,37.58974],[-108.34296,37.58976],[-108.34313,37.58983],[-108.34333,37.58992],[-108.34336,37.58994],[-108.34343,37.58997],[-108.34353,37.59001],[-108.34373,37.5901],[-108.34392,37.59018],[-108.34396,37.5902],[-108.34412,37.59027],[-108.34413,37.59027],[-108.34428,37.59032],[-108.34433,37.59034],[-108.34437,37.59035],[-108.34443,37.59037],[-108.34455,37.5904],[-108.34461,37.59042],[-108.34476,37.59046],[-108.34477,37.59046],[-108.34502,37.5905],[-108.34519,37.59053],[-108.34521,37.59053],[-108.34544,37.59056],[-108.34566,37.59057],[-108.34579,37.59058],[-108.34609,37.59058],[-108.34634,37.59057],[-108.34665,37.59054],[-108.347,37.59048],[-108.34715,37.59045],[-108.34737,37.59042],[-108.34804,37.59031],[-108.34931,37.59009],[-108.35019,37.58994],[-108.35042,37.5899],[-108.35064,37.58987],[-108.35219,37.58961],[-108.35363,37.58938],[-108.35547,37.58908],[-108.35578,37.58903],[-108.35729,37.58879],[-108.35755,37.58871],[-108.35783,37.58862],[-108.35802,37.58855],[-108.3584,37.58839],[-108.35843,37.58837],[-108.35861,37.58827],[-108.35874,37.5882],[-108.35891,37.58808],[-108.35897,37.58804],[-108.35906,37.58798],[-108.35923,37.58784],[-108.35948,37.58759],[-108.35959,37.58745],[-108.3598,37.58719],[-108.36028,37.58649],[-108.36053,37.58614],[-108.36073,37.58586],[-108.36092,37.58558],[-108.36105,37.58538],[-108.36107,37.58534],[-108.36114,37.58522],[-108.36118,37.58514],[-108.36127,37.58499],[-108.36133,37.58484],[-108.36137,37.58471],[-108.36141,37.58458],[-108.36147,37.58436],[-108.36152,37.58418],[-108.36154,37.58408],[-108.36163,37.5838],[-108.36177,37.58338],[-108.3618,37.58331],[-108.36186,37.58317],[-108.36187,37.58314],[-108.36194,37.58297],[-108.36201,37.5828],[-108.36207,37.58267],[-108.36208,37.58263],[-108.36216,37.58246],[-108.36223,37.58229],[-108.36242,37.58184],[-108.36251,37.58161],[-108.36254,37.58153],[-108.36284,37.58083],[-108.36302,37.58041],[-108.36321,37.57995],[-108.36338,37.57956],[-108.36346,37.57939],[-108.36361,37.57905],[-108.36368,37.57888],[-108.36376,37.57871],[-108.36378,37.57865],[-108.36383,37.57854],[-108.36391,37.57837],[-108.36398,37.5782],[-108.36406,37.57803],[-108.36414,37.57786],[-108.36434,37.57741],[-108.36444,37.57721],[-108.36454,37.57702],[-108.36462,37.57686],[-108.36469,37.57674],[-108.36471,37.57669],[-108.3648,37.57653],[-108.3649,37.57636],[-108.36495,37.57627],[-108.36508,37.57603],[-108.36517,37.57587],[-108.36526,37.5757],[-108.36527,37.57569],[-108.36535,37.57554],[-108.36538,37.57548],[-108.36547,37.57529],[-108.36551,37.5752],[-108.36554,37.5751],[-108.36557,37.57503],[-108.36563,37.57486],[-108.36565,37.57481],[-108.3657,37.57468],[-108.36574,37.57459],[-108.36584,37.57434],[-108.36592,37.57417],[-108.36593,37.57415],[-108.36609,37.57386],[-108.3661,37.57384],[-108.3662,37.57368],[-108.36625,37.5736],[-108.3663,37.57352],[-108.36641,37.57336],[-108.36649,37.57323],[-108.36661,37.57304],[-108.36671,37.57288],[-108.36684,37.57267],[-108.36709,37.57227],[-108.36711,37.57223],[-108.3672,37.57207],[-108.3673,37.5719],[-108.36739,37.57174],[-108.36757,37.57142],[-108.36761,37.57134],[-108.36764,37.57127],[-108.36768,37.5712],[-108.36774,37.57106],[-108.36781,37.57091],[-108.36784,37.57086],[-108.36789,37.57075],[-108.36801,37.57058],[-108.36804,37.57054],[-108.36813,37.57041],[-108.36816,37.57038],[-108.3684,37.57008],[-108.36874,37.56967],[-108.36888,37.56951],[-108.36899,37.56937],[-108.36907,37.56928],[-108.36911,37.56922],[-108.36923,37.56908],[-108.36924,37.56907],[-108.36935,37.56892],[-108.36938,37.56887],[-108.3695,37.56871],[-108.36956,37.5686],[-108.36957,37.56858],[-108.36963,37.56845],[-108.36972,37.56825],[-108.36975,37.56816],[-108.36977,37.56809],[-108.36983,37.56791],[-108.36985,37.56784],[-108.36988,37.56772],[-108.37006,37.56703],[-108.37011,37.56686],[-108.37017,37.56662],[-108.37026,37.56633],[-108.37044,37.56561],[-108.37049,37.56545],[-108.37049,37.56543],[-108.37053,37.5653],[-108.3707,37.56464],[-108.37072,37.56457],[-108.37079,37.5643],[-108.37082,37.56422],[-108.37085,37.56414],[-108.37085,37.56413],[-108.37089,37.56403],[-108.37092,37.56395],[-108.37095,37.56387],[-108.37096,37.56386],[-108.37102,37.5637],[-108.37104,37.56366],[-108.37124,37.56319],[-108.37127,37.56311],[-108.37131,37.56302],[-108.37147,37.56266],[-108.37153,37.56255],[-108.37159,37.56241],[-108.37163,37.56233],[-108.37168,37.56223],[-108.37181,37.562],[-108.3719,37.56185],[-108.37204,37.56162],[-108.37219,37.56141],[-108.37221,37.56137],[-108.37229,37.56126],[-108.37233,37.56122],[-108.37245,37.56106],[-108.37249,37.56101],[-108.3727,37.56077],[-108.37283,37.56062],[-108.37284,37.5606],[-108.37296,37.56047],[-108.37334,37.56002],[-108.37361,37.55971],[-108.37372,37.55959],[-108.37373,37.55958],[-108.37374,37.55956],[-108.37386,37.55943],[-108.37405,37.55921],[-108.37439,37.55883],[-108.37447,37.55873],[-108.3745,37.55869],[-108.37463,37.55854],[-108.37474,37.55841],[-108.37476,37.55839],[-108.37495,37.55815],[-108.37515,37.55787],[-108.37532,37.5576],[-108.37537,37.55752],[-108.37563,37.55713],[-108.37573,37.55697],[-108.37574,37.55697],[-108.37583,37.55681],[-108.37603,37.55649],[-108.37604,37.55647],[-108.37627,37.5561],[-108.37633,37.556],[-108.37643,37.55584],[-108.37644,37.55583],[-108.37653,37.55568],[-108.3766,37.55558],[-108.37664,37.5555],[-108.37684,37.55515],[-108.37693,37.55498],[-108.37714,37.55452],[-108.37741,37.55392],[-108.37771,37.55321],[-108.37774,37.55316],[-108.37781,37.55299],[-108.37788,37.55282],[-108.37814,37.55221],[-108.37818,37.55212],[-108.37832,37.55179],[-108.37859,37.55116],[-108.37876,37.55075],[-108.37886,37.55046],[-108.37894,37.55022],[-108.37897,37.55011],[-108.37901,37.54993],[-108.37905,37.5497],[-108.37912,37.54922],[-108.37937,37.54731],[-108.37944,37.54679],[-108.37951,37.54637],[-108.37951,37.54635],[-108.37958,37.54593],[-108.37967,37.5455],[-108.37972,37.54528],[-108.37979,37.54493],[-108.37982,37.54478],[-108.37987,37.54457],[-108.37991,37.54435],[-108.37995,37.54411],[-108.37999,37.54387],[-108.38006,37.54332],[-108.38009,37.54307],[-108.3801,37.54296],[-108.38015,37.54261],[-108.38021,37.54207],[-108.38024,37.54168],[-108.38024,37.54154],[-108.38024,37.54153],[-108.38023,37.54121],[-108.38022,37.54117],[-108.38022,37.54106],[-108.3802,37.54092],[-108.38019,37.54081],[-108.38017,37.54066],[-108.38017,37.54063],[-108.38015,37.54042],[-108.38012,37.54018],[-108.3801,37.53992],[-108.38009,37.53979],[-108.38009,37.53974],[-108.38009,37.53943],[-108.3801,37.53923],[-108.38013,37.53893],[-108.38017,37.53873],[-108.38023,37.53845],[-108.38029,37.53826],[-108.38032,37.53813],[-108.38036,37.53801],[-108.38051,37.53752],[-108.38075,37.53674],[-108.38121,37.5353],[-108.38126,37.53517],[-108.38155,37.53421],[-108.38199,37.53279],[-108.382,37.53275],[-108.38243,37.53137],[-108.38253,37.53104],[-108.38269,37.53052],[-108.38274,37.53034],[-108.3829,37.52982],[-108.38308,37.52925],[-108.38312,37.52912],[-108.38325,37.52872],[-108.38358,37.52776],[-108.38379,37.5272],[-108.38401,37.52658],[-108.38411,37.52634],[-108.38422,37.52607],[-108.38432,37.52582],[-108.38439,37.52565],[-108.38449,37.52543],[-108.38454,37.52531],[-108.38475,37.52488],[-108.38512,37.52411],[-108.38535,37.52363],[-108.38542,37.5235],[-108.38544,37.52347],[-108.38552,37.5233],[-108.38581,37.52271],[-108.38613,37.52207],[-108.38635,37.52163],[-108.38658,37.52116],[-108.38682,37.52062],[-108.38683,37.52061],[-108.38689,37.52044],[-108.38699,37.52018],[-108.38707,37.51992],[-108.38719,37.51957],[-108.38724,37.5194],[-108.38734,37.51903],[-108.38742,37.51869],[-108.38749,37.51841],[-108.38764,37.51773],[-108.38779,37.517],[-108.38793,37.51639],[-108.38796,37.51621],[-108.388,37.51604],[-108.38804,37.51586],[-108.38806,37.51576],[-108.38818,37.51533],[-108.38827,37.51499],[-108.38836,37.51471],[-108.38847,37.5144],[-108.3886,37.51404],[-108.38876,37.51363],[-108.38886,37.51334],[-108.3889,37.51325],[-108.38894,37.51314],[-108.38897,37.51308],[-108.38912,37.51272],[-108.3893,37.51233],[-108.38941,37.51212],[-108.38958,37.51179],[-108.38974,37.51148],[-108.38988,37.51124],[-108.38991,37.51119],[-108.39009,37.51089],[-108.39028,37.51058],[-108.39062,37.51004],[-108.39074,37.50988],[-108.39093,37.50963],[-108.39104,37.50949],[-108.39116,37.50934],[-108.39121,37.50927],[-108.39128,37.50919],[-108.39148,37.50895],[-108.39166,37.50874],[-108.39179,37.50859],[-108.39203,37.50831],[-108.39212,37.50821],[-108.39227,37.50803],[-108.39233,37.50796],[-108.39238,37.50787],[-108.39245,37.50777],[-108.39253,37.50764],[-108.39266,37.50737],[-108.39273,37.50724],[-108.39281,37.50709],[-108.39286,37.50699],[-108.39294,37.50686],[-108.39302,37.50674],[-108.39315,37.50657],[-108.39322,37.50648],[-108.39331,37.50639],[-108.39333,37.50636],[-108.39346,37.50625],[-108.39347,37.50624],[-108.3936,37.50614],[-108.39373,37.50604],[-108.39384,37.50597],[-108.39395,37.5059],[-108.39396,37.50589],[-108.39419,37.50575],[-108.39447,37.50558],[-108.39476,37.50541],[-108.39487,37.50535],[-108.3951,37.50521],[-108.39551,37.50499],[-108.3957,37.50489],[-108.39594,37.50478],[-108.39607,37.50472],[-108.39632,37.50461],[-108.39655,37.50452],[-108.39682,37.50442],[-108.39701,37.50435],[-108.39702,37.50435],[-108.39738,37.50423],[-108.39776,37.5041],[-108.39811,37.50398],[-108.39833,37.50389],[-108.39863,37.50377],[-108.39866,37.50376],[-108.39874,37.50372],[-108.39884,37.50367],[-108.39893,37.50361],[-108.39901,37.50356],[-108.39913,37.50348],[-108.39921,37.50343],[-108.39931,37.50335],[-108.3995,37.5032],[-108.39958,37.50313],[-108.39991,37.50287],[-108.40061,37.50229],[-108.4011,37.50188],[-108.40155,37.5015],[-108.40188,37.50123],[-108.40189,37.50122],[-108.40193,37.50118],[-108.40225,37.50092],[-108.40254,37.50068],[-108.40291,37.50037],[-108.40327,37.50007],[-108.4035,37.49988],[-108.40408,37.49939],[-108.40442,37.49911],[-108.40466,37.49891],[-108.40522,37.49845],[-108.40522,37.49844],[-108.40564,37.4981],[-108.40615,37.49767],[-108.40647,37.49741],[-108.40655,37.49734],[-108.40658,37.49732],[-108.40697,37.49699],[-108.4074,37.49663],[-108.4077,37.4964],[-108.40805,37.4961],[-108.40834,37.49587],[-108.40866,37.49561],[-108.40879,37.49551],[-108.40884,37.49547],[-108.40906,37.4953],[-108.40942,37.49504],[-108.40983,37.49476],[-108.40999,37.49465],[-108.4102,37.49452],[-108.41057,37.4943],[-108.41104,37.49401],[-108.41141,37.49378],[-108.41176,37.49356],[-108.41194,37.49345],[-108.4122,37.4933],[-108.4123,37.49323],[-108.41306,37.4927],[-108.41401,37.49205],[-108.41418,37.49193],[-108.41452,37.49169],[-108.41464,37.49161],[-108.41585,37.49078],[-108.41635,37.49043],[-108.41678,37.49014],[-108.41714,37.48989],[-108.41749,37.48964],[-108.41784,37.48941],[-108.41823,37.48914],[-108.41861,37.48888],[-108.41893,37.48865],[-108.41905,37.48858],[-108.41926,37.48842],[-108.41945,37.48829],[-108.41965,37.48815],[-108.41981,37.48802],[-108.42,37.48787],[-108.42014,37.48776],[-108.42021,37.4877],[-108.42025,37.48767],[-108.42034,37.48758],[-108.42053,37.48741],[-108.42069,37.48725],[-108.42087,37.48706],[-108.42089,37.48703],[-108.42098,37.48694],[-108.42106,37.48685],[-108.42114,37.48675],[-108.42128,37.48659],[-108.42129,37.48657],[-108.42137,37.48647],[-108.42139,37.48645],[-108.42145,37.48637],[-108.42154,37.48624],[-108.42167,37.48605],[-108.42179,37.48586],[-108.42185,37.48575],[-108.42194,37.48561],[-108.42208,37.48536],[-108.42223,37.48512],[-108.42239,37.48485],[-108.42258,37.48454],[-108.4226,37.48449],[-108.42267,37.48437],[-108.42277,37.48421],[-108.42284,37.48408],[-108.42286,37.48405],[-108.423,37.48381],[-108.42315,37.48356],[-108.42319,37.48349],[-108.42333,37.48326],[-108.42349,37.48299],[-108.42375,37.48255],[-108.42397,37.48218],[-108.42409,37.48197],[-108.42411,37.48194],[-108.42433,37.48156],[-108.42435,37.48152],[-108.4244,37.48145],[-108.42449,37.48128],[-108.42452,37.48124],[-108.42459,37.48112],[-108.42462,37.48107],[-108.42462,37.48106],[-108.42468,37.48096],[-108.42478,37.48079],[-108.42481,37.48075],[-108.42482,37.48073],[-108.42487,37.48063],[-108.42495,37.4805],[-108.42507,37.48028],[-108.42521,37.48005],[-108.42534,37.47982],[-108.42538,37.47975],[-108.42544,37.47965],[-108.42551,37.47953],[-108.42553,37.47949],[-108.42556,37.47944],[-108.42564,37.4793],[-108.42579,37.47906],[-108.42582,37.479],[-108.42591,37.47884],[-108.42593,37.47881],[-108.42601,37.47868],[-108.42604,37.47862],[-108.42605,37.4786],[-108.42611,37.47851],[-108.42614,37.47846],[-108.42621,37.47835],[-108.42637,37.47813],[-108.42656,37.47792],[-108.42671,37.47775],[-108.42672,37.47774],[-108.42687,37.4776],[-108.427,37.47748],[-108.42705,37.47743],[-108.42715,37.47735],[-108.42724,37.47728],[-108.42745,37.47712],[-108.42756,37.47706],[-108.42804,37.47677],[-108.42925,37.47606],[-108.42974,37.47579],[-108.43015,37.47558],[-108.43025,37.47554],[-108.43045,37.47546],[-108.43054,37.47542],[-108.43076,37.47535],[-108.43118,37.47523],[-108.4313,37.47521],[-108.43145,37.47518],[-108.43184,37.47511],[-108.43207,37.47509],[-108.43231,37.47508],[-108.43264,37.47507],[-108.43286,37.47508],[-108.43309,37.47509],[-108.43327,37.4751],[-108.43416,37.47515],[-108.43422,37.47515],[-108.43467,37.47517],[-108.4349,37.47519],[-108.43494,37.47519],[-108.43513,37.4752],[-108.43521,37.47521],[-108.43556,37.47522],[-108.43558,37.47522],[-108.436,37.47523],[-108.43634,37.47524],[-108.43672,37.47526],[-108.4383,37.47535],[-108.43853,37.47536],[-108.43943,37.47542],[-108.43966,37.47543],[-108.43988,37.47544],[-108.44108,37.47551],[-108.44169,37.47554],[-108.44192,37.47556],[-108.44203,37.47556],[-108.44298,37.47562],[-108.44321,37.47563],[-108.4435,37.47565],[-108.44457,37.47571],[-108.44502,37.47573],[-108.44508,37.47574],[-108.44553,37.47576],[-108.44576,37.47578],[-108.44615,37.4758],[-108.44689,37.47584],[-108.44728,37.47586],[-108.44734,37.47587],[-108.44796,37.4759],[-108.44864,37.47594],[-108.4487,37.47595],[-108.44931,37.47598],[-108.44977,37.47601],[-108.45001,37.47602],[-108.45023,37.47603],[-108.45091,37.47607],[-108.45114,37.47608],[-108.45227,37.47614],[-108.45275,37.47617],[-108.45295,37.47618],[-108.45363,37.47622],[-108.45566,37.47634],[-108.45679,37.47641],[-108.45837,37.4765],[-108.46002,37.47659],[-108.46079,37.47664],[-108.46215,37.47671],[-108.46305,37.47676],[-108.4652,37.47688],[-108.46714,37.47699],[-108.46902,37.4771],[-108.46933,37.47712],[-108.47128,37.47723],[-108.4715,37.47724],[-108.47165,37.47725],[-108.47263,37.47731],[-108.47468,37.47743],[-108.47589,37.47749],[-108.47621,37.47749],[-108.4766,37.4775],[-108.47692,37.4775],[-108.47732,37.47749],[-108.47759,37.47749],[-108.47787,37.47748],[-108.47826,37.47745],[-108.47869,37.47743],[-108.47901,37.4774],[-108.47939,37.47736],[-108.47948,37.47735],[-108.47988,37.4773],[-108.48018,37.47726],[-108.48047,37.47722],[-108.48111,37.47712],[-108.48159,37.47705],[-108.48166,37.47704],[-108.48198,37.47699],[-108.48259,37.47691],[-108.48359,37.47676],[-108.48379,37.47673],[-108.484,37.47669],[-108.48418,37.47667],[-108.48443,37.47663],[-108.48478,37.47657],[-108.48493,37.47654],[-108.48497,37.47653],[-108.48504,37.4765],[-108.48571,37.47639],[-108.48617,37.47632],[-108.48627,37.4763],[-108.48701,37.47618],[-108.48751,37.4761],[-108.4881,37.476],[-108.48875,37.47589],[-108.4889,37.47586],[-108.48905,37.47584],[-108.48925,37.4758],[-108.48944,37.47576],[-108.48951,37.47575],[-108.48985,37.47568],[-108.49048,37.47551],[-108.49069,37.47546],[-108.49149,37.47525],[-108.49157,37.47523],[-108.49192,37.47515],[-108.49225,37.47508],[-108.49247,37.47504],[-108.49277,37.47499],[-108.49325,37.47491],[-108.49394,37.4748],[-108.49534,37.47458],[-108.49761,37.47421],[-108.49834,37.47409],[-108.49899,37.47398],[-108.49946,37.47391],[-108.49969,37.47387],[-108.50035,37.47377],[-108.50173,37.47356],[-108.50239,37.47346],[-108.50307,37.47335],[-108.50373,37.47325],[-108.50378,37.47324],[-108.50385,37.47323],[-108.50439,37.47314],[-108.50509,37.473],[-108.50575,37.4729],[-108.50645,37.47278],[-108.50708,37.47269],[-108.50744,37.47261],[-108.50776,37.47253],[-108.5084,37.47236],[-108.50873,37.47227],[-108.50879,37.47226],[-108.50888,37.47223],[-108.50899,37.4722],[-108.50912,37.47216],[-108.50924,37.47211],[-108.50938,37.47206],[-108.50953,37.47201],[-108.50961,37.47197],[-108.50968,37.47194],[-108.50979,37.4719],[-108.5099,37.47185],[-108.51005,37.47178],[-108.51017,37.47173],[-108.51031,37.47165],[-108.51045,37.47157],[-108.51058,37.47149],[-108.51064,37.47145],[-108.51065,37.47145],[-108.5109,37.47128],[-108.51125,37.47105],[-108.51132,37.47101],[-108.51182,37.47067],[-108.51232,37.47034],[-108.5124,37.47029],[-108.51288,37.46999],[-108.51303,37.46989],[-108.5134,37.46964],[-108.5135,37.46957],[-108.51357,37.46952],[-108.51374,37.46941],[-108.51392,37.46929],[-108.51408,37.46918],[-108.51426,37.46906],[-108.51444,37.46894],[-108.51451,37.46889],[-108.51479,37.4687],[-108.51499,37.46856],[-108.51548,37.46824],[-108.51581,37.46803],[-108.51604,37.46788],[-108.51621,37.46778],[-108.51625,37.46775],[-108.51638,37.46767],[-108.51657,37.46754],[-108.51688,37.46734],[-108.51716,37.46715],[-108.5175,37.46692],[-108.5176,37.46686],[-108.5177,37.46679],[-108.51777,37.46674],[-108.51788,37.46666],[-108.51794,37.46662],[-108.51811,37.46651],[-108.51846,37.46627],[-108.5188,37.46606],[-108.51899,37.46594],[-108.51903,37.46592],[-108.51921,37.46581],[-108.51937,37.46572],[-108.5195,37.46565],[-108.51966,37.46557],[-108.51977,37.46553],[-108.51981,37.46551],[-108.52002,37.46542],[-108.52024,37.46535],[-108.52047,37.46529],[-108.52061,37.46525],[-108.52062,37.46525],[-108.52065,37.46524],[-108.52083,37.4652],[-108.52085,37.4652],[-108.52101,37.46517],[-108.52128,37.46513],[-108.52191,37.46506],[-108.522,37.46505],[-108.52223,37.46502],[-108.52268,37.46498],[-108.52298,37.46494],[-108.52364,37.46486],[-108.52416,37.46479],[-108.52478,37.46472],[-108.525,37.4647],[-108.52522,37.46467],[-108.52529,37.46466],[-108.52635,37.46454],[-108.52715,37.46445],[-108.52874,37.46428],[-108.52911,37.46423],[-108.5306,37.46405],[-108.53227,37.46387],[-108.53319,37.46375],[-108.53342,37.46373],[-108.53363,37.4637],[-108.53392,37.46366],[-108.53409,37.46363],[-108.53426,37.4636],[-108.53447,37.46356],[-108.53464,37.46352],[-108.53482,37.46346],[-108.53501,37.4634],[-108.53508,37.46338],[-108.53525,37.4633],[-108.53541,37.46321],[-108.53561,37.46308],[-108.53563,37.46306],[-108.53579,37.46295],[-108.53579,37.46294],[-108.53603,37.46272],[-108.53621,37.46252],[-108.53621,37.46252],[-108.53644,37.46265],[-108.53662,37.46278],[-108.53674,37.46287],[-108.53688,37.46297],[-108.53698,37.46304],[-108.53704,37.4631],[-108.53716,37.4632],[-108.53722,37.46326],[-108.53731,37.46334],[-108.53743,37.4635],[-108.53751,37.46363],[-108.53759,37.46377],[-108.53764,37.46389],[-108.5377,37.46405],[-108.53777,37.46427],[-108.53786,37.46454],[-108.5379,37.46466],[-108.53802,37.46511],[-108.53806,37.46526],[-108.53807,37.46529],[-108.53808,37.46531],[-108.53814,37.46551],[-108.53822,37.46579],[-108.53823,37.46582],[-108.53827,37.46597],[-108.53828,37.466],[-108.53833,37.46615],[-108.53838,37.46633],[-108.53838,37.46635],[-108.5384,37.46642],[-108.53843,37.46653],[-108.53848,37.46671],[-108.53851,37.46685],[-108.53854,37.46703],[-108.53857,37.46721],[-108.53857,37.46722],[-108.53857,37.46723],[-108.53857,37.46735],[-108.53858,37.46757],[-108.53857,37.46777],[-108.53855,37.46797],[-108.53854,37.46809],[-108.53852,37.46819],[-108.53848,37.46837],[-108.53842,37.46856],[-108.53836,37.46872],[-108.53832,37.46883],[-108.53829,37.4689],[-108.53821,37.46905],[-108.53816,37.46916],[-108.53811,37.46926],[-108.53803,37.46944],[-108.53797,37.46955],[-108.53793,37.46967],[-108.53792,37.46968],[-108.53788,37.4698],[-108.53787,37.46985],[-108.53786,37.46991],[-108.53785,37.47],[-108.53785,37.47008],[-108.53786,37.47014],[-108.53786,37.4702],[-108.53789,37.47031],[-108.53792,37.4704],[-108.53794,37.47044],[-108.53796,37.47048],[-108.53804,37.47058],[-108.53812,37.47066],[-108.5382,37.47073],[-108.53823,37.47075],[-108.53827,37.47078],[-108.53834,37.47083],[-108.53842,37.47087],[-108.53843,37.47087],[-108.5385,37.47091],[-108.53863,37.47096],[-108.53866,37.47097],[-108.53878,37.47101],[-108.53883,37.47103],[-108.53894,37.47107],[-108.53925,37.47117],[-108.53926,37.47118],[-108.5394,37.47122],[-108.53946,37.47124],[-108.5395,37.47125],[-108.53982,37.47136],[-108.53988,37.47138],[-108.54009,37.47144],[-108.54051,37.47158],[-108.54061,37.47161],[-108.54072,37.47164],[-108.54135,37.47184],[-108.54146,37.47188],[-108.54206,37.47207],[-108.54233,37.47216],[-108.54312,37.47241],[-108.54353,37.47254],[-108.5437,37.4726],[-108.54374,37.47261],[-108.54415,37.47275],[-108.54436,37.47282],[-108.54445,37.47286],[-108.54456,37.4729],[-108.54473,37.47297],[-108.54494,37.47307],[-108.54496,37.47308],[-108.54513,37.47316],[-108.54515,37.47317],[-108.54533,37.47328],[-108.54535,37.47329],[-108.54551,37.47339],[-108.54561,37.47345],[-108.54582,37.47361],[-108.54597,37.47373],[-108.54606,37.4738],[-108.54624,37.47395],[-108.5464,37.47408],[-108.54674,37.47436],[-108.54739,37.4749],[-108.54755,37.47503],[-108.54805,37.47544],[-108.54848,37.47579],[-108.54894,37.47617],[-108.5491,37.47631],[-108.54926,37.47643],[-108.54957,37.47668],[-108.54987,37.47694],[-108.54991,37.47697],[-108.55007,37.4771],[-108.55018,37.4772],[-108.5502,37.47721],[-108.55022,37.47723],[-108.55043,37.47742],[-108.55065,37.47761],[-108.55076,37.47773],[-108.55083,37.4778],[-108.55096,37.47793],[-108.55108,37.47807],[-108.55122,37.47825],[-108.55132,37.47838],[-108.55135,37.47841],[-108.55168,37.47884],[-108.55169,37.47885],[-108.55203,37.4793],[-108.55235,37.47973],[-108.55247,37.47988],[-108.55249,37.4799],[-108.55268,37.48015],[-108.5527,37.48019],[-108.55294,37.4805],[-108.55316,37.48079],[-108.55352,37.48127],[-108.5536,37.48137],[-108.55364,37.48142],[-108.55388,37.48173],[-108.55416,37.48209],[-108.55446,37.4825],[-108.55458,37.48265],[-108.55482,37.48296],[-108.55482,37.48297],[-108.55529,37.48359],[-108.55552,37.48388],[-108.5558,37.48425],[-108.55587,37.48434],[-108.55602,37.48453],[-108.55622,37.48481],[-108.55634,37.48496],[-108.55634,37.48497],[-108.55657,37.48526],[-108.55676,37.4855],[-108.55682,37.48557],[-108.55693,37.4857],[-108.55695,37.48572],[-108.55704,37.4858],[-108.55713,37.48589],[-108.55725,37.48599],[-108.55734,37.48605],[-108.55743,37.48611],[-108.55759,37.4862],[-108.55777,37.48629],[-108.5578,37.4863],[-108.55797,37.48636],[-108.55801,37.48638],[-108.55815,37.48642],[-108.55828,37.48646],[-108.55843,37.48649],[-108.55857,37.48651],[-108.5587,37.48653],[-108.55888,37.48655],[-108.55899,37.48656],[-108.55922,37.48658],[-108.55942,37.48658],[-108.55953,37.48659],[-108.55985,37.4866],[-108.56021,37.48661],[-108.56034,37.48661],[-108.56044,37.48662],[-108.56138,37.48664],[-108.56183,37.48666],[-108.56184,37.48666],[-108.56195,37.48666],[-108.56228,37.48667],[-108.56229,37.48667],[-108.56319,37.4867],[-108.56387,37.48672],[-108.56455,37.48675],[-108.56477,37.48675],[-108.56478,37.48675],[-108.56491,37.48676],[-108.56568,37.48678],[-108.56569,37.48678],[-108.56591,37.48679],[-108.56727,37.48683],[-108.56802,37.48685],[-108.56878,37.48688],[-108.56885,37.48688],[-108.56915,37.48689],[-108.56998,37.48692],[-108.57006,37.48692],[-108.57178,37.48698],[-108.57356,37.48703],[-108.57359,37.48703],[-108.57382,37.48704],[-108.57427,37.48705],[-108.57481,37.48707],[-108.57487,37.48707],[-108.57549,37.48709],[-108.57572,37.4871],[-108.57662,37.48712],[-108.57685,37.48713],[-108.57708,37.48714],[-108.57738,37.48715],[-108.57829,37.48718],[-108.5785,37.4872],[-108.57866,37.48722],[-108.57879,37.48724],[-108.5789,37.48726],[-108.579,37.48728],[-108.57906,37.48729],[-108.57916,37.48732],[-108.57933,37.48736],[-108.57949,37.4874],[-108.57964,37.48745],[-108.57976,37.48748],[-108.57987,37.48752],[-108.58004,37.48757],[-108.58013,37.4876],[-108.58034,37.48767],[-108.58076,37.4878],[-108.58328,37.48861],[-108.58349,37.48868],[-108.58391,37.48882],[-108.58433,37.48895],[-108.58454,37.48902],[-108.58524,37.48924],[-108.58574,37.4894],[-108.58598,37.48947],[-108.58629,37.48955],[-108.58631,37.48955],[-108.58682,37.48969],[-108.58727,37.48979],[-108.58763,37.48987],[-108.58769,37.48988],[-108.58791,37.48992],[-108.58799,37.48994],[-108.58846,37.49002],[-108.58883,37.49008],[-108.58887,37.49008],[-108.58928,37.49015],[-108.58949,37.49019],[-108.58975,37.49023],[-108.58994,37.49026],[-108.59026,37.49031],[-108.59038,37.49033],[-108.5908,37.49039],[-108.59118,37.49045],[-108.59137,37.49048],[-108.5914,37.49049],[-108.59163,37.49052],[-108.59167,37.49053],[-108.59208,37.49057],[-108.59224,37.49058],[-108.59246,37.49058],[-108.59281,37.49059],[-108.59281,37.49059],[-108.59286,37.4905],[-108.59289,37.49043],[-108.59293,37.49037],[-108.59298,37.49032],[-108.59305,37.49028],[-108.59315,37.49025],[-108.59324,37.49024],[-108.59333,37.49022],[-108.59346,37.4902],[-108.59362,37.49015],[-108.59374,37.49005],[-108.59401,37.48976],[-108.59409,37.48967],[-108.59413,37.48961],[-108.59432,37.4893],[-108.59436,37.48918],[-108.59438,37.48905],[-108.59452,37.48868],[-108.59455,37.48856]]}}]}