{"type":"FeatureCollection","features":[{"type":"Feature","properties":{"_gpxType":"trk","name":"The Views RV Park & Campground, Colorado 184, Dolores, CO - Country Inn Motel, U.S. 491, Dove Creek, CO","coordinateProperties":{},"id":74},"geometry":{"type":"LineString","coordinates":[[-108.59455,37.48856],[-108.59452,37.48868],[-108.59438,37.48905],[-108.59436,37.48918],[-108.59432,37.4893],[-108.59413,37.48961],[-108.59409,37.48967],[-108.59401,37.48976],[-108.59374,37.49005],[-108.59362,37.49015],[-108.59346,37.4902],[-108.59333,37.49022],[-108.59324,37.49024],[-108.59315,37.49025],[-108.59305,37.49028],[-108.59298,37.49032],[-108.59293,37.49037],[-108.59289,37.49043],[-108.59286,37.4905],[-108.59281,37.49059],[-108.59281,37.49059],[-108.59339,37.49054],[-108.59361,37.49052],[-108.5937,37.49051],[-108.59393,37.49048],[-108.59394,37.49048],[-108.59411,37.49045],[-108.59415,37.49044],[-108.59423,37.49042],[-108.59442,37.49038],[-108.59464,37.49032],[-108.5948,37.49028],[-108.59485,37.49026],[-108.59503,37.4902],[-108.59519,37.49015],[-108.59526,37.49013],[-108.59541,37.49008],[-108.59558,37.49001],[-108.59572,37.48996],[-108.59577,37.48994],[-108.59605,37.48982],[-108.5962,37.48975],[-108.59644,37.48965],[-108.59655,37.48961],[-108.59665,37.48957],[-108.59676,37.48954],[-108.59687,37.48951],[-108.59694,37.48949],[-108.59719,37.48943],[-108.59725,37.48942],[-108.5974,37.4894],[-108.59747,37.48939],[-108.59761,37.48937],[-108.59787,37.48933],[-108.59822,37.48928],[-108.59843,37.48927],[-108.59853,37.48926],[-108.59872,37.48925],[-108.59896,37.48925],[-108.59904,37.48925],[-108.59915,37.48926],[-108.59927,37.48927],[-108.59929,37.48927],[-108.59953,37.48931],[-108.59968,37.48933],[-108.59971,37.48934],[-108.59977,37.48935],[-108.59993,37.48938],[-108.59997,37.48939],[-108.6002,37.48944],[-108.60044,37.48949],[-108.60069,37.48952],[-108.60082,37.48953],[-108.60084,37.48953],[-108.60105,37.48954],[-108.60119,37.48954],[-108.60131,37.48954],[-108.60145,37.48953],[-108.60152,37.48952],[-108.60158,37.48951],[-108.60167,37.4895],[-108.60179,37.48948],[-108.60189,37.48946],[-108.60205,37.48942],[-108.60216,37.48939],[-108.60226,37.48937],[-108.6024,37.48933],[-108.60273,37.48923],[-108.6028,37.48921],[-108.60344,37.48902],[-108.60424,37.48878],[-108.6049,37.48858],[-108.60548,37.4884],[-108.60589,37.48827],[-108.60614,37.48819],[-108.60629,37.48815],[-108.60635,37.48812],[-108.60668,37.48801],[-108.60677,37.48798],[-108.60698,37.48791],[-108.6076,37.48769],[-108.6077,37.48766],[-108.6078,37.48762],[-108.60905,37.48718],[-108.60984,37.4869],[-108.61043,37.4867],[-108.61116,37.48644],[-108.61149,37.48633],[-108.61157,37.4863],[-108.61238,37.48601],[-108.61391,37.48548],[-108.61451,37.48526],[-108.61499,37.48509],[-108.61516,37.48503],[-108.61519,37.48502],[-108.6162,37.48467],[-108.61652,37.48456],[-108.61675,37.48447],[-108.61689,37.48443],[-108.61692,37.48442],[-108.61722,37.48432],[-108.61763,37.4842],[-108.61776,37.48416],[-108.61801,37.4841],[-108.61821,37.48406],[-108.61839,37.48402],[-108.61878,37.48396],[-108.61913,37.48391],[-108.61932,37.48389],[-108.6196,37.48386],[-108.6197,37.48385],[-108.61998,37.48382],[-108.62015,37.48381],[-108.62038,37.48378],[-108.62056,37.48377],[-108.6206,37.48376],[-108.62123,37.4837],[-108.62166,37.48366],[-108.62189,37.48364],[-108.62226,37.4836],[-108.6224,37.48359],[-108.62265,37.48356],[-108.62285,37.48354],[-108.62305,37.48352],[-108.62308,37.48352],[-108.62325,37.4835],[-108.62355,37.48347],[-108.62396,37.48343],[-108.6242,37.4834],[-108.62431,37.48339],[-108.62458,37.48337],[-108.6251,37.48331],[-108.6252,37.48331],[-108.62571,37.48326],[-108.62578,37.48325],[-108.62621,37.48321],[-108.62652,37.48318],[-108.62663,37.48317],[-108.62709,37.48312],[-108.62745,37.48308],[-108.62773,37.48304],[-108.628,37.48299],[-108.62823,37.48293],[-108.62826,37.48292],[-108.62844,37.48287],[-108.6295,37.48254],[-108.62977,37.48246],[-108.62992,37.48241],[-108.63013,37.48235],[-108.63024,37.48232],[-108.63048,37.48225],[-108.63077,37.48219],[-108.63092,37.48216],[-108.63109,37.48213],[-108.63131,37.4821],[-108.63142,37.48209],[-108.63145,37.48209],[-108.63158,37.48208],[-108.63169,37.48208],[-108.63205,37.48208],[-108.63281,37.48208],[-108.63304,37.48209],[-108.63317,37.48209],[-108.63349,37.48209],[-108.63356,37.48209],[-108.63372,37.4821],[-108.63394,37.4821],[-108.63398,37.4821],[-108.63507,37.48212],[-108.63591,37.48213],[-108.63624,37.48214],[-108.63746,37.48216],[-108.63837,37.48218],[-108.63879,37.48219],[-108.63927,37.4822],[-108.63976,37.48221],[-108.64024,37.48223],[-108.64061,37.48224],[-108.6407,37.48225],[-108.64092,37.48225],[-108.6416,37.48228],[-108.64165,37.48228],[-108.64183,37.48228],[-108.64276,37.48232],[-108.64442,37.48237],[-108.64455,37.48238],[-108.64477,37.48238],[-108.645,37.48239],[-108.64636,37.48244],[-108.64745,37.48247],[-108.64794,37.48249],[-108.64817,37.4825],[-108.6484,37.4825],[-108.64862,37.48251],[-108.64897,37.48252],[-108.65004,37.48255],[-108.65021,37.48256],[-108.65066,37.48257],[-108.65157,37.4826],[-108.65179,37.48261],[-108.65225,37.48262],[-108.65388,37.48268],[-108.65549,37.48273],[-108.65755,37.4828],[-108.65821,37.48282],[-108.6597,37.48287],[-108.66028,37.48289],[-108.6613,37.48292],[-108.66218,37.48295],[-108.66218,37.48295],[-108.66235,37.48335],[-108.66236,37.48336],[-108.66246,37.48365],[-108.66262,37.48407],[-108.66264,37.48411],[-108.66297,37.48493],[-108.66303,37.48502],[-108.6631,37.48524],[-108.66347,37.4862],[-108.66358,37.48646],[-108.66382,37.48706],[-108.66389,37.48723],[-108.66394,37.48736],[-108.66409,37.48774],[-108.66415,37.48792],[-108.66443,37.48866],[-108.66488,37.48983],[-108.66529,37.49096],[-108.66582,37.49233],[-108.66589,37.4925],[-108.66595,37.49268],[-108.66615,37.49319],[-108.66622,37.49337],[-108.66663,37.49444],[-108.66668,37.49457],[-108.66688,37.4951],[-108.66704,37.49548],[-108.6671,37.49559],[-108.66733,37.49601],[-108.66751,37.49631],[-108.66763,37.49649],[-108.66774,37.49665],[-108.66798,37.49694],[-108.66839,37.49742],[-108.66848,37.49753],[-108.66849,37.49754],[-108.66859,37.49764],[-108.66884,37.49788],[-108.66897,37.49799],[-108.66908,37.49809],[-108.66911,37.49811],[-108.66922,37.49821],[-108.66937,37.49833],[-108.66953,37.49845],[-108.66956,37.49847],[-108.66969,37.49856],[-108.66979,37.49864],[-108.6699,37.49872],[-108.67011,37.49888],[-108.67045,37.49912],[-108.67051,37.49918],[-108.67053,37.49921],[-108.6706,37.49926],[-108.67079,37.49939],[-108.67138,37.49981],[-108.67167,37.50001],[-108.67203,37.50025],[-108.67226,37.50041],[-108.67243,37.50053],[-108.67315,37.50102],[-108.67369,37.50138],[-108.67393,37.50154],[-108.67395,37.50155],[-108.67408,37.50161],[-108.67489,37.50218],[-108.67524,37.50242],[-108.67558,37.50265],[-108.67626,37.50313],[-108.67643,37.50325],[-108.67677,37.50348],[-108.67694,37.5036],[-108.67711,37.50372],[-108.678,37.50433],[-108.67814,37.50443],[-108.67831,37.50455],[-108.679,37.50502],[-108.67959,37.50543],[-108.67968,37.50549],[-108.68002,37.50573],[-108.68019,37.50585],[-108.68036,37.50596],[-108.68084,37.50629],[-108.68104,37.50644],[-108.68156,37.50679],[-108.68183,37.50699],[-108.68207,37.50715],[-108.6824,37.50737],[-108.68254,37.50747],[-108.68274,37.5076],[-108.68313,37.50788],[-108.68329,37.50799],[-108.68347,37.50811],[-108.68415,37.50858],[-108.68446,37.5088],[-108.685,37.50917],[-108.68535,37.50941],[-108.6856,37.50958],[-108.68569,37.50964],[-108.68586,37.50976],[-108.68671,37.51035],[-108.68768,37.51102],[-108.68823,37.5114],[-108.68926,37.51211],[-108.68943,37.51223],[-108.68994,37.51258],[-108.69011,37.5127],[-108.69028,37.51282],[-108.6908,37.51317],[-108.69232,37.51422],[-108.69263,37.51443],[-108.69312,37.51477],[-108.69364,37.51514],[-108.69391,37.51532],[-108.69459,37.5158],[-108.69511,37.51615],[-108.69528,37.51627],[-108.69562,37.51651],[-108.69596,37.51674],[-108.69629,37.51697],[-108.69651,37.51712],[-108.69714,37.51754],[-108.69727,37.51763],[-108.69785,37.51803],[-108.69813,37.51822],[-108.69847,37.51846],[-108.69864,37.51858],[-108.69872,37.51863],[-108.69916,37.51893],[-108.69968,37.51929],[-108.70051,37.51986],[-108.70136,37.52045],[-108.70187,37.52081],[-108.70204,37.52092],[-108.70222,37.52104],[-108.70307,37.52163],[-108.70581,37.52352],[-108.70598,37.52364],[-108.70683,37.52423],[-108.70871,37.52553],[-108.70906,37.52577],[-108.70923,37.52589],[-108.70947,37.52606],[-108.70994,37.52637],[-108.71028,37.52661],[-108.71033,37.52665],[-108.71045,37.52673],[-108.71079,37.52697],[-108.7113,37.52732],[-108.71147,37.52744],[-108.71182,37.52767],[-108.7125,37.52815],[-108.71255,37.52818],[-108.71267,37.52826],[-108.71421,37.52933],[-108.71498,37.52986],[-108.71533,37.5301],[-108.7155,37.53022],[-108.71601,37.53057],[-108.71646,37.53088],[-108.71687,37.53116],[-108.71721,37.5314],[-108.71755,37.53163],[-108.71781,37.53182],[-108.71823,37.53211],[-108.71892,37.53258],[-108.71918,37.53276],[-108.71928,37.53283],[-108.71938,37.5329],[-108.7196,37.53306],[-108.72014,37.53343],[-108.7205,37.53367],[-108.72083,37.5339],[-108.72118,37.53414],[-108.72134,37.53425],[-108.72187,37.53461],[-108.72204,37.53473],[-108.72255,37.53508],[-108.72256,37.53508],[-108.72273,37.5352],[-108.72307,37.53543],[-108.72324,37.53555],[-108.72332,37.53561],[-108.72341,37.53567],[-108.72358,37.53578],[-108.72358,37.53579],[-108.72441,37.53636],[-108.72443,37.53637],[-108.72444,37.53638],[-108.72506,37.53681],[-108.72564,37.53721],[-108.72614,37.53755],[-108.72672,37.53795],[-108.72706,37.53819],[-108.72723,37.53831],[-108.72757,37.53855],[-108.72928,37.53973],[-108.7301,37.54029],[-108.73068,37.54069],[-108.73144,37.54121],[-108.73178,37.54145],[-108.73306,37.54233],[-108.73324,37.54245],[-108.73365,37.54275],[-108.73485,37.54358],[-108.73589,37.5443],[-108.73636,37.54463],[-108.73678,37.54494],[-108.73693,37.54505],[-108.73706,37.54516],[-108.73728,37.54534],[-108.73743,37.54548],[-108.73758,37.54563],[-108.73777,37.54581],[-108.73792,37.54596],[-108.73816,37.54623],[-108.73823,37.54632],[-108.73848,37.54664],[-108.73855,37.54673],[-108.73872,37.54697],[-108.73874,37.547],[-108.73903,37.54742],[-108.7393,37.54784],[-108.73947,37.54811],[-108.73962,37.54835],[-108.73996,37.54888],[-108.74008,37.54907],[-108.7402,37.54926],[-108.7403,37.54941],[-108.74041,37.54958],[-108.74069,37.55002],[-108.741,37.55052],[-108.74185,37.55183],[-108.74235,37.55263],[-108.74245,37.55279],[-108.74266,37.55311],[-108.74296,37.55359],[-108.74299,37.55364],[-108.74316,37.55391],[-108.7434,37.55428],[-108.74357,37.55455],[-108.7437,37.55476],[-108.74381,37.55492],[-108.74391,37.55508],[-108.74398,37.5552],[-108.74401,37.55524],[-108.74411,37.55541],[-108.74432,37.55573],[-108.74442,37.55589],[-108.7446,37.55616],[-108.74509,37.55694],[-108.74514,37.55701],[-108.74554,37.55765],[-108.74562,37.55777],[-108.74585,37.55814],[-108.74602,37.55841],[-108.74616,37.55862],[-108.74641,37.55902],[-108.74655,37.55924],[-108.7467,37.55948],[-108.7468,37.55964],[-108.74724,37.56031],[-108.74806,37.56162],[-108.74815,37.56175],[-108.74835,37.56207],[-108.74856,37.56241],[-108.74889,37.56291],[-108.7492,37.56339],[-108.74924,37.56346],[-108.74935,37.56362],[-108.74965,37.5641],[-108.74995,37.56459],[-108.7501,37.56482],[-108.75036,37.56523],[-108.7504,37.56528],[-108.75071,37.56575],[-108.75074,37.5658],[-108.75081,37.56591],[-108.75112,37.56639],[-108.75129,37.56666],[-108.7517,37.5673],[-108.75223,37.56815],[-108.7524,37.56842],[-108.75259,37.56872],[-108.75275,37.569],[-108.75308,37.56952],[-108.7534,37.57003],[-108.75349,37.57016],[-108.75359,37.57032],[-108.7538,37.57064],[-108.7539,37.5708],[-108.7541,37.57112],[-108.75445,37.57168],[-108.75471,37.57209],[-108.75474,37.57214],[-108.75502,37.57257],[-108.7551,37.5727],[-108.75512,37.57273],[-108.75533,37.57305],[-108.75594,37.57401],[-108.75615,37.57435],[-108.75652,37.57494],[-108.75683,37.57542],[-108.75693,37.57558],[-108.75713,37.5759],[-108.75722,37.57604],[-108.75744,37.57638],[-108.75754,37.57654],[-108.75774,37.57686],[-108.75805,37.57735],[-108.75815,37.57751],[-108.75835,37.57783],[-108.75846,37.57799],[-108.75862,37.57825],[-108.75876,37.57847],[-108.75903,37.57888],[-108.75922,37.57917],[-108.75974,37.57998],[-108.75983,37.58012],[-108.76004,37.58045],[-108.76005,37.58046],[-108.76009,37.58053],[-108.76024,37.58077],[-108.76025,37.58078],[-108.76035,37.58093],[-108.76038,37.58098],[-108.76055,37.58125],[-108.76056,37.58126],[-108.76066,37.58141],[-108.76076,37.58157],[-108.76106,37.58205],[-108.76106,37.58206],[-108.76142,37.58263],[-108.76156,37.58286],[-108.76187,37.58334],[-108.76197,37.5835],[-108.76238,37.58414],[-108.76239,37.58416],[-108.7627,37.58466],[-108.76309,37.58527],[-108.76321,37.58546],[-108.76342,37.58579],[-108.76388,37.58652],[-108.76403,37.58674],[-108.76413,37.58691],[-108.76423,37.58706],[-108.76435,37.58725],[-108.76444,37.58738],[-108.7648,37.58795],[-108.76504,37.58834],[-108.76569,37.58935],[-108.766,37.58985],[-108.76602,37.58988],[-108.76634,37.59037],[-108.76636,37.5904],[-108.76662,37.59078],[-108.76672,37.59094],[-108.76683,37.5911],[-108.76693,37.59126],[-108.76721,37.5917],[-108.7673,37.59184],[-108.76741,37.59202],[-108.76745,37.59208],[-108.76791,37.59281],[-108.76794,37.59286],[-108.76811,37.59313],[-108.76821,37.59329],[-108.76831,37.59345],[-108.76845,37.59367],[-108.76862,37.59393],[-108.76864,37.59398],[-108.76883,37.59425],[-108.76893,37.59441],[-108.76902,37.59454],[-108.76924,37.59489],[-108.76942,37.59519],[-108.76964,37.59554],[-108.76974,37.5957],[-108.77003,37.59615],[-108.77005,37.59618],[-108.77015,37.59634],[-108.77035,37.59666],[-108.77065,37.59715],[-108.77075,37.59729],[-108.77076,37.59731],[-108.77086,37.59747],[-108.77092,37.59757],[-108.77096,37.59763],[-108.77107,37.59779],[-108.77117,37.59795],[-108.77127,37.59811],[-108.7713,37.59814],[-108.77137,37.59827],[-108.77148,37.59843],[-108.77158,37.59859],[-108.77178,37.59891],[-108.77208,37.5994],[-108.77378,37.60205],[-108.77402,37.60243],[-108.77427,37.60284],[-108.77466,37.60343],[-108.77505,37.60404],[-108.77536,37.60452],[-108.77552,37.60479],[-108.77578,37.60521],[-108.77622,37.60592],[-108.77632,37.60608],[-108.77641,37.60624],[-108.77678,37.60683],[-108.77693,37.60707],[-108.77713,37.60737],[-108.77742,37.60784],[-108.7777,37.60828],[-108.77773,37.60834],[-108.778,37.60878],[-108.77814,37.609],[-108.77829,37.60923],[-108.77831,37.60926],[-108.77861,37.60971],[-108.77863,37.60974],[-108.77883,37.61006],[-108.77887,37.61011],[-108.77925,37.6107],[-108.77946,37.61102],[-108.77956,37.61118],[-108.77964,37.61131],[-108.77976,37.6115],[-108.77986,37.61166],[-108.77997,37.61182],[-108.78017,37.61214],[-108.78026,37.61229],[-108.78027,37.61231],[-108.78037,37.61246],[-108.78047,37.61263],[-108.78068,37.61295],[-108.78078,37.61311],[-108.78108,37.61359],[-108.78118,37.61375],[-108.78129,37.61392],[-108.78139,37.61407],[-108.78149,37.61423],[-108.78156,37.61434],[-108.78204,37.61511],[-108.7821,37.6152],[-108.78347,37.61737],[-108.78383,37.61796],[-108.7842,37.61852],[-108.78429,37.61867],[-108.7843,37.61868],[-108.78431,37.6187],[-108.7849,37.61964],[-108.785,37.6198],[-108.78501,37.61981],[-108.7851,37.61996],[-108.78528,37.62023],[-108.78562,37.62076],[-108.78563,37.62077],[-108.78587,37.62115],[-108.78637,37.62196],[-108.78674,37.62253],[-108.78684,37.62269],[-108.78685,37.6227],[-108.78693,37.62284],[-108.78734,37.62347],[-108.78746,37.62366],[-108.78748,37.6237],[-108.78756,37.62382],[-108.78785,37.62427],[-108.78799,37.62448],[-108.78819,37.62478],[-108.78826,37.62489],[-108.78836,37.62503],[-108.78844,37.62513],[-108.78852,37.62525],[-108.78853,37.62526],[-108.78865,37.62541],[-108.78876,37.62555],[-108.78886,37.62568],[-108.78893,37.62576],[-108.789,37.62585],[-108.78912,37.626],[-108.78934,37.62626],[-108.7919,37.62919],[-108.79208,37.6294],[-108.79241,37.62976],[-108.7926,37.62998],[-108.79288,37.6303],[-108.7929,37.63032],[-108.79301,37.63045],[-108.79326,37.63074],[-108.79327,37.63074],[-108.79352,37.63104],[-108.79364,37.63117],[-108.79376,37.63131],[-108.79391,37.63148],[-108.79404,37.63163],[-108.7943,37.63193],[-108.79482,37.63252],[-108.79534,37.63311],[-108.79535,37.63312],[-108.79666,37.63461],[-108.79786,37.63598],[-108.79798,37.63612],[-108.79844,37.63664],[-108.79892,37.63719],[-108.79964,37.63801],[-108.79996,37.63837],[-108.80002,37.63844],[-108.80023,37.63867],[-108.80036,37.63881],[-108.80039,37.63884],[-108.80049,37.63896],[-108.80059,37.63908],[-108.80112,37.63969],[-108.80127,37.63985],[-108.8014,37.64],[-108.80178,37.64044],[-108.80185,37.64051],[-108.80204,37.64074],[-108.80217,37.64088],[-108.80259,37.64136],[-108.80308,37.64192],[-108.80345,37.64234],[-108.80386,37.6428],[-108.80437,37.64338],[-108.80438,37.64339],[-108.80488,37.64397],[-108.80489,37.64398],[-108.80528,37.64443],[-108.80541,37.64458],[-108.80579,37.645],[-108.80601,37.64526],[-108.80617,37.64545],[-108.80656,37.64589],[-108.80669,37.64605],[-108.80682,37.6462],[-108.80695,37.64634],[-108.80703,37.64645],[-108.80718,37.64662],[-108.8072,37.64665],[-108.80732,37.64679],[-108.80745,37.64696],[-108.80755,37.64709],[-108.80763,37.64721],[-108.80774,37.64736],[-108.80777,37.64742],[-108.8078,37.64746],[-108.80787,37.64759],[-108.80794,37.64771],[-108.80797,37.64779],[-108.80803,37.64792],[-108.80805,37.64796],[-108.80805,37.64797],[-108.8081,37.64807],[-108.80812,37.64813],[-108.80816,37.64821],[-108.8082,37.64832],[-108.80822,37.64838],[-108.80825,37.64847],[-108.80827,37.64853],[-108.80829,37.64861],[-108.8083,37.64865],[-108.80831,37.64869],[-108.80833,37.64878],[-108.80835,37.64885],[-108.80836,37.64891],[-108.80839,37.64905],[-108.80841,37.64918],[-108.80842,37.64932],[-108.80844,37.64942],[-108.80845,37.64953],[-108.80845,37.64966],[-108.80846,37.65029],[-108.80845,37.65085],[-108.80844,37.65109],[-108.80843,37.6517],[-108.80843,37.65174],[-108.80843,37.65188],[-108.80843,37.65195],[-108.80843,37.65206],[-108.80842,37.65213],[-108.80842,37.65278],[-108.80842,37.65302],[-108.80841,37.65336],[-108.80841,37.6539],[-108.80841,37.65408],[-108.8084,37.65426],[-108.80839,37.65533],[-108.80839,37.65544],[-108.80839,37.65646],[-108.80839,37.65651],[-108.80838,37.65674],[-108.80838,37.65714],[-108.80838,37.65761],[-108.80836,37.65903],[-108.80834,37.6601],[-108.80833,37.66083],[-108.80833,37.66137],[-108.80833,37.66155],[-108.80833,37.66173],[-108.80833,37.66209],[-108.80833,37.66227],[-108.80833,37.66245],[-108.80833,37.66274],[-108.80833,37.66326],[-108.80832,37.66358],[-108.80832,37.66371],[-108.80832,37.66372],[-108.80832,37.66398],[-108.80831,37.66423],[-108.80831,37.66425],[-108.80831,37.6647],[-108.80831,37.6648],[-108.80831,37.66494],[-108.80831,37.66497],[-108.8083,37.66506],[-108.8083,37.66542],[-108.8083,37.66548],[-108.8083,37.66569],[-108.8083,37.6657],[-108.8083,37.66578],[-108.80829,37.6662],[-108.80829,37.66632],[-108.80828,37.66668],[-108.80828,37.66704],[-108.80828,37.66732],[-108.80828,37.6674],[-108.80827,37.66746],[-108.80827,37.6675],[-108.80827,37.66786],[-108.80827,37.66803],[-108.80827,37.66824],[-108.80826,37.66878],[-108.80826,37.66908],[-108.80826,37.66932],[-108.80827,37.66958],[-108.80827,37.66968],[-108.80827,37.66979],[-108.80828,37.66986],[-108.80828,37.66987],[-108.80829,37.67002],[-108.80829,37.67005],[-108.8083,37.67017],[-108.80831,37.67023],[-108.80831,37.67028],[-108.80832,37.67038],[-108.80835,37.67054],[-108.80835,37.67057],[-108.80837,37.67065],[-108.80838,37.67075],[-108.8084,37.67085],[-108.80842,37.67092],[-108.80842,37.67093],[-108.80843,37.67094],[-108.80845,37.67103],[-108.80847,37.67112],[-108.80849,37.67119],[-108.80852,37.67127],[-108.80853,37.67129],[-108.80854,37.67133],[-108.80856,37.67138],[-108.80858,37.67146],[-108.80859,37.67147],[-108.80864,37.6716],[-108.80865,37.67162],[-108.80868,37.67168],[-108.80871,37.67175],[-108.80873,37.67179],[-108.80874,37.67182],[-108.80877,37.67188],[-108.80882,37.67197],[-108.80882,37.67198],[-108.80886,37.67204],[-108.80891,37.67214],[-108.80894,37.67217],[-108.80899,37.67226],[-108.80905,37.67235],[-108.80912,37.67246],[-108.80917,37.67253],[-108.8092,37.67257],[-108.80923,37.6726],[-108.80923,37.67261],[-108.80926,37.67265],[-108.80932,37.67273],[-108.80934,37.67275],[-108.80938,37.6728],[-108.80947,37.6729],[-108.80948,37.67292],[-108.80951,37.67295],[-108.80957,37.67301],[-108.80963,37.67308],[-108.80974,37.67319],[-108.80975,37.6732],[-108.80983,37.67328],[-108.80989,37.67333],[-108.80991,37.67336],[-108.8101,37.67352],[-108.81021,37.67361],[-108.81029,37.67368],[-108.8105,37.67383],[-108.81062,37.67391],[-108.81069,37.67396],[-108.81073,37.67399],[-108.81087,37.67408],[-108.81092,37.67411],[-108.8111,37.67421],[-108.81126,37.67429],[-108.81142,37.67438],[-108.81143,37.67438],[-108.8116,37.67446],[-108.81163,37.67447],[-108.81177,37.67454],[-108.81199,37.67463],[-108.81202,37.67464],[-108.81221,37.67471],[-108.81224,37.67471],[-108.81244,37.67478],[-108.81245,37.67478],[-108.81262,37.67484],[-108.8128,37.67489],[-108.813,37.67495],[-108.8131,37.67497],[-108.81346,37.67506],[-108.81389,37.67516],[-108.81411,37.67522],[-108.81465,37.67534],[-108.81512,37.67545],[-108.81531,37.6755],[-108.8155,37.67555],[-108.81578,37.67562],[-108.816,37.67568],[-108.81614,37.67573],[-108.81627,37.67577],[-108.81644,37.67583],[-108.81658,37.67588],[-108.81662,37.67589],[-108.81672,37.67593],[-108.81685,37.67598],[-108.81693,37.67602],[-108.81697,37.67603],[-108.81714,37.6761],[-108.81714,37.67611],[-108.81724,37.67615],[-108.81736,37.67621],[-108.81749,37.67627],[-108.81766,37.67636],[-108.81777,37.67642],[-108.81783,37.67645],[-108.8179,37.67649],[-108.81796,37.67653],[-108.81807,37.67659],[-108.81818,37.67666],[-108.81826,37.67671],[-108.81841,37.67681],[-108.81856,37.67691],[-108.81867,37.67699],[-108.8188,37.67709],[-108.81899,37.67724],[-108.81912,37.67735],[-108.81924,37.67746],[-108.81936,37.67757],[-108.81947,37.67768],[-108.81952,37.67773],[-108.81957,37.67779],[-108.81966,37.67789],[-108.81977,37.67801],[-108.81981,37.67805],[-108.81987,37.67813],[-108.81988,37.67814],[-108.82005,37.67834],[-108.8201,37.67841],[-108.82023,37.67859],[-108.82036,37.67878],[-108.82047,37.67894],[-108.8206,37.67913],[-108.82077,37.6794],[-108.82085,37.67951],[-108.82113,37.67995],[-108.8214,37.68038],[-108.82178,37.68096],[-108.82197,37.68127],[-108.82226,37.68171],[-108.82246,37.68205],[-108.82273,37.6825],[-108.82285,37.6827],[-108.82285,37.68271],[-108.82297,37.68292],[-108.82318,37.68331],[-108.82334,37.6836],[-108.82344,37.68378],[-108.82365,37.68417],[-108.82388,37.68461],[-108.8241,37.68502],[-108.82439,37.68558],[-108.8245,37.68579],[-108.82461,37.686],[-108.82493,37.68663],[-108.82506,37.68689],[-108.8251,37.68696],[-108.82512,37.68698],[-108.82514,37.68702],[-108.82518,37.6871],[-108.82522,37.68716],[-108.8253,37.68729],[-108.82551,37.68758],[-108.82564,37.68776],[-108.8257,37.68785],[-108.82576,37.68793],[-108.82582,37.688],[-108.82588,37.68806],[-108.8259,37.68808],[-108.82594,37.68812],[-108.82598,37.68816],[-108.82607,37.68825],[-108.82615,37.68832],[-108.82623,37.68839],[-108.8263,37.68845],[-108.82632,37.68847],[-108.82636,37.68851],[-108.82648,37.68861],[-108.82655,37.68866],[-108.82682,37.68886],[-108.8269,37.68893],[-108.82698,37.68898],[-108.82704,37.68902],[-108.82712,37.68908],[-108.82719,37.68912],[-108.82728,37.68918],[-108.82743,37.68927],[-108.82777,37.68947],[-108.82856,37.68993],[-108.82897,37.69017],[-108.82924,37.69033],[-108.82958,37.69054],[-108.82968,37.6906],[-108.82998,37.6908],[-108.83009,37.69087],[-108.83021,37.69096],[-108.83029,37.69102],[-108.83042,37.69111],[-108.8305,37.69118],[-108.83057,37.69124],[-108.83063,37.69128],[-108.83076,37.69139],[-108.83091,37.69152],[-108.83096,37.69157],[-108.83108,37.69168],[-108.8311,37.6917],[-108.83114,37.69173],[-108.83122,37.69181],[-108.83128,37.69187],[-108.83134,37.69194],[-108.83142,37.69202],[-108.83148,37.69208],[-108.83163,37.69224],[-108.8317,37.69233],[-108.83183,37.69247],[-108.83197,37.69266],[-108.83202,37.69272],[-108.83207,37.69278],[-108.83212,37.69285],[-108.83222,37.693],[-108.8323,37.69311],[-108.83241,37.69329],[-108.83272,37.69378],[-108.83296,37.69417],[-108.83315,37.69448],[-108.83342,37.69492],[-108.83364,37.69528],[-108.83368,37.69534],[-108.83374,37.69544],[-108.83437,37.69648],[-108.83483,37.69722],[-108.83566,37.6986],[-108.83568,37.69863],[-108.83578,37.6988],[-108.83601,37.69919],[-108.83606,37.69929],[-108.83607,37.69929],[-108.83636,37.69977],[-108.8366,37.70017],[-108.83688,37.70065],[-108.83699,37.70082],[-108.83717,37.70114],[-108.83736,37.70145],[-108.8383,37.70299],[-108.8385,37.70332],[-108.83859,37.70348],[-108.8389,37.70398],[-108.83922,37.7045],[-108.83929,37.70461],[-108.83948,37.70491],[-108.83959,37.70509],[-108.83963,37.70516],[-108.83987,37.70555],[-108.83998,37.70574],[-108.84019,37.70609],[-108.84058,37.70674],[-108.84061,37.7068],[-108.84072,37.70698],[-108.84106,37.7075],[-108.84109,37.70755],[-108.84125,37.70782],[-108.84149,37.70821],[-108.84168,37.70854],[-108.8419,37.70889],[-108.842,37.70904],[-108.84212,37.70923],[-108.84217,37.70931],[-108.84222,37.70939],[-108.84227,37.70946],[-108.84233,37.70955],[-108.8424,37.70966],[-108.84247,37.70974],[-108.84252,37.7098],[-108.84259,37.70989],[-108.84267,37.71],[-108.84272,37.71006],[-108.84275,37.71009],[-108.84281,37.71017],[-108.84288,37.71025],[-108.84291,37.71027],[-108.843,37.71037],[-108.84308,37.71046],[-108.8432,37.71058],[-108.84328,37.71066],[-108.84336,37.71073],[-108.84346,37.71083],[-108.8436,37.71094],[-108.84433,37.71151],[-108.84517,37.71212],[-108.84619,37.71284],[-108.84673,37.71323],[-108.84703,37.71344],[-108.8472,37.71356],[-108.84757,37.71382],[-108.84788,37.71404],[-108.84797,37.7141],[-108.84836,37.71438],[-108.84863,37.71456],[-108.84922,37.71498],[-108.84969,37.71532],[-108.85009,37.7156],[-108.85019,37.71567],[-108.85025,37.71572],[-108.85061,37.71598],[-108.85075,37.71608],[-108.85079,37.7161],[-108.85092,37.7162],[-108.85133,37.71652],[-108.85164,37.71677],[-108.85201,37.71708],[-108.85222,37.71725],[-108.85243,37.71744],[-108.85266,37.71764],[-108.85307,37.71803],[-108.8531,37.71805],[-108.85313,37.71809],[-108.85323,37.71818],[-108.85342,37.71837],[-108.85366,37.71862],[-108.85388,37.71885],[-108.854,37.71898],[-108.85406,37.71905],[-108.85427,37.71929],[-108.85451,37.71957],[-108.85494,37.72007],[-108.85516,37.72033],[-108.85551,37.72074],[-108.85602,37.72136],[-108.85621,37.72159],[-108.85636,37.72176],[-108.85653,37.72196],[-108.85712,37.72266],[-108.858,37.7237],[-108.85939,37.72535],[-108.86018,37.72627],[-108.86063,37.7268],[-108.86099,37.72723],[-108.86137,37.72768],[-108.86179,37.72818],[-108.86204,37.72847],[-108.8623,37.72878],[-108.86299,37.72961],[-108.86322,37.72988],[-108.86373,37.73048],[-108.8639,37.73068],[-108.86397,37.73077],[-108.86398,37.73078],[-108.86459,37.73148],[-108.86496,37.73191],[-108.86509,37.73206],[-108.86561,37.73266],[-108.86564,37.73269],[-108.86615,37.7333],[-108.86627,37.73344],[-108.8665,37.73371],[-108.86728,37.73463],[-108.8676,37.73501],[-108.86766,37.73509],[-108.86787,37.73532],[-108.86861,37.73621],[-108.86869,37.7363],[-108.86918,37.73688],[-108.86943,37.73718],[-108.86963,37.73742],[-108.87008,37.73795],[-108.87044,37.73838],[-108.87089,37.73892],[-108.87103,37.73908],[-108.87113,37.73919],[-108.87133,37.73943],[-108.8714,37.73952],[-108.87146,37.73957],[-108.8715,37.73962],[-108.87177,37.73993],[-108.87193,37.74012],[-108.87215,37.74039],[-108.87265,37.74098],[-108.87317,37.7416],[-108.87354,37.74205],[-108.87455,37.74324],[-108.87482,37.74356],[-108.87533,37.74415],[-108.87559,37.74445],[-108.87563,37.7445],[-108.87589,37.7448],[-108.87622,37.74519],[-108.87627,37.74525],[-108.8764,37.74541],[-108.87737,37.74655],[-108.87779,37.74705],[-108.8784,37.74777],[-108.87967,37.74928],[-108.88047,37.75024],[-108.88119,37.7511],[-108.8817,37.75169],[-108.88183,37.75184],[-108.88199,37.75203],[-108.88232,37.75242],[-108.88251,37.75264],[-108.88298,37.7532],[-108.8834,37.7537],[-108.88366,37.754],[-108.88393,37.75432],[-108.88406,37.75447],[-108.88449,37.75492],[-108.88465,37.75509],[-108.88481,37.75526],[-108.88503,37.7555],[-108.88537,37.75585],[-108.88561,37.75609],[-108.88563,37.75611],[-108.88565,37.75614],[-108.88571,37.7562],[-108.88578,37.75626],[-108.88581,37.7563],[-108.886,37.75648],[-108.88616,37.75662],[-108.8863,37.75674],[-108.88659,37.75698],[-108.88689,37.7572],[-108.88717,37.7574],[-108.88723,37.75744],[-108.88746,37.75758],[-108.88765,37.75767],[-108.88791,37.75781],[-108.88792,37.75781],[-108.88798,37.75784],[-108.88815,37.75793],[-108.8885,37.7581],[-108.88867,37.75817],[-108.88884,37.75824],[-108.88924,37.7584],[-108.88943,37.75846],[-108.88956,37.75851],[-108.88969,37.75855],[-108.88981,37.75859],[-108.88994,37.75864],[-108.89017,37.75871],[-108.89123,37.75905],[-108.89273,37.75953],[-108.89344,37.75974],[-108.89396,37.75991],[-108.8947,37.76015],[-108.89513,37.76028],[-108.89577,37.76048],[-108.8964,37.76069],[-108.89661,37.76075],[-108.89679,37.76081],[-108.89682,37.76082],[-108.89788,37.76116],[-108.89806,37.76121],[-108.89813,37.76124],[-108.89834,37.7613],[-108.89897,37.76151],[-108.89918,37.76157],[-108.89939,37.76164],[-108.89982,37.76178],[-108.90087,37.76211],[-108.90151,37.76231],[-108.90184,37.76242],[-108.90226,37.76255],[-108.90262,37.76267],[-108.90316,37.76285],[-108.90373,37.76303],[-108.9041,37.76315],[-108.90429,37.76321],[-108.90456,37.7633],[-108.90494,37.76342],[-108.90522,37.76351],[-108.90559,37.76362],[-108.90643,37.7639],[-108.90685,37.76403],[-108.90702,37.76408],[-108.90723,37.76415],[-108.90737,37.76419],[-108.90764,37.76428],[-108.90859,37.76458],[-108.90883,37.76466],[-108.90915,37.76475],[-108.90955,37.76488],[-108.90972,37.76494],[-108.90992,37.765],[-108.91008,37.76505],[-108.91037,37.76514],[-108.91072,37.76525],[-108.91127,37.76543]]}}]}