{"type":"FeatureCollection","features":[{"type":"Feature","properties":{"_gpxType":"trk","name":"Country Inn Motel, U.S. 491, Dove Creek, CO - The Atomic Blue Motor Inn, North Main Street, Monticello, UT","coordinateProperties":{},"id":76},"geometry":{"type":"LineString","coordinates":[[-108.91127,37.76543],[-108.91141,37.76547],[-108.9139,37.76627],[-108.91442,37.76644],[-108.91463,37.76651],[-108.91484,37.76657],[-108.91505,37.76664],[-108.91526,37.76671],[-108.91547,37.76677],[-108.91568,37.76684],[-108.91589,37.76691],[-108.91604,37.76695],[-108.91654,37.7671],[-108.91697,37.76724],[-108.91721,37.76732],[-108.91761,37.76745],[-108.91781,37.76751],[-108.91886,37.76785],[-108.92072,37.76844],[-108.92086,37.76848],[-108.92186,37.7688],[-108.92288,37.76913],[-108.92383,37.76943],[-108.92499,37.7698],[-108.92593,37.7701],[-108.92605,37.77014],[-108.92626,37.7702],[-108.92647,37.77027],[-108.9271,37.77047],[-108.92742,37.77057],[-108.929,37.77108],[-108.93046,37.77154],[-108.93148,37.77187],[-108.93152,37.77188],[-108.93213,37.77207],[-108.93215,37.77208],[-108.93236,37.77214],[-108.93321,37.77241],[-108.93342,37.77248],[-108.93475,37.7729],[-108.93559,37.77317],[-108.9356,37.77318],[-108.93618,37.77336],[-108.93622,37.77338],[-108.93623,37.77338],[-108.93685,37.77358],[-108.93687,37.77359],[-108.937,37.77363],[-108.93706,37.77365],[-108.93774,37.77387],[-108.93833,37.77406],[-108.93894,37.77427],[-108.93939,37.77442],[-108.94055,37.7748],[-108.9414,37.77506],[-108.94158,37.77512],[-108.94192,37.77522],[-108.94233,37.77534],[-108.94255,37.77541],[-108.94277,37.77547],[-108.94298,37.77553],[-108.94328,37.77562],[-108.94338,37.77566],[-108.9437,37.77576],[-108.94434,37.77596],[-108.94468,37.77607],[-108.94489,37.77614],[-108.9451,37.7762],[-108.94531,37.77627],[-108.94573,37.77641],[-108.94574,37.77641],[-108.94594,37.77647],[-108.94616,37.77654],[-108.94637,37.7766],[-108.94667,37.7767],[-108.947,37.7768],[-108.94721,37.77687],[-108.94729,37.7769],[-108.94763,37.777],[-108.94785,37.77707],[-108.94801,37.77712],[-108.94806,37.77714],[-108.94827,37.77721],[-108.94869,37.77734],[-108.9489,37.77741],[-108.94975,37.77768],[-108.95038,37.77788],[-108.95039,37.77788],[-108.95059,37.77795],[-108.95101,37.77808],[-108.9512,37.77814],[-108.95175,37.77831],[-108.95207,37.77842],[-108.9523,37.77849],[-108.95281,37.77865],[-108.95312,37.77875],[-108.95341,37.77884],[-108.95351,37.77888],[-108.95354,37.77889],[-108.95372,37.77894],[-108.95541,37.77948],[-108.95647,37.77982],[-108.95668,37.77988],[-108.95731,37.78008],[-108.95752,37.78015],[-108.95773,37.78022],[-108.95816,37.78035],[-108.95887,37.78058],[-108.95958,37.78081],[-108.95979,37.78087],[-108.96042,37.78107],[-108.96064,37.78114],[-108.96131,37.78136],[-108.96219,37.78164],[-108.96233,37.78168],[-108.96254,37.78175],[-108.96273,37.78181],[-108.96301,37.78191],[-108.96323,37.78198],[-108.96337,37.78204],[-108.96347,37.78208],[-108.96365,37.78215],[-108.96393,37.78227],[-108.96417,37.78238],[-108.96438,37.78248],[-108.96463,37.78261],[-108.9648,37.78271],[-108.96493,37.78278],[-108.96503,37.78284],[-108.9652,37.78294],[-108.96554,37.78315],[-108.96582,37.78335],[-108.96603,37.7835],[-108.96651,37.78391],[-108.96694,37.7843],[-108.96765,37.78497],[-108.96809,37.7854],[-108.96943,37.78665],[-108.97047,37.78761],[-108.9712,37.7883],[-108.9715,37.78857],[-108.97164,37.78871],[-108.97191,37.78896],[-108.97209,37.78912],[-108.97223,37.78926],[-108.9726,37.7896],[-108.97297,37.78994],[-108.97326,37.79022],[-108.97341,37.79035],[-108.97361,37.79054],[-108.97371,37.79063],[-108.97416,37.79105],[-108.97425,37.79114],[-108.97466,37.79152],[-108.97468,37.79153],[-108.97484,37.79168],[-108.97502,37.79184],[-108.97511,37.79192],[-108.97513,37.79194],[-108.97536,37.79213],[-108.97569,37.79238],[-108.97575,37.79243],[-108.97595,37.79256],[-108.97618,37.79274],[-108.9764,37.79288],[-108.97658,37.79299],[-108.97672,37.79306],[-108.97711,37.79327],[-108.97734,37.79338],[-108.97776,37.79357],[-108.9779,37.79363],[-108.97799,37.79367],[-108.97832,37.79381],[-108.97951,37.79434],[-108.98089,37.79496],[-108.98187,37.7954],[-108.98239,37.79563],[-108.98322,37.79601],[-108.98385,37.79629],[-108.98426,37.79648],[-108.98464,37.79665],[-108.98518,37.79689],[-108.98525,37.79692],[-108.98569,37.79712],[-108.98626,37.79738],[-108.98663,37.79755],[-108.98665,37.79756],[-108.98708,37.79775],[-108.98771,37.79804],[-108.98813,37.79822],[-108.9895,37.79884],[-108.98991,37.79902],[-108.9902,37.79915],[-108.99129,37.79965],[-108.9918,37.79987],[-108.99197,37.79995],[-108.99284,37.80034],[-108.99355,37.80066],[-108.99362,37.8007],[-108.99434,37.80102],[-108.99534,37.80147],[-108.99624,37.80188],[-108.99652,37.80201],[-108.99653,37.80201],[-108.99692,37.80219],[-108.99761,37.8025],[-108.99772,37.80255],[-108.99808,37.80271],[-108.9986,37.80294],[-108.99871,37.80299],[-108.99879,37.80303],[-108.99958,37.80338],[-108.99959,37.80338],[-109.00003,37.80359],[-109.00037,37.80374],[-109.00093,37.804],[-109.00216,37.80454],[-109.00334,37.80508],[-109.00357,37.80518],[-109.00397,37.80535],[-109.00437,37.80552],[-109.00469,37.80564],[-109.00487,37.80571],[-109.00488,37.80571],[-109.00496,37.80574],[-109.00508,37.80579],[-109.00517,37.80581],[-109.00518,37.80582],[-109.00537,37.80589],[-109.0054,37.8059],[-109.00554,37.80594],[-109.00579,37.80603],[-109.0058,37.80603],[-109.00591,37.80607],[-109.00597,37.80608],[-109.006,37.80609],[-109.00613,37.80613],[-109.00637,37.8062],[-109.00658,37.80626],[-109.00692,37.80636],[-109.00713,37.80642],[-109.00755,37.80654],[-109.00813,37.80671],[-109.00848,37.80681],[-109.00857,37.80684],[-109.0086,37.80685],[-109.00878,37.8069],[-109.00884,37.80691],[-109.00912,37.807],[-109.00935,37.80707],[-109.00964,37.80715],[-109.01005,37.80727],[-109.01007,37.80727],[-109.01028,37.80733],[-109.01085,37.80749],[-109.01135,37.80763],[-109.01161,37.8077],[-109.01212,37.80784],[-109.01249,37.80794],[-109.01279,37.80802],[-109.01362,37.80824],[-109.01441,37.80844],[-109.0151,37.80862],[-109.01559,37.80876],[-109.01645,37.809],[-109.0173,37.80924],[-109.01752,37.8093],[-109.01753,37.80931],[-109.01837,37.80955],[-109.01859,37.80961],[-109.01923,37.8098],[-109.01944,37.80986],[-109.0203,37.81011],[-109.02051,37.81017],[-109.02094,37.81029],[-109.02115,37.81035],[-109.02158,37.81048],[-109.02179,37.81054],[-109.02252,37.81075],[-109.02316,37.81093],[-109.02365,37.81108],[-109.02451,37.81132],[-109.02472,37.81138],[-109.02494,37.81144],[-109.02558,37.81163],[-109.02579,37.81169],[-109.02604,37.81176],[-109.02683,37.81199],[-109.02736,37.81215],[-109.02838,37.81245],[-109.02906,37.81265],[-109.03063,37.8131],[-109.03234,37.8136],[-109.03298,37.81378],[-109.0332,37.81384],[-109.03336,37.81389],[-109.03405,37.81409],[-109.03499,37.81435],[-109.03626,37.81471],[-109.03671,37.81484],[-109.0376,37.81511],[-109.03817,37.81529],[-109.03901,37.81556],[-109.03912,37.81559],[-109.03965,37.81576],[-109.04091,37.81617],[-109.04155,37.81635],[-109.04194,37.81646],[-109.04212,37.81651],[-109.04276,37.8167],[-109.04295,37.81675],[-109.04311,37.8168],[-109.04341,37.81688],[-109.04384,37.81701],[-109.04427,37.81713],[-109.04471,37.81726],[-109.04491,37.81732],[-109.04492,37.81732],[-109.04513,37.81738],[-109.04534,37.81744],[-109.04577,37.81756],[-109.04604,37.81764],[-109.04675,37.81784],[-109.04727,37.81799],[-109.0473,37.818],[-109.04748,37.81805],[-109.04791,37.81818],[-109.04798,37.8182],[-109.04898,37.81848],[-109.04975,37.81871],[-109.05026,37.81886],[-109.05048,37.81892],[-109.05052,37.81893],[-109.05112,37.8191],[-109.05124,37.81914],[-109.05133,37.81916],[-109.05213,37.8194],[-109.05273,37.81957],[-109.05385,37.81989],[-109.0539,37.81991],[-109.05409,37.81996],[-109.05411,37.81997],[-109.05475,37.82015],[-109.05497,37.82022],[-109.05516,37.82027],[-109.05518,37.82028],[-109.05582,37.82046],[-109.05624,37.82058],[-109.05668,37.8207],[-109.05703,37.8208],[-109.05746,37.82091],[-109.06065,37.82184],[-109.06153,37.8221],[-109.06174,37.82216],[-109.0621,37.82227],[-109.06317,37.82258],[-109.06481,37.82305],[-109.06635,37.8235],[-109.06747,37.82382],[-109.06808,37.82399],[-109.06933,37.82435],[-109.06983,37.8245],[-109.06985,37.8245],[-109.07004,37.82456],[-109.07098,37.82483],[-109.07218,37.82517],[-109.0724,37.82523],[-109.07356,37.82557],[-109.07398,37.82568],[-109.07646,37.8264],[-109.07668,37.82646],[-109.07714,37.8266],[-109.0794,37.82725],[-109.0807,37.82762],[-109.08105,37.82772],[-109.08129,37.82779],[-109.08139,37.82781],[-109.08172,37.82791],[-109.08253,37.82815],[-109.08352,37.82843],[-109.08459,37.82874],[-109.08482,37.8288],[-109.08717,37.82948],[-109.08738,37.82954],[-109.08885,37.82996],[-109.08968,37.8302],[-109.08973,37.83022],[-109.08994,37.83028],[-109.09029,37.83038],[-109.09121,37.83064],[-109.09144,37.83071],[-109.09174,37.83079],[-109.09246,37.831],[-109.09289,37.83112],[-109.09354,37.83131],[-109.09358,37.83132],[-109.0938,37.83138],[-109.09418,37.83149],[-109.09492,37.8317],[-109.09557,37.83189],[-109.09596,37.832],[-109.0963,37.8321],[-109.09658,37.83218],[-109.09673,37.83222],[-109.09679,37.83224],[-109.09713,37.83234],[-109.09803,37.8326],[-109.09959,37.83305],[-109.10017,37.83322],[-109.10106,37.83347],[-109.10163,37.83364],[-109.10197,37.83373],[-109.10215,37.83379],[-109.10237,37.83385],[-109.10239,37.83386],[-109.10312,37.83406],[-109.10322,37.83409],[-109.10395,37.8343],[-109.10408,37.83434],[-109.10465,37.8345],[-109.10557,37.83476],[-109.10644,37.83501],[-109.10652,37.83504],[-109.10665,37.83508],[-109.10815,37.83551],[-109.10922,37.83581],[-109.10931,37.83584],[-109.11167,37.83652],[-109.11199,37.83661],[-109.11279,37.83684],[-109.11335,37.83699],[-109.11424,37.83724],[-109.11517,37.8375],[-109.1154,37.83757],[-109.11594,37.83773],[-109.11639,37.83786],[-109.1168,37.83799],[-109.11768,37.83824],[-109.11836,37.83844],[-109.11872,37.83854],[-109.11898,37.83862],[-109.11922,37.83869],[-109.11925,37.8387],[-109.12029,37.839],[-109.12163,37.83939],[-109.1224,37.83961],[-109.12276,37.8397],[-109.1232,37.83983],[-109.12389,37.84002],[-109.12414,37.84009],[-109.12435,37.84016],[-109.12517,37.84039],[-109.12615,37.84067],[-109.12628,37.84071],[-109.12691,37.84089],[-109.12719,37.84097],[-109.12735,37.84101],[-109.12749,37.84106],[-109.12807,37.84122],[-109.12906,37.84151],[-109.12927,37.84157],[-109.12945,37.84162],[-109.13019,37.84183],[-109.13099,37.84205],[-109.13216,37.84238],[-109.13318,37.84268],[-109.13382,37.84287],[-109.13432,37.84302],[-109.13476,37.84314],[-109.1361,37.84352],[-109.13658,37.84365],[-109.13732,37.84384],[-109.13751,37.84389],[-109.13765,37.84393],[-109.13848,37.84413],[-109.13979,37.84443],[-109.1412,37.84475],[-109.14207,37.84495],[-109.14246,37.84503],[-109.14271,37.84509],[-109.14295,37.84514],[-109.14317,37.8452],[-109.1433,37.84523],[-109.1436,37.8453],[-109.14393,37.84537],[-109.14535,37.8457],[-109.14576,37.84579],[-109.14627,37.84591],[-109.14688,37.84605],[-109.14819,37.84636],[-109.14835,37.84639],[-109.14907,37.84656],[-109.14958,37.84668],[-109.14967,37.8467],[-109.14988,37.84675],[-109.1501,37.8468],[-109.15016,37.84681],[-109.15103,37.84701],[-109.1512,37.84705],[-109.15125,37.84706],[-109.15163,37.84715],[-109.15185,37.8472],[-109.15229,37.8473],[-109.1525,37.84735],[-109.15251,37.84735],[-109.15257,37.84736],[-109.15273,37.8474],[-109.15295,37.84745],[-109.15396,37.84769],[-109.15417,37.84774],[-109.15519,37.84797],[-109.15644,37.84826],[-109.15666,37.84831],[-109.15672,37.84832],[-109.15678,37.84834],[-109.15688,37.84836],[-109.15776,37.84856],[-109.1578,37.84857],[-109.15851,37.84874],[-109.15863,37.84876],[-109.15935,37.84893],[-109.15953,37.84897],[-109.15972,37.84901],[-109.15994,37.84906],[-109.16025,37.84914],[-109.16083,37.84927],[-109.16147,37.84942],[-109.16163,37.84945],[-109.16225,37.8496],[-109.16309,37.84979],[-109.16366,37.84992],[-109.16432,37.85007],[-109.16454,37.85012],[-109.16455,37.85012],[-109.16519,37.85027],[-109.16541,37.85032],[-109.16585,37.85043],[-109.16716,37.85073],[-109.16814,37.85095],[-109.16968,37.85131],[-109.17079,37.85156],[-109.1711,37.85164],[-109.17131,37.85169],[-109.17174,37.85178],[-109.17203,37.85185],[-109.17263,37.85199],[-109.17313,37.85211],[-109.17356,37.85221],[-109.17372,37.85225],[-109.17459,37.85245],[-109.17493,37.85252],[-109.17598,37.85277],[-109.17612,37.8528],[-109.177,37.85298],[-109.17787,37.85318],[-109.17853,37.85333],[-109.18028,37.85374],[-109.18093,37.85389],[-109.18115,37.85394],[-109.18203,37.85414],[-109.18458,37.85473],[-109.18765,37.85543],[-109.18771,37.85545],[-109.18787,37.85548],[-109.18984,37.85593],[-109.19094,37.85618],[-109.19208,37.85645],[-109.19234,37.85651],[-109.19761,37.85772],[-109.19892,37.85802],[-109.19914,37.85808],[-109.20024,37.85833],[-109.2021,37.85876],[-109.20249,37.85885],[-109.20269,37.85889],[-109.20406,37.8592],[-109.20424,37.85924],[-109.20428,37.85925],[-109.2045,37.8593],[-109.20625,37.85972],[-109.20728,37.85995],[-109.20849,37.86022],[-109.2091,37.86036],[-109.20925,37.86039],[-109.21171,37.86096],[-109.21193,37.86101],[-109.21258,37.86116],[-109.2128,37.86121],[-109.21302,37.86126],[-109.21389,37.86147],[-109.21411,37.86152],[-109.21439,37.86158],[-109.21564,37.86187],[-109.21645,37.86205],[-109.21667,37.8621],[-109.21668,37.8621],[-109.21733,37.86225],[-109.21798,37.8624],[-109.2182,37.86245],[-109.21886,37.86261],[-109.21951,37.86276],[-109.22039,37.86296],[-109.22061,37.86301],[-109.22236,37.86341],[-109.2228,37.86351],[-109.22345,37.86366],[-109.22348,37.86367],[-109.22433,37.86387],[-109.22553,37.86414],[-109.22728,37.86454],[-109.22884,37.86489],[-109.22906,37.86494],[-109.22933,37.865],[-109.23037,37.86524],[-109.23059,37.86529],[-109.23168,37.86555],[-109.2319,37.8656],[-109.23343,37.86595],[-109.23412,37.86611],[-109.23434,37.86616],[-109.23499,37.86631],[-109.23652,37.86667],[-109.23718,37.86682],[-109.23762,37.86692],[-109.23783,37.86697],[-109.23893,37.86722],[-109.2398,37.86742],[-109.24068,37.86762],[-109.2409,37.86767],[-109.24139,37.86778],[-109.24286,37.86813],[-109.24396,37.86839],[-109.2456,37.86876],[-109.2466,37.86899],[-109.24748,37.86919],[-109.2477,37.86924],[-109.24857,37.86944],[-109.24989,37.86974],[-109.25076,37.86994],[-109.2512,37.87005],[-109.25174,37.87017],[-109.25239,37.87033],[-109.2524,37.87033],[-109.25261,37.87038],[-109.2538,37.87065],[-109.25415,37.87072],[-109.25437,37.87077],[-109.25485,37.87087],[-109.25574,37.87107],[-109.25684,37.87131],[-109.25685,37.87132],[-109.25706,37.87137],[-109.25818,37.87163],[-109.25949,37.87193],[-109.2595,37.87194],[-109.26015,37.87209],[-109.26061,37.8722],[-109.26141,37.87237],[-109.26191,37.87246],[-109.26227,37.87253],[-109.26265,37.8726],[-109.26288,37.87263],[-109.26312,37.87267],[-109.26391,37.87276],[-109.26423,37.87278],[-109.26459,37.8728],[-109.26498,37.87282],[-109.26536,37.87283],[-109.26575,37.87284],[-109.26584,37.87284],[-109.26598,37.87284],[-109.26636,37.87285],[-109.26704,37.87286],[-109.26757,37.87286],[-109.2679,37.87286],[-109.26894,37.87286],[-109.26917,37.87286],[-109.26939,37.87286],[-109.27031,37.87287],[-109.27145,37.87286],[-109.27162,37.87286],[-109.27167,37.87286],[-109.27253,37.87286],[-109.27595,37.87285],[-109.27619,37.87285],[-109.2767,37.87285],[-109.2771,37.87285],[-109.27715,37.87285],[-109.27738,37.87285],[-109.27761,37.87285],[-109.2781,37.87285],[-109.27878,37.87285],[-109.27901,37.87285],[-109.27946,37.87285],[-109.2805,37.87285],[-109.28096,37.87285],[-109.28118,37.87285],[-109.28164,37.87286],[-109.28187,37.87286],[-109.28232,37.87286],[-109.28255,37.87286],[-109.28278,37.87286],[-109.28344,37.87286],[-109.28381,37.87286],[-109.28449,37.87286],[-109.28472,37.87286],[-109.28495,37.87286],[-109.28586,37.87285],[-109.28609,37.87285],[-109.28632,37.87285],[-109.28791,37.87285],[-109.28814,37.87285],[-109.28996,37.87285],[-109.29019,37.87284],[-109.29156,37.87284],[-109.29247,37.87284],[-109.29394,37.87284],[-109.29406,37.87284],[-109.29463,37.87284],[-109.29498,37.87284],[-109.2952,37.87284],[-109.29554,37.87284],[-109.29566,37.87284],[-109.29703,37.87284],[-109.29714,37.87284],[-109.29908,37.87283],[-109.29941,37.87283],[-109.29976,37.87283],[-109.30048,37.87283],[-109.30105,37.87283],[-109.30204,37.87283],[-109.30227,37.87283],[-109.30278,37.87283],[-109.30341,37.87283],[-109.30452,37.87283],[-109.30607,37.87281],[-109.30607,37.87281],[-109.30676,37.87281],[-109.30769,37.8728],[-109.30843,37.8728],[-109.30921,37.87279],[-109.31011,37.87281],[-109.31124,37.87281],[-109.3117,37.87281],[-109.31253,37.87281],[-109.31376,37.87282],[-109.31517,37.87281],[-109.316,37.87281],[-109.31773,37.87282],[-109.31894,37.87282],[-109.31953,37.87281],[-109.32009,37.87281],[-109.32031,37.87281],[-109.32032,37.87281],[-109.32076,37.87281],[-109.32101,37.87281],[-109.32123,37.87281],[-109.32145,37.87281],[-109.32169,37.87281],[-109.32283,37.8728],[-109.32351,37.8728],[-109.32426,37.8728],[-109.3246,37.8728],[-109.32492,37.8728],[-109.32553,37.8728],[-109.32735,37.87281],[-109.32917,37.87281],[-109.3304,37.8728],[-109.33062,37.8728],[-109.33085,37.8728],[-109.3329,37.87279],[-109.33417,37.87279],[-109.33463,37.87279],[-109.33511,37.87278],[-109.33544,37.87278],[-109.3355,37.87278],[-109.33636,37.87275],[-109.33695,37.8727],[-109.33741,37.87267],[-109.33781,37.87266],[-109.33793,37.87265],[-109.33871,37.87262],[-109.33875,37.87261],[-109.33922,37.8726],[-109.34057,37.87262],[-109.34106,37.87262],[-109.3416,37.87263],[-109.34222,37.87263],[-109.34291,37.87264],[-109.34291,37.87264],[-109.34292,37.87282],[-109.34291,37.87299],[-109.34291,37.87322],[-109.34291,37.87338],[-109.34291,37.87365],[-109.34291,37.87396],[-109.34291,37.87433],[-109.34292,37.87458],[-109.34292,37.87495],[-109.34292,37.87501],[-109.34292,37.87543],[-109.34292,37.87587]]}}]}