{"type":"FeatureCollection","features":[{"type":"Feature","properties":{"_gpxType":"trk","name":"The Atomic Blue Motor Inn, North Main Street, Monticello, UT - Blue Mountain RV & Trading, South Main Street, Blanding, UT","coordinateProperties":{},"id":77},"geometry":{"type":"LineString","coordinates":[[-109.34292,37.87587],[-109.34292,37.87543],[-109.34292,37.87501],[-109.34292,37.87495],[-109.34292,37.87458],[-109.34291,37.87433],[-109.34291,37.87396],[-109.34291,37.87365],[-109.34291,37.87338],[-109.34291,37.87322],[-109.34291,37.87299],[-109.34292,37.87282],[-109.34291,37.87264],[-109.34292,37.87222],[-109.34293,37.87169],[-109.34294,37.87122],[-109.34294,37.8708],[-109.34296,37.87013],[-109.34296,37.86973],[-109.34297,37.86936],[-109.34298,37.8691],[-109.34298,37.86868],[-109.34299,37.86849],[-109.34299,37.86832],[-109.34299,37.86786],[-109.34299,37.86722],[-109.343,37.86684],[-109.34299,37.86668],[-109.34299,37.86632],[-109.34298,37.86579],[-109.34294,37.86552],[-109.34284,37.86518],[-109.34276,37.86494],[-109.34268,37.86477],[-109.34261,37.8646],[-109.34259,37.86456],[-109.34232,37.86412],[-109.34219,37.86396],[-109.34206,37.86378],[-109.34198,37.8637],[-109.34188,37.8636],[-109.34181,37.86351],[-109.34169,37.8634],[-109.34164,37.86335],[-109.3416,37.86331],[-109.34131,37.86306],[-109.34099,37.86278],[-109.34094,37.86274],[-109.34056,37.86251],[-109.34029,37.86229],[-109.34024,37.86223],[-109.34016,37.86216],[-109.33979,37.86183],[-109.33978,37.86182],[-109.33962,37.86169],[-109.33949,37.86158],[-109.33937,37.86147],[-109.33933,37.86143],[-109.33929,37.86139],[-109.33918,37.86129],[-109.33913,37.86124],[-109.33899,37.86111],[-109.33875,37.86087],[-109.33872,37.86084],[-109.33862,37.86072],[-109.33853,37.86061],[-109.33843,37.8605],[-109.33832,37.86036],[-109.33824,37.86025],[-109.33815,37.86012],[-109.33807,37.86],[-109.33794,37.85979],[-109.33791,37.85974],[-109.33786,37.85965],[-109.33785,37.85963],[-109.33778,37.85951],[-109.33776,37.85948],[-109.3377,37.85936],[-109.33767,37.85931],[-109.33755,37.85907],[-109.33742,37.85878],[-109.33731,37.85852],[-109.33722,37.85827],[-109.33715,37.85805],[-109.33712,37.85795],[-109.33708,37.85783],[-109.33706,37.85774],[-109.33706,37.85773],[-109.33704,37.85763],[-109.33703,37.85761],[-109.33701,37.8575],[-109.33696,37.85728],[-109.33694,37.8572],[-109.33693,37.85708],[-109.33691,37.85696],[-109.33691,37.85683],[-109.3369,37.85671],[-109.33689,37.85659],[-109.33688,37.8563],[-109.33688,37.85594],[-109.33688,37.85522],[-109.33688,37.85504],[-109.33688,37.85486],[-109.33688,37.85375],[-109.33689,37.85311],[-109.33689,37.85269],[-109.33689,37.85228],[-109.33689,37.8518],[-109.3369,37.85162],[-109.33689,37.85143],[-109.33689,37.85092],[-109.33689,37.85071],[-109.33689,37.85016],[-109.33689,37.84978],[-109.33689,37.84969],[-109.33689,37.84912],[-109.33689,37.84821],[-109.3369,37.84734],[-109.3369,37.84731],[-109.3369,37.8466],[-109.33688,37.84562],[-109.33688,37.84542],[-109.33688,37.84509],[-109.33688,37.84472],[-109.33688,37.84353],[-109.33689,37.84173],[-109.3369,37.84081],[-109.3369,37.84059],[-109.3369,37.83899],[-109.3369,37.8383],[-109.3369,37.83801],[-109.33691,37.83704],[-109.33691,37.83649],[-109.33691,37.83523],[-109.33691,37.83415],[-109.33691,37.83385],[-109.33691,37.83272],[-109.33691,37.8317],[-109.33692,37.83099],[-109.33692,37.83034],[-109.33692,37.8303],[-109.33692,37.82958],[-109.33693,37.82886],[-109.33693,37.82803],[-109.33693,37.82695],[-109.33693,37.82536],[-109.33693,37.82515],[-109.33693,37.82503],[-109.33693,37.82497],[-109.33693,37.82452],[-109.33693,37.82439],[-109.33694,37.8236],[-109.33694,37.82336],[-109.33694,37.82316],[-109.33694,37.823],[-109.33694,37.82238],[-109.33694,37.822],[-109.33694,37.8217],[-109.33694,37.82143],[-109.33695,37.82097],[-109.33695,37.82062],[-109.33695,37.82024],[-109.33695,37.8199],[-109.33695,37.81976],[-109.33695,37.81958],[-109.33695,37.81914],[-109.33695,37.81779],[-109.33695,37.81681],[-109.33694,37.81598],[-109.33694,37.8153],[-109.33694,37.81454],[-109.33694,37.81448],[-109.33694,37.8141],[-109.33694,37.81377],[-109.33695,37.81359],[-109.33695,37.81251],[-109.33695,37.81225],[-109.33695,37.81175],[-109.33695,37.81161],[-109.33695,37.81124],[-109.33696,37.81089],[-109.33696,37.81033],[-109.33696,37.80981],[-109.33696,37.80875],[-109.33696,37.8078],[-109.33697,37.80676],[-109.33697,37.80658],[-109.33698,37.80619],[-109.33698,37.80604],[-109.337,37.80572],[-109.33703,37.80533],[-109.33704,37.80522],[-109.33705,37.80509],[-109.33706,37.80502],[-109.33708,37.80483],[-109.33713,37.8045],[-109.33719,37.80409],[-109.33722,37.8039],[-109.33732,37.80342],[-109.33741,37.803],[-109.33752,37.80259],[-109.33763,37.80214],[-109.33766,37.80206],[-109.33775,37.80176],[-109.33785,37.80147],[-109.33793,37.80128],[-109.33806,37.80094],[-109.33819,37.80058],[-109.33825,37.80041],[-109.33836,37.8001],[-109.33846,37.79984],[-109.33867,37.7993],[-109.33871,37.79919],[-109.33892,37.79863],[-109.33893,37.79859],[-109.33912,37.79809],[-109.33929,37.79766],[-109.33931,37.7976],[-109.33956,37.79694],[-109.3397,37.79657],[-109.33991,37.79602],[-109.34001,37.79575],[-109.34023,37.79517],[-109.34028,37.79501],[-109.34035,37.7948],[-109.34055,37.79425],[-109.34068,37.7939],[-109.34069,37.79389],[-109.3409,37.79333],[-109.34109,37.79282],[-109.34116,37.79264],[-109.34122,37.79249],[-109.34133,37.79223],[-109.34137,37.79214],[-109.34143,37.79202],[-109.34146,37.79197],[-109.34147,37.79195],[-109.34153,37.79185],[-109.34156,37.7918],[-109.3416,37.79174],[-109.34166,37.79164],[-109.34172,37.79156],[-109.34178,37.79148],[-109.34183,37.79141],[-109.3419,37.79132],[-109.34196,37.79125],[-109.34202,37.79118],[-109.34203,37.79116],[-109.3421,37.79109],[-109.34215,37.79103],[-109.34219,37.79099],[-109.3424,37.79078],[-109.34246,37.79072],[-109.34257,37.79062],[-109.34277,37.79045],[-109.3429,37.79033],[-109.34301,37.79024],[-109.34318,37.79011],[-109.34328,37.79004],[-109.34341,37.78995],[-109.34347,37.78991],[-109.34354,37.78987],[-109.34357,37.78985],[-109.34364,37.78981],[-109.34373,37.78976],[-109.34384,37.7897],[-109.34392,37.78966],[-109.34423,37.78951],[-109.34463,37.7893],[-109.3452,37.78901],[-109.3456,37.78881],[-109.3458,37.78871],[-109.34595,37.78863],[-109.34612,37.78855],[-109.34623,37.78849],[-109.3464,37.78839],[-109.34647,37.78835],[-109.34656,37.78831],[-109.34664,37.78826],[-109.34671,37.78821],[-109.34675,37.78818],[-109.3468,37.78814],[-109.34687,37.78809],[-109.34699,37.78799],[-109.34708,37.78791],[-109.34712,37.78788],[-109.34722,37.78779],[-109.34734,37.78767],[-109.34745,37.78756],[-109.34764,37.78735],[-109.3477,37.78728],[-109.34777,37.7872],[-109.34783,37.78713],[-109.34794,37.78699],[-109.34806,37.78683],[-109.34812,37.78674],[-109.34821,37.78661],[-109.34823,37.78658],[-109.34848,37.78619],[-109.34853,37.78613],[-109.34874,37.78581],[-109.34879,37.78572],[-109.34895,37.78549],[-109.34898,37.78545],[-109.34906,37.78533],[-109.34917,37.78516],[-109.34955,37.78459],[-109.34957,37.78456],[-109.34976,37.78429],[-109.34987,37.78411],[-109.34999,37.78391],[-109.35011,37.7837],[-109.35013,37.78367],[-109.35026,37.78343],[-109.35083,37.78232],[-109.35097,37.78203],[-109.35125,37.78148],[-109.35127,37.78143],[-109.35144,37.78109],[-109.35159,37.78079],[-109.35175,37.78045],[-109.35179,37.78037],[-109.35194,37.78007],[-109.35202,37.77989],[-109.3521,37.77975],[-109.3522,37.77958],[-109.35232,37.77938],[-109.35241,37.77921],[-109.35243,37.77918],[-109.35269,37.77875],[-109.35304,37.77822],[-109.35305,37.77821],[-109.35343,37.7777],[-109.35363,37.77746],[-109.35403,37.77699],[-109.35428,37.7767],[-109.35441,37.77656],[-109.35455,37.77641],[-109.3547,37.77627],[-109.35477,37.77619],[-109.35498,37.77598],[-109.35502,37.77594],[-109.35523,37.77574],[-109.35542,37.77557],[-109.35557,37.77544],[-109.35562,37.7754],[-109.35619,37.77492],[-109.35715,37.77421],[-109.35747,37.77397],[-109.35784,37.77373],[-109.35804,37.7736],[-109.35835,37.77341],[-109.35892,37.77308],[-109.35904,37.77301],[-109.3594,37.77282],[-109.35993,37.77256],[-109.36061,37.77224],[-109.36064,37.77223],[-109.36086,37.77213],[-109.36102,37.77206],[-109.36155,37.77185],[-109.36187,37.77173],[-109.36208,37.77166],[-109.36241,37.77154],[-109.36312,37.7713],[-109.36315,37.77129],[-109.36334,37.77124],[-109.36411,37.77102],[-109.3646,37.77091],[-109.36463,37.7709],[-109.36485,37.77085],[-109.36527,37.77075],[-109.36574,37.77066],[-109.36618,37.77059],[-109.36638,37.77056],[-109.3664,37.77055],[-109.36729,37.77042],[-109.37065,37.76994],[-109.37084,37.76991],[-109.37101,37.76988],[-109.37159,37.76978],[-109.37166,37.76977],[-109.372,37.76971],[-109.37204,37.7697],[-109.37214,37.76968],[-109.37248,37.76961],[-109.37275,37.76956],[-109.37284,37.76954],[-109.37337,37.76943],[-109.37388,37.76931],[-109.37433,37.76919],[-109.37469,37.76909],[-109.37491,37.76903],[-109.37501,37.769],[-109.37522,37.76894],[-109.37565,37.7688],[-109.37591,37.76872],[-109.37662,37.76848],[-109.37698,37.76835],[-109.37742,37.76818],[-109.3777,37.76808],[-109.37783,37.76802],[-109.37796,37.76796],[-109.37809,37.76791],[-109.37823,37.76785],[-109.37896,37.76753],[-109.37979,37.76719],[-109.37983,37.76717],[-109.38105,37.76662],[-109.38173,37.76632],[-109.38259,37.76596],[-109.38359,37.76553],[-109.38362,37.76552],[-109.38382,37.76543],[-109.38521,37.76482],[-109.3854,37.76474],[-109.38541,37.76474],[-109.38656,37.76422],[-109.3867,37.76416],[-109.38689,37.76408],[-109.3877,37.76373],[-109.38852,37.76337],[-109.38932,37.76303],[-109.38994,37.76276],[-109.39013,37.76268],[-109.39032,37.7626],[-109.39033,37.7626],[-109.39075,37.76242],[-109.39112,37.76225],[-109.39113,37.76225],[-109.39132,37.76217],[-109.39148,37.76209],[-109.39186,37.76191],[-109.39209,37.76179],[-109.3921,37.76179],[-109.39217,37.76175],[-109.39275,37.76144],[-109.39308,37.76124],[-109.39321,37.76116],[-109.39336,37.76107],[-109.39338,37.76105],[-109.39356,37.76093],[-109.39377,37.76078],[-109.39399,37.76063],[-109.39427,37.76042],[-109.3945,37.76024],[-109.3948,37.75999],[-109.39487,37.75994],[-109.39503,37.7598],[-109.39513,37.75971],[-109.39518,37.75967],[-109.39547,37.7594],[-109.39564,37.75924],[-109.39591,37.75898],[-109.39618,37.75869],[-109.3964,37.75844],[-109.39687,37.75787],[-109.39723,37.75741],[-109.39766,37.75677],[-109.3978,37.75653],[-109.39798,37.75622],[-109.39805,37.75608],[-109.39807,37.75605],[-109.39824,37.7557],[-109.39845,37.75523],[-109.39846,37.75519],[-109.39869,37.75456],[-109.39872,37.75447],[-109.39877,37.75433],[-109.39885,37.75399],[-109.39891,37.75378],[-109.39902,37.75321],[-109.39911,37.75267],[-109.39914,37.75249],[-109.39937,37.75124],[-109.39963,37.74981],[-109.39995,37.74803],[-109.39998,37.7478],[-109.40002,37.74761],[-109.40007,37.74728],[-109.40018,37.74682],[-109.4003,37.74636],[-109.40049,37.7457],[-109.4006,37.74538],[-109.40065,37.74525],[-109.40071,37.74509],[-109.40083,37.7448],[-109.40087,37.74468],[-109.4009,37.74463],[-109.40101,37.74437],[-109.40105,37.74429],[-109.40113,37.74412],[-109.40126,37.74385],[-109.40129,37.74378],[-109.40138,37.74362],[-109.4014,37.74356],[-109.40146,37.74345],[-109.40156,37.74327],[-109.40174,37.74296],[-109.40209,37.74239],[-109.40383,37.73961],[-109.40386,37.73957],[-109.40396,37.73941],[-109.40416,37.73909],[-109.40437,37.73877],[-109.40447,37.73861],[-109.40458,37.73845],[-109.40486,37.73801],[-109.40488,37.73797],[-109.40499,37.73781],[-109.40523,37.73743],[-109.40541,37.73717],[-109.40552,37.73701],[-109.40564,37.73685],[-109.40599,37.73636],[-109.40609,37.73623],[-109.40631,37.73596],[-109.40633,37.73593],[-109.40659,37.73563],[-109.40661,37.7356],[-109.40671,37.73548],[-109.40692,37.73524],[-109.40763,37.73445],[-109.4077,37.73437],[-109.40776,37.7343],[-109.40812,37.73389],[-109.40827,37.73371],[-109.40859,37.73333],[-109.40891,37.73296],[-109.40936,37.73243],[-109.40967,37.73207],[-109.41043,37.73119],[-109.41086,37.7307],[-109.41208,37.72917],[-109.41318,37.72772],[-109.414,37.72662],[-109.41415,37.72641],[-109.41518,37.72501],[-109.41574,37.72423],[-109.4163,37.72344],[-109.41641,37.72329],[-109.41697,37.7225],[-109.41809,37.72094],[-109.4182,37.72078],[-109.41842,37.72047],[-109.41865,37.72015],[-109.41867,37.72012],[-109.41897,37.7197],[-109.41909,37.71953],[-109.41909,37.71952],[-109.41919,37.71936],[-109.41925,37.71926],[-109.41936,37.71906],[-109.41937,37.71903],[-109.41945,37.71886],[-109.41953,37.7187],[-109.41956,37.71863],[-109.41966,37.71835],[-109.41996,37.71759],[-109.42012,37.71715],[-109.42019,37.71698],[-109.42026,37.7168],[-109.42032,37.71664],[-109.42032,37.71663],[-109.42039,37.71645],[-109.42049,37.71615],[-109.42057,37.71598],[-109.42058,37.71594],[-109.42061,37.71586],[-109.42065,37.71575],[-109.42069,37.71562],[-109.42073,37.71549],[-109.4208,37.71518],[-109.42084,37.71493],[-109.42086,37.71473],[-109.42087,37.71462],[-109.42088,37.71453],[-109.42088,37.71444],[-109.42089,37.71333],[-109.42089,37.71318],[-109.42089,37.71246],[-109.42089,37.71237],[-109.42089,37.71229],[-109.42091,37.71193],[-109.4209,37.71165],[-109.4209,37.71156],[-109.4209,37.71147],[-109.42089,37.71115],[-109.42088,37.71066],[-109.42089,37.71044],[-109.4209,37.71023],[-109.4209,37.71021],[-109.42091,37.71012],[-109.42094,37.70987],[-109.42096,37.70977],[-109.42097,37.70969],[-109.421,37.70959],[-109.42102,37.7095],[-109.42102,37.70948],[-109.42108,37.70926],[-109.42109,37.70924],[-109.42111,37.70915],[-109.42114,37.70906],[-109.42116,37.709],[-109.42117,37.70897],[-109.4212,37.70889],[-109.42123,37.7088],[-109.42127,37.70872],[-109.4213,37.70864],[-109.42135,37.70855],[-109.4214,37.70847],[-109.42143,37.70841],[-109.42157,37.70817],[-109.42175,37.70787],[-109.42195,37.70755],[-109.42235,37.70694],[-109.42252,37.70667],[-109.42261,37.70653],[-109.42266,37.70645],[-109.42275,37.70631],[-109.42283,37.70619],[-109.42293,37.70606],[-109.42301,37.70595],[-109.4231,37.70585],[-109.42331,37.70561],[-109.42338,37.70554],[-109.42344,37.70546],[-109.42351,37.70539],[-109.42364,37.70524],[-109.4237,37.70517],[-109.42377,37.70509],[-109.42382,37.70503],[-109.42429,37.70451],[-109.42435,37.70445],[-109.42436,37.70443],[-109.42449,37.70428],[-109.42494,37.70378],[-109.42515,37.70355],[-109.42521,37.70348],[-109.42528,37.7034],[-109.42533,37.70335],[-109.42534,37.70333],[-109.42547,37.70318],[-109.42578,37.70285],[-109.426,37.7026],[-109.42601,37.70259],[-109.42626,37.70228],[-109.42644,37.70201],[-109.42646,37.70198],[-109.42654,37.70184],[-109.42663,37.70167],[-109.42664,37.70165],[-109.42668,37.70156],[-109.42672,37.70148],[-109.42675,37.7014],[-109.42679,37.70131],[-109.42686,37.70117],[-109.42687,37.70114],[-109.42691,37.70105],[-109.42694,37.70097],[-109.42726,37.70022],[-109.42767,37.69926],[-109.42771,37.69917],[-109.42781,37.69892],[-109.42785,37.69884],[-109.42817,37.69807],[-109.42817,37.69806],[-109.42831,37.69773],[-109.42835,37.69764],[-109.42853,37.69722],[-109.4286,37.69705],[-109.42892,37.69628],[-109.42896,37.69619],[-109.429,37.69611],[-109.42905,37.69597],[-109.4291,37.69585],[-109.42939,37.69517],[-109.42987,37.69404],[-109.43,37.69373],[-109.43015,37.69338],[-109.43018,37.69329],[-109.43022,37.6932],[-109.43025,37.69312],[-109.43032,37.69295],[-109.43085,37.6917],[-109.43104,37.69124],[-109.43111,37.69107],[-109.43119,37.6909],[-109.43122,37.69082],[-109.43134,37.69053],[-109.43155,37.69005],[-109.43158,37.68998],[-109.43162,37.68988],[-109.43169,37.68972],[-109.43169,37.68971],[-109.43173,37.68962],[-109.43176,37.68954],[-109.43183,37.68936],[-109.43189,37.68919],[-109.4319,37.68914],[-109.43194,37.68902],[-109.43196,37.68893],[-109.43199,37.68884],[-109.43204,37.68866],[-109.43205,37.68857],[-109.43207,37.68848],[-109.43212,37.68823],[-109.43213,37.68813],[-109.43214,37.68795],[-109.43215,37.68789],[-109.43216,37.68777],[-109.43216,37.68768],[-109.43217,37.68759],[-109.43217,37.6875],[-109.43218,37.68741],[-109.43218,37.68723],[-109.4322,37.68687],[-109.43221,37.68662],[-109.43221,37.6866],[-109.43221,37.68651],[-109.43221,37.68638],[-109.43222,37.68633],[-109.43225,37.68543],[-109.43226,37.68513],[-109.43228,37.68444],[-109.43231,37.68339],[-109.43236,37.68234],[-109.43237,37.68188],[-109.43237,37.68158],[-109.43235,37.68115],[-109.43232,37.68091],[-109.43225,37.68059],[-109.43218,37.68032],[-109.43201,37.67978],[-109.4318,37.67926],[-109.4317,37.67903],[-109.43163,37.67888],[-109.43141,37.67832],[-109.4312,37.67787],[-109.43091,37.67713],[-109.43081,37.67689],[-109.43073,37.67669],[-109.43068,37.67655],[-109.43065,37.67647],[-109.43064,37.67641],[-109.4306,37.67625],[-109.43046,37.67574],[-109.43038,37.67529],[-109.43031,37.67487],[-109.43026,37.67445],[-109.43023,37.67412],[-109.43022,37.67382],[-109.43021,37.67341],[-109.43021,37.67325],[-109.43021,37.67288],[-109.43023,37.67252],[-109.43026,37.67216],[-109.43032,37.67165],[-109.43032,37.67164],[-109.43034,37.67151],[-109.43035,37.67146],[-109.43037,37.67139],[-109.43041,37.67121],[-109.43048,37.67093],[-109.43052,37.67075],[-109.43055,37.67066],[-109.43057,37.67058],[-109.43064,37.67032],[-109.43078,37.66988],[-109.43083,37.66976],[-109.43096,37.66946],[-109.43125,37.66881],[-109.43166,37.66797],[-109.43174,37.66781],[-109.43182,37.66764],[-109.4319,37.66747],[-109.43207,37.66714],[-109.4323,37.66667],[-109.43256,37.66617],[-109.43277,37.66577],[-109.43278,37.66576],[-109.43308,37.66523],[-109.43326,37.66496],[-109.43343,37.66469],[-109.43347,37.66464],[-109.43377,37.6642],[-109.43405,37.66387],[-109.43454,37.66326],[-109.43469,37.6631],[-109.43514,37.66263],[-109.43518,37.66258],[-109.43534,37.66243],[-109.43553,37.66224],[-109.43583,37.66197],[-109.43618,37.66166],[-109.4366,37.66131],[-109.43722,37.66084],[-109.43728,37.6608],[-109.43745,37.66068],[-109.43796,37.66032],[-109.43799,37.6603],[-109.43813,37.6602],[-109.43864,37.65984],[-109.43882,37.65971],[-109.43937,37.65935],[-109.4395,37.65926],[-109.44028,37.65873],[-109.44082,37.65834],[-109.44173,37.65771],[-109.44192,37.65758],[-109.44291,37.65692],[-109.44339,37.65662],[-109.44354,37.65654],[-109.44378,37.6564],[-109.44392,37.65633],[-109.44412,37.65622],[-109.44443,37.65607],[-109.44466,37.65596],[-109.44489,37.65586],[-109.44521,37.65572],[-109.44525,37.65571],[-109.44545,37.65563],[-109.44564,37.65557],[-109.44575,37.65552],[-109.44589,37.65548],[-109.44604,37.65543],[-109.44642,37.65533],[-109.44647,37.65531],[-109.44668,37.65525],[-109.44717,37.65512],[-109.44754,37.65502],[-109.44848,37.65483],[-109.44879,37.65479],[-109.44882,37.65478],[-109.4493,37.65472],[-109.44991,37.65467],[-109.45045,37.65465],[-109.45079,37.65464],[-109.45098,37.65463],[-109.45124,37.65464],[-109.45147,37.65464],[-109.4516,37.65464],[-109.45192,37.65465],[-109.45215,37.65465],[-109.45233,37.65465],[-109.45283,37.65464],[-109.45362,37.65462],[-109.45363,37.65462],[-109.45386,37.65461],[-109.45428,37.65459],[-109.45454,37.65458],[-109.45476,37.65457],[-109.45484,37.65457],[-109.45519,37.65454],[-109.45548,37.65451],[-109.4557,37.65447],[-109.45591,37.65444],[-109.45611,37.6544],[-109.45614,37.65439],[-109.45637,37.65434],[-109.45656,37.65428],[-109.45675,37.65421],[-109.45698,37.65412],[-109.45714,37.65406],[-109.45735,37.65396],[-109.45773,37.65377],[-109.45807,37.65356],[-109.45816,37.6535],[-109.45828,37.65341],[-109.45836,37.65335],[-109.45873,37.65302],[-109.45879,37.65296],[-109.45888,37.65288],[-109.459,37.65274],[-109.45911,37.65261],[-109.45925,37.65245],[-109.45933,37.65233],[-109.45942,37.65219],[-109.45956,37.65194],[-109.45967,37.65173],[-109.45978,37.65147],[-109.45993,37.65111],[-109.46015,37.65052],[-109.46028,37.65019],[-109.46058,37.64945],[-109.46079,37.64891],[-109.46091,37.64857],[-109.46104,37.64821],[-109.46109,37.64807],[-109.46136,37.64739],[-109.46141,37.64725],[-109.46143,37.64721],[-109.46178,37.64636],[-109.46185,37.64619],[-109.46188,37.64611],[-109.46192,37.64602],[-109.46228,37.64516],[-109.46244,37.64477],[-109.46266,37.64426],[-109.46272,37.64412],[-109.46295,37.64359],[-109.46298,37.64353],[-109.46299,37.64349],[-109.46331,37.64276],[-109.4636,37.64209],[-109.46381,37.64158],[-109.46396,37.64123],[-109.46425,37.64055],[-109.46428,37.64047],[-109.4645,37.63996],[-109.46454,37.63986],[-109.46457,37.63979],[-109.46466,37.6396],[-109.46472,37.63945],[-109.46496,37.63888],[-109.46508,37.6386],[-109.46516,37.63843],[-109.46516,37.63842],[-109.46523,37.63826],[-109.46529,37.6381],[-109.4653,37.63809],[-109.46537,37.63792],[-109.46538,37.6379],[-109.46545,37.63775],[-109.4656,37.63739],[-109.46565,37.63727],[-109.46567,37.63724],[-109.46567,37.63722],[-109.46582,37.63688],[-109.46595,37.63656],[-109.46603,37.63639],[-109.46614,37.63617],[-109.46621,37.63603],[-109.46629,37.63589],[-109.46675,37.63522],[-109.46682,37.63511],[-109.46726,37.63448],[-109.4676,37.63401],[-109.46795,37.63355],[-109.46824,37.63317],[-109.46836,37.633],[-109.46857,37.63269],[-109.46874,37.63246],[-109.46897,37.63215],[-109.46916,37.63188],[-109.4692,37.63183],[-109.46931,37.63168],[-109.46931,37.63167],[-109.46942,37.63153],[-109.46943,37.63152],[-109.46954,37.63137],[-109.46959,37.6313],[-109.46971,37.63114],[-109.46994,37.63083],[-109.47004,37.6307],[-109.47011,37.63061],[-109.47022,37.63045],[-109.47033,37.63029],[-109.47051,37.63006],[-109.47062,37.6299],[-109.47079,37.62967],[-109.47091,37.62952],[-109.47102,37.62936],[-109.47107,37.6293],[-109.47125,37.62905],[-109.47141,37.62884],[-109.47154,37.62866],[-109.47188,37.62819],[-109.47204,37.62799],[-109.47224,37.62773],[-109.47236,37.62758],[-109.47241,37.62752],[-109.47302,37.62682],[-109.47319,37.62665],[-109.47352,37.62631],[-109.4736,37.62623],[-109.47364,37.6262],[-109.4737,37.62615],[-109.47384,37.62605],[-109.47393,37.62599],[-109.47414,37.62586],[-109.47441,37.62575],[-109.47466,37.62564],[-109.47479,37.62559],[-109.47497,37.62554],[-109.475,37.62553],[-109.47517,37.62549],[-109.47544,37.62543],[-109.47621,37.6254],[-109.47757,37.62541],[-109.47801,37.62541],[-109.47801,37.62541],[-109.47801,37.6249],[-109.47801,37.62451],[-109.47802,37.62397],[-109.47802,37.62362],[-109.47801,37.62254],[-109.47801,37.6222],[-109.47801,37.62112],[-109.478,37.62059],[-109.478,37.61987],[-109.478,37.61971],[-109.478,37.61899],[-109.478,37.61824],[-109.47801,37.61802],[-109.47803,37.61788],[-109.47805,37.61777],[-109.47807,37.61768],[-109.47812,37.61752],[-109.47822,37.6173],[-109.47837,37.61699],[-109.47855,37.61661],[-109.47858,37.61654],[-109.47867,37.61631],[-109.47876,37.61603],[-109.47883,37.61575],[-109.47887,37.61547],[-109.47887,37.61507],[-109.47891,37.614],[-109.47892,37.6135],[-109.47893,37.61307],[-109.47894,37.61225],[-109.47893,37.61081],[-109.47891,37.60943],[-109.4789,37.60854],[-109.47889,37.60815],[-109.47889,37.60776],[-109.47887,37.60739],[-109.47887,37.60721],[-109.47886,37.60703],[-109.47885,37.60667],[-109.47879,37.60505],[-109.47877,37.60433],[-109.47872,37.60289],[-109.47871,37.60259],[-109.47871,37.60249],[-109.47868,37.60128],[-109.47866,37.60074],[-109.47863,37.59966],[-109.47862,37.59923],[-109.47861,37.59903],[-109.47856,37.59761],[-109.47856,37.59751]]}}]}