{"type":"FeatureCollection","features":[{"type":"Feature","properties":{"_gpxType":"trk","name":"Blue Mountain RV & Trading, South Main Street, Blanding, UT - Bridge View Dr - Natural Bridges National Monument Campground, Lake Powell, UT","coordinateProperties":{},"id":78},"geometry":{"type":"LineString","coordinates":[[-109.47856,37.59751],[-109.47856,37.59743],[-109.47852,37.59601],[-109.47851,37.59566],[-109.4785,37.59548],[-109.47848,37.59483],[-109.47846,37.59368],[-109.47842,37.59242],[-109.47842,37.59224],[-109.47838,37.59089],[-109.47836,37.58979],[-109.47832,37.58831],[-109.4783,37.58765],[-109.47827,37.58657],[-109.47825,37.58495],[-109.47825,37.58477],[-109.47822,37.58282],[-109.47821,37.58201],[-109.4782,37.58111],[-109.4782,37.58097],[-109.47819,37.5808],[-109.47818,37.58007],[-109.47817,37.57955],[-109.47817,37.57831],[-109.47817,37.57826],[-109.47817,37.578],[-109.47817,37.57772],[-109.47817,37.57756],[-109.47817,37.57747],[-109.4782,37.57707],[-109.47821,37.57697],[-109.47822,37.57689],[-109.47823,37.57684],[-109.47824,37.57678],[-109.47826,37.57673],[-109.4783,37.57658],[-109.47836,37.57643],[-109.4784,37.57632],[-109.47852,37.57607],[-109.47865,37.57583],[-109.47873,37.5757],[-109.47877,37.57564],[-109.47885,37.57553],[-109.47895,37.5754],[-109.47903,37.5753],[-109.47914,37.57517],[-109.47933,37.57498],[-109.47956,37.57479],[-109.47972,37.57466],[-109.47989,37.57454],[-109.48006,37.57443],[-109.48047,37.5742],[-109.48065,37.57412],[-109.48089,37.57402],[-109.48124,37.5739],[-109.48146,37.57383],[-109.48167,37.57378],[-109.48187,37.57374],[-109.48207,37.57369],[-109.48239,37.57366],[-109.48259,37.57364],[-109.48281,37.57362],[-109.48287,37.57362],[-109.48312,37.57361],[-109.48357,37.57362],[-109.48392,37.57362],[-109.48428,37.57361],[-109.48448,37.57361],[-109.4846,37.57361],[-109.48469,37.57361],[-109.48485,37.5736],[-109.48497,37.57359],[-109.48505,37.57358],[-109.48513,37.57358],[-109.4853,37.57356],[-109.4855,37.57353],[-109.4857,37.57349],[-109.48589,37.57344],[-109.48604,37.5734],[-109.48617,37.57337],[-109.48636,37.5733],[-109.48652,37.57325],[-109.48673,37.57316],[-109.48674,37.57316],[-109.48694,37.57307],[-109.4871,37.573],[-109.48727,37.5729],[-109.48746,37.57279],[-109.48746,37.57279],[-109.48763,37.57298],[-109.48774,37.57306],[-109.48779,37.5731],[-109.48784,37.57315],[-109.48803,37.57328],[-109.48827,37.5734],[-109.48846,37.57348],[-109.48875,37.57355],[-109.4889,37.57358],[-109.48907,37.5736],[-109.48935,37.57361],[-109.48981,37.5736],[-109.49056,37.5736],[-109.49179,37.57359],[-109.4926,37.57359],[-109.49283,37.57359],[-109.49306,37.57359],[-109.49328,37.57359],[-109.49351,37.57359],[-109.49396,37.57359],[-109.49417,37.57358],[-109.49629,37.57358],[-109.49706,37.57358],[-109.49758,37.57358],[-109.49782,37.5736],[-109.4981,37.57363],[-109.49855,37.57371],[-109.4992,37.57385],[-109.49992,37.574],[-109.5003,37.57408],[-109.50074,37.57417],[-109.50078,37.57418],[-109.50099,37.57423],[-109.50118,37.57429],[-109.50138,37.57435],[-109.50159,37.57442],[-109.50205,37.57461],[-109.50219,37.57467],[-109.50268,37.57491],[-109.50296,37.57505],[-109.50316,37.57514],[-109.50342,37.57529],[-109.5036,37.5754],[-109.50369,37.57547],[-109.5038,37.57555],[-109.504,37.57572],[-109.50415,37.57587],[-109.50463,37.57634],[-109.50473,37.57644],[-109.50493,37.57659],[-109.50501,37.57665],[-109.50506,37.57667],[-109.50512,37.5767],[-109.50525,37.57673],[-109.50538,37.57676],[-109.50544,37.57676],[-109.50553,37.57676],[-109.50561,37.57675],[-109.50568,37.57673],[-109.50577,37.57671],[-109.50586,37.57667],[-109.50592,37.57665],[-109.50597,37.57662],[-109.50607,37.57654],[-109.50616,37.57647],[-109.50625,37.57641],[-109.50627,37.5764],[-109.50637,37.57634],[-109.50646,37.57629],[-109.50653,37.57625],[-109.50663,37.57622],[-109.50664,37.57622],[-109.50669,37.5762],[-109.50676,37.57619],[-109.50686,37.57618],[-109.50686,37.57617],[-109.50696,37.57617],[-109.50708,37.57617],[-109.50711,37.57617],[-109.50721,37.57618],[-109.5073,37.5762],[-109.50731,37.5762],[-109.5074,37.57622],[-109.50751,37.57626],[-109.50768,37.57632],[-109.50821,37.57653],[-109.50842,37.57661],[-109.50882,37.57677],[-109.50923,37.57693],[-109.50984,37.57717],[-109.51072,37.57752],[-109.51092,37.5776],[-109.51133,37.57776],[-109.51153,37.57784],[-109.51173,37.57792],[-109.51193,37.578],[-109.51214,37.57808],[-109.51215,37.57809],[-109.51247,37.57821],[-109.51255,37.57823],[-109.5127,37.57828],[-109.51277,37.57829],[-109.51294,37.57832],[-109.5132,37.57836],[-109.51321,37.57836],[-109.5134,37.57837],[-109.51344,37.57836],[-109.51365,37.57836],[-109.51385,37.57835],[-109.51412,37.57831],[-109.51444,37.57823],[-109.51498,37.5781],[-109.51541,37.57799],[-109.51571,37.57792],[-109.51628,37.57777],[-109.51642,37.57774],[-109.51676,37.57765],[-109.51686,37.57763],[-109.51719,37.57754],[-109.51729,37.57752],[-109.5175,37.57746],[-109.51762,37.57744],[-109.51773,37.57742],[-109.51806,37.57735],[-109.51807,37.57735],[-109.51817,37.57733],[-109.51839,37.57729],[-109.51857,37.57726],[-109.51873,37.57724],[-109.51898,37.5772],[-109.51906,37.5772],[-109.51951,37.57715],[-109.51967,37.57714],[-109.52099,37.57701],[-109.52109,37.577],[-109.52222,37.5769],[-109.5228,37.57684],[-109.52289,37.57683],[-109.52347,37.57678],[-109.52357,37.57677],[-109.5246,37.57667],[-109.52708,37.57643],[-109.52723,37.57642],[-109.52798,37.57635],[-109.52813,37.57633],[-109.52858,37.57629],[-109.52888,37.57626],[-109.52925,37.57622],[-109.52948,37.5762],[-109.53044,37.57611],[-109.53128,37.57603],[-109.53134,37.57602],[-109.53195,37.57596],[-109.53202,37.57596],[-109.53263,37.5759],[-109.5327,37.57589],[-109.53375,37.57579],[-109.53523,37.57565],[-109.53623,37.57556],[-109.53804,37.57539],[-109.53848,37.57534],[-109.53983,37.57521],[-109.54091,37.57511],[-109.54262,37.57496],[-109.544,37.57483],[-109.54625,37.57462],[-109.54647,37.5746],[-109.54692,37.57455],[-109.54715,37.57453],[-109.54738,37.57451],[-109.54783,37.57447],[-109.54895,37.57436],[-109.5494,37.57432],[-109.54963,37.5743],[-109.54985,37.57427],[-109.5503,37.57423],[-109.55053,37.57421],[-109.55121,37.57414],[-109.55181,37.57409],[-109.55196,37.57407],[-109.55241,37.57403],[-109.5526,37.57401],[-109.55276,37.57399],[-109.55286,37.57397],[-109.55291,37.57396],[-109.55304,37.57393],[-109.55317,37.57388],[-109.55327,37.57382],[-109.5533,37.5738],[-109.55338,37.57374],[-109.55349,37.57366],[-109.5537,37.57341],[-109.55372,37.57338],[-109.55382,37.57325],[-109.55423,37.57276],[-109.55431,37.57268],[-109.55439,37.5726],[-109.5545,37.57251],[-109.55461,37.57244],[-109.55471,37.57238],[-109.55481,37.57234],[-109.55485,37.57233],[-109.55492,37.57231],[-109.55507,37.57226],[-109.55529,37.57223],[-109.55552,37.57222],[-109.5558,37.57221],[-109.55626,37.57218],[-109.55638,37.57218],[-109.55642,37.57217],[-109.55651,37.57217],[-109.55663,37.57214],[-109.55672,37.57212],[-109.55684,37.57209],[-109.55694,37.57204],[-109.55705,37.57198],[-109.55715,37.5719],[-109.55723,37.57181],[-109.5573,37.57173],[-109.55733,37.57167],[-109.55734,37.57163],[-109.55738,37.57152],[-109.55738,37.5715],[-109.55739,37.57143],[-109.5574,37.57129],[-109.55739,37.57114],[-109.55736,37.57058],[-109.55734,37.57035],[-109.55731,37.56988],[-109.5573,37.5697],[-109.55728,37.56941],[-109.55728,37.56928],[-109.55729,37.56914],[-109.55731,37.56902],[-109.55734,37.5689],[-109.55745,37.56864],[-109.55826,37.56747],[-109.55842,37.56721],[-109.55857,37.5669],[-109.55868,37.56663],[-109.5587,37.56653],[-109.55875,37.56636],[-109.55877,37.56629],[-109.5588,37.56618],[-109.55882,37.56609],[-109.55884,37.566],[-109.55887,37.56589],[-109.55888,37.56583],[-109.55889,37.56567],[-109.55889,37.56565],[-109.5589,37.56548],[-109.5589,37.56547],[-109.5589,37.56529],[-109.5589,37.56525],[-109.55888,37.56511],[-109.55888,37.56501],[-109.55884,37.5646],[-109.55882,37.56435],[-109.55882,37.56413],[-109.55882,37.56406],[-109.55886,37.56385],[-109.55889,37.56364],[-109.55892,37.5635],[-109.55896,37.56332],[-109.55912,37.56268],[-109.55917,37.56249],[-109.55919,37.56244],[-109.55925,37.5623],[-109.55927,37.56227],[-109.55938,37.56211],[-109.55938,37.5621],[-109.5595,37.56196],[-109.55954,37.56192],[-109.55987,37.5616],[-109.56009,37.56141],[-109.56024,37.56128],[-109.5604,37.56115],[-109.56055,37.56102],[-109.56057,37.561],[-109.56097,37.56064],[-109.561,37.56061],[-109.56114,37.56047],[-109.5613,37.5603],[-109.56149,37.56001],[-109.56149,37.56],[-109.56157,37.55984],[-109.56159,37.5598],[-109.56164,37.55967],[-109.56168,37.55956],[-109.5617,37.5595],[-109.56181,37.55913],[-109.56188,37.55898],[-109.56193,37.55885],[-109.56196,37.55881],[-109.56203,37.55871],[-109.56208,37.55866],[-109.56216,37.55856],[-109.56231,37.55844],[-109.56239,37.55838],[-109.56246,37.55834],[-109.56252,37.55832],[-109.56266,37.55826],[-109.56274,37.55823],[-109.563,37.55816],[-109.56331,37.55811],[-109.56463,37.55802],[-109.56519,37.55799],[-109.5652,37.55799],[-109.56542,37.55797],[-109.56565,37.55796],[-109.56655,37.5579],[-109.56723,37.55785],[-109.56791,37.55781],[-109.56837,37.55778],[-109.56881,37.55775],[-109.56949,37.55771],[-109.56958,37.5577],[-109.56991,37.55769],[-109.57016,37.55769],[-109.57017,37.55769],[-109.5704,37.5577],[-109.57045,37.5577],[-109.57071,37.55771],[-109.57083,37.55773],[-109.57107,37.55775],[-109.57112,37.55776],[-109.57129,37.55779],[-109.5714,37.5578],[-109.57152,37.55782],[-109.57164,37.55784],[-109.57192,37.55791],[-109.57195,37.55792],[-109.57239,37.55802],[-109.57241,37.55802],[-109.57261,37.55807],[-109.57282,37.55812],[-109.57298,37.55816],[-109.57377,37.55835],[-109.57391,37.55838],[-109.57413,37.55843],[-109.57441,37.5585],[-109.57456,37.55854],[-109.57478,37.55859],[-109.57503,37.55864],[-109.57543,37.55874],[-109.57585,37.55884],[-109.5763,37.55895],[-109.57695,37.55911],[-109.57712,37.55915],[-109.57717,37.55916],[-109.57746,37.55923],[-109.57779,37.55934],[-109.57781,37.55934],[-109.578,37.55941],[-109.57801,37.55942],[-109.57821,37.5595],[-109.57822,37.5595],[-109.57841,37.5596],[-109.57845,37.55962],[-109.57856,37.55968],[-109.57859,37.5597],[-109.57873,37.55979],[-109.57893,37.55992],[-109.57912,37.56008],[-109.57928,37.56022],[-109.57939,37.56034],[-109.5794,37.56035],[-109.57952,37.56048],[-109.57953,37.56049],[-109.57966,37.56063],[-109.57968,37.56066],[-109.57979,37.56078],[-109.57992,37.56092],[-109.58005,37.56107],[-109.5802,37.56124],[-109.5803,37.56136],[-109.58046,37.5615],[-109.58051,37.56155],[-109.5807,37.56171],[-109.58077,37.56176],[-109.58088,37.56185],[-109.58107,37.56196],[-109.58129,37.56209],[-109.58147,37.56218],[-109.5815,37.56219],[-109.58169,37.56228],[-109.58171,37.56229],[-109.58189,37.56236],[-109.58195,37.56239],[-109.58213,37.56245],[-109.5823,37.5625],[-109.58231,37.5625],[-109.58245,37.56254],[-109.58253,37.56255],[-109.58271,37.56259],[-109.58275,37.5626],[-109.58292,37.56263],[-109.58317,37.56266],[-109.58319,37.56266],[-109.58344,37.56268],[-109.58365,37.56269],[-109.58392,37.56269],[-109.58418,37.56267],[-109.58453,37.56264],[-109.58478,37.56259],[-109.58497,37.56255],[-109.58517,37.5625],[-109.58533,37.56246],[-109.58556,37.56239],[-109.58633,37.56214],[-109.58664,37.56204],[-109.58701,37.56193],[-109.58725,37.56186],[-109.58739,37.56182],[-109.58754,37.56178],[-109.58778,37.56174],[-109.58802,37.56171],[-109.58828,37.56168],[-109.58829,37.56168],[-109.58862,37.56167],[-109.58887,37.56166],[-109.58912,37.56167],[-109.58928,37.56169],[-109.58959,37.56173],[-109.58977,37.56176],[-109.58999,37.56181],[-109.59025,37.56187],[-109.59041,37.56192],[-109.59061,37.56199],[-109.5908,37.56206],[-109.59096,37.56212],[-109.59121,37.56222],[-109.59146,37.56231],[-109.59173,37.56242],[-109.59188,37.56248],[-109.59221,37.56261],[-109.59244,37.56268],[-109.59267,37.56274],[-109.59277,37.56277],[-109.59287,37.56279],[-109.59309,37.56284],[-109.59337,37.56288],[-109.59343,37.56289],[-109.59362,37.56291],[-109.59366,37.56292],[-109.59391,37.56294],[-109.59418,37.56295],[-109.59445,37.56295],[-109.59466,37.56295],[-109.59498,37.56293],[-109.59527,37.5629],[-109.59546,37.56288],[-109.59548,37.56288],[-109.59565,37.56285],[-109.59569,37.56284],[-109.59591,37.56279],[-109.59596,37.56278],[-109.59612,37.56274],[-109.5964,37.56266],[-109.59666,37.56257],[-109.59684,37.5625],[-109.59696,37.56246],[-109.59706,37.56242],[-109.59715,37.56237],[-109.59727,37.56232],[-109.59756,37.56218],[-109.59771,37.5621],[-109.59792,37.56198],[-109.59814,37.56184],[-109.5983,37.56172],[-109.59846,37.56159],[-109.59854,37.56151],[-109.59867,37.56139],[-109.59892,37.56116],[-109.5991,37.561],[-109.59949,37.56063],[-109.59965,37.56048],[-109.59993,37.56022],[-109.60051,37.55966],[-109.60053,37.55964],[-109.60066,37.55952],[-109.60109,37.55911],[-109.60118,37.55903],[-109.60124,37.55897],[-109.60132,37.55889],[-109.60139,37.55883],[-109.60152,37.55871],[-109.6023,37.55797],[-109.60336,37.55696],[-109.60373,37.55661],[-109.60386,37.55649],[-109.60496,37.55544],[-109.6051,37.55532],[-109.60511,37.55531],[-109.60512,37.55529],[-109.60627,37.55421],[-109.60686,37.55365],[-109.60687,37.55364],[-109.60701,37.55352],[-109.60702,37.5535],[-109.60714,37.55339],[-109.60715,37.55338],[-109.60744,37.5531],[-109.60759,37.55297],[-109.60775,37.55282],[-109.60788,37.55269],[-109.608,37.55258],[-109.60817,37.55241],[-109.60833,37.55226],[-109.60846,37.55214],[-109.60872,37.55189],[-109.60876,37.55185],[-109.60891,37.55171],[-109.60904,37.55158],[-109.6092,37.55143],[-109.6094,37.55124],[-109.60978,37.55088],[-109.60992,37.55076],[-109.60992,37.55075],[-109.61037,37.55033],[-109.61051,37.5502],[-109.61064,37.55007],[-109.61079,37.54993],[-109.61095,37.54978],[-109.6111,37.54964],[-109.61141,37.54935],[-109.61195,37.54883],[-109.6121,37.54869],[-109.61241,37.54841],[-109.61276,37.54807],[-109.61297,37.54786],[-109.6131,37.54774],[-109.61343,37.54738],[-109.61352,37.54729],[-109.61358,37.54723],[-109.61366,37.54714],[-109.61382,37.54698],[-109.61405,37.54671],[-109.61429,37.54641],[-109.61449,37.54617],[-109.61471,37.54588],[-109.61502,37.54549],[-109.61514,37.54533],[-109.61521,37.54523],[-109.61533,37.54505],[-109.61551,37.54478],[-109.6157,37.54449],[-109.61579,37.54435],[-109.6159,37.54418],[-109.61598,37.54407],[-109.61615,37.54378],[-109.61618,37.54374],[-109.61625,37.54359],[-109.61637,37.54339],[-109.61649,37.54318],[-109.6166,37.54298],[-109.61675,37.54268],[-109.61691,37.54238],[-109.61706,37.54207],[-109.61727,37.54163],[-109.61735,37.54146],[-109.61749,37.54115],[-109.6175,37.54113],[-109.61758,37.54095],[-109.61772,37.54065],[-109.61783,37.54045],[-109.61784,37.54044],[-109.61795,37.54021],[-109.61799,37.54012],[-109.61807,37.53995],[-109.61809,37.53989],[-109.61822,37.53961],[-109.61838,37.53927],[-109.61846,37.53911],[-109.61864,37.53872],[-109.61886,37.53826],[-109.6189,37.53818],[-109.61902,37.53793],[-109.61909,37.53778],[-109.61918,37.53759],[-109.61931,37.53732],[-109.6195,37.53691],[-109.61965,37.53659],[-109.61974,37.53641],[-109.61986,37.53616],[-109.62003,37.53586],[-109.62015,37.53564],[-109.62032,37.53534],[-109.62054,37.53496],[-109.62066,37.53476],[-109.62074,37.5346],[-109.6209,37.53436],[-109.62106,37.53412],[-109.62127,37.53382],[-109.62147,37.53353],[-109.6217,37.53323],[-109.62191,37.53296],[-109.62215,37.53266],[-109.62237,37.53239],[-109.62264,37.53206],[-109.62301,37.53166],[-109.62309,37.53154],[-109.62319,37.53143],[-109.62344,37.53116],[-109.62389,37.53072],[-109.62397,37.53064],[-109.62424,37.53038],[-109.62478,37.52989],[-109.62506,37.52964],[-109.62523,37.5295],[-109.62552,37.52924],[-109.62608,37.52877],[-109.6263,37.52857],[-109.62636,37.52853],[-109.62672,37.52821],[-109.62704,37.52794],[-109.62707,37.52791],[-109.62738,37.52765],[-109.62769,37.52738],[-109.62791,37.52719],[-109.62803,37.52709],[-109.62808,37.52704],[-109.62812,37.52699],[-109.62816,37.52696],[-109.62819,37.52692],[-109.62823,37.52688],[-109.62828,37.52684],[-109.62836,37.52676],[-109.62847,37.52666],[-109.62858,37.52657],[-109.62914,37.52608],[-109.62937,37.52587],[-109.62952,37.52572],[-109.62963,37.52562],[-109.62965,37.5256],[-109.62979,37.52546],[-109.6299,37.52534],[-109.62998,37.52525],[-109.63004,37.52519],[-109.63011,37.52512],[-109.63034,37.52485],[-109.63052,37.52466],[-109.63056,37.52461],[-109.63077,37.52435],[-109.63089,37.5242],[-109.63102,37.52404],[-109.63111,37.52392],[-109.63123,37.52375],[-109.63128,37.52369],[-109.63137,37.52357],[-109.63139,37.52353],[-109.63153,37.52332],[-109.63161,37.52321],[-109.63168,37.5231],[-109.632,37.52259],[-109.63203,37.52253],[-109.63236,37.52191],[-109.63259,37.52144],[-109.6328,37.521],[-109.63285,37.52088],[-109.6329,37.52078],[-109.633,37.52053],[-109.63313,37.52019],[-109.63315,37.52011],[-109.63316,37.52011],[-109.63324,37.51986],[-109.63332,37.51963],[-109.63339,37.5194],[-109.63345,37.51921],[-109.63351,37.51898],[-109.63355,37.51881],[-109.6336,37.51863],[-109.63365,37.51839],[-109.63371,37.5181],[-109.63375,37.51783],[-109.63378,37.51766],[-109.63381,37.51744],[-109.63384,37.51713],[-109.63387,37.51679],[-109.63391,37.51645],[-109.63395,37.51614],[-109.63401,37.5156],[-109.63405,37.51517],[-109.63409,37.51472],[-109.63413,37.51427],[-109.63417,37.51395],[-109.63422,37.51351],[-109.63426,37.51317],[-109.63427,37.51299],[-109.63431,37.51255],[-109.63434,37.51227],[-109.63434,37.51222],[-109.63437,37.51199],[-109.63437,37.51191],[-109.63439,37.51173],[-109.63439,37.51168],[-109.63441,37.51155],[-109.63443,37.51134],[-109.63447,37.51101],[-109.63452,37.51048],[-109.63456,37.51013],[-109.63456,37.51012],[-109.63458,37.50993],[-109.6346,37.50972],[-109.63463,37.50948],[-109.63467,37.50916],[-109.63469,37.50895],[-109.63474,37.50863],[-109.63476,37.50841],[-109.63478,37.50826],[-109.63481,37.50809],[-109.63485,37.50784],[-109.63489,37.50765],[-109.63489,37.50761],[-109.63495,37.50733],[-109.63499,37.50711],[-109.63499,37.50708],[-109.63506,37.50668],[-109.63512,37.50635],[-109.63515,37.50619],[-109.63518,37.50601],[-109.6352,37.50592],[-109.63522,37.50581],[-109.63526,37.5056],[-109.63529,37.50548],[-109.6353,37.50539],[-109.63532,37.5053],[-109.63535,37.50516],[-109.6354,37.50495],[-109.63548,37.50451],[-109.63569,37.50332],[-109.63584,37.50247],[-109.6359,37.5021],[-109.63594,37.50192],[-109.63597,37.50174],[-109.63604,37.50137],[-109.63612,37.50093],[-109.63623,37.50039],[-109.63624,37.50032],[-109.63632,37.49986],[-109.63641,37.4993],[-109.63643,37.49922],[-109.63645,37.49907],[-109.63646,37.499],[-109.63648,37.49887],[-109.6365,37.49878],[-109.63653,37.49866],[-109.63657,37.49851],[-109.63662,37.49823],[-109.63667,37.49801],[-109.63671,37.49783],[-109.63671,37.49781],[-109.63675,37.49769],[-109.63681,37.49753],[-109.63687,37.49739],[-109.6369,37.49731],[-109.63694,37.49722],[-109.63707,37.49698],[-109.63717,37.49682],[-109.6372,37.49676],[-109.63728,37.49666],[-109.63737,37.49653],[-109.63739,37.4965],[-109.63752,37.49635],[-109.63752,37.49634],[-109.6377,37.49614],[-109.63792,37.49592],[-109.63796,37.49589],[-109.63807,37.49579],[-109.63823,37.49565],[-109.63825,37.49563],[-109.63844,37.4955],[-109.63856,37.49541],[-109.6386,37.49538],[-109.63873,37.49529],[-109.63891,37.49518],[-109.63894,37.49516],[-109.6391,37.49508],[-109.63927,37.49499],[-109.63929,37.49498],[-109.63969,37.49481],[-109.63971,37.4948],[-109.64023,37.49463],[-109.6408,37.49449],[-109.64097,37.49446],[-109.64119,37.49442],[-109.64131,37.4944],[-109.64164,37.49437],[-109.64178,37.49436],[-109.64186,37.49435],[-109.64209,37.49435],[-109.64229,37.49434],[-109.64232,37.49434],[-109.64267,37.49436],[-109.64277,37.49437],[-109.64299,37.49439],[-109.64316,37.4944],[-109.64322,37.49441],[-109.64344,37.49446],[-109.64374,37.49451],[-109.64388,37.49455],[-109.64409,37.4946],[-109.64414,37.49461],[-109.64452,37.49473],[-109.64456,37.49475],[-109.64472,37.49481],[-109.64499,37.49492],[-109.64512,37.49498],[-109.64531,37.49508],[-109.64563,37.49526],[-109.64568,37.49529],[-109.64586,37.4954],[-109.64592,37.49544],[-109.64619,37.49564],[-109.64622,37.49565],[-109.64635,37.49577],[-109.64646,37.49585],[-109.64651,37.4959],[-109.64666,37.49603],[-109.64671,37.49608],[-109.6469,37.49629],[-109.64693,37.49632],[-109.64705,37.49647],[-109.64717,37.49664],[-109.64738,37.49695],[-109.6474,37.49699],[-109.64748,37.49711],[-109.64755,37.49722],[-109.64763,37.49736],[-109.6477,37.4975],[-109.64774,37.4976],[-109.64774,37.49761],[-109.6478,37.49777],[-109.64782,37.49789],[-109.64784,37.49806],[-109.64785,37.49822],[-109.64787,37.49843],[-109.64788,37.49861],[-109.64796,37.49952],[-109.64801,37.5003],[-109.64804,37.50059],[-109.64804,37.50067],[-109.64807,37.501],[-109.64809,37.5013],[-109.64811,37.50148],[-109.64812,37.50162],[-109.64815,37.50202],[-109.64816,37.5022],[-109.64818,37.50238],[-109.64819,37.50251],[-109.64819,37.50256],[-109.64825,37.50333],[-109.64826,37.50346],[-109.64827,37.50364],[-109.6483,37.50397],[-109.64844,37.50575],[-109.64845,37.50597],[-109.64847,37.50615],[-109.64848,37.50633],[-109.64849,37.50638],[-109.64851,37.50669],[-109.64854,37.5069],[-109.64856,37.50706],[-109.64859,37.5072],[-109.64859,37.50723],[-109.64861,37.5073],[-109.64864,37.50742],[-109.64868,37.50755],[-109.64869,37.50758],[-109.64873,37.5077],[-109.64878,37.50786],[-109.64884,37.50801],[-109.64891,37.50815],[-109.64896,37.50826],[-109.64897,37.50828],[-109.64904,37.50841],[-109.64905,37.50843],[-109.64911,37.50854],[-109.64919,37.50867],[-109.64929,37.50882],[-109.64936,37.50891],[-109.6494,37.50897],[-109.6495,37.5091],[-109.64959,37.50922],[-109.6497,37.50935],[-109.64984,37.50949],[-109.64997,37.50962],[-109.65013,37.50978],[-109.6503,37.50992],[-109.65049,37.51008],[-109.65069,37.51022],[-109.65083,37.51031],[-109.65091,37.51037],[-109.65099,37.51043],[-109.65108,37.51048],[-109.65114,37.51052],[-109.65125,37.51058],[-109.65136,37.51064],[-109.65147,37.5107],[-109.65155,37.51074],[-109.65163,37.51078],[-109.65173,37.51083],[-109.65184,37.51088],[-109.65194,37.51092],[-109.65202,37.51096],[-109.6521,37.51099],[-109.65218,37.51102],[-109.65228,37.51106],[-109.6524,37.5111],[-109.6525,37.51114],[-109.65259,37.51117],[-109.65268,37.5112],[-109.65283,37.51124],[-109.65295,37.51127],[-109.65298,37.51128],[-109.65306,37.5113],[-109.6532,37.51134],[-109.65341,37.51139],[-109.65369,37.51144],[-109.65385,37.51147],[-109.65407,37.5115],[-109.65423,37.51151],[-109.6543,37.51152],[-109.65439,37.51153],[-109.65452,37.51154],[-109.65467,37.51155],[-109.65487,37.51155],[-109.65493,37.51156],[-109.65502,37.51156],[-109.65515,37.51156],[-109.6554,37.51156],[-109.65578,37.51155],[-109.65589,37.51156],[-109.65612,37.51155],[-109.65646,37.51155],[-109.65682,37.51155],[-109.65696,37.51155],[-109.65718,37.51155],[-109.65741,37.51154],[-109.65809,37.51153],[-109.65821,37.51153],[-109.65832,37.51153],[-109.65854,37.51153],[-109.659,37.51152],[-109.65933,37.51152],[-109.66013,37.5115],[-109.66045,37.5115],[-109.66065,37.5115],[-109.6608,37.51151],[-109.66091,37.51152],[-109.66114,37.51154],[-109.66127,37.51155],[-109.66137,37.51156],[-109.66145,37.51158],[-109.66161,37.5116],[-109.66179,37.51163],[-109.66196,37.51167],[-109.66207,37.51169],[-109.66214,37.51171],[-109.6623,37.51175],[-109.66258,37.51184],[-109.66273,37.51189],[-109.66291,37.51195],[-109.66304,37.51201],[-109.66318,37.51207],[-109.66329,37.51212],[-109.66344,37.51219],[-109.66359,37.51226],[-109.66368,37.51232],[-109.66376,37.51236],[-109.66384,37.51241],[-109.66392,37.51246],[-109.66398,37.5125],[-109.66403,37.51252],[-109.66411,37.51257],[-109.66419,37.51263],[-109.6643,37.51271],[-109.6644,37.5128],[-109.66455,37.51293],[-109.66459,37.51296],[-109.6646,37.51297],[-109.66472,37.51307],[-109.66478,37.51313],[-109.66487,37.51321],[-109.66497,37.51332],[-109.66505,37.51341],[-109.66512,37.51349],[-109.66522,37.51362],[-109.66531,37.51374],[-109.66541,37.51388],[-109.66548,37.51398],[-109.66552,37.51405],[-109.66557,37.51414],[-109.66562,37.51423],[-109.66565,37.5143],[-109.66571,37.51444],[-109.66584,37.5147],[-109.66597,37.515],[-109.66604,37.51515],[-109.66605,37.51517],[-109.66622,37.51557],[-109.66638,37.51592],[-109.66649,37.51616],[-109.66651,37.51619],[-109.66666,37.51652],[-109.66671,37.51662],[-109.66676,37.51673],[-109.66685,37.51693],[-109.667,37.5172],[-109.66708,37.51734],[-109.66718,37.51753],[-109.66739,37.51788],[-109.66748,37.51801],[-109.66754,37.51812],[-109.66758,37.51817],[-109.66768,37.51833],[-109.66775,37.51843],[-109.66786,37.5186],[-109.668,37.51881],[-109.66804,37.51886],[-109.66811,37.51897],[-109.66822,37.51912],[-109.66824,37.51914],[-109.66844,37.51939],[-109.66869,37.5197],[-109.66887,37.51991],[-109.66901,37.52007],[-109.66916,37.52025],[-109.66932,37.52043],[-109.66949,37.52061],[-109.66974,37.52086],[-109.66993,37.52104],[-109.67019,37.52129],[-109.67041,37.52149],[-109.67066,37.52171],[-109.67083,37.52186],[-109.6709,37.52192],[-109.67099,37.522],[-109.67115,37.52213],[-109.67153,37.52242],[-109.67178,37.52261],[-109.67183,37.52265],[-109.67208,37.52283],[-109.67227,37.52297],[-109.67246,37.5231],[-109.67266,37.52323],[-109.67299,37.52343],[-109.67316,37.52354],[-109.67322,37.52357],[-109.67334,37.52365],[-109.67353,37.52376],[-109.67378,37.52391],[-109.67399,37.52402],[-109.67412,37.52409],[-109.67434,37.52421],[-109.67459,37.52434],[-109.67484,37.52446],[-109.67526,37.52466],[-109.67573,37.52488],[-109.67601,37.52501],[-109.67613,37.52506],[-109.67637,37.52517],[-109.67662,37.52527],[-109.67697,37.52541],[-109.67701,37.52542],[-109.67742,37.52558],[-109.67753,37.52562],[-109.67763,37.52566],[-109.67766,37.52567],[-109.6779,37.52576],[-109.67834,37.52591],[-109.67845,37.52595],[-109.67868,37.52603],[-109.679,37.52613],[-109.67912,37.52617],[-109.67929,37.52622],[-109.67953,37.5263],[-109.67966,37.52634],[-109.67979,37.52637],[-109.68011,37.52646],[-109.68047,37.52656],[-109.68057,37.52659],[-109.68061,37.5266],[-109.68079,37.52665],[-109.68096,37.52669],[-109.68152,37.52682],[-109.68191,37.52691],[-109.68233,37.52699],[-109.68298,37.52712],[-109.68375,37.52726],[-109.68386,37.52728],[-109.68408,37.52732],[-109.68412,37.52733],[-109.68461,37.52742],[-109.68474,37.52745],[-109.68478,37.52745],[-109.68545,37.52758],[-109.68567,37.52762],[-109.68659,37.52779],[-109.687,37.52786],[-109.6873,37.52792],[-109.68744,37.52794],[-109.68766,37.52798],[-109.68808,37.52806],[-109.68921,37.52827],[-109.68934,37.52829],[-109.69011,37.52843],[-109.69053,37.52851],[-109.69074,37.52855],[-109.69115,37.52863],[-109.69158,37.52872],[-109.69182,37.52877],[-109.69223,37.52887],[-109.6925,37.52894],[-109.69253,37.52895],[-109.69276,37.52901],[-109.69321,37.52914],[-109.69356,37.52925],[-109.69385,37.52934],[-109.69417,37.52945],[-109.69444,37.52954],[-109.69476,37.52966],[-109.69518,37.52982],[-109.69544,37.52993],[-109.69562,37.53001],[-109.69581,37.53009],[-109.69602,37.53018],[-109.69605,37.53019],[-109.69622,37.53027],[-109.69703,37.53063],[-109.6972,37.53071],[-109.6974,37.5308],[-109.69779,37.53098],[-109.69806,37.5311],[-109.69857,37.53133],[-109.69858,37.53133],[-109.69902,37.53153],[-109.69938,37.53169],[-109.70001,37.53197],[-109.70024,37.53208],[-109.70051,37.5322],[-109.7007,37.53229],[-109.70098,37.53241],[-109.70122,37.53252],[-109.70171,37.53273],[-109.70208,37.53288],[-109.7021,37.53288],[-109.70234,37.53297],[-109.70271,37.53311],[-109.70296,37.53319],[-109.70336,37.53332],[-109.70363,37.5334],[-109.70388,37.53347],[-109.70402,37.53351],[-109.70441,37.5336],[-109.70469,37.53367],[-109.70509,37.53376],[-109.70536,37.53381],[-109.70563,37.53386],[-109.70574,37.53388],[-109.70603,37.53393],[-109.70618,37.53395],[-109.70631,37.53397],[-109.70663,37.53401],[-109.70673,37.53402],[-109.70713,37.53406],[-109.70742,37.53409],[-109.70783,37.53412],[-109.70811,37.53413],[-109.70838,37.53414],[-109.70866,37.53415],[-109.70895,37.53415],[-109.70912,37.53415],[-109.70923,37.53415],[-109.70934,37.53415],[-109.70965,37.53414],[-109.70993,37.53413],[-109.71021,37.53411],[-109.71047,37.53409],[-109.71062,37.53408],[-109.71091,37.53406],[-109.71105,37.53404],[-109.7113,37.53401],[-109.71145,37.534],[-109.71175,37.53396],[-109.71204,37.53391],[-109.71294,37.53378],[-109.71352,37.53369],[-109.71407,37.5336],[-109.71503,37.53345],[-109.71559,37.53337],[-109.71626,37.53327],[-109.71639,37.53325],[-109.71682,37.53318],[-109.7172,37.53312],[-109.71737,37.5331],[-109.71763,37.53306],[-109.71804,37.53299],[-109.71846,37.53293],[-109.71848,37.53293],[-109.71889,37.53286],[-109.71893,37.53286],[-109.71929,37.5328],[-109.7196,37.53275],[-109.71976,37.53273],[-109.71982,37.53272],[-109.72026,37.53265],[-109.72046,37.53262],[-109.72049,37.53262],[-109.72071,37.53258],[-109.72076,37.53258],[-109.72122,37.5325],[-109.72138,37.53248],[-109.72156,37.53245],[-109.7216,37.53245],[-109.7219,37.5324],[-109.72212,37.53237],[-109.7223,37.53235],[-109.72238,37.53234],[-109.72251,37.53232],[-109.72272,37.5323],[-109.72294,37.53228],[-109.72317,37.53226],[-109.72318,37.53226],[-109.7234,37.53225],[-109.72362,37.53225],[-109.72368,37.53224],[-109.72385,37.53224],[-109.72416,37.53224],[-109.72438,37.53225],[-109.72453,37.53225],[-109.72474,37.53226],[-109.72505,37.53228],[-109.7252,37.53229],[-109.72521,37.53229],[-109.72539,37.53232],[-109.72543,37.53233],[-109.72559,37.53235],[-109.72565,37.53236],[-109.72587,37.5324],[-109.72588,37.5324],[-109.72608,37.53244],[-109.72632,37.53248],[-109.72632,37.53249],[-109.72653,37.53253],[-109.72654,37.53253],[-109.72678,37.53259],[-109.72697,37.53264],[-109.72707,37.53267],[-109.7273,37.53273],[-109.72754,37.5328],[-109.72779,37.53288],[-109.728,37.53295],[-109.72821,37.53303],[-109.72843,37.53312],[-109.72847,37.53313],[-109.72875,37.53324],[-109.7291,37.53339],[-109.72943,37.53353],[-109.72964,37.53362],[-109.72982,37.53369],[-109.72984,37.5337],[-109.73026,37.53387],[-109.73085,37.53412],[-109.73105,37.5342],[-109.73107,37.53421],[-109.73125,37.53429],[-109.73187,37.53455],[-109.73252,37.53482],[-109.73305,37.53504],[-109.73363,37.53528],[-109.73434,37.53558],[-109.73448,37.53563],[-109.73522,37.53595],[-109.73534,37.536],[-109.73554,37.53608],[-109.73595,37.53625],[-109.73614,37.53633],[-109.73672,37.53657],[-109.73735,37.53683],[-109.73759,37.53693],[-109.73809,37.53714],[-109.73869,37.53739],[-109.73938,37.53768],[-109.73957,37.53776],[-109.74034,37.53808],[-109.74131,37.53848],[-109.74201,37.53878],[-109.74273,37.53908],[-109.74357,37.53943],[-109.7439,37.53956],[-109.74416,37.53968],[-109.74489,37.53998],[-109.74537,37.54018],[-109.7454,37.54019],[-109.74608,37.54048],[-109.74681,37.54078],[-109.74691,37.54082],[-109.74729,37.54098],[-109.74788,37.54122],[-109.74812,37.54132],[-109.74836,37.54142],[-109.7485,37.54147],[-109.74852,37.54148],[-109.74887,37.54161],[-109.74922,37.54173],[-109.74948,37.54182],[-109.74984,37.54194],[-109.75019,37.54204],[-109.75035,37.54209],[-109.75061,37.54216],[-109.75083,37.54222],[-109.75087,37.54223],[-109.751,37.54227],[-109.75105,37.54228],[-109.75138,37.54236],[-109.7517,37.54243],[-109.75178,37.54245],[-109.75216,37.54253],[-109.75256,37.54261],[-109.75307,37.54272],[-109.75359,37.54282],[-109.75425,37.54295],[-109.75489,37.54308],[-109.75562,37.54322],[-109.7561,37.54331],[-109.7562,37.54333],[-109.7572,37.54353],[-109.7585,37.54379],[-109.75852,37.54379],[-109.76024,37.54414],[-109.76028,37.54415],[-109.7605,37.54419],[-109.7609,37.54427],[-109.76094,37.54428],[-109.76177,37.54444],[-109.76182,37.54445],[-109.7632,37.54473],[-109.76338,37.54478],[-109.76354,37.54482],[-109.76396,37.54494],[-109.76413,37.54499],[-109.76417,37.545],[-109.76419,37.54501],[-109.76456,37.54513],[-109.76476,37.54521],[-109.76495,37.54527],[-109.76502,37.5453],[-109.76515,37.54535],[-109.76562,37.54555],[-109.76575,37.5456],[-109.76601,37.54572],[-109.76632,37.54587],[-109.76644,37.54593],[-109.7668,37.54612],[-109.76725,37.54638],[-109.76794,37.5468],[-109.76855,37.54716],[-109.76878,37.5473],[-109.76879,37.5473],[-109.76989,37.54797],[-109.77004,37.54806],[-109.77064,37.54843],[-109.77098,37.54864],[-109.77184,37.54915],[-109.77202,37.54926],[-109.77256,37.54959],[-109.77328,37.55003],[-109.77436,37.55068],[-109.77526,37.55123],[-109.77586,37.55159],[-109.77743,37.55254],[-109.77779,37.55276],[-109.77815,37.55298],[-109.77869,37.5533],[-109.7787,37.55331],[-109.77905,37.55352],[-109.77941,37.55374],[-109.77956,37.55383],[-109.77959,37.55385],[-109.78013,37.55417],[-109.78043,37.55435],[-109.7805,37.55439],[-109.78086,37.55461],[-109.78122,37.55483],[-109.78123,37.55484],[-109.7814,37.55493],[-109.78154,37.55501],[-109.78196,37.55523],[-109.78216,37.55532],[-109.78266,37.55553],[-109.78308,37.55569],[-109.7832,37.55574],[-109.78329,37.55577],[-109.78349,37.55583],[-109.78413,37.55604],[-109.78418,37.55606],[-109.78461,37.5562],[-109.7855,37.5565],[-109.78612,37.5567],[-109.78618,37.55672],[-109.78706,37.55701],[-109.78722,37.55707],[-109.78746,37.55714],[-109.78785,37.55727],[-109.78845,37.55747],[-109.78889,37.55762],[-109.78894,37.55764],[-109.78905,37.55768],[-109.78906,37.55768],[-109.7891,37.55769],[-109.78942,37.5578],[-109.78994,37.55797],[-109.7901,37.55802],[-109.79049,37.55815],[-109.79214,37.5587],[-109.79324,37.55906],[-109.79387,37.55927],[-109.79392,37.55929],[-109.79413,37.55936],[-109.7946,37.55951],[-109.79471,37.55955],[-109.79473,37.55955],[-109.79481,37.55958],[-109.79555,37.55983],[-109.7958,37.55991],[-109.79638,37.5601],[-109.79659,37.56017],[-109.7969,37.56027],[-109.79747,37.56046],[-109.79772,37.56054],[-109.79838,37.56076],[-109.79905,37.56099],[-109.79956,37.56116],[-109.79957,37.56117],[-109.80015,37.56136],[-109.80061,37.56151],[-109.80082,37.56158],[-109.80102,37.56165],[-109.80114,37.56169],[-109.80123,37.56172],[-109.80165,37.56186],[-109.80191,37.56194],[-109.80224,37.56205],[-109.80442,37.56277],[-109.80579,37.56324],[-109.806,37.56331],[-109.80633,37.56342],[-109.80747,37.56379],[-109.80767,37.56386],[-109.80789,37.56393],[-109.80852,37.56414],[-109.80936,37.56441],[-109.80958,37.56447],[-109.80984,37.56455],[-109.81049,37.56471],[-109.81069,37.56475],[-109.81131,37.56487],[-109.81178,37.56493],[-109.81244,37.56502],[-109.81266,37.56505],[-109.81277,37.56506],[-109.8131,37.56508],[-109.81368,37.56509],[-109.81416,37.5651],[-109.81454,37.5651],[-109.81519,37.56508],[-109.81577,37.56504],[-109.81644,37.56499],[-109.81713,37.56497],[-109.81722,37.56497],[-109.8178,37.56493],[-109.81798,37.56492],[-109.81866,37.56488],[-109.81906,37.56485],[-109.81933,37.56483],[-109.81941,37.56482],[-109.81979,37.5648],[-109.82009,37.56478],[-109.82077,37.56474],[-109.82114,37.56471],[-109.82145,37.56469],[-109.82172,37.56468],[-109.82205,37.56466],[-109.82234,37.56464],[-109.82258,37.56463],[-109.82293,37.56461],[-109.82363,37.56457],[-109.82474,37.5645],[-109.82546,37.56447],[-109.8259,37.56444],[-109.82666,37.5644],[-109.82704,37.56437],[-109.82748,37.56435],[-109.82765,37.56434],[-109.82779,37.56433],[-109.82819,37.56431],[-109.82882,37.56426],[-109.82907,37.56424],[-109.82914,37.56424],[-109.82937,37.56422],[-109.82988,37.5642],[-109.83036,37.56417],[-109.83112,37.56412],[-109.83144,37.56411],[-109.83153,37.5641],[-109.83201,37.56408],[-109.83203,37.56408],[-109.83244,37.56405],[-109.83288,37.56403],[-109.83354,37.56398],[-109.83399,37.56396],[-109.83467,37.56391],[-109.8347,37.56391],[-109.83489,37.5639],[-109.83512,37.56388],[-109.83565,37.56385],[-109.8358,37.56384],[-109.83603,37.56383],[-109.83625,37.56382],[-109.83631,37.56381],[-109.83712,37.56378],[-109.83757,37.56377],[-109.83799,37.56377],[-109.83863,37.56379],[-109.83934,37.56382],[-109.83965,37.56384],[-109.83987,37.56386],[-109.84042,37.56392],[-109.84096,37.56397],[-109.841,37.56397],[-109.84123,37.56399],[-109.84146,37.564],[-109.84174,37.56403],[-109.84191,37.56404],[-109.84213,37.56406],[-109.84258,37.56411],[-109.84299,37.56415],[-109.84303,37.56415],[-109.84326,37.56417],[-109.84393,37.56423],[-109.84461,37.5643],[-109.84641,37.56446],[-109.84658,37.56448],[-109.84664,37.56448],[-109.84732,37.56454],[-109.84822,37.56462],[-109.84889,37.56469],[-109.84934,37.56473],[-109.84957,37.56475],[-109.85047,37.56483],[-109.85295,37.56505],[-109.8543,37.56517],[-109.85453,37.5652],[-109.85476,37.56522],[-109.85588,37.56532],[-109.85611,37.56534],[-109.85774,37.56549],[-109.85961,37.56565],[-109.86051,37.56573],[-109.86186,37.56586],[-109.86231,37.5659],[-109.86422,37.56608],[-109.86524,37.56617],[-109.86565,37.56623],[-109.86601,37.56629],[-109.86644,37.56638],[-109.86657,37.56641],[-109.86698,37.56651],[-109.86721,37.56659],[-109.86746,37.56666],[-109.86785,37.5668],[-109.86831,37.56698],[-109.86865,37.56712],[-109.86877,37.56718],[-109.86884,37.56721],[-109.86917,37.56739],[-109.86967,37.56768],[-109.87036,37.56811],[-109.87047,37.56819],[-109.87064,37.56831],[-109.87135,37.56882],[-109.87277,37.56985],[-109.87417,37.57085],[-109.87427,37.57092],[-109.87502,37.57145],[-109.87542,37.57173],[-109.87553,37.57181],[-109.87603,37.57217],[-109.87619,37.57229],[-109.87637,37.57242],[-109.8767,37.57265],[-109.87687,37.57277],[-109.8772,37.57302],[-109.87737,37.57314],[-109.87754,37.57325],[-109.87771,37.57338],[-109.87788,37.5735],[-109.87872,37.5741],[-109.87882,37.57416],[-109.87923,37.57446],[-109.87974,37.57482],[-109.87991,37.57494],[-109.88031,37.57522],[-109.88099,37.57571],[-109.88132,37.57595],[-109.88149,37.57607],[-109.88166,37.57619],[-109.88183,37.57631],[-109.882,37.57643],[-109.8825,37.57679],[-109.88452,37.57824],[-109.88469,37.57836],[-109.88553,37.57896],[-109.8857,37.57908],[-109.88625,37.57948],[-109.88675,37.57984],[-109.88692,37.57996],[-109.88709,37.58008],[-109.88726,37.5802],[-109.88743,37.58032],[-109.88756,37.58042],[-109.88793,37.58068],[-109.88836,37.58099],[-109.88887,37.58135],[-109.88896,37.58142],[-109.88904,37.58147],[-109.88913,37.58154],[-109.88947,37.58178],[-109.89014,37.58226],[-109.89038,37.58244],[-109.89149,37.58323],[-109.89166,37.58335],[-109.89173,37.5834],[-109.89181,37.58346],[-109.89216,37.58371],[-109.89241,37.58388],[-109.89256,37.58399],[-109.89267,37.58407],[-109.89284,37.58419],[-109.89325,37.58448],[-109.89347,37.58464],[-109.89368,37.58479],[-109.89385,37.58491],[-109.89425,37.58521],[-109.89451,37.5854],[-109.89474,37.58557],[-109.89485,37.58564],[-109.89514,37.58584],[-109.89528,37.58592],[-109.89556,37.58609],[-109.89559,37.58611],[-109.89575,37.58619],[-109.89602,37.58632],[-109.89604,37.58632],[-109.89631,37.58643],[-109.89662,37.58653],[-109.89678,37.58657],[-109.89693,37.58661],[-109.89727,37.58668],[-109.89762,37.58673],[-109.89787,37.58675],[-109.89818,37.58677],[-109.89853,37.58678],[-109.89859,37.58677],[-109.89877,37.58676],[-109.89882,37.58676],[-109.8991,37.58672],[-109.89934,37.58669],[-109.8994,37.58668],[-109.89949,37.58667],[-109.89965,37.58663],[-109.89971,37.58662],[-109.89999,37.58654],[-109.9002,37.58648],[-109.90032,37.58644],[-109.90055,37.58636],[-109.90076,37.58629],[-109.90124,37.58612],[-109.90159,37.586],[-109.9018,37.58592],[-109.9022,37.58578],[-109.90249,37.58568],[-109.90263,37.58563],[-109.90367,37.58526],[-109.90483,37.58485],[-109.9057,37.58454],[-109.90622,37.58436],[-109.90698,37.58409],[-109.90719,37.58401],[-109.90767,37.58384],[-109.90788,37.58377],[-109.90864,37.5835],[-109.9105,37.58284],[-109.91257,37.5821],[-109.91423,37.58153],[-109.91423,37.58153],[-109.91436,37.58168],[-109.91446,37.58188],[-109.91447,37.58189],[-109.9145,37.58201],[-109.91454,37.58215],[-109.91458,37.58237],[-109.91459,37.58241],[-109.9146,37.58247],[-109.91462,37.58271],[-109.91461,37.58273],[-109.91457,37.58303],[-109.91449,37.58344],[-109.91445,37.58362],[-109.91441,37.58379],[-109.91441,37.5838],[-109.91425,37.58453],[-109.91425,37.58455],[-109.91424,37.58478],[-109.91424,37.58489],[-109.91426,37.5851],[-109.91429,37.58525],[-109.91431,37.58538],[-109.91432,37.58542],[-109.91438,37.5856],[-109.91443,37.58574],[-109.91461,37.58612],[-109.91465,37.5862],[-109.91477,37.58637],[-109.91484,37.58647],[-109.91488,37.58652],[-109.91493,37.58658],[-109.91498,37.58663],[-109.915,37.58666],[-109.91507,37.58673],[-109.91513,37.58679],[-109.91514,37.5868],[-109.91524,37.58689],[-109.91537,37.58702],[-109.91548,37.58712],[-109.91564,37.58727],[-109.91573,37.58735],[-109.9158,37.58741],[-109.91603,37.58762],[-109.91617,37.58776],[-109.91676,37.58831],[-109.91691,37.58844],[-109.91765,37.58913],[-109.91788,37.58934],[-109.9184,37.58983],[-109.91843,37.58986],[-109.91874,37.59017],[-109.91904,37.59042],[-109.91955,37.59089],[-109.91996,37.59124],[-109.92001,37.59129],[-109.92011,37.59137],[-109.92045,37.59166],[-109.92084,37.59196],[-109.92119,37.59223],[-109.92141,37.59237],[-109.92159,37.59248],[-109.9219,37.59268],[-109.92254,37.59306],[-109.92308,37.59336],[-109.92343,37.59353],[-109.92358,37.59361],[-109.92414,37.59386],[-109.92491,37.59415],[-109.92512,37.59422],[-109.92553,37.59438],[-109.92556,37.59439],[-109.92637,37.59465],[-109.92713,37.59489],[-109.92785,37.59511],[-109.92806,37.59517],[-109.9286,37.59533],[-109.92891,37.59543],[-109.92912,37.5955],[-109.92954,37.59563],[-109.92998,37.59576],[-109.93018,37.59582],[-109.93039,37.59588],[-109.9307,37.59597],[-109.93111,37.59606],[-109.93167,37.59617],[-109.93216,37.59625],[-109.9326,37.59629],[-109.93264,37.5963],[-109.93326,37.59634],[-109.9339,37.59637],[-109.93418,37.59636],[-109.93454,37.59635],[-109.93502,37.59633],[-109.93509,37.59632],[-109.93562,37.59627],[-109.93576,37.59625],[-109.93613,37.59621],[-109.93666,37.59612],[-109.9368,37.5961],[-109.93728,37.59602],[-109.93732,37.59601],[-109.93754,37.59597],[-109.93791,37.5959],[-109.93859,37.59578],[-109.93903,37.59574],[-109.93942,37.59575],[-109.93956,37.59577],[-109.93978,37.59579],[-109.93983,37.5958],[-109.94012,37.59588],[-109.9404,37.596],[-109.94064,37.59611],[-109.94078,37.5962],[-109.94089,37.59627],[-109.94111,37.59645],[-109.94132,37.59668],[-109.94146,37.5969],[-109.94154,37.59708],[-109.94161,37.59725],[-109.94166,37.59749],[-109.94167,37.5976],[-109.94167,37.59783],[-109.94163,37.59803],[-109.94155,37.5983],[-109.94144,37.59859],[-109.94134,37.59882],[-109.94126,37.59906],[-109.94121,37.59929],[-109.94122,37.59936],[-109.94122,37.59953],[-109.94126,37.59988],[-109.94137,37.60017],[-109.94148,37.60036],[-109.94169,37.60063],[-109.94193,37.60087],[-109.94221,37.60106],[-109.94259,37.60125],[-109.94282,37.60135],[-109.94302,37.60144],[-109.94306,37.60146],[-109.94402,37.60186],[-109.94426,37.60196],[-109.94443,37.60203],[-109.94493,37.60224],[-109.94522,37.60237],[-109.94551,37.60249],[-109.94598,37.60265],[-109.94638,37.60277],[-109.9469,37.60286],[-109.94692,37.60287],[-109.94738,37.60292],[-109.94782,37.60296],[-109.94813,37.603],[-109.94884,37.60306],[-109.94917,37.6031],[-109.94979,37.60316],[-109.95007,37.6032],[-109.95028,37.60322],[-109.95069,37.6033],[-109.95101,37.60337],[-109.95145,37.60349],[-109.9518,37.60359],[-109.95214,37.60371],[-109.95262,37.60391],[-109.95282,37.604],[-109.95322,37.60418],[-109.9544,37.60472],[-109.9549,37.60494],[-109.95525,37.60511],[-109.95557,37.60526],[-109.95559,37.60527],[-109.95578,37.60534],[-109.95588,37.60538],[-109.95614,37.60547],[-109.9565,37.60556],[-109.95683,37.60562],[-109.95715,37.60566],[-109.95756,37.60567],[-109.95798,37.60567],[-109.95847,37.60567],[-109.95932,37.60567],[-109.95999,37.60568],[-109.96059,37.60569],[-109.96092,37.60571],[-109.96128,37.60573],[-109.96155,37.60577],[-109.96161,37.60578],[-109.96183,37.60581],[-109.96188,37.60582],[-109.9622,37.60589],[-109.96247,37.60596],[-109.96274,37.60604],[-109.9631,37.60616],[-109.96337,37.60627],[-109.96366,37.6064],[-109.96395,37.60655],[-109.96436,37.60679],[-109.96497,37.6072],[-109.96514,37.60731],[-109.96568,37.60768],[-109.96615,37.60799],[-109.96642,37.6082],[-109.96672,37.60839],[-109.96693,37.60851],[-109.96711,37.60861],[-109.96718,37.60864],[-109.96736,37.60872],[-109.96745,37.60876],[-109.96759,37.6088],[-109.96782,37.60888],[-109.968,37.60892],[-109.96819,37.60897],[-109.96831,37.60899],[-109.96842,37.60902],[-109.96867,37.60905],[-109.96894,37.60907],[-109.96898,37.60908],[-109.96921,37.60909],[-109.96962,37.60912],[-109.97003,37.60914],[-109.97034,37.60917],[-109.97056,37.6092],[-109.97063,37.60921],[-109.97106,37.60928],[-109.97163,37.6094],[-109.97222,37.60952],[-109.97265,37.6096],[-109.97298,37.60964],[-109.97325,37.60966],[-109.97356,37.60966],[-109.97381,37.60965],[-109.97404,37.60962],[-109.97412,37.60961],[-109.97427,37.60959],[-109.97435,37.60958],[-109.97449,37.60955],[-109.97475,37.60948],[-109.97478,37.60947],[-109.97505,37.60938],[-109.97528,37.60931],[-109.97542,37.60926],[-109.97603,37.60904],[-109.97613,37.60903],[-109.97625,37.60899],[-109.9763,37.60898],[-109.97636,37.60898],[-109.97641,37.60899],[-109.97649,37.60901],[-109.97649,37.60901],[-109.97653,37.60902],[-109.97657,37.60901],[-109.97722,37.60878],[-109.97728,37.60877],[-109.97734,37.60877],[-109.97739,37.60874],[-109.97748,37.6087],[-109.97748,37.6087],[-109.97744,37.60864],[-109.97739,37.60855],[-109.97739,37.60855],[-109.97757,37.60848],[-109.97808,37.60836],[-109.97822,37.60833],[-109.97844,37.60828],[-109.97845,37.60828],[-109.9788,37.60821],[-109.9791,37.60818],[-109.97911,37.60818],[-109.97934,37.60816],[-109.97945,37.60815],[-109.97956,37.60815],[-109.97979,37.60814],[-109.97981,37.60814],[-109.98008,37.60814],[-109.98035,37.60816],[-109.98069,37.60819],[-109.9808,37.6082],[-109.98114,37.60825],[-109.98135,37.60828],[-109.98159,37.60831],[-109.98192,37.60837],[-109.98219,37.60841],[-109.9827,37.60848],[-109.98285,37.6085],[-109.98293,37.6085],[-109.98338,37.60855],[-109.98361,37.60856],[-109.98451,37.60861],[-109.9849,37.60863],[-109.98584,37.60869],[-109.98609,37.6087],[-109.98625,37.60873],[-109.98634,37.60875],[-109.98642,37.60879],[-109.98653,37.60887],[-109.98656,37.60888],[-109.98663,37.60895],[-109.98673,37.60916],[-109.98677,37.60923],[-109.98681,37.60929],[-109.98687,37.60935],[-109.9869,37.60938],[-109.98695,37.60942],[-109.98703,37.60947],[-109.98712,37.60952],[-109.98713,37.60953],[-109.98805,37.61],[-109.98808,37.61002],[-109.98813,37.61005],[-109.9882,37.61009],[-109.98826,37.61013],[-109.98828,37.61014],[-109.98834,37.6102],[-109.98839,37.61025],[-109.98871,37.61063],[-109.98878,37.61069],[-109.98884,37.61074],[-109.98891,37.61079],[-109.98897,37.61084],[-109.98904,37.61088],[-109.98933,37.61105],[-109.98951,37.61115],[-109.98979,37.61131],[-109.98987,37.61136],[-109.98996,37.61142],[-109.99003,37.61146],[-109.99007,37.61149],[-109.99011,37.61154],[-109.99015,37.61158],[-109.99019,37.61163],[-109.99023,37.61168],[-109.99055,37.61214],[-109.99061,37.61221],[-109.99065,37.61224],[-109.99066,37.61225],[-109.99072,37.6123],[-109.99079,37.61235],[-109.99094,37.61245],[-109.99098,37.61249],[-109.99102,37.61252],[-109.99118,37.61265],[-109.99129,37.61276],[-109.99145,37.61294],[-109.99181,37.61332],[-109.9919,37.6134],[-109.99198,37.61348],[-109.99205,37.61354],[-109.99213,37.6136],[-109.99214,37.6136],[-109.99293,37.61414],[-109.99305,37.61422],[-109.99311,37.61427],[-109.99316,37.61431],[-109.99317,37.61432],[-109.99323,37.61439],[-109.99326,37.61445],[-109.99329,37.61452],[-109.99339,37.61482],[-109.99342,37.61489],[-109.99345,37.61495],[-109.99347,37.61498],[-109.99349,37.615],[-109.99353,37.61507],[-109.99359,37.61513],[-109.99361,37.61514],[-109.99375,37.61526],[-109.9939,37.6154],[-109.99405,37.61553],[-109.99436,37.6158],[-109.99451,37.61593],[-109.99466,37.61606],[-109.99474,37.61613],[-109.99486,37.61622],[-109.99496,37.6163],[-109.99502,37.61634],[-109.9951,37.61639],[-109.99607,37.61696],[-109.99644,37.61718],[-109.99698,37.6175],[-109.99723,37.61765],[-109.99753,37.61782],[-109.99793,37.61804],[-109.99809,37.61813],[-109.99828,37.61823],[-109.99831,37.61825],[-109.99858,37.61839],[-109.99869,37.61844],[-109.9988,37.61847],[-109.99888,37.61848],[-109.99889,37.61848],[-109.99899,37.61848],[-109.99907,37.61846],[-109.99915,37.61843],[-109.9992,37.6184],[-109.99926,37.61837],[-109.99928,37.61835],[-109.99936,37.61828],[-109.99943,37.61822],[-109.99949,37.61814],[-109.99952,37.61808],[-109.99955,37.61801],[-109.99957,37.61794],[-109.99959,37.6178],[-109.9996,37.61764],[-109.99961,37.61754],[-109.99962,37.61752],[-109.99964,37.61742],[-109.99968,37.61729],[-109.99981,37.617],[-109.99996,37.61666],[-109.99998,37.61663],[-110.00001,37.61656],[-110.00004,37.6165],[-110.00005,37.61648],[-110.00009,37.61644],[-110.00014,37.61638],[-110.00017,37.61635],[-110.00022,37.6163],[-110.00033,37.61622],[-110.00045,37.61613],[-110.00068,37.61594],[-110.00086,37.61588],[-110.00097,37.61586],[-110.00109,37.61584],[-110.00142,37.6158],[-110.00147,37.6158],[-110.00157,37.61578],[-110.00169,37.61575],[-110.00184,37.61571],[-110.0019,37.61569],[-110.00253,37.61548],[-110.00269,37.61542],[-110.00281,37.61537],[-110.00292,37.61531],[-110.00293,37.6153],[-110.00302,37.61524],[-110.00309,37.61518],[-110.0031,37.61517],[-110.00316,37.61509],[-110.00323,37.615],[-110.00327,37.61489],[-110.0033,37.61477],[-110.00336,37.61451],[-110.00343,37.61415],[-110.00351,37.6138],[-110.00353,37.61365],[-110.00352,37.61358],[-110.0035,37.61352],[-110.00345,37.61344],[-110.00337,37.61339],[-110.00329,37.61335],[-110.00319,37.61333],[-110.00308,37.61332],[-110.00305,37.61332],[-110.00282,37.61331],[-110.00261,37.6133],[-110.00259,37.6133],[-110.00245,37.61328],[-110.00236,37.61327],[-110.00229,37.61324],[-110.00222,37.61321],[-110.00214,37.61315],[-110.00183,37.61287],[-110.00179,37.61283],[-110.00177,37.61279],[-110.00176,37.61274],[-110.00176,37.61268],[-110.0018,37.61263],[-110.00183,37.61258],[-110.00191,37.61254],[-110.00199,37.61251],[-110.0021,37.61248],[-110.00246,37.61242],[-110.00305,37.61233],[-110.00316,37.6123],[-110.00326,37.61226],[-110.00336,37.6122],[-110.00381,37.61185],[-110.00397,37.61173],[-110.00398,37.61172],[-110.00411,37.61162],[-110.00421,37.61156],[-110.00432,37.61152],[-110.00434,37.61152],[-110.0045,37.61149],[-110.0047,37.61146],[-110.00482,37.61145],[-110.00494,37.61145],[-110.00501,37.61146],[-110.00506,37.61147],[-110.00518,37.6115],[-110.00562,37.61164],[-110.00577,37.61169],[-110.00585,37.61173],[-110.00588,37.61175],[-110.00624,37.61192],[-110.00675,37.61218],[-110.00685,37.61222],[-110.00698,37.61227],[-110.00702,37.61228],[-110.00712,37.61231],[-110.00724,37.61233],[-110.00746,37.61238],[-110.00765,37.61241],[-110.00768,37.61242],[-110.00776,37.61245],[-110.00788,37.61249],[-110.00789,37.6125],[-110.00796,37.61253],[-110.00813,37.61264],[-110.00845,37.61285],[-110.00857,37.61292],[-110.00873,37.61301],[-110.00879,37.61304],[-110.0089,37.61308],[-110.00899,37.61312],[-110.009,37.61313],[-110.00909,37.61316],[-110.00918,37.61317],[-110.00924,37.61318],[-110.00932,37.61318],[-110.00939,37.61317],[-110.00947,37.61316],[-110.00957,37.61314],[-110.00993,37.61306],[-110.01001,37.61303],[-110.01023,37.61298],[-110.01043,37.61294],[-110.01054,37.61293],[-110.01059,37.61292],[-110.01068,37.61292],[-110.01104,37.6129],[-110.01142,37.61288],[-110.01166,37.61289],[-110.01195,37.61293],[-110.01226,37.61298],[-110.01235,37.61299],[-110.01247,37.61299],[-110.01256,37.61299],[-110.01261,37.61298],[-110.01266,37.61297],[-110.01275,37.61294],[-110.01284,37.6129],[-110.01294,37.61285],[-110.01301,37.61281],[-110.01319,37.61271],[-110.01338,37.6126],[-110.01343,37.61257],[-110.01356,37.6125],[-110.01447,37.61201],[-110.01451,37.612],[-110.01459,37.61196],[-110.01479,37.61188],[-110.01505,37.61182],[-110.01514,37.6118],[-110.01529,37.61177],[-110.01536,37.61176],[-110.01621,37.6116],[-110.01624,37.61159],[-110.01632,37.61157],[-110.01639,37.61154],[-110.01644,37.61151],[-110.01646,37.61149],[-110.01649,37.61144],[-110.01651,37.61139],[-110.01651,37.61134],[-110.01651,37.61133],[-110.01651,37.61127],[-110.01644,37.61099],[-110.01635,37.61058],[-110.01632,37.61049],[-110.01631,37.61046],[-110.01628,37.61039],[-110.01623,37.61033],[-110.0162,37.6103],[-110.01617,37.61028],[-110.01608,37.61024],[-110.01601,37.61022],[-110.016,37.61021],[-110.01587,37.61019],[-110.01579,37.61019],[-110.01556,37.61016],[-110.01534,37.61014],[-110.01511,37.61012],[-110.0149,37.6101],[-110.01479,37.61008],[-110.01472,37.61006],[-110.01466,37.61003],[-110.0146,37.60996],[-110.01455,37.60989],[-110.01454,37.60987],[-110.01443,37.60967],[-110.01441,37.60962],[-110.0144,37.60956],[-110.0144,37.60955],[-110.0144,37.60949],[-110.01442,37.60938],[-110.01448,37.60916],[-110.01451,37.60907],[-110.01454,37.60901],[-110.01458,37.60896],[-110.01463,37.60892],[-110.01468,37.6089],[-110.01469,37.60889],[-110.01489,37.60881],[-110.01495,37.60878],[-110.01509,37.60873],[-110.01521,37.60867],[-110.01528,37.60864],[-110.01535,37.6086],[-110.01588,37.60827],[-110.016,37.6082],[-110.01613,37.60814],[-110.01621,37.60812],[-110.01626,37.6081],[-110.01642,37.60806],[-110.01664,37.60801],[-110.01665,37.608],[-110.01675,37.60797],[-110.01686,37.60794],[-110.01694,37.6079],[-110.01699,37.60786],[-110.01702,37.60782],[-110.01704,37.6078],[-110.01707,37.60774],[-110.0171,37.60767],[-110.0171,37.60766],[-110.01711,37.60758],[-110.0171,37.60751],[-110.0171,37.60748],[-110.01707,37.6073],[-110.01702,37.60693],[-110.01701,37.60686],[-110.01697,37.60677],[-110.01692,37.60671],[-110.01688,37.60668],[-110.01681,37.60664],[-110.01677,37.60661],[-110.01663,37.60653],[-110.01641,37.60641],[-110.01632,37.60634],[-110.0162,37.60624],[-110.01615,37.60617],[-110.01591,37.60585],[-110.01556,37.60539],[-110.01522,37.60493],[-110.01516,37.60485],[-110.01511,37.60477],[-110.01508,37.60473],[-110.01501,37.6046],[-110.01497,37.6045],[-110.01493,37.60437],[-110.01492,37.60429],[-110.01491,37.60421],[-110.01492,37.60412],[-110.01494,37.60403],[-110.01497,37.60398],[-110.01502,37.60393],[-110.01507,37.60389],[-110.01513,37.60386],[-110.01519,37.60384],[-110.01528,37.60382],[-110.01535,37.60381],[-110.01544,37.60382],[-110.01545,37.60382],[-110.01552,37.60383],[-110.01567,37.60386],[-110.01597,37.60393],[-110.017,37.60411],[-110.01722,37.60415],[-110.01738,37.60418],[-110.01744,37.60418],[-110.01747,37.60419],[-110.01757,37.6042],[-110.01765,37.60419],[-110.01772,37.60416],[-110.01779,37.60413],[-110.01786,37.60409],[-110.01804,37.60398],[-110.01822,37.60387],[-110.01824,37.60386],[-110.01834,37.60381],[-110.01845,37.60376],[-110.01855,37.60373],[-110.01868,37.60371],[-110.01882,37.60371],[-110.01898,37.60371],[-110.01916,37.60372],[-110.01935,37.60374],[-110.01952,37.60377],[-110.01955,37.60378],[-110.01981,37.60384],[-110.02037,37.60402],[-110.02058,37.60409],[-110.02099,37.60425],[-110.02102,37.60426],[-110.02116,37.6043],[-110.02129,37.60432],[-110.0214,37.60431],[-110.02149,37.60429],[-110.02161,37.60425],[-110.02208,37.60402],[-110.02218,37.60396],[-110.02226,37.60389],[-110.0223,37.60383],[-110.02232,37.60378],[-110.02232,37.60377],[-110.02232,37.6037],[-110.02231,37.60364],[-110.02229,37.60361],[-110.02224,37.60349],[-110.02221,37.60344],[-110.02217,37.60337],[-110.02213,37.60333],[-110.02209,37.60329],[-110.02202,37.60326],[-110.02195,37.60325],[-110.02181,37.60323],[-110.02165,37.6032],[-110.02162,37.6032],[-110.02154,37.60317],[-110.02148,37.60314],[-110.02146,37.60311],[-110.02143,37.60308],[-110.02138,37.60303],[-110.02136,37.60297],[-110.02135,37.60296],[-110.02134,37.6029],[-110.02134,37.60284],[-110.02136,37.60278],[-110.02139,37.60271],[-110.02144,37.60265],[-110.02151,37.60258],[-110.0216,37.60251],[-110.02163,37.6025],[-110.0217,37.60246],[-110.02179,37.60242],[-110.02182,37.60241],[-110.02188,37.60239],[-110.02197,37.60236],[-110.02204,37.60235],[-110.02212,37.60234],[-110.02265,37.60232],[-110.02279,37.60231],[-110.02294,37.60229],[-110.02295,37.60229],[-110.02308,37.60226],[-110.02316,37.60224],[-110.02319,37.60223],[-110.02329,37.6022],[-110.02337,37.60217],[-110.02378,37.60202],[-110.02403,37.60193],[-110.02416,37.60188],[-110.02419,37.60187],[-110.02427,37.60183],[-110.02435,37.60178],[-110.02444,37.6017],[-110.02488,37.60118],[-110.02493,37.60111],[-110.02496,37.60102],[-110.02497,37.60092],[-110.02494,37.60084],[-110.0249,37.60076],[-110.02485,37.60069],[-110.02482,37.60067],[-110.02476,37.60062],[-110.02466,37.60057],[-110.02447,37.60049],[-110.02401,37.60036],[-110.02389,37.60033],[-110.02374,37.60028],[-110.02365,37.60025],[-110.0236,37.60022],[-110.02359,37.60021],[-110.02355,37.60017],[-110.02352,37.60012],[-110.02349,37.60002],[-110.02349,37.59992],[-110.02351,37.59985],[-110.02354,37.59975],[-110.02358,37.59967],[-110.02363,37.59959],[-110.0237,37.59952],[-110.02378,37.59946],[-110.02382,37.59942],[-110.02387,37.59939],[-110.02395,37.59934],[-110.02403,37.5993],[-110.02437,37.59911],[-110.02456,37.59901],[-110.02469,37.59894],[-110.02475,37.5989],[-110.02481,37.59887],[-110.0249,37.59882],[-110.02494,37.59881],[-110.02499,37.59878],[-110.02507,37.59875],[-110.02516,37.59873],[-110.02525,37.59872],[-110.02539,37.59872],[-110.0256,37.59872],[-110.02565,37.59872],[-110.02577,37.59872],[-110.02582,37.59871],[-110.02587,37.59871],[-110.02597,37.59869],[-110.02612,37.59862],[-110.02637,37.59848],[-110.02646,37.59841],[-110.0265,37.59835],[-110.02652,37.59828],[-110.02651,37.59816],[-110.0265,37.59814],[-110.02647,37.59808],[-110.02641,37.59803],[-110.02639,37.59802],[-110.02629,37.59798],[-110.02618,37.59797],[-110.02607,37.59798],[-110.02597,37.59799],[-110.02565,37.59801],[-110.02552,37.59803],[-110.02547,37.59803],[-110.02531,37.59805],[-110.02529,37.59805],[-110.02518,37.59805],[-110.02506,37.59804],[-110.02501,37.59804],[-110.02467,37.59798],[-110.02443,37.59794],[-110.02427,37.59792],[-110.02413,37.5979],[-110.02398,37.59789],[-110.02395,37.59789],[-110.02383,37.59788],[-110.02372,37.59788],[-110.02341,37.59788],[-110.02326,37.59789],[-110.02314,37.5979],[-110.02307,37.59791],[-110.02304,37.59792],[-110.023,37.59793],[-110.02292,37.59797],[-110.02285,37.59801],[-110.02281,37.59804],[-110.02268,37.59813],[-110.02249,37.59825]]}},{"type":"Feature","properties":{"_gpxType":"trk","name":"Blue Mountain RV & Trading, South Main Street, Blanding, UT - Bridge View Dr - Natural Bridges National Monument Campground, Lake Powell, UT","coordinateProperties":{},"id":78},"geometry":{"type":"LineString","coordinates":[[-110.02249,37.59825],[-110.02202,37.59858],[-110.02199,37.5986],[-110.02191,37.59865],[-110.02177,37.59871],[-110.02154,37.5988],[-110.02139,37.59885],[-110.02123,37.59891],[-110.02015,37.59929],[-110.01973,37.59944],[-110.01953,37.59951],[-110.0193,37.59959],[-110.01915,37.59965],[-110.01911,37.59966],[-110.01901,37.59969],[-110.0189,37.59971],[-110.01889,37.59972],[-110.01875,37.59973],[-110.01861,37.59974],[-110.01843,37.59975],[-110.01754,37.59974],[-110.01692,37.59973],[-110.01686,37.59973],[-110.0168,37.59973],[-110.01668,37.59971],[-110.01663,37.5997],[-110.01655,37.59969],[-110.01641,37.59965],[-110.01621,37.59957],[-110.01617,37.59956],[-110.01601,37.59949],[-110.01581,37.5994],[-110.01538,37.5992],[-110.01526,37.59916],[-110.01521,37.59914],[-110.01514,37.59912],[-110.01503,37.5991],[-110.015,37.5991],[-110.01493,37.59909],[-110.01482,37.59909],[-110.01477,37.59909],[-110.01454,37.5991],[-110.01432,37.59911],[-110.01426,37.59911],[-110.01411,37.59911],[-110.01399,37.59911],[-110.01389,37.5991],[-110.01379,37.59909],[-110.01368,37.59905],[-110.01365,37.59904],[-110.01354,37.59899],[-110.01291,37.59863],[-110.01273,37.59853],[-110.01264,37.59847],[-110.01257,37.59841],[-110.01256,37.5984],[-110.01253,37.59835],[-110.01247,37.59823],[-110.01241,37.59812],[-110.01232,37.59796],[-110.01226,37.59787],[-110.01218,37.59779],[-110.01181,37.59752],[-110.01168,37.59742],[-110.01158,37.59733],[-110.0115,37.59726],[-110.01142,37.59718],[-110.01127,37.59698],[-110.01125,37.59696],[-110.01117,37.59683],[-110.01109,37.59669],[-110.01096,37.59641],[-110.01092,37.59631],[-110.01091,37.59629],[-110.01089,37.5962],[-110.01088,37.59611],[-110.01087,37.596],[-110.01086,37.59593],[-110.01085,37.59575],[-110.01084,37.59558],[-110.01082,37.5954],[-110.01082,37.59529],[-110.01077,37.5945],[-110.01076,37.59432],[-110.01076,37.59425],[-110.01075,37.59414],[-110.01074,37.59402],[-110.01072,37.59396],[-110.0107,37.59385],[-110.01068,37.59378],[-110.01063,37.59361],[-110.01062,37.59361],[-110.01056,37.59344],[-110.01049,37.59329],[-110.01042,37.59317],[-110.01034,37.59307],[-110.01028,37.59299],[-110.01017,37.59289],[-110.00995,37.59269],[-110.0098,37.59255],[-110.00951,37.59227],[-110.00937,37.59214],[-110.00908,37.59186],[-110.00906,37.59184],[-110.00902,37.59177],[-110.009,37.59172],[-110.00899,37.59167],[-110.00899,37.5916],[-110.00901,37.59152],[-110.00904,37.59145],[-110.00911,37.59137],[-110.00921,37.59129],[-110.00933,37.59121],[-110.00947,37.59114],[-110.00985,37.59094],[-110.00996,37.59088],[-110.01013,37.59078],[-110.01026,37.5907],[-110.01037,37.59061],[-110.01046,37.59052],[-110.01051,37.59045],[-110.01056,37.59039],[-110.01061,37.59029],[-110.01066,37.59021],[-110.01089,37.58983],[-110.0109,37.58981],[-110.011,37.58965],[-110.01109,37.58953],[-110.01126,37.58933],[-110.01137,37.58922],[-110.01138,37.5892],[-110.01152,37.58905],[-110.01165,37.58891],[-110.01192,37.58862],[-110.01206,37.58847],[-110.01214,37.58838],[-110.01219,37.58833],[-110.01224,37.58828],[-110.01232,37.5882],[-110.01234,37.58819],[-110.01241,37.58813],[-110.0125,37.58809],[-110.01252,37.58808],[-110.01262,37.58805],[-110.01273,37.58801],[-110.01286,37.58797],[-110.01293,37.58794],[-110.013,37.58791],[-110.01309,37.58786],[-110.01312,37.58784],[-110.01317,37.5878],[-110.01324,37.58774],[-110.01332,37.58765],[-110.01363,37.58725],[-110.01373,37.58709],[-110.01374,37.58708],[-110.01379,37.58696],[-110.0138,37.58692],[-110.01382,37.58685],[-110.01383,37.58674],[-110.01383,37.58671],[-110.01386,37.58638],[-110.01389,37.58587],[-110.0139,37.58584],[-110.01391,37.58566],[-110.01391,37.58559],[-110.01391,37.58548],[-110.0139,37.5854],[-110.01386,37.5853],[-110.0138,37.58524],[-110.01373,37.58521],[-110.01364,37.58518],[-110.01353,37.58517],[-110.0135,37.58517],[-110.01343,37.58517],[-110.01335,37.58518],[-110.01331,37.58519],[-110.0132,37.58522],[-110.01314,37.58525],[-110.01307,37.58528],[-110.01291,37.58535],[-110.01288,37.58537],[-110.01269,37.58555],[-110.01253,37.58579],[-110.01244,37.58596],[-110.01233,37.58615],[-110.01207,37.58653],[-110.01199,37.58678],[-110.01198,37.58681],[-110.01194,37.58695],[-110.01193,37.58695],[-110.01187,37.58719],[-110.01165,37.58757],[-110.01157,37.58765],[-110.01149,37.58771],[-110.01143,37.58772],[-110.01125,37.58775],[-110.01117,37.58777],[-110.01099,37.58781],[-110.01095,37.58782],[-110.01066,37.58788],[-110.01055,37.58791],[-110.01033,37.58795],[-110.01014,37.58801],[-110.01005,37.58806],[-110.00996,37.58819],[-110.00986,37.58833],[-110.0096,37.58864],[-110.00953,37.58873],[-110.00949,37.58876],[-110.00947,37.58878],[-110.00946,37.58878],[-110.00914,37.58903],[-110.00911,37.58905],[-110.00899,37.58912],[-110.00881,37.58923],[-110.00834,37.58947],[-110.00747,37.58995],[-110.00709,37.59014],[-110.00708,37.59015],[-110.0069,37.5902],[-110.00687,37.59021],[-110.00682,37.59023],[-110.00659,37.59025],[-110.00646,37.59027],[-110.006,37.59033],[-110.00576,37.59039],[-110.00575,37.59039],[-110.00557,37.59043],[-110.00554,37.59044],[-110.00532,37.59049],[-110.00514,37.59053],[-110.0051,37.59054],[-110.00496,37.59057],[-110.00451,37.59064],[-110.00444,37.59064],[-110.00443,37.59064],[-110.0043,37.59066],[-110.00425,37.59066],[-110.00421,37.59066],[-110.00389,37.59067],[-110.00334,37.59083],[-110.00321,37.59087],[-110.00316,37.59088],[-110.00287,37.59096],[-110.00252,37.59099],[-110.00246,37.59099],[-110.00224,37.591],[-110.00223,37.591],[-110.00204,37.591],[-110.00201,37.591],[-110.00182,37.59101],[-110.00178,37.59101],[-110.00159,37.59101],[-110.00158,37.59101],[-110.00155,37.59101],[-110.00113,37.59101],[-110.00068,37.59101],[-110.00046,37.59101],[-110.00023,37.59102],[-109.99991,37.59102],[-109.99978,37.59105],[-109.99954,37.59109],[-109.99937,37.59119],[-109.99926,37.59125],[-109.99913,37.5914],[-109.99898,37.59152],[-109.99884,37.5917],[-109.9988,37.59174],[-109.99869,37.5919],[-109.99857,37.59205],[-109.9984,37.59229],[-109.99835,37.59237],[-109.99817,37.59269],[-109.99798,37.59302],[-109.99779,37.59336],[-109.99772,37.59352],[-109.99764,37.59369],[-109.99756,37.59386],[-109.99752,37.59397],[-109.99737,37.59437],[-109.99737,37.59438],[-109.99727,37.59467],[-109.99719,37.59521],[-109.99719,37.59544],[-109.99718,37.59561],[-109.99718,37.59562],[-109.99722,37.59616],[-109.99722,37.59621],[-109.99724,37.59634],[-109.99725,37.59652],[-109.99726,37.59683],[-109.99723,37.59696],[-109.99714,37.59713],[-109.99708,37.59721],[-109.99701,37.59731],[-109.99674,37.59759],[-109.99669,37.59765],[-109.99645,37.59795],[-109.99636,37.59806],[-109.9962,37.5984],[-109.99618,37.59844],[-109.99618,37.59845],[-109.99603,37.5988],[-109.996,37.59885],[-109.99594,37.599],[-109.99574,37.59925],[-109.99559,37.5994],[-109.99553,37.59946],[-109.99544,37.59955],[-109.9953,37.59968],[-109.99526,37.59972],[-109.99485,37.60009],[-109.9947,37.60019],[-109.99467,37.6002],[-109.99445,37.60025],[-109.99443,37.60025],[-109.994,37.60034],[-109.99342,37.60044],[-109.99307,37.60048],[-109.99267,37.60049],[-109.99244,37.60049],[-109.99186,37.6005],[-109.99146,37.60052],[-109.9911,37.60058],[-109.99063,37.60073],[-109.99046,37.60079],[-109.99021,37.60088],[-109.98987,37.60099],[-109.98963,37.60108],[-109.98955,37.6011],[-109.98944,37.60117],[-109.98933,37.60123],[-109.98927,37.60129],[-109.98915,37.6014],[-109.98912,37.60143],[-109.98898,37.60155],[-109.9889,37.60163],[-109.98884,37.60171],[-109.98879,37.60176],[-109.98874,37.6019],[-109.98874,37.60207],[-109.98879,37.60225],[-109.98878,37.6024],[-109.98878,37.60252],[-109.98879,37.60259],[-109.98879,37.60274],[-109.98877,37.60293],[-109.98866,37.60311],[-109.98859,37.60323],[-109.98857,37.60327],[-109.98856,37.60327],[-109.98839,37.60354],[-109.98836,37.60359],[-109.98826,37.60375],[-109.98821,37.60383],[-109.98806,37.604],[-109.988,37.60404],[-109.98786,37.60415],[-109.98784,37.60417],[-109.98783,37.60417],[-109.98767,37.60429],[-109.98761,37.60434],[-109.98739,37.60453],[-109.98724,37.60471],[-109.98721,37.60475],[-109.98712,37.60486],[-109.98698,37.60504],[-109.98675,37.60532],[-109.98664,37.60547],[-109.98661,37.60552],[-109.98656,37.60564],[-109.98652,37.60575],[-109.98651,37.60581],[-109.98649,37.60603],[-109.98645,37.60623],[-109.98646,37.60635],[-109.98647,37.60653],[-109.98647,37.60666],[-109.98648,37.60671],[-109.98651,37.60692],[-109.98651,37.60718],[-109.98646,37.60742],[-109.98641,37.60761],[-109.98637,37.60783],[-109.98637,37.60797],[-109.98639,37.60815],[-109.98645,37.60844],[-109.98645,37.60844],[-109.98643,37.60853],[-109.98641,37.60855],[-109.98638,37.60859],[-109.98634,37.60862],[-109.98631,37.60864],[-109.9863,37.60865],[-109.98625,37.60867],[-109.98618,37.60868],[-109.98609,37.6087],[-109.98584,37.60869],[-109.9849,37.60863],[-109.98451,37.60861],[-109.98361,37.60856],[-109.98361,37.60856],[-109.98361,37.60864],[-109.9836,37.60873],[-109.98359,37.60874],[-109.98357,37.60884],[-109.98353,37.60892],[-109.98353,37.60896],[-109.98353,37.609],[-109.98356,37.60907],[-109.98357,37.60909],[-109.98365,37.60927],[-109.98369,37.60937],[-109.98372,37.60941],[-109.98374,37.60943],[-109.98378,37.60944],[-109.98382,37.60945],[-109.98389,37.60945],[-109.98392,37.60945],[-109.98396,37.60945],[-109.98411,37.60951],[-109.98424,37.60956],[-109.98435,37.60959],[-109.98448,37.60964],[-109.9846,37.60964],[-109.98471,37.60963],[-109.98477,37.6096],[-109.98485,37.60957],[-109.98488,37.60956],[-109.9849,37.60954],[-109.98492,37.60952],[-109.98496,37.60946],[-109.98502,37.60939],[-109.98505,37.60935],[-109.98509,37.6093],[-109.98513,37.60923],[-109.98514,37.60918],[-109.98512,37.60914],[-109.9851,37.6091],[-109.98508,37.60909],[-109.98504,37.60906],[-109.98499,37.60906],[-109.98492,37.60908],[-109.98486,37.6091],[-109.98482,37.60914],[-109.98478,37.60921],[-109.98475,37.60926],[-109.98474,37.6093]]}}]}