{"type":"FeatureCollection","features":[{"type":"Feature","properties":{"_gpxType":"trk","name":"Natural Bridges National Monument Campground, Lake Powell, UT - Hite Marina Campground, Hite, UT","coordinateProperties":{},"id":79},"geometry":{"type":"LineString","coordinates":[[-109.98474,37.6093],[-109.98473,37.60935],[-109.9847,37.60944],[-109.98466,37.6095],[-109.98448,37.60964],[-109.98448,37.60964],[-109.98435,37.60959],[-109.98424,37.60956],[-109.98411,37.60951],[-109.98396,37.60945],[-109.98392,37.60945],[-109.98389,37.60945],[-109.98382,37.60945],[-109.98378,37.60944],[-109.98374,37.60943],[-109.98372,37.60941],[-109.98369,37.60937],[-109.98365,37.60927],[-109.98357,37.60909],[-109.98356,37.60907],[-109.98353,37.609],[-109.98353,37.60896],[-109.98353,37.60892],[-109.98357,37.60884],[-109.98359,37.60874],[-109.9836,37.60873],[-109.98361,37.60864],[-109.98361,37.60856],[-109.98361,37.60856],[-109.98338,37.60855],[-109.98293,37.6085],[-109.98285,37.6085],[-109.9827,37.60848],[-109.98219,37.60841],[-109.98192,37.60837],[-109.98159,37.60831],[-109.98135,37.60828],[-109.98114,37.60825],[-109.9808,37.6082],[-109.98069,37.60819],[-109.98035,37.60816],[-109.98008,37.60814],[-109.97981,37.60814],[-109.97979,37.60814],[-109.97956,37.60815],[-109.97945,37.60815],[-109.97934,37.60816],[-109.97911,37.60818],[-109.9791,37.60818],[-109.9788,37.60821],[-109.97845,37.60828],[-109.97844,37.60828],[-109.97822,37.60833],[-109.97808,37.60836],[-109.97757,37.60848],[-109.97739,37.60855],[-109.97722,37.6086],[-109.97703,37.60867],[-109.97641,37.6089],[-109.97635,37.6089],[-109.97611,37.60899],[-109.97603,37.60904],[-109.97542,37.60926],[-109.97528,37.60931],[-109.97505,37.60938],[-109.97478,37.60947],[-109.97475,37.60948],[-109.97449,37.60955],[-109.97435,37.60958],[-109.97427,37.60959],[-109.97412,37.60961],[-109.97404,37.60962],[-109.97381,37.60965],[-109.97356,37.60966],[-109.97325,37.60966],[-109.97298,37.60964],[-109.97265,37.6096],[-109.97222,37.60952],[-109.97163,37.6094],[-109.97106,37.60928],[-109.97063,37.60921],[-109.97056,37.6092],[-109.97034,37.60917],[-109.97003,37.60914],[-109.96962,37.60912],[-109.96921,37.60909],[-109.96898,37.60908],[-109.96894,37.60907],[-109.96867,37.60905],[-109.96842,37.60902],[-109.96831,37.60899],[-109.96819,37.60897],[-109.968,37.60892],[-109.96782,37.60888],[-109.96759,37.6088],[-109.96745,37.60876],[-109.96736,37.60872],[-109.96718,37.60864],[-109.96711,37.60861],[-109.96693,37.60851],[-109.96672,37.60839],[-109.96642,37.6082],[-109.96615,37.60799],[-109.96568,37.60768],[-109.96514,37.60731],[-109.96497,37.6072],[-109.96436,37.60679],[-109.96395,37.60655],[-109.96366,37.6064],[-109.96337,37.60627],[-109.9631,37.60616],[-109.96274,37.60604],[-109.96247,37.60596],[-109.9622,37.60589],[-109.96188,37.60582],[-109.96183,37.60581],[-109.96161,37.60578],[-109.96155,37.60577],[-109.96128,37.60573],[-109.96092,37.60571],[-109.96059,37.60569],[-109.95999,37.60568],[-109.95932,37.60567],[-109.95847,37.60567],[-109.95798,37.60567],[-109.95756,37.60567],[-109.95715,37.60566],[-109.95683,37.60562],[-109.9565,37.60556],[-109.95614,37.60547],[-109.95588,37.60538],[-109.95578,37.60534],[-109.95559,37.60527],[-109.95557,37.60526],[-109.95525,37.60511],[-109.9549,37.60494],[-109.9544,37.60472],[-109.95322,37.60418],[-109.95282,37.604],[-109.95262,37.60391],[-109.95214,37.60371],[-109.9518,37.60359],[-109.95145,37.60349],[-109.95101,37.60337],[-109.95069,37.6033],[-109.95028,37.60322],[-109.95007,37.6032],[-109.94979,37.60316],[-109.94917,37.6031],[-109.94884,37.60306],[-109.94813,37.603],[-109.94782,37.60296],[-109.94738,37.60292],[-109.94692,37.60287],[-109.9469,37.60286],[-109.94638,37.60277],[-109.94598,37.60265],[-109.94551,37.60249],[-109.94522,37.60237],[-109.94493,37.60224],[-109.94443,37.60203],[-109.94426,37.60196],[-109.94402,37.60186],[-109.94306,37.60146],[-109.94302,37.60144],[-109.94282,37.60135],[-109.94259,37.60125],[-109.94221,37.60106],[-109.94193,37.60087],[-109.94169,37.60063],[-109.94148,37.60036],[-109.94137,37.60017],[-109.94126,37.59988],[-109.94122,37.59953],[-109.94122,37.59936],[-109.94121,37.59929],[-109.94126,37.59906],[-109.94134,37.59882],[-109.94144,37.59859],[-109.94155,37.5983],[-109.94163,37.59803],[-109.94167,37.59783],[-109.94167,37.5976],[-109.94166,37.59749],[-109.94161,37.59725],[-109.94154,37.59708],[-109.94146,37.5969],[-109.94132,37.59668],[-109.94111,37.59645],[-109.94089,37.59627],[-109.94078,37.5962],[-109.94064,37.59611],[-109.9404,37.596],[-109.94012,37.59588],[-109.93983,37.5958],[-109.93978,37.59579],[-109.93956,37.59577],[-109.93942,37.59575],[-109.93903,37.59574],[-109.93859,37.59578],[-109.93791,37.5959],[-109.93754,37.59597],[-109.93732,37.59601],[-109.93728,37.59602],[-109.9368,37.5961],[-109.93666,37.59612],[-109.93613,37.59621],[-109.93576,37.59625],[-109.93562,37.59627],[-109.93509,37.59632],[-109.93502,37.59633],[-109.93454,37.59635],[-109.93418,37.59636],[-109.9339,37.59637],[-109.93326,37.59634],[-109.93264,37.5963],[-109.9326,37.59629],[-109.93216,37.59625],[-109.93167,37.59617],[-109.93111,37.59606],[-109.9307,37.59597],[-109.93039,37.59588],[-109.93018,37.59582],[-109.92998,37.59576],[-109.92954,37.59563],[-109.92912,37.5955],[-109.92891,37.59543],[-109.9286,37.59533],[-109.92806,37.59517],[-109.92785,37.59511],[-109.92713,37.59489],[-109.92637,37.59465],[-109.92556,37.59439],[-109.92553,37.59438],[-109.92512,37.59422],[-109.92491,37.59415],[-109.92414,37.59386],[-109.92358,37.59361],[-109.92343,37.59353],[-109.92308,37.59336],[-109.92254,37.59306],[-109.9219,37.59268],[-109.92159,37.59248],[-109.92141,37.59237],[-109.92119,37.59223],[-109.92084,37.59196],[-109.92045,37.59166],[-109.92011,37.59137],[-109.92001,37.59129],[-109.91996,37.59124],[-109.91955,37.59089],[-109.91904,37.59042],[-109.91874,37.59017],[-109.91843,37.58986],[-109.91843,37.58986],[-109.91845,37.58983],[-109.91846,37.5898],[-109.91847,37.58977],[-109.91846,37.58973],[-109.91845,37.5897],[-109.91844,37.58964],[-109.91842,37.5896],[-109.9184,37.58954],[-109.91839,37.58949],[-109.91837,37.58943],[-109.91834,37.58934],[-109.91832,37.58926],[-109.91828,37.58912],[-109.91824,37.58899],[-109.91824,37.58896],[-109.91819,37.58881],[-109.91816,37.58871],[-109.91812,37.58858],[-109.91809,37.58847],[-109.91806,37.58834],[-109.91801,37.58819],[-109.91799,37.5881],[-109.91797,37.58803],[-109.91795,37.58797],[-109.91793,37.58791],[-109.91792,37.58786],[-109.9179,37.58779],[-109.91789,37.58776],[-109.91788,37.58772],[-109.91786,37.58768],[-109.91784,37.58764],[-109.91782,37.58761],[-109.91781,37.58756],[-109.91781,37.58754],[-109.9178,37.58749],[-109.9178,37.58742],[-109.91779,37.58737],[-109.91777,37.5873],[-109.91774,37.58723],[-109.91771,37.58713],[-109.91768,37.58704],[-109.91765,37.58689],[-109.91761,37.58675],[-109.91757,37.58663],[-109.91755,37.58657],[-109.91753,37.58648],[-109.9175,37.58638],[-109.91745,37.58626],[-109.91736,37.58595],[-109.91732,37.58581],[-109.91729,37.5857],[-109.91728,37.58566],[-109.91723,37.5855],[-109.91714,37.58524],[-109.91711,37.58516],[-109.91709,37.58509],[-109.91707,37.58504],[-109.91703,37.5849],[-109.91701,37.58481],[-109.91699,37.58474],[-109.91698,37.5847],[-109.91697,37.58465],[-109.91695,37.58458],[-109.91692,37.58449],[-109.9169,37.58442],[-109.91687,37.5843],[-109.91686,37.58429],[-109.9168,37.58411],[-109.91665,37.58361],[-109.91661,37.58346],[-109.91659,37.58332],[-109.91657,37.58324],[-109.91655,37.5831],[-109.91655,37.58307],[-109.91654,37.58298],[-109.91655,37.58286],[-109.91658,37.5827],[-109.91665,37.58236],[-109.91668,37.58222],[-109.91669,37.58218],[-109.91682,37.58165],[-109.91684,37.58158],[-109.91686,37.58148],[-109.91696,37.58107],[-109.91698,37.581],[-109.91703,37.58082],[-109.91707,37.58068],[-109.9171,37.58057],[-109.91712,37.5805],[-109.91714,37.58046],[-109.91715,37.58042],[-109.91714,37.58037],[-109.91714,37.58029],[-109.91713,37.58023],[-109.9171,37.58006],[-109.9171,37.58006],[-109.9174,37.57978],[-109.91759,37.57959],[-109.91776,37.5794],[-109.91803,37.57904],[-109.91809,37.57896],[-109.91825,37.57873],[-109.91862,37.57819],[-109.91869,37.5781],[-109.91907,37.57757],[-109.91969,37.57669],[-109.92177,37.5737],[-109.92178,37.5737],[-109.92189,37.57354],[-109.92211,37.57323],[-109.92256,37.5726],[-109.925,37.56918],[-109.92594,37.56785],[-109.92617,37.56752],[-109.9265,37.56706],[-109.92661,37.5669],[-109.92683,37.56659],[-109.92772,37.56533],[-109.93047,37.56141],[-109.93086,37.56085],[-109.93238,37.55869],[-109.93266,37.55831],[-109.93298,37.55786],[-109.93346,37.55717],[-109.93377,37.55674],[-109.93404,37.55637],[-109.93446,37.55586],[-109.93477,37.5555],[-109.93513,37.55511],[-109.93545,37.55477],[-109.93605,37.5542],[-109.93675,37.55353],[-109.93794,37.55238],[-109.93847,37.55188],[-109.93876,37.55161],[-109.94048,37.54995],[-109.94088,37.54957],[-109.94105,37.5494],[-109.94193,37.54859],[-109.94222,37.54835],[-109.94228,37.54829],[-109.94258,37.54805],[-109.94291,37.54777],[-109.94301,37.5477],[-109.94372,37.54716],[-109.94387,37.54705],[-109.94453,37.54658],[-109.94455,37.54656],[-109.94523,37.54611],[-109.94564,37.54585],[-109.94591,37.54568],[-109.94614,37.54554],[-109.94659,37.54527],[-109.94703,37.54503],[-109.94741,37.54482],[-109.94743,37.54481],[-109.94828,37.54437],[-109.94903,37.544],[-109.94962,37.54373],[-109.9501,37.54352],[-109.9507,37.54325],[-109.95091,37.54317],[-109.95152,37.54293],[-109.95197,37.54277],[-109.95235,37.54264],[-109.95256,37.54256],[-109.95271,37.54251],[-109.95342,37.54227],[-109.95362,37.54221],[-109.95424,37.54202],[-109.9544,37.54198],[-109.95445,37.54196],[-109.95465,37.54191],[-109.95522,37.54176],[-109.9557,37.54163],[-109.95618,37.54152],[-109.95665,37.54141],[-109.95746,37.54124],[-109.95771,37.5412],[-109.95804,37.54114],[-109.95841,37.54107],[-109.95863,37.54104],[-109.95955,37.54089],[-109.96021,37.54081],[-109.96061,37.54076],[-109.96121,37.5407],[-109.9618,37.54065],[-109.96244,37.5406],[-109.96315,37.54056],[-109.96376,37.54054],[-109.96454,37.54052],[-109.96491,37.54052],[-109.96561,37.54053],[-109.96625,37.54054],[-109.96688,37.54057],[-109.96738,37.5406],[-109.9679,37.54063],[-109.96869,37.5407],[-109.96946,37.54079],[-109.96962,37.54081],[-109.97026,37.54089],[-109.97032,37.5409],[-109.97109,37.54102],[-109.97124,37.54104],[-109.97174,37.54113],[-109.97248,37.54127],[-109.97257,37.54128],[-109.97262,37.54129],[-109.97321,37.54142],[-109.97398,37.54159],[-109.9748,37.5418],[-109.97562,37.54203],[-109.97619,37.5422],[-109.97712,37.54251],[-109.97713,37.54251],[-109.97734,37.54258],[-109.97771,37.5427],[-109.9784,37.54296],[-109.97906,37.54321],[-109.97999,37.54361],[-109.98,37.54362],[-109.98053,37.54386],[-109.98072,37.54395],[-109.98101,37.54408],[-109.9813,37.54423],[-109.9815,37.54432],[-109.98169,37.54442],[-109.98174,37.54444],[-109.98188,37.54451],[-109.98207,37.54461],[-109.98245,37.54481],[-109.98256,37.54486],[-109.98264,37.54491],[-109.98304,37.54514],[-109.98319,37.54523],[-109.98337,37.54534],[-109.98351,37.54542],[-109.98373,37.54555],[-109.98414,37.5458],[-109.98462,37.54611],[-109.98468,37.54614],[-109.9848,37.54622],[-109.9849,37.54629],[-109.98521,37.54649],[-109.9854,37.54662],[-109.98549,37.54668],[-109.98564,37.54678],[-109.98567,37.5468],[-109.98597,37.54701],[-109.98618,37.54715],[-109.98636,37.54727],[-109.98643,37.54731],[-109.98653,37.54738],[-109.98688,37.54761],[-109.98696,37.54767],[-109.98761,37.5481],[-109.98775,37.54819],[-109.98792,37.54831],[-109.98825,37.54853],[-109.98908,37.54909],[-109.98931,37.54924],[-109.99016,37.54981],[-109.99139,37.55063],[-109.99156,37.55075],[-109.99242,37.55132],[-109.99277,37.55156],[-109.99294,37.55167],[-109.99329,37.55191],[-109.99398,37.55237],[-109.99485,37.55295],[-109.99572,37.55353],[-109.99589,37.55365],[-109.99648,37.55405],[-109.99733,37.55461],[-109.99829,37.55526],[-109.99904,37.55576],[-109.99922,37.55588],[-109.99935,37.55597],[-109.99967,37.55618],[-110.00021,37.55653],[-110.00047,37.55668],[-110.00078,37.55686],[-110.00106,37.55702],[-110.00115,37.55707],[-110.00133,37.55717],[-110.00134,37.55717],[-110.00179,37.5574],[-110.00229,37.55766],[-110.00241,37.55772],[-110.00268,37.55785],[-110.00333,37.55817],[-110.00345,37.55823],[-110.00364,37.55832],[-110.00383,37.55842],[-110.00416,37.55859],[-110.00486,37.55893],[-110.00511,37.55906],[-110.00575,37.55938],[-110.00613,37.55957],[-110.00632,37.55967],[-110.00671,37.55986],[-110.00728,37.56015],[-110.00863,37.56082],[-110.00912,37.56106],[-110.00967,37.56135],[-110.01024,37.56163],[-110.01057,37.56178],[-110.01104,37.56198],[-110.01125,37.56205],[-110.01147,37.56213],[-110.01178,37.56223],[-110.01226,37.56237],[-110.01247,37.56242],[-110.01274,37.56248],[-110.01286,37.56251],[-110.01311,37.56256],[-110.01348,37.56262],[-110.0138,37.56266],[-110.01424,37.56271],[-110.01463,37.56273],[-110.01503,37.56276],[-110.01521,37.56276],[-110.01543,37.56276],[-110.01556,37.56277],[-110.01606,37.56274],[-110.01611,37.56274],[-110.01662,37.56271],[-110.01679,37.56271],[-110.01732,37.56269],[-110.01802,37.56265],[-110.01882,37.56261],[-110.01926,37.5626],[-110.01953,37.56258],[-110.0199,37.56257],[-110.02063,37.56253],[-110.0212,37.56249],[-110.02182,37.56246],[-110.02224,37.56244],[-110.02277,37.56243],[-110.02293,37.56243],[-110.02312,37.56244],[-110.02322,37.56244],[-110.02345,37.56246],[-110.02369,37.56248],[-110.0239,37.56251],[-110.02416,37.56255],[-110.02424,37.56257],[-110.02446,37.56261],[-110.02451,37.56262],[-110.02487,37.56272],[-110.02516,37.56282],[-110.02556,37.56297],[-110.02571,37.56304],[-110.02593,37.56315],[-110.02613,37.56326],[-110.02631,37.56336],[-110.02666,37.56358],[-110.02721,37.56393],[-110.0273,37.56399],[-110.02817,37.56454],[-110.02827,37.5646],[-110.02845,37.56471],[-110.02863,37.56482],[-110.02899,37.56504],[-110.02971,37.56548],[-110.03008,37.56571],[-110.03107,37.56633],[-110.03113,37.56637],[-110.03131,37.56648],[-110.0322,37.56704],[-110.03274,37.56737],[-110.03291,37.56748],[-110.03292,37.56748],[-110.03345,37.56782],[-110.03363,37.56793],[-110.03381,37.56804],[-110.03434,37.56837],[-110.03457,37.56854],[-110.03504,37.56895],[-110.03518,37.56907],[-110.03529,37.56916],[-110.03551,37.56938],[-110.0357,37.56958],[-110.03587,37.56978],[-110.03598,37.5699],[-110.03621,37.57019],[-110.03646,37.57056],[-110.03664,37.57083],[-110.03676,37.57103],[-110.03686,37.57119],[-110.03699,37.57147],[-110.03711,37.57172],[-110.03717,37.57187],[-110.03721,37.57198],[-110.03723,37.57205],[-110.03728,37.57221],[-110.03738,37.57254],[-110.03739,37.57257],[-110.03744,37.57275],[-110.03752,37.5731],[-110.03755,37.57323],[-110.03756,37.57327],[-110.0376,37.57345],[-110.0377,37.5739],[-110.03772,37.57398],[-110.03776,37.57416],[-110.0378,37.57434],[-110.03789,37.57469],[-110.03793,37.57487],[-110.03797,37.57504],[-110.03799,37.57514],[-110.03808,37.57558],[-110.03812,37.57575],[-110.03842,37.57713],[-110.03851,37.57753],[-110.03855,37.5777],[-110.03859,37.57788],[-110.03871,37.57841],[-110.03873,37.5785],[-110.03879,37.57877],[-110.03899,37.57965],[-110.03903,37.57983],[-110.03907,37.58001],[-110.03919,37.58054],[-110.03922,37.58071],[-110.03927,37.58092],[-110.0393,37.58107],[-110.03946,37.58178],[-110.03953,37.58213],[-110.03965,37.58266],[-110.03973,37.58304],[-110.03975,37.5832],[-110.03977,37.58347],[-110.03979,37.58374],[-110.0398,37.58394],[-110.03979,37.58437],[-110.03979,37.58517],[-110.03979,37.5854],[-110.0398,37.58553],[-110.03982,37.58574],[-110.03985,37.58598],[-110.03986,37.58607],[-110.0399,37.58625],[-110.03996,37.58647],[-110.04004,37.58668],[-110.04016,37.58696],[-110.04042,37.58759],[-110.04043,37.58762],[-110.04057,37.58797],[-110.04077,37.58848],[-110.04079,37.58853],[-110.04084,37.58865],[-110.04098,37.58899],[-110.04105,37.58917],[-110.04112,37.58934],[-110.04126,37.58968],[-110.04146,37.59019],[-110.0416,37.59054],[-110.04194,37.59139],[-110.04213,37.59184],[-110.04227,37.59212],[-110.04239,37.59234],[-110.04256,37.59263],[-110.04279,37.59293],[-110.04309,37.59325],[-110.04311,37.59327],[-110.04337,37.59349],[-110.04354,37.59362],[-110.04359,37.59366],[-110.04376,37.59377],[-110.04381,37.59381],[-110.0456,37.59497],[-110.04744,37.59618],[-110.04816,37.59664],[-110.0485,37.59685],[-110.04929,37.59725],[-110.04976,37.59745],[-110.05008,37.59757],[-110.05049,37.59771],[-110.0505,37.59771],[-110.0517,37.59808],[-110.05176,37.5981],[-110.05215,37.59822],[-110.05285,37.59847],[-110.05295,37.59851],[-110.05301,37.59854],[-110.05345,37.59874],[-110.05398,37.599],[-110.0541,37.59906],[-110.05449,37.59927],[-110.05455,37.5993],[-110.0553,37.5997],[-110.05543,37.59977],[-110.05549,37.5998],[-110.05605,37.60011],[-110.05637,37.60028],[-110.05655,37.60037],[-110.05681,37.60051],[-110.05793,37.6011],[-110.05887,37.60162],[-110.05919,37.60179],[-110.05935,37.60188],[-110.05944,37.60192],[-110.06014,37.60229],[-110.0602,37.60232],[-110.06034,37.60239],[-110.06076,37.60261],[-110.06114,37.60281],[-110.06127,37.60288],[-110.06278,37.60368],[-110.06284,37.60371],[-110.06373,37.60418],[-110.06378,37.60421],[-110.06408,37.60437],[-110.06464,37.60462],[-110.06509,37.60479],[-110.06571,37.60496],[-110.06618,37.60507],[-110.06671,37.60514],[-110.06706,37.60516],[-110.06709,37.60516],[-110.06716,37.60517],[-110.06774,37.60518],[-110.06832,37.60514],[-110.06845,37.60513],[-110.06852,37.60512],[-110.06867,37.60511],[-110.06896,37.60506],[-110.06926,37.60501],[-110.06974,37.6049],[-110.07023,37.60474],[-110.07066,37.60456],[-110.07068,37.60454],[-110.07079,37.6045],[-110.07085,37.60447],[-110.07109,37.60437],[-110.07165,37.6041],[-110.07246,37.60372],[-110.07337,37.6033],[-110.07384,37.60315],[-110.07426,37.60306],[-110.07429,37.60305],[-110.07471,37.603],[-110.07519,37.60299],[-110.07541,37.60299],[-110.0757,37.60302],[-110.07584,37.60304],[-110.07619,37.60309],[-110.07643,37.60316],[-110.07649,37.60317],[-110.0767,37.60323],[-110.0772,37.60345],[-110.07724,37.60347],[-110.0773,37.6035],[-110.07765,37.60371],[-110.07793,37.60394],[-110.07798,37.60398],[-110.07806,37.60404],[-110.07827,37.60425],[-110.07837,37.60435],[-110.07848,37.60449],[-110.0786,37.60466],[-110.07863,37.60471],[-110.07871,37.60482],[-110.07895,37.60534],[-110.07902,37.60555],[-110.07921,37.60605],[-110.07947,37.60676],[-110.0796,37.6071],[-110.07964,37.60722],[-110.07972,37.60743],[-110.07985,37.60779],[-110.07995,37.60809],[-110.07997,37.60814],[-110.08046,37.60949],[-110.08057,37.60982],[-110.08066,37.61004],[-110.08072,37.61022],[-110.08085,37.6106],[-110.08107,37.6112],[-110.08121,37.6116],[-110.08132,37.61189],[-110.08159,37.61264],[-110.08163,37.61276],[-110.08166,37.61285],[-110.08171,37.61298],[-110.08269,37.6157],[-110.08271,37.61575],[-110.08275,37.61587],[-110.08291,37.61632],[-110.08306,37.61674],[-110.08315,37.61696],[-110.08321,37.61713],[-110.08358,37.61817],[-110.08391,37.61908],[-110.08452,37.62077],[-110.08505,37.62225],[-110.08512,37.62244],[-110.08576,37.62416],[-110.08604,37.62496],[-110.08628,37.62565],[-110.08672,37.62695],[-110.08689,37.6274],[-110.08713,37.62791],[-110.0873,37.62822],[-110.08732,37.62826],[-110.08751,37.62854],[-110.08761,37.6287],[-110.08781,37.629],[-110.08783,37.62902],[-110.08795,37.62917],[-110.08804,37.62929],[-110.0882,37.62947],[-110.08834,37.62961],[-110.08856,37.62986],[-110.08875,37.63004],[-110.0889,37.63018],[-110.08905,37.63031],[-110.08919,37.63042],[-110.08958,37.63075],[-110.08969,37.63082],[-110.09008,37.63109],[-110.09039,37.63128],[-110.0905,37.63134],[-110.09057,37.63138],[-110.09076,37.63149],[-110.09106,37.63165],[-110.0915,37.63186],[-110.09153,37.63187],[-110.09202,37.63208],[-110.09257,37.63227],[-110.09335,37.6325],[-110.0954,37.63304],[-110.09555,37.63308],[-110.09577,37.63314],[-110.09598,37.6332],[-110.09663,37.63338],[-110.0977,37.63368],[-110.09791,37.63374],[-110.10175,37.6348],[-110.1022,37.63493],[-110.10306,37.63516],[-110.10327,37.63522],[-110.10329,37.63522],[-110.1037,37.63534],[-110.10393,37.63542],[-110.10411,37.63549],[-110.10422,37.63553],[-110.10432,37.63557],[-110.10441,37.63561],[-110.10452,37.63565],[-110.10486,37.63581],[-110.10509,37.63593],[-110.1055,37.63616],[-110.10596,37.63645],[-110.10626,37.63667],[-110.10662,37.63698],[-110.10696,37.63731],[-110.10737,37.63776],[-110.10835,37.63899],[-110.1089,37.63968],[-110.10949,37.64045],[-110.10974,37.64078],[-110.11008,37.64122],[-110.1102,37.64137],[-110.11029,37.64149],[-110.1106,37.6419],[-110.11067,37.64199],[-110.11091,37.6423],[-110.11115,37.6426],[-110.11151,37.64306],[-110.11163,37.64321],[-110.11235,37.64413],[-110.11259,37.64443],[-110.11267,37.64454],[-110.11271,37.64459],[-110.11283,37.64474],[-110.11306,37.64505],[-110.11318,37.6452],[-110.1132,37.64523],[-110.11357,37.64565],[-110.1137,37.64579],[-110.11396,37.64609],[-110.11401,37.64614],[-110.11441,37.6465],[-110.11456,37.64663],[-110.11472,37.64676],[-110.11493,37.64694],[-110.11538,37.64725],[-110.11582,37.64753],[-110.11624,37.64778],[-110.11706,37.64828],[-110.11717,37.64835],[-110.11754,37.64857],[-110.11772,37.64867],[-110.11808,37.64889],[-110.11827,37.649],[-110.11828,37.649],[-110.11863,37.64921],[-110.11881,37.64932],[-110.11917,37.64954],[-110.11935,37.64965],[-110.11972,37.64986],[-110.1199,37.64997],[-110.11999,37.65003],[-110.12064,37.6504],[-110.12114,37.65066],[-110.12121,37.65069],[-110.12141,37.65077],[-110.12176,37.65093],[-110.1218,37.65095],[-110.12201,37.65102],[-110.12215,37.65108],[-110.12222,37.6511],[-110.12267,37.65125],[-110.12285,37.6513],[-110.12306,37.65136],[-110.12326,37.65141],[-110.1235,37.65146],[-110.12372,37.65151],[-110.12378,37.65152],[-110.12394,37.65155],[-110.12416,37.65159],[-110.12438,37.65163],[-110.12456,37.65166],[-110.12654,37.65204],[-110.12703,37.65213],[-110.12769,37.65226],[-110.12836,37.65238],[-110.12858,37.65242],[-110.12878,37.65246],[-110.12945,37.65262],[-110.12964,37.65266],[-110.12967,37.65267],[-110.12988,37.65274],[-110.13011,37.65281],[-110.13071,37.65303],[-110.13151,37.65338],[-110.13189,37.65357],[-110.13191,37.65358],[-110.13209,37.65366],[-110.13247,37.65385],[-110.1326,37.65392],[-110.13286,37.65404],[-110.13324,37.65423],[-110.13363,37.65442],[-110.13381,37.65451],[-110.13402,37.6546],[-110.13422,37.65469],[-110.13448,37.65481],[-110.13502,37.65499],[-110.13545,37.65509],[-110.13582,37.65515],[-110.13612,37.65518],[-110.13651,37.65521],[-110.13688,37.6552],[-110.13706,37.65519],[-110.13725,37.65518],[-110.13751,37.65514],[-110.13759,37.65513],[-110.13787,37.65508],[-110.13795,37.65507],[-110.13837,37.65497],[-110.13859,37.65489],[-110.13876,37.65484],[-110.13903,37.65473],[-110.1392,37.65465],[-110.13939,37.65455],[-110.13965,37.65441],[-110.14006,37.65413],[-110.14026,37.65398],[-110.14036,37.65391],[-110.14071,37.65357],[-110.14083,37.65342],[-110.14097,37.65326],[-110.14124,37.65283],[-110.14141,37.65245],[-110.14143,37.65241],[-110.14162,37.65193],[-110.14175,37.65159],[-110.14176,37.65158],[-110.14215,37.65056],[-110.14225,37.6503],[-110.14234,37.65004],[-110.14293,37.6485],[-110.14332,37.64755],[-110.14372,37.64666],[-110.14404,37.64601],[-110.14416,37.64578],[-110.14425,37.64562],[-110.14433,37.64545],[-110.14455,37.64505],[-110.14469,37.64479],[-110.14478,37.64462],[-110.14511,37.64403],[-110.14524,37.6438],[-110.14533,37.64363],[-110.14605,37.64231],[-110.14679,37.64096],[-110.14806,37.63865],[-110.14822,37.63835],[-110.14845,37.63793],[-110.1486,37.6377],[-110.14864,37.63763],[-110.14871,37.63754],[-110.14883,37.63739],[-110.14889,37.63732],[-110.14896,37.63724],[-110.14906,37.63712],[-110.14909,37.6371],[-110.14923,37.63695],[-110.14938,37.63682],[-110.14941,37.63679],[-110.14954,37.63669],[-110.1496,37.63665],[-110.14981,37.63651],[-110.14999,37.63641],[-110.15008,37.63636],[-110.15017,37.63631],[-110.15026,37.63626],[-110.1504,37.63618],[-110.15045,37.63615],[-110.1506,37.63608],[-110.1508,37.636],[-110.15085,37.63599],[-110.15106,37.63591],[-110.15109,37.6359],[-110.15133,37.63583],[-110.15154,37.63577],[-110.1517,37.63573],[-110.15185,37.6357],[-110.15204,37.63566],[-110.15225,37.63563],[-110.15244,37.6356],[-110.15264,37.63557],[-110.15284,37.63556],[-110.15304,37.63555],[-110.1531,37.63555],[-110.15328,37.63556],[-110.15349,37.63556],[-110.15377,37.63559],[-110.15407,37.63562],[-110.15465,37.63567],[-110.15517,37.63572],[-110.15569,37.63578],[-110.15597,37.63581],[-110.1563,37.63587],[-110.15652,37.63591],[-110.15667,37.63595],[-110.15683,37.63598],[-110.15697,37.63602],[-110.15721,37.63608],[-110.15738,37.63613],[-110.15756,37.63619],[-110.15772,37.63624],[-110.15799,37.63635],[-110.15801,37.63636],[-110.15818,37.63643],[-110.15852,37.6366],[-110.1587,37.63669],[-110.15909,37.63692],[-110.15914,37.63696],[-110.15938,37.63712],[-110.15964,37.63733],[-110.15979,37.63745],[-110.1598,37.63746],[-110.16009,37.63775],[-110.16028,37.63795],[-110.16073,37.63848],[-110.16161,37.6396],[-110.16212,37.64024],[-110.16288,37.64118],[-110.16291,37.64121],[-110.16303,37.64136],[-110.16315,37.64152],[-110.16351,37.64197],[-110.16364,37.64212],[-110.164,37.64258],[-110.16412,37.64273],[-110.16421,37.64284],[-110.16449,37.64319],[-110.16467,37.64341],[-110.16498,37.64379],[-110.16584,37.64487],[-110.16729,37.64668],[-110.16801,37.64757],[-110.16815,37.64774],[-110.16827,37.64789],[-110.16842,37.64808],[-110.16888,37.64865],[-110.16898,37.64877],[-110.16964,37.6496],[-110.17008,37.65014],[-110.17046,37.65061],[-110.17168,37.65214],[-110.1718,37.65229],[-110.17196,37.65249],[-110.17217,37.65275],[-110.17241,37.65305],[-110.1726,37.65329],[-110.17266,37.65335],[-110.1728,37.65354],[-110.1729,37.65366],[-110.17314,37.65396],[-110.17334,37.65421],[-110.17362,37.65457],[-110.17374,37.65473],[-110.17382,37.65482],[-110.17401,37.65503],[-110.17422,37.65523],[-110.1744,37.6554],[-110.1747,37.65563],[-110.17497,37.65583],[-110.17541,37.6561],[-110.17564,37.65622],[-110.17608,37.65642],[-110.17627,37.65651],[-110.17641,37.65656],[-110.17715,37.6568],[-110.17795,37.65702],[-110.17807,37.65705],[-110.1786,37.65719],[-110.17881,37.65725],[-110.17924,37.65736],[-110.17946,37.65742],[-110.1796,37.65745],[-110.17968,37.65747],[-110.17989,37.65754],[-110.18022,37.65763],[-110.18052,37.65773],[-110.18073,37.6578],[-110.18083,37.65783],[-110.18094,37.65787],[-110.18145,37.65808],[-110.18191,37.65829],[-110.18205,37.65836],[-110.1823,37.65851],[-110.1826,37.65868],[-110.18361,37.6593],[-110.18438,37.65977],[-110.18501,37.66016],[-110.1853,37.66033],[-110.18609,37.66081],[-110.1862,37.66088],[-110.18689,37.6613],[-110.18692,37.66132],[-110.18699,37.66136],[-110.18822,37.66211],[-110.19015,37.6633],[-110.19033,37.66341],[-110.19041,37.66345],[-110.19195,37.6644],[-110.19203,37.66444],[-110.19236,37.66464],[-110.19508,37.66632],[-110.19566,37.66668],[-110.19579,37.66676],[-110.19802,37.6683],[-110.19808,37.66834],[-110.19812,37.66837],[-110.19829,37.66849],[-110.19904,37.66901],[-110.19914,37.66908],[-110.19972,37.66949],[-110.19982,37.66956],[-110.19993,37.66964],[-110.2005,37.67004],[-110.20074,37.6702],[-110.20098,37.67037],[-110.20118,37.67051],[-110.20297,37.67174],[-110.20307,37.67181],[-110.20344,37.67206],[-110.20349,37.67209],[-110.20359,37.67216],[-110.2042,37.67254],[-110.2043,37.67261],[-110.20487,37.67297],[-110.2054,37.67329],[-110.20545,37.67331],[-110.20575,37.67348],[-110.20649,37.6739],[-110.20721,37.67428],[-110.20775,37.67456],[-110.21008,37.67579],[-110.21035,37.67593],[-110.21141,37.67648],[-110.21168,37.67662],[-110.21468,37.6782],[-110.21606,37.67893],[-110.21641,37.67914],[-110.21668,37.67931],[-110.21681,37.67939],[-110.21732,37.67977],[-110.21758,37.67998],[-110.2178,37.68018],[-110.21791,37.68028],[-110.21808,37.68043],[-110.21832,37.68068],[-110.21884,37.68126],[-110.21903,37.68149],[-110.21908,37.68155],[-110.22004,37.6827],[-110.22052,37.68329],[-110.22069,37.68352],[-110.2209,37.68379],[-110.22112,37.6841],[-110.22131,37.68439],[-110.22161,37.68485],[-110.22184,37.68529],[-110.22197,37.68553],[-110.22206,37.68569],[-110.22213,37.68581],[-110.22216,37.68586],[-110.2223,37.68611],[-110.22247,37.6864],[-110.22276,37.6869],[-110.22282,37.687],[-110.22291,37.68717],[-110.223,37.68733],[-110.22304,37.68739],[-110.22333,37.68786],[-110.22345,37.68807],[-110.22367,37.6884],[-110.22383,37.68863],[-110.22391,37.68874],[-110.22405,37.68891],[-110.22406,37.68892],[-110.22419,37.68907],[-110.22423,37.68912],[-110.22434,37.68924],[-110.22443,37.68934],[-110.22445,37.68936],[-110.22467,37.68959],[-110.22484,37.68976],[-110.22494,37.68985],[-110.22511,37.69],[-110.22527,37.69014],[-110.22549,37.69031],[-110.22579,37.69054],[-110.22614,37.69081],[-110.22649,37.69107],[-110.22693,37.6914],[-110.22763,37.69192],[-110.22802,37.69221],[-110.22862,37.69267],[-110.22878,37.6928],[-110.22882,37.69284],[-110.22893,37.69293],[-110.22898,37.69299],[-110.2291,37.69309],[-110.22921,37.69321],[-110.22925,37.69325],[-110.22934,37.69334],[-110.22935,37.69336],[-110.2295,37.69353],[-110.22957,37.69362],[-110.22965,37.69372],[-110.22978,37.69391],[-110.22982,37.69397],[-110.22991,37.69411],[-110.22992,37.69413],[-110.23001,37.69429],[-110.23007,37.6944],[-110.23017,37.6946],[-110.23025,37.6948],[-110.23029,37.69491],[-110.23038,37.69515],[-110.23044,37.69532],[-110.23045,37.69535],[-110.23049,37.6955],[-110.23059,37.69578],[-110.23101,37.69709],[-110.23111,37.69741],[-110.23113,37.69748],[-110.23123,37.69776],[-110.23129,37.69794],[-110.23132,37.69802],[-110.2314,37.69824],[-110.23148,37.6984],[-110.23158,37.69859],[-110.23159,37.69861],[-110.23165,37.69872],[-110.23168,37.69878],[-110.23174,37.69886],[-110.23185,37.69904],[-110.23199,37.69924],[-110.23212,37.69941],[-110.23216,37.69945],[-110.23225,37.69955],[-110.23234,37.69965],[-110.23246,37.69978],[-110.23259,37.6999],[-110.23288,37.70015],[-110.23302,37.70026],[-110.23344,37.70058],[-110.23382,37.70085],[-110.23398,37.70097],[-110.23449,37.70134],[-110.23465,37.70146],[-110.23482,37.70158],[-110.23514,37.70181],[-110.23515,37.70183],[-110.23532,37.70195],[-110.23575,37.70226],[-110.23606,37.70248],[-110.23657,37.70285],[-110.23667,37.70292],[-110.23708,37.70322],[-110.23734,37.7034],[-110.23749,37.70351],[-110.2375,37.70353],[-110.23784,37.70377],[-110.23801,37.70389],[-110.23868,37.70438],[-110.23884,37.7045],[-110.23901,37.70462],[-110.23918,37.70474],[-110.23972,37.70514],[-110.24011,37.70542],[-110.24043,37.70566],[-110.24054,37.70575],[-110.24073,37.70591],[-110.24081,37.706],[-110.24106,37.70625],[-110.24122,37.70644],[-110.24136,37.70662],[-110.24154,37.70688],[-110.2416,37.70699],[-110.24168,37.70712],[-110.24175,37.70727],[-110.24183,37.70745],[-110.24184,37.70749],[-110.2419,37.70764],[-110.24191,37.70767],[-110.24196,37.70782],[-110.24204,37.70815],[-110.24205,37.70819],[-110.24208,37.70831],[-110.24208,37.70837],[-110.24211,37.70868],[-110.24212,37.70873],[-110.24215,37.70927],[-110.24218,37.70973],[-110.24224,37.71011],[-110.24225,37.71016],[-110.2423,37.71034],[-110.24231,37.71038],[-110.24235,37.71052],[-110.2424,37.71069],[-110.24249,37.71091],[-110.24262,37.7112],[-110.24271,37.71137],[-110.24274,37.71143],[-110.24292,37.71171],[-110.24312,37.71199],[-110.24326,37.71215],[-110.24356,37.71255],[-110.24378,37.71282],[-110.24397,37.71307],[-110.24447,37.71371],[-110.24469,37.71399],[-110.24474,37.71406],[-110.24503,37.71444],[-110.24521,37.71472],[-110.24535,37.71496],[-110.24543,37.7151],[-110.24552,37.71525],[-110.24552,37.71527],[-110.24558,37.71539],[-110.2456,37.71544],[-110.2457,37.71565],[-110.24582,37.71595],[-110.24583,37.71596],[-110.24589,37.71612],[-110.24589,37.71613],[-110.24595,37.71629],[-110.24598,37.7164],[-110.24607,37.71671],[-110.24612,37.71692],[-110.24615,37.71711],[-110.24616,37.71718],[-110.24618,37.71729],[-110.24619,37.71735],[-110.24633,37.71872],[-110.24636,37.71897],[-110.24638,37.71915],[-110.24641,37.71942],[-110.24646,37.71968],[-110.24647,37.71972],[-110.2465,37.71986],[-110.24653,37.71995],[-110.24661,37.72018],[-110.2467,37.72038],[-110.24671,37.72042],[-110.24686,37.72069],[-110.24687,37.72071],[-110.24698,37.72087],[-110.24704,37.72097],[-110.24709,37.72102],[-110.24719,37.72115],[-110.24734,37.72133],[-110.24741,37.72141],[-110.24759,37.72159],[-110.24787,37.72184],[-110.24821,37.72215],[-110.24836,37.72228],[-110.2485,37.72241],[-110.24866,37.72256],[-110.24873,37.72264],[-110.24879,37.7227],[-110.24885,37.72277],[-110.24896,37.72292],[-110.2491,37.72312],[-110.24912,37.72317],[-110.24921,37.72334],[-110.24922,37.72337],[-110.24929,37.72356],[-110.24934,37.72372],[-110.24936,37.72387],[-110.24938,37.72395],[-110.2494,37.7241],[-110.24942,37.72427],[-110.24942,37.72451],[-110.24943,37.72533],[-110.24943,37.72618],[-110.24946,37.7271],[-110.24947,37.72757],[-110.24951,37.72812],[-110.24952,37.72818],[-110.24954,37.72836],[-110.24959,37.72853],[-110.2496,37.72856],[-110.24969,37.7288],[-110.24978,37.72897],[-110.24988,37.72913],[-110.24993,37.7292],[-110.25003,37.72933],[-110.25018,37.72948],[-110.25019,37.72949],[-110.25032,37.72962],[-110.25033,37.72963],[-110.25054,37.72981],[-110.25065,37.72989],[-110.2507,37.72992],[-110.25083,37.73],[-110.25101,37.7301],[-110.25126,37.73022],[-110.25142,37.73027],[-110.25148,37.7303],[-110.25178,37.7304],[-110.25205,37.73047],[-110.25223,37.73051],[-110.25305,37.73069],[-110.2537,37.73084],[-110.2538,37.73086],[-110.25402,37.73091],[-110.25424,37.73096],[-110.25429,37.73097],[-110.25489,37.73111],[-110.25498,37.73113],[-110.25511,37.73116],[-110.25528,37.73121],[-110.25554,37.73129],[-110.25588,37.7314],[-110.25596,37.73142],[-110.25627,37.73154],[-110.25669,37.73171],[-110.25677,37.73175],[-110.25711,37.73191],[-110.25738,37.73205],[-110.25772,37.73224],[-110.25812,37.73248],[-110.25844,37.73268],[-110.25856,37.73276],[-110.25862,37.73279],[-110.25898,37.73302],[-110.25906,37.73307],[-110.25916,37.73312],[-110.25935,37.73322],[-110.25941,37.73326],[-110.25966,37.73337],[-110.2599,37.73345],[-110.25995,37.73347],[-110.26013,37.73351],[-110.26017,37.73352],[-110.26034,37.73356],[-110.26039,37.73357],[-110.26056,37.7336],[-110.26079,37.73363],[-110.26084,37.73363],[-110.261,37.73364],[-110.26121,37.73363],[-110.26141,37.73363],[-110.26189,37.7336],[-110.26233,37.73356],[-110.26243,37.73356],[-110.26265,37.73354],[-110.26288,37.73353],[-110.26307,37.73352],[-110.26332,37.73351],[-110.26359,37.73352],[-110.26379,37.73353],[-110.2638,37.73353],[-110.26401,37.73356],[-110.26423,37.73361],[-110.26427,37.73361],[-110.26451,37.73368],[-110.26473,37.73375],[-110.26487,37.7338],[-110.26492,37.73382],[-110.26506,37.73389],[-110.26512,37.73392],[-110.26538,37.73406],[-110.2656,37.73419],[-110.26581,37.73432],[-110.26606,37.73449],[-110.26643,37.73473],[-110.26668,37.73488],[-110.26675,37.73493],[-110.26686,37.73499],[-110.267,37.73507],[-110.26724,37.73519],[-110.26735,37.73525],[-110.26743,37.73529],[-110.26768,37.7354],[-110.26783,37.73546],[-110.26795,37.73551],[-110.26826,37.73563],[-110.26845,37.73569],[-110.26857,37.73573],[-110.26884,37.73582],[-110.26887,37.73582],[-110.26908,37.73588],[-110.27018,37.73614],[-110.27049,37.73621],[-110.27081,37.73629],[-110.27106,37.73637],[-110.27125,37.73643],[-110.27133,37.73646],[-110.27159,37.73655],[-110.27166,37.73658],[-110.27184,37.73666],[-110.27186,37.73667],[-110.27204,37.73676],[-110.27205,37.73677],[-110.27221,37.73685],[-110.2724,37.73698],[-110.27241,37.73698],[-110.27256,37.73708],[-110.2727,37.73718],[-110.27289,37.73735],[-110.27305,37.7375],[-110.27313,37.73758],[-110.27319,37.73764],[-110.27348,37.73791],[-110.27357,37.738],[-110.27363,37.73805],[-110.27378,37.73819],[-110.27422,37.7386],[-110.27446,37.73882],[-110.27511,37.73942],[-110.27526,37.73955],[-110.27527,37.73956],[-110.27572,37.73999],[-110.27613,37.74038],[-110.27628,37.74052],[-110.27643,37.74066],[-110.27645,37.74068],[-110.27658,37.74079],[-110.27665,37.74084],[-110.27684,37.74098],[-110.27692,37.74103],[-110.27705,37.7411],[-110.27722,37.74118],[-110.2773,37.74122],[-110.27738,37.74126],[-110.2775,37.74131],[-110.27759,37.74134],[-110.27779,37.7414],[-110.27836,37.74155],[-110.27839,37.74156],[-110.27863,37.74163],[-110.27883,37.7417],[-110.27899,37.74175],[-110.27904,37.74177],[-110.27919,37.74184],[-110.27935,37.74192],[-110.27953,37.74201],[-110.27965,37.7421],[-110.27974,37.74216],[-110.27987,37.74225],[-110.2799,37.74228],[-110.2802,37.74255],[-110.28021,37.74255],[-110.28028,37.74261],[-110.28035,37.74266],[-110.28037,37.74268],[-110.28041,37.74273],[-110.28047,37.7428],[-110.28048,37.74283],[-110.28052,37.7429],[-110.28056,37.743],[-110.28058,37.74305],[-110.28063,37.74317],[-110.28069,37.74331],[-110.28075,37.74352],[-110.28076,37.74355],[-110.2808,37.74368],[-110.28082,37.74387],[-110.28083,37.74397],[-110.28084,37.74405],[-110.28084,37.74412],[-110.28084,37.74423],[-110.28082,37.7444],[-110.28079,37.74471],[-110.28076,37.74501],[-110.28075,37.74513],[-110.28074,37.74522],[-110.28073,37.74531],[-110.28072,37.74542],[-110.28068,37.74562],[-110.28067,37.74566],[-110.28064,37.74584],[-110.28061,37.74602],[-110.28059,37.74611],[-110.28056,37.74638],[-110.28052,37.7467],[-110.28047,37.74709],[-110.28043,37.74738],[-110.28039,37.74781],[-110.28037,37.74799],[-110.28036,37.74802],[-110.28035,37.74817],[-110.28033,37.74835],[-110.28031,37.74853],[-110.28029,37.74881],[-110.28016,37.74978],[-110.28014,37.74999],[-110.28012,37.75014],[-110.28011,37.75027],[-110.28009,37.75067],[-110.28008,37.75102],[-110.2801,37.75135],[-110.28011,37.75158],[-110.28013,37.75176],[-110.2802,37.75219],[-110.28022,37.75229],[-110.28027,37.75252],[-110.28034,37.75285],[-110.28043,37.75317],[-110.28052,37.75348],[-110.28061,37.75376],[-110.28075,37.75409],[-110.28103,37.75479],[-110.28116,37.75505],[-110.28146,37.75577],[-110.28152,37.75592],[-110.28159,37.75609],[-110.28187,37.75677],[-110.28189,37.75682],[-110.28195,37.75694],[-110.28216,37.75746],[-110.28234,37.75788],[-110.28238,37.75797],[-110.28274,37.75884],[-110.28279,37.75894],[-110.28283,37.75901],[-110.28289,37.75911],[-110.28293,37.75923],[-110.28318,37.75985],[-110.28325,37.76001],[-110.28332,37.76018],[-110.28363,37.76093],[-110.28367,37.76104],[-110.28396,37.76172],[-110.28403,37.76189],[-110.28408,37.76201],[-110.2845,37.76304],[-110.28492,37.76406],[-110.28516,37.76463],[-110.28555,37.76559],[-110.28583,37.7663],[-110.28598,37.76675],[-110.2862,37.76742],[-110.28642,37.76811],[-110.28653,37.76843],[-110.28665,37.7688],[-110.2868,37.76926],[-110.28688,37.7695],[-110.28712,37.77018],[-110.28712,37.77019],[-110.28739,37.77095],[-110.28772,37.77189],[-110.2879,37.7725],[-110.28811,37.77317],[-110.28817,37.77332],[-110.28835,37.77381],[-110.28844,37.77405],[-110.28869,37.77465],[-110.28886,37.77501],[-110.2891,37.77554],[-110.28912,37.77558],[-110.28922,37.77579],[-110.28951,37.77638],[-110.28969,37.77671],[-110.29004,37.77735],[-110.29016,37.77757],[-110.29034,37.77789],[-110.29062,37.77838],[-110.29079,37.77868],[-110.29114,37.77931],[-110.29153,37.77999],[-110.29163,37.78016],[-110.29173,37.78032],[-110.29183,37.78051],[-110.29229,37.78131],[-110.2926,37.78184],[-110.29275,37.78213],[-110.29293,37.78246],[-110.29295,37.78248],[-110.29325,37.78301],[-110.29332,37.78311],[-110.29342,37.78327],[-110.29355,37.78349],[-110.29362,37.78359],[-110.29373,37.78378],[-110.29393,37.78404],[-110.2944,37.78469],[-110.29461,37.78498],[-110.29463,37.785],[-110.29514,37.78566],[-110.29547,37.78607],[-110.29566,37.78632],[-110.29606,37.78684],[-110.2962,37.78702],[-110.29701,37.78805],[-110.29702,37.78806],[-110.29767,37.78888],[-110.29775,37.78898],[-110.2981,37.78944],[-110.29822,37.78959],[-110.29858,37.79005],[-110.29894,37.79051],[-110.29898,37.79056],[-110.30112,37.79328],[-110.30231,37.79482],[-110.30253,37.7951],[-110.30303,37.7957],[-110.30315,37.79585],[-110.30325,37.79598],[-110.30375,37.79662],[-110.30387,37.79677],[-110.30423,37.79723],[-110.30434,37.79738],[-110.30482,37.798],[-110.30487,37.79806],[-110.30494,37.79815],[-110.30542,37.79879],[-110.30566,37.7991],[-110.30582,37.79931],[-110.30604,37.79957],[-110.30629,37.79985],[-110.3065,37.80005],[-110.30662,37.80018],[-110.30682,37.80036],[-110.30704,37.80053],[-110.30721,37.80068],[-110.3074,37.80082],[-110.30771,37.80103],[-110.30803,37.80125],[-110.3082,37.80134],[-110.30838,37.80145],[-110.30852,37.80153],[-110.30889,37.80173],[-110.30894,37.80176],[-110.30914,37.80185],[-110.30929,37.80192],[-110.30973,37.80211],[-110.30994,37.80219],[-110.31054,37.80245],[-110.31074,37.80253],[-110.31151,37.80285],[-110.31155,37.80287],[-110.31289,37.80342],[-110.31397,37.80386],[-110.31546,37.80448],[-110.31558,37.80453],[-110.31639,37.80486],[-110.31659,37.80495],[-110.3178,37.80545],[-110.31872,37.80583],[-110.31964,37.80621],[-110.31966,37.80622],[-110.31985,37.80628],[-110.32004,37.80634],[-110.32049,37.80647],[-110.32061,37.80651],[-110.32094,37.80658],[-110.32115,37.80663],[-110.3212,37.80664],[-110.32162,37.80671],[-110.32222,37.80679],[-110.32226,37.80679],[-110.32249,37.80682],[-110.32288,37.80687],[-110.32323,37.80692],[-110.32355,37.80697],[-110.32393,37.80705],[-110.32441,37.80717],[-110.32495,37.80733],[-110.32551,37.80757],[-110.32585,37.80772],[-110.32628,37.80795],[-110.32647,37.80805],[-110.32672,37.80819],[-110.32723,37.80845],[-110.32742,37.80855],[-110.32781,37.80876],[-110.32831,37.809],[-110.32901,37.80928],[-110.33003,37.80964],[-110.33046,37.80975],[-110.33084,37.80985],[-110.33134,37.80995],[-110.33176,37.81004],[-110.33178,37.81005],[-110.3323,37.81014],[-110.33244,37.81016],[-110.33259,37.81017],[-110.33264,37.81018],[-110.33515,37.81047],[-110.33627,37.81061],[-110.33695,37.81069],[-110.3374,37.81074],[-110.33762,37.81077],[-110.33857,37.81089],[-110.33919,37.811],[-110.33964,37.81114],[-110.34023,37.81135],[-110.34023,37.81136],[-110.34027,37.81137],[-110.34047,37.81146],[-110.34075,37.81159],[-110.34111,37.8118],[-110.3416,37.81214],[-110.34168,37.81221],[-110.34202,37.8125],[-110.34217,37.81263],[-110.34226,37.81271],[-110.34232,37.81278],[-110.34233,37.81279],[-110.34245,37.81294],[-110.34269,37.81321],[-110.34281,37.81338],[-110.34293,37.81355],[-110.34304,37.81371],[-110.3432,37.81393],[-110.34326,37.81401],[-110.34338,37.81416],[-110.34368,37.81457],[-110.34417,37.81524],[-110.34458,37.81581],[-110.34487,37.81617],[-110.345,37.81634],[-110.34511,37.81649],[-110.34512,37.8165],[-110.34533,37.81679],[-110.34546,37.81696],[-110.34557,37.81711],[-110.34557,37.81712],[-110.34582,37.81741],[-110.34583,37.81742],[-110.34598,37.8176],[-110.34622,37.81785],[-110.34623,37.81785],[-110.34638,37.81801],[-110.34669,37.81824],[-110.3467,37.81825],[-110.34686,37.81837],[-110.34701,37.81849],[-110.34762,37.8189],[-110.34844,37.81931],[-110.34924,37.81962],[-110.34995,37.81983],[-110.3504,37.81994],[-110.35061,37.81999],[-110.35068,37.82001],[-110.35126,37.82016],[-110.35147,37.82021],[-110.35148,37.82022],[-110.35169,37.82027],[-110.35213,37.82039],[-110.35255,37.8205],[-110.35256,37.8205],[-110.35332,37.8207],[-110.35419,37.82096],[-110.35467,37.82116],[-110.35497,37.82128],[-110.35525,37.82144],[-110.35548,37.82157],[-110.3558,37.82176],[-110.35581,37.82176],[-110.35593,37.82183],[-110.35598,37.82187],[-110.3564,37.82218],[-110.35664,37.82237],[-110.3568,37.82249],[-110.3569,37.82257],[-110.35732,37.82301],[-110.35794,37.8238],[-110.35832,37.82449],[-110.35851,37.82499],[-110.35857,37.82523],[-110.35858,37.82526],[-110.35866,37.82554],[-110.3587,37.82576],[-110.35874,37.82594],[-110.35874,37.82596],[-110.35876,37.82608],[-110.35877,37.82648],[-110.35877,37.82666],[-110.35877,37.82667],[-110.35877,37.82672],[-110.35874,37.82718],[-110.35872,37.82738],[-110.35869,37.82765],[-110.35859,37.82815],[-110.3585,37.82865],[-110.35847,37.82878],[-110.35827,37.82971],[-110.3582,37.83007],[-110.35805,37.83078],[-110.35803,37.83087],[-110.35801,37.83095],[-110.35782,37.83184],[-110.35779,37.83202],[-110.35771,37.83237],[-110.3576,37.83291],[-110.35757,37.83308],[-110.35747,37.83356],[-110.35727,37.83447],[-110.35719,37.83486],[-110.35701,37.83575],[-110.357,37.8358],[-110.35697,37.83592],[-110.35681,37.83663],[-110.3568,37.83669],[-110.35678,37.83681],[-110.35652,37.83806],[-110.35615,37.83983],[-110.35612,37.84],[-110.35598,37.84063],[-110.35579,37.84151],[-110.35562,37.84231],[-110.35551,37.84284],[-110.35543,37.84323],[-110.35522,37.84412],[-110.35506,37.84497],[-110.35502,37.84515],[-110.355,37.84526],[-110.35499,37.84533],[-110.35488,37.84586],[-110.35485,37.846],[-110.35484,37.84604],[-110.35474,37.84649],[-110.35457,37.84728],[-110.35454,37.84746],[-110.3545,37.84763],[-110.35435,37.84834],[-110.35427,37.84871],[-110.35423,37.849],[-110.35384,37.85095],[-110.35382,37.85104],[-110.35372,37.85149],[-110.35356,37.85224],[-110.35353,37.85237],[-110.3535,37.85255],[-110.35338,37.85308],[-110.35327,37.85361],[-110.35325,37.8537],[-110.35317,37.8544],[-110.35317,37.85451],[-110.35318,37.85469],[-110.3532,37.85492],[-110.35322,37.85505],[-110.35327,37.85522],[-110.35333,37.85549],[-110.35337,37.85557],[-110.3536,37.85608],[-110.35363,37.85613],[-110.35388,37.85657],[-110.35398,37.85673],[-110.3542,37.85705],[-110.35444,37.85738],[-110.3546,37.85781],[-110.3547,37.85822],[-110.35469,37.85841],[-110.35469,37.85868],[-110.35462,37.85895],[-110.3546,37.85904],[-110.35456,37.85912],[-110.35441,37.85946],[-110.35432,37.85962],[-110.35422,37.8598],[-110.35394,37.86007],[-110.35379,37.8602],[-110.35362,37.86035],[-110.35324,37.86059],[-110.35284,37.86077],[-110.35245,37.86092],[-110.35193,37.86101],[-110.3513,37.86109],[-110.3507,37.86118],[-110.35047,37.86122],[-110.35012,37.86127],[-110.34943,37.8614],[-110.34889,37.86158],[-110.34838,37.86182],[-110.34817,37.86194],[-110.34791,37.86208],[-110.34781,37.86216],[-110.34718,37.86264],[-110.347,37.86279],[-110.34668,37.86305],[-110.34592,37.86367],[-110.34573,37.86382],[-110.34515,37.86428],[-110.34452,37.8648],[-110.34422,37.86504],[-110.34379,37.86542],[-110.34338,37.86584],[-110.34287,37.86646],[-110.34284,37.8665],[-110.34275,37.86663],[-110.34245,37.86711],[-110.34233,37.86735],[-110.34226,37.86747],[-110.34223,37.86753],[-110.34218,37.86764],[-110.34213,37.86774],[-110.34209,37.86781],[-110.34208,37.86784],[-110.34201,37.86797],[-110.34199,37.86801],[-110.34192,37.86814],[-110.34183,37.86829],[-110.34177,37.8684],[-110.34169,37.86855],[-110.34165,37.86863],[-110.34157,37.86879],[-110.3415,37.86897],[-110.34147,37.86908],[-110.3414,37.86932],[-110.34138,37.86938],[-110.34136,37.8695],[-110.34135,37.86955],[-110.34133,37.86973],[-110.34132,37.86986],[-110.34132,37.86988],[-110.34134,37.87002],[-110.34135,37.87013],[-110.34137,37.87022],[-110.3414,37.87036],[-110.34143,37.87045],[-110.34148,37.87057],[-110.3415,37.87063],[-110.34157,37.87076],[-110.34163,37.87087],[-110.34173,37.87102],[-110.3418,37.87111],[-110.34185,37.87117],[-110.34188,37.87121],[-110.34195,37.87129],[-110.3421,37.87142],[-110.34217,37.87148],[-110.34226,37.87155],[-110.34238,37.87164],[-110.3425,37.87172],[-110.34265,37.8718],[-110.34276,37.87186],[-110.34295,37.87194],[-110.34313,37.87201],[-110.34327,37.87206],[-110.34346,37.87211],[-110.34354,37.87213],[-110.34361,37.87214],[-110.3437,37.87216],[-110.34379,37.87217],[-110.34386,37.87218],[-110.34398,37.8722],[-110.34409,37.87221],[-110.34435,37.87224],[-110.34464,37.87228],[-110.34466,37.87228],[-110.34481,37.8723],[-110.34497,37.87233],[-110.34511,37.87235],[-110.34515,37.87236],[-110.3452,37.87237],[-110.34529,37.87239],[-110.34539,37.87242],[-110.34548,37.87245],[-110.34563,37.8725],[-110.34578,37.87255],[-110.34592,37.8726],[-110.34601,37.87264],[-110.34616,37.87271],[-110.34638,37.87283],[-110.34649,37.87289],[-110.34665,37.87299],[-110.34669,37.87301],[-110.34681,37.87309],[-110.34696,37.87321],[-110.34711,37.87334],[-110.34724,37.87347],[-110.34736,37.8736],[-110.3476,37.87387],[-110.34772,37.87401],[-110.34783,37.87415],[-110.34798,37.87433],[-110.3482,37.87458],[-110.34821,37.87459],[-110.34838,37.87478],[-110.34861,37.87505],[-110.34884,37.87532],[-110.349,37.8755],[-110.34919,37.87572],[-110.3495,37.87606],[-110.34953,37.87608],[-110.34957,37.87613],[-110.34992,37.87649],[-110.34994,37.87651],[-110.35008,37.87665],[-110.35025,37.87682],[-110.35052,37.87707],[-110.35117,37.87767],[-110.35184,37.87823],[-110.35205,37.8784],[-110.35211,37.87844],[-110.35231,37.87859],[-110.35301,37.87911],[-110.35357,37.8795],[-110.35387,37.8797],[-110.35419,37.87991],[-110.35447,37.88008],[-110.35471,37.88023],[-110.35484,37.8803],[-110.35484,37.8803],[-110.35492,37.88023],[-110.35502,37.88016],[-110.35509,37.88012],[-110.35518,37.88006],[-110.35536,37.87996],[-110.3554,37.87994],[-110.35546,37.87991],[-110.35556,37.87986],[-110.3556,37.87984],[-110.35582,37.87982],[-110.35604,37.8798],[-110.35645,37.87976],[-110.35649,37.87976],[-110.35652,37.87976],[-110.35657,37.87976],[-110.35703,37.87975],[-110.35718,37.87974],[-110.35736,37.87974],[-110.35827,37.87972],[-110.35862,37.87971],[-110.35945,37.87969],[-110.35981,37.87968],[-110.35999,37.87968],[-110.36009,37.87967],[-110.36014,37.87967],[-110.36135,37.87964],[-110.3615,37.87964],[-110.36158,37.87963],[-110.36226,37.87962],[-110.36229,37.87961],[-110.36241,37.87961],[-110.36386,37.87958],[-110.36394,37.87958],[-110.36396,37.87958],[-110.36514,37.87959],[-110.36523,37.87959],[-110.3654,37.87959],[-110.36545,37.87958],[-110.36555,37.87958],[-110.3656,37.87958],[-110.36568,37.87957],[-110.36615,37.87955],[-110.36646,37.87957],[-110.36648,37.87958],[-110.3665,37.87958],[-110.36659,37.8796],[-110.36681,37.87964],[-110.36687,37.87965],[-110.3669,37.87966],[-110.36694,37.87967],[-110.36702,37.8797],[-110.36709,37.87972],[-110.36863,37.88006],[-110.36897,37.88014],[-110.36916,37.88013],[-110.36954,37.88007],[-110.36958,37.88006],[-110.36967,37.88005],[-110.36968,37.88005],[-110.37041,37.87991],[-110.37145,37.87972],[-110.37156,37.8797],[-110.37158,37.8797],[-110.37167,37.87969],[-110.37176,37.87968],[-110.37225,37.87961],[-110.37245,37.87958],[-110.37257,37.87957],[-110.37266,37.87956],[-110.37293,37.87954],[-110.37302,37.87953],[-110.37311,37.87952],[-110.37325,37.87951],[-110.37334,37.8795],[-110.37347,37.87948],[-110.37392,37.87944],[-110.37396,37.87943],[-110.37402,37.87942],[-110.37406,37.87941],[-110.3744,37.87935],[-110.3747,37.87925],[-110.37476,37.87923],[-110.37479,37.87921],[-110.37523,37.87896],[-110.37535,37.8789],[-110.3761,37.87861],[-110.37616,37.87859],[-110.37647,37.87848],[-110.37649,37.87847],[-110.37665,37.87839],[-110.37696,37.87825],[-110.37705,37.8782],[-110.37744,37.878],[-110.37802,37.87775],[-110.37834,37.87761],[-110.37842,37.87758],[-110.37875,37.87745],[-110.37887,37.8774],[-110.37907,37.87732],[-110.37957,37.87714],[-110.37959,37.87713],[-110.37965,37.87711],[-110.37969,37.8771],[-110.37979,37.87708],[-110.37993,37.87705],[-110.38,37.87703],[-110.38009,37.87702],[-110.38013,37.87701],[-110.38023,37.87699],[-110.38032,37.87697],[-110.38079,37.87697],[-110.38098,37.87699],[-110.38113,37.87699],[-110.38115,37.877],[-110.38145,37.87704],[-110.38149,37.87704],[-110.38176,37.87708],[-110.38181,37.87708],[-110.3819,37.87708],[-110.38195,37.87708],[-110.38244,37.8771],[-110.38283,37.8771],[-110.38294,37.8771],[-110.3831,37.87709],[-110.38316,37.87709],[-110.38328,37.87705],[-110.38371,37.87692],[-110.38374,37.87691],[-110.3841,37.87681],[-110.38414,37.87679],[-110.38469,37.87648],[-110.38472,37.87646],[-110.38485,37.87635],[-110.38497,37.87624],[-110.38516,37.8761],[-110.38536,37.87603],[-110.38558,37.87595],[-110.38581,37.8759],[-110.3863,37.87579],[-110.38647,37.87575],[-110.38668,37.87569],[-110.38719,37.87557],[-110.38753,37.87544],[-110.38757,37.87542],[-110.38772,37.87535],[-110.388,37.8752],[-110.38822,37.87503],[-110.38825,37.875],[-110.38837,37.87485],[-110.38848,37.8747],[-110.38852,37.87465],[-110.38856,37.87459],[-110.38879,37.8742],[-110.38883,37.87412],[-110.38888,37.87402],[-110.38894,37.87397],[-110.38909,37.87385],[-110.38919,37.8738],[-110.38938,37.87369],[-110.38968,37.87355],[-110.38989,37.87349],[-110.38999,37.87346],[-110.39023,37.87339],[-110.39032,37.87337],[-110.39042,37.87335],[-110.39073,37.87328],[-110.39076,37.87327],[-110.39116,37.87317],[-110.39156,37.87311],[-110.39164,37.87311],[-110.39187,37.8731],[-110.39193,37.8731],[-110.39197,37.87311],[-110.3921,37.87312],[-110.39232,37.87313],[-110.39244,37.87314],[-110.39252,37.87314]]}}]}