{"type":"FeatureCollection","features":[{"type":"Feature","properties":{"_gpxType":"trk","name":"Hite Marina Campground, Hite, UT - Whispering Sands Motel, Utah 95, Hanksville, UT","coordinateProperties":{},"id":80},"geometry":{"type":"LineString","coordinates":[[-110.39252,37.87314],[-110.39244,37.87314],[-110.39232,37.87313],[-110.3921,37.87312],[-110.39197,37.87311],[-110.39193,37.8731],[-110.39187,37.8731],[-110.39164,37.87311],[-110.39156,37.87311],[-110.39116,37.87317],[-110.39076,37.87327],[-110.39073,37.87328],[-110.39042,37.87335],[-110.39032,37.87337],[-110.39023,37.87339],[-110.38999,37.87346],[-110.38989,37.87349],[-110.38968,37.87355],[-110.38938,37.87369],[-110.38919,37.8738],[-110.38909,37.87385],[-110.38894,37.87397],[-110.38888,37.87402],[-110.38883,37.87412],[-110.38879,37.8742],[-110.38856,37.87459],[-110.38852,37.87465],[-110.38848,37.8747],[-110.38837,37.87485],[-110.38825,37.875],[-110.38822,37.87503],[-110.388,37.8752],[-110.38772,37.87535],[-110.38757,37.87542],[-110.38753,37.87544],[-110.38719,37.87557],[-110.38668,37.87569],[-110.38647,37.87575],[-110.3863,37.87579],[-110.38581,37.8759],[-110.38558,37.87595],[-110.38536,37.87603],[-110.38516,37.8761],[-110.38497,37.87624],[-110.38485,37.87635],[-110.38472,37.87646],[-110.38469,37.87648],[-110.38414,37.87679],[-110.3841,37.87681],[-110.38374,37.87691],[-110.38371,37.87692],[-110.38328,37.87705],[-110.38316,37.87709],[-110.3831,37.87709],[-110.38294,37.8771],[-110.38283,37.8771],[-110.38244,37.8771],[-110.38195,37.87708],[-110.3819,37.87708],[-110.38181,37.87708],[-110.38176,37.87708],[-110.38149,37.87704],[-110.38145,37.87704],[-110.38115,37.877],[-110.38113,37.87699],[-110.38098,37.87699],[-110.38079,37.87697],[-110.38032,37.87697],[-110.38023,37.87699],[-110.38013,37.87701],[-110.38009,37.87702],[-110.38,37.87703],[-110.37993,37.87705],[-110.37979,37.87708],[-110.37969,37.8771],[-110.37965,37.87711],[-110.37959,37.87713],[-110.37957,37.87714],[-110.37907,37.87732],[-110.37887,37.8774],[-110.37875,37.87745],[-110.37842,37.87758],[-110.37834,37.87761],[-110.37802,37.87775],[-110.37744,37.878],[-110.37705,37.8782],[-110.37696,37.87825],[-110.37665,37.87839],[-110.37649,37.87847],[-110.37647,37.87848],[-110.37616,37.87859],[-110.3761,37.87861],[-110.37535,37.8789],[-110.37523,37.87896],[-110.37479,37.87921],[-110.37476,37.87923],[-110.3747,37.87925],[-110.3744,37.87935],[-110.37406,37.87941],[-110.37402,37.87942],[-110.37396,37.87943],[-110.37392,37.87944],[-110.37347,37.87948],[-110.37334,37.8795],[-110.37325,37.87951],[-110.37311,37.87952],[-110.37302,37.87953],[-110.37293,37.87954],[-110.37266,37.87956],[-110.37257,37.87957],[-110.37245,37.87958],[-110.37225,37.87961],[-110.37176,37.87968],[-110.37167,37.87969],[-110.37158,37.8797],[-110.37156,37.8797],[-110.37145,37.87972],[-110.37041,37.87991],[-110.36968,37.88005],[-110.36967,37.88005],[-110.36958,37.88006],[-110.36954,37.88007],[-110.36916,37.88013],[-110.36897,37.88014],[-110.36863,37.88006],[-110.36709,37.87972],[-110.36702,37.8797],[-110.36694,37.87967],[-110.3669,37.87966],[-110.36687,37.87965],[-110.36681,37.87964],[-110.36659,37.8796],[-110.3665,37.87958],[-110.36648,37.87958],[-110.36646,37.87957],[-110.36615,37.87955],[-110.36568,37.87957],[-110.3656,37.87958],[-110.36555,37.87958],[-110.36545,37.87958],[-110.3654,37.87959],[-110.36523,37.87959],[-110.36514,37.87959],[-110.36396,37.87958],[-110.36394,37.87958],[-110.36386,37.87958],[-110.36241,37.87961],[-110.36229,37.87961],[-110.36226,37.87962],[-110.36158,37.87963],[-110.3615,37.87964],[-110.36135,37.87964],[-110.36014,37.87967],[-110.36009,37.87967],[-110.35999,37.87968],[-110.35981,37.87968],[-110.35945,37.87969],[-110.35862,37.87971],[-110.35827,37.87972],[-110.35736,37.87974],[-110.35718,37.87974],[-110.35703,37.87975],[-110.35657,37.87976],[-110.35652,37.87976],[-110.35649,37.87976],[-110.35645,37.87976],[-110.35604,37.8798],[-110.35582,37.87982],[-110.3556,37.87984],[-110.35556,37.87986],[-110.35546,37.87991],[-110.3554,37.87994],[-110.35536,37.87996],[-110.35518,37.88006],[-110.35509,37.88012],[-110.35502,37.88016],[-110.35492,37.88023],[-110.35484,37.8803],[-110.35484,37.8803],[-110.35523,37.88054],[-110.35549,37.88068],[-110.35569,37.8808],[-110.35588,37.8809],[-110.35596,37.88095],[-110.35606,37.881],[-110.35615,37.88105],[-110.35658,37.88128],[-110.35672,37.88135],[-110.35725,37.88164],[-110.35785,37.88197],[-110.35803,37.88207],[-110.35822,37.88217],[-110.35856,37.88235],[-110.35879,37.88247],[-110.35897,37.88257],[-110.36029,37.88328],[-110.36048,37.88338],[-110.36067,37.88348],[-110.3607,37.8835],[-110.36123,37.88379],[-110.3616,37.884],[-110.36175,37.88408],[-110.36242,37.88443],[-110.36321,37.88487],[-110.36348,37.88502],[-110.36371,37.88514],[-110.36393,37.88525],[-110.36405,37.88532],[-110.36427,37.88543],[-110.36449,37.88555],[-110.36468,37.88566],[-110.36477,37.88572],[-110.36488,37.88578],[-110.36495,37.88583],[-110.36497,37.88584],[-110.36504,37.88589],[-110.36514,37.88596],[-110.36515,37.88597],[-110.36526,37.88605],[-110.36543,37.88618],[-110.36556,37.88629],[-110.3657,37.88641],[-110.36578,37.88648],[-110.3658,37.8865],[-110.36587,37.8866],[-110.3659,37.88663],[-110.36596,37.88669],[-110.36608,37.8868],[-110.36616,37.8869],[-110.36646,37.88727],[-110.3668,37.88764],[-110.36681,37.88766],[-110.36691,37.88778],[-110.36694,37.88781],[-110.36708,37.88795],[-110.36715,37.88802],[-110.36722,37.88809],[-110.36727,37.88813],[-110.36734,37.8882],[-110.36738,37.88823],[-110.36747,37.8883],[-110.36759,37.88838],[-110.36771,37.88847],[-110.36773,37.88848],[-110.36783,37.88854],[-110.36789,37.88858],[-110.36793,37.8886],[-110.36807,37.88868],[-110.36808,37.88868],[-110.36825,37.88877],[-110.36839,37.88884],[-110.36846,37.88888],[-110.36847,37.88889],[-110.36862,37.88897],[-110.36865,37.88898],[-110.36877,37.88905],[-110.36883,37.88909],[-110.36893,37.88915],[-110.369,37.88921],[-110.36907,37.88926],[-110.36915,37.88932],[-110.36922,37.88938],[-110.36928,37.88944],[-110.36931,37.88947],[-110.36936,37.88952],[-110.36943,37.88961],[-110.36944,37.88962],[-110.3695,37.88969],[-110.36967,37.88993],[-110.36979,37.89013],[-110.36987,37.89024],[-110.36988,37.89025],[-110.37,37.8904],[-110.37016,37.89059],[-110.37036,37.89088],[-110.37046,37.89102],[-110.37056,37.89118],[-110.37062,37.89128],[-110.37072,37.89146],[-110.37082,37.89168],[-110.37089,37.89185],[-110.37089,37.89187],[-110.37106,37.89219],[-110.37112,37.89232],[-110.37114,37.89235],[-110.37125,37.89251],[-110.37134,37.89265],[-110.37136,37.89267],[-110.37147,37.89282],[-110.37147,37.89283],[-110.37159,37.89298],[-110.37178,37.89318],[-110.37193,37.89331],[-110.37203,37.89339],[-110.37209,37.89343],[-110.37229,37.89357],[-110.37243,37.89365],[-110.37247,37.89367],[-110.3726,37.89374],[-110.37272,37.8938],[-110.37282,37.89384],[-110.37313,37.89395],[-110.37318,37.89396],[-110.37336,37.89401],[-110.37365,37.89408],[-110.37396,37.89414],[-110.37427,37.89421],[-110.3745,37.89427],[-110.37509,37.8944],[-110.37538,37.89446],[-110.37547,37.89448],[-110.37561,37.8945],[-110.37563,37.89451],[-110.37583,37.89455],[-110.37591,37.89457],[-110.37604,37.8946],[-110.37617,37.89463],[-110.37626,37.89466],[-110.3764,37.89469],[-110.37647,37.89471],[-110.37648,37.89471],[-110.37653,37.89473],[-110.37668,37.89477],[-110.37682,37.89481],[-110.37691,37.89484],[-110.377,37.89488],[-110.37708,37.89491],[-110.37711,37.89492],[-110.37722,37.89497],[-110.37735,37.89502],[-110.37745,37.89507],[-110.37754,37.89511],[-110.37772,37.89521],[-110.37786,37.89529],[-110.37797,37.89536],[-110.37807,37.89542],[-110.37823,37.89553],[-110.37839,37.89564],[-110.3785,37.89573],[-110.37858,37.8958],[-110.37871,37.89592],[-110.37875,37.89595],[-110.37882,37.89603],[-110.37885,37.89606],[-110.37894,37.89615],[-110.37898,37.8962],[-110.37903,37.89626],[-110.3791,37.89636],[-110.37913,37.89639],[-110.37922,37.89651],[-110.37923,37.89653],[-110.37933,37.89667],[-110.37936,37.89671],[-110.37943,37.89683],[-110.37945,37.89686],[-110.37952,37.89699],[-110.37953,37.897],[-110.37959,37.89716],[-110.3796,37.89718],[-110.37965,37.89734],[-110.37973,37.89756],[-110.37976,37.89769],[-110.37983,37.89789],[-110.37985,37.89795],[-110.37986,37.89803],[-110.37988,37.89821],[-110.37988,37.8984],[-110.37988,37.89842],[-110.37986,37.89868],[-110.37985,37.89879],[-110.37983,37.89893],[-110.37978,37.89911],[-110.37977,37.89912],[-110.37972,37.89931],[-110.37967,37.8995],[-110.37962,37.89964],[-110.37962,37.89966],[-110.37942,37.90012],[-110.37933,37.90032],[-110.37925,37.90049],[-110.37917,37.90066],[-110.3791,37.90082],[-110.37909,37.90085],[-110.37897,37.90117],[-110.37892,37.90139],[-110.37889,37.90151],[-110.37887,37.90161],[-110.37886,37.90167],[-110.37886,37.90168],[-110.37885,37.90175],[-110.37883,37.90181],[-110.37883,37.90189],[-110.37882,37.90197],[-110.37882,37.90204],[-110.37882,37.90205],[-110.37883,37.90222],[-110.37884,37.9023],[-110.37885,37.9024],[-110.37885,37.90245],[-110.37887,37.90257],[-110.3789,37.90275],[-110.37893,37.90287],[-110.37897,37.90299],[-110.37903,37.90315],[-110.37908,37.90328],[-110.37909,37.90331],[-110.37922,37.90362],[-110.37927,37.90373],[-110.37934,37.90384],[-110.37941,37.90395],[-110.37946,37.90401],[-110.37956,37.90414],[-110.37966,37.90425],[-110.37986,37.90448],[-110.38006,37.90468],[-110.3801,37.90473],[-110.38031,37.90494],[-110.38049,37.90513],[-110.38081,37.90547],[-110.38106,37.90574],[-110.3813,37.90599],[-110.38147,37.90617],[-110.38175,37.90646],[-110.38188,37.9066],[-110.38189,37.9066],[-110.38202,37.90674],[-110.38216,37.90689],[-110.38243,37.90717],[-110.38252,37.90726],[-110.38257,37.90732],[-110.38294,37.90771],[-110.38367,37.90847],[-110.3838,37.90861],[-110.38394,37.90876],[-110.38419,37.90902],[-110.38435,37.90919],[-110.38463,37.90947],[-110.38469,37.90954],[-110.3849,37.90976],[-110.38531,37.91018],[-110.38564,37.91053],[-110.38591,37.91081],[-110.38606,37.91098],[-110.38624,37.91116],[-110.38642,37.91134],[-110.38656,37.91148],[-110.38675,37.91167],[-110.38683,37.91177],[-110.38697,37.91192],[-110.38709,37.91206],[-110.38722,37.91221],[-110.38731,37.9123],[-110.38735,37.91236],[-110.38739,37.91241],[-110.38757,37.91267],[-110.38771,37.91294],[-110.38772,37.91295],[-110.38778,37.91311],[-110.38785,37.91326],[-110.38786,37.9133],[-110.3879,37.91342],[-110.38793,37.91352],[-110.38796,37.91365],[-110.38797,37.91371],[-110.38799,37.91383],[-110.388,37.91385],[-110.38801,37.91393],[-110.38802,37.914],[-110.38803,37.91409],[-110.38803,37.91418],[-110.38804,37.91436],[-110.38805,37.91449],[-110.38805,37.91454],[-110.38806,37.91472],[-110.38806,37.9149],[-110.38807,37.9151],[-110.38808,37.91546],[-110.38809,37.91564],[-110.38809,37.91582],[-110.3881,37.916],[-110.3881,37.91618],[-110.38812,37.91653],[-110.38814,37.91665],[-110.38815,37.9168],[-110.38817,37.91715],[-110.38818,37.91733],[-110.38819,37.91751],[-110.3882,37.91769],[-110.38821,37.91781],[-110.38822,37.91787],[-110.38825,37.91812],[-110.38827,37.91826],[-110.38829,37.91838],[-110.38832,37.91854],[-110.38833,37.91858],[-110.38836,37.91866],[-110.38838,37.91874],[-110.38843,37.91886],[-110.38849,37.91901],[-110.38855,37.91913],[-110.3886,37.91925],[-110.38861,37.91926],[-110.38868,37.91939],[-110.38871,37.91943],[-110.38877,37.91953],[-110.38887,37.91967],[-110.38892,37.91974],[-110.38895,37.91978],[-110.38904,37.91989],[-110.38916,37.92001],[-110.38927,37.92013],[-110.38931,37.92018],[-110.38945,37.92031],[-110.38958,37.92042],[-110.38962,37.92045],[-110.38968,37.92051],[-110.38975,37.92056],[-110.38989,37.92065],[-110.39,37.92073],[-110.3901,37.92079],[-110.3903,37.92092],[-110.39052,37.92103],[-110.3908,37.92116],[-110.3909,37.9212],[-110.39094,37.92121],[-110.39107,37.92127],[-110.3911,37.92128],[-110.39132,37.92135],[-110.39152,37.92141],[-110.39159,37.92143],[-110.39174,37.92147],[-110.39182,37.92149],[-110.39192,37.92151],[-110.39216,37.92155],[-110.39218,37.92156],[-110.39238,37.92158],[-110.39241,37.92159],[-110.39259,37.92161],[-110.39263,37.92161],[-110.3928,37.92162],[-110.39286,37.92163],[-110.39309,37.92163],[-110.39313,37.92164],[-110.39329,37.92163],[-110.39332,37.92163],[-110.39354,37.92162],[-110.39355,37.92162],[-110.39377,37.92161],[-110.3938,37.9216],[-110.39414,37.92157],[-110.39422,37.92155],[-110.39435,37.92153],[-110.3945,37.9215],[-110.39461,37.92147],[-110.39482,37.92142],[-110.39503,37.92135],[-110.39522,37.92129],[-110.39533,37.92125],[-110.3955,37.92118],[-110.39557,37.92115],[-110.39581,37.92104],[-110.39599,37.92094],[-110.39608,37.92089],[-110.39625,37.92079],[-110.39638,37.92071],[-110.39643,37.92067],[-110.39647,37.92064],[-110.39657,37.92057],[-110.3966,37.92054],[-110.39673,37.92045],[-110.39676,37.92042],[-110.39686,37.92034],[-110.39691,37.92028],[-110.39703,37.92017],[-110.39706,37.92014],[-110.39719,37.92],[-110.39725,37.91993],[-110.39732,37.91985],[-110.39736,37.91981],[-110.39745,37.9197],[-110.3976,37.91949],[-110.39766,37.91938],[-110.39767,37.91937],[-110.39772,37.91928],[-110.39775,37.91922],[-110.39778,37.91915],[-110.3979,37.91892],[-110.39796,37.91874],[-110.398,37.91858],[-110.39804,37.91845],[-110.39805,37.91839],[-110.39807,37.91829],[-110.39809,37.91816],[-110.39811,37.91801],[-110.39812,37.91788],[-110.39812,37.91782],[-110.39812,37.9177],[-110.39812,37.91764],[-110.39812,37.91759],[-110.39811,37.91728],[-110.3981,37.91722],[-110.39809,37.9171],[-110.39808,37.91692],[-110.39808,37.9168],[-110.39807,37.91674],[-110.39806,37.91656],[-110.39804,37.91638],[-110.39804,37.91632],[-110.39802,37.91602],[-110.39801,37.91589],[-110.398,37.91566],[-110.39798,37.91548],[-110.39797,37.9153],[-110.39796,37.91517],[-110.39796,37.91512],[-110.39795,37.91494],[-110.39794,37.91476],[-110.39794,37.91471],[-110.39794,37.9144],[-110.39794,37.91439],[-110.39794,37.91431],[-110.39795,37.91422],[-110.39796,37.91412],[-110.39797,37.91404],[-110.39798,37.91392],[-110.398,37.9138],[-110.39803,37.91369],[-110.39804,37.91362],[-110.39807,37.91351],[-110.39809,37.91343],[-110.39812,37.91334],[-110.39817,37.91316],[-110.39824,37.91299],[-110.3983,37.91282],[-110.39889,37.91166],[-110.3989,37.91165],[-110.39898,37.91148],[-110.39916,37.91115],[-110.39925,37.91098],[-110.3993,37.91088],[-110.39934,37.91082],[-110.39943,37.91065],[-110.39956,37.91043],[-110.39961,37.91032],[-110.3997,37.91016],[-110.39979,37.90999],[-110.39999,37.90963],[-110.40006,37.9095],[-110.40015,37.90933],[-110.40021,37.90921],[-110.40023,37.90916],[-110.40026,37.9091],[-110.40031,37.90897],[-110.40037,37.90882],[-110.40037,37.90881],[-110.40039,37.90874],[-110.40046,37.90852],[-110.40049,37.90838],[-110.40053,37.9082],[-110.40056,37.90798],[-110.4006,37.9077],[-110.4006,37.90758],[-110.40061,37.90756],[-110.40061,37.90743],[-110.40061,37.9074],[-110.4006,37.90717],[-110.40059,37.90706],[-110.40055,37.90677],[-110.40054,37.90668],[-110.40051,37.90654],[-110.40044,37.90615],[-110.40034,37.90561],[-110.40033,37.90556],[-110.40028,37.90526],[-110.40014,37.90455],[-110.39998,37.9037],[-110.3999,37.90324],[-110.39987,37.90305],[-110.39987,37.90299],[-110.39986,37.90289],[-110.39986,37.90257],[-110.39989,37.90192],[-110.3999,37.9015],[-110.3999,37.90143],[-110.3999,37.90137],[-110.39989,37.90132],[-110.39989,37.90126],[-110.39988,37.90118],[-110.39986,37.90106],[-110.39983,37.90096],[-110.3998,37.90086],[-110.39978,37.90079],[-110.39974,37.90072],[-110.3997,37.90062],[-110.39969,37.90058],[-110.39966,37.90052],[-110.3996,37.90041],[-110.39949,37.90023],[-110.39937,37.90004],[-110.39923,37.89983],[-110.39912,37.89967],[-110.39901,37.89949],[-110.39892,37.89932],[-110.39891,37.8993],[-110.39884,37.89917],[-110.39883,37.89916],[-110.39876,37.89901],[-110.39875,37.89899],[-110.39873,37.89893],[-110.3987,37.89886],[-110.39867,37.89877],[-110.39865,37.89869],[-110.39859,37.89849],[-110.39855,37.89831],[-110.39852,37.89816],[-110.39849,37.89803],[-110.39845,37.89782],[-110.39841,37.89761],[-110.39834,37.89728],[-110.39831,37.89712],[-110.39821,37.89658],[-110.39813,37.89616],[-110.39809,37.89598],[-110.39807,37.89589],[-110.39801,37.89556],[-110.39798,37.89545],[-110.39793,37.89518],[-110.39788,37.89492],[-110.39781,37.89462],[-110.39777,37.89452],[-110.39775,37.89444],[-110.39771,37.89434],[-110.39765,37.89422],[-110.39758,37.8941],[-110.39745,37.8939],[-110.3974,37.89382],[-110.39723,37.89356],[-110.39716,37.89345],[-110.39712,37.89335],[-110.3971,37.89329],[-110.39708,37.89325],[-110.39707,37.8932],[-110.39706,37.89315],[-110.39705,37.8931],[-110.39705,37.89306],[-110.39705,37.89298],[-110.39704,37.89292],[-110.39704,37.89288],[-110.39704,37.89283],[-110.39706,37.89269],[-110.39707,37.89261],[-110.39709,37.89253],[-110.39712,37.89246],[-110.39715,37.89237],[-110.39716,37.89235],[-110.39719,37.89231],[-110.39726,37.89219],[-110.39731,37.89212],[-110.39738,37.89203],[-110.39745,37.89196],[-110.3975,37.8919],[-110.39751,37.89189],[-110.3976,37.89182],[-110.39767,37.89176],[-110.39768,37.89176],[-110.39781,37.89166],[-110.398,37.89153],[-110.39801,37.89153],[-110.39817,37.89143],[-110.39856,37.8912],[-110.39874,37.89109],[-110.39899,37.89095],[-110.39973,37.8905],[-110.40005,37.89032],[-110.40029,37.89019],[-110.4004,37.89014],[-110.40053,37.89008],[-110.40064,37.89003],[-110.40074,37.89],[-110.4008,37.88998],[-110.40084,37.88996],[-110.40092,37.88994],[-110.40102,37.88992],[-110.40103,37.88991],[-110.40113,37.88989],[-110.40124,37.88987],[-110.40142,37.88983],[-110.40146,37.88983],[-110.40156,37.88981],[-110.40168,37.8898],[-110.40177,37.88979],[-110.40186,37.88978],[-110.40191,37.88978],[-110.40194,37.88978],[-110.40209,37.88978],[-110.40219,37.88978],[-110.40237,37.88978],[-110.40249,37.88979],[-110.40259,37.88979],[-110.40278,37.8898],[-110.40292,37.8898],[-110.40314,37.8898],[-110.40328,37.88979],[-110.40332,37.88979],[-110.4035,37.88978],[-110.40351,37.88978],[-110.40373,37.88976],[-110.40384,37.88975],[-110.40396,37.88974],[-110.40431,37.88971],[-110.40441,37.8897],[-110.40461,37.88968],[-110.40486,37.88967],[-110.40509,37.88965],[-110.40515,37.88965],[-110.40532,37.88964],[-110.40544,37.88963],[-110.40555,37.88963],[-110.40577,37.88962],[-110.406,37.88962],[-110.40614,37.88961],[-110.40623,37.88961],[-110.40691,37.8896],[-110.40695,37.8896],[-110.40714,37.88959],[-110.4072,37.88959],[-110.40737,37.88958],[-110.40742,37.88957],[-110.40769,37.88954],[-110.40789,37.88952],[-110.40802,37.8895],[-110.40813,37.88948],[-110.40826,37.88947],[-110.40827,37.88947],[-110.40838,37.88946],[-110.40851,37.88945],[-110.40865,37.88944],[-110.40904,37.88941],[-110.40927,37.88941],[-110.40941,37.88941],[-110.40947,37.88941],[-110.40964,37.88941],[-110.40978,37.88942],[-110.40986,37.88943],[-110.40994,37.88944],[-110.41008,37.88947],[-110.41018,37.88948],[-110.4104,37.88953],[-110.41061,37.88958],[-110.4108,37.88963],[-110.41096,37.88966],[-110.41105,37.88968],[-110.41118,37.88972],[-110.41143,37.88979],[-110.41161,37.88984],[-110.4117,37.88986],[-110.41182,37.88989],[-110.41191,37.88991],[-110.41203,37.88993],[-110.41219,37.88995],[-110.41236,37.88996],[-110.4125,37.88997],[-110.41251,37.88997],[-110.41268,37.88996],[-110.41279,37.88996],[-110.41287,37.88995],[-110.41311,37.88991],[-110.4133,37.88987],[-110.41339,37.88984],[-110.41346,37.88982],[-110.41359,37.88977],[-110.41372,37.88972],[-110.41383,37.88967],[-110.41395,37.88962],[-110.41409,37.88953],[-110.41417,37.88948],[-110.41419,37.88947],[-110.41428,37.8894],[-110.41436,37.88934],[-110.41449,37.88922],[-110.41453,37.88918],[-110.41461,37.88909],[-110.41467,37.88902],[-110.41474,37.88892],[-110.41479,37.88885],[-110.41486,37.88872],[-110.41489,37.88866],[-110.41493,37.88858],[-110.41499,37.88839],[-110.41501,37.88829],[-110.41503,37.88817],[-110.41503,37.88812],[-110.41504,37.88806],[-110.41504,37.88798],[-110.41503,37.88788],[-110.41503,37.88786],[-110.41501,37.88773],[-110.41501,37.8877],[-110.415,37.88766],[-110.41497,37.88753],[-110.41497,37.88752],[-110.41491,37.88735],[-110.41489,37.8873],[-110.41481,37.8871],[-110.41477,37.88701],[-110.41466,37.88672],[-110.41454,37.88639],[-110.41451,37.88631],[-110.41445,37.88604],[-110.41445,37.88602],[-110.41446,37.88588],[-110.41447,37.88575],[-110.41448,37.88566],[-110.41451,37.88556],[-110.41455,37.88541],[-110.41459,37.88531],[-110.41461,37.88525],[-110.41467,37.88514],[-110.41472,37.88505],[-110.41476,37.88499],[-110.41476,37.88498],[-110.4148,37.88493],[-110.41486,37.88485],[-110.41488,37.88483],[-110.41493,37.88478],[-110.41498,37.88472],[-110.41502,37.88468],[-110.41511,37.8846],[-110.41518,37.88455],[-110.41521,37.88452],[-110.41534,37.88443],[-110.41538,37.8844],[-110.41551,37.88431],[-110.41562,37.88424],[-110.41568,37.88419],[-110.41586,37.88407],[-110.416,37.88397],[-110.41603,37.88395],[-110.4162,37.88383],[-110.4163,37.88376],[-110.41637,37.88371],[-110.41673,37.88346],[-110.41688,37.88336],[-110.41698,37.88329],[-110.41705,37.88324],[-110.41729,37.88308],[-110.41752,37.88293],[-110.41758,37.88289],[-110.41772,37.8828],[-110.41793,37.88266],[-110.41802,37.88261],[-110.41813,37.88254],[-110.41824,37.88248],[-110.41835,37.88243],[-110.41855,37.88234],[-110.4187,37.88228],[-110.41887,37.88222],[-110.41903,37.88216],[-110.41914,37.88213],[-110.41922,37.8821],[-110.41937,37.88206],[-110.4195,37.88203],[-110.41968,37.88199],[-110.41979,37.88197],[-110.41992,37.88195],[-110.42004,37.88194],[-110.42028,37.88191],[-110.4204,37.8819],[-110.42054,37.88189],[-110.42078,37.88188],[-110.42098,37.88188],[-110.42111,37.88188],[-110.42113,37.88188],[-110.42122,37.88188],[-110.42135,37.88189],[-110.42136,37.88189],[-110.42148,37.88191],[-110.42158,37.88192],[-110.42174,37.88194],[-110.42192,37.88197],[-110.42209,37.882],[-110.42226,37.88203],[-110.4224,37.88206],[-110.42253,37.8821],[-110.42263,37.88213],[-110.42273,37.88217],[-110.42289,37.88222],[-110.42292,37.88223],[-110.42319,37.88234],[-110.42334,37.8824],[-110.42351,37.88249],[-110.42376,37.88261],[-110.42387,37.88267],[-110.42396,37.88271],[-110.42406,37.88277],[-110.4242,37.88284],[-110.42457,37.88304],[-110.42494,37.88323],[-110.42501,37.88327],[-110.4252,37.88337],[-110.42528,37.88342],[-110.42546,37.88352],[-110.42557,37.88358],[-110.42581,37.88371],[-110.42603,37.88384],[-110.42617,37.88393],[-110.42629,37.88399],[-110.4264,37.88405],[-110.42647,37.88409],[-110.42649,37.88411],[-110.42654,37.88414],[-110.42665,37.88423],[-110.4267,37.88427],[-110.42687,37.88443],[-110.42695,37.8845],[-110.42699,37.88454],[-110.42714,37.8847],[-110.42734,37.88494],[-110.42748,37.88514],[-110.42762,37.88536],[-110.42775,37.88559],[-110.42778,37.88564],[-110.42789,37.88578],[-110.42798,37.8859],[-110.42798,37.88591],[-110.42807,37.88606],[-110.42821,37.88631],[-110.42826,37.88639],[-110.42833,37.88649],[-110.42838,37.88655],[-110.42845,37.88664],[-110.42851,37.88669],[-110.42856,37.88674],[-110.42866,37.88682],[-110.42873,37.88688],[-110.42882,37.88696],[-110.42888,37.88701],[-110.42898,37.88708],[-110.42907,37.88716],[-110.42914,37.88721],[-110.42927,37.8873],[-110.42931,37.88733],[-110.42942,37.8874],[-110.42949,37.88744],[-110.42957,37.88749],[-110.42967,37.88755],[-110.4297,37.88756],[-110.42978,37.8876],[-110.42986,37.88764],[-110.43001,37.8877],[-110.43009,37.88773],[-110.4302,37.88777],[-110.4303,37.8878],[-110.43039,37.88783],[-110.43055,37.88789],[-110.43075,37.88797],[-110.43085,37.88801],[-110.43098,37.88806],[-110.4311,37.88811],[-110.43114,37.88812],[-110.4313,37.88819],[-110.43133,37.8882],[-110.43147,37.88826],[-110.4315,37.88828],[-110.43162,37.88833],[-110.4317,37.88837],[-110.43175,37.8884],[-110.43188,37.88847],[-110.43202,37.88855],[-110.43207,37.88858],[-110.43218,37.88864],[-110.43225,37.88869],[-110.43235,37.88875],[-110.43242,37.8888],[-110.43248,37.88884],[-110.43259,37.88892],[-110.43262,37.88894],[-110.43276,37.88905],[-110.43277,37.88905],[-110.43283,37.88911],[-110.43292,37.88918],[-110.43294,37.8892],[-110.43305,37.8893],[-110.43306,37.88931],[-110.43314,37.88939],[-110.4332,37.88946],[-110.43331,37.88957],[-110.43334,37.8896],[-110.43347,37.88974],[-110.4335,37.88977],[-110.43361,37.88989],[-110.43368,37.88997],[-110.4338,37.89011],[-110.43393,37.89031],[-110.43396,37.89035],[-110.43408,37.8905],[-110.43419,37.89064],[-110.43432,37.89081],[-110.43436,37.89087],[-110.43444,37.89096],[-110.43455,37.89112],[-110.43462,37.89121],[-110.43467,37.89127],[-110.43483,37.89148],[-110.43497,37.89167],[-110.43505,37.89178],[-110.43514,37.89189],[-110.43516,37.8919],[-110.43522,37.89197],[-110.4353,37.89202],[-110.43536,37.89207],[-110.43546,37.89217],[-110.43553,37.89224],[-110.43564,37.89234],[-110.43575,37.89242],[-110.43582,37.89247],[-110.43591,37.89254],[-110.43592,37.89254],[-110.43602,37.89261],[-110.4361,37.89266],[-110.43622,37.89274],[-110.43633,37.89281],[-110.43646,37.89287],[-110.43664,37.89296],[-110.43678,37.89303],[-110.43703,37.89313],[-110.43718,37.89318],[-110.43726,37.89321],[-110.43756,37.8933],[-110.43777,37.89335],[-110.43786,37.89338],[-110.43791,37.89339],[-110.43808,37.89342],[-110.43825,37.89345],[-110.43847,37.89348],[-110.43862,37.89349],[-110.4389,37.89352],[-110.43903,37.89354],[-110.43914,37.89355],[-110.43926,37.89356],[-110.4395,37.89358],[-110.43964,37.8936],[-110.43978,37.89361],[-110.43994,37.89363],[-110.44004,37.89364],[-110.44045,37.89368],[-110.44077,37.89372],[-110.44084,37.89372],[-110.44103,37.89374],[-110.44132,37.89377],[-110.44154,37.89379],[-110.44194,37.89383],[-110.44204,37.89384],[-110.4422,37.89386],[-110.44222,37.89386],[-110.44239,37.89388],[-110.44255,37.8939],[-110.44265,37.89391],[-110.44281,37.89392],[-110.44288,37.89393],[-110.4431,37.89395],[-110.44315,37.89396],[-110.44338,37.89398],[-110.44351,37.89399],[-110.44355,37.894],[-110.44367,37.89401],[-110.44381,37.89403],[-110.44395,37.89404],[-110.44408,37.89406],[-110.4442,37.89408],[-110.4443,37.89409],[-110.44439,37.89411],[-110.44443,37.89412],[-110.4445,37.89414],[-110.44456,37.89416],[-110.44465,37.89419],[-110.44473,37.89422],[-110.44484,37.89426],[-110.44487,37.89427],[-110.44494,37.8943],[-110.445,37.89433],[-110.44511,37.89438],[-110.44518,37.89442],[-110.44525,37.89446],[-110.44532,37.89451],[-110.44538,37.89456],[-110.44542,37.89459],[-110.44546,37.89462],[-110.44557,37.89471],[-110.44557,37.89472],[-110.44563,37.89477],[-110.44568,37.89482],[-110.44575,37.89489],[-110.4458,37.89495],[-110.44585,37.89503],[-110.44591,37.8951],[-110.44596,37.89518],[-110.44599,37.89525],[-110.44605,37.89536],[-110.4461,37.89551],[-110.44611,37.89552],[-110.44615,37.89563],[-110.44617,37.89568],[-110.44622,37.89582],[-110.4463,37.89605],[-110.44639,37.89626],[-110.44647,37.89646],[-110.4465,37.89654],[-110.44652,37.89657],[-110.44657,37.89668],[-110.44659,37.8967],[-110.44672,37.89694],[-110.44678,37.89703],[-110.44685,37.89712],[-110.44705,37.89737],[-110.44721,37.89755],[-110.4474,37.89773],[-110.44772,37.89804],[-110.44787,37.89818],[-110.44801,37.89831],[-110.44802,37.89832],[-110.44817,37.89845],[-110.44831,37.89858],[-110.44845,37.89873],[-110.44857,37.89885],[-110.44886,37.89919],[-110.44899,37.89934],[-110.44911,37.8995],[-110.44922,37.89967],[-110.4493,37.8998],[-110.44934,37.89986],[-110.44947,37.90009],[-110.44948,37.90013],[-110.44955,37.90025],[-110.44961,37.90039],[-110.44973,37.90068],[-110.4498,37.90087],[-110.44984,37.90103],[-110.44987,37.90116],[-110.44989,37.90122],[-110.44991,37.90134],[-110.44994,37.90144],[-110.44995,37.90151],[-110.44998,37.90168],[-110.45,37.90177],[-110.45003,37.90191],[-110.45007,37.9021],[-110.45011,37.90233],[-110.45016,37.90251],[-110.45017,37.90258],[-110.45018,37.90262],[-110.45021,37.90271],[-110.45023,37.90277],[-110.45028,37.9029],[-110.45033,37.90301],[-110.45037,37.9031],[-110.4504,37.90315],[-110.45044,37.90323],[-110.4505,37.90332],[-110.45056,37.90342],[-110.45062,37.9035],[-110.45067,37.90357],[-110.45069,37.90359],[-110.45081,37.90373],[-110.45091,37.90384],[-110.45108,37.904],[-110.45117,37.90408],[-110.45126,37.90415],[-110.45144,37.90429],[-110.45155,37.90436],[-110.45165,37.90443],[-110.45186,37.90454],[-110.45204,37.90463],[-110.45216,37.90468],[-110.45228,37.90473],[-110.45241,37.90478],[-110.45254,37.90483],[-110.45263,37.90486],[-110.45277,37.9049],[-110.45283,37.90492],[-110.45298,37.90497],[-110.45307,37.905],[-110.45319,37.90504],[-110.4533,37.90507],[-110.4534,37.9051],[-110.4535,37.90514],[-110.45361,37.90517],[-110.45362,37.90518],[-110.45376,37.90523],[-110.45386,37.90527],[-110.45393,37.90529],[-110.45407,37.90535],[-110.45422,37.90542],[-110.45424,37.90543],[-110.45437,37.9055],[-110.45451,37.90557],[-110.4546,37.90563],[-110.45478,37.90573],[-110.45489,37.9058],[-110.45497,37.90586],[-110.45523,37.90604],[-110.45549,37.90623],[-110.45564,37.90635],[-110.45576,37.90646],[-110.45584,37.90654],[-110.45594,37.90664],[-110.45605,37.90675],[-110.45622,37.90696],[-110.45639,37.90717],[-110.45651,37.90734],[-110.45661,37.9075],[-110.45673,37.90769],[-110.45688,37.90795],[-110.45734,37.9088],[-110.45735,37.90882],[-110.45752,37.90912],[-110.45767,37.90942],[-110.45788,37.90979],[-110.45807,37.91014],[-110.45823,37.91043],[-110.45843,37.9108],[-110.45864,37.9112],[-110.45874,37.91143],[-110.45887,37.91172],[-110.45895,37.91196],[-110.45896,37.91199],[-110.45902,37.91217],[-110.45911,37.91249],[-110.45916,37.91268],[-110.45921,37.91287],[-110.45925,37.91299],[-110.45932,37.91327],[-110.45939,37.91352],[-110.45947,37.91379],[-110.45953,37.91396],[-110.45957,37.91406],[-110.45966,37.91428],[-110.45975,37.9145],[-110.4598,37.9146],[-110.45985,37.91469],[-110.45989,37.91477],[-110.45991,37.9148],[-110.46007,37.91509],[-110.46032,37.91548],[-110.4604,37.91559],[-110.46047,37.9157],[-110.46061,37.91588],[-110.46074,37.91604],[-110.4608,37.9161],[-110.46096,37.91628],[-110.46109,37.91643],[-110.46114,37.91647],[-110.46128,37.91661],[-110.4614,37.91673],[-110.4623,37.9176],[-110.46239,37.91769],[-110.46253,37.91784],[-110.46268,37.91803],[-110.46274,37.91812],[-110.46284,37.91827],[-110.46295,37.91847],[-110.46306,37.91871],[-110.46318,37.91902],[-110.46322,37.91921],[-110.46325,37.91939],[-110.46326,37.91946],[-110.46328,37.91966],[-110.46328,37.91989],[-110.46327,37.92011],[-110.46325,37.92029],[-110.46325,37.92033],[-110.46323,37.92046],[-110.4632,37.92068],[-110.46317,37.92087],[-110.46314,37.92112],[-110.46312,37.92135],[-110.46312,37.92145],[-110.46313,37.9216],[-110.46315,37.92175],[-110.46317,37.92188],[-110.4632,37.92205],[-110.46324,37.92217],[-110.46327,37.92225],[-110.46332,37.92238],[-110.46336,37.92249],[-110.4634,37.92258],[-110.4634,37.9226],[-110.46345,37.92268],[-110.4635,37.92278],[-110.46355,37.92286],[-110.46359,37.92292],[-110.4636,37.92293],[-110.46369,37.92306],[-110.46375,37.92315],[-110.46394,37.92339],[-110.46429,37.9238],[-110.46439,37.92392],[-110.46447,37.92403],[-110.46456,37.92416],[-110.46463,37.92428],[-110.46465,37.92431],[-110.46471,37.92444],[-110.46477,37.92456],[-110.46482,37.92467],[-110.46486,37.92481],[-110.46486,37.92482],[-110.46489,37.92492],[-110.46491,37.92503],[-110.46494,37.92517],[-110.46495,37.92538],[-110.46494,37.92566],[-110.46492,37.92583],[-110.46489,37.92597],[-110.46486,37.92607],[-110.46485,37.92612],[-110.46475,37.92642],[-110.46471,37.92653],[-110.46469,37.92659],[-110.46454,37.92706],[-110.46452,37.92711],[-110.46446,37.92733],[-110.46442,37.92749],[-110.46438,37.92771],[-110.46434,37.928],[-110.46434,37.92815],[-110.46434,37.92845],[-110.46435,37.92868],[-110.46435,37.92884],[-110.46438,37.92902],[-110.46443,37.92927],[-110.46447,37.92943],[-110.46447,37.92947],[-110.46454,37.92968],[-110.46457,37.92978],[-110.46461,37.92988],[-110.4647,37.93012],[-110.46478,37.93028],[-110.46488,37.93046],[-110.46499,37.93063],[-110.46512,37.93084],[-110.46525,37.93101],[-110.46537,37.93117],[-110.46552,37.93138],[-110.46566,37.93156],[-110.46579,37.93174],[-110.46595,37.93195],[-110.46614,37.9322],[-110.46628,37.93238],[-110.46635,37.93249],[-110.46644,37.9326],[-110.46647,37.93264],[-110.46658,37.93279],[-110.46676,37.93304],[-110.46691,37.93325],[-110.467,37.93338],[-110.46707,37.93349],[-110.46717,37.93367],[-110.46725,37.9338],[-110.46734,37.93396],[-110.4674,37.93407],[-110.46746,37.93419],[-110.46758,37.93445],[-110.46763,37.93457],[-110.4677,37.93474],[-110.46775,37.93489],[-110.46782,37.93509],[-110.46792,37.93541],[-110.46796,37.93554],[-110.46798,37.93561],[-110.46804,37.93581],[-110.46809,37.93598],[-110.46834,37.93686],[-110.4687,37.93803],[-110.46918,37.93968],[-110.46923,37.93984],[-110.46928,37.94001],[-110.46949,37.94071],[-110.46954,37.94089],[-110.46963,37.94118],[-110.46975,37.94158],[-110.47011,37.94276],[-110.47017,37.94296],[-110.4703,37.94334],[-110.47043,37.94364],[-110.47046,37.94369],[-110.47052,37.9438],[-110.47058,37.94388],[-110.47075,37.94412],[-110.47093,37.94431],[-110.47106,37.94444],[-110.47122,37.94458],[-110.47142,37.94475],[-110.47156,37.94485],[-110.47169,37.94494],[-110.47179,37.945],[-110.47197,37.94512],[-110.47213,37.9452],[-110.47234,37.9453],[-110.47248,37.94536],[-110.47281,37.94548],[-110.4732,37.94562],[-110.47338,37.94569],[-110.47361,37.94578],[-110.47385,37.94587],[-110.47388,37.94589],[-110.47399,37.94593],[-110.4741,37.94599],[-110.47421,37.94604],[-110.47433,37.94611],[-110.47447,37.9462],[-110.47473,37.94638],[-110.4748,37.94643],[-110.47495,37.94655],[-110.47509,37.94668],[-110.47532,37.9469],[-110.47538,37.94698],[-110.47542,37.94702],[-110.47549,37.94711],[-110.47551,37.94713],[-110.47564,37.94731],[-110.47582,37.94765],[-110.47591,37.94786],[-110.47599,37.94809],[-110.47605,37.94831],[-110.4761,37.94858],[-110.47612,37.94888],[-110.47613,37.949],[-110.47612,37.94918],[-110.47612,37.9492],[-110.4761,37.94932],[-110.47606,37.94953],[-110.47601,37.94973],[-110.47591,37.95008],[-110.47579,37.95053],[-110.47576,37.95061],[-110.47576,37.95063],[-110.47572,37.95079],[-110.47571,37.95086],[-110.47571,37.95092],[-110.4757,37.95098],[-110.47569,37.95105],[-110.47569,37.95113],[-110.47569,37.95126],[-110.4757,37.95137],[-110.47571,37.95149],[-110.47572,37.9515],[-110.47574,37.95162],[-110.47581,37.95185],[-110.47581,37.95186],[-110.47586,37.95197],[-110.47589,37.95203],[-110.47593,37.95211],[-110.47598,37.9522],[-110.47604,37.9523],[-110.4761,37.95239],[-110.47614,37.95244],[-110.47619,37.95251],[-110.47621,37.95252],[-110.47627,37.9526],[-110.47633,37.95265],[-110.47635,37.95268],[-110.47642,37.95275],[-110.4765,37.95282],[-110.47662,37.95291],[-110.47672,37.95298],[-110.47681,37.95304],[-110.47694,37.95312],[-110.47703,37.95317],[-110.47709,37.9532],[-110.47721,37.95326],[-110.47737,37.95333],[-110.47746,37.95336],[-110.47752,37.95339],[-110.47769,37.95344],[-110.4778,37.95347],[-110.47784,37.95348],[-110.47793,37.95351],[-110.47811,37.95356],[-110.4784,37.95362],[-110.47858,37.95367],[-110.47866,37.95369],[-110.47889,37.95375],[-110.47898,37.95378],[-110.47911,37.95383],[-110.47923,37.95387],[-110.47936,37.95393],[-110.47946,37.95397],[-110.47955,37.95402],[-110.47962,37.95406],[-110.47969,37.9541],[-110.47981,37.95417],[-110.4799,37.95423],[-110.48009,37.9544],[-110.48028,37.95458],[-110.48046,37.95483],[-110.48062,37.95507],[-110.48064,37.95511],[-110.48068,37.95521],[-110.48071,37.95528],[-110.48075,37.95538],[-110.48078,37.95549],[-110.48082,37.95565],[-110.48083,37.95572],[-110.48085,37.95592],[-110.48085,37.95599],[-110.48085,37.95618],[-110.48083,37.95634],[-110.48081,37.9565],[-110.4808,37.95653],[-110.48073,37.95679],[-110.48071,37.95688],[-110.48063,37.95724],[-110.48062,37.95729],[-110.48058,37.95751],[-110.48056,37.95768],[-110.48056,37.95777],[-110.48055,37.95784],[-110.48058,37.9581],[-110.48062,37.9583],[-110.48062,37.95831],[-110.48067,37.95846],[-110.48071,37.95854],[-110.48076,37.95865],[-110.4808,37.95872],[-110.48085,37.95881],[-110.48089,37.95887],[-110.48097,37.95899],[-110.4811,37.95915],[-110.48117,37.95924],[-110.48127,37.95933],[-110.48138,37.95943],[-110.48149,37.95952],[-110.48151,37.95954],[-110.48163,37.95962],[-110.48177,37.95971],[-110.48187,37.95978],[-110.48198,37.95983],[-110.4821,37.95989],[-110.48218,37.95993],[-110.48231,37.95998],[-110.48268,37.9601],[-110.48317,37.96021],[-110.48394,37.96039],[-110.48448,37.96054],[-110.48452,37.96055],[-110.48497,37.9607],[-110.48535,37.96084],[-110.48586,37.96102],[-110.48783,37.96175],[-110.48913,37.96223],[-110.49036,37.9627],[-110.49079,37.96287],[-110.49113,37.963],[-110.49137,37.96312],[-110.4915,37.9632],[-110.49165,37.9633],[-110.49174,37.96337],[-110.4919,37.96351],[-110.49202,37.96363],[-110.49222,37.96387],[-110.49226,37.96392],[-110.49227,37.96394],[-110.49234,37.96405],[-110.49242,37.9642],[-110.49247,37.96431],[-110.49252,37.96447],[-110.49254,37.96455],[-110.49258,37.9647],[-110.49261,37.96486],[-110.49262,37.96498],[-110.49263,37.96511],[-110.49263,37.9652],[-110.49262,37.96538],[-110.49259,37.9655],[-110.49255,37.96565],[-110.49251,37.96579],[-110.49247,37.96588],[-110.49241,37.96601],[-110.49236,37.9661],[-110.49229,37.96623],[-110.49222,37.96634],[-110.49211,37.96649],[-110.49197,37.96671],[-110.49191,37.96681],[-110.49186,37.9669],[-110.49176,37.96705],[-110.4917,37.96717],[-110.49166,37.96726],[-110.49162,37.96736],[-110.49158,37.96748],[-110.49156,37.96754],[-110.49153,37.96764],[-110.49152,37.96771],[-110.49149,37.96788],[-110.49149,37.96802],[-110.49149,37.96803],[-110.49149,37.96814],[-110.49151,37.96829],[-110.49152,37.96837],[-110.49154,37.96845],[-110.49158,37.96861],[-110.49163,37.9688],[-110.49171,37.96908],[-110.49175,37.96925],[-110.49176,37.96928],[-110.49179,37.96939],[-110.49181,37.96951],[-110.49182,37.96966],[-110.49183,37.9697],[-110.49183,37.96987],[-110.49181,37.97002],[-110.49178,37.97015],[-110.4917,37.97041],[-110.49158,37.97088],[-110.49152,37.9711],[-110.49147,37.9713],[-110.49143,37.97151],[-110.49142,37.97156],[-110.49139,37.97175],[-110.49138,37.97186],[-110.49135,37.97212],[-110.49133,37.97233],[-110.49131,37.97264],[-110.49131,37.97276],[-110.49131,37.97301],[-110.49131,37.97321],[-110.49131,37.97353],[-110.49131,37.97356],[-110.49131,37.97389],[-110.49131,37.97393],[-110.49131,37.97407],[-110.49131,37.97419],[-110.49131,37.97485],[-110.49133,37.97516],[-110.49134,37.97538],[-110.49138,37.97562],[-110.49143,37.97593],[-110.49149,37.97618],[-110.4915,37.97622],[-110.49151,37.97626],[-110.49154,37.97636],[-110.49155,37.97639],[-110.49159,37.97652],[-110.49167,37.97673],[-110.49172,37.97686],[-110.4918,37.97708],[-110.4918,37.97709],[-110.49191,37.97733],[-110.49202,37.9776],[-110.49215,37.97789],[-110.49224,37.97811],[-110.49228,37.97821],[-110.49231,37.97828],[-110.49233,37.97835],[-110.49237,37.97845],[-110.4924,37.97859],[-110.49244,37.97876],[-110.49244,37.97881],[-110.49246,37.97894],[-110.49247,37.97909],[-110.49248,37.97927],[-110.49247,37.97942],[-110.49245,37.97961],[-110.49244,37.97969],[-110.49242,37.97985],[-110.49238,37.98003],[-110.49234,37.98022],[-110.49229,37.98042],[-110.49223,37.98059],[-110.49222,37.98065],[-110.49219,37.98076],[-110.49219,37.98077],[-110.49214,37.98094],[-110.49213,37.98101],[-110.49211,37.98114],[-110.49209,37.98133],[-110.49208,37.98147],[-110.49208,37.98159],[-110.49208,37.98176],[-110.4921,37.98192],[-110.49212,37.98203],[-110.49214,37.9821],[-110.49216,37.98219],[-110.49218,37.98227],[-110.49224,37.98245],[-110.49244,37.98303],[-110.49273,37.98376],[-110.49288,37.98416],[-110.49297,37.98438],[-110.49304,37.98456],[-110.49311,37.98476],[-110.49314,37.98491],[-110.49315,37.98496],[-110.49319,37.98513],[-110.4932,37.98528],[-110.49319,37.98544],[-110.49319,37.98558],[-110.49317,37.98574],[-110.49314,37.98599],[-110.49312,37.98625],[-110.49311,37.98642],[-110.49311,37.98645],[-110.49314,37.98675],[-110.49318,37.98699],[-110.49324,37.98715],[-110.49329,37.98728],[-110.49331,37.98732],[-110.49338,37.98745],[-110.49345,37.98758],[-110.49354,37.98771],[-110.49367,37.98786],[-110.49391,37.98811],[-110.49426,37.98843],[-110.49443,37.98859],[-110.49461,37.98878],[-110.49469,37.98888],[-110.4947,37.9889],[-110.49479,37.989],[-110.49493,37.9892],[-110.49501,37.98935],[-110.49503,37.98937],[-110.49507,37.98945],[-110.49515,37.98965],[-110.49531,37.99005],[-110.49532,37.99006],[-110.49543,37.9903],[-110.49559,37.99056],[-110.49575,37.99075],[-110.49586,37.99084],[-110.49593,37.9909],[-110.49602,37.99097],[-110.49615,37.99106],[-110.49638,37.99118],[-110.49647,37.99123],[-110.49658,37.99128],[-110.49662,37.9913],[-110.49681,37.99136],[-110.49694,37.9914],[-110.49715,37.99145],[-110.49738,37.99149],[-110.49744,37.99149],[-110.49761,37.99151],[-110.4979,37.9915],[-110.49824,37.99146],[-110.49884,37.99135],[-110.4992,37.99131],[-110.49947,37.99131],[-110.4996,37.99131],[-110.49977,37.99131],[-110.49997,37.99135],[-110.50016,37.9914],[-110.50034,37.99148],[-110.50054,37.99156],[-110.50057,37.99157],[-110.5008,37.99168],[-110.50113,37.99186],[-110.50132,37.99199],[-110.50144,37.99209],[-110.50145,37.9921],[-110.5017,37.9924],[-110.50199,37.99282],[-110.50203,37.99287],[-110.50215,37.99303],[-110.50219,37.99308],[-110.50241,37.9933],[-110.50268,37.9935],[-110.50287,37.99361],[-110.50296,37.99365],[-110.50305,37.9937],[-110.50315,37.99374],[-110.50328,37.99379],[-110.50361,37.99388],[-110.50387,37.99393],[-110.50417,37.99394],[-110.50441,37.99394],[-110.50458,37.99393],[-110.50469,37.99391],[-110.50493,37.99387],[-110.50567,37.99367],[-110.50608,37.99358],[-110.50624,37.99356],[-110.50635,37.99354],[-110.5066,37.99352],[-110.50669,37.99351],[-110.50689,37.99351],[-110.50692,37.99351],[-110.50713,37.99351],[-110.50737,37.99354],[-110.50741,37.99354],[-110.50763,37.99358],[-110.50782,37.99362],[-110.50801,37.99368],[-110.50829,37.99378],[-110.50856,37.99391],[-110.50884,37.99408],[-110.50911,37.99429],[-110.50938,37.99455],[-110.51015,37.99545],[-110.5103,37.99564],[-110.51043,37.99579],[-110.51055,37.99594],[-110.51062,37.99602],[-110.51067,37.99609],[-110.51086,37.99638],[-110.51096,37.99659],[-110.51102,37.99677],[-110.51106,37.99693],[-110.51107,37.997],[-110.51111,37.99732],[-110.51116,37.99791],[-110.51121,37.99819],[-110.51128,37.99844],[-110.51132,37.99853],[-110.51136,37.99863],[-110.5114,37.9987],[-110.51143,37.99876],[-110.51146,37.99881],[-110.51149,37.99887],[-110.51151,37.99889],[-110.51161,37.99902],[-110.51163,37.99905],[-110.51193,37.99939],[-110.51223,37.99973],[-110.51266,38.0002],[-110.51293,38.00049],[-110.51346,38.00107],[-110.51432,38.00198],[-110.51467,38.00238],[-110.51481,38.00253],[-110.51492,38.00265],[-110.51507,38.00282],[-110.51549,38.00325],[-110.51589,38.00368],[-110.51611,38.00393],[-110.5167,38.00456],[-110.51683,38.0047],[-110.51693,38.00481],[-110.51729,38.00519],[-110.51746,38.00539],[-110.51758,38.00553],[-110.51765,38.00564],[-110.51779,38.00589],[-110.51799,38.00632],[-110.51815,38.00666],[-110.51828,38.00688],[-110.51841,38.00707],[-110.51849,38.00718],[-110.51869,38.00741],[-110.51881,38.00753],[-110.51895,38.00765],[-110.519,38.00769],[-110.5193,38.0079],[-110.51953,38.00803],[-110.51983,38.00817],[-110.52014,38.0083],[-110.52039,38.00839],[-110.52067,38.00845],[-110.52116,38.00852],[-110.5214,38.00855],[-110.52156,38.00857],[-110.5221,38.00863],[-110.52228,38.00866],[-110.52239,38.00867],[-110.52251,38.00869],[-110.52265,38.00871],[-110.52278,38.00873],[-110.52291,38.00875],[-110.5231,38.00879],[-110.52325,38.00883],[-110.52349,38.00889],[-110.52372,38.00897],[-110.52389,38.00903],[-110.52402,38.00908],[-110.52404,38.00909],[-110.52426,38.00919],[-110.52449,38.00931],[-110.52472,38.00944],[-110.52479,38.00949],[-110.52486,38.00953],[-110.52497,38.0096],[-110.52504,38.00966],[-110.52513,38.00973],[-110.5252,38.00979],[-110.52526,38.00984],[-110.52543,38.01],[-110.52557,38.01013],[-110.5257,38.01028],[-110.52577,38.01036],[-110.52586,38.01047],[-110.52602,38.01068],[-110.52611,38.01079],[-110.52627,38.01099],[-110.52642,38.01118],[-110.5266,38.01141],[-110.52686,38.01174],[-110.52702,38.01194],[-110.52717,38.01212],[-110.52729,38.01228],[-110.5274,38.0124],[-110.52744,38.01245],[-110.52765,38.01268],[-110.5278,38.01284],[-110.52791,38.01295],[-110.52814,38.01317],[-110.52824,38.01327],[-110.52833,38.01334],[-110.52839,38.01339],[-110.52841,38.01341],[-110.52857,38.01354],[-110.52871,38.01365],[-110.52885,38.01376],[-110.52902,38.01389],[-110.52914,38.01397],[-110.52925,38.01406],[-110.52941,38.01417],[-110.52949,38.01422],[-110.52956,38.01426],[-110.52969,38.01434],[-110.52986,38.01445],[-110.53019,38.01464],[-110.53028,38.01469],[-110.53043,38.01478],[-110.53056,38.01484],[-110.53069,38.01491],[-110.53085,38.01499],[-110.531,38.01506],[-110.53111,38.01511],[-110.5313,38.01519],[-110.53168,38.01535],[-110.53201,38.01548],[-110.53238,38.01562],[-110.53349,38.01605],[-110.53702,38.01741],[-110.53871,38.01806],[-110.53935,38.01831],[-110.53956,38.01839],[-110.54161,38.01919],[-110.54181,38.01927],[-110.54202,38.01935],[-110.5423,38.01946],[-110.5432,38.01981],[-110.54376,38.02001],[-110.54397,38.02009],[-110.54408,38.02012],[-110.54415,38.02015],[-110.54429,38.02019],[-110.54432,38.0202],[-110.5445,38.02026],[-110.54472,38.02032],[-110.54494,38.02038],[-110.54512,38.02042],[-110.54528,38.02045],[-110.5455,38.0205],[-110.5457,38.02054],[-110.54593,38.02058],[-110.54624,38.02062],[-110.54659,38.02066],[-110.5478,38.02079],[-110.54862,38.02086],[-110.54944,38.02094],[-110.54973,38.02097],[-110.5499,38.02099],[-110.55034,38.02103],[-110.55057,38.02105],[-110.55073,38.02107],[-110.55098,38.02109],[-110.5511,38.0211],[-110.55123,38.02111],[-110.55147,38.02112],[-110.55163,38.02112],[-110.55178,38.02111],[-110.55194,38.02111],[-110.55205,38.0211],[-110.55224,38.02108],[-110.55238,38.02106],[-110.5525,38.02105],[-110.55271,38.02101],[-110.55282,38.02099],[-110.55299,38.02095],[-110.55309,38.02092],[-110.55317,38.0209],[-110.55328,38.02087],[-110.55349,38.0208],[-110.55369,38.02074],[-110.55376,38.02071],[-110.55389,38.02066],[-110.55401,38.02062],[-110.55415,38.02058],[-110.55429,38.02053],[-110.55439,38.02049],[-110.55452,38.02045],[-110.5546,38.02042],[-110.55472,38.02038],[-110.55483,38.02035],[-110.55496,38.02031],[-110.55511,38.02028],[-110.55533,38.02024],[-110.55548,38.02021],[-110.55562,38.0202],[-110.55579,38.02018],[-110.55605,38.02016],[-110.55634,38.02016],[-110.55649,38.02017],[-110.55665,38.02018],[-110.55676,38.02019],[-110.55688,38.02021],[-110.55706,38.02023],[-110.55723,38.02026],[-110.55739,38.02029],[-110.55751,38.02032],[-110.55762,38.02035],[-110.55771,38.02037],[-110.5579,38.02043],[-110.55812,38.02051],[-110.55827,38.02057],[-110.55847,38.02066],[-110.55863,38.02073],[-110.55886,38.02084],[-110.55905,38.02094],[-110.55934,38.02108],[-110.56069,38.02174],[-110.56138,38.02207],[-110.56363,38.02316],[-110.56381,38.02324],[-110.56396,38.0233],[-110.56415,38.02338],[-110.56429,38.02343],[-110.56444,38.02348],[-110.56458,38.02352],[-110.56475,38.02357],[-110.56487,38.0236],[-110.56495,38.02362],[-110.56516,38.02367],[-110.56537,38.02371],[-110.56558,38.02374],[-110.56581,38.02377],[-110.56616,38.02381],[-110.56673,38.02386],[-110.56704,38.02389],[-110.56723,38.02391],[-110.56753,38.02393],[-110.5677,38.02395],[-110.56787,38.02397],[-110.5681,38.02401],[-110.56824,38.02404],[-110.56847,38.0241],[-110.5686,38.02414],[-110.5688,38.0242],[-110.56893,38.02425],[-110.56895,38.02426],[-110.56917,38.02434],[-110.56929,38.0244],[-110.5694,38.02445],[-110.5695,38.0245],[-110.56961,38.02456],[-110.56968,38.0246],[-110.56974,38.02464],[-110.56986,38.02472],[-110.56991,38.02475],[-110.57005,38.02485],[-110.57012,38.02491],[-110.57031,38.02506],[-110.57048,38.02521],[-110.57061,38.02535],[-110.57104,38.02577],[-110.57116,38.02588],[-110.57133,38.02606],[-110.57144,38.02618],[-110.57157,38.02633],[-110.57161,38.02637],[-110.57168,38.02646],[-110.57176,38.02656],[-110.57186,38.02669],[-110.57208,38.02702],[-110.57211,38.02708],[-110.57216,38.02715],[-110.57223,38.02726],[-110.57228,38.02735],[-110.57229,38.02736],[-110.57241,38.02759],[-110.57246,38.02767],[-110.57252,38.02778],[-110.57255,38.02784],[-110.57263,38.02801],[-110.5728,38.0284],[-110.57286,38.02852],[-110.57295,38.02872],[-110.57317,38.02924],[-110.5734,38.02978],[-110.57343,38.02987],[-110.57361,38.03027],[-110.57375,38.0306],[-110.57388,38.0309],[-110.57391,38.03097],[-110.57402,38.03122],[-110.57415,38.03153],[-110.57428,38.03182],[-110.57433,38.03195],[-110.5745,38.03234],[-110.57482,38.0331],[-110.57509,38.03371],[-110.57514,38.03383],[-110.57536,38.03434],[-110.57579,38.03531],[-110.57583,38.03539],[-110.57631,38.03654],[-110.57637,38.03668],[-110.57653,38.03705],[-110.57681,38.0377],[-110.57698,38.0381],[-110.57712,38.03841],[-110.57757,38.03943],[-110.57776,38.03985],[-110.57815,38.04063],[-110.57829,38.04091],[-110.57838,38.04109],[-110.57866,38.04158],[-110.57906,38.04228],[-110.57925,38.04259],[-110.57949,38.04297],[-110.57988,38.04356],[-110.58007,38.04385],[-110.58119,38.04555],[-110.58168,38.04622],[-110.58196,38.0466],[-110.58258,38.04731],[-110.58324,38.04804],[-110.58337,38.04818],[-110.58347,38.04829],[-110.5838,38.04865],[-110.58426,38.04916],[-110.58441,38.04931],[-110.58454,38.04946],[-110.58463,38.04955],[-110.58505,38.05001],[-110.58525,38.05022],[-110.58542,38.0504],[-110.58615,38.05119],[-110.58656,38.05164],[-110.58745,38.0526],[-110.58792,38.05311],[-110.58804,38.05324],[-110.58828,38.0535],[-110.58873,38.05399],[-110.58891,38.05416],[-110.58922,38.05446],[-110.58941,38.05463],[-110.58961,38.05481],[-110.58976,38.05495],[-110.58996,38.05512],[-110.59025,38.05536],[-110.59045,38.05552],[-110.59066,38.05569],[-110.59094,38.0559],[-110.59118,38.05608],[-110.59126,38.05613],[-110.59135,38.0562],[-110.59156,38.05635],[-110.59175,38.0565],[-110.59216,38.0568],[-110.59307,38.05748],[-110.59333,38.05768],[-110.59387,38.0581],[-110.59445,38.05857],[-110.5952,38.05923],[-110.59583,38.0598],[-110.59627,38.06021],[-110.59637,38.0603],[-110.59656,38.06048],[-110.59685,38.06076],[-110.597,38.0609],[-110.59717,38.06106],[-110.5976,38.06144],[-110.59764,38.06148],[-110.59827,38.06206],[-110.59834,38.06213],[-110.59848,38.06226],[-110.5988,38.06256],[-110.59908,38.06282],[-110.59945,38.06316],[-110.5998,38.06349],[-110.60054,38.06416],[-110.60114,38.06473],[-110.60116,38.06475],[-110.60181,38.06535],[-110.60188,38.06542],[-110.60203,38.06556],[-110.60228,38.06579],[-110.60262,38.06611],[-110.60277,38.06624],[-110.60289,38.06636],[-110.6035,38.06693],[-110.60372,38.06713],[-110.60405,38.06744],[-110.6043,38.06768],[-110.60444,38.06782],[-110.60475,38.06812],[-110.60489,38.06827],[-110.60506,38.06845],[-110.60528,38.0687],[-110.60542,38.06886],[-110.60555,38.06903],[-110.60569,38.0692],[-110.60579,38.06933],[-110.60592,38.06951],[-110.6061,38.06974],[-110.60621,38.06989],[-110.60626,38.06996],[-110.60642,38.07017],[-110.60653,38.07035],[-110.60669,38.07059],[-110.60684,38.07085],[-110.60687,38.07089],[-110.60703,38.07118],[-110.60711,38.07132],[-110.60735,38.07175],[-110.6074,38.07184],[-110.60749,38.072],[-110.60752,38.07206],[-110.60769,38.07237],[-110.60792,38.07276],[-110.60804,38.07297],[-110.60826,38.07337],[-110.60844,38.07368],[-110.60863,38.07399],[-110.60884,38.07438],[-110.60907,38.07479],[-110.60943,38.07546],[-110.60948,38.07554],[-110.60979,38.07609],[-110.61004,38.07654],[-110.61017,38.07677],[-110.61025,38.07691],[-110.61048,38.0773],[-110.6107,38.07771],[-110.61073,38.07776],[-110.61082,38.07792],[-110.61107,38.07838],[-110.61145,38.07906],[-110.61188,38.07984],[-110.61206,38.08014],[-110.6124,38.08077],[-110.61262,38.08116],[-110.61303,38.08187],[-110.61336,38.08247],[-110.61369,38.08306],[-110.61393,38.08349],[-110.61416,38.08391],[-110.61443,38.08437],[-110.61462,38.08473],[-110.6149,38.08523],[-110.61507,38.08552],[-110.61518,38.08572],[-110.61534,38.08601],[-110.61552,38.08633],[-110.6156,38.08648],[-110.61569,38.08664],[-110.6157,38.08665],[-110.61582,38.08687],[-110.61604,38.08726],[-110.61635,38.0878],[-110.61635,38.08781],[-110.61644,38.08796],[-110.61653,38.08813],[-110.6166,38.08825],[-110.61683,38.08867],[-110.6169,38.08879],[-110.61701,38.08898],[-110.61751,38.08989],[-110.61773,38.09027],[-110.61782,38.09043],[-110.61791,38.0906],[-110.61809,38.09092],[-110.61837,38.09141],[-110.61847,38.09158],[-110.61856,38.09175],[-110.61865,38.09192],[-110.61883,38.09223],[-110.61892,38.09241],[-110.61899,38.09253],[-110.61926,38.09301],[-110.61955,38.09354],[-110.61979,38.09396],[-110.62001,38.09436],[-110.62029,38.09486],[-110.6207,38.09558],[-110.62099,38.09608],[-110.6216,38.09718],[-110.62183,38.0976],[-110.62211,38.09812],[-110.62238,38.09862],[-110.62248,38.09884],[-110.62257,38.09901],[-110.62258,38.09904],[-110.62265,38.09917],[-110.62266,38.0992],[-110.62277,38.09945],[-110.6229,38.09978],[-110.623,38.10002],[-110.62311,38.1003],[-110.62319,38.10053],[-110.6233,38.10091],[-110.6234,38.10123],[-110.62349,38.1016],[-110.62355,38.10188],[-110.62356,38.10195],[-110.62362,38.10226],[-110.62363,38.1023],[-110.62366,38.10249],[-110.62371,38.1028],[-110.62376,38.10315],[-110.62376,38.1032],[-110.62381,38.10355],[-110.62382,38.10358],[-110.62384,38.10373],[-110.62386,38.10391],[-110.62388,38.10402],[-110.62396,38.1047],[-110.62402,38.10514],[-110.62405,38.10534],[-110.62407,38.10552],[-110.62409,38.10568],[-110.62414,38.10601],[-110.62421,38.10654],[-110.62422,38.1066],[-110.6243,38.1072],[-110.62443,38.10822],[-110.62446,38.10844],[-110.6245,38.10877],[-110.62451,38.10888],[-110.62452,38.10899],[-110.62453,38.10911],[-110.62454,38.10922],[-110.62456,38.10965],[-110.62458,38.1099],[-110.62458,38.11022],[-110.62458,38.11065],[-110.62457,38.11088],[-110.62457,38.11109],[-110.62456,38.11119],[-110.62455,38.11141],[-110.62451,38.11184],[-110.62451,38.11187],[-110.6245,38.11202],[-110.62448,38.11221],[-110.62444,38.11252],[-110.6244,38.11279],[-110.62437,38.11297],[-110.62434,38.11319],[-110.62432,38.11333],[-110.62427,38.11359],[-110.62422,38.11386],[-110.62412,38.11434],[-110.62407,38.11452],[-110.62403,38.11469],[-110.62388,38.11525],[-110.62372,38.11574],[-110.62369,38.11583],[-110.62366,38.11592],[-110.62348,38.11641],[-110.62327,38.11695],[-110.62305,38.11746],[-110.62299,38.1176],[-110.62276,38.11808],[-110.62264,38.11831],[-110.62257,38.11846],[-110.62246,38.11864],[-110.62238,38.1188],[-110.62235,38.11886],[-110.62229,38.11896],[-110.62224,38.11905],[-110.62219,38.11913],[-110.62194,38.11955],[-110.6219,38.11962],[-110.62182,38.11974],[-110.62165,38.12001],[-110.62159,38.1201],[-110.62144,38.12032],[-110.62117,38.12072],[-110.62105,38.12089],[-110.62094,38.12103],[-110.6208,38.12123],[-110.62056,38.12152],[-110.62033,38.12181],[-110.62027,38.12188],[-110.62,38.12219],[-110.61982,38.12241],[-110.61975,38.12249],[-110.61942,38.12284],[-110.61928,38.12299],[-110.61899,38.12329],[-110.61866,38.12364],[-110.61846,38.12385],[-110.61836,38.12396],[-110.61802,38.12431],[-110.61778,38.12456],[-110.61763,38.12471],[-110.61759,38.12476],[-110.6175,38.12486],[-110.61735,38.125],[-110.6169,38.12547],[-110.61681,38.12557],[-110.61667,38.12572],[-110.61653,38.12586],[-110.61614,38.12626],[-110.61598,38.12643],[-110.6157,38.12672],[-110.61556,38.12686],[-110.61556,38.12687],[-110.61489,38.12757],[-110.61474,38.12773],[-110.61447,38.12802],[-110.61445,38.12804],[-110.61392,38.12859],[-110.61378,38.12873],[-110.61377,38.12874],[-110.61358,38.12894],[-110.61331,38.12924],[-110.61302,38.12955],[-110.6128,38.1298],[-110.61263,38.13],[-110.61259,38.13006],[-110.61252,38.13015],[-110.61236,38.13037],[-110.61235,38.13038],[-110.61222,38.13055],[-110.61203,38.13081],[-110.61191,38.13099],[-110.6118,38.13115],[-110.61165,38.13137],[-110.61149,38.13163],[-110.61143,38.13173],[-110.61129,38.13196],[-110.61128,38.13197],[-110.6112,38.13212],[-110.61109,38.13232],[-110.61085,38.13278],[-110.61074,38.13301],[-110.61067,38.13317],[-110.61061,38.13329],[-110.61048,38.13359],[-110.6104,38.1338],[-110.61032,38.13399],[-110.61019,38.13438],[-110.61015,38.1345],[-110.61008,38.13471],[-110.60999,38.13502],[-110.60998,38.13504],[-110.60994,38.1352],[-110.60987,38.13545],[-110.6098,38.13574],[-110.60973,38.1361],[-110.60966,38.13651],[-110.60961,38.13679],[-110.60957,38.13715],[-110.60955,38.13733],[-110.60955,38.13736],[-110.60952,38.13769],[-110.6095,38.13823],[-110.6095,38.13825],[-110.60949,38.13852],[-110.60949,38.13892],[-110.60951,38.13925],[-110.60955,38.13962],[-110.60961,38.13999],[-110.60962,38.13999],[-110.60965,38.14017],[-110.60967,38.14024],[-110.60972,38.14045],[-110.60981,38.14074],[-110.60987,38.1409],[-110.60999,38.14124],[-110.61005,38.14139],[-110.61013,38.14157],[-110.61023,38.14176],[-110.61034,38.14197],[-110.61046,38.14217],[-110.61058,38.14235],[-110.61068,38.1425],[-110.61084,38.14273],[-110.61096,38.14288],[-110.61097,38.14289],[-110.61112,38.14308],[-110.61123,38.14322],[-110.61138,38.14339],[-110.61147,38.14348],[-110.61158,38.1436],[-110.61177,38.14378],[-110.61199,38.14398],[-110.61212,38.14409],[-110.61231,38.14425],[-110.61245,38.14436],[-110.61261,38.14448],[-110.61274,38.14457],[-110.61289,38.14468],[-110.61326,38.14493],[-110.61361,38.14516],[-110.61374,38.14525],[-110.61389,38.14535],[-110.61391,38.14536],[-110.61437,38.14565],[-110.61462,38.14582],[-110.61476,38.14591],[-110.6148,38.14593],[-110.61545,38.14635],[-110.6155,38.14639],[-110.61568,38.1465],[-110.61639,38.14696],[-110.61646,38.14701],[-110.61656,38.14708],[-110.61691,38.14731],[-110.61712,38.14744],[-110.61741,38.14764],[-110.61743,38.14766],[-110.61759,38.14779],[-110.61776,38.14793],[-110.61806,38.14819],[-110.6183,38.14841],[-110.61858,38.1487],[-110.61881,38.14896],[-110.619,38.14919],[-110.61916,38.14941],[-110.61942,38.1498],[-110.61956,38.15002],[-110.61961,38.1501],[-110.61977,38.15042],[-110.61991,38.1507],[-110.62001,38.15093],[-110.62006,38.15105],[-110.62016,38.15134],[-110.62021,38.15147],[-110.62023,38.15155],[-110.62025,38.15162],[-110.62032,38.15186],[-110.62041,38.1523],[-110.62049,38.1527],[-110.62064,38.15349],[-110.62067,38.15364],[-110.62084,38.15448],[-110.62098,38.15519],[-110.62105,38.15552],[-110.62141,38.15732],[-110.62142,38.15738],[-110.6217,38.15876],[-110.62171,38.15882],[-110.62172,38.1589],[-110.62204,38.16052],[-110.62206,38.16063],[-110.62218,38.16123],[-110.62236,38.16212],[-110.62253,38.16298],[-110.62257,38.16318],[-110.62266,38.16368],[-110.62271,38.1639],[-110.62281,38.16442],[-110.62281,38.16443],[-110.62284,38.16461],[-110.62296,38.16523],[-110.62312,38.16606],[-110.62332,38.1671],[-110.62352,38.16811],[-110.62372,38.16913],[-110.62399,38.17054],[-110.62407,38.17095],[-110.6241,38.17113],[-110.62413,38.17131],[-110.62433,38.1723],[-110.62454,38.17339],[-110.62469,38.17416],[-110.62475,38.17448],[-110.62482,38.17486],[-110.62486,38.17504],[-110.62499,38.17575],[-110.62501,38.17581],[-110.62523,38.177],[-110.6254,38.1779],[-110.62594,38.18068],[-110.6262,38.18205],[-110.62632,38.18265],[-110.62639,38.18301],[-110.62643,38.18325],[-110.6266,38.18402],[-110.62664,38.1842],[-110.6267,38.18438],[-110.62671,38.18442],[-110.62686,38.18501],[-110.62725,38.18607],[-110.62765,38.18701],[-110.62779,38.18733],[-110.6278,38.18735],[-110.62883,38.18986],[-110.62936,38.19112],[-110.62968,38.19189],[-110.63038,38.1936],[-110.63084,38.19471],[-110.63088,38.19482],[-110.63116,38.19545],[-110.63134,38.19591],[-110.63141,38.19608],[-110.63197,38.19745],[-110.63203,38.19759],[-110.63205,38.19764],[-110.63207,38.19768],[-110.6324,38.19849],[-110.63261,38.19901],[-110.63282,38.19952],[-110.63303,38.20003],[-110.63317,38.20038],[-110.63324,38.20055],[-110.63355,38.20129],[-110.6336,38.2014],[-110.63367,38.20158],[-110.63374,38.20175],[-110.63414,38.20272],[-110.63462,38.20388],[-110.63594,38.20705],[-110.63601,38.20722],[-110.63651,38.20841],[-110.63672,38.20893],[-110.63679,38.2091],[-110.63693,38.20944],[-110.63707,38.20976],[-110.63736,38.21047],[-110.63743,38.21064],[-110.63771,38.21132],[-110.63806,38.21218],[-110.63814,38.21235],[-110.63821,38.21252],[-110.63905,38.21457],[-110.63913,38.21474],[-110.6392,38.21491],[-110.63955,38.21577],[-110.63962,38.21594],[-110.63969,38.21611],[-110.64068,38.21851],[-110.64075,38.21868],[-110.64082,38.21885],[-110.64132,38.22005],[-110.64146,38.22039],[-110.64153,38.22056],[-110.64188,38.22142],[-110.64224,38.22227],[-110.64266,38.2233],[-110.64386,38.2262],[-110.64394,38.22638],[-110.64422,38.22706],[-110.64457,38.22792],[-110.6457,38.23065],[-110.64578,38.23082],[-110.64599,38.23134],[-110.64606,38.23151],[-110.64613,38.23168],[-110.64651,38.2326],[-110.64709,38.23402],[-110.64728,38.23448],[-110.64728,38.23449],[-110.6476,38.23531],[-110.64761,38.23534],[-110.64787,38.23605],[-110.6482,38.23701],[-110.64826,38.23718],[-110.64838,38.23751],[-110.64838,38.23753],[-110.64895,38.23927],[-110.65013,38.24289],[-110.65018,38.24306],[-110.65036,38.24361],[-110.65178,38.24799],[-110.65185,38.24821],[-110.65246,38.25008],[-110.65249,38.25018],[-110.65297,38.2516],[-110.65372,38.25398],[-110.65376,38.25407],[-110.65381,38.25424],[-110.65417,38.25534],[-110.65422,38.25551],[-110.65456,38.25656],[-110.65462,38.25673],[-110.65473,38.25708],[-110.65513,38.2583],[-110.65559,38.2597],[-110.65576,38.26023],[-110.6561,38.26126],[-110.65622,38.26161],[-110.65651,38.26248],[-110.65699,38.264],[-110.6574,38.26527],[-110.65768,38.26612],[-110.65774,38.26632],[-110.65809,38.26736],[-110.65814,38.26754],[-110.65826,38.26789],[-110.6586,38.2689],[-110.6589,38.2698],[-110.65907,38.27032],[-110.65913,38.2705],[-110.65919,38.27067],[-110.65924,38.27084],[-110.65956,38.27183],[-110.65958,38.27189],[-110.65991,38.27294],[-110.66003,38.27329],[-110.66008,38.27346],[-110.66066,38.27526],[-110.66112,38.27667],[-110.66135,38.27737],[-110.66242,38.28068],[-110.66259,38.2812],[-110.66265,38.28138],[-110.66282,38.28191],[-110.66412,38.28591],[-110.6652,38.2892],[-110.66555,38.29026],[-110.66561,38.29044],[-110.6666,38.29346],[-110.66688,38.29433],[-110.66733,38.29569],[-110.66743,38.29601],[-110.66749,38.29619],[-110.66755,38.29636],[-110.66793,38.29758],[-110.6681,38.29812],[-110.66863,38.29972],[-110.66873,38.30002],[-110.66879,38.30019],[-110.66925,38.30159],[-110.66938,38.302],[-110.66975,38.30315],[-110.66976,38.30316],[-110.6705,38.30542],[-110.67061,38.30577],[-110.6707,38.30604],[-110.67095,38.3068],[-110.6715,38.30851],[-110.67192,38.30978],[-110.67203,38.31012],[-110.67224,38.31076],[-110.67237,38.31117],[-110.67252,38.31161],[-110.6727,38.31217],[-110.67289,38.31274],[-110.67293,38.31288],[-110.67315,38.31353],[-110.67333,38.3141],[-110.67349,38.31463],[-110.67355,38.31483],[-110.6736,38.31501],[-110.6736,38.31502],[-110.6737,38.31544],[-110.67371,38.31554],[-110.67376,38.31582],[-110.67385,38.31643],[-110.67385,38.31648],[-110.67387,38.31661],[-110.67389,38.31679],[-110.67396,38.3174],[-110.67401,38.31794],[-110.67404,38.31819],[-110.67408,38.31863],[-110.67414,38.31901],[-110.67415,38.3191],[-110.67421,38.31948],[-110.67428,38.31984],[-110.67434,38.32008],[-110.67437,38.32017],[-110.67439,38.32026],[-110.67442,38.32037],[-110.67449,38.32059],[-110.67468,38.32111],[-110.67469,38.32112],[-110.67477,38.32129],[-110.67477,38.32131],[-110.67485,38.32146],[-110.67493,38.32162],[-110.67508,38.32193],[-110.6751,38.32196],[-110.67516,38.32209],[-110.67519,38.32213],[-110.67538,38.32246],[-110.67548,38.32262],[-110.67567,38.32294],[-110.67626,38.32392],[-110.67639,38.32412],[-110.67656,38.32441],[-110.67678,38.32478],[-110.67705,38.32523],[-110.67707,38.32527],[-110.67737,38.32575],[-110.67761,38.32615],[-110.67771,38.32631],[-110.67777,38.32642],[-110.67787,38.32659],[-110.67789,38.32661],[-110.67807,38.32691],[-110.67814,38.32703],[-110.67842,38.3275],[-110.67866,38.32789],[-110.67897,38.3284],[-110.67927,38.3289],[-110.67974,38.32967],[-110.67983,38.32984],[-110.68021,38.33046],[-110.68034,38.33064],[-110.68038,38.3307],[-110.68055,38.33096],[-110.68057,38.33099],[-110.68066,38.33112],[-110.68085,38.33139],[-110.68104,38.33165],[-110.68112,38.33174],[-110.68135,38.33203],[-110.68136,38.33205],[-110.68149,38.3322],[-110.68161,38.33235],[-110.68175,38.3325],[-110.68186,38.33262],[-110.68188,38.33264],[-110.68206,38.33283],[-110.68257,38.33336],[-110.68258,38.33337],[-110.68295,38.33373],[-110.68319,38.33395],[-110.68373,38.3344],[-110.68426,38.33483],[-110.68431,38.33488],[-110.68442,38.33496],[-110.68525,38.33558],[-110.68528,38.3356],[-110.68541,38.33571],[-110.68557,38.33583],[-110.6858,38.33601],[-110.68639,38.33646],[-110.68654,38.33658],[-110.6869,38.33687],[-110.68747,38.3373],[-110.68787,38.33759],[-110.68829,38.33792],[-110.68863,38.33819],[-110.6889,38.33842],[-110.68908,38.33858],[-110.68925,38.33874],[-110.68932,38.33879],[-110.68953,38.33901],[-110.68977,38.33928],[-110.69004,38.33962],[-110.69006,38.33964],[-110.69016,38.33978],[-110.69029,38.33996],[-110.69049,38.34026],[-110.69062,38.34048],[-110.69067,38.34058],[-110.69075,38.34072],[-110.69084,38.34091],[-110.6909,38.34102],[-110.69108,38.34142],[-110.6911,38.34147],[-110.69126,38.34186],[-110.69129,38.34193],[-110.69145,38.34233],[-110.69159,38.34267],[-110.69189,38.34337],[-110.69214,38.344],[-110.69262,38.34515],[-110.69327,38.34671],[-110.69356,38.3474],[-110.69358,38.34745],[-110.69378,38.34792],[-110.69498,38.35083],[-110.69505,38.351],[-110.6952,38.35135],[-110.6954,38.35185],[-110.69548,38.35202],[-110.69569,38.35254],[-110.6959,38.35305],[-110.69668,38.35493],[-110.69681,38.35525],[-110.69697,38.35561],[-110.69767,38.35728],[-110.69804,38.35818],[-110.69818,38.35851],[-110.69839,38.35903],[-110.69846,38.35922],[-110.69868,38.35977],[-110.69923,38.36106],[-110.69949,38.36169],[-110.6997,38.36222],[-110.70039,38.36386],[-110.70053,38.36421],[-110.70088,38.36506],[-110.70101,38.36539],[-110.70106,38.3655],[-110.70106,38.36551],[-110.70122,38.36588],[-110.70156,38.3667],[-110.70159,38.36677],[-110.70174,38.36715],[-110.70212,38.36807],[-110.70216,38.36816],[-110.70236,38.36864],[-110.70241,38.36875],[-110.70245,38.36885],[-110.70248,38.36892],[-110.70256,38.36912],[-110.70262,38.36927],[-110.70269,38.36944],[-110.70276,38.36961],[-110.70283,38.36978],[-110.7029,38.36995],[-110.70291,38.36997],[-110.70296,38.3701],[-110.70297,38.37012],[-110.70312,38.37046],[-110.7032,38.37065],[-110.70325,38.37078],[-110.70354,38.37149],[-110.70354,38.37149],[-110.7039,38.37145],[-110.70394,38.37145],[-110.70398,38.37145],[-110.70422,38.37146],[-110.70426,38.37146]]}}]}