{"type":"FeatureCollection","features":[{"type":"Feature","properties":{"_gpxType":"trk","name":"Whispering Sands Motel, Utah 95, Hanksville, UT - Sleepy Hollow Campground, Utah 24, Torrey, UT","coordinateProperties":{},"id":81},"geometry":{"type":"LineString","coordinates":[[-110.70426,38.37146],[-110.70422,38.37146],[-110.70398,38.37145],[-110.70394,38.37145],[-110.7039,38.37145],[-110.70354,38.37149],[-110.70354,38.37149],[-110.70367,38.37179],[-110.70385,38.37213],[-110.70401,38.37239],[-110.70413,38.37254],[-110.70434,38.3728],[-110.7044,38.37286],[-110.7045,38.37297],[-110.70466,38.37312],[-110.705,38.37338],[-110.70517,38.3735],[-110.70542,38.37365],[-110.70556,38.37374],[-110.70575,38.37383],[-110.70575,38.37383],[-110.70612,38.37398],[-110.70642,38.3741],[-110.70644,38.3741],[-110.70668,38.37418],[-110.70693,38.37424],[-110.70701,38.37426],[-110.70739,38.37433],[-110.70754,38.37435],[-110.70755,38.37435],[-110.70776,38.37437],[-110.7078,38.37437],[-110.70804,38.37439],[-110.70836,38.3744],[-110.70876,38.37441],[-110.70889,38.37441],[-110.70983,38.37441],[-110.71029,38.37441],[-110.71086,38.37441],[-110.71136,38.37441],[-110.71213,38.37441],[-110.71458,38.37442],[-110.71533,38.37442],[-110.71556,38.37442],[-110.71625,38.37442],[-110.71648,38.37442],[-110.71671,38.37442],[-110.71736,38.37443],[-110.71814,38.37443],[-110.71837,38.37443],[-110.71851,38.37443],[-110.7186,38.37443],[-110.71943,38.37444],[-110.71974,38.37444],[-110.71997,38.37444],[-110.7201,38.37444],[-110.7202,38.37444],[-110.72084,38.37445],[-110.72157,38.37445],[-110.72167,38.37445],[-110.72415,38.37445],[-110.725,38.37445],[-110.72596,38.37446],[-110.72603,38.37446],[-110.72615,38.37446],[-110.72659,38.37446],[-110.72683,38.37447],[-110.72704,38.37448],[-110.72706,38.37448],[-110.72726,38.37449],[-110.72746,38.37451],[-110.72753,38.37452],[-110.72764,38.37454],[-110.72786,38.37457],[-110.72787,38.37457],[-110.72834,38.37468],[-110.7286,38.37475],[-110.72876,38.37481],[-110.7289,38.37486],[-110.72908,38.37492],[-110.72913,38.37494],[-110.72927,38.375],[-110.72933,38.37503],[-110.72953,38.37512],[-110.72966,38.37518],[-110.72971,38.37521],[-110.72985,38.37528],[-110.72989,38.3753],[-110.73005,38.3754],[-110.73021,38.3755],[-110.73038,38.37562],[-110.73053,38.37573],[-110.73065,38.37582],[-110.73077,38.37592],[-110.73088,38.37601],[-110.73119,38.37632],[-110.73141,38.37656],[-110.73158,38.37676],[-110.73193,38.37715],[-110.73224,38.37749],[-110.7323,38.37754],[-110.73237,38.3776],[-110.73247,38.37769],[-110.73261,38.37779],[-110.73272,38.37786],[-110.7328,38.3779],[-110.7329,38.37795],[-110.73299,38.378],[-110.73313,38.37806],[-110.73342,38.37816],[-110.73357,38.37821],[-110.73371,38.37824],[-110.73381,38.37826],[-110.73408,38.37831],[-110.73418,38.37832],[-110.73427,38.37832],[-110.73436,38.37833],[-110.73453,38.37833],[-110.73468,38.37832],[-110.735,38.37828],[-110.73514,38.37826],[-110.7353,38.37823],[-110.73726,38.37781],[-110.73762,38.37774],[-110.73798,38.37766],[-110.73828,38.37759],[-110.73848,38.37755],[-110.73903,38.37744],[-110.73942,38.37735],[-110.73968,38.37728],[-110.73997,38.3772],[-110.74021,38.37712],[-110.74029,38.3771],[-110.74042,38.37705],[-110.74046,38.37703],[-110.74068,38.37694],[-110.74095,38.37682],[-110.74116,38.37672],[-110.74145,38.37656],[-110.7416,38.37647],[-110.74193,38.37625],[-110.74211,38.37613],[-110.74232,38.37597],[-110.74242,38.37588],[-110.74247,38.37585],[-110.74265,38.37569],[-110.7428,38.37556],[-110.74309,38.37531],[-110.74324,38.37518],[-110.74352,38.37494],[-110.74358,38.3749],[-110.74388,38.37463],[-110.7443,38.37427],[-110.74432,38.37425],[-110.74448,38.37412],[-110.7445,38.3741],[-110.74558,38.37316],[-110.74571,38.37305],[-110.74589,38.3729],[-110.74604,38.37276],[-110.74634,38.37251],[-110.74701,38.37194],[-110.74744,38.37159],[-110.74757,38.37149],[-110.74778,38.37136],[-110.74792,38.37128],[-110.74799,38.37124],[-110.74806,38.37121],[-110.74825,38.37112],[-110.74847,38.37104],[-110.74868,38.37097],[-110.74887,38.37092],[-110.74905,38.37088],[-110.74922,38.37086],[-110.74939,38.37084],[-110.74954,38.37083],[-110.7497,38.37082],[-110.74988,38.37082],[-110.7501,38.37083],[-110.75027,38.37084],[-110.75037,38.37085],[-110.75041,38.37086],[-110.75057,38.37088],[-110.75079,38.37093],[-110.75085,38.37094],[-110.75101,38.37098],[-110.75124,38.37105],[-110.75128,38.37107],[-110.7515,38.37115],[-110.75211,38.37136],[-110.75229,38.37142],[-110.75232,38.37144],[-110.7525,38.3715],[-110.75253,38.37151],[-110.75254,38.37152],[-110.75295,38.37166],[-110.75336,38.37181],[-110.75365,38.37192],[-110.75392,38.37201],[-110.7542,38.37209],[-110.75442,38.37215],[-110.75464,38.3722],[-110.7549,38.37225],[-110.75511,38.37228],[-110.75539,38.3723],[-110.75563,38.37232],[-110.75574,38.37232],[-110.75583,38.37232],[-110.75609,38.37231],[-110.75643,38.37229],[-110.75647,38.37229],[-110.75665,38.37227],[-110.75666,38.37227],[-110.75687,38.37224],[-110.75688,38.37224],[-110.75692,38.37223],[-110.75709,38.37219],[-110.75714,38.37218],[-110.75735,38.37214],[-110.75755,38.37208],[-110.7577,38.37204],[-110.75811,38.3719],[-110.75849,38.37176],[-110.75876,38.37167],[-110.75902,38.37159],[-110.75904,38.37159],[-110.75923,38.37154],[-110.7594,38.3715],[-110.75946,38.37149],[-110.75968,38.37144],[-110.75988,38.3714],[-110.76009,38.37137],[-110.7604,38.37134],[-110.76064,38.37132],[-110.76086,38.37131],[-110.76119,38.3713],[-110.76149,38.37131],[-110.7615,38.37131],[-110.76173,38.37132],[-110.76177,38.37132],[-110.7619,38.37133],[-110.76222,38.37136],[-110.7623,38.37137],[-110.76242,38.37138],[-110.76245,38.37138],[-110.76268,38.3714],[-110.76279,38.37141],[-110.76306,38.37144],[-110.76359,38.37149],[-110.7637,38.3715],[-110.76427,38.37155],[-110.76467,38.37158],[-110.76519,38.37163],[-110.76541,38.37165],[-110.76564,38.37167],[-110.76581,38.37169],[-110.76655,38.37175],[-110.76678,38.37178],[-110.76701,38.3718],[-110.76714,38.37181],[-110.76768,38.37185],[-110.76769,38.37185],[-110.76796,38.37188],[-110.76821,38.37189],[-110.76842,38.3719],[-110.76856,38.37191],[-110.76877,38.37191],[-110.76879,38.37191],[-110.76903,38.3719],[-110.76949,38.37188],[-110.76978,38.37185],[-110.76984,38.37185],[-110.77009,38.37182],[-110.77051,38.37177],[-110.77069,38.37174],[-110.77075,38.37174],[-110.77087,38.37172],[-110.77129,38.37163],[-110.77139,38.37161],[-110.77141,38.3716],[-110.77163,38.37155],[-110.77175,38.37152],[-110.77185,38.3715],[-110.77219,38.3714],[-110.77226,38.37138],[-110.77228,38.37138],[-110.7725,38.37132],[-110.77271,38.37125],[-110.77314,38.37112],[-110.774,38.37086],[-110.77402,38.37086],[-110.77421,38.3708],[-110.77443,38.37073],[-110.77485,38.3706],[-110.77512,38.37052],[-110.77549,38.37041],[-110.7755,38.37041],[-110.77571,38.37034],[-110.77652,38.3701],[-110.77731,38.36987],[-110.77743,38.36983],[-110.77763,38.36977],[-110.77764,38.36977],[-110.7781,38.36963],[-110.77849,38.36952],[-110.7785,38.36952],[-110.7789,38.3694],[-110.77914,38.36933],[-110.77936,38.36927],[-110.77979,38.36914],[-110.77996,38.36909],[-110.78021,38.36901],[-110.78022,38.36901],[-110.78129,38.36869],[-110.78208,38.36845],[-110.78269,38.36827],[-110.78326,38.3681],[-110.78391,38.36791],[-110.78428,38.3678],[-110.78451,38.36773],[-110.78515,38.36754],[-110.78554,38.36743],[-110.78604,38.36729],[-110.78639,38.3672],[-110.78707,38.36705],[-110.78741,38.36697],[-110.78778,38.3669],[-110.7879,38.36687],[-110.78799,38.36686],[-110.78822,38.36682],[-110.78848,38.36677],[-110.78903,38.36669],[-110.78935,38.36665],[-110.78984,38.3666],[-110.79032,38.36655],[-110.79133,38.36647],[-110.79291,38.36636],[-110.795,38.36621],[-110.79506,38.36621],[-110.79528,38.36619],[-110.79551,38.36618],[-110.79681,38.36609],[-110.79711,38.36606],[-110.79859,38.36596],[-110.80029,38.36583],[-110.80054,38.36582],[-110.80181,38.36572],[-110.80334,38.36561],[-110.80419,38.36555],[-110.80442,38.36553],[-110.80465,38.36552],[-110.80582,38.36543],[-110.80749,38.36531],[-110.80888,38.36521],[-110.80899,38.36521],[-110.80973,38.36519],[-110.81012,38.36512],[-110.8107,38.3651],[-110.81081,38.36508],[-110.81104,38.36506],[-110.81127,38.36504],[-110.81151,38.36502],[-110.81195,38.36499],[-110.81196,38.36499],[-110.81241,38.36496],[-110.81245,38.36495],[-110.81264,38.36495],[-110.8127,38.36494],[-110.81296,38.36494],[-110.81315,38.36496],[-110.81338,38.36498],[-110.81346,38.365],[-110.81364,38.36504],[-110.81376,38.36507],[-110.81392,38.36513],[-110.81406,38.36518],[-110.81422,38.36526],[-110.81435,38.36534],[-110.81451,38.36544],[-110.81453,38.36546],[-110.81459,38.3655],[-110.8147,38.36559],[-110.81473,38.36562],[-110.81488,38.36575],[-110.81498,38.36586],[-110.81511,38.36602],[-110.81516,38.36609],[-110.81527,38.36624],[-110.81533,38.36633],[-110.81544,38.36648],[-110.81555,38.36663],[-110.81562,38.36672],[-110.81573,38.36684],[-110.81581,38.36693],[-110.81591,38.36702],[-110.81601,38.3671],[-110.81607,38.36714],[-110.81619,38.36723],[-110.8163,38.3673],[-110.81648,38.36739],[-110.81659,38.36744],[-110.81666,38.36747],[-110.81677,38.36751],[-110.8169,38.36755],[-110.81702,38.36759],[-110.81724,38.36765],[-110.81751,38.3677],[-110.81813,38.36779],[-110.81825,38.36781],[-110.8187,38.36788],[-110.81915,38.36795],[-110.81973,38.36804],[-110.81982,38.36805],[-110.82005,38.3681],[-110.82057,38.36822],[-110.82111,38.36826],[-110.82191,38.36839],[-110.82207,38.36841],[-110.82252,38.36848],[-110.82294,38.36855],[-110.82342,38.36862],[-110.8241,38.36873],[-110.82411,38.36873],[-110.82455,38.36879],[-110.8247,38.36881],[-110.82524,38.3689],[-110.82589,38.36899],[-110.82644,38.36905],[-110.82672,38.36908],[-110.82704,38.36911],[-110.82728,38.36914],[-110.82769,38.36918],[-110.82909,38.36928],[-110.82936,38.36929],[-110.8299,38.36932],[-110.83088,38.36935],[-110.83168,38.36937],[-110.83437,38.36939],[-110.83602,38.3694],[-110.83698,38.36941],[-110.83701,38.36941],[-110.83839,38.36942],[-110.83882,38.36943],[-110.83997,38.36944],[-110.84062,38.36944],[-110.84275,38.36946],[-110.84322,38.36947],[-110.84364,38.36947],[-110.84366,38.36947],[-110.84482,38.36948],[-110.8455,38.36949],[-110.8457,38.36949],[-110.84573,38.36949],[-110.84678,38.3695],[-110.84733,38.36949],[-110.84775,38.36948],[-110.84803,38.36947],[-110.8483,38.36945],[-110.8487,38.3694],[-110.84899,38.36936],[-110.84941,38.36928],[-110.84982,38.36919],[-110.85034,38.36906],[-110.85059,38.36899],[-110.85112,38.36882],[-110.85137,38.36872],[-110.85171,38.36858],[-110.85208,38.36842],[-110.85252,38.36821],[-110.85283,38.36806],[-110.85318,38.36789],[-110.85368,38.36764],[-110.85388,38.36754],[-110.85435,38.36732],[-110.85834,38.36534],[-110.85854,38.36525],[-110.85912,38.36496],[-110.85965,38.3647],[-110.86009,38.36448],[-110.86048,38.36429],[-110.8632,38.36295],[-110.86345,38.36282],[-110.86419,38.36246],[-110.86476,38.36218],[-110.86495,38.3621],[-110.86512,38.36202],[-110.8653,38.36195],[-110.8655,38.36188],[-110.8657,38.36182],[-110.86579,38.3618],[-110.86596,38.36175],[-110.866,38.36174],[-110.86612,38.36171],[-110.86639,38.36166],[-110.86672,38.36161],[-110.8671,38.36157],[-110.86753,38.36153],[-110.86782,38.3615],[-110.868,38.36148],[-110.86818,38.36146],[-110.86847,38.3614],[-110.8687,38.36134],[-110.86888,38.36129],[-110.86908,38.36122],[-110.86929,38.36113],[-110.86952,38.36102],[-110.86963,38.36096],[-110.86986,38.36082],[-110.86998,38.36074],[-110.8701,38.36066],[-110.87024,38.36056],[-110.87048,38.36039],[-110.87049,38.36038],[-110.87066,38.36026],[-110.87094,38.36006],[-110.87117,38.35989],[-110.87139,38.35974],[-110.87162,38.3596],[-110.87175,38.35953],[-110.87194,38.35945],[-110.87212,38.35938],[-110.87235,38.3593],[-110.8725,38.35926],[-110.87265,38.35923],[-110.8728,38.3592],[-110.87295,38.35918],[-110.87298,38.35918],[-110.87311,38.35916],[-110.87327,38.35915],[-110.87342,38.35915],[-110.8736,38.35915],[-110.8738,38.35916],[-110.87394,38.35917],[-110.87409,38.35919],[-110.87413,38.35919],[-110.87422,38.35921],[-110.87442,38.35925],[-110.87465,38.3593],[-110.87481,38.35935],[-110.87503,38.35943],[-110.8752,38.3595],[-110.87536,38.35959],[-110.87559,38.35971],[-110.87576,38.35984],[-110.87593,38.35996],[-110.87611,38.36012],[-110.87624,38.36026],[-110.87636,38.36042],[-110.87649,38.3606],[-110.87661,38.36081],[-110.87671,38.36105],[-110.87682,38.36141],[-110.87688,38.36164],[-110.87695,38.36189],[-110.87699,38.36208],[-110.87707,38.36237],[-110.87715,38.36267],[-110.87725,38.36295],[-110.87732,38.36311],[-110.87736,38.36318],[-110.8775,38.36342],[-110.87763,38.36361],[-110.87776,38.36376],[-110.87792,38.36392],[-110.87813,38.36412],[-110.8783,38.36424],[-110.87836,38.36429],[-110.87855,38.36443],[-110.87872,38.36452],[-110.8788,38.36457],[-110.8789,38.36463],[-110.87903,38.36469],[-110.87926,38.36479],[-110.8795,38.36487],[-110.87957,38.3649],[-110.87984,38.36497],[-110.88009,38.36503],[-110.88016,38.36504],[-110.88017,38.36504],[-110.88029,38.36506],[-110.88038,38.36507],[-110.88052,38.36509],[-110.88076,38.36511],[-110.88084,38.36511],[-110.88095,38.36512],[-110.88107,38.36512],[-110.88108,38.36512],[-110.88122,38.36512],[-110.88143,38.36511],[-110.88179,38.36507],[-110.88198,38.36505],[-110.88199,38.36505],[-110.88266,38.36498],[-110.88289,38.36496],[-110.8829,38.36496],[-110.88301,38.36495],[-110.88312,38.36495],[-110.88313,38.36495],[-110.88321,38.36495],[-110.88342,38.36494],[-110.88372,38.36496],[-110.88398,38.36498],[-110.88423,38.36502],[-110.88449,38.36506],[-110.88453,38.36507],[-110.88487,38.36517],[-110.88492,38.36518],[-110.8852,38.36527],[-110.88545,38.36537],[-110.88574,38.36549],[-110.88588,38.36554],[-110.88641,38.36576],[-110.88719,38.36608],[-110.88737,38.36616],[-110.88751,38.36622],[-110.88792,38.36637],[-110.88799,38.36639],[-110.888,38.36639],[-110.8882,38.36646],[-110.88853,38.36656],[-110.88863,38.36658],[-110.88885,38.36664],[-110.88886,38.36664],[-110.88886,38.36665],[-110.88907,38.36669],[-110.8892,38.36672],[-110.8893,38.36674],[-110.88952,38.36679],[-110.88956,38.3668],[-110.88974,38.36682],[-110.88993,38.36686],[-110.88997,38.36686],[-110.89038,38.36691],[-110.89042,38.36692],[-110.89065,38.36694],[-110.89067,38.36694],[-110.89088,38.36696],[-110.89111,38.36698],[-110.89118,38.36698],[-110.89156,38.367],[-110.89157,38.367],[-110.89225,38.36701],[-110.89298,38.36696],[-110.89317,38.36694],[-110.89346,38.3669],[-110.89384,38.36685],[-110.89392,38.36684],[-110.89407,38.36681],[-110.89442,38.36675],[-110.8949,38.36663],[-110.89603,38.36632],[-110.89632,38.36624],[-110.89668,38.36613],[-110.89723,38.36596],[-110.89732,38.36594],[-110.89754,38.36588],[-110.89797,38.36575],[-110.89861,38.36556],[-110.8991,38.36542],[-110.89948,38.36533],[-110.89953,38.36532],[-110.90013,38.36523],[-110.90049,38.3652],[-110.90078,38.36519],[-110.9011,38.3652],[-110.9013,38.36521],[-110.90132,38.36521],[-110.90153,38.36523],[-110.90163,38.36524],[-110.90193,38.3653],[-110.90198,38.36531],[-110.9023,38.36537],[-110.90278,38.36548],[-110.90308,38.36555],[-110.9033,38.3656],[-110.90333,38.36561],[-110.90431,38.36582],[-110.90462,38.36589],[-110.90483,38.36594],[-110.90484,38.36594],[-110.90516,38.36601],[-110.90529,38.36604],[-110.9053,38.36604],[-110.90551,38.36607],[-110.90564,38.36609],[-110.90595,38.36614],[-110.90619,38.36617],[-110.90624,38.36617],[-110.90649,38.36619],[-110.90659,38.3662],[-110.90677,38.36622],[-110.90712,38.36624],[-110.90746,38.36624],[-110.90756,38.36624],[-110.90769,38.36624],[-110.90785,38.36624],[-110.90802,38.36624],[-110.90832,38.36622],[-110.90849,38.36621],[-110.90877,38.36618],[-110.90917,38.36614],[-110.90939,38.36611],[-110.90949,38.36609],[-110.90961,38.36607],[-110.90972,38.36606],[-110.90984,38.36604],[-110.90993,38.36602],[-110.9102,38.36596],[-110.91036,38.36593],[-110.9105,38.36589],[-110.91062,38.36586],[-110.91072,38.36584],[-110.91086,38.3658],[-110.91113,38.36572],[-110.91115,38.36571],[-110.91131,38.36566],[-110.91136,38.36565],[-110.91157,38.36558],[-110.91161,38.36557],[-110.91227,38.36535],[-110.91312,38.36507],[-110.91321,38.36504],[-110.91406,38.36475],[-110.9147,38.36454],[-110.91553,38.36427],[-110.91594,38.36413],[-110.91615,38.36406],[-110.91617,38.36406],[-110.9168,38.36384],[-110.91759,38.36358],[-110.9183,38.36334],[-110.91868,38.36322],[-110.91889,38.36315],[-110.91916,38.36306],[-110.9201,38.36275],[-110.92104,38.36243],[-110.92164,38.36223],[-110.92185,38.36216],[-110.9221,38.36208],[-110.9231,38.36175],[-110.92378,38.36152],[-110.92438,38.36132],[-110.92483,38.36117],[-110.92627,38.36069],[-110.9273,38.36035],[-110.92797,38.36013],[-110.92807,38.3601],[-110.92886,38.35983],[-110.92968,38.35955],[-110.93114,38.35906],[-110.93219,38.35871],[-110.9324,38.35864],[-110.93578,38.35752],[-110.93642,38.35731],[-110.93958,38.35626],[-110.94212,38.35541],[-110.94233,38.35534],[-110.94655,38.35394],[-110.94909,38.35309],[-110.9493,38.35302],[-110.94951,38.35295],[-110.95099,38.35246],[-110.9512,38.35239],[-110.95331,38.35169],[-110.95357,38.3516],[-110.9541,38.35143],[-110.9549,38.35116],[-110.95531,38.35102],[-110.9557,38.35089],[-110.95573,38.35088],[-110.95594,38.35081],[-110.95634,38.35068],[-110.95698,38.35047],[-110.95756,38.35027],[-110.95821,38.35006],[-110.95875,38.34988],[-110.95931,38.34969],[-110.95974,38.34955],[-110.95991,38.34949],[-110.96053,38.34928],[-110.9608,38.3492],[-110.96101,38.34913],[-110.96106,38.34911],[-110.96144,38.34899],[-110.96165,38.34892],[-110.9618,38.34887],[-110.96208,38.34878],[-110.96232,38.34871],[-110.96257,38.34864],[-110.96291,38.34855],[-110.96314,38.34849],[-110.9634,38.34842],[-110.96359,38.34838],[-110.9639,38.34831],[-110.96429,38.34823],[-110.96469,38.34815],[-110.96513,38.34807],[-110.96515,38.34807],[-110.96537,38.34803],[-110.96554,38.34801],[-110.96591,38.34795],[-110.96627,38.34791],[-110.96653,38.34788],[-110.9668,38.34785],[-110.96713,38.34782],[-110.96741,38.3478],[-110.96753,38.3478],[-110.96791,38.34777],[-110.9681,38.34776],[-110.96826,38.34776],[-110.96856,38.34775],[-110.9689,38.34774],[-110.96901,38.34774],[-110.9693,38.34774],[-110.96955,38.34774],[-110.97006,38.34775],[-110.97063,38.34777],[-110.97115,38.34779],[-110.97164,38.34781],[-110.97199,38.34782],[-110.97235,38.34783],[-110.97276,38.34783],[-110.97291,38.34782],[-110.97327,38.34782],[-110.9736,38.34781],[-110.97365,38.34781],[-110.97399,38.3478],[-110.97436,38.34778],[-110.97451,38.34777],[-110.97465,38.34776],[-110.97502,38.34774],[-110.97533,38.34771],[-110.97565,38.34768],[-110.97595,38.34766],[-110.97619,38.34763],[-110.97642,38.3476],[-110.97661,38.34758],[-110.97689,38.34755],[-110.97707,38.34753],[-110.97731,38.34749],[-110.97764,38.34745],[-110.97788,38.3474],[-110.97809,38.34737],[-110.97822,38.34735],[-110.97851,38.3473],[-110.97889,38.34722],[-110.97891,38.34722],[-110.97904,38.3472],[-110.97934,38.34714],[-110.97945,38.34711],[-110.97984,38.34703],[-110.9802,38.34695],[-110.98037,38.34691],[-110.98078,38.3468],[-110.9813,38.34666],[-110.98165,38.34656],[-110.98211,38.34643],[-110.98265,38.34626],[-110.98295,38.34617],[-110.98323,38.34607],[-110.98357,38.34595],[-110.98395,38.34581],[-110.98417,38.34573],[-110.98452,38.3456],[-110.98483,38.34547],[-110.98502,38.3454],[-110.98514,38.34535],[-110.98523,38.34532],[-110.98565,38.34515],[-110.98604,38.345],[-110.98657,38.34479],[-110.98666,38.34475],[-110.98705,38.3446],[-110.98753,38.34441],[-110.988,38.34423],[-110.98867,38.34396],[-110.98871,38.34395],[-110.98892,38.34387],[-110.98948,38.34365],[-110.99023,38.34335],[-110.99094,38.34307],[-110.9915,38.34284],[-110.99211,38.3426],[-110.99219,38.34257],[-110.99222,38.34256],[-110.99303,38.34223],[-110.99361,38.34201],[-110.99411,38.34181],[-110.99445,38.34168],[-110.99456,38.34163],[-110.99471,38.34157],[-110.99492,38.34149],[-110.99493,38.34148],[-110.9952,38.34138],[-110.99559,38.34122],[-110.99583,38.34113],[-110.99613,38.34101],[-110.99635,38.34093],[-110.99645,38.34089],[-110.99664,38.34082],[-110.99709,38.34064],[-110.99733,38.34055],[-110.99746,38.3405],[-110.99762,38.34044],[-110.99775,38.3404],[-110.99778,38.34039],[-110.99784,38.34037],[-110.99791,38.34035],[-110.99793,38.34034],[-110.99807,38.3403],[-110.99823,38.34025],[-110.99827,38.34024],[-110.99844,38.34019],[-110.99855,38.34016],[-110.99872,38.34012],[-110.99893,38.34007],[-110.99911,38.34003],[-110.99912,38.34003],[-110.99935,38.33999],[-110.99956,38.33995],[-110.99982,38.33991],[-111.00028,38.33985],[-111.00057,38.33982],[-111.00089,38.33978],[-111.00137,38.33973],[-111.00138,38.33973],[-111.00188,38.33968],[-111.00204,38.33967],[-111.00226,38.33965],[-111.00262,38.33961],[-111.00303,38.33957],[-111.00344,38.33952],[-111.00381,38.33947],[-111.00401,38.33944],[-111.00408,38.33943],[-111.00422,38.33941],[-111.00431,38.33939],[-111.00441,38.33937],[-111.00462,38.33933],[-111.00489,38.33927],[-111.00521,38.33919],[-111.00548,38.33912],[-111.00579,38.33904],[-111.00608,38.33894],[-111.00626,38.33888],[-111.00639,38.33884],[-111.00657,38.33878],[-111.00684,38.33868],[-111.00704,38.3386],[-111.00725,38.33852],[-111.00743,38.33844],[-111.00765,38.33834],[-111.008,38.33817],[-111.00821,38.33806],[-111.00845,38.33793],[-111.00868,38.3378],[-111.00892,38.33766],[-111.00902,38.3376],[-111.00912,38.33754],[-111.00931,38.33742],[-111.00951,38.33728],[-111.0097,38.33714],[-111.00988,38.33701],[-111.00992,38.33698],[-111.01013,38.33682],[-111.0103,38.33668],[-111.01046,38.33654],[-111.01052,38.3365],[-111.01052,38.33649],[-111.01063,38.3364],[-111.01084,38.33623],[-111.01107,38.33604],[-111.01133,38.33582],[-111.01162,38.33558],[-111.01188,38.33537],[-111.01197,38.3353],[-111.01211,38.33518],[-111.01223,38.33509],[-111.01246,38.33492],[-111.01258,38.33484],[-111.01271,38.33475],[-111.01282,38.33469],[-111.01299,38.33459],[-111.01316,38.33451],[-111.01325,38.33446],[-111.01338,38.3344],[-111.0135,38.33434],[-111.01355,38.33432],[-111.01367,38.33427],[-111.01384,38.33421],[-111.01401,38.33415],[-111.01418,38.33409],[-111.01429,38.33406],[-111.01442,38.33402],[-111.01465,38.33396],[-111.01478,38.33393],[-111.0149,38.3339],[-111.01501,38.33388],[-111.01524,38.33384],[-111.01549,38.33381],[-111.01566,38.33379],[-111.0157,38.33378],[-111.01587,38.33377],[-111.01604,38.33375],[-111.01626,38.33374],[-111.01643,38.33374],[-111.01663,38.33374],[-111.0168,38.33375],[-111.01709,38.33377],[-111.01741,38.3338],[-111.01772,38.33382],[-111.01794,38.33384],[-111.01861,38.3339],[-111.01909,38.33395],[-111.01915,38.33395],[-111.0195,38.33398],[-111.02006,38.33404],[-111.02015,38.33405],[-111.02023,38.33405],[-111.02029,38.33406],[-111.02065,38.33409],[-111.02106,38.33413],[-111.02119,38.33414],[-111.02144,38.33417],[-111.02172,38.33419],[-111.02194,38.3342],[-111.02217,38.3342],[-111.02234,38.3342],[-111.02252,38.3342],[-111.0227,38.33419],[-111.0228,38.33418],[-111.02295,38.33416],[-111.02312,38.33414],[-111.02331,38.33412],[-111.0235,38.33409],[-111.02383,38.33404],[-111.0241,38.334],[-111.02446,38.33394],[-111.02508,38.33385],[-111.02561,38.33377],[-111.02609,38.3337],[-111.02655,38.33363],[-111.02658,38.33363],[-111.0268,38.3336],[-111.02694,38.33358],[-111.02762,38.33347],[-111.0277,38.33346],[-111.02791,38.33342],[-111.02793,38.33342],[-111.02812,38.33339],[-111.02834,38.33334],[-111.02849,38.3333],[-111.02859,38.33328],[-111.02872,38.33324],[-111.02889,38.33318],[-111.0291,38.33311],[-111.02922,38.33306],[-111.02924,38.33306],[-111.0294,38.33299],[-111.02942,38.33298],[-111.02952,38.33293],[-111.02963,38.33288],[-111.02975,38.33282],[-111.02987,38.33276],[-111.02997,38.33269],[-111.0301,38.33262],[-111.03017,38.33257],[-111.03025,38.33252],[-111.03038,38.33242],[-111.03058,38.33226],[-111.03073,38.33213],[-111.03084,38.33203],[-111.03093,38.33194],[-111.03101,38.33186],[-111.03111,38.33174],[-111.03117,38.33166],[-111.03121,38.33161],[-111.03126,38.33155],[-111.03135,38.33141],[-111.03148,38.33121],[-111.03153,38.33111],[-111.03162,38.33094],[-111.03168,38.33081],[-111.03174,38.33065],[-111.03185,38.33033],[-111.03193,38.3301],[-111.03193,38.33009],[-111.03205,38.32975],[-111.03214,38.32948],[-111.03222,38.32923],[-111.03226,38.32912],[-111.03243,38.32863],[-111.03253,38.32837],[-111.03253,38.32836],[-111.03264,38.32803],[-111.03279,38.32761],[-111.03289,38.3273],[-111.03304,38.32688],[-111.03311,38.32668],[-111.03318,38.32646],[-111.03324,38.32627],[-111.03334,38.32598],[-111.03346,38.32561],[-111.03356,38.32531],[-111.03365,38.32506],[-111.03368,38.32495],[-111.03378,38.32468],[-111.03385,38.32446],[-111.03394,38.3242],[-111.03408,38.3238],[-111.03415,38.32358],[-111.03424,38.32333],[-111.03432,38.32309],[-111.0344,38.32288],[-111.03448,38.32264],[-111.03454,38.32246],[-111.03459,38.32231],[-111.03465,38.32211],[-111.03469,38.32198],[-111.0347,38.32194],[-111.03482,38.3216],[-111.035,38.32106],[-111.03512,38.32072],[-111.03518,38.32055],[-111.03533,38.32013],[-111.03542,38.31985],[-111.03549,38.31964],[-111.03553,38.3195],[-111.03559,38.3193],[-111.03563,38.31915],[-111.03567,38.31902],[-111.03568,38.31898],[-111.03573,38.31876],[-111.03579,38.31851],[-111.03585,38.31823],[-111.03587,38.31809],[-111.0359,38.31789],[-111.03594,38.31766],[-111.03596,38.31742],[-111.03597,38.31737],[-111.03598,38.31726],[-111.03598,38.31719],[-111.03601,38.31685],[-111.03603,38.31666],[-111.03603,38.31656],[-111.03606,38.31631],[-111.03606,38.3163],[-111.03607,38.31612],[-111.03609,38.31597],[-111.03609,38.31594],[-111.03611,38.31572],[-111.03613,38.31558],[-111.03613,38.31557],[-111.03616,38.3153],[-111.03617,38.31522],[-111.03619,38.31509],[-111.0362,38.31504],[-111.03623,38.31488],[-111.03624,38.31487],[-111.03629,38.31465],[-111.03634,38.31442],[-111.03641,38.3142],[-111.03649,38.314],[-111.03654,38.31385],[-111.03655,38.31382],[-111.0366,38.31369],[-111.03669,38.31347],[-111.0367,38.31346],[-111.03679,38.31327],[-111.0369,38.31306],[-111.03704,38.3128],[-111.03713,38.31264],[-111.0372,38.31253],[-111.03723,38.31248],[-111.03735,38.31227],[-111.03752,38.31198],[-111.03761,38.31183],[-111.03765,38.31177],[-111.03771,38.31167],[-111.03777,38.31157],[-111.03793,38.31131],[-111.03813,38.31099],[-111.03826,38.31079],[-111.03838,38.31059],[-111.03842,38.31053],[-111.0385,38.31039],[-111.03851,38.31037],[-111.03868,38.31006],[-111.03878,38.30987],[-111.03884,38.30978],[-111.03888,38.30971],[-111.03897,38.30955],[-111.03899,38.30952],[-111.03906,38.30938],[-111.03911,38.3093],[-111.03916,38.30922],[-111.03925,38.30905],[-111.03928,38.309],[-111.0394,38.30878],[-111.03943,38.30872],[-111.03952,38.30856],[-111.03953,38.30855],[-111.03964,38.30833],[-111.03969,38.30822],[-111.03975,38.30811],[-111.03984,38.30791],[-111.03985,38.30789],[-111.03991,38.30778],[-111.03993,38.30772],[-111.04,38.30758],[-111.04008,38.3074],[-111.04009,38.30738],[-111.04017,38.30721],[-111.04023,38.30708],[-111.04027,38.30699],[-111.04034,38.30684],[-111.04041,38.30663],[-111.04051,38.30632],[-111.04056,38.30618],[-111.04058,38.30611],[-111.04063,38.30596],[-111.04068,38.3058],[-111.04072,38.30561],[-111.04075,38.30547],[-111.04076,38.30543],[-111.04082,38.30512],[-111.04082,38.3051],[-111.04086,38.30485],[-111.04088,38.30476],[-111.04091,38.30458],[-111.04091,38.30456],[-111.04094,38.30441],[-111.04097,38.30423],[-111.04098,38.3042],[-111.04103,38.3039],[-111.04104,38.30387],[-111.04107,38.30369],[-111.04112,38.30341],[-111.04116,38.30319],[-111.04117,38.30316],[-111.04121,38.30298],[-111.04121,38.30295],[-111.04126,38.30276],[-111.04132,38.30247],[-111.04139,38.30209],[-111.0415,38.30149],[-111.04162,38.30083],[-111.04176,38.3001],[-111.0419,38.29925],[-111.04199,38.29876],[-111.04207,38.29826],[-111.04214,38.29788],[-111.04215,38.29782],[-111.04221,38.29749],[-111.04231,38.29695],[-111.04237,38.29661],[-111.04244,38.29624],[-111.04248,38.29601],[-111.0425,38.2959],[-111.04253,38.29575],[-111.04258,38.29558],[-111.0426,38.29551],[-111.04263,38.29541],[-111.04267,38.29529],[-111.04271,38.29517],[-111.04278,38.29503],[-111.04286,38.29488],[-111.04294,38.29474],[-111.043,38.29463],[-111.04306,38.29455],[-111.04309,38.29451],[-111.04318,38.29438],[-111.04326,38.29428],[-111.04337,38.29415],[-111.04345,38.29406],[-111.04356,38.29395],[-111.04366,38.29386],[-111.04378,38.29376],[-111.04394,38.29363],[-111.04403,38.29355],[-111.04414,38.29348],[-111.04427,38.29339],[-111.04443,38.29329],[-111.04456,38.29322],[-111.04471,38.29314],[-111.04482,38.29308],[-111.04504,38.29298],[-111.04535,38.29286],[-111.04614,38.29253],[-111.04634,38.29245],[-111.04656,38.29235],[-111.04668,38.29229],[-111.04676,38.29224],[-111.04684,38.29219],[-111.04692,38.29213],[-111.04699,38.29208],[-111.04708,38.29199],[-111.04714,38.29193],[-111.04721,38.29185],[-111.0473,38.29175],[-111.04735,38.29168],[-111.0474,38.2916],[-111.04744,38.29151],[-111.04746,38.29148],[-111.0475,38.29139],[-111.0475,38.29138]]}}]}