{"type":"FeatureCollection","features":[{"type":"Feature","properties":{"_gpxType":"trk","name":"Sleepy Hollow Campground, Utah 24, Torrey, UT - Sandcreek RV Park, Utah 24, Torrey, UT","coordinateProperties":{},"id":82},"geometry":{"type":"LineString","coordinates":[[-111.0475,38.29138],[-111.04754,38.29127],[-111.04754,38.29126],[-111.04756,38.29118],[-111.04757,38.29109],[-111.04758,38.29099],[-111.04758,38.29097],[-111.04758,38.29083],[-111.04756,38.29072],[-111.04754,38.29059],[-111.04751,38.29048],[-111.04748,38.29037],[-111.04746,38.2903],[-111.04746,38.29028],[-111.04739,38.29004],[-111.04732,38.2898],[-111.04731,38.28975],[-111.04727,38.28964],[-111.04724,38.28945],[-111.04721,38.28932],[-111.04719,38.28914],[-111.04717,38.28893],[-111.04718,38.28868],[-111.04719,38.28854],[-111.04722,38.28837],[-111.04726,38.28815],[-111.04734,38.2877],[-111.04734,38.28769],[-111.04736,38.28761],[-111.04738,38.28751],[-111.0474,38.28737],[-111.04745,38.28708],[-111.04749,38.2869],[-111.04751,38.28675],[-111.04757,38.28645],[-111.04757,38.28644],[-111.04759,38.28636],[-111.04763,38.28619],[-111.04767,38.28598],[-111.04772,38.28576],[-111.04779,38.28548],[-111.04784,38.28532],[-111.04788,38.28521],[-111.04792,38.28508],[-111.04799,38.28489],[-111.04808,38.28468],[-111.04817,38.28448],[-111.04827,38.28428],[-111.04839,38.28406],[-111.04851,38.28386],[-111.04855,38.28378],[-111.0486,38.28369],[-111.04863,38.28365],[-111.04877,38.28342],[-111.04886,38.2833],[-111.04894,38.2832],[-111.04907,38.28305],[-111.0492,38.2829],[-111.04936,38.28272],[-111.0495,38.28257],[-111.04964,38.28243],[-111.04972,38.28234],[-111.0499,38.28214],[-111.04998,38.28204],[-111.05005,38.28196],[-111.05018,38.28179],[-111.05047,38.28138],[-111.05065,38.28112],[-111.05081,38.2809],[-111.05082,38.28088],[-111.05097,38.28068],[-111.051,38.28064],[-111.0511,38.2805],[-111.05118,38.28042],[-111.05122,38.28037],[-111.05137,38.28018],[-111.0515,38.28002],[-111.05155,38.27996],[-111.05175,38.27973],[-111.05179,38.27968],[-111.05188,38.27958],[-111.0519,38.27956],[-111.05194,38.27952],[-111.05203,38.27942],[-111.05215,38.27929],[-111.05225,38.27917],[-111.05227,38.27914],[-111.05232,38.27907],[-111.05236,38.27902],[-111.05238,38.27898],[-111.05241,38.27894],[-111.05247,38.27884],[-111.05254,38.2787],[-111.05257,38.27865],[-111.05269,38.27841],[-111.0527,38.2784],[-111.05274,38.27832],[-111.05284,38.27816],[-111.05294,38.27799],[-111.05295,38.27798],[-111.05298,38.27792],[-111.05302,38.27785],[-111.05311,38.2777],[-111.05324,38.27752],[-111.05345,38.27724],[-111.05354,38.27712],[-111.05361,38.27705],[-111.05367,38.27697],[-111.05385,38.27678],[-111.05387,38.27676],[-111.05393,38.2767],[-111.05405,38.27658],[-111.05422,38.27642],[-111.0544,38.27625],[-111.05457,38.27612],[-111.05476,38.27597],[-111.05496,38.27581],[-111.05516,38.27566],[-111.05518,38.27564],[-111.05527,38.27557],[-111.05532,38.27554],[-111.05551,38.2754],[-111.05563,38.27533],[-111.05569,38.27529],[-111.05575,38.27525],[-111.05579,38.27522],[-111.05593,38.27514],[-111.05598,38.27512],[-111.05613,38.27503],[-111.05622,38.27498],[-111.05624,38.27496],[-111.05635,38.27491],[-111.05646,38.27485],[-111.05673,38.27471],[-111.05676,38.2747],[-111.05679,38.27469],[-111.05701,38.27458],[-111.05733,38.27445],[-111.0575,38.27438],[-111.05788,38.27424],[-111.05795,38.27421],[-111.05801,38.27419],[-111.05856,38.274],[-111.05913,38.27381],[-111.05963,38.27364],[-111.05996,38.27353],[-111.06065,38.27329],[-111.06068,38.27328],[-111.06074,38.27326],[-111.06132,38.27306],[-111.06205,38.27282],[-111.06216,38.27278],[-111.06222,38.27276],[-111.06253,38.27265],[-111.06299,38.27249],[-111.06305,38.27247],[-111.06355,38.2723],[-111.06456,38.27195],[-111.06484,38.27186],[-111.06555,38.27161],[-111.066,38.27146],[-111.06614,38.27141],[-111.0664,38.27132],[-111.06663,38.27125],[-111.06698,38.27113],[-111.06719,38.27105],[-111.06726,38.27103],[-111.06747,38.27096],[-111.06818,38.27072],[-111.06927,38.27034],[-111.06929,38.27034],[-111.0695,38.27026],[-111.06975,38.27018],[-111.06999,38.2701],[-111.0702,38.27002],[-111.07064,38.26987],[-111.07162,38.26954],[-111.07223,38.26933],[-111.07277,38.26914],[-111.07335,38.26894],[-111.0737,38.26882],[-111.07385,38.26877],[-111.0743,38.26862],[-111.07455,38.26853],[-111.07501,38.26837],[-111.07559,38.26818],[-111.07561,38.26817],[-111.07584,38.2681],[-111.076,38.26806],[-111.07602,38.26805],[-111.07617,38.26802],[-111.07632,38.26799],[-111.07646,38.26796],[-111.07661,38.26794],[-111.07674,38.26792],[-111.0769,38.26791],[-111.07713,38.26789],[-111.07729,38.26789],[-111.07736,38.26789],[-111.07744,38.2679],[-111.07759,38.2679],[-111.07779,38.26791],[-111.07793,38.26792],[-111.07807,38.26794],[-111.07822,38.26796],[-111.07837,38.26798],[-111.07853,38.26801],[-111.07868,38.26805],[-111.07887,38.2681],[-111.07894,38.26812],[-111.07901,38.26814],[-111.07913,38.26818],[-111.07915,38.26819],[-111.07924,38.26822],[-111.07936,38.26827],[-111.07949,38.26833],[-111.07965,38.2684],[-111.07979,38.26847],[-111.07997,38.26856],[-111.0801,38.26863],[-111.08022,38.26871],[-111.08032,38.26878],[-111.08045,38.26888],[-111.08057,38.26897],[-111.08063,38.26903],[-111.08074,38.26912],[-111.08078,38.26916],[-111.08083,38.26921],[-111.08093,38.26932],[-111.08101,38.26941],[-111.08109,38.2695],[-111.08116,38.26959],[-111.08123,38.26969],[-111.08129,38.26978],[-111.08134,38.26986],[-111.08137,38.26993],[-111.0814,38.26998],[-111.08145,38.27007],[-111.08152,38.27022],[-111.08158,38.27037],[-111.08164,38.27049],[-111.08167,38.2706],[-111.08174,38.27078],[-111.08176,38.27084],[-111.0818,38.27093],[-111.08186,38.27108],[-111.0819,38.27118],[-111.08199,38.27137],[-111.08203,38.27146],[-111.08204,38.27148],[-111.08212,38.27163],[-111.08219,38.27174],[-111.08226,38.27184],[-111.08233,38.27194],[-111.08233,38.27195],[-111.08241,38.27204],[-111.08249,38.27215],[-111.08262,38.27228],[-111.08272,38.27238],[-111.08273,38.27239],[-111.08284,38.27249],[-111.08294,38.27258],[-111.08312,38.27272],[-111.0832,38.27278],[-111.08323,38.27279],[-111.08335,38.27287],[-111.08338,38.27289],[-111.08354,38.27299],[-111.08371,38.27308],[-111.08391,38.27317],[-111.08395,38.27319],[-111.08406,38.27324],[-111.08415,38.27327],[-111.08432,38.27334],[-111.08451,38.2734],[-111.0848,38.27348],[-111.08503,38.27354],[-111.08545,38.27363],[-111.08556,38.27366],[-111.08615,38.27379],[-111.08633,38.27383],[-111.08655,38.27388],[-111.08677,38.27393],[-111.08685,38.27395],[-111.08699,38.27398],[-111.08774,38.27415],[-111.08831,38.27428],[-111.08853,38.27433],[-111.08867,38.27436],[-111.08919,38.27448],[-111.08924,38.27449],[-111.08978,38.27462],[-111.08998,38.27466],[-111.09059,38.2748],[-111.09069,38.27483],[-111.09131,38.27496],[-111.09191,38.2751],[-111.09216,38.27516],[-111.0925,38.27523],[-111.09296,38.27534],[-111.09351,38.27547],[-111.09389,38.27555],[-111.0939,38.27555],[-111.09411,38.27558],[-111.0944,38.27565],[-111.09466,38.2757],[-111.09487,38.27575],[-111.09511,38.27579],[-111.0953,38.27581],[-111.09545,38.27583],[-111.09565,38.27584],[-111.09584,38.27585],[-111.09603,38.27586],[-111.0962,38.27586],[-111.09634,38.27585],[-111.09644,38.27584],[-111.09658,38.27583],[-111.09673,38.27582],[-111.09682,38.27581],[-111.09688,38.2758],[-111.09701,38.27577],[-111.09719,38.27574],[-111.0974,38.2757],[-111.09749,38.27568],[-111.09763,38.27564],[-111.0977,38.27562],[-111.09786,38.27558],[-111.09792,38.27556],[-111.09808,38.2755],[-111.09836,38.2754],[-111.09861,38.27531],[-111.09883,38.27523],[-111.09962,38.27493],[-111.10019,38.27471],[-111.1003,38.27467],[-111.10047,38.2746],[-111.10067,38.27453],[-111.10081,38.27448],[-111.10099,38.27443],[-111.10116,38.27438],[-111.10132,38.27435],[-111.10147,38.27431],[-111.10152,38.2743],[-111.10166,38.27428],[-111.10182,38.27425],[-111.10204,38.27423],[-111.10214,38.27422],[-111.10222,38.27421],[-111.10242,38.2742],[-111.10256,38.27419],[-111.1026,38.27419],[-111.1027,38.27419],[-111.10283,38.27419],[-111.10288,38.27419],[-111.10308,38.2742],[-111.10323,38.27421],[-111.10329,38.27422],[-111.10341,38.27423],[-111.10369,38.27426],[-111.10397,38.27429],[-111.10398,38.27429],[-111.10451,38.27435],[-111.10486,38.27439],[-111.10511,38.27442],[-111.10527,38.27445],[-111.10544,38.27448],[-111.10557,38.27451],[-111.10567,38.27453],[-111.10579,38.27457],[-111.10588,38.2746],[-111.10597,38.27464],[-111.10598,38.27464],[-111.10615,38.27472],[-111.10624,38.27476],[-111.10633,38.27481],[-111.10636,38.27483],[-111.1064,38.27486],[-111.10647,38.2749],[-111.10653,38.27495],[-111.10658,38.27498],[-111.10665,38.27504],[-111.10675,38.27514],[-111.10682,38.2752],[-111.10688,38.27527],[-111.10698,38.27538],[-111.10706,38.2755],[-111.10713,38.2756],[-111.10721,38.27571],[-111.10728,38.27582],[-111.10736,38.27596],[-111.10739,38.276],[-111.10752,38.27622],[-111.10773,38.27654],[-111.10796,38.27693],[-111.10807,38.2771],[-111.10818,38.27727],[-111.1082,38.27729],[-111.10825,38.27737],[-111.10831,38.27743],[-111.10837,38.2775],[-111.10843,38.27756],[-111.10847,38.27761],[-111.10854,38.27767],[-111.10864,38.27774],[-111.10874,38.27781],[-111.10884,38.27786],[-111.10895,38.27792],[-111.10898,38.27794],[-111.10903,38.27796],[-111.10913,38.278],[-111.10918,38.27802],[-111.1092,38.27803],[-111.10929,38.27806],[-111.10939,38.27809],[-111.10946,38.27811],[-111.10956,38.27813],[-111.10961,38.27814],[-111.10968,38.27815],[-111.10981,38.27817],[-111.1099,38.27818],[-111.11002,38.27819],[-111.11015,38.27819],[-111.11026,38.27818],[-111.11036,38.27818],[-111.11045,38.27817],[-111.11052,38.27815],[-111.11061,38.27814],[-111.11074,38.27811],[-111.11093,38.27805],[-111.11096,38.27804],[-111.11114,38.27798],[-111.11179,38.27774],[-111.11189,38.2777],[-111.11212,38.27762],[-111.11221,38.2776],[-111.1123,38.27757],[-111.11244,38.27753],[-111.11255,38.27751],[-111.11275,38.27749],[-111.11288,38.27747],[-111.11303,38.27747],[-111.11316,38.27747],[-111.1133,38.27748],[-111.11339,38.27749],[-111.11351,38.27751],[-111.11356,38.27752],[-111.11361,38.27753],[-111.11376,38.27757],[-111.11384,38.27759],[-111.11393,38.27762],[-111.11402,38.27765],[-111.11416,38.27771],[-111.11426,38.27776],[-111.11439,38.27783],[-111.11457,38.27792],[-111.11465,38.27797],[-111.11476,38.27803],[-111.11479,38.27804],[-111.11529,38.27833],[-111.11544,38.27842],[-111.11556,38.27849],[-111.11567,38.27856],[-111.11575,38.27862],[-111.11583,38.27869],[-111.1159,38.27876],[-111.11594,38.27881],[-111.11597,38.27884],[-111.11599,38.27887],[-111.11603,38.27892],[-111.11605,38.27895],[-111.11609,38.27902],[-111.11612,38.27908],[-111.11616,38.27916],[-111.11617,38.27918],[-111.11619,38.27924],[-111.1162,38.2793],[-111.11622,38.27937],[-111.11623,38.27944],[-111.11624,38.27952],[-111.11624,38.27958],[-111.11624,38.27965],[-111.11623,38.2797],[-111.11622,38.27975],[-111.11621,38.2798],[-111.1162,38.27985],[-111.11619,38.27987],[-111.11618,38.27991],[-111.11617,38.27996],[-111.11614,38.28003],[-111.11611,38.2801],[-111.11605,38.28021],[-111.11605,38.28022],[-111.11589,38.28051],[-111.11587,38.28055],[-111.11578,38.28071],[-111.11576,38.28073],[-111.11568,38.28088],[-111.11561,38.28101],[-111.11559,38.28104],[-111.11554,38.28115],[-111.11551,38.28121],[-111.11548,38.28127],[-111.11546,38.28134],[-111.11545,38.2814],[-111.11544,38.28143],[-111.11543,38.28147],[-111.11543,38.28152],[-111.11543,38.28158],[-111.11544,38.28163],[-111.11544,38.28169],[-111.11545,38.28174],[-111.11546,38.28177],[-111.11548,38.28184],[-111.11551,38.28191],[-111.11551,38.28192],[-111.11554,38.28199],[-111.11558,38.28206],[-111.11559,38.28208],[-111.11564,38.28216],[-111.1157,38.28223],[-111.11571,38.28224],[-111.11574,38.28227],[-111.11577,38.28231],[-111.11584,38.28236],[-111.11589,38.2824],[-111.11595,38.28244],[-111.116,38.28248],[-111.11607,38.28252],[-111.11614,38.28255],[-111.1162,38.28258],[-111.11622,38.28259],[-111.11628,38.28261],[-111.11637,38.28264],[-111.11644,38.28266],[-111.11651,38.28268],[-111.11658,38.2827],[-111.11668,38.28272],[-111.11679,38.28275],[-111.11696,38.28279],[-111.11706,38.28282],[-111.11715,38.28285],[-111.11727,38.2829],[-111.11737,38.28295],[-111.11744,38.283],[-111.11749,38.28303],[-111.11755,38.28308],[-111.11761,38.28312],[-111.11768,38.2832],[-111.11773,38.28325],[-111.11776,38.28329],[-111.11779,38.28333],[-111.11783,38.2834],[-111.11786,38.28344],[-111.11789,38.28351],[-111.11792,38.28357],[-111.11793,38.28362],[-111.11794,38.28364],[-111.11797,38.28373],[-111.11799,38.2838],[-111.11799,38.28381],[-111.11803,38.28399],[-111.11808,38.28416],[-111.1181,38.28422],[-111.11813,38.28427],[-111.11815,38.28432],[-111.11816,38.28434],[-111.11819,38.28439],[-111.11822,38.28443],[-111.11826,38.28449],[-111.1183,38.28454],[-111.11833,38.28457],[-111.11838,38.28462],[-111.11847,38.28469],[-111.11856,38.28475],[-111.11867,38.28482],[-111.11874,38.28486],[-111.11877,38.28487],[-111.11887,38.28491],[-111.11895,38.28494],[-111.11904,38.28496],[-111.11917,38.28499],[-111.11929,38.28501],[-111.11939,38.28501],[-111.11944,38.28502],[-111.11951,38.28502],[-111.11959,38.28501],[-111.11962,38.28501],[-111.1197,38.285],[-111.11977,38.28499],[-111.11985,38.28498],[-111.1199,38.28496],[-111.11998,38.28494],[-111.12014,38.2849],[-111.12045,38.2848],[-111.12052,38.28478],[-111.12061,38.28476],[-111.1207,38.28474],[-111.12077,38.28472],[-111.12083,38.28472],[-111.1209,38.28471],[-111.12096,38.2847],[-111.12103,38.2847],[-111.12111,38.2847],[-111.12117,38.28471],[-111.12125,38.28471],[-111.12131,38.28472],[-111.12138,38.28473],[-111.12139,38.28473],[-111.12145,38.28475],[-111.12151,38.28476],[-111.1216,38.28479],[-111.12161,38.28479],[-111.12171,38.28483],[-111.12181,38.28487],[-111.12186,38.28488],[-111.12203,38.28496],[-111.12219,38.28503],[-111.12232,38.28509],[-111.12248,38.28517],[-111.12267,38.28525],[-111.12274,38.28528],[-111.12281,38.2853],[-111.12289,38.28533],[-111.12299,38.28536],[-111.12304,38.28537],[-111.12313,38.28539],[-111.12319,38.28541],[-111.12325,38.28541],[-111.12327,38.28542],[-111.12335,38.28543],[-111.12345,38.28544],[-111.12355,38.28544],[-111.12364,38.28545],[-111.12372,38.28544],[-111.12383,38.28544],[-111.12392,38.28543],[-111.12402,38.28542],[-111.12409,38.28541],[-111.12417,38.28539],[-111.12424,38.28537],[-111.12434,38.28534],[-111.12446,38.2853],[-111.12457,38.28526],[-111.12458,38.28526],[-111.12468,38.28521],[-111.12474,38.28518],[-111.12484,38.28513],[-111.12496,38.28507],[-111.12523,38.28491],[-111.12534,38.28485],[-111.12537,38.28483],[-111.12552,38.28474],[-111.12563,38.28468],[-111.1257,38.28464],[-111.12598,38.28448],[-111.12624,38.28432],[-111.12645,38.2842],[-111.12666,38.28409],[-111.12684,38.28399],[-111.12697,38.28392],[-111.12709,38.28387],[-111.1272,38.28382],[-111.12738,38.28375],[-111.12753,38.2837],[-111.12761,38.28368],[-111.12769,38.28366],[-111.12782,38.28363],[-111.12799,38.28359],[-111.12824,38.28356],[-111.12847,38.28353],[-111.12877,38.2835],[-111.12923,38.28345],[-111.12956,38.28342],[-111.12982,38.28338],[-111.12994,38.28337],[-111.13022,38.28332],[-111.13052,38.28327],[-111.13074,38.28323],[-111.13089,38.28319],[-111.13112,38.28314],[-111.1313,38.28309],[-111.13166,38.28299],[-111.13195,38.2829],[-111.13196,38.28289],[-111.13217,38.28283],[-111.13225,38.2828],[-111.13238,38.28276],[-111.13255,38.2827],[-111.13295,38.28258],[-111.13355,38.28239],[-111.13395,38.28226],[-111.13486,38.28197],[-111.13506,38.28191],[-111.1352,38.28187],[-111.1353,38.28185],[-111.13536,38.28183],[-111.1354,38.28183],[-111.1355,38.28181],[-111.13561,38.28179],[-111.13571,38.28178],[-111.13581,38.28176],[-111.13584,38.28176],[-111.13592,38.28175],[-111.13609,38.28175],[-111.13619,38.28174],[-111.13633,38.28174],[-111.13644,38.28175],[-111.1365,38.28175],[-111.13657,38.28176],[-111.13664,38.28176],[-111.13672,38.28177],[-111.13675,38.28178],[-111.13685,38.28179],[-111.13695,38.28181],[-111.13699,38.28181],[-111.13711,38.28184],[-111.13717,38.28185],[-111.13719,38.28185],[-111.1373,38.28188],[-111.13735,38.2819],[-111.13748,38.28194],[-111.13758,38.28197],[-111.13759,38.28197],[-111.1377,38.28202],[-111.13779,38.28205],[-111.13785,38.28208],[-111.13794,38.28212],[-111.13806,38.28218],[-111.13817,38.28224],[-111.13827,38.2823],[-111.13836,38.28236],[-111.13846,38.28242],[-111.13857,38.2825],[-111.13865,38.28257],[-111.13871,38.28262],[-111.13878,38.28269],[-111.13886,38.28277],[-111.13894,38.28285],[-111.13902,38.28295],[-111.1391,38.28306],[-111.13918,38.28317],[-111.13927,38.28331],[-111.13931,38.28338],[-111.13934,38.28344],[-111.13938,38.28353],[-111.1394,38.28358],[-111.13943,38.28367],[-111.13948,38.28381],[-111.13949,38.28388],[-111.13951,38.28396],[-111.13953,38.28412],[-111.13953,38.28414],[-111.13954,38.28424],[-111.13954,38.28434],[-111.13954,38.28441],[-111.13954,38.28442],[-111.13954,38.28455],[-111.13953,38.28478],[-111.1395,38.28516],[-111.13949,38.28533],[-111.13949,38.28539],[-111.13949,38.28547],[-111.13949,38.28554],[-111.1395,38.2856],[-111.13952,38.28568],[-111.13953,38.28574],[-111.13954,38.2858],[-111.13956,38.28585],[-111.13957,38.28589],[-111.1396,38.28598],[-111.13964,38.28608],[-111.13967,38.28614],[-111.13971,38.28621],[-111.13975,38.28627],[-111.1398,38.28635],[-111.13981,38.28636],[-111.13986,38.28643],[-111.13992,38.2865],[-111.13992,38.28651],[-111.13998,38.28657],[-111.14006,38.28665],[-111.14016,38.28674],[-111.14025,38.28681],[-111.14033,38.28687],[-111.14042,38.28693],[-111.1405,38.28697],[-111.14057,38.28701],[-111.14059,38.28702],[-111.14068,38.28707],[-111.14076,38.28711],[-111.14077,38.28711],[-111.14086,38.28715],[-111.14096,38.28719],[-111.14097,38.28719],[-111.14102,38.28721],[-111.14109,38.28723],[-111.14121,38.28727],[-111.14131,38.28729],[-111.1414,38.28731],[-111.14141,38.28731],[-111.14156,38.28733],[-111.14162,38.28734],[-111.14169,38.28735],[-111.14177,38.28735],[-111.14187,38.28735],[-111.14196,38.28736],[-111.14205,38.28736],[-111.14212,38.28736],[-111.14217,38.28735],[-111.14224,38.28735],[-111.14236,38.28734],[-111.1425,38.28732],[-111.14259,38.2873],[-111.14267,38.28729],[-111.14276,38.28726],[-111.1429,38.28722],[-111.143,38.28719],[-111.1431,38.28715],[-111.14318,38.28712],[-111.14321,38.28711],[-111.14332,38.28706],[-111.14337,38.28703],[-111.14341,38.28701],[-111.14353,38.28694],[-111.14361,38.28689],[-111.14367,38.28685],[-111.14379,38.28677],[-111.1439,38.28669],[-111.14457,38.2862],[-111.14474,38.28608],[-111.14501,38.28588],[-111.14615,38.28505],[-111.14642,38.28485],[-111.14646,38.28483],[-111.14665,38.2847],[-111.14679,38.28461],[-111.14692,38.28454],[-111.14704,38.28448],[-111.14715,38.28443],[-111.14726,38.28438],[-111.14735,38.28435],[-111.14744,38.28432],[-111.14754,38.28429],[-111.14758,38.28428],[-111.14763,38.28427],[-111.14774,38.28425],[-111.14779,38.28424],[-111.1478,38.28424],[-111.14786,38.28423],[-111.14799,38.28421],[-111.14802,38.28421],[-111.1481,38.2842],[-111.14821,38.28419],[-111.14825,38.28419],[-111.14832,38.28419],[-111.14845,38.2842],[-111.14858,38.28421],[-111.14871,38.28422],[-111.14872,38.28422],[-111.14881,38.28423],[-111.14892,38.28425],[-111.14907,38.28428],[-111.14929,38.28432],[-111.1496,38.28439],[-111.14969,38.28441],[-111.14982,38.28444],[-111.15018,38.28453],[-111.15069,38.28464],[-111.1507,38.28465],[-111.15114,38.28475],[-111.15145,38.28482],[-111.15201,38.28495],[-111.15213,38.28498],[-111.15238,38.28504],[-111.15255,38.28509],[-111.15273,38.28515],[-111.15284,38.28519],[-111.15294,38.28523],[-111.15304,38.28528],[-111.15307,38.28529],[-111.15314,38.28533],[-111.15325,38.28539],[-111.15331,38.28543],[-111.15341,38.2855],[-111.15348,38.28555],[-111.15354,38.28561],[-111.15359,38.28565],[-111.15361,38.28566],[-111.15367,38.28573],[-111.15373,38.28579],[-111.15379,38.28586],[-111.1539,38.28601],[-111.15399,38.28614],[-111.15405,38.28624],[-111.15415,38.2864],[-111.15434,38.28671],[-111.15443,38.28686],[-111.15448,38.28693],[-111.15453,38.287],[-111.15458,38.28705],[-111.15465,38.28712],[-111.15472,38.28718],[-111.15478,38.28722],[-111.15485,38.28727],[-111.1549,38.28731],[-111.15491,38.28732],[-111.15497,38.28736],[-111.15507,38.2874],[-111.1551,38.28741],[-111.15514,38.28743],[-111.15521,38.28745],[-111.15531,38.28747],[-111.15536,38.28748],[-111.15545,38.2875],[-111.15556,38.28751],[-111.15566,38.28752],[-111.15577,38.28753],[-111.15578,38.28753],[-111.15589,38.28753],[-111.15597,38.28753],[-111.15611,38.28753],[-111.15622,38.28753],[-111.15651,38.28753],[-111.15691,38.28753],[-111.15698,38.28753],[-111.15717,38.28753],[-111.15736,38.28753],[-111.15751,38.28753],[-111.15764,38.28754],[-111.1578,38.28756],[-111.15789,38.28757],[-111.15801,38.28759],[-111.15804,38.28759],[-111.15812,38.28761],[-111.15826,38.28765],[-111.15833,38.28767],[-111.1584,38.2877],[-111.15852,38.28775],[-111.15858,38.28778],[-111.15866,38.28782],[-111.15874,38.28786],[-111.1588,38.28789],[-111.15884,38.28792],[-111.15885,38.28793],[-111.15896,38.28801],[-111.15921,38.28819],[-111.15948,38.28841],[-111.15982,38.28869],[-111.16016,38.28894],[-111.16025,38.289],[-111.16032,38.28906],[-111.16033,38.28906],[-111.16046,38.28916],[-111.16056,38.28923],[-111.16067,38.28929],[-111.16069,38.2893],[-111.16073,38.28932],[-111.16078,38.28935],[-111.16085,38.28937],[-111.16094,38.2894],[-111.16101,38.28942],[-111.16107,38.28943],[-111.16109,38.28943],[-111.1611,38.28943],[-111.16114,38.28943],[-111.1612,38.28944],[-111.16127,38.28944],[-111.16132,38.28944],[-111.1614,38.28944],[-111.16145,38.28943],[-111.16151,38.28942],[-111.1616,38.28941],[-111.16165,38.28939],[-111.16171,38.28938],[-111.16176,38.28936],[-111.16179,38.28935],[-111.16183,38.28933],[-111.16188,38.2893],[-111.16194,38.28927],[-111.16198,38.28924],[-111.16203,38.2892],[-111.16207,38.28917],[-111.16211,38.28913],[-111.16216,38.28908],[-111.16219,38.28904],[-111.16225,38.28896],[-111.16231,38.28888],[-111.16237,38.28879],[-111.16247,38.28866],[-111.16251,38.28859],[-111.16257,38.28852],[-111.16268,38.28835],[-111.16268,38.28834],[-111.16276,38.28822],[-111.16282,38.28812],[-111.16288,38.28802],[-111.16288,38.28801],[-111.16294,38.28791],[-111.16297,38.28786],[-111.16299,38.28783],[-111.16304,38.28773],[-111.16306,38.2877],[-111.16311,38.2876],[-111.16316,38.28753],[-111.16318,38.28749],[-111.16325,38.28736],[-111.16327,38.28733],[-111.16334,38.2872],[-111.16337,38.28716],[-111.16342,38.28707],[-111.16349,38.28696],[-111.16355,38.28685],[-111.16363,38.28673],[-111.16369,38.28664],[-111.16374,38.28655],[-111.16382,38.28643],[-111.16388,38.28633],[-111.16393,38.28625],[-111.16393,38.28623],[-111.16398,38.28614],[-111.16403,38.28605],[-111.16406,38.28598],[-111.16408,38.28592],[-111.16411,38.28584],[-111.16414,38.28577],[-111.16416,38.2857],[-111.16419,38.28558],[-111.1642,38.28554],[-111.16421,38.28548],[-111.16422,38.28538],[-111.16423,38.28536],[-111.16423,38.28532],[-111.16423,38.28526],[-111.16424,38.28516],[-111.16424,38.28501],[-111.16424,38.28488],[-111.16424,38.28482],[-111.16424,38.28466],[-111.16424,38.2844],[-111.16425,38.28432],[-111.16425,38.28428],[-111.16425,38.28427],[-111.16425,38.28423],[-111.16426,38.28416],[-111.16427,38.28411],[-111.16429,38.28405],[-111.16431,38.28396],[-111.16435,38.28388],[-111.16437,38.28383],[-111.1644,38.28378],[-111.16444,38.28372],[-111.16448,38.28367],[-111.1645,38.28364],[-111.16453,38.28361],[-111.16456,38.28358],[-111.16461,38.28353],[-111.16468,38.28347],[-111.16473,38.28343],[-111.16479,38.28339],[-111.16483,38.28336],[-111.16485,38.28335],[-111.16491,38.28331],[-111.16496,38.28329],[-111.16504,38.28325],[-111.16512,38.28323],[-111.1652,38.2832],[-111.16529,38.28318],[-111.16535,38.28316],[-111.16544,38.28315],[-111.16552,38.28314],[-111.16564,38.28313],[-111.16571,38.28313],[-111.16578,38.28313],[-111.16585,38.28314],[-111.16597,38.28315],[-111.16605,38.28316],[-111.16614,38.28318],[-111.16627,38.2832],[-111.16643,38.28324],[-111.16681,38.28333],[-111.16703,38.28339],[-111.1672,38.28343],[-111.16746,38.28349],[-111.16756,38.28351],[-111.16767,38.28353],[-111.16777,38.28354],[-111.16786,38.28354],[-111.16795,38.28355],[-111.16805,38.28355],[-111.16815,38.28355],[-111.16822,38.28354],[-111.1683,38.28354],[-111.1684,38.28353],[-111.16851,38.28351],[-111.16862,38.28349],[-111.16872,38.28346],[-111.16879,38.28345],[-111.16888,38.28342],[-111.16902,38.28337],[-111.16904,38.28336],[-111.16912,38.28333],[-111.16922,38.28328],[-111.16926,38.28327],[-111.16933,38.28323],[-111.16937,38.28321],[-111.16942,38.28317],[-111.16955,38.2831],[-111.16987,38.2829],[-111.17013,38.28273],[-111.17079,38.28231],[-111.17084,38.28228],[-111.17118,38.28206],[-111.17121,38.28205],[-111.17126,38.28201],[-111.17136,38.28195],[-111.17145,38.28189],[-111.17182,38.28167],[-111.17202,38.28156],[-111.17212,38.2815],[-111.1722,38.28147],[-111.1723,38.28142],[-111.17239,38.28139],[-111.17245,38.28137],[-111.17254,38.28134],[-111.1726,38.28133],[-111.17269,38.28131],[-111.17275,38.28129],[-111.17279,38.28128],[-111.17286,38.28127],[-111.17292,38.28126],[-111.17297,38.28125],[-111.17305,38.28124],[-111.17314,38.28123],[-111.1732,38.28123],[-111.17329,38.28122],[-111.17335,38.28122],[-111.17347,38.28122],[-111.17356,38.28122],[-111.17367,38.28123],[-111.17374,38.28124],[-111.17384,38.28125],[-111.17395,38.28127],[-111.17402,38.28128],[-111.17413,38.2813],[-111.17423,38.28133],[-111.17432,38.28136],[-111.17434,38.28136],[-111.1744,38.28138],[-111.1745,38.28142],[-111.17453,38.28143],[-111.17457,38.28144],[-111.17466,38.28148],[-111.17473,38.28152],[-111.17478,38.28154],[-111.17487,38.28158],[-111.17487,38.28159],[-111.17498,38.28165],[-111.17508,38.28172],[-111.17519,38.28179],[-111.17529,38.28186],[-111.17536,38.28191],[-111.17552,38.28203],[-111.17564,38.28212],[-111.17577,38.28222],[-111.17587,38.28229],[-111.17611,38.28246],[-111.17613,38.28247],[-111.17625,38.28256],[-111.17629,38.28258],[-111.17634,38.28261],[-111.17644,38.28267],[-111.17648,38.28268],[-111.17652,38.2827],[-111.1766,38.28273],[-111.17668,38.28276],[-111.17669,38.28276],[-111.17676,38.28278],[-111.17684,38.2828],[-111.17692,38.28281],[-111.177,38.28282],[-111.17706,38.28282],[-111.17708,38.28282],[-111.17714,38.28282],[-111.17722,38.28282],[-111.17726,38.28282],[-111.1773,38.28281],[-111.17736,38.28281],[-111.1774,38.2828],[-111.17744,38.28279],[-111.17752,38.28277],[-111.17758,38.28276],[-111.17766,38.28273],[-111.17773,38.2827],[-111.17778,38.28267],[-111.17781,38.28266],[-111.17785,38.28264],[-111.17793,38.28259],[-111.17796,38.28257],[-111.17797,38.28257],[-111.17803,38.28252],[-111.17808,38.28247],[-111.17815,38.28241],[-111.1782,38.28235],[-111.17825,38.28228],[-111.17827,38.28225],[-111.1783,38.28221],[-111.17836,38.28211],[-111.17845,38.28197],[-111.17855,38.2818],[-111.17861,38.28169],[-111.17864,38.28164],[-111.1788,38.28135],[-111.17889,38.2812],[-111.17896,38.2811],[-111.17903,38.281],[-111.17913,38.28088],[-111.1793,38.28069],[-111.17937,38.28062],[-111.1795,38.28052],[-111.17955,38.28047],[-111.17967,38.28038],[-111.17977,38.28031],[-111.17978,38.28031],[-111.17989,38.28023],[-111.17995,38.28019],[-111.18,38.28017],[-111.18008,38.28012],[-111.18014,38.28009],[-111.18027,38.28003],[-111.18035,38.28],[-111.1804,38.27997],[-111.18046,38.27995],[-111.18057,38.27992],[-111.18068,38.27988],[-111.18076,38.27986],[-111.18079,38.27985],[-111.18091,38.27982],[-111.18092,38.27981],[-111.18098,38.2798],[-111.18101,38.27979],[-111.18107,38.27978],[-111.18127,38.27974],[-111.1814,38.27972],[-111.18149,38.2797],[-111.1821,38.2796],[-111.18232,38.27956],[-111.18325,38.27941],[-111.18373,38.27934],[-111.18389,38.27931],[-111.18391,38.2793],[-111.18404,38.27928],[-111.18411,38.27927],[-111.18429,38.27924],[-111.18443,38.27922],[-111.18466,38.27917],[-111.18484,38.27914],[-111.18496,38.27911],[-111.18506,38.27909],[-111.18512,38.27907],[-111.1852,38.27904],[-111.18534,38.279],[-111.18543,38.27897],[-111.18548,38.27895],[-111.18563,38.27889],[-111.18577,38.27883],[-111.18593,38.27876],[-111.1862,38.27864],[-111.18643,38.27853],[-111.18657,38.27847],[-111.18663,38.27844],[-111.18665,38.27843],[-111.18695,38.27829],[-111.18732,38.27811],[-111.18741,38.27807],[-111.18771,38.27793],[-111.18774,38.27791],[-111.18796,38.27782],[-111.18812,38.27774],[-111.1883,38.27766],[-111.18846,38.2776],[-111.18861,38.27755],[-111.18871,38.27752],[-111.18876,38.27751],[-111.18883,38.27749],[-111.18896,38.27746],[-111.18905,38.27744],[-111.18907,38.27744],[-111.18917,38.27742],[-111.18939,38.27739],[-111.18965,38.27736],[-111.18982,38.27736],[-111.19005,38.27736],[-111.19031,38.27738],[-111.19048,38.27741],[-111.19064,38.27744],[-111.1908,38.27747],[-111.191,38.27753],[-111.19107,38.27755],[-111.1912,38.27759],[-111.19137,38.27765],[-111.19146,38.27769],[-111.19164,38.27777],[-111.19166,38.27778],[-111.19181,38.27786],[-111.19194,38.27794],[-111.19206,38.27802],[-111.19218,38.27811],[-111.1922,38.27812],[-111.19248,38.27836],[-111.1926,38.27846],[-111.19273,38.2786],[-111.19289,38.27877],[-111.19309,38.27898],[-111.19323,38.27915],[-111.19342,38.27941],[-111.19357,38.27962],[-111.19367,38.27978],[-111.19387,38.28013],[-111.19404,38.28048],[-111.19414,38.28073],[-111.19423,38.28099],[-111.19429,38.28121],[-111.19435,38.28142],[-111.19439,38.28166],[-111.19448,38.28224],[-111.19451,38.28255],[-111.19451,38.28259],[-111.19453,38.28273],[-111.19453,38.28281],[-111.19461,38.28348],[-111.19466,38.28385],[-111.19467,38.284],[-111.1947,38.28415],[-111.19472,38.28425],[-111.19475,38.28433],[-111.19478,38.28442],[-111.19482,38.28451],[-111.19487,38.28459],[-111.19491,38.28466],[-111.19496,38.28472],[-111.195,38.28477],[-111.19506,38.28483],[-111.19508,38.28484],[-111.19512,38.28488],[-111.19517,38.28492],[-111.19524,38.28496],[-111.1953,38.285],[-111.19538,38.28504],[-111.19545,38.28507],[-111.19553,38.2851],[-111.19562,38.28513],[-111.19571,38.28516],[-111.1958,38.28518],[-111.19589,38.28519],[-111.19598,38.28521],[-111.19606,38.28521],[-111.19614,38.28521],[-111.19623,38.28521],[-111.19631,38.2852],[-111.19638,38.2852],[-111.19646,38.28518],[-111.19654,38.28516],[-111.19665,38.28513],[-111.19672,38.28511],[-111.19673,38.28511],[-111.19681,38.28508],[-111.19688,38.28505],[-111.19696,38.28501],[-111.19704,38.28496],[-111.19712,38.28491],[-111.19721,38.28485],[-111.19729,38.28478],[-111.19739,38.28469],[-111.19775,38.28436],[-111.19797,38.28416],[-111.19807,38.28407],[-111.19818,38.28399],[-111.19828,38.28392],[-111.1984,38.28385],[-111.19854,38.28377],[-111.19857,38.28376],[-111.1987,38.2837],[-111.19879,38.28367],[-111.19884,38.28365],[-111.19895,38.28361],[-111.19898,38.2836],[-111.19912,38.28357],[-111.19927,38.28353],[-111.19941,38.28351],[-111.19961,38.28349],[-111.19986,38.28348],[-111.19997,38.28348],[-111.20008,38.28348],[-111.20019,38.28349],[-111.20034,38.28351],[-111.20053,38.28353],[-111.20086,38.2836],[-111.20118,38.28366],[-111.2012,38.28367],[-111.20124,38.28367],[-111.20193,38.28381],[-111.20222,38.28385],[-111.2024,38.28385],[-111.20257,38.28386],[-111.20272,38.28385],[-111.20277,38.28384],[-111.20282,38.28384],[-111.20286,38.28383],[-111.20312,38.28379],[-111.20355,38.28372],[-111.20367,38.28369],[-111.20413,38.2836],[-111.20446,38.28357],[-111.2046,38.28356],[-111.20474,38.28356],[-111.2049,38.28356],[-111.20507,38.28358],[-111.20523,38.2836],[-111.20543,38.28363],[-111.20566,38.28368],[-111.20595,38.28376],[-111.20596,38.28376],[-111.2063,38.28383],[-111.20658,38.28388],[-111.20663,38.28388],[-111.20679,38.28389],[-111.20681,38.28389],[-111.20686,38.28389],[-111.20704,38.28389],[-111.20732,38.28387],[-111.20751,38.28383],[-111.2078,38.28377],[-111.20826,38.28365],[-111.20871,38.28352],[-111.209,38.28346],[-111.20925,38.2834],[-111.20954,38.28335],[-111.20984,38.28333],[-111.20992,38.28333],[-111.21025,38.28332],[-111.21103,38.28337],[-111.21134,38.28339],[-111.21168,38.28341],[-111.21191,38.2834],[-111.21206,38.28339],[-111.21228,38.28335],[-111.21248,38.2833],[-111.21264,38.28324],[-111.21282,38.28316],[-111.213,38.28306],[-111.21314,38.28297],[-111.21336,38.28281],[-111.21339,38.28279],[-111.21356,38.28267],[-111.2137,38.28257],[-111.21377,38.28251],[-111.21393,38.28241],[-111.21403,38.28234],[-111.21422,38.28224],[-111.21435,38.28218],[-111.21456,38.28211],[-111.21465,38.28208],[-111.2147,38.28207],[-111.21495,38.28202],[-111.2152,38.282],[-111.21549,38.282],[-111.21555,38.28201],[-111.21579,38.28203],[-111.21603,38.28209],[-111.21604,38.28209],[-111.21631,38.28216],[-111.21651,38.28224],[-111.21673,38.28234],[-111.21689,38.28242],[-111.21705,38.28251],[-111.21721,38.2826],[-111.21766,38.28287],[-111.21799,38.2831],[-111.21823,38.28327],[-111.21846,38.28345],[-111.21876,38.2837],[-111.21883,38.28376],[-111.21899,38.28391],[-111.21924,38.28416],[-111.21947,38.28441],[-111.21948,38.28442],[-111.21996,38.28498],[-111.22021,38.28527],[-111.22055,38.28569],[-111.2211,38.28637],[-111.22156,38.28693],[-111.2216,38.28697],[-111.22189,38.28733],[-111.22219,38.28769],[-111.22229,38.28782],[-111.22235,38.28789],[-111.22241,38.28795],[-111.22248,38.28803],[-111.22256,38.2881],[-111.22263,38.28816],[-111.22269,38.2882],[-111.22277,38.28825],[-111.22286,38.2883],[-111.22295,38.28834],[-111.22304,38.28837],[-111.22312,38.28839],[-111.22321,38.28841],[-111.22329,38.28843],[-111.22338,38.28845],[-111.22348,38.28845],[-111.22357,38.28846],[-111.22368,38.28845],[-111.22378,38.28844],[-111.22391,38.28842],[-111.22402,38.2884],[-111.22415,38.28837],[-111.22428,38.28834],[-111.22472,38.28819],[-111.22473,38.28819],[-111.2249,38.28813],[-111.22526,38.28802],[-111.22558,38.28795],[-111.22587,38.28789],[-111.22597,38.28788],[-111.22613,38.28788],[-111.22631,38.28788],[-111.22648,38.28789],[-111.22653,38.2879],[-111.22668,38.28792],[-111.22671,38.28792],[-111.22686,38.28795],[-111.22704,38.288],[-111.22722,38.28807],[-111.2274,38.28813],[-111.22753,38.28818],[-111.22773,38.28827],[-111.22802,38.28838],[-111.2286,38.2886],[-111.22876,38.28865],[-111.22888,38.28868],[-111.22908,38.28873],[-111.22927,38.28876],[-111.22941,38.28878],[-111.22961,38.28879],[-111.22972,38.2888],[-111.2298,38.2888],[-111.22997,38.2888],[-111.23017,38.2888],[-111.23042,38.28879],[-111.23086,38.28877],[-111.23089,38.28877],[-111.23126,38.28875],[-111.23132,38.28874],[-111.23173,38.28873],[-111.23213,38.28872],[-111.23223,38.28872],[-111.23243,38.28872],[-111.23246,38.28873],[-111.23262,38.28873],[-111.23303,38.28876],[-111.23358,38.28881],[-111.2336,38.28882],[-111.23383,38.28884],[-111.23408,38.28887],[-111.23442,38.28891],[-111.23451,38.28892],[-111.2348,38.28895],[-111.2349,38.28896],[-111.235,38.28897],[-111.23509,38.28897],[-111.23519,38.28898],[-111.23528,38.28898],[-111.23536,38.28898],[-111.23544,38.28898],[-111.23551,38.28897],[-111.23559,38.28897],[-111.23567,38.28896],[-111.23577,38.28895],[-111.23586,38.28894],[-111.23595,38.28893],[-111.23605,38.28891],[-111.23616,38.28889],[-111.23625,38.28887],[-111.23635,38.28885],[-111.23658,38.28879],[-111.23677,38.28872],[-111.23691,38.28866],[-111.23718,38.28854],[-111.23804,38.28809],[-111.23832,38.28798],[-111.23852,38.2879],[-111.23864,38.28787],[-111.23894,38.28778],[-111.23895,38.28778],[-111.23911,38.28775],[-111.23918,38.28774],[-111.23928,38.28772],[-111.23956,38.28768],[-111.23968,38.28767],[-111.23982,38.28765],[-111.23993,38.28765],[-111.24007,38.28765],[-111.2402,38.28765],[-111.24034,38.28765],[-111.24047,38.28766],[-111.24058,38.28767],[-111.24069,38.28768],[-111.24086,38.28771],[-111.24104,38.28774],[-111.24119,38.28777],[-111.2418,38.28789],[-111.24185,38.28789],[-111.242,38.28792],[-111.24215,38.28794],[-111.2423,38.28795],[-111.24244,38.28796],[-111.24257,38.28796],[-111.24273,38.28796],[-111.24281,38.28796],[-111.24287,38.28795],[-111.243,38.28794],[-111.24311,38.28793],[-111.24321,38.28792],[-111.24331,38.2879],[-111.24341,38.28788],[-111.24352,38.28786],[-111.24362,38.28784],[-111.24398,38.28775],[-111.24487,38.28753],[-111.24508,38.28749],[-111.24528,38.28746],[-111.24576,38.28741],[-111.2458,38.28741],[-111.24601,38.28741],[-111.24632,38.28741],[-111.24667,38.28743],[-111.24669,38.28744],[-111.24696,38.28747],[-111.24721,38.28751],[-111.24753,38.28758],[-111.24782,38.28765],[-111.24801,38.28771],[-111.24828,38.28781],[-111.24841,38.28786],[-111.24847,38.28789],[-111.24854,38.28791],[-111.24884,38.28806],[-111.24938,38.28834],[-111.2498,38.28856],[-111.25039,38.28886],[-111.25059,38.28896],[-111.25077,38.28905],[-111.25113,38.28922],[-111.25132,38.2893],[-111.25156,38.28938],[-111.25159,38.28939],[-111.25195,38.28951],[-111.25202,38.28952],[-111.25223,38.28958],[-111.25239,38.28963],[-111.25267,38.28968],[-111.25283,38.28972],[-111.25289,38.28973],[-111.25319,38.28977],[-111.25354,38.28981],[-111.2538,38.28983],[-111.25398,38.28984],[-111.25403,38.28984],[-111.25448,38.28984],[-111.25494,38.28983],[-111.25521,38.28983],[-111.25556,38.28985],[-111.25586,38.28989],[-111.25591,38.2899],[-111.25608,38.28994],[-111.25609,38.28994],[-111.25628,38.29001],[-111.25648,38.29008],[-111.25649,38.29009],[-111.25661,38.29014],[-111.25674,38.29021],[-111.25685,38.29027],[-111.25698,38.29035],[-111.25739,38.29064],[-111.25757,38.29075],[-111.2578,38.2909],[-111.25791,38.29097],[-111.25793,38.29098],[-111.25803,38.29104],[-111.25825,38.29114],[-111.25836,38.29118],[-111.25846,38.29121],[-111.25861,38.29125],[-111.25874,38.29129],[-111.25875,38.29129],[-111.2589,38.29132],[-111.25907,38.29134],[-111.25928,38.29137],[-111.25952,38.29139],[-111.26011,38.29144],[-111.26059,38.29149],[-111.26087,38.29151],[-111.26106,38.29155],[-111.26123,38.29158],[-111.26169,38.29175],[-111.26198,38.29188],[-111.26281,38.29225],[-111.2636,38.2926],[-111.264,38.29278],[-111.2642,38.29287],[-111.2646,38.29304],[-111.26464,38.29306],[-111.2648,38.29313],[-111.26496,38.29321],[-111.26515,38.2933],[-111.26519,38.29333],[-111.26571,38.29361],[-111.26592,38.29373],[-111.26619,38.29388],[-111.2665,38.29405],[-111.26666,38.29414],[-111.26669,38.29415],[-111.26706,38.29436],[-111.2674,38.29455],[-111.26741,38.29456],[-111.26743,38.29457],[-111.26773,38.29474],[-111.26798,38.29489],[-111.26813,38.29499],[-111.26816,38.29501],[-111.26821,38.29504],[-111.26872,38.29538],[-111.26902,38.29561],[-111.2691,38.29567],[-111.26915,38.29571],[-111.26918,38.29573],[-111.26941,38.29593],[-111.26949,38.296],[-111.26962,38.29611],[-111.26965,38.29613],[-111.26989,38.29633],[-111.26996,38.29639],[-111.27009,38.2965],[-111.27012,38.29652],[-111.2702,38.29659],[-111.27072,38.29706],[-111.27101,38.29732],[-111.27102,38.29733],[-111.27115,38.29745],[-111.27118,38.29747],[-111.27145,38.29771],[-111.27164,38.29787],[-111.27176,38.29798],[-111.27179,38.298],[-111.27225,38.2984],[-111.27238,38.29852],[-111.2724,38.29854],[-111.27271,38.2988],[-111.27302,38.29908],[-111.27345,38.29945],[-111.27348,38.29947],[-111.27363,38.29961],[-111.27378,38.29974],[-111.27422,38.30012],[-111.27423,38.30012],[-111.27424,38.30014],[-111.27439,38.30028],[-111.27454,38.30041],[-111.27481,38.30066],[-111.27482,38.30066],[-111.27484,38.30069],[-111.27499,38.30082],[-111.27526,38.30108],[-111.27556,38.30139],[-111.2757,38.30153],[-111.27581,38.30165],[-111.27583,38.30167],[-111.27597,38.30182],[-111.27607,38.30194],[-111.27635,38.30227],[-111.27646,38.30239],[-111.27648,38.30241],[-111.27661,38.30256],[-111.27674,38.30271],[-111.27687,38.30286],[-111.27694,38.30294],[-111.27765,38.30375],[-111.27778,38.30389],[-111.27789,38.30402],[-111.27792,38.30404],[-111.27805,38.30419],[-111.27822,38.30439],[-111.27844,38.30463],[-111.27896,38.30523],[-111.27924,38.30555],[-111.27935,38.30567],[-111.27959,38.30594],[-111.27961,38.30597],[-111.27974,38.30612],[-111.27977,38.30616],[-111.27998,38.30637],[-111.28002,38.3064],[-111.28014,38.30651],[-111.28017,38.30654],[-111.28019,38.30656],[-111.28033,38.30666],[-111.28038,38.3067],[-111.2805,38.30679],[-111.28066,38.3069],[-111.28093,38.30707],[-111.281,38.30711],[-111.28126,38.30724],[-111.28149,38.30735],[-111.28173,38.30743],[-111.28179,38.30745],[-111.28207,38.30755],[-111.28235,38.30762],[-111.28267,38.3077],[-111.28289,38.30774],[-111.28313,38.30777],[-111.28326,38.30779],[-111.28349,38.30783],[-111.28371,38.30786],[-111.2838,38.30787],[-111.28507,38.30806],[-111.28579,38.30816],[-111.28664,38.30829],[-111.28732,38.30838],[-111.28739,38.30839],[-111.28756,38.30841],[-111.28778,38.30842],[-111.28786,38.30843],[-111.28829,38.30845],[-111.28873,38.30843],[-111.28911,38.30841],[-111.28942,38.30837],[-111.28995,38.30829],[-111.29005,38.30827],[-111.29019,38.30825],[-111.29067,38.30817],[-111.29095,38.30815],[-111.29109,38.30813],[-111.29135,38.30812],[-111.29141,38.30812],[-111.29156,38.30811],[-111.29164,38.30811],[-111.2918,38.30811],[-111.29187,38.30811],[-111.29197,38.30811],[-111.29209,38.30811],[-111.2921,38.30811],[-111.29232,38.30813],[-111.29239,38.30813],[-111.2926,38.30815],[-111.2928,38.30817],[-111.293,38.3082],[-111.29317,38.30823],[-111.29323,38.30824],[-111.29345,38.30827],[-111.29362,38.3083],[-111.29368,38.30831],[-111.2939,38.30835],[-111.29413,38.30838],[-111.29414,38.30839],[-111.29435,38.30842],[-111.29457,38.30846],[-111.2948,38.3085],[-111.29502,38.30854],[-111.29525,38.30858],[-111.2953,38.30859],[-111.29547,38.30862],[-111.29579,38.30867],[-111.2963,38.30876],[-111.29653,38.3088],[-111.29671,38.30883],[-111.2968,38.30885],[-111.2969,38.30887],[-111.29706,38.30892],[-111.29718,38.30895],[-111.29723,38.30897],[-111.29737,38.30902],[-111.29739,38.30902],[-111.29759,38.30911],[-111.29761,38.30912],[-111.29783,38.30923],[-111.29797,38.30932],[-111.29798,38.30932],[-111.29814,38.30944],[-111.29818,38.30946],[-111.29828,38.30954],[-111.29833,38.30957],[-111.29839,38.30963],[-111.29851,38.30974],[-111.29855,38.30979],[-111.29859,38.30983],[-111.2986,38.30984],[-111.2987,38.30997],[-111.29872,38.30999],[-111.29878,38.31006],[-111.29884,38.31014],[-111.29884,38.31015],[-111.29897,38.31035],[-111.29916,38.31062],[-111.29926,38.31078],[-111.29935,38.31091],[-111.29954,38.31118],[-111.29959,38.31125],[-111.29971,38.31141],[-111.29981,38.31154],[-111.29983,38.31156],[-111.29997,38.31172],[-111.30006,38.31181],[-111.3001,38.31186],[-111.30017,38.31193],[-111.30024,38.312],[-111.30031,38.31206],[-111.30039,38.31213],[-111.30046,38.31219],[-111.30055,38.31226],[-111.30057,38.31228],[-111.30078,38.31244],[-111.30088,38.31251],[-111.30105,38.31263],[-111.3011,38.31267],[-111.30122,38.31275],[-111.30138,38.31288],[-111.30142,38.3129],[-111.30178,38.31317],[-111.30219,38.31346],[-111.30251,38.3137],[-111.30273,38.31386],[-111.30299,38.31405],[-111.3034,38.31435],[-111.30357,38.31447],[-111.30373,38.31459],[-111.30381,38.31465],[-111.30423,38.31495],[-111.30424,38.31496],[-111.30441,38.31508],[-111.30444,38.3151],[-111.30446,38.31512],[-111.30485,38.3154],[-111.30486,38.31541],[-111.30503,38.31553],[-111.3052,38.31565],[-111.30526,38.3157],[-111.30536,38.31578],[-111.30546,38.31584],[-111.30556,38.31592],[-111.30567,38.316],[-111.3057,38.31602],[-111.30577,38.31606],[-111.30588,38.31613],[-111.30601,38.31621],[-111.30606,38.31624],[-111.30624,38.31633],[-111.30625,38.31634],[-111.30645,38.31644],[-111.30646,38.31644],[-111.30664,38.31652],[-111.30688,38.31662],[-111.30706,38.31669],[-111.30707,38.31669],[-111.30726,38.31676],[-111.30734,38.31679],[-111.30761,38.31689],[-111.30793,38.31699],[-111.3081,38.31705],[-111.30866,38.31724],[-111.30874,38.31726],[-111.30913,38.31739],[-111.30932,38.31746],[-111.30984,38.31764],[-111.30985,38.31764],[-111.31083,38.31798],[-111.31131,38.31814],[-111.31173,38.31828],[-111.31215,38.31843],[-111.31236,38.3185],[-111.31321,38.31879],[-111.31358,38.31891],[-111.31384,38.319],[-111.31552,38.31957],[-111.3157,38.31963],[-111.31573,38.31964],[-111.31615,38.31978],[-111.31636,38.31986],[-111.31693,38.32005],[-111.3172,38.32014],[-111.31765,38.3203],[-111.31783,38.32036],[-111.31806,38.32043],[-111.31827,38.3205],[-111.31931,38.32086],[-111.31952,38.32093],[-111.32029,38.32119],[-111.32099,38.32142],[-111.32104,38.32144],[-111.32118,38.32148],[-111.32121,38.32149],[-111.32132,38.32151],[-111.32148,38.32156],[-111.32164,38.32159],[-111.32179,38.32162],[-111.32187,38.32164],[-111.3219,38.32164],[-111.32204,38.32167],[-111.32216,38.32168],[-111.32225,38.3217],[-111.32239,38.32171],[-111.32259,38.32173],[-111.32286,38.32175],[-111.323,38.32176],[-111.32316,38.32177],[-111.32322,38.32178],[-111.3235,38.3218],[-111.32385,38.32182],[-111.32413,38.32184],[-111.32414,38.32184],[-111.32444,38.32186],[-111.32477,38.32188],[-111.32483,38.32188],[-111.32503,38.32189],[-111.32506,38.32189],[-111.32527,38.32191],[-111.32529,38.32191],[-111.32545,38.32192],[-111.32561,38.32193],[-111.32566,38.32194],[-111.32571,38.32194],[-111.32597,38.32196],[-111.32598,38.32196],[-111.32613,38.32198],[-111.3262,38.32199],[-111.32628,38.32199],[-111.32636,38.322],[-111.32641,38.32201],[-111.32687,38.32206],[-111.32688,38.32206],[-111.32705,38.32209],[-111.3271,38.3221],[-111.32733,38.32213],[-111.32737,38.32214],[-111.32755,38.32216],[-111.32769,38.32218],[-111.32787,38.32221],[-111.32794,38.32222],[-111.328,38.32223],[-111.33003,38.32255],[-111.33041,38.32261],[-111.33048,38.32262],[-111.33093,38.32269],[-111.33107,38.32271],[-111.33115,38.32272],[-111.33174,38.32281],[-111.33221,38.32289],[-111.3325,38.32293],[-111.33255,38.32294],[-111.33273,38.32297],[-111.33282,38.32298],[-111.33291,38.32298],[-111.333,38.32299],[-111.3331,38.32299],[-111.33319,38.32299],[-111.33328,38.32299],[-111.33337,38.32298],[-111.33345,38.32297],[-111.33354,38.32296],[-111.33357,38.32296],[-111.33372,38.32293],[-111.33378,38.32292],[-111.33399,38.32287],[-111.33413,38.32283],[-111.33426,38.32279],[-111.33463,38.32266],[-111.33475,38.32262],[-111.33477,38.32261],[-111.33486,38.32258],[-111.335,38.32254],[-111.33519,38.32248],[-111.33538,38.32243],[-111.33544,38.32241],[-111.33551,38.3224],[-111.33566,38.32237],[-111.33579,38.32235],[-111.33592,38.32233],[-111.33606,38.32232],[-111.33607,38.32232],[-111.33608,38.32232],[-111.33619,38.32231],[-111.33627,38.32231],[-111.33646,38.3223],[-111.33688,38.32232],[-111.337,38.32233],[-111.33702,38.32233],[-111.33744,38.32237],[-111.33769,38.32239],[-111.33792,38.32241],[-111.33816,38.32243],[-111.33957,38.32255],[-111.3398,38.32257],[-111.34048,38.32263],[-111.34117,38.32269],[-111.34278,38.32283],[-111.34333,38.32288],[-111.34358,38.3229],[-111.34377,38.32292],[-111.3439,38.32294],[-111.34402,38.32295],[-111.34425,38.32299],[-111.34435,38.32301],[-111.3445,38.32303],[-111.34464,38.32306],[-111.34478,38.32309],[-111.34495,38.32313],[-111.34501,38.32314],[-111.34512,38.32317],[-111.34567,38.32331],[-111.34676,38.32358],[-111.34698,38.32363],[-111.34763,38.3238],[-111.35004,38.3244],[-111.35135,38.32472],[-111.35157,38.32478],[-111.35222,38.32494],[-111.35288,38.3251],[-111.35506,38.32565],[-111.35528,38.3257],[-111.35681,38.32608],[-111.35681,38.32609],[-111.35694,38.32612],[-111.35708,38.32614],[-111.35718,38.32616],[-111.35726,38.32618],[-111.35728,38.32618],[-111.35737,38.32619],[-111.35748,38.32621],[-111.35758,38.32621],[-111.35769,38.32622],[-111.35778,38.32622],[-111.35788,38.32622],[-111.35798,38.32622],[-111.35806,38.32622],[-111.35815,38.32621],[-111.35817,38.32621],[-111.35824,38.32621],[-111.35833,38.3262],[-111.3584,38.32619],[-111.35842,38.32619],[-111.35852,38.32617],[-111.35861,38.32616],[-111.35871,38.32614],[-111.35884,38.32611],[-111.35943,38.32594],[-111.3607,38.32558],[-111.36084,38.32555],[-111.36094,38.32552],[-111.36106,38.3255],[-111.36127,38.32545],[-111.36139,38.32542],[-111.36152,38.32539],[-111.36165,38.32537],[-111.36172,38.32537],[-111.36175,38.32536],[-111.3619,38.32536],[-111.36195,38.32536],[-111.36205,38.32536],[-111.36218,38.32537],[-111.3622,38.32537],[-111.36237,38.32538],[-111.3625,38.32541],[-111.36269,38.32545],[-111.36283,38.32549],[-111.36285,38.32549],[-111.36306,38.32556],[-111.36312,38.32558],[-111.36367,38.32581],[-111.36377,38.32585],[-111.36387,38.32589],[-111.36408,38.32598],[-111.36415,38.32601],[-111.36448,38.32614],[-111.36468,38.32623],[-111.3648,38.32628],[-111.36489,38.32631],[-111.36505,38.32637],[-111.36518,38.32641],[-111.36531,38.32645],[-111.36537,38.32646],[-111.36553,38.3265],[-111.36562,38.32651],[-111.36585,38.32653],[-111.36599,38.32653],[-111.3661,38.32654],[-111.36629,38.32653],[-111.36648,38.32652],[-111.36659,38.32651],[-111.36679,38.32649],[-111.36694,38.32646],[-111.36706,38.32642],[-111.36724,38.32636],[-111.36732,38.32633],[-111.36733,38.32633],[-111.36742,38.32629],[-111.36782,38.32612],[-111.36802,38.32602],[-111.36812,38.32598],[-111.36832,38.32589],[-111.36852,38.3258],[-111.36872,38.32572],[-111.36875,38.3257],[-111.36912,38.32554],[-111.37031,38.325],[-111.37051,38.32491],[-111.37071,38.32482],[-111.37111,38.32465],[-111.37131,38.32456],[-111.37211,38.3242],[-111.37306,38.32377],[-111.3733,38.32366],[-111.3739,38.3234],[-111.3741,38.32331],[-111.3745,38.32314],[-111.37545,38.32272],[-111.37625,38.32237],[-111.37645,38.32228],[-111.37685,38.32211],[-111.37744,38.32184],[-111.37765,38.32175],[-111.37824,38.32148],[-111.37844,38.32139],[-111.37964,38.32085],[-111.37976,38.3208],[-111.38023,38.32059],[-111.38024,38.32058],[-111.38063,38.32041],[-111.38086,38.32031],[-111.38148,38.32004],[-111.38171,38.31993],[-111.38186,38.31987],[-111.38204,38.31978],[-111.38242,38.31962],[-111.38284,38.31942],[-111.38285,38.31941],[-111.38307,38.3193],[-111.38317,38.31924],[-111.38322,38.3192],[-111.38335,38.31913],[-111.38359,38.31895],[-111.38376,38.31878],[-111.38384,38.3187],[-111.38388,38.31866],[-111.38395,38.31859],[-111.38397,38.31856],[-111.38406,38.31845],[-111.38411,38.31838],[-111.38413,38.31836],[-111.38416,38.31831],[-111.38419,38.31828],[-111.38422,38.31822],[-111.38429,38.31811],[-111.38437,38.31796],[-111.38446,38.31778],[-111.38458,38.31754],[-111.38474,38.31723],[-111.3848,38.31711],[-111.3849,38.3169],[-111.38507,38.31651],[-111.38526,38.31612],[-111.38543,38.31577],[-111.38558,38.31546],[-111.38575,38.31512],[-111.38579,38.31505],[-111.38583,38.31496],[-111.38592,38.31479],[-111.38609,38.31446],[-111.38617,38.31429],[-111.38632,38.314],[-111.38649,38.31364],[-111.38657,38.31346],[-111.38673,38.31313],[-111.3869,38.3128],[-111.38691,38.31277],[-111.38696,38.31266],[-111.38706,38.31246],[-111.38708,38.31242],[-111.38738,38.31179],[-111.38758,38.31139],[-111.38776,38.31102],[-111.38783,38.31089],[-111.388,38.31055],[-111.38816,38.31023],[-111.38821,38.31012],[-111.38824,38.31007],[-111.38827,38.31002],[-111.38831,38.30995],[-111.38833,38.3099],[-111.38838,38.30983],[-111.38849,38.30966],[-111.38856,38.30954],[-111.38856,38.30953],[-111.38866,38.3094],[-111.38873,38.30929],[-111.38879,38.30922],[-111.38882,38.30918],[-111.38891,38.30907],[-111.38896,38.309],[-111.38899,38.30896],[-111.38907,38.30886],[-111.38915,38.30877],[-111.38926,38.30865],[-111.3893,38.3086],[-111.38937,38.30852],[-111.38942,38.30847],[-111.38947,38.30842],[-111.38956,38.30833],[-111.38961,38.30828],[-111.38963,38.30827],[-111.38965,38.30824],[-111.38981,38.3081],[-111.38991,38.308],[-111.38997,38.30794],[-111.39006,38.30788],[-111.39016,38.30778],[-111.39021,38.30774],[-111.39039,38.3076],[-111.3905,38.30751],[-111.39066,38.30738],[-111.39079,38.30726],[-111.39082,38.30724],[-111.39095,38.30713],[-111.39103,38.30706],[-111.39124,38.30689],[-111.3913,38.30684],[-111.39133,38.30681],[-111.39145,38.30671],[-111.39158,38.30661],[-111.39164,38.30656],[-111.39176,38.30645],[-111.39187,38.30637],[-111.39193,38.30631],[-111.39198,38.30626],[-111.39204,38.30622],[-111.39208,38.30618],[-111.39211,38.30615],[-111.39212,38.30614],[-111.39219,38.30608],[-111.39224,38.30603],[-111.39229,38.30599],[-111.39236,38.30592],[-111.39241,38.30587],[-111.39246,38.30582],[-111.3925,38.30577],[-111.39255,38.30572],[-111.39259,38.30567],[-111.39261,38.30564],[-111.39265,38.30558],[-111.39268,38.30553],[-111.39271,38.3055],[-111.39274,38.30545],[-111.39279,38.30536],[-111.39281,38.30531],[-111.39284,38.30527],[-111.39286,38.30523],[-111.39288,38.30518],[-111.3929,38.30512],[-111.39293,38.30506],[-111.39297,38.30495],[-111.39299,38.30489],[-111.393,38.30484],[-111.39301,38.30479],[-111.39302,38.30475],[-111.39303,38.30469],[-111.39304,38.30465],[-111.39305,38.30459],[-111.39306,38.30454],[-111.39306,38.30448],[-111.39307,38.30442],[-111.39307,38.3044],[-111.39307,38.30434],[-111.39307,38.30425],[-111.39307,38.30424],[-111.39306,38.30412],[-111.39306,38.30406],[-111.39304,38.30396],[-111.39302,38.30388],[-111.39301,38.30382],[-111.39298,38.3037],[-111.39296,38.30365],[-111.39292,38.30353],[-111.39291,38.30351],[-111.39284,38.30336],[-111.39282,38.30331],[-111.39276,38.30319],[-111.39266,38.30299],[-111.39259,38.30286],[-111.39248,38.30264],[-111.39243,38.30252],[-111.39235,38.30235],[-111.39229,38.30223],[-111.39226,38.30219],[-111.3921,38.30185],[-111.39196,38.30156],[-111.39181,38.30125],[-111.39173,38.3011],[-111.39165,38.30092],[-111.39162,38.30084],[-111.39161,38.30082],[-111.39157,38.3007],[-111.39155,38.30056],[-111.39154,38.30043],[-111.39153,38.30027],[-111.39154,38.30013],[-111.39157,38.29999],[-111.39161,38.29989],[-111.39166,38.29978],[-111.39167,38.29974],[-111.39173,38.29963],[-111.39174,38.29961],[-111.3918,38.29952],[-111.39185,38.29945],[-111.39188,38.29941],[-111.39196,38.29931],[-111.39205,38.29922],[-111.39214,38.29914],[-111.39224,38.29906],[-111.39228,38.29904],[-111.39235,38.29899],[-111.39246,38.29893],[-111.39251,38.2989],[-111.39279,38.29875],[-111.39317,38.29858],[-111.39416,38.29812],[-111.39511,38.29767],[-111.39525,38.2976],[-111.39541,38.29753],[-111.39558,38.29746],[-111.39576,38.29739],[-111.39592,38.29734],[-111.39611,38.29729],[-111.39614,38.29729],[-111.39629,38.29726],[-111.39636,38.29724],[-111.39646,38.29723],[-111.39665,38.29721],[-111.39685,38.29719],[-111.39704,38.29719],[-111.39707,38.29719],[-111.39727,38.29719],[-111.39748,38.29721],[-111.39773,38.29724],[-111.39774,38.29724],[-111.39795,38.29729],[-111.39804,38.29731],[-111.39816,38.29734],[-111.39827,38.29737],[-111.39851,38.29746],[-111.39877,38.29757],[-111.39897,38.29768],[-111.39937,38.2979],[-111.3994,38.29792],[-111.39942,38.29793],[-111.39954,38.29801],[-111.39971,38.29811],[-111.39976,38.29814],[-111.39989,38.29821],[-111.39995,38.29824],[-111.40016,38.29836],[-111.40023,38.29839],[-111.40042,38.29848],[-111.40069,38.29859],[-111.40097,38.29868],[-111.40117,38.29874],[-111.40127,38.29876],[-111.40149,38.29882],[-111.40152,38.29882],[-111.4018,38.29888],[-111.40204,38.2989],[-111.40221,38.29891],[-111.40238,38.29892],[-111.40242,38.29892],[-111.40259,38.29893],[-111.40271,38.29893],[-111.40287,38.29894],[-111.40298,38.29894],[-111.40333,38.29894],[-111.40357,38.29894],[-111.40402,38.29894],[-111.40435,38.29894],[-111.40494,38.29895],[-111.40533,38.29895],[-111.4054,38.29895],[-111.40563,38.29895],[-111.40618,38.29896],[-111.40619,38.29896],[-111.40723,38.29896],[-111.40733,38.29896],[-111.40734,38.29896],[-111.40815,38.29897],[-111.40871,38.29897],[-111.40907,38.29897],[-111.40933,38.29898],[-111.41008,38.29898],[-111.41091,38.29899],[-111.41136,38.29899],[-111.41272,38.29899],[-111.41309,38.29899],[-111.41332,38.29899],[-111.41404,38.299],[-111.41415,38.299],[-111.4153,38.29901],[-111.41667,38.29902],[-111.41816,38.29903],[-111.41817,38.29903],[-111.41886,38.29903],[-111.41951,38.29903],[-111.42108,38.29904],[-111.42215,38.29904],[-111.42325,38.29904],[-111.42508,38.29905],[-111.42544,38.29905],[-111.42714,38.29905],[-111.42758,38.29905],[-111.42762,38.29905],[-111.42925,38.29906],[-111.42969,38.29906],[-111.42993,38.29906],[-111.43025,38.29906],[-111.43108,38.29906],[-111.4312,38.29906],[-111.43234,38.29906],[-111.43313,38.29906],[-111.43313,38.29906],[-111.43315,38.29912],[-111.43318,38.29917],[-111.43323,38.29922],[-111.43326,38.29926],[-111.43331,38.29935],[-111.43332,38.29936]]}}]}