{"type":"FeatureCollection","features":[{"type":"Feature","properties":{"_gpxType":"trk","name":"Sandcreek RV Park, Utah 24, Torrey, UT - 1280 S Lower Boulder Rd, Boulder, UT 84716","coordinateProperties":{},"id":83},"geometry":{"type":"LineString","coordinates":[[-111.43332,38.29936],[-111.43335,38.29941],[-111.43338,38.29956],[-111.43338,38.29956],[-111.43347,38.29957],[-111.43355,38.29961],[-111.43364,38.29971],[-111.43364,38.29978],[-111.43364,38.29987],[-111.43362,38.29996],[-111.43362,38.30008],[-111.4336,38.30014],[-111.43356,38.3002],[-111.43349,38.30026],[-111.43343,38.30026],[-111.43335,38.30025],[-111.43311,38.30024],[-111.43236,38.30019],[-111.43236,38.30019],[-111.43235,38.30001],[-111.43235,38.29947],[-111.43234,38.29906],[-111.43234,38.29906],[-111.4312,38.29906],[-111.43108,38.29906],[-111.43025,38.29906],[-111.42993,38.29906],[-111.42969,38.29906],[-111.42925,38.29906],[-111.42762,38.29905],[-111.42758,38.29905],[-111.42714,38.29905],[-111.42544,38.29905],[-111.42508,38.29905],[-111.42325,38.29904],[-111.42215,38.29904],[-111.42108,38.29904],[-111.41951,38.29903],[-111.41886,38.29903],[-111.41817,38.29903],[-111.41816,38.29903],[-111.41667,38.29902],[-111.4153,38.29901],[-111.41415,38.299],[-111.41404,38.299],[-111.41332,38.29899],[-111.41309,38.29899],[-111.41272,38.29899],[-111.41136,38.29899],[-111.41091,38.29899],[-111.41008,38.29898],[-111.40933,38.29898],[-111.40907,38.29897],[-111.40871,38.29897],[-111.40815,38.29897],[-111.40734,38.29896],[-111.40733,38.29896],[-111.40723,38.29896],[-111.40619,38.29896],[-111.40618,38.29896],[-111.40563,38.29895],[-111.4054,38.29895],[-111.40533,38.29895],[-111.40494,38.29895],[-111.40435,38.29894],[-111.40402,38.29894],[-111.40357,38.29894],[-111.40333,38.29894],[-111.40298,38.29894],[-111.40287,38.29894],[-111.40271,38.29893],[-111.40259,38.29893],[-111.40242,38.29892],[-111.40238,38.29892],[-111.40221,38.29891],[-111.40204,38.2989],[-111.40204,38.2989],[-111.40204,38.29881],[-111.40205,38.29864],[-111.40205,38.29843],[-111.40203,38.29823],[-111.40203,38.2982],[-111.402,38.29806],[-111.40196,38.29789],[-111.40194,38.29783],[-111.40188,38.29768],[-111.40187,38.29766],[-111.40182,38.29752],[-111.40175,38.29733],[-111.40174,38.29731],[-111.4017,38.29721],[-111.40168,38.29716],[-111.40162,38.29702],[-111.40154,38.29682],[-111.40153,38.2968],[-111.40148,38.29669],[-111.4014,38.29655],[-111.40139,38.29653],[-111.40133,38.29641],[-111.40119,38.29622],[-111.40106,38.29605],[-111.40096,38.29593],[-111.40093,38.29589],[-111.40079,38.29577],[-111.40074,38.29573],[-111.40062,38.29562],[-111.40044,38.29548],[-111.40008,38.29521],[-111.39996,38.29512],[-111.39993,38.2951],[-111.3998,38.295],[-111.3996,38.29485],[-111.39957,38.29483],[-111.39929,38.29463],[-111.39913,38.29451],[-111.39887,38.29432],[-111.39879,38.29427],[-111.39862,38.29414],[-111.39853,38.29408],[-111.39852,38.29407],[-111.39845,38.29402],[-111.39829,38.2939],[-111.39824,38.29387],[-111.39812,38.29377],[-111.39805,38.29373],[-111.39801,38.29369],[-111.39796,38.29365],[-111.39794,38.29363],[-111.39786,38.29356],[-111.39773,38.29345],[-111.39772,38.29344],[-111.39766,38.29338],[-111.39758,38.2933],[-111.3974,38.29309],[-111.39731,38.29298],[-111.39727,38.29293],[-111.39724,38.29291],[-111.39714,38.29277],[-111.39712,38.29275],[-111.3969,38.29248],[-111.39673,38.29226],[-111.39637,38.29181],[-111.39628,38.2917],[-111.39624,38.29166],[-111.3962,38.2916],[-111.39617,38.29156],[-111.396,38.29135],[-111.39584,38.29115],[-111.39563,38.29089],[-111.39544,38.29065],[-111.39539,38.29058],[-111.39538,38.29057],[-111.39532,38.29049],[-111.39529,38.29046],[-111.39503,38.29012],[-111.39493,38.28995],[-111.39485,38.28981],[-111.39481,38.2897],[-111.39479,38.2896],[-111.39479,38.28951],[-111.39479,38.28949],[-111.3948,38.28937],[-111.39483,38.28924],[-111.39486,38.28913],[-111.39492,38.28889],[-111.39494,38.28881],[-111.395,38.28854],[-111.39512,38.28807],[-111.39514,38.28801],[-111.39524,38.28762],[-111.39531,38.2873],[-111.39534,38.28717],[-111.39535,38.28712],[-111.39535,38.2871],[-111.39537,38.28704],[-111.39538,38.28695],[-111.39543,38.28675],[-111.39548,38.28651],[-111.39554,38.28624],[-111.39554,38.28621],[-111.39555,38.28615],[-111.39558,38.28602],[-111.39559,38.28597],[-111.3957,38.28551],[-111.39571,38.28546],[-111.39577,38.28516],[-111.3958,38.285],[-111.3958,38.28498],[-111.39581,38.28483],[-111.39582,38.28475],[-111.39583,38.28462],[-111.39583,38.28461],[-111.39584,38.28425],[-111.39583,38.28408],[-111.39583,38.28403],[-111.39583,38.2839],[-111.39583,38.28389],[-111.39581,38.28378],[-111.39577,38.28366],[-111.39571,38.28354],[-111.39564,38.28342],[-111.39561,38.28337],[-111.39552,38.28327],[-111.39537,38.28313],[-111.39523,38.28303],[-111.39506,38.28293],[-111.39496,38.28287],[-111.39484,38.28281],[-111.39477,38.28277],[-111.39458,38.28267],[-111.39438,38.28258],[-111.39437,38.28258],[-111.39423,38.28252],[-111.39417,38.2825],[-111.39413,38.28249],[-111.39404,38.28246],[-111.39396,38.28244],[-111.39394,38.28243],[-111.39385,38.28241],[-111.39378,38.28239],[-111.39352,38.28234],[-111.3933,38.28229],[-111.39321,38.28227],[-111.39308,38.28224],[-111.39264,38.28213],[-111.39256,38.28211],[-111.39243,38.28207],[-111.39199,38.28197],[-111.39192,38.28195],[-111.39177,38.28191],[-111.39151,38.28183],[-111.39129,38.28176],[-111.39112,38.28169],[-111.39098,38.28163],[-111.39077,38.28152],[-111.39075,38.28151],[-111.39057,38.2814],[-111.39035,38.28128],[-111.38981,38.28097],[-111.38964,38.28087],[-111.38946,38.28077],[-111.38941,38.28074],[-111.38927,38.28066],[-111.38912,38.28057],[-111.38909,38.28055],[-111.38896,38.28048],[-111.38891,38.28044],[-111.38877,38.28034],[-111.38874,38.28032],[-111.38856,38.2802],[-111.38828,38.27997],[-111.38809,38.27981],[-111.38793,38.27968],[-111.38781,38.27958],[-111.38777,38.27955],[-111.38743,38.27928],[-111.38729,38.27916],[-111.38713,38.27904],[-111.38697,38.27891],[-111.38666,38.27866],[-111.38649,38.27852],[-111.38602,38.27813],[-111.3857,38.27787],[-111.38543,38.27765],[-111.38514,38.27742],[-111.38505,38.27735],[-111.38482,38.27716],[-111.38475,38.2771],[-111.38459,38.27697],[-111.3845,38.2769],[-111.38439,38.27681],[-111.38418,38.27664],[-111.38402,38.27651],[-111.38363,38.2762],[-111.38338,38.276],[-111.38325,38.2759],[-111.38306,38.27574],[-111.38283,38.27556],[-111.38278,38.27552],[-111.38267,38.27543],[-111.38248,38.27527],[-111.38242,38.27523],[-111.3822,38.27504],[-111.38182,38.27473],[-111.38162,38.27458],[-111.38141,38.27443],[-111.38138,38.27441],[-111.3812,38.27429],[-111.38095,38.27413],[-111.38085,38.27406],[-111.38058,38.27389],[-111.37988,38.27346],[-111.37905,38.27295],[-111.37869,38.27273],[-111.37815,38.27239],[-111.3779,38.27224],[-111.37761,38.27206],[-111.37742,38.27195],[-111.37741,38.27194],[-111.37705,38.27172],[-111.3769,38.27162],[-111.37671,38.2715],[-111.37668,38.27148],[-111.37655,38.27138],[-111.37644,38.27129],[-111.37639,38.27125],[-111.37633,38.2712],[-111.37626,38.27112],[-111.37624,38.27111],[-111.37613,38.27097],[-111.37606,38.27087],[-111.37602,38.27079],[-111.37601,38.27078],[-111.37593,38.27063],[-111.3759,38.27058],[-111.37585,38.27046],[-111.37579,38.27031],[-111.37578,38.27029],[-111.37572,38.2701],[-111.37567,38.26995],[-111.37567,38.26994],[-111.37557,38.2696],[-111.37556,38.26959],[-111.37546,38.26924],[-111.37542,38.2691],[-111.3754,38.26906],[-111.3753,38.26871],[-111.3752,38.26842],[-111.37497,38.26767],[-111.37492,38.26749],[-111.37486,38.26731],[-111.37468,38.26669],[-111.37466,38.26661],[-111.37464,38.26653],[-111.37463,38.26644],[-111.37462,38.26638],[-111.37461,38.26629],[-111.37461,38.26626],[-111.3746,38.26619],[-111.3746,38.26608],[-111.3746,38.266],[-111.37461,38.26595],[-111.37461,38.2659],[-111.37463,38.26577],[-111.37464,38.26572],[-111.37466,38.26561],[-111.37468,38.26554],[-111.37478,38.26519],[-111.37479,38.26517],[-111.37494,38.26467],[-111.37496,38.26459],[-111.37508,38.26417],[-111.37509,38.26414],[-111.37526,38.26359],[-111.3753,38.26344],[-111.37542,38.26305],[-111.37546,38.26292],[-111.37556,38.26262],[-111.37563,38.26239],[-111.3757,38.2622],[-111.37585,38.26172],[-111.37585,38.26169],[-111.37596,38.26134],[-111.37604,38.26102],[-111.37608,38.26081],[-111.37609,38.26079],[-111.37614,38.26048],[-111.37615,38.26045],[-111.37617,38.26028],[-111.37619,38.26019],[-111.3762,38.2601],[-111.37621,38.26003],[-111.37624,38.25981],[-111.37624,38.25971],[-111.37627,38.25942],[-111.37632,38.25911],[-111.37632,38.2591],[-111.37636,38.25884],[-111.37638,38.25867],[-111.3764,38.25856],[-111.37643,38.25837],[-111.37649,38.25813],[-111.37655,38.25795],[-111.37663,38.25771],[-111.37667,38.25761],[-111.3767,38.25754],[-111.37671,38.2575],[-111.37674,38.25744],[-111.37681,38.25727],[-111.37682,38.25723],[-111.37688,38.25711],[-111.37692,38.25703],[-111.37699,38.25686],[-111.37704,38.25676],[-111.37706,38.25672],[-111.37707,38.25669],[-111.37712,38.25659],[-111.37716,38.25652],[-111.37721,38.25643],[-111.37725,38.25636],[-111.3773,38.25626],[-111.37735,38.25617],[-111.37739,38.2561],[-111.37743,38.25603],[-111.37748,38.25593],[-111.37752,38.25586],[-111.37757,38.25576],[-111.37783,38.25527],[-111.37787,38.2552],[-111.37792,38.2551],[-111.37805,38.25487],[-111.37806,38.25485],[-111.3781,38.25477],[-111.37814,38.2547],[-111.37829,38.25444],[-111.37833,38.25437],[-111.37833,38.25436],[-111.37837,38.25428],[-111.37841,38.2542],[-111.37846,38.25411],[-111.37854,38.25394],[-111.37861,38.25381],[-111.37871,38.2536],[-111.37873,38.25353],[-111.37877,38.25342],[-111.37882,38.25328],[-111.37886,38.25313],[-111.37888,38.25303],[-111.3789,38.25293],[-111.3789,38.25283],[-111.37891,38.25274],[-111.37891,38.25272],[-111.37891,38.25259],[-111.3789,38.25254],[-111.3789,38.25248],[-111.3789,38.25247],[-111.37888,38.25237],[-111.37884,38.25223],[-111.37883,38.25219],[-111.37877,38.25202],[-111.37865,38.25171],[-111.37856,38.2515],[-111.37849,38.25133],[-111.37824,38.25075],[-111.37817,38.25058],[-111.3781,38.2504],[-111.37804,38.25023],[-111.37799,38.25012],[-111.37792,38.24995],[-111.37787,38.24979],[-111.37785,38.24971],[-111.37781,38.2496],[-111.37776,38.24938],[-111.37768,38.24901],[-111.37767,38.24895],[-111.3776,38.24865],[-111.37759,38.2486],[-111.37752,38.2483],[-111.3774,38.24777],[-111.37735,38.24757],[-111.37732,38.24741],[-111.37728,38.24723],[-111.37724,38.24706],[-111.37721,38.24688],[-111.3772,38.24686],[-111.3771,38.24635],[-111.37702,38.24599],[-111.377,38.24589],[-111.37698,38.24581],[-111.37695,38.24564],[-111.37691,38.24548],[-111.37688,38.24528],[-111.37688,38.2452],[-111.37688,38.2451],[-111.37689,38.24496],[-111.37695,38.24476],[-111.37707,38.24435],[-111.3771,38.24423],[-111.37713,38.2441],[-111.37713,38.24404],[-111.37715,38.24386],[-111.37716,38.2437],[-111.37714,38.24348],[-111.37713,38.24337],[-111.37713,38.24331],[-111.37712,38.24318],[-111.37711,38.24313],[-111.37709,38.24295],[-111.37709,38.2427],[-111.37709,38.24247],[-111.3771,38.24213],[-111.37711,38.2421],[-111.37712,38.24187],[-111.37712,38.24168],[-111.37711,38.24151],[-111.37706,38.24123],[-111.377,38.24104],[-111.37695,38.24093],[-111.3769,38.2408],[-111.37684,38.24066],[-111.37677,38.24052],[-111.37659,38.24028],[-111.37649,38.24015],[-111.37639,38.24003],[-111.37637,38.24001],[-111.37631,38.23995],[-111.37616,38.2398],[-111.37608,38.23973],[-111.37592,38.2396],[-111.37591,38.2396],[-111.3757,38.23945],[-111.37558,38.23936],[-111.3754,38.23925],[-111.37505,38.23901],[-111.37462,38.23873],[-111.37433,38.23855],[-111.37392,38.23828],[-111.37356,38.23804],[-111.3733,38.23787],[-111.37286,38.23758],[-111.37269,38.23747],[-111.37215,38.23712],[-111.3721,38.23709],[-111.3718,38.23689],[-111.37167,38.23681],[-111.3712,38.23651],[-111.37109,38.23643],[-111.37084,38.23627],[-111.37073,38.23621],[-111.37055,38.2361],[-111.37038,38.23599],[-111.37019,38.23589],[-111.37004,38.2358],[-111.37,38.23578],[-111.36962,38.23559],[-111.36961,38.23559],[-111.36945,38.23552],[-111.36941,38.2355],[-111.36916,38.23539],[-111.36838,38.23505],[-111.36736,38.23461],[-111.36721,38.23455],[-111.36645,38.23422],[-111.366,38.23403],[-111.3654,38.23377],[-111.3652,38.23368],[-111.3646,38.23342],[-111.36409,38.23317],[-111.36399,38.23311],[-111.36379,38.23301],[-111.36361,38.23291],[-111.36343,38.23281],[-111.36342,38.2328],[-111.36292,38.23252],[-111.36287,38.2325],[-111.36286,38.23249],[-111.36249,38.23228],[-111.36227,38.23216],[-111.36212,38.23208],[-111.36182,38.23192],[-111.36174,38.23187],[-111.36137,38.23167],[-111.36108,38.23151],[-111.36057,38.23123],[-111.36043,38.23115],[-111.36023,38.23102],[-111.36008,38.23092],[-111.36007,38.23092],[-111.3599,38.23081],[-111.3598,38.23074],[-111.35972,38.23069],[-111.35956,38.23057],[-111.35955,38.23057],[-111.35946,38.23051],[-111.35926,38.23035],[-111.35922,38.23032],[-111.35913,38.23025],[-111.35906,38.23019],[-111.35895,38.23011],[-111.3589,38.23006],[-111.35879,38.22997],[-111.35875,38.22993],[-111.3586,38.2298],[-111.35829,38.22953],[-111.35814,38.2294],[-111.35814,38.22939],[-111.35806,38.22933],[-111.35799,38.22926],[-111.35784,38.22913],[-111.35768,38.22899],[-111.35753,38.22885],[-111.35723,38.22858],[-111.35708,38.22845],[-111.35694,38.22833],[-111.35684,38.22826],[-111.35673,38.22819],[-111.35658,38.2281],[-111.35641,38.22803],[-111.35623,38.22797],[-111.35601,38.22791],[-111.35582,38.22789],[-111.3557,38.22787],[-111.35558,38.22787],[-111.35547,38.22787],[-111.35543,38.22787],[-111.35527,38.22788],[-111.35473,38.22791],[-111.35441,38.22792],[-111.35397,38.22796],[-111.35339,38.22799],[-111.3515,38.22811],[-111.35134,38.22812],[-111.35103,38.22814],[-111.35065,38.22815],[-111.35048,38.22816],[-111.35043,38.22816],[-111.35023,38.22816],[-111.35009,38.22816],[-111.34996,38.22815],[-111.34961,38.22811],[-111.34939,38.22808],[-111.34913,38.22802],[-111.34893,38.22797],[-111.34869,38.2279],[-111.34861,38.22787],[-111.34841,38.22779],[-111.3484,38.22779],[-111.34813,38.22768],[-111.34801,38.22761],[-111.3477,38.22744],[-111.3475,38.2273],[-111.34747,38.22728],[-111.34738,38.22722],[-111.34716,38.22705],[-111.34699,38.22689],[-111.34681,38.22671],[-111.34661,38.2265],[-111.34631,38.22617],[-111.34617,38.22602],[-111.34615,38.226],[-111.34577,38.22559],[-111.34564,38.22544],[-111.34563,38.22544],[-111.34523,38.225],[-111.34476,38.22449],[-111.34469,38.22442],[-111.34456,38.22428],[-111.34415,38.22384],[-111.34402,38.22369],[-111.34362,38.22326],[-111.3435,38.22313],[-111.34328,38.2229],[-111.34323,38.22284],[-111.3431,38.2227],[-111.34298,38.22254],[-111.34297,38.22253],[-111.34291,38.22244],[-111.34289,38.22241],[-111.34284,38.22232],[-111.34282,38.22228],[-111.34279,38.22223],[-111.34273,38.22207],[-111.34269,38.22198],[-111.34265,38.22179],[-111.34264,38.22162],[-111.34263,38.2215],[-111.34264,38.22136],[-111.34266,38.2212],[-111.34268,38.22107],[-111.34271,38.22098],[-111.34272,38.22097],[-111.34278,38.22082],[-111.34284,38.2207],[-111.34288,38.22063],[-111.3429,38.2206],[-111.34299,38.22047],[-111.34302,38.22044],[-111.34304,38.22041],[-111.34312,38.22032],[-111.34318,38.22025],[-111.34339,38.22004],[-111.34345,38.21998],[-111.34353,38.2199],[-111.34364,38.2198],[-111.34382,38.21962],[-111.34387,38.21958],[-111.34397,38.21948],[-111.34411,38.21934],[-111.34473,38.21875],[-111.34483,38.21864],[-111.34493,38.21853],[-111.34501,38.21843],[-111.34506,38.21836],[-111.34515,38.21823],[-111.34516,38.21821],[-111.34516,38.2182],[-111.34518,38.21817],[-111.34526,38.21804],[-111.34527,38.21803],[-111.34529,38.21799],[-111.34533,38.21791],[-111.34553,38.21754],[-111.34558,38.21745],[-111.34589,38.21691],[-111.3459,38.21689],[-111.34595,38.21679],[-111.34602,38.21667],[-111.34613,38.21645],[-111.34617,38.21638],[-111.34626,38.21622],[-111.34646,38.21587],[-111.34649,38.2158],[-111.34653,38.21572],[-111.34656,38.21567],[-111.3466,38.2156],[-111.34756,38.21386],[-111.3476,38.21379],[-111.34763,38.21374],[-111.34778,38.21347],[-111.34781,38.21341],[-111.3479,38.21325],[-111.34793,38.2132],[-111.34799,38.21308],[-111.348,38.21307],[-111.34805,38.21296],[-111.34807,38.21291],[-111.34808,38.21288],[-111.3481,38.21282],[-111.34812,38.21276],[-111.34814,38.21266],[-111.34815,38.21263],[-111.34815,38.21256],[-111.34816,38.21248],[-111.34816,38.21232],[-111.34814,38.21223],[-111.34814,38.21221],[-111.34812,38.21211],[-111.34812,38.2121],[-111.34807,38.21192],[-111.34804,38.21181],[-111.34802,38.21173],[-111.348,38.21168],[-111.34798,38.21164],[-111.34796,38.21157],[-111.34794,38.21151],[-111.34791,38.21142],[-111.34789,38.21133],[-111.34787,38.21127],[-111.34784,38.21116],[-111.3478,38.21101],[-111.34779,38.21089],[-111.34776,38.21069],[-111.34774,38.2105],[-111.34769,38.21009],[-111.34768,38.20997],[-111.34767,38.20991],[-111.34766,38.20979],[-111.34765,38.20973],[-111.3476,38.20928],[-111.34758,38.20907],[-111.34751,38.20849],[-111.34749,38.20824],[-111.34748,38.2081],[-111.34747,38.20787],[-111.34748,38.20764],[-111.34748,38.20759],[-111.3475,38.20741],[-111.34752,38.20723],[-111.34753,38.20721],[-111.34756,38.20705],[-111.34757,38.20698],[-111.34762,38.20679],[-111.34765,38.2067],[-111.3477,38.20652],[-111.34773,38.20644],[-111.34781,38.20623],[-111.34784,38.20618],[-111.34792,38.20601],[-111.348,38.20585],[-111.34819,38.20552],[-111.34819,38.20551],[-111.34827,38.20535],[-111.34837,38.20516],[-111.34843,38.20501],[-111.34854,38.20476],[-111.34862,38.20448],[-111.34867,38.20432],[-111.34874,38.2041],[-111.34886,38.2038],[-111.34894,38.20358],[-111.34898,38.20345],[-111.34906,38.20321],[-111.34913,38.20293],[-111.34919,38.2027],[-111.34924,38.20258],[-111.3493,38.2024],[-111.34933,38.20231],[-111.34943,38.20208],[-111.34954,38.2019],[-111.34957,38.20186],[-111.34965,38.20174],[-111.34971,38.20165],[-111.34981,38.20154],[-111.34992,38.20142],[-111.35021,38.20114],[-111.35045,38.20096],[-111.35061,38.20082],[-111.35065,38.20077],[-111.35071,38.2007],[-111.35077,38.20061],[-111.35085,38.2005],[-111.35087,38.20045],[-111.3509,38.20038],[-111.35094,38.2002],[-111.35099,38.19991],[-111.35101,38.19974],[-111.35103,38.19955],[-111.35109,38.19924],[-111.3511,38.19921],[-111.35118,38.19898],[-111.35132,38.19859],[-111.35135,38.19851],[-111.35149,38.19817],[-111.3515,38.19815],[-111.35155,38.198],[-111.35159,38.19787],[-111.35161,38.19782],[-111.35165,38.19767],[-111.35166,38.19765],[-111.35167,38.19753],[-111.35168,38.19747],[-111.35169,38.19741],[-111.35169,38.19731],[-111.35169,38.19729],[-111.35168,38.19714],[-111.35168,38.19711],[-111.35166,38.19701],[-111.35164,38.19693],[-111.35163,38.19691],[-111.35158,38.19676],[-111.35151,38.19659],[-111.35145,38.19641],[-111.35139,38.19624],[-111.35131,38.19601],[-111.35126,38.1959],[-111.3512,38.19572],[-111.35113,38.19555],[-111.3508,38.19469],[-111.35074,38.19452],[-111.35068,38.19436],[-111.35061,38.19417],[-111.35055,38.19401],[-111.35051,38.19387],[-111.35048,38.19366],[-111.35047,38.19353],[-111.35047,38.19346],[-111.35047,38.19338],[-111.35048,38.19328],[-111.35049,38.19318],[-111.3505,38.19311],[-111.35052,38.19302],[-111.35055,38.19293],[-111.35058,38.19281],[-111.35061,38.19276],[-111.35067,38.19262],[-111.35069,38.19259],[-111.35082,38.19236],[-111.35098,38.1921],[-111.35118,38.19178],[-111.35128,38.19162],[-111.35159,38.19113],[-111.35169,38.19097],[-111.35174,38.19089],[-111.35179,38.19081],[-111.35189,38.19065],[-111.3521,38.19033],[-111.3522,38.19017],[-111.3524,38.18984],[-111.35244,38.18977],[-111.35264,38.18945],[-111.3527,38.18933],[-111.35275,38.18923],[-111.35277,38.18919],[-111.35282,38.18904],[-111.35292,38.18866],[-111.35297,38.18837],[-111.35299,38.18813],[-111.35299,38.18797],[-111.35299,38.18786],[-111.35299,38.1877],[-111.35295,38.18752],[-111.35289,38.18736],[-111.35279,38.18717],[-111.35265,38.18694],[-111.35263,38.1869],[-111.35255,38.18678],[-111.35246,38.18664],[-111.35235,38.18647],[-111.35234,38.18646],[-111.35226,38.18636],[-111.35221,38.18631],[-111.35207,38.18616],[-111.35192,38.18604],[-111.3518,38.18594],[-111.35175,38.18591],[-111.35136,38.18563],[-111.35113,38.18546],[-111.35109,38.18542],[-111.35091,38.18525],[-111.35075,38.18508],[-111.35054,38.18484],[-111.35008,38.18436],[-111.34978,38.18404],[-111.34967,38.18389],[-111.34961,38.18377],[-111.34955,38.18366],[-111.34953,38.1836],[-111.3495,38.1835],[-111.34947,38.18338],[-111.34947,38.18328],[-111.34947,38.18325],[-111.34948,38.18289],[-111.3495,38.18271],[-111.34953,38.18241],[-111.34955,38.18221],[-111.34955,38.18205],[-111.34954,38.18198],[-111.34953,38.18192],[-111.34949,38.18179],[-111.34944,38.18164],[-111.34935,38.18146],[-111.34922,38.18128],[-111.34908,38.18111],[-111.34891,38.18096],[-111.34871,38.1808],[-111.34793,38.18015],[-111.3475,38.17979],[-111.3473,38.17963],[-111.34714,38.1795],[-111.34714,38.17949],[-111.34696,38.17933],[-111.34682,38.17919],[-111.34677,38.1791],[-111.34672,38.17898],[-111.34669,38.17888],[-111.34667,38.17877],[-111.34666,38.17864],[-111.34668,38.17853],[-111.34673,38.17838],[-111.34693,38.17792],[-111.34697,38.17779],[-111.347,38.17767],[-111.34702,38.17759],[-111.34703,38.17751],[-111.34703,38.17747],[-111.34703,38.17731],[-111.34701,38.17716],[-111.34696,38.177],[-111.34687,38.17683],[-111.34676,38.17665],[-111.34665,38.17651],[-111.3465,38.17635],[-111.34606,38.17594],[-111.34589,38.17576],[-111.34576,38.17562],[-111.34567,38.1755],[-111.34561,38.17543],[-111.34552,38.17526],[-111.34549,38.17517],[-111.34543,38.17501],[-111.34543,38.175],[-111.3454,38.1748],[-111.34533,38.17414],[-111.34529,38.17393],[-111.34527,38.17382],[-111.34525,38.17375],[-111.34521,38.17357],[-111.3452,38.17352],[-111.34516,38.17343],[-111.34512,38.17333],[-111.34499,38.17315],[-111.34493,38.17308],[-111.34481,38.17293],[-111.3448,38.17292],[-111.34468,38.17278],[-111.34455,38.17264],[-111.34425,38.17229],[-111.34362,38.17159],[-111.34323,38.17116],[-111.34321,38.17114],[-111.3431,38.17102],[-111.34307,38.17097],[-111.34297,38.17081],[-111.34292,38.17065],[-111.34286,38.17044],[-111.34274,38.16982],[-111.34273,38.16981],[-111.34265,38.16947],[-111.3426,38.16926],[-111.34253,38.16911],[-111.34247,38.169],[-111.34238,38.16886],[-111.34228,38.16874],[-111.34219,38.16865],[-111.34209,38.16857],[-111.34195,38.16849],[-111.34193,38.16848],[-111.34179,38.1684],[-111.34176,38.16839],[-111.34167,38.16835],[-111.34155,38.16832],[-111.34151,38.1683],[-111.34133,38.16826],[-111.3413,38.16825],[-111.34111,38.16822],[-111.34104,38.16821],[-111.34066,38.16815],[-111.34061,38.16814],[-111.34044,38.16811],[-111.34031,38.16809],[-111.34013,38.16805],[-111.33995,38.168],[-111.33979,38.16794],[-111.33977,38.16793],[-111.3396,38.16784],[-111.33958,38.16782],[-111.33926,38.16762],[-111.3389,38.16738],[-111.33872,38.16726],[-111.33819,38.16692],[-111.33802,38.1668],[-111.33773,38.16662],[-111.33751,38.16645],[-111.3375,38.16645],[-111.33737,38.16634],[-111.33735,38.16631],[-111.33726,38.16621],[-111.33713,38.16603],[-111.33711,38.16601],[-111.33702,38.16584],[-111.3367,38.16529],[-111.33645,38.16489],[-111.33621,38.16455],[-111.33596,38.16424],[-111.33584,38.1641],[-111.33571,38.16395],[-111.33551,38.16372],[-111.33545,38.16365],[-111.33532,38.16351],[-111.3352,38.16337],[-111.33508,38.16322],[-111.33504,38.16315],[-111.33497,38.16304],[-111.33492,38.16289],[-111.3349,38.16278],[-111.33489,38.16269],[-111.33491,38.16254],[-111.33494,38.16243],[-111.33496,38.16233],[-111.33501,38.16223],[-111.33501,38.16222],[-111.33508,38.16205],[-111.3351,38.16199],[-111.33512,38.16189],[-111.33513,38.1618],[-111.33512,38.16166],[-111.33511,38.16151],[-111.33502,38.16131],[-111.33502,38.1613],[-111.33494,38.16118],[-111.33481,38.161],[-111.33479,38.16096],[-111.3347,38.16084],[-111.33445,38.16053],[-111.33422,38.16023],[-111.33379,38.15962],[-111.33369,38.15942],[-111.33362,38.15926],[-111.33362,38.15922],[-111.3336,38.15913],[-111.3336,38.15904],[-111.3336,38.15896],[-111.33363,38.15872],[-111.33369,38.15852],[-111.33371,38.15841],[-111.33372,38.15833],[-111.33373,38.15823],[-111.33371,38.15809],[-111.33368,38.15799],[-111.33361,38.15781],[-111.33354,38.1577],[-111.33336,38.15749],[-111.33323,38.15736],[-111.33323,38.15735],[-111.3331,38.1572],[-111.33308,38.15718],[-111.33299,38.15703],[-111.33293,38.15687],[-111.33292,38.15684],[-111.33289,38.1567],[-111.33288,38.15667],[-111.33288,38.15652],[-111.3329,38.15639],[-111.33295,38.15616],[-111.33295,38.15615],[-111.33313,38.15565],[-111.33313,38.15564],[-111.33324,38.15533],[-111.33325,38.1553],[-111.3333,38.15512],[-111.33332,38.15508],[-111.33334,38.15495],[-111.33335,38.15491],[-111.33337,38.15479],[-111.33336,38.15456],[-111.33335,38.1544],[-111.33333,38.1543],[-111.33331,38.15423],[-111.33317,38.15356],[-111.33315,38.15352],[-111.33311,38.15335],[-111.3331,38.15332],[-111.33303,38.15309],[-111.33297,38.15292],[-111.33292,38.15283],[-111.33288,38.15275],[-111.33283,38.15267],[-111.33282,38.15266],[-111.33274,38.15257],[-111.33268,38.15252],[-111.33262,38.15246],[-111.33246,38.15235],[-111.33233,38.15224],[-111.33223,38.15215],[-111.33217,38.15206],[-111.3321,38.15194],[-111.33206,38.15184],[-111.33203,38.1517],[-111.33202,38.1516],[-111.33203,38.15148],[-111.33204,38.15144],[-111.33205,38.15137],[-111.33208,38.15128],[-111.33209,38.15126],[-111.33217,38.1511],[-111.33217,38.15108],[-111.33228,38.15094],[-111.3323,38.15091],[-111.33244,38.15073],[-111.33255,38.15056],[-111.33259,38.15047],[-111.33259,38.15046],[-111.33263,38.15029],[-111.33264,38.15016],[-111.33263,38.15009],[-111.3326,38.14993],[-111.33253,38.14978],[-111.33249,38.1497],[-111.33242,38.14961],[-111.33228,38.1495],[-111.33215,38.14942],[-111.33167,38.14918],[-111.33162,38.14916],[-111.33128,38.149],[-111.33085,38.1488],[-111.3303,38.14854],[-111.33016,38.14847],[-111.32933,38.14806],[-111.32929,38.14804],[-111.32906,38.14792],[-111.32893,38.14788],[-111.32891,38.14787],[-111.32872,38.14782],[-111.32858,38.14778],[-111.32802,38.14763],[-111.32785,38.14758],[-111.32757,38.14751],[-111.32741,38.14745],[-111.32733,38.1474],[-111.32724,38.14735],[-111.32717,38.14731],[-111.3271,38.14726],[-111.32705,38.14722],[-111.32704,38.14721],[-111.32696,38.14713],[-111.32691,38.14707],[-111.32685,38.147],[-111.3268,38.14692],[-111.32676,38.14681],[-111.32673,38.1467],[-111.32671,38.14659],[-111.32672,38.14648],[-111.32673,38.1464],[-111.32673,38.14639],[-111.32676,38.14629],[-111.32681,38.14618],[-111.32687,38.14607],[-111.32701,38.1459],[-111.32712,38.14576],[-111.32727,38.14561],[-111.32741,38.14547],[-111.32742,38.14547],[-111.32753,38.14531],[-111.32771,38.14507],[-111.32776,38.145],[-111.32787,38.14484],[-111.3279,38.1448],[-111.32797,38.14468],[-111.32803,38.14457],[-111.32805,38.14451],[-111.3281,38.14435],[-111.3281,38.14434],[-111.32812,38.14422],[-111.32813,38.14416],[-111.32814,38.14399],[-111.32814,38.14398],[-111.32813,38.1438],[-111.32812,38.14362],[-111.32811,38.14326],[-111.32811,38.1432],[-111.32811,38.14308],[-111.32811,38.14298],[-111.32811,38.1429],[-111.32812,38.14272],[-111.32812,38.14267],[-111.32818,38.14236],[-111.32819,38.1423],[-111.32822,38.14219],[-111.32823,38.14213],[-111.32829,38.14201],[-111.32861,38.14134],[-111.32865,38.14126],[-111.32877,38.141],[-111.32892,38.14067],[-111.329,38.1405],[-111.32904,38.1404],[-111.32908,38.14033],[-111.32916,38.14016],[-111.32921,38.14007],[-111.3293,38.13982],[-111.32931,38.1398],[-111.32934,38.1397],[-111.32935,38.13958],[-111.32934,38.13941],[-111.32931,38.13928],[-111.3292,38.13889],[-111.32915,38.13861],[-111.32912,38.1384],[-111.3291,38.13826],[-111.3291,38.13822],[-111.32908,38.13804],[-111.32908,38.13799],[-111.32907,38.13786],[-111.32906,38.13768],[-111.32905,38.13756],[-111.32905,38.1375],[-111.32902,38.13714],[-111.32902,38.1371],[-111.32894,38.13676],[-111.32888,38.13662],[-111.3288,38.13645],[-111.32871,38.13623],[-111.32865,38.13611],[-111.32862,38.13605],[-111.32848,38.13577],[-111.3284,38.13561],[-111.32819,38.13517],[-111.32818,38.13516],[-111.32811,38.13501],[-111.32807,38.13491],[-111.32775,38.13424],[-111.32762,38.13394],[-111.32761,38.13391],[-111.32753,38.13374],[-111.32746,38.13358],[-111.32738,38.13341],[-111.3273,38.13324],[-111.32719,38.13301],[-111.32714,38.1329],[-111.32705,38.13273],[-111.32701,38.13263],[-111.32697,38.13249],[-111.32696,38.13237],[-111.32696,38.13235],[-111.32697,38.13224],[-111.32699,38.13217],[-111.32701,38.1321],[-111.32703,38.13206],[-111.32705,38.132],[-111.32709,38.13194],[-111.32717,38.13184],[-111.32721,38.1318],[-111.32726,38.13175],[-111.32732,38.1317],[-111.32746,38.13158],[-111.32757,38.13149],[-111.32774,38.13137],[-111.32776,38.13135],[-111.3279,38.13124],[-111.32802,38.13114],[-111.32827,38.13092],[-111.32839,38.13076],[-111.32848,38.13061],[-111.32853,38.13047],[-111.32855,38.13032],[-111.32855,38.13028],[-111.32857,38.13001],[-111.32857,38.12975],[-111.32858,38.12939],[-111.32856,38.12908],[-111.32853,38.12889],[-111.32852,38.1288],[-111.32849,38.12863],[-111.32849,38.12851],[-111.32852,38.1284],[-111.32857,38.12824],[-111.32859,38.12818],[-111.32866,38.12801],[-111.32873,38.12784],[-111.3288,38.12766],[-111.32885,38.12755],[-111.32887,38.12749],[-111.32899,38.12717],[-111.329,38.12715],[-111.32905,38.12697],[-111.32907,38.12692],[-111.32914,38.12665],[-111.32914,38.12662],[-111.32921,38.12628],[-111.32922,38.12627],[-111.32928,38.12593],[-111.32936,38.12561],[-111.32939,38.12556],[-111.32943,38.12545],[-111.32954,38.12532],[-111.32967,38.1252],[-111.32981,38.12511],[-111.32996,38.12503],[-111.33015,38.12492],[-111.33028,38.12482],[-111.33038,38.12473],[-111.33046,38.12462],[-111.33054,38.12445],[-111.33059,38.12434],[-111.33061,38.12421],[-111.33061,38.12408],[-111.3306,38.12388],[-111.33058,38.1237],[-111.33054,38.12347],[-111.3305,38.12333],[-111.33039,38.12303],[-111.33026,38.12273],[-111.33013,38.12253],[-111.32984,38.12216],[-111.32962,38.12195],[-111.32912,38.12157],[-111.32876,38.12137],[-111.32831,38.12115],[-111.32817,38.12108],[-111.32811,38.12105],[-111.32792,38.12096],[-111.32767,38.12084],[-111.32753,38.12077],[-111.3273,38.12066],[-111.32714,38.12058],[-111.3269,38.12046],[-111.32671,38.12036],[-111.32661,38.12029],[-111.32642,38.12014],[-111.32636,38.1201],[-111.32617,38.11993],[-111.32611,38.11988],[-111.32596,38.11974],[-111.32585,38.11959],[-111.32584,38.11959],[-111.32574,38.11939],[-111.3257,38.11918],[-111.32571,38.11906],[-111.32571,38.119],[-111.32575,38.11882],[-111.32585,38.11855],[-111.32595,38.11838],[-111.32608,38.11824],[-111.32636,38.11799],[-111.32658,38.11783],[-111.32674,38.11773],[-111.32681,38.11768],[-111.32693,38.11763],[-111.32703,38.11758],[-111.3273,38.11749],[-111.32756,38.11743],[-111.32785,38.11735],[-111.32809,38.11725],[-111.32829,38.11714],[-111.32847,38.11703],[-111.3285,38.11701],[-111.32878,38.11683],[-111.32893,38.11672],[-111.32911,38.11656],[-111.32934,38.11624],[-111.32944,38.11599],[-111.32956,38.11561],[-111.3296,38.11546],[-111.32966,38.11526],[-111.32967,38.11523],[-111.32985,38.11455],[-111.32986,38.11437],[-111.32985,38.11419],[-111.32983,38.11399],[-111.32984,38.1137],[-111.32985,38.11366],[-111.32991,38.11347],[-111.32999,38.11328],[-111.33011,38.113],[-111.33012,38.11297],[-111.33021,38.11267],[-111.3302,38.11259],[-111.33017,38.11235],[-111.33009,38.11209],[-111.32985,38.11178],[-111.32964,38.11158],[-111.32942,38.11138],[-111.3293,38.11117],[-111.32923,38.11094],[-111.32922,38.11081],[-111.32925,38.11067],[-111.32925,38.11066],[-111.32932,38.11045],[-111.3294,38.1103],[-111.32945,38.11022],[-111.32962,38.11004],[-111.32985,38.10988],[-111.33,38.10981],[-111.3301,38.10977],[-111.3302,38.10974],[-111.33031,38.10971],[-111.33056,38.1097],[-111.33065,38.1097],[-111.33069,38.1097],[-111.33079,38.1097],[-111.33104,38.10973],[-111.33132,38.10977],[-111.33156,38.1098],[-111.33198,38.10987],[-111.33272,38.10997],[-111.33313,38.11002],[-111.33327,38.11003],[-111.33336,38.11003],[-111.33354,38.11],[-111.33367,38.10998],[-111.3338,38.10994],[-111.33392,38.10989],[-111.33407,38.10981],[-111.3342,38.10973],[-111.33428,38.10966],[-111.33433,38.1096],[-111.33435,38.10958],[-111.33438,38.10955],[-111.33445,38.10946],[-111.33456,38.1093],[-111.33457,38.1093],[-111.33458,38.10927],[-111.33466,38.10916],[-111.33476,38.10899],[-111.33487,38.10884],[-111.33494,38.10876],[-111.33501,38.1087],[-111.33501,38.10869],[-111.33509,38.10863],[-111.33525,38.10854],[-111.33534,38.10849],[-111.33551,38.10842],[-111.33593,38.10825],[-111.33614,38.10815],[-111.33716,38.10774],[-111.33801,38.1074],[-111.33827,38.10729],[-111.33843,38.10723],[-111.33861,38.10715],[-111.33873,38.10708],[-111.33891,38.10695],[-111.33901,38.10683],[-111.33913,38.10667],[-111.33919,38.1065],[-111.33921,38.10643],[-111.33921,38.10628],[-111.33921,38.10619],[-111.33918,38.10608],[-111.33916,38.10598],[-111.33912,38.10589],[-111.33906,38.10578],[-111.33902,38.10572],[-111.33897,38.10566],[-111.33895,38.10563],[-111.33889,38.10557],[-111.3388,38.10551],[-111.3387,38.10544],[-111.33862,38.10539],[-111.33851,38.10532],[-111.33836,38.10523],[-111.33822,38.10515],[-111.33802,38.10504],[-111.33788,38.10496],[-111.33772,38.10488],[-111.33763,38.10483],[-111.3375,38.10475],[-111.33735,38.10465],[-111.33724,38.10457],[-111.3372,38.10453],[-111.3371,38.10445],[-111.33705,38.1044],[-111.33702,38.10437],[-111.33691,38.10426],[-111.33685,38.10419],[-111.33678,38.1041],[-111.33675,38.10405],[-111.33671,38.10399],[-111.33665,38.10387],[-111.33663,38.10379],[-111.33662,38.10377],[-111.3366,38.10367],[-111.3366,38.1036],[-111.3366,38.10359],[-111.33661,38.10351],[-111.33662,38.10344],[-111.33663,38.10341],[-111.33665,38.10334],[-111.33668,38.10324],[-111.33671,38.10319],[-111.33675,38.10312],[-111.33679,38.10306],[-111.33687,38.10298],[-111.33691,38.10292],[-111.33693,38.1029],[-111.33697,38.10284],[-111.33702,38.10276],[-111.33707,38.10266],[-111.33709,38.1026],[-111.33711,38.10253],[-111.33713,38.10244],[-111.33717,38.10213],[-111.33717,38.10206],[-111.33723,38.10145],[-111.33725,38.1013],[-111.33727,38.10115],[-111.33727,38.10114],[-111.33729,38.10094],[-111.3373,38.10088],[-111.33733,38.10056],[-111.33734,38.10046],[-111.33735,38.1004],[-111.33736,38.10035],[-111.3374,38.10025],[-111.33744,38.10018],[-111.3375,38.10007],[-111.33761,38.09995],[-111.33766,38.09991],[-111.33774,38.09984],[-111.3378,38.0998],[-111.33788,38.09975],[-111.33798,38.0997],[-111.33799,38.0997],[-111.33804,38.09967],[-111.3381,38.09965],[-111.3382,38.09962],[-111.33827,38.0996],[-111.33837,38.09956],[-111.33844,38.09954],[-111.33851,38.09951],[-111.3386,38.09946],[-111.33866,38.09942],[-111.33875,38.09936],[-111.33881,38.0993],[-111.33889,38.09921],[-111.33891,38.09919],[-111.33896,38.09911],[-111.33901,38.09903],[-111.33915,38.0988],[-111.33925,38.09862],[-111.3393,38.09854],[-111.33936,38.09843],[-111.33951,38.09822],[-111.33962,38.0981],[-111.33983,38.09788],[-111.33998,38.09776],[-111.34015,38.09764],[-111.34025,38.09757],[-111.34027,38.09756],[-111.34043,38.09747],[-111.34046,38.09745],[-111.34073,38.09731],[-111.34084,38.09725],[-111.34097,38.09719],[-111.34122,38.09706],[-111.34124,38.09705],[-111.34149,38.09692],[-111.34182,38.09676],[-111.34237,38.09647],[-111.34237,38.09646],[-111.34294,38.09616],[-111.34353,38.09584],[-111.34375,38.0957],[-111.3439,38.09559],[-111.34402,38.0955],[-111.34405,38.09548],[-111.34459,38.09504],[-111.34496,38.09474],[-111.34508,38.09464],[-111.34523,38.0945],[-111.3453,38.09442],[-111.34535,38.09435],[-111.34538,38.0943],[-111.34542,38.09422],[-111.34547,38.09413],[-111.34549,38.09409],[-111.34555,38.09394],[-111.34562,38.09363],[-111.34568,38.09327],[-111.34568,38.09325],[-111.34572,38.09307],[-111.34575,38.09289],[-111.34577,38.09272],[-111.34578,38.09269],[-111.34582,38.09246],[-111.34582,38.09236],[-111.3458,38.09221],[-111.34577,38.09213],[-111.34575,38.09206],[-111.34572,38.09201],[-111.34571,38.092],[-111.34563,38.09188],[-111.34556,38.0918],[-111.34547,38.09173],[-111.34535,38.09166],[-111.34525,38.09161],[-111.34515,38.09158],[-111.34495,38.09151],[-111.34482,38.09146],[-111.34467,38.0914],[-111.34465,38.09139],[-111.34449,38.09131],[-111.3444,38.09124],[-111.34433,38.09118],[-111.34424,38.09108],[-111.34416,38.09099],[-111.34396,38.09069],[-111.34393,38.09064],[-111.34386,38.09053],[-111.34374,38.09036],[-111.34357,38.09012],[-111.34352,38.09006],[-111.34344,38.08993],[-111.34341,38.0899],[-111.34337,38.08983],[-111.3433,38.08971],[-111.34327,38.08963],[-111.34324,38.08956],[-111.34323,38.08951],[-111.34321,38.08941],[-111.34321,38.08935],[-111.34321,38.08924],[-111.34323,38.08913],[-111.34325,38.08906],[-111.34328,38.08898],[-111.34333,38.08886],[-111.3434,38.08874],[-111.34349,38.08863],[-111.34353,38.08857],[-111.34358,38.08852],[-111.34366,38.08842],[-111.34375,38.08833],[-111.34386,38.0882],[-111.34396,38.08808],[-111.34404,38.08796],[-111.34407,38.0879],[-111.34411,38.08782],[-111.34413,38.08769],[-111.34413,38.08758],[-111.34412,38.08753],[-111.34411,38.08747],[-111.34408,38.0874],[-111.34404,38.08732],[-111.34397,38.08722],[-111.3439,38.08715],[-111.34387,38.08712],[-111.34379,38.08706],[-111.34371,38.08701],[-111.34362,38.08697],[-111.34355,38.08694],[-111.34342,38.08691],[-111.34328,38.08688],[-111.34318,38.08687],[-111.34306,38.08686],[-111.34305,38.08686],[-111.34289,38.08684],[-111.34261,38.08682],[-111.3426,38.08681],[-111.34236,38.08679],[-111.34214,38.08677],[-111.34204,38.08676],[-111.34177,38.08673],[-111.34153,38.08669],[-111.34136,38.08666],[-111.34125,38.08663],[-111.34112,38.08661],[-111.34102,38.08659],[-111.3409,38.08656],[-111.3408,38.08654],[-111.34059,38.0865],[-111.34041,38.08648],[-111.34031,38.08647],[-111.3402,38.08647],[-111.34013,38.08647],[-111.34007,38.08647],[-111.33998,38.08647],[-111.3399,38.08648],[-111.33982,38.08648],[-111.33967,38.08649],[-111.33962,38.08649],[-111.33948,38.08649],[-111.33944,38.08649],[-111.33935,38.08649],[-111.33922,38.08647],[-111.33921,38.08647],[-111.33911,38.08645],[-111.33897,38.08642],[-111.33882,38.08637],[-111.33861,38.08629],[-111.33858,38.08628],[-111.33846,38.08624],[-111.3382,38.08613],[-111.33803,38.08606],[-111.33797,38.08603],[-111.33794,38.08602],[-111.33771,38.08589],[-111.33762,38.08582],[-111.3375,38.08572],[-111.33741,38.08563],[-111.33731,38.08551],[-111.33722,38.0854],[-111.3372,38.08538],[-111.33708,38.08523],[-111.33704,38.08517],[-111.33697,38.08507],[-111.33695,38.08504],[-111.3369,38.08494],[-111.33688,38.0849],[-111.33681,38.08474],[-111.33681,38.08473],[-111.33677,38.08457],[-111.33677,38.08437],[-111.33678,38.0842],[-111.33678,38.08419],[-111.33683,38.08402],[-111.33684,38.08399],[-111.33689,38.08386],[-111.33696,38.08373],[-111.33699,38.08368],[-111.33703,38.08363],[-111.33718,38.08346],[-111.33731,38.08331],[-111.33738,38.08324],[-111.33752,38.0831],[-111.3376,38.08302],[-111.33766,38.08295],[-111.3379,38.08269],[-111.33849,38.08208],[-111.33862,38.08194],[-111.33903,38.08151],[-111.33919,38.08135],[-111.33942,38.08111],[-111.33945,38.08109],[-111.33949,38.08104],[-111.33958,38.08094],[-111.33959,38.08093],[-111.33963,38.08086],[-111.33968,38.08079],[-111.33975,38.08068],[-111.33979,38.08057],[-111.33982,38.08042],[-111.33984,38.08034],[-111.33984,38.08028],[-111.33985,38.08018],[-111.33985,38.08008],[-111.33984,38.07998],[-111.33982,38.07988],[-111.33974,38.0796],[-111.33972,38.07954],[-111.33958,38.07902],[-111.33955,38.0789],[-111.33951,38.07877],[-111.33929,38.07793],[-111.33922,38.07767],[-111.3392,38.0776],[-111.33917,38.07749],[-111.33908,38.07723],[-111.33906,38.07714],[-111.33905,38.07713],[-111.33901,38.07703],[-111.33898,38.07697],[-111.33881,38.07656],[-111.3388,38.07655],[-111.33876,38.07646],[-111.33874,38.07641],[-111.33869,38.07629],[-111.33865,38.0762],[-111.33862,38.07612],[-111.33857,38.07599],[-111.33855,38.0759],[-111.33853,38.07577],[-111.33852,38.07564],[-111.33849,38.07523],[-111.33843,38.07431],[-111.33842,38.07417],[-111.33841,38.07415],[-111.33841,38.07406],[-111.3384,38.07397],[-111.33838,38.07373],[-111.33837,38.07361],[-111.33833,38.07317],[-111.33832,38.07308],[-111.33831,38.07301],[-111.33829,38.07292],[-111.33827,38.07284],[-111.33825,38.07276],[-111.33822,38.0727],[-111.33819,38.07263],[-111.33814,38.07253],[-111.33808,38.07245],[-111.33805,38.07239],[-111.33802,38.07235],[-111.33799,38.07232],[-111.33793,38.07224],[-111.33785,38.07213],[-111.33769,38.07193],[-111.33765,38.07188],[-111.33746,38.07166],[-111.33731,38.07149],[-111.33723,38.07139],[-111.33717,38.0713],[-111.33709,38.07118],[-111.33703,38.0711],[-111.33701,38.07107],[-111.33697,38.07102],[-111.33693,38.07097],[-111.33684,38.07089],[-111.33677,38.07082],[-111.33668,38.07076],[-111.33667,38.07075],[-111.33659,38.0707],[-111.33647,38.07064],[-111.33637,38.07059],[-111.33626,38.07054],[-111.33605,38.07045],[-111.33593,38.0704],[-111.3358,38.07033],[-111.33579,38.07032],[-111.3357,38.07027],[-111.33567,38.07025],[-111.33559,38.07019],[-111.33551,38.07013],[-111.33538,38.07002],[-111.33522,38.0699],[-111.33511,38.06982],[-111.33499,38.06975],[-111.33487,38.06969],[-111.33472,38.06963],[-111.33458,38.06958],[-111.3344,38.06953],[-111.3342,38.0695],[-111.3342,38.06949],[-111.33401,38.06947],[-111.33389,38.06945],[-111.33375,38.06944],[-111.33371,38.06943],[-111.33352,38.06942],[-111.33341,38.06942],[-111.33338,38.06942],[-111.3333,38.06942],[-111.33325,38.06942],[-111.33316,38.06943],[-111.33298,38.06946],[-111.33266,38.06953],[-111.33241,38.06958],[-111.33224,38.06962],[-111.33204,38.06967],[-111.33194,38.06968],[-111.33185,38.06969],[-111.33175,38.06969],[-111.33167,38.06968],[-111.33159,38.06966],[-111.33152,38.06965],[-111.3315,38.06964],[-111.33142,38.06961],[-111.33141,38.06961],[-111.33131,38.06956],[-111.33121,38.0695],[-111.33113,38.06944],[-111.33104,38.06936],[-111.33081,38.06914],[-111.33055,38.06887],[-111.33046,38.06877],[-111.33044,38.06874],[-111.33032,38.06861],[-111.33024,38.06851],[-111.33014,38.06837],[-111.33007,38.06827],[-111.33005,38.06823],[-111.33002,38.06818],[-111.32997,38.06807],[-111.32988,38.06791],[-111.32981,38.06773],[-111.32979,38.06769],[-111.32967,38.0674],[-111.32958,38.06716],[-111.32954,38.06703],[-111.32952,38.06694],[-111.32952,38.06682],[-111.32952,38.06669],[-111.32955,38.06653],[-111.32956,38.06651],[-111.3296,38.06633],[-111.32962,38.06625],[-111.32965,38.06615],[-111.32969,38.06603],[-111.3297,38.06598],[-111.32973,38.06586],[-111.32975,38.0657],[-111.32975,38.06562],[-111.32975,38.06548],[-111.32975,38.06544],[-111.32972,38.06523],[-111.32969,38.06506],[-111.32966,38.06491],[-111.32965,38.06484],[-111.32944,38.06413],[-111.32926,38.06357],[-111.32919,38.06339],[-111.32913,38.06325],[-111.32912,38.06323],[-111.32905,38.06311],[-111.32904,38.06308],[-111.32885,38.06278],[-111.32867,38.06248],[-111.32855,38.06227],[-111.32854,38.06226],[-111.32847,38.0621],[-111.32839,38.06191],[-111.32837,38.06181],[-111.32835,38.06163],[-111.32836,38.06142],[-111.32838,38.06122],[-111.32841,38.061],[-111.32842,38.06086],[-111.3285,38.06016],[-111.32853,38.05991],[-111.32855,38.05971],[-111.32855,38.05954],[-111.32854,38.05943],[-111.32854,38.05942],[-111.32853,38.05932],[-111.32851,38.05924],[-111.3285,38.05922],[-111.32847,38.05912],[-111.3284,38.05898],[-111.32831,38.05883],[-111.32825,38.05875],[-111.32822,38.0587],[-111.32815,38.05857],[-111.32813,38.0585],[-111.32811,38.05841],[-111.32809,38.05829],[-111.32807,38.05802],[-111.32805,38.05785],[-111.32802,38.05769],[-111.32799,38.05753],[-111.32795,38.05738],[-111.32794,38.05734],[-111.32789,38.05723],[-111.32787,38.05717],[-111.32782,38.05707],[-111.32772,38.05687],[-111.32761,38.05671],[-111.32747,38.05652],[-111.3273,38.05631],[-111.32722,38.05622],[-111.32711,38.05611],[-111.32708,38.05608],[-111.32692,38.05593],[-111.32669,38.05574],[-111.32661,38.05568],[-111.32645,38.05555],[-111.32633,38.05546],[-111.32621,38.05535],[-111.32615,38.05529],[-111.32607,38.05521],[-111.32591,38.05503],[-111.32588,38.05499],[-111.32578,38.05486],[-111.32565,38.05465],[-111.32549,38.05439],[-111.32539,38.05419],[-111.32538,38.05418],[-111.32533,38.05403],[-111.32533,38.05401],[-111.32529,38.05384],[-111.32529,38.05368],[-111.3253,38.05365],[-111.32533,38.05349],[-111.3254,38.05332],[-111.32549,38.05315],[-111.32562,38.05299],[-111.32573,38.05287],[-111.32582,38.05279],[-111.32591,38.05272],[-111.32602,38.05265],[-111.32617,38.05256],[-111.32644,38.05243],[-111.32674,38.05228],[-111.32704,38.05213],[-111.32705,38.05212],[-111.3272,38.05203],[-111.32724,38.05201],[-111.32737,38.05192],[-111.3275,38.05182],[-111.32766,38.05168],[-111.32779,38.05154],[-111.32789,38.05143],[-111.32797,38.05133],[-111.328,38.05129],[-111.32808,38.05114],[-111.32818,38.05094],[-111.32829,38.05066],[-111.32832,38.05059],[-111.32836,38.05048],[-111.32842,38.05031],[-111.32846,38.05018],[-111.32854,38.04996],[-111.32856,38.04988],[-111.3286,38.04979],[-111.3287,38.04955],[-111.32876,38.04941],[-111.32881,38.04928],[-111.32887,38.0491],[-111.32893,38.04893],[-111.32899,38.04876],[-111.32903,38.04862],[-111.32905,38.04852],[-111.32907,38.0484],[-111.32908,38.0483],[-111.32908,38.04819],[-111.32907,38.04804],[-111.32906,38.04792],[-111.32904,38.04779],[-111.32903,38.04771],[-111.32901,38.04767],[-111.32899,38.04761],[-111.32896,38.04753],[-111.32892,38.04745],[-111.32888,38.04737],[-111.32878,38.04724],[-111.32825,38.04659],[-111.32813,38.04644],[-111.328,38.04629],[-111.32788,38.04613],[-111.32776,38.04598],[-111.32766,38.04586],[-111.32763,38.04583],[-111.32751,38.04568],[-111.3271,38.04518],[-111.32694,38.04498],[-111.3269,38.04492],[-111.32684,38.04484],[-111.32675,38.04468],[-111.32672,38.04459],[-111.3267,38.04454],[-111.32667,38.04441],[-111.32666,38.04429],[-111.32665,38.04416],[-111.32665,38.04414],[-111.32666,38.044],[-111.32669,38.04384],[-111.32675,38.0437],[-111.32683,38.04351],[-111.3269,38.04341],[-111.32707,38.04312],[-111.32709,38.04308],[-111.32737,38.04261],[-111.32747,38.04243],[-111.32755,38.04228],[-111.32769,38.04199],[-111.32773,38.04193],[-111.328,38.04141],[-111.32803,38.04135],[-111.32812,38.04118],[-111.3283,38.04086],[-111.3284,38.04069],[-111.32856,38.04041],[-111.32858,38.04036],[-111.32867,38.0402],[-111.32873,38.04008],[-111.32885,38.03987],[-111.32892,38.03973],[-111.32894,38.0397],[-111.32902,38.03953],[-111.32911,38.03936],[-111.32919,38.0392],[-111.32944,38.0387],[-111.3297,38.0382],[-111.32982,38.03797],[-111.33005,38.03753],[-111.33014,38.03737],[-111.33023,38.0372],[-111.33032,38.03702],[-111.33049,38.0367],[-111.33065,38.03641],[-111.33073,38.03624],[-111.33082,38.03607],[-111.33091,38.03591],[-111.33095,38.03583],[-111.33109,38.03558],[-111.33123,38.03531],[-111.33133,38.03514],[-111.33137,38.03509],[-111.33143,38.035],[-111.33148,38.03493],[-111.3315,38.0349],[-111.33156,38.03483],[-111.33161,38.03478],[-111.33162,38.03476],[-111.33171,38.03468],[-111.33181,38.03459],[-111.33191,38.03451],[-111.33192,38.03451],[-111.33204,38.03443],[-111.33218,38.03434],[-111.33227,38.0343],[-111.33235,38.03426],[-111.33244,38.03422],[-111.33255,38.03418],[-111.33271,38.03413],[-111.33297,38.03405],[-111.33312,38.03402],[-111.33326,38.03398],[-111.33355,38.03392],[-111.33377,38.03387],[-111.33384,38.03385],[-111.33399,38.03382],[-111.33434,38.03374],[-111.33459,38.03369],[-111.33485,38.03364],[-111.33505,38.03361],[-111.33532,38.03357],[-111.33562,38.03354],[-111.33582,38.0335],[-111.33597,38.03347],[-111.33615,38.03341],[-111.33628,38.03336],[-111.33649,38.03326],[-111.33678,38.0331],[-111.33679,38.0331],[-111.33697,38.033],[-111.33699,38.03299],[-111.33712,38.03293],[-111.33726,38.03287],[-111.3375,38.0328],[-111.33759,38.03277],[-111.3378,38.03271],[-111.33803,38.03264],[-111.33817,38.03259],[-111.33823,38.03257],[-111.33832,38.03253],[-111.33844,38.03247],[-111.33856,38.0324],[-111.3386,38.03237],[-111.33868,38.03231],[-111.33884,38.03218],[-111.33916,38.0319],[-111.33923,38.03185],[-111.33934,38.03175],[-111.33939,38.03172],[-111.3395,38.03164],[-111.33965,38.03155],[-111.33997,38.03137],[-111.34012,38.03129],[-111.3404,38.03114],[-111.34071,38.03098],[-111.34102,38.03084],[-111.34129,38.03073],[-111.34149,38.03064],[-111.34158,38.03061],[-111.34169,38.03056],[-111.34179,38.03051],[-111.34192,38.03043],[-111.34204,38.03033],[-111.34213,38.03024],[-111.34221,38.03014],[-111.34227,38.03002],[-111.34228,38.03],[-111.34233,38.02985],[-111.34237,38.02967],[-111.34238,38.02958],[-111.34243,38.02938],[-111.34244,38.02932],[-111.34248,38.02919],[-111.34255,38.029],[-111.34264,38.02878],[-111.34278,38.02846],[-111.34279,38.02843],[-111.34286,38.02829],[-111.3429,38.02819],[-111.34294,38.02812],[-111.34301,38.02798],[-111.34311,38.02781],[-111.34318,38.0277],[-111.34324,38.02763],[-111.34327,38.02759],[-111.34336,38.0275],[-111.34345,38.02741],[-111.34356,38.02732],[-111.34365,38.02726],[-111.34369,38.02723],[-111.34374,38.0272],[-111.34384,38.02715],[-111.34388,38.02713],[-111.34396,38.02709],[-111.34408,38.02704],[-111.34419,38.02701],[-111.3443,38.02697],[-111.34444,38.02694],[-111.3446,38.02692],[-111.34482,38.02688],[-111.34496,38.02686],[-111.34499,38.02685],[-111.34514,38.02682],[-111.34529,38.02678],[-111.34539,38.02675],[-111.34543,38.02673],[-111.34561,38.02666],[-111.34571,38.02661],[-111.34583,38.02656],[-111.34597,38.0265],[-111.34599,38.02649],[-111.34607,38.02646],[-111.34619,38.02642],[-111.3462,38.02641],[-111.34629,38.02639],[-111.34639,38.02636],[-111.34641,38.02635],[-111.3465,38.02633],[-111.3466,38.02631],[-111.34668,38.0263],[-111.34677,38.02629],[-111.34685,38.02628],[-111.34691,38.02627],[-111.347,38.02627],[-111.34709,38.02626],[-111.34717,38.02626],[-111.34743,38.02626],[-111.34754,38.02626],[-111.34787,38.02626],[-111.34812,38.02626],[-111.34823,38.02625],[-111.34838,38.02623],[-111.34845,38.02622],[-111.34853,38.02621],[-111.34867,38.02618],[-111.34871,38.02617],[-111.34883,38.02613],[-111.34889,38.02611],[-111.34899,38.02608],[-111.34909,38.02604],[-111.34911,38.02603],[-111.34924,38.02596],[-111.34929,38.02594],[-111.34938,38.02589],[-111.34947,38.02583],[-111.34958,38.02576],[-111.34973,38.02564],[-111.34979,38.02558],[-111.34984,38.02553],[-111.34992,38.02543],[-111.35,38.02534],[-111.35004,38.02528],[-111.35011,38.02519],[-111.35018,38.02504],[-111.35022,38.02495],[-111.35024,38.0249],[-111.35028,38.02477],[-111.35033,38.0246],[-111.35033,38.02459],[-111.35038,38.02442],[-111.35042,38.02429],[-111.35047,38.02418],[-111.35052,38.02408],[-111.35057,38.02399],[-111.35065,38.02387],[-111.35073,38.02378],[-111.35083,38.02367],[-111.35097,38.02354],[-111.35107,38.02346],[-111.35118,38.02338],[-111.35131,38.0233],[-111.35138,38.02326],[-111.35142,38.02323],[-111.35155,38.02317],[-111.35187,38.02302],[-111.352,38.02296],[-111.35207,38.02291],[-111.35214,38.02285],[-111.3522,38.0228],[-111.35225,38.02272],[-111.35226,38.02271],[-111.3523,38.02264],[-111.35234,38.02254],[-111.3524,38.02237],[-111.35244,38.02219],[-111.35246,38.02209],[-111.3525,38.02184],[-111.3525,38.02183],[-111.35251,38.02164],[-111.3525,38.02151],[-111.35248,38.02138],[-111.35242,38.02112],[-111.35241,38.0211],[-111.35238,38.02095],[-111.35238,38.02094],[-111.35237,38.0208],[-111.35237,38.02068],[-111.35238,38.02053],[-111.35242,38.02033],[-111.35249,38.02005],[-111.3525,38.02001],[-111.35254,38.01988],[-111.35259,38.01972],[-111.35266,38.01956],[-111.35267,38.01954],[-111.35273,38.01943],[-111.35278,38.01938],[-111.35283,38.0193],[-111.35294,38.01919],[-111.35305,38.01909],[-111.35306,38.01908],[-111.3532,38.01899],[-111.35332,38.01892],[-111.35344,38.01886],[-111.35357,38.0188],[-111.35373,38.01875],[-111.35421,38.01858],[-111.35424,38.01857],[-111.35446,38.01851],[-111.35459,38.01846],[-111.35467,38.01843],[-111.35479,38.01839],[-111.35493,38.01833],[-111.35506,38.01826],[-111.35519,38.01818],[-111.35532,38.01809],[-111.35543,38.01799],[-111.35554,38.01788],[-111.35555,38.01787],[-111.35565,38.01776],[-111.35567,38.01773],[-111.35577,38.01757],[-111.35588,38.01741],[-111.35599,38.01725],[-111.35609,38.01709],[-111.35618,38.01695],[-111.3562,38.01693],[-111.3563,38.01677],[-111.35671,38.01616],[-111.35714,38.01549],[-111.35723,38.01534],[-111.35724,38.01533],[-111.35743,38.01503],[-111.35755,38.01485],[-111.35757,38.01482],[-111.35767,38.01467],[-111.35777,38.01454],[-111.35786,38.01445],[-111.35794,38.01436],[-111.35803,38.01428],[-111.35806,38.01426],[-111.35817,38.01417],[-111.35827,38.0141],[-111.35838,38.01402],[-111.35851,38.01395],[-111.35877,38.01381],[-111.359,38.01369],[-111.35934,38.01351],[-111.35953,38.01341],[-111.35955,38.0134],[-111.35998,38.01319],[-111.36012,38.01313],[-111.36021,38.01309],[-111.36032,38.01305],[-111.36037,38.01303],[-111.36054,38.01297],[-111.36073,38.01293],[-111.36091,38.0129],[-111.36097,38.01289],[-111.36108,38.01288],[-111.3612,38.01287],[-111.36128,38.01287],[-111.36143,38.01287],[-111.36147,38.01287],[-111.36204,38.01288],[-111.36211,38.01289],[-111.36234,38.01289],[-111.36257,38.0129],[-111.36326,38.01292],[-111.36349,38.01293],[-111.36369,38.01293],[-111.36371,38.01293],[-111.36386,38.01292],[-111.36393,38.01291],[-111.36403,38.01289],[-111.36419,38.01286],[-111.36429,38.01283],[-111.36447,38.01277],[-111.36458,38.01273],[-111.36478,38.01266],[-111.36479,38.01266],[-111.36499,38.01258],[-111.36519,38.01249],[-111.3654,38.01241],[-111.3656,38.01233],[-111.36566,38.01231],[-111.3658,38.01225],[-111.36641,38.012],[-111.36662,38.01192],[-111.36718,38.01169],[-111.36756,38.01155],[-111.36764,38.01152],[-111.36781,38.01147],[-111.36785,38.01145],[-111.36796,38.01143],[-111.36809,38.0114],[-111.36824,38.01139],[-111.3683,38.01138],[-111.36842,38.01138],[-111.36858,38.01138],[-111.36877,38.0114],[-111.36896,38.01144],[-111.36942,38.01153],[-111.36949,38.01155],[-111.36986,38.01163],[-111.36998,38.01165],[-111.37008,38.01168],[-111.37019,38.01171],[-111.3704,38.01178],[-111.37052,38.01183],[-111.37066,38.01191],[-111.37077,38.01198],[-111.37089,38.01206],[-111.37102,38.01216],[-111.37128,38.01237],[-111.37135,38.01241],[-111.37151,38.01254],[-111.37169,38.01268],[-111.37189,38.01283],[-111.37201,38.01291],[-111.37204,38.01292],[-111.37215,38.01298],[-111.37221,38.013],[-111.37228,38.01303],[-111.37242,38.01306],[-111.37243,38.01307],[-111.37255,38.01309],[-111.37268,38.01311],[-111.37283,38.01311],[-111.37297,38.0131],[-111.37312,38.01308],[-111.37328,38.01304],[-111.37341,38.01299],[-111.37351,38.01295],[-111.37354,38.01293],[-111.37368,38.01285],[-111.3737,38.01284],[-111.37391,38.01268],[-111.37402,38.01258],[-111.37489,38.01187],[-111.37497,38.01181],[-111.37513,38.01168],[-111.37529,38.01155],[-111.37533,38.01151],[-111.37545,38.01142],[-111.37549,38.01139],[-111.37561,38.01129],[-111.37565,38.01126],[-111.3757,38.01122],[-111.37577,38.01116],[-111.37581,38.01113],[-111.37597,38.011],[-111.37608,38.0109],[-111.37612,38.01087],[-111.37619,38.01081],[-111.37624,38.01077],[-111.37628,38.01073],[-111.37639,38.01064],[-111.37644,38.0106],[-111.37662,38.01045],[-111.37678,38.01034],[-111.37688,38.01027],[-111.37688,38.01026],[-111.377,38.01019],[-111.37707,38.01016],[-111.37711,38.01013],[-111.37723,38.01009],[-111.37731,38.01006],[-111.37736,38.01004],[-111.3775,38.01],[-111.37755,38.00999],[-111.3776,38.00998],[-111.37773,38.00996],[-111.37786,38.00995],[-111.37796,38.00995],[-111.37799,38.00995],[-111.3781,38.00995],[-111.37819,38.00996],[-111.37831,38.00997],[-111.37848,38.00999],[-111.37863,38.01001],[-111.37864,38.01001],[-111.3789,38.01006],[-111.379,38.01008],[-111.37912,38.0101],[-111.3793,38.01014],[-111.37985,38.01024],[-111.37997,38.01026],[-111.3804,38.01034],[-111.38075,38.0104],[-111.38087,38.0104],[-111.3809,38.0104],[-111.38095,38.0104],[-111.38097,38.0104],[-111.38105,38.01039],[-111.38113,38.01039],[-111.38127,38.01036],[-111.38136,38.01035],[-111.38145,38.01032],[-111.38156,38.01029],[-111.38163,38.01026],[-111.38178,38.0102],[-111.38191,38.01014],[-111.38219,38.01001],[-111.38223,38.01],[-111.38236,38.00993],[-111.38242,38.00991],[-111.38262,38.00982],[-111.38276,38.00976],[-111.38282,38.00973],[-111.38286,38.00971],[-111.38293,38.00969],[-111.38303,38.00966],[-111.38312,38.00963],[-111.3832,38.00961],[-111.38325,38.0096],[-111.38339,38.00957],[-111.38355,38.00954],[-111.38363,38.00954],[-111.38371,38.00953],[-111.38383,38.00953],[-111.38392,38.00953],[-111.38406,38.00953],[-111.38441,38.00954],[-111.38483,38.00955],[-111.38499,38.00956],[-111.38502,38.00956],[-111.38506,38.00956],[-111.38522,38.00956],[-111.38583,38.00957],[-111.38598,38.00958],[-111.38654,38.00959],[-111.38682,38.0096],[-111.38705,38.0096],[-111.38712,38.0096],[-111.38726,38.00961],[-111.3876,38.0096],[-111.38783,38.00959],[-111.38798,38.00957],[-111.38823,38.00952],[-111.38837,38.00948],[-111.38855,38.00939],[-111.38864,38.00934],[-111.38873,38.00929],[-111.38883,38.00923],[-111.38894,38.00914],[-111.389,38.00909],[-111.38907,38.00901],[-111.38914,38.00894],[-111.38923,38.0088],[-111.38943,38.00851],[-111.38952,38.00838],[-111.38956,38.00833],[-111.38966,38.00818],[-111.38966,38.00817],[-111.38978,38.00801],[-111.38986,38.0079],[-111.38987,38.00788],[-111.38989,38.00786],[-111.38995,38.00779],[-111.39002,38.00772],[-111.39009,38.00764],[-111.39021,38.00754],[-111.39033,38.00746],[-111.39048,38.00739],[-111.39054,38.00736],[-111.39066,38.0073],[-111.39067,38.00729],[-111.39106,38.0071],[-111.39112,38.00708],[-111.39119,38.00704],[-111.39125,38.00701],[-111.39171,38.00678],[-111.39195,38.00666],[-111.39209,38.0066],[-111.39232,38.0065],[-111.39243,38.00646],[-111.3925,38.00644],[-111.39252,38.00643],[-111.39265,38.00641],[-111.39286,38.00638],[-111.39287,38.00638],[-111.39294,38.00637],[-111.39306,38.00637],[-111.3931,38.00637],[-111.39329,38.00638],[-111.3934,38.00639],[-111.39348,38.00641],[-111.39366,38.00645],[-111.39375,38.00647],[-111.39384,38.0065],[-111.39395,38.00654],[-111.3941,38.00662],[-111.39422,38.00668],[-111.39434,38.00675],[-111.39435,38.00676],[-111.3944,38.00679],[-111.39451,38.00686],[-111.39458,38.00691],[-111.39461,38.00694],[-111.39474,38.00703],[-111.39491,38.00715],[-111.39503,38.00724],[-111.39572,38.00772],[-111.39576,38.00775],[-111.39588,38.00784],[-111.39593,38.00787],[-111.39604,38.00794],[-111.39611,38.00799],[-111.39622,38.00807],[-111.39625,38.00809],[-111.3964,38.00818],[-111.39646,38.00822],[-111.3966,38.00829],[-111.39672,38.00835],[-111.39682,38.00839],[-111.39685,38.0084],[-111.39689,38.00841],[-111.39697,38.00844],[-111.39709,38.00848],[-111.39721,38.00851],[-111.39743,38.00858],[-111.39748,38.0086],[-111.39775,38.00867],[-111.39785,38.0087],[-111.39813,38.00879],[-111.39828,38.00883],[-111.39849,38.00889],[-111.39871,38.00896],[-111.39878,38.00898],[-111.3989,38.00902],[-111.39901,38.00905],[-111.39912,38.00907],[-111.39916,38.00909],[-111.39931,38.00911],[-111.39946,38.00914],[-111.39954,38.00915],[-111.39956,38.00915],[-111.39964,38.00915],[-111.39979,38.00915],[-111.3999,38.00915],[-111.40002,38.00913],[-111.40008,38.00913],[-111.40024,38.0091],[-111.40032,38.00909],[-111.40046,38.00905],[-111.40068,38.009],[-111.40111,38.0089],[-111.40133,38.00885],[-111.40155,38.0088],[-111.40177,38.00875],[-111.40199,38.0087],[-111.40199,38.00869],[-111.4022,38.00864],[-111.40221,38.00864],[-111.40242,38.00859],[-111.40286,38.00849],[-111.40308,38.00844],[-111.40317,38.00842],[-111.4033,38.00839],[-111.4033,38.00838],[-111.40345,38.00835],[-111.40352,38.00833],[-111.40363,38.0083],[-111.40373,38.00827],[-111.40384,38.00824],[-111.40394,38.00819],[-111.40397,38.00818],[-111.40403,38.00815],[-111.40413,38.0081],[-111.40417,38.00808],[-111.40432,38.00799],[-111.40439,38.00795],[-111.40448,38.00789],[-111.40456,38.00783],[-111.40465,38.00775],[-111.40465,38.00774],[-111.40486,38.00749],[-111.40489,38.00745],[-111.4049,38.00744],[-111.40493,38.00739],[-111.405,38.00725],[-111.40504,38.00717],[-111.40508,38.00707],[-111.40509,38.00702],[-111.40512,38.0069],[-111.40514,38.00679],[-111.40514,38.00676],[-111.40515,38.00658],[-111.40514,38.00643],[-111.40514,38.0064],[-111.40512,38.00622],[-111.4051,38.00604],[-111.40508,38.00581],[-111.40506,38.00561],[-111.40507,38.0055],[-111.40507,38.00548],[-111.40509,38.00533],[-111.40511,38.00522],[-111.40518,38.00497],[-111.40519,38.00495],[-111.40521,38.00491],[-111.40525,38.0048],[-111.40531,38.00468],[-111.40539,38.00455],[-111.40545,38.00448],[-111.40545,38.00447],[-111.40551,38.00439],[-111.40557,38.00432],[-111.4057,38.00419],[-111.40571,38.00418],[-111.40594,38.00397],[-111.40608,38.00388],[-111.40613,38.00385],[-111.4062,38.00381],[-111.40627,38.00377],[-111.40641,38.00369],[-111.40656,38.00363],[-111.40681,38.00353],[-111.40693,38.00349],[-111.40727,38.00337],[-111.4074,38.00331],[-111.40741,38.00331],[-111.40745,38.00329],[-111.40761,38.00321],[-111.4077,38.00315],[-111.40778,38.0031],[-111.40779,38.0031],[-111.40796,38.00298],[-111.40808,38.00289],[-111.40825,38.00271],[-111.40834,38.00262],[-111.40852,38.00242],[-111.40883,38.00203],[-111.40889,38.00196],[-111.40897,38.00185],[-111.40923,38.00157],[-111.40957,38.00124],[-111.40959,38.00122],[-111.41002,38.00083],[-111.41046,38.00043],[-111.41047,38.00043],[-111.41077,38.00016],[-111.41092,38.00002],[-111.41098,37.99996],[-111.41121,37.99975],[-111.41136,37.99962],[-111.41137,37.99961],[-111.41152,37.99947],[-111.41205,37.99901],[-111.41225,37.99883],[-111.41233,37.99877],[-111.41241,37.9987],[-111.41248,37.99865],[-111.41259,37.99859],[-111.4127,37.99853],[-111.41282,37.99847],[-111.41299,37.9984],[-111.41309,37.99836],[-111.41323,37.99832],[-111.41339,37.99828],[-111.41344,37.99827],[-111.41358,37.99824],[-111.41383,37.99821],[-111.414,37.99819],[-111.41472,37.99814],[-111.4148,37.99813],[-111.41502,37.99811],[-111.41518,37.9981],[-111.41525,37.99809],[-111.41554,37.99806],[-111.4157,37.99803],[-111.4158,37.99801],[-111.41592,37.99798],[-111.41602,37.99795],[-111.41617,37.99789],[-111.41632,37.99782],[-111.41643,37.99776],[-111.41661,37.99763],[-111.41679,37.99748],[-111.41687,37.99739],[-111.41695,37.99729],[-111.41702,37.99719],[-111.41708,37.99708],[-111.41717,37.99687],[-111.41723,37.99669],[-111.41738,37.99628],[-111.41745,37.9961],[-111.41751,37.99593],[-111.41754,37.99584],[-111.4177,37.99544],[-111.41774,37.99533],[-111.41786,37.99508],[-111.41786,37.99507],[-111.41791,37.99496],[-111.41802,37.99474],[-111.41808,37.99464],[-111.41816,37.99448],[-111.41836,37.99407],[-111.41844,37.99393],[-111.41845,37.99391],[-111.41852,37.99376],[-111.41853,37.99374],[-111.41862,37.99357],[-111.41864,37.99354],[-111.4187,37.99343],[-111.41871,37.99341],[-111.41879,37.99329],[-111.41881,37.99325],[-111.41882,37.99325],[-111.41887,37.99317],[-111.41894,37.99309],[-111.41906,37.99297],[-111.41907,37.99295],[-111.41908,37.99295],[-111.41913,37.9929],[-111.41923,37.99282],[-111.41924,37.99281],[-111.41946,37.99265],[-111.41956,37.99258],[-111.41956,37.99257],[-111.41974,37.99244],[-111.42034,37.99201],[-111.42057,37.99187],[-111.42073,37.99178],[-111.42098,37.99168],[-111.42098,37.99167],[-111.42119,37.99162],[-111.4212,37.99162],[-111.42125,37.9916],[-111.42144,37.99156],[-111.42185,37.99148],[-111.42186,37.99148],[-111.42187,37.99148],[-111.42224,37.99141],[-111.4223,37.9914],[-111.42244,37.99138],[-111.42253,37.99137],[-111.42257,37.99137],[-111.42272,37.99136],[-111.42276,37.99136],[-111.42285,37.99136],[-111.4229,37.99136],[-111.42298,37.99137],[-111.42301,37.99138],[-111.4231,37.99139],[-111.4232,37.99141],[-111.42321,37.99141],[-111.4233,37.99144],[-111.42336,37.99146],[-111.42351,37.99153],[-111.4236,37.99158],[-111.4236,37.99159],[-111.42371,37.99166],[-111.42377,37.9917],[-111.42377,37.99171],[-111.42382,37.99174],[-111.42393,37.99183],[-111.42393,37.99184],[-111.42394,37.99184],[-111.424,37.9919],[-111.4241,37.99198],[-111.42417,37.99203],[-111.42422,37.99207],[-111.42425,37.99209],[-111.42426,37.99209],[-111.42433,37.99214],[-111.42445,37.99219],[-111.42452,37.99223],[-111.42457,37.99225],[-111.42464,37.99227],[-111.42465,37.99227],[-111.42466,37.99228],[-111.42486,37.99233],[-111.42494,37.99234],[-111.42501,37.99235],[-111.42511,37.99237],[-111.42528,37.99238],[-111.42558,37.9924],[-111.42587,37.99242],[-111.4261,37.99243],[-111.42626,37.99244],[-111.42628,37.99244],[-111.42644,37.99245],[-111.42649,37.99246],[-111.42666,37.99249],[-111.42676,37.99251],[-111.42691,37.99255],[-111.42699,37.99258],[-111.42719,37.99266],[-111.42724,37.99269],[-111.42734,37.99274],[-111.42749,37.99285],[-111.42752,37.99287],[-111.42758,37.99292],[-111.42765,37.99298],[-111.42765,37.99299],[-111.42773,37.99307],[-111.42777,37.99311],[-111.42783,37.99319],[-111.42789,37.99328],[-111.42789,37.99329],[-111.42796,37.99343],[-111.42797,37.99346],[-111.42801,37.99359],[-111.42802,37.99363],[-111.42803,37.99369],[-111.42805,37.99378],[-111.42807,37.99399],[-111.42808,37.99406],[-111.42809,37.99417],[-111.42809,37.99419],[-111.42811,37.99425],[-111.42814,37.99434],[-111.42815,37.99434],[-111.42819,37.99441],[-111.42825,37.99449],[-111.42836,37.99459],[-111.42846,37.99466],[-111.42851,37.99469],[-111.42857,37.99472],[-111.42864,37.99475],[-111.42874,37.99478],[-111.42881,37.9948],[-111.42892,37.99482],[-111.42905,37.99483],[-111.4292,37.99483],[-111.42933,37.99481],[-111.42938,37.9948],[-111.42948,37.99478],[-111.42952,37.99476],[-111.4296,37.99473],[-111.42968,37.99468],[-111.42972,37.99466],[-111.42979,37.99462],[-111.42988,37.99454],[-111.4299,37.99452],[-111.42998,37.99442],[-111.43,37.99439],[-111.43004,37.99432],[-111.43008,37.99421],[-111.4301,37.99411],[-111.43011,37.99405],[-111.4301,37.99389],[-111.43005,37.9935],[-111.43004,37.99347],[-111.43002,37.99332],[-111.42999,37.99314],[-111.42997,37.99299],[-111.42996,37.99297],[-111.4299,37.99261],[-111.42985,37.99238],[-111.42983,37.99225],[-111.42979,37.99208],[-111.42972,37.99172],[-111.42968,37.99154],[-111.42965,37.99137],[-111.42961,37.99119],[-111.42956,37.99097],[-111.42947,37.99032],[-111.42943,37.99005],[-111.42938,37.98981],[-111.42937,37.98958],[-111.42936,37.98944],[-111.42938,37.98922],[-111.42938,37.9892],[-111.42943,37.98905],[-111.42949,37.98889],[-111.42965,37.98859],[-111.42995,37.98807],[-111.43006,37.98789],[-111.43007,37.98786],[-111.43012,37.98778],[-111.43023,37.9875],[-111.43027,37.98738],[-111.43033,37.98719],[-111.43035,37.98707],[-111.43036,37.98698],[-111.43037,37.98689],[-111.43037,37.98687],[-111.43039,37.98663],[-111.43045,37.98581],[-111.43046,37.98571],[-111.43047,37.98545],[-111.43048,37.98527],[-111.43049,37.98509],[-111.4305,37.98491],[-111.43051,37.98473],[-111.43054,37.9842],[-111.43057,37.98366],[-111.43065,37.9824],[-111.43065,37.98234],[-111.43067,37.98177],[-111.4308,37.97996],[-111.43086,37.97906],[-111.43098,37.97726],[-111.43101,37.97658],[-111.43115,37.97459],[-111.43118,37.97417],[-111.43122,37.97351],[-111.43128,37.97274],[-111.4313,37.97244],[-111.43138,37.97119],[-111.43143,37.97059],[-111.43145,37.97026],[-111.4315,37.96955],[-111.43152,37.96909],[-111.43156,37.96857],[-111.43158,37.96825],[-111.4316,37.96794],[-111.43163,37.96774],[-111.43166,37.96756],[-111.43171,37.9674],[-111.43171,37.96738],[-111.43176,37.96723],[-111.43189,37.9669],[-111.43206,37.96651],[-111.43228,37.96604],[-111.43263,37.96529],[-111.43276,37.96502],[-111.43285,37.96485],[-111.43303,37.96447],[-111.43333,37.96384],[-111.43347,37.96354],[-111.43357,37.96334],[-111.43366,37.96317],[-111.43404,37.96239],[-111.43446,37.96147],[-111.43467,37.96104],[-111.43477,37.96081],[-111.4348,37.96075],[-111.4349,37.9605],[-111.43502,37.96019],[-111.43512,37.95988],[-111.43519,37.95966],[-111.43526,37.95942],[-111.43541,37.95883],[-111.43547,37.95849],[-111.43552,37.9581],[-111.43555,37.95788],[-111.4356,37.95732],[-111.43563,37.95699],[-111.43564,37.95685],[-111.43564,37.95681],[-111.43565,37.95667],[-111.43564,37.95648],[-111.43563,37.95633],[-111.43562,37.95615],[-111.43561,37.95595],[-111.43558,37.95567],[-111.43555,37.95543],[-111.43554,37.95536],[-111.43552,37.95525],[-111.43548,37.95503],[-111.43542,37.95474],[-111.43537,37.95452],[-111.43529,37.9542],[-111.43529,37.95419],[-111.43524,37.95401],[-111.43512,37.95359],[-111.43488,37.95294],[-111.43483,37.9528],[-111.43472,37.95253],[-111.43443,37.95182],[-111.43418,37.95119],[-111.43381,37.95025],[-111.43351,37.94954],[-111.4334,37.94928],[-111.43328,37.94896],[-111.43309,37.94847],[-111.43308,37.94844],[-111.43297,37.94819],[-111.43281,37.94779],[-111.43274,37.94758],[-111.43272,37.94751],[-111.43269,37.94741],[-111.43265,37.94725],[-111.4326,37.94705],[-111.43257,37.94688],[-111.43256,37.94681],[-111.43254,37.94672],[-111.43252,37.94652],[-111.43252,37.94651],[-111.43251,37.94626],[-111.43251,37.94595],[-111.43251,37.94574],[-111.43253,37.94543],[-111.43255,37.94526],[-111.43255,37.94523],[-111.43262,37.94492],[-111.43268,37.94464],[-111.43279,37.94418],[-111.43287,37.9438],[-111.43296,37.94341],[-111.43305,37.94304],[-111.43308,37.94288],[-111.4331,37.94272],[-111.43312,37.94259],[-111.43312,37.94257],[-111.43312,37.94239],[-111.4331,37.94215],[-111.43308,37.94205],[-111.43305,37.94188],[-111.43299,37.94166],[-111.43292,37.94146],[-111.43289,37.94135],[-111.43284,37.94121],[-111.43275,37.94093],[-111.43266,37.94068],[-111.43253,37.9403],[-111.43251,37.94023],[-111.43248,37.94013],[-111.43231,37.93964],[-111.43218,37.93924],[-111.43213,37.93911],[-111.43174,37.93793],[-111.43143,37.93703],[-111.43131,37.93669],[-111.43125,37.93648],[-111.43123,37.93638],[-111.43121,37.93633],[-111.43119,37.93623],[-111.43115,37.93601],[-111.43112,37.93578],[-111.4311,37.93562],[-111.43107,37.93518],[-111.43105,37.93481],[-111.43103,37.93456],[-111.43099,37.93421],[-111.43095,37.93401],[-111.43088,37.93374],[-111.43079,37.93347],[-111.43072,37.93327],[-111.43055,37.93279],[-111.43047,37.93256],[-111.43039,37.93228],[-111.4303,37.93204],[-111.43026,37.93193],[-111.43018,37.93178],[-111.43009,37.9316],[-111.43,37.93144],[-111.42993,37.93132],[-111.42985,37.93121],[-111.42971,37.93103],[-111.42953,37.9308],[-111.42935,37.93057],[-111.42929,37.9305],[-111.42921,37.9304],[-111.42903,37.93017],[-111.42893,37.93004],[-111.42885,37.92991],[-111.42877,37.92976],[-111.42869,37.9296],[-111.42859,37.9294],[-111.42848,37.92915],[-111.42833,37.92882],[-111.42824,37.92859],[-111.42802,37.92808],[-111.42794,37.92791],[-111.42793,37.92789],[-111.42773,37.92744],[-111.42759,37.92713],[-111.42729,37.92643],[-111.42704,37.92587],[-111.42694,37.92564],[-111.42679,37.9253],[-111.42661,37.92489],[-111.42643,37.92449],[-111.4262,37.92398],[-111.42602,37.92358],[-111.42598,37.92349],[-111.42579,37.92305],[-111.42575,37.92297],[-111.42539,37.92215],[-111.4253,37.92191],[-111.42523,37.92173],[-111.42519,37.92159],[-111.42513,37.92141],[-111.42509,37.92128],[-111.42504,37.92104],[-111.42501,37.92086],[-111.42495,37.9204],[-111.42484,37.91942],[-111.42482,37.91925],[-111.42482,37.91924],[-111.4248,37.91904],[-111.42478,37.91888],[-111.42474,37.91852],[-111.42472,37.91835],[-111.42472,37.91834],[-111.42469,37.91816],[-111.42467,37.91798],[-111.42465,37.9178],[-111.42461,37.91744],[-111.42456,37.91703],[-111.42454,37.91684],[-111.42448,37.91632],[-111.42446,37.91614],[-111.42445,37.91605],[-111.42441,37.91577],[-111.42432,37.91499],[-111.42431,37.91489],[-111.4243,37.91479],[-111.42428,37.91463],[-111.42428,37.91436],[-111.42427,37.91413],[-111.42427,37.91405],[-111.42427,37.91352],[-111.42427,37.91334],[-111.42427,37.9128],[-111.42427,37.91262],[-111.42427,37.91244],[-111.42427,37.91226],[-111.42427,37.91174],[-111.42427,37.9115],[-111.42426,37.91084],[-111.42426,37.91079],[-111.42427,37.90987],[-111.42427,37.9088],[-111.42427,37.90869],[-111.42427,37.90834],[-111.42427,37.90815],[-111.42426,37.90756],[-111.42427,37.90681],[-111.42427,37.90675],[-111.42427,37.90663],[-111.42427,37.90627],[-111.4243,37.90596],[-111.42431,37.90583],[-111.42434,37.90566],[-111.42434,37.90563],[-111.4244,37.90537],[-111.42442,37.90529],[-111.42446,37.90515],[-111.42447,37.90513],[-111.42452,37.90495],[-111.42452,37.90494],[-111.42457,37.90479],[-111.42463,37.90459],[-111.42467,37.90443],[-111.42469,37.90426],[-111.42472,37.90407],[-111.42473,37.90388],[-111.42473,37.90387],[-111.42472,37.90365],[-111.42473,37.90352],[-111.42473,37.90334],[-111.42473,37.90331],[-111.42472,37.9028],[-111.42471,37.90208],[-111.42471,37.90194],[-111.42472,37.90185],[-111.42474,37.9017],[-111.42478,37.9016],[-111.42481,37.90155],[-111.42482,37.90153],[-111.42489,37.90144],[-111.42496,37.90136],[-111.42509,37.90126],[-111.42509,37.90126],[-111.4249,37.90119],[-111.42475,37.90112],[-111.42462,37.90109],[-111.42446,37.90107],[-111.42445,37.90107],[-111.42444,37.90106],[-111.42429,37.90106],[-111.42423,37.90106],[-111.42408,37.90106],[-111.424,37.90106],[-111.42365,37.90105],[-111.42266,37.90105],[-111.42239,37.90105],[-111.42221,37.90105],[-111.42209,37.90105],[-111.42118,37.90104],[-111.42095,37.90103],[-111.42073,37.90103],[-111.4205,37.90103],[-111.42027,37.90103],[-111.41947,37.90102],[-111.41856,37.90102],[-111.41784,37.90103],[-111.41784,37.90103],[-111.4179,37.90095],[-111.41792,37.90092],[-111.41792,37.90089],[-111.41792,37.90086],[-111.41791,37.90083],[-111.41791,37.90068],[-111.41791,37.9005],[-111.41791,37.89965],[-111.41791,37.89912],[-111.4179,37.89897],[-111.41787,37.8988],[-111.41785,37.89875],[-111.4178,37.89859],[-111.41779,37.89858],[-111.41775,37.89848],[-111.41766,37.89833],[-111.41757,37.89818],[-111.41753,37.89808],[-111.41748,37.89798],[-111.4174,37.89781],[-111.41733,37.89757],[-111.41728,37.89739],[-111.41727,37.89738],[-111.41724,37.89721],[-111.41714,37.89668],[-111.4171,37.8965],[-111.41705,37.89623],[-111.41702,37.89597],[-111.41701,37.8959],[-111.41698,37.8957],[-111.41693,37.89546],[-111.41683,37.89499],[-111.41678,37.89475],[-111.41676,37.89464],[-111.41671,37.89441],[-111.41671,37.8944],[-111.41653,37.89375],[-111.41652,37.89369],[-111.41647,37.89352],[-111.41644,37.8934],[-111.41642,37.89334],[-111.41618,37.89246],[-111.416,37.89182],[-111.41591,37.8915],[-111.41584,37.89123],[-111.41576,37.89094],[-111.41571,37.89074],[-111.41547,37.88984],[-111.41544,37.88976],[-111.41541,37.88969],[-111.41537,37.88963],[-111.41532,37.88959],[-111.41527,37.88956],[-111.41516,37.88956],[-111.41416,37.8896],[-111.41413,37.8896],[-111.4141,37.8896],[-111.41402,37.8896],[-111.41393,37.8896],[-111.41384,37.88956],[-111.41379,37.8895],[-111.41376,37.88934],[-111.41374,37.88873],[-111.41374,37.88871],[-111.41374,37.88855],[-111.41373,37.88747],[-111.41373,37.88727],[-111.41373,37.88619],[-111.41372,37.88585],[-111.41372,37.88565],[-111.41372,37.88477],[-111.41372,37.88475],[-111.41372,37.88385],[-111.41372,37.88375]]}}]}