{"type":"FeatureCollection","features":[{"type":"Feature","properties":{"_gpxType":"trk","name":"1280 S Lower Boulder Rd - Escalante Outfitters, West Main Street, Escalante, UT","coordinateProperties":{},"id":84},"geometry":{"type":"LineString","coordinates":[[-111.41372,37.8838],[-111.41372,37.88385],[-111.41372,37.88475],[-111.41372,37.88477],[-111.41372,37.88565],[-111.41372,37.88585],[-111.41373,37.88619],[-111.41373,37.88727],[-111.41373,37.88747],[-111.41374,37.88855],[-111.41374,37.88871],[-111.41374,37.88873],[-111.41376,37.88934],[-111.41379,37.8895],[-111.41384,37.88956],[-111.41393,37.8896],[-111.41402,37.8896],[-111.4141,37.8896],[-111.41413,37.8896],[-111.41416,37.8896],[-111.41516,37.88956],[-111.41527,37.88956],[-111.41532,37.88959],[-111.41537,37.88963],[-111.41541,37.88969],[-111.41544,37.88976],[-111.41547,37.88984],[-111.41571,37.89074],[-111.41576,37.89094],[-111.41584,37.89123],[-111.41591,37.8915],[-111.416,37.89182],[-111.41618,37.89246],[-111.41642,37.89334],[-111.41644,37.8934],[-111.41647,37.89352],[-111.41652,37.89369],[-111.41653,37.89375],[-111.41671,37.8944],[-111.41671,37.89441],[-111.41676,37.89464],[-111.41678,37.89475],[-111.41683,37.89499],[-111.41693,37.89546],[-111.41698,37.8957],[-111.41701,37.8959],[-111.41702,37.89597],[-111.41705,37.89623],[-111.4171,37.8965],[-111.41714,37.89668],[-111.41724,37.89721],[-111.41727,37.89738],[-111.41728,37.89739],[-111.41733,37.89757],[-111.4174,37.89781],[-111.41748,37.89798],[-111.41753,37.89808],[-111.41757,37.89818],[-111.41766,37.89833],[-111.41775,37.89848],[-111.41779,37.89858],[-111.4178,37.89859],[-111.41785,37.89875],[-111.41787,37.8988],[-111.4179,37.89897],[-111.41791,37.89912],[-111.41791,37.89965],[-111.41791,37.9005],[-111.41791,37.90068],[-111.41791,37.90083],[-111.41792,37.90086],[-111.41792,37.90089],[-111.41792,37.90092],[-111.4179,37.90095],[-111.41784,37.90103],[-111.41784,37.90103],[-111.41856,37.90102],[-111.41947,37.90102],[-111.42027,37.90103],[-111.4205,37.90103],[-111.42073,37.90103],[-111.42095,37.90103],[-111.42118,37.90104],[-111.42209,37.90105],[-111.42221,37.90105],[-111.42239,37.90105],[-111.42266,37.90105],[-111.42365,37.90105],[-111.424,37.90106],[-111.42408,37.90106],[-111.42423,37.90106],[-111.42429,37.90106],[-111.42444,37.90106],[-111.42445,37.90107],[-111.42446,37.90107],[-111.42462,37.90109],[-111.42475,37.90112],[-111.4249,37.90119],[-111.42509,37.90126],[-111.42509,37.90126],[-111.42522,37.90119],[-111.42529,37.90116],[-111.42539,37.90113],[-111.42548,37.90112],[-111.42558,37.9011],[-111.42571,37.90108],[-111.42572,37.90108],[-111.42573,37.90108],[-111.42588,37.90107],[-111.42626,37.90107],[-111.42645,37.90107],[-111.42668,37.90107],[-111.42691,37.90107],[-111.4271,37.90107],[-111.42729,37.90107],[-111.42733,37.90107],[-111.42749,37.90107],[-111.42774,37.90107],[-111.42778,37.90107],[-111.42801,37.90106],[-111.42824,37.90106],[-111.42847,37.90106],[-111.42849,37.90106],[-111.4287,37.90106],[-111.42892,37.90106],[-111.42911,37.90106],[-111.42934,37.90106],[-111.42984,37.90106],[-111.42997,37.90106],[-111.43006,37.90106],[-111.43029,37.90106],[-111.43071,37.90105],[-111.43093,37.90105],[-111.43116,37.90105],[-111.43169,37.90105],[-111.43287,37.90105],[-111.4331,37.90105],[-111.43355,37.90105],[-111.43397,37.90105],[-111.43465,37.90106],[-111.43472,37.90106],[-111.43534,37.90106],[-111.43539,37.90106],[-111.43566,37.90106],[-111.43593,37.90105],[-111.43602,37.90105],[-111.43614,37.90105],[-111.4363,37.90104],[-111.43644,37.90103],[-111.43658,37.90101],[-111.4367,37.90098],[-111.43675,37.90097],[-111.43695,37.90091],[-111.43713,37.90084],[-111.43727,37.90076],[-111.43748,37.90063],[-111.43761,37.90053],[-111.4377,37.90045],[-111.43778,37.90036],[-111.43789,37.90022],[-111.43798,37.90008],[-111.43806,37.8999],[-111.43812,37.89975],[-111.43813,37.8997],[-111.43817,37.89958],[-111.43819,37.89952],[-111.43822,37.89939],[-111.43823,37.89935],[-111.43825,37.89929],[-111.4383,37.89919],[-111.4383,37.89918],[-111.43836,37.89908],[-111.4384,37.89902],[-111.43846,37.89894],[-111.43852,37.89886],[-111.43856,37.89882],[-111.43861,37.89875],[-111.4387,37.89867],[-111.43882,37.89858],[-111.43891,37.89851],[-111.43899,37.89846],[-111.43912,37.89839],[-111.43925,37.89834],[-111.43938,37.89829],[-111.43954,37.89825],[-111.4397,37.89821],[-111.43993,37.89817],[-111.44004,37.89816],[-111.44026,37.89812],[-111.44056,37.89807],[-111.44071,37.89804],[-111.44108,37.89798],[-111.44115,37.89797],[-111.44155,37.89791],[-111.44185,37.89786],[-111.442,37.89783],[-111.44223,37.89779],[-111.44245,37.89776],[-111.44252,37.89774],[-111.4429,37.89768],[-111.44334,37.89761],[-111.44341,37.8976],[-111.44356,37.89757],[-111.44379,37.89753],[-111.44423,37.89746],[-111.44446,37.89742],[-111.44468,37.89739],[-111.4449,37.89735],[-111.44601,37.89717],[-111.44616,37.89714],[-111.44628,37.89712],[-111.44645,37.89709],[-111.44662,37.89704],[-111.44671,37.89701],[-111.44681,37.89697],[-111.44692,37.89692],[-111.44705,37.89684],[-111.44718,37.89675],[-111.44729,37.89667],[-111.44735,37.8966],[-111.44736,37.8966],[-111.44742,37.89653],[-111.44747,37.89647],[-111.44748,37.89645],[-111.44755,37.89637],[-111.44759,37.8963],[-111.4476,37.89628],[-111.44764,37.89621],[-111.44769,37.89608],[-111.44773,37.89595],[-111.44778,37.8958],[-111.44782,37.89562],[-111.44785,37.89549],[-111.44785,37.89542],[-111.44785,37.89537],[-111.44784,37.89531],[-111.44782,37.89525],[-111.44781,37.89523],[-111.44775,37.8951],[-111.44765,37.89494],[-111.44758,37.89485],[-111.44746,37.89472],[-111.44739,37.89463],[-111.44738,37.89462],[-111.44729,37.89448],[-111.44717,37.89433],[-111.44705,37.89415],[-111.447,37.89409],[-111.44686,37.89386],[-111.44676,37.89368],[-111.44675,37.89366],[-111.44667,37.89351],[-111.44657,37.89333],[-111.4465,37.8932],[-111.44648,37.89317],[-111.44633,37.8929],[-111.44621,37.89269],[-111.44605,37.89237],[-111.44603,37.89234],[-111.44598,37.89223],[-111.4459,37.8921],[-111.44582,37.89194],[-111.4458,37.89183],[-111.4458,37.89182],[-111.4458,37.89171],[-111.44581,37.89165],[-111.44583,37.89159],[-111.44588,37.89148],[-111.44588,37.89146],[-111.44598,37.89132],[-111.44605,37.89123],[-111.44625,37.89096],[-111.44633,37.89086],[-111.44646,37.89071],[-111.4466,37.89054],[-111.4467,37.89041],[-111.44697,37.89006],[-111.4472,37.88978],[-111.44736,37.88958],[-111.44754,37.88934],[-111.44767,37.88919],[-111.44776,37.88909],[-111.4478,37.88904],[-111.44787,37.88897],[-111.44795,37.88889],[-111.44804,37.88882],[-111.44811,37.88877],[-111.44814,37.88875],[-111.44823,37.88871],[-111.4483,37.88868],[-111.44835,37.88865],[-111.44849,37.88861],[-111.44851,37.88861],[-111.4486,37.88859],[-111.44867,37.88858],[-111.44873,37.88858],[-111.44876,37.88858],[-111.44885,37.88857],[-111.44898,37.88859],[-111.44907,37.8886],[-111.44918,37.88863],[-111.44923,37.88865],[-111.44927,37.88866],[-111.44937,37.8887],[-111.44938,37.88871],[-111.44949,37.88877],[-111.44962,37.88888],[-111.44973,37.88899],[-111.44978,37.88904],[-111.44983,37.88911],[-111.4499,37.88919],[-111.45004,37.88934],[-111.45023,37.88955],[-111.45029,37.88961],[-111.45044,37.88978],[-111.45063,37.89001],[-111.45074,37.89015],[-111.45078,37.8902],[-111.4508,37.89023],[-111.45085,37.8903],[-111.45094,37.89041],[-111.45108,37.89061],[-111.45109,37.89061],[-111.45114,37.8907],[-111.45119,37.89077],[-111.45126,37.89086],[-111.45139,37.89106],[-111.45147,37.89117],[-111.45152,37.89124],[-111.45153,37.89125],[-111.4517,37.89145],[-111.45185,37.89159],[-111.45194,37.89167],[-111.45199,37.89172],[-111.45218,37.89187],[-111.45239,37.89202],[-111.45259,37.89215],[-111.4526,37.89216],[-111.45277,37.89226],[-111.45279,37.89227],[-111.45289,37.89232],[-111.45296,37.89236],[-111.45313,37.89244],[-111.45336,37.89254],[-111.45352,37.8926],[-111.45358,37.89262],[-111.45367,37.89265],[-111.45369,37.89266],[-111.45376,37.89268],[-111.45379,37.89269],[-111.45385,37.89272],[-111.45393,37.89275],[-111.45404,37.8928],[-111.45411,37.89283],[-111.4542,37.89287],[-111.45429,37.89293],[-111.45436,37.89298],[-111.45443,37.89303],[-111.45448,37.89308],[-111.45452,37.89311],[-111.45459,37.89319],[-111.45464,37.89326],[-111.45466,37.89327],[-111.45471,37.89335],[-111.45472,37.89336],[-111.45476,37.89342],[-111.45477,37.89342],[-111.45483,37.89351],[-111.4549,37.8936],[-111.45496,37.89368],[-111.45503,37.89374],[-111.45511,37.89381],[-111.4552,37.89388],[-111.4553,37.89395],[-111.45533,37.89397],[-111.45538,37.89401],[-111.4555,37.89407],[-111.45551,37.89408],[-111.45562,37.89413],[-111.45576,37.89419],[-111.45582,37.89421],[-111.45591,37.89425],[-111.45593,37.89426],[-111.45613,37.89432],[-111.45625,37.89435],[-111.45635,37.89436],[-111.45636,37.89436],[-111.45647,37.89436],[-111.45649,37.89436],[-111.45658,37.89435],[-111.45669,37.89433],[-111.4568,37.8943],[-111.45691,37.89425],[-111.45701,37.8942],[-111.45708,37.89414],[-111.4571,37.89412],[-111.45714,37.89408],[-111.45716,37.89404],[-111.45722,37.89395],[-111.45727,37.89382],[-111.45731,37.89368],[-111.45736,37.89346],[-111.4574,37.89333],[-111.45745,37.89318],[-111.45748,37.89312],[-111.45752,37.89305],[-111.45759,37.89296],[-111.45766,37.8929],[-111.45772,37.89286],[-111.45775,37.89284],[-111.45781,37.8928],[-111.45783,37.89279],[-111.45791,37.89275],[-111.45801,37.89271],[-111.45816,37.89266],[-111.45831,37.8926],[-111.4584,37.89256],[-111.45849,37.89251],[-111.45853,37.89247],[-111.45856,37.89245],[-111.45859,37.89241],[-111.45862,37.89237],[-111.45866,37.8923],[-111.45868,37.89223],[-111.45869,37.89215],[-111.45869,37.89203],[-111.45866,37.89193],[-111.45861,37.89179],[-111.4586,37.89176],[-111.45858,37.89172],[-111.45849,37.89157],[-111.45838,37.89141],[-111.45828,37.89128],[-111.45815,37.89115],[-111.45802,37.89102],[-111.45796,37.89097],[-111.45783,37.89085],[-111.45767,37.89072],[-111.45757,37.89061],[-111.45751,37.89054],[-111.45747,37.89047],[-111.45745,37.89041],[-111.45742,37.89033],[-111.4574,37.89027],[-111.45739,37.89021],[-111.45739,37.89016],[-111.45739,37.89011],[-111.45739,37.89007],[-111.45739,37.89],[-111.45741,37.88993],[-111.45743,37.88984],[-111.45748,37.88967],[-111.45755,37.88949],[-111.45762,37.88932],[-111.45769,37.88915],[-111.45772,37.88908],[-111.45776,37.88898],[-111.45784,37.88881],[-111.45786,37.88875],[-111.45791,37.88864],[-111.45795,37.88853],[-111.45802,37.88829],[-111.45805,37.88819],[-111.45808,37.88804],[-111.45809,37.88794],[-111.4581,37.88779],[-111.4581,37.88767],[-111.45809,37.88762],[-111.45808,37.88748],[-111.45799,37.8864],[-111.45792,37.88568],[-111.45791,37.88551],[-111.45782,37.88451],[-111.45781,37.88443],[-111.45772,37.88335],[-111.4577,37.88317],[-111.45762,37.88228],[-111.45762,37.88218],[-111.45757,37.88174],[-111.45754,37.88154],[-111.4575,37.88124],[-111.45749,37.8812],[-111.45745,37.88103],[-111.45743,37.88098],[-111.45737,37.88079],[-111.45732,37.88068],[-111.45728,37.88059],[-111.45726,37.88054],[-111.45711,37.88024],[-111.45697,37.88001],[-111.45685,37.87983],[-111.4568,37.87978],[-111.45674,37.87971],[-111.4567,37.87966],[-111.45647,37.87943],[-111.45623,37.87921],[-111.45608,37.87909],[-111.45603,37.87905],[-111.45583,37.8789],[-111.45574,37.87884],[-111.45557,37.87872],[-111.455,37.87835],[-111.45404,37.8777],[-111.45362,37.87742],[-111.45266,37.87677],[-111.45262,37.87674],[-111.45219,37.87645],[-111.45185,37.87622],[-111.45139,37.87591],[-111.4512,37.87578],[-111.45097,37.87564],[-111.45079,37.87553],[-111.45025,37.8752],[-111.45015,37.87515],[-111.44989,37.87498],[-111.44971,37.87487],[-111.44951,37.87476],[-111.44898,37.87444],[-111.44888,37.87438],[-111.44825,37.87401],[-111.44822,37.87399],[-111.44816,37.87395],[-111.44807,37.8739],[-111.44789,37.87379],[-111.44779,37.87374],[-111.44748,37.87355],[-111.44716,37.87336],[-111.44689,37.8732],[-111.44688,37.87319],[-111.44679,37.87314],[-111.44604,37.8727],[-111.44533,37.8723],[-111.44514,37.87219],[-111.44504,37.87214],[-111.44495,37.87209],[-111.44479,37.872],[-111.44452,37.87185],[-111.44423,37.87167],[-111.44396,37.87148],[-111.44394,37.87146],[-111.44388,37.87142],[-111.44371,37.87129],[-111.44369,37.87127],[-111.44351,37.87113],[-111.44332,37.87095],[-111.44316,37.87078],[-111.44298,37.87057],[-111.44279,37.87033],[-111.4427,37.87021],[-111.44265,37.87013],[-111.44258,37.87004],[-111.44254,37.86997],[-111.44242,37.86978],[-111.44228,37.86954],[-111.44217,37.86932],[-111.442,37.86895],[-111.44187,37.86864],[-111.44183,37.86855],[-111.44158,37.86796],[-111.4415,37.86777],[-111.44123,37.86713],[-111.44122,37.8671],[-111.44119,37.86701],[-111.44111,37.86684],[-111.44095,37.86644],[-111.44083,37.86616],[-111.44073,37.86592],[-111.44072,37.86591],[-111.44068,37.86582],[-111.44048,37.86534],[-111.44046,37.86531],[-111.44043,37.86523],[-111.44038,37.86514],[-111.44027,37.86491],[-111.44007,37.86447],[-111.44007,37.86446],[-111.44003,37.86439],[-111.43998,37.8643],[-111.43991,37.86416],[-111.43989,37.86413],[-111.43985,37.86405],[-111.4398,37.86397],[-111.43971,37.8638],[-111.43949,37.86349],[-111.43943,37.86341],[-111.43938,37.86333],[-111.43882,37.86255],[-111.43871,37.86239],[-111.43865,37.86232],[-111.43837,37.86192],[-111.4381,37.86153],[-111.4379,37.86126],[-111.43781,37.86114],[-111.43775,37.86107],[-111.43722,37.86037],[-111.43716,37.8603],[-111.43686,37.85991],[-111.43681,37.85983],[-111.436,37.85879],[-111.43587,37.8586],[-111.4358,37.85852],[-111.43575,37.85845],[-111.43569,37.85837],[-111.43516,37.85768],[-111.4351,37.8576],[-111.43504,37.85753],[-111.43492,37.85737],[-111.43451,37.85683],[-111.43434,37.8566],[-111.43422,37.85645],[-111.43416,37.85637],[-111.43405,37.85622],[-111.43375,37.85583],[-111.43369,37.85575],[-111.43351,37.85552],[-111.43345,37.85544],[-111.43333,37.85529],[-111.43298,37.85483],[-111.43286,37.85467],[-111.43281,37.8546],[-111.43216,37.85375],[-111.4321,37.85368],[-111.43183,37.85332],[-111.4318,37.85329],[-111.43174,37.85321],[-111.43144,37.85283],[-111.43138,37.85276],[-111.43111,37.85241],[-111.43072,37.85191],[-111.43067,37.85184],[-111.43003,37.851],[-111.42936,37.85013],[-111.42903,37.84968],[-111.42897,37.8496],[-111.42877,37.84933],[-111.42864,37.84913],[-111.42853,37.84893],[-111.42832,37.84849],[-111.42819,37.84813],[-111.4279,37.84739],[-111.42758,37.84645],[-111.42733,37.84594],[-111.42717,37.84568],[-111.42703,37.84547],[-111.42678,37.84523],[-111.42675,37.8452],[-111.42625,37.84491],[-111.42544,37.84443],[-111.42516,37.84424],[-111.42471,37.84395],[-111.42375,37.84327],[-111.42318,37.84286],[-111.42276,37.84254],[-111.42271,37.8425],[-111.42256,37.84237],[-111.42247,37.8423],[-111.42221,37.84201],[-111.42207,37.84179],[-111.42197,37.84161],[-111.4219,37.84145],[-111.42187,37.84129],[-111.42187,37.84126],[-111.42175,37.84072],[-111.4217,37.84039],[-111.42164,37.84019],[-111.42159,37.84],[-111.42151,37.83979],[-111.42143,37.83968],[-111.42137,37.83959],[-111.42131,37.83953],[-111.42117,37.83939],[-111.42108,37.83928],[-111.42088,37.83898],[-111.42085,37.83892],[-111.42081,37.83885],[-111.4208,37.83874],[-111.42078,37.83856],[-111.42075,37.83838],[-111.42073,37.83807],[-111.42068,37.83793],[-111.42053,37.83779],[-111.4204,37.83772],[-111.42025,37.83766],[-111.42019,37.83763],[-111.41988,37.83746],[-111.41972,37.83735],[-111.4197,37.83733],[-111.41958,37.83722],[-111.41957,37.83719],[-111.41943,37.83699],[-111.41932,37.83675],[-111.41929,37.8367],[-111.4192,37.83655],[-111.4191,37.83637],[-111.41909,37.83635],[-111.41897,37.83623],[-111.41891,37.83616],[-111.41882,37.83609],[-111.41871,37.836],[-111.41866,37.83597],[-111.41856,37.83591],[-111.41847,37.83586],[-111.41829,37.83576],[-111.41826,37.83574],[-111.41812,37.83564],[-111.41794,37.83552],[-111.4175,37.83515],[-111.41688,37.83455],[-111.41687,37.83454],[-111.41674,37.83441],[-111.4165,37.83419],[-111.41633,37.83398],[-111.41628,37.83392],[-111.41622,37.83383],[-111.41615,37.83373],[-111.41604,37.8335],[-111.41597,37.83335],[-111.41596,37.83333],[-111.4158,37.83299],[-111.41567,37.83267],[-111.41561,37.83253],[-111.41554,37.83236],[-111.41546,37.83219],[-111.41543,37.83211],[-111.41526,37.83167],[-111.41521,37.83155],[-111.41518,37.8315],[-111.41508,37.83134],[-111.41488,37.83102],[-111.41477,37.83086],[-111.41466,37.8307],[-111.41455,37.83054],[-111.41455,37.83053],[-111.41445,37.83042],[-111.41442,37.8304],[-111.41428,37.83026],[-111.41399,37.82998],[-111.41368,37.82964],[-111.41342,37.82934],[-111.41295,37.82887],[-111.41286,37.82877],[-111.41273,37.82863],[-111.41247,37.82833],[-111.41235,37.82819],[-111.41224,37.82802],[-111.41203,37.8277],[-111.41193,37.82754],[-111.41188,37.82747],[-111.41183,37.82738],[-111.41166,37.82708],[-111.41157,37.82688],[-111.41149,37.82671],[-111.41149,37.8267],[-111.41143,37.82654],[-111.41126,37.82605],[-111.41114,37.82567],[-111.41109,37.82549],[-111.41104,37.82532],[-111.41101,37.82524],[-111.41098,37.82516],[-111.41075,37.82481],[-111.41069,37.82466],[-111.41065,37.82455],[-111.41061,37.82449],[-111.41038,37.82403],[-111.41029,37.82382],[-111.41022,37.82364],[-111.4102,37.8236],[-111.41015,37.82322],[-111.41016,37.82311],[-111.41016,37.8231],[-111.4102,37.82293],[-111.41029,37.82258],[-111.41048,37.82225],[-111.41056,37.82212],[-111.41071,37.82194],[-111.41079,37.82184],[-111.41084,37.8218],[-111.411,37.82167],[-111.41102,37.82165],[-111.41116,37.82154],[-111.41119,37.82151],[-111.41132,37.82141],[-111.4116,37.82122],[-111.41187,37.82102],[-111.41197,37.82091],[-111.41211,37.82077],[-111.41223,37.82065],[-111.41224,37.82062],[-111.4123,37.82045],[-111.41236,37.82028],[-111.41238,37.82023],[-111.41237,37.8201],[-111.41236,37.81994],[-111.41233,37.81969],[-111.41229,37.81957],[-111.41222,37.81939],[-111.41221,37.81935],[-111.41214,37.81923],[-111.41204,37.81906],[-111.41195,37.8189],[-111.41176,37.81857],[-111.41166,37.81841],[-111.41157,37.81825],[-111.41147,37.81808],[-111.41128,37.81776],[-111.41107,37.81744],[-111.41101,37.81734],[-111.41097,37.81728],[-111.41086,37.81712],[-111.41076,37.81696],[-111.41065,37.8168],[-111.41054,37.81664],[-111.41044,37.81648],[-111.41024,37.81619],[-111.41016,37.81606],[-111.41006,37.81591],[-111.40992,37.81571],[-111.40982,37.81555],[-111.40972,37.81539],[-111.40971,37.81538],[-111.40961,37.81523],[-111.40955,37.81515],[-111.40941,37.81493],[-111.40929,37.81476],[-111.40919,37.8146],[-111.40918,37.81459],[-111.40911,37.81446],[-111.40909,37.81443],[-111.40905,37.81435],[-111.40901,37.81427],[-111.40897,37.81418],[-111.40894,37.8141],[-111.40889,37.81398],[-111.40888,37.81392],[-111.40883,37.81375],[-111.40882,37.81372],[-111.40878,37.81357],[-111.40877,37.81355],[-111.40872,37.8134],[-111.40871,37.81337],[-111.40864,37.81323],[-111.40863,37.81321],[-111.40855,37.81308],[-111.40854,37.81307],[-111.40843,37.81295],[-111.40841,37.81292],[-111.40821,37.81275],[-111.40797,37.8126],[-111.4079,37.81257],[-111.40771,37.81247],[-111.40756,37.81239],[-111.40723,37.81224],[-111.40713,37.81219],[-111.407,37.81212],[-111.40681,37.81201],[-111.40676,37.81197],[-111.40667,37.81189],[-111.40661,37.81184],[-111.40657,37.81181],[-111.40647,37.81169],[-111.40644,37.81165],[-111.40634,37.81155],[-111.40624,37.81144],[-111.4062,37.81141],[-111.40605,37.81127],[-111.40604,37.81126],[-111.40576,37.81103],[-111.40574,37.81101],[-111.40558,37.81088],[-111.40545,37.81078],[-111.40542,37.81075],[-111.40488,37.81033],[-111.40456,37.81007],[-111.40446,37.80998],[-111.40431,37.80985],[-111.40418,37.80974],[-111.404,37.80959],[-111.40395,37.80954],[-111.40379,37.80938],[-111.40372,37.8093],[-111.40369,37.80927],[-111.40358,37.80913],[-111.40348,37.809],[-111.40338,37.80886],[-111.40337,37.80884],[-111.40326,37.80868],[-111.40321,37.80861],[-111.40315,37.80852],[-111.40304,37.80837],[-111.40296,37.80825],[-111.40293,37.80821],[-111.40282,37.80805],[-111.40276,37.80796],[-111.40271,37.80789],[-111.40246,37.80754],[-111.40215,37.80711],[-111.40211,37.80706],[-111.40204,37.80696],[-111.40192,37.8068],[-111.40188,37.80674],[-111.40181,37.80664],[-111.4017,37.80649],[-111.40163,37.80639],[-111.40159,37.80633],[-111.40148,37.80617],[-111.40141,37.80607],[-111.40138,37.80601],[-111.40129,37.80586],[-111.40121,37.80572],[-111.40119,37.80568],[-111.40115,37.80558],[-111.40113,37.80551],[-111.40109,37.80537],[-111.40108,37.80522],[-111.40108,37.80514],[-111.40109,37.80507],[-111.40111,37.80497],[-111.40111,37.80495],[-111.40115,37.80484],[-111.40117,37.8048],[-111.40121,37.80471],[-111.40126,37.80464],[-111.40133,37.80453],[-111.40137,37.80448],[-111.4015,37.80433],[-111.40153,37.8043],[-111.40165,37.80419],[-111.40176,37.80409],[-111.4018,37.80406],[-111.40199,37.80391],[-111.40212,37.80381],[-111.40226,37.8037],[-111.40241,37.80359],[-111.40245,37.80356],[-111.40256,37.80349],[-111.40263,37.80345],[-111.40271,37.80339],[-111.40284,37.80334],[-111.40293,37.80332],[-111.4031,37.80331],[-111.40325,37.8033],[-111.40327,37.8033],[-111.40342,37.80331],[-111.40349,37.80333],[-111.40364,37.80335],[-111.40389,37.80341],[-111.40403,37.80344],[-111.40415,37.80346],[-111.40422,37.80348],[-111.40438,37.80348],[-111.40443,37.80349],[-111.40457,37.80348],[-111.4046,37.80348],[-111.40475,37.80346],[-111.40483,37.80344],[-111.40495,37.80342],[-111.40515,37.80337],[-111.40534,37.8033],[-111.40545,37.80324],[-111.40553,37.8032],[-111.40563,37.80313],[-111.40572,37.80307],[-111.40579,37.803],[-111.40583,37.80296],[-111.40594,37.80284],[-111.40602,37.80273],[-111.40608,37.80259],[-111.40614,37.80243],[-111.40616,37.80235],[-111.4062,37.80223],[-111.40621,37.80217],[-111.40624,37.802],[-111.40625,37.802],[-111.40628,37.80182],[-111.40631,37.80169],[-111.40635,37.80151],[-111.40641,37.80123],[-111.40643,37.80111],[-111.40647,37.80093],[-111.40647,37.80091],[-111.40651,37.80076],[-111.40655,37.80058],[-111.40658,37.80045],[-111.40667,37.80015],[-111.40676,37.79988],[-111.40676,37.79987],[-111.40684,37.79966],[-111.4069,37.79954],[-111.4069,37.79952],[-111.407,37.79938],[-111.40702,37.79934],[-111.40713,37.79923],[-111.40724,37.79911],[-111.40742,37.79895],[-111.40756,37.79881],[-111.4076,37.79876],[-111.40767,37.79865],[-111.40772,37.79858],[-111.40776,37.79849],[-111.40781,37.79839],[-111.40785,37.79824],[-111.40789,37.79814],[-111.40792,37.79805],[-111.408,37.79785],[-111.40802,37.7978],[-111.40807,37.79768],[-111.40809,37.79763],[-111.40814,37.79751],[-111.40816,37.79746],[-111.40819,37.79739],[-111.40825,37.79729],[-111.40827,37.79727],[-111.40836,37.79717],[-111.4085,37.7971],[-111.40858,37.79706],[-111.40863,37.79704],[-111.40882,37.79699],[-111.40901,37.79694],[-111.40903,37.79694],[-111.40924,37.79691],[-111.40946,37.79689],[-111.4095,37.79688],[-111.40969,37.79686],[-111.40992,37.79684],[-111.40994,37.79684],[-111.41014,37.79683],[-111.41037,37.79681],[-111.4105,37.7968],[-111.41093,37.79677],[-111.41127,37.79674],[-111.4113,37.79673],[-111.41144,37.79669],[-111.41149,37.79667],[-111.41156,37.79664],[-111.41166,37.79656],[-111.41174,37.79647],[-111.41178,37.79641],[-111.41179,37.79638],[-111.41184,37.79627],[-111.41185,37.79616],[-111.41184,37.79608],[-111.41184,37.79606],[-111.4118,37.79588],[-111.41178,37.79582],[-111.41175,37.7957],[-111.41174,37.79565],[-111.41173,37.79552],[-111.41172,37.79549],[-111.41173,37.79536],[-111.41174,37.79535],[-111.41178,37.79524],[-111.41181,37.79518],[-111.41184,37.79512],[-111.41192,37.79502],[-111.41197,37.79495],[-111.41204,37.79486],[-111.41213,37.79475],[-111.41229,37.79456],[-111.4123,37.79454],[-111.41245,37.79434],[-111.41252,37.79425],[-111.41256,37.79418],[-111.41263,37.7941],[-111.41267,37.79405],[-111.41278,37.79396],[-111.41282,37.79393],[-111.41296,37.79385],[-111.41299,37.79384],[-111.41313,37.79373],[-111.41321,37.79367],[-111.41328,37.7936],[-111.41334,37.79352],[-111.41339,37.79344],[-111.41344,37.79337],[-111.41351,37.7932],[-111.41358,37.79301],[-111.4136,37.79296],[-111.41363,37.79288],[-111.4137,37.79265],[-111.41372,37.79258],[-111.41377,37.79245],[-111.41378,37.79241],[-111.41384,37.79223],[-111.41386,37.79217],[-111.4139,37.79206],[-111.41392,37.79199],[-111.41396,37.79189],[-111.414,37.7918],[-111.41403,37.79172],[-111.41406,37.79165],[-111.41412,37.79155],[-111.41415,37.7915],[-111.41436,37.79125],[-111.41451,37.7911],[-111.41465,37.79096],[-111.41466,37.79096],[-111.4148,37.79082],[-111.41495,37.79069],[-111.41498,37.79066],[-111.41509,37.79054],[-111.41515,37.79048],[-111.41522,37.79039],[-111.41531,37.79027],[-111.41541,37.7901],[-111.41542,37.79007],[-111.41547,37.78996],[-111.41549,37.7899],[-111.41551,37.7898],[-111.41552,37.78965],[-111.41551,37.78945],[-111.41549,37.78937],[-111.41548,37.78929],[-111.41542,37.78909],[-111.41538,37.78891],[-111.41537,37.78884],[-111.41536,37.78876],[-111.41538,37.78863],[-111.41541,37.78849],[-111.41543,37.78842],[-111.41548,37.78828],[-111.41558,37.78805],[-111.41567,37.78787],[-111.41572,37.7878],[-111.41574,37.78777],[-111.41584,37.78766],[-111.41584,37.78765],[-111.41595,37.78756],[-111.41613,37.78744],[-111.41634,37.78733],[-111.41637,37.78731],[-111.41652,37.78724],[-111.41656,37.78722],[-111.4167,37.78711],[-111.41672,37.78709],[-111.41691,37.7869],[-111.41708,37.78672],[-111.41733,37.78644],[-111.4175,37.78623],[-111.41751,37.78621],[-111.41769,37.78596],[-111.41781,37.78576],[-111.41782,37.78573],[-111.41789,37.78556],[-111.41792,37.7855],[-111.41801,37.78526],[-111.41803,37.78522],[-111.41812,37.78496],[-111.41815,37.78487],[-111.4182,37.78473],[-111.41829,37.78434],[-111.41842,37.78393],[-111.41848,37.78376],[-111.41851,37.78366],[-111.41859,37.78344],[-111.41859,37.78341],[-111.41863,37.78324],[-111.41864,37.7832],[-111.41872,37.78295],[-111.41876,37.78275],[-111.41878,37.78271],[-111.41882,37.7826],[-111.41884,37.78254],[-111.41888,37.78244],[-111.41891,37.78233],[-111.41893,37.78226],[-111.41894,37.78218],[-111.41895,37.7821],[-111.41894,37.78201],[-111.41892,37.78192],[-111.41889,37.78183],[-111.41888,37.78181],[-111.41884,37.78173],[-111.4188,37.78167],[-111.41879,37.78165],[-111.41871,37.78157],[-111.41866,37.78152],[-111.41853,37.78141],[-111.41851,37.78139],[-111.41835,37.78129],[-111.4182,37.78117],[-111.41811,37.78108],[-111.41807,37.78103],[-111.41805,37.781],[-111.41803,37.78097],[-111.41801,37.78091],[-111.418,37.78084],[-111.418,37.78083],[-111.418,37.78077],[-111.41802,37.78069],[-111.41805,37.78065],[-111.41806,37.78063],[-111.41813,37.78057],[-111.41819,37.78051],[-111.41828,37.78044],[-111.41834,37.78038],[-111.41839,37.78034],[-111.41849,37.78024],[-111.41855,37.78018],[-111.4186,37.7801],[-111.41863,37.78005],[-111.41865,37.77999],[-111.41867,37.77994],[-111.41868,37.77988],[-111.41868,37.77982],[-111.41867,37.77974],[-111.41864,37.77963],[-111.41861,37.77957],[-111.41859,37.77953],[-111.41855,37.77941],[-111.41853,37.77934],[-111.41853,37.77924],[-111.41853,37.77917],[-111.41856,37.77909],[-111.41861,37.77896],[-111.41865,37.77887],[-111.41872,37.7787],[-111.4188,37.77851],[-111.41892,37.77818],[-111.41905,37.77785],[-111.41906,37.77784],[-111.41918,37.77749],[-111.41931,37.77708],[-111.41937,37.77698],[-111.41938,37.77696],[-111.41945,37.77681],[-111.41949,37.77672],[-111.41953,37.77659],[-111.41953,37.77646],[-111.4195,37.77636],[-111.41948,37.77632],[-111.41943,37.77623],[-111.41938,37.77618],[-111.41932,37.77612],[-111.41922,37.77605],[-111.41902,37.77595],[-111.41892,37.7759],[-111.41881,37.77585],[-111.41865,37.77579],[-111.41824,37.77563],[-111.41803,37.77555],[-111.41778,37.77546],[-111.41758,37.77538],[-111.41737,37.7753],[-111.41717,37.77522],[-111.41694,37.77513],[-111.41676,37.77506],[-111.41635,37.7749],[-111.41614,37.77482],[-111.41595,37.77473],[-111.41586,37.77469],[-111.41576,37.77463],[-111.41565,37.77456],[-111.41559,37.77452],[-111.41545,37.7744],[-111.41529,37.77425],[-111.41515,37.7741],[-111.41513,37.77407],[-111.41504,37.77395],[-111.41503,37.77393],[-111.41495,37.77376],[-111.41489,37.77357],[-111.41485,37.7734],[-111.41484,37.77325],[-111.41484,37.77322],[-111.41485,37.77308],[-111.41486,37.77307],[-111.41492,37.7729],[-111.41498,37.7728],[-111.41508,37.77269],[-111.41518,37.77261],[-111.41531,37.7725],[-111.41552,37.77237],[-111.41565,37.77228],[-111.4157,37.77225],[-111.41588,37.77215],[-111.41605,37.77205],[-111.41625,37.77193],[-111.41631,37.77189],[-111.41662,37.77172],[-111.41684,37.77161],[-111.417,37.77153],[-111.41717,37.77148],[-111.41722,37.77147],[-111.41735,37.77146],[-111.4175,37.77146],[-111.41767,37.77148],[-111.41788,37.77153],[-111.41789,37.77154],[-111.4181,37.77161],[-111.41831,37.7717],[-111.41889,37.77194],[-111.41925,37.7721],[-111.41981,37.77232],[-111.4201,37.77244],[-111.42027,37.77251],[-111.4203,37.77253],[-111.42047,37.77259],[-111.42051,37.7726],[-111.4206,37.77262],[-111.42073,37.77265],[-111.42079,37.77266],[-111.42095,37.77268],[-111.42103,37.7727],[-111.4213,37.77272],[-111.42156,37.77274],[-111.42173,37.77275],[-111.42186,37.77273],[-111.42188,37.77273],[-111.42208,37.77268],[-111.42218,37.77263],[-111.42226,37.77258],[-111.42229,37.77256],[-111.42241,37.77245],[-111.4225,37.77233],[-111.42253,37.77229],[-111.42262,37.77216],[-111.42275,37.77198],[-111.4228,37.77191],[-111.42287,37.77182],[-111.42293,37.77173],[-111.42313,37.77153],[-111.42329,37.77139],[-111.42345,37.77131],[-111.42347,37.7713],[-111.42365,37.77123],[-111.42387,37.77116],[-111.42407,37.77109],[-111.42431,37.77103],[-111.42446,37.77098],[-111.42458,37.77093],[-111.42477,37.77084],[-111.42491,37.77075],[-111.42496,37.7707],[-111.42501,37.77065],[-111.42504,37.77061],[-111.42514,37.77048],[-111.4252,37.77039],[-111.42526,37.7703],[-111.42531,37.77023],[-111.42541,37.77007],[-111.42545,37.77001],[-111.42562,37.76975],[-111.42573,37.76958],[-111.42591,37.7693],[-111.42609,37.76902],[-111.42614,37.76895],[-111.4262,37.76886],[-111.4263,37.76871],[-111.42641,37.76854],[-111.42655,37.76831],[-111.42661,37.76822],[-111.42662,37.7682],[-111.42672,37.76806],[-111.42676,37.76799],[-111.42682,37.7679],[-111.42694,37.76772],[-111.42704,37.76758],[-111.42715,37.76742],[-111.42719,37.76736],[-111.42726,37.76727],[-111.4273,37.76721],[-111.42746,37.76695],[-111.42751,37.76688],[-111.42767,37.76662],[-111.42768,37.76661],[-111.42782,37.7664],[-111.42787,37.76632],[-111.42793,37.76624],[-111.42799,37.76615],[-111.42821,37.7658],[-111.42824,37.76576],[-111.42835,37.7656],[-111.42844,37.76546],[-111.42845,37.76544],[-111.42866,37.76512],[-111.42879,37.7649],[-111.42896,37.76464],[-111.42906,37.76449],[-111.42906,37.76448],[-111.42917,37.76432],[-111.42927,37.76416],[-111.42931,37.7641],[-111.42938,37.764],[-111.42948,37.76384],[-111.42958,37.76368],[-111.42961,37.76363],[-111.42969,37.76352],[-111.42979,37.76336],[-111.4299,37.7632],[-111.42996,37.7631],[-111.43011,37.76288],[-111.43021,37.76272],[-111.43028,37.76262],[-111.43053,37.76224],[-111.43057,37.76218],[-111.43063,37.76208],[-111.43074,37.76192],[-111.43087,37.76173],[-111.43116,37.76128],[-111.43118,37.76126],[-111.43126,37.76112],[-111.43136,37.76096],[-111.43148,37.76076],[-111.43166,37.76048],[-111.43173,37.76037],[-111.43177,37.76032],[-111.43187,37.76016],[-111.43196,37.76003],[-111.43198,37.76],[-111.43209,37.75984],[-111.43231,37.75954],[-111.43231,37.75953],[-111.43266,37.75899],[-111.43313,37.75829],[-111.43315,37.75825],[-111.43326,37.75809],[-111.43344,37.75782],[-111.43347,37.75777],[-111.43357,37.75761],[-111.43365,37.75749],[-111.43368,37.75745],[-111.43378,37.75729],[-111.43387,37.75715],[-111.4342,37.75665],[-111.4343,37.75649],[-111.43441,37.75634],[-111.43449,37.75622],[-111.43452,37.75618],[-111.43464,37.75603],[-111.43469,37.75597],[-111.43477,37.75588],[-111.43492,37.7557],[-111.43513,37.75546],[-111.43528,37.75529],[-111.43538,37.75518],[-111.43569,37.75485],[-111.43583,37.75471],[-111.43626,37.75429],[-111.4364,37.75415],[-111.43643,37.75413],[-111.43654,37.75402],[-111.43655,37.75401],[-111.4367,37.75388],[-111.43672,37.75385],[-111.43692,37.75368],[-111.43716,37.75348],[-111.43719,37.75346],[-111.43731,37.75336],[-111.43732,37.75335],[-111.43735,37.75333],[-111.43748,37.75323],[-111.43766,37.75309],[-111.43767,37.75308],[-111.43782,37.75298],[-111.43785,37.75296],[-111.43799,37.75286],[-111.43802,37.75284],[-111.43816,37.75274],[-111.43818,37.75272],[-111.43824,37.75268],[-111.43833,37.75263],[-111.43851,37.75251],[-111.43858,37.75247],[-111.43869,37.7524],[-111.43872,37.75238],[-111.43887,37.75229],[-111.4389,37.75227],[-111.4394,37.75201],[-111.43943,37.75199],[-111.43969,37.75186],[-111.43982,37.7518],[-111.43985,37.75178],[-111.44004,37.75169],[-111.44019,37.75162],[-111.44064,37.75143],[-111.44069,37.75141],[-111.44115,37.75123],[-111.44122,37.75121],[-111.44126,37.7512],[-111.44147,37.75113],[-111.44152,37.75111],[-111.44164,37.75107],[-111.44168,37.75106],[-111.44176,37.75104],[-111.44207,37.75095],[-111.44217,37.75092],[-111.44229,37.75089],[-111.44232,37.75088],[-111.4425,37.75083],[-111.44253,37.75083],[-111.44254,37.75082],[-111.4427,37.75077],[-111.44271,37.75076],[-111.44274,37.75075],[-111.44285,37.75069],[-111.44289,37.75066],[-111.44292,37.75064],[-111.44292,37.75063],[-111.44297,37.75058],[-111.44301,37.75051],[-111.44303,37.75049],[-111.44303,37.75048],[-111.44307,37.75038],[-111.44308,37.75033],[-111.44308,37.7503],[-111.44309,37.75028],[-111.44309,37.75016],[-111.44309,37.75012],[-111.44309,37.75011],[-111.44311,37.74998],[-111.44312,37.74995],[-111.44312,37.74992],[-111.44315,37.7498],[-111.44316,37.74977],[-111.44322,37.74966],[-111.44327,37.74961],[-111.4433,37.74958],[-111.4434,37.74952],[-111.44341,37.74952],[-111.44351,37.74949],[-111.44364,37.74948],[-111.44373,37.74949],[-111.44382,37.74952],[-111.44388,37.74954],[-111.44391,37.74955],[-111.44399,37.7496],[-111.44407,37.74965],[-111.4441,37.74967],[-111.44421,37.74975],[-111.44424,37.74977],[-111.44435,37.74987],[-111.44449,37.74998],[-111.44465,37.7501],[-111.44487,37.75021],[-111.44489,37.75022],[-111.44505,37.75028],[-111.4451,37.75029],[-111.44513,37.7503],[-111.44525,37.75033],[-111.44544,37.75036],[-111.44562,37.75035],[-111.44578,37.75033],[-111.44595,37.75027],[-111.44597,37.75026],[-111.44601,37.75024],[-111.44608,37.75021],[-111.44616,37.75015],[-111.44621,37.75012],[-111.44633,37.75003],[-111.44636,37.75001],[-111.44645,37.74993],[-111.4465,37.74987],[-111.44661,37.74975],[-111.44668,37.74968],[-111.44686,37.74949],[-111.44688,37.74946],[-111.4469,37.74944],[-111.44712,37.74918],[-111.44715,37.74914],[-111.44738,37.74888],[-111.44755,37.7487],[-111.44759,37.74866],[-111.44766,37.74858],[-111.44782,37.74841],[-111.44791,37.74831],[-111.44796,37.74826],[-111.44806,37.74816],[-111.44807,37.74815],[-111.4481,37.74813],[-111.44825,37.74799],[-111.44849,37.74772],[-111.44864,37.74756],[-111.44864,37.74755],[-111.44878,37.74741],[-111.44882,37.74737],[-111.4489,37.74729],[-111.44898,37.74721],[-111.44904,37.74715],[-111.44907,37.74713],[-111.44918,37.74702],[-111.44921,37.74699],[-111.44932,37.74688],[-111.44933,37.74687],[-111.44936,37.74685],[-111.44948,37.74673],[-111.44949,37.74672],[-111.44963,37.7466],[-111.44966,37.74658],[-111.4498,37.74648],[-111.44996,37.74639],[-111.44999,37.74638],[-111.45011,37.74633],[-111.45023,37.74629],[-111.45029,37.74627],[-111.4504,37.74624],[-111.45047,37.74622],[-111.45062,37.74619],[-111.45077,37.74617],[-111.45098,37.74616],[-111.45108,37.74615],[-111.45118,37.74614],[-111.45143,37.74613],[-111.45162,37.7461],[-111.45173,37.74607],[-111.45181,37.74602],[-111.4519,37.74595],[-111.45191,37.74594],[-111.45194,37.74592],[-111.45196,37.74589],[-111.452,37.74582],[-111.45203,37.74571],[-111.45203,37.74565],[-111.45199,37.74558],[-111.45194,37.74551],[-111.45186,37.74545],[-111.45172,37.74538],[-111.45165,37.74535],[-111.45155,37.74532],[-111.45131,37.74522],[-111.45124,37.7452],[-111.45105,37.74512],[-111.45086,37.74505],[-111.45083,37.74504],[-111.45078,37.74502],[-111.45066,37.74498],[-111.45062,37.74496],[-111.45054,37.74493],[-111.45041,37.74489],[-111.45029,37.74486],[-111.45012,37.74481],[-111.44998,37.74479],[-111.44996,37.74478],[-111.44977,37.74475],[-111.44953,37.74473],[-111.44929,37.74471],[-111.4489,37.74475],[-111.44889,37.74475],[-111.44885,37.74476],[-111.44856,37.7448],[-111.44844,37.7448],[-111.4484,37.7448],[-111.44834,37.7448],[-111.44818,37.74477],[-111.44816,37.74476],[-111.44799,37.74468],[-111.44787,37.74459],[-111.44769,37.74441],[-111.44769,37.7444],[-111.44754,37.74422],[-111.44744,37.7441],[-111.44737,37.74402],[-111.44735,37.74397],[-111.44729,37.74388],[-111.44725,37.74375],[-111.44725,37.7436],[-111.44725,37.74356],[-111.44729,37.74344],[-111.44739,37.74332],[-111.44741,37.7433],[-111.44747,37.74325],[-111.44758,37.74318],[-111.44775,37.74311],[-111.44803,37.74302],[-111.44867,37.74284],[-111.44879,37.7428],[-111.44882,37.74279],[-111.44889,37.74278],[-111.4493,37.74266],[-111.44953,37.7426],[-111.44965,37.74256],[-111.44986,37.7425],[-111.45089,37.74222],[-111.45168,37.742],[-111.45179,37.74197],[-111.45184,37.74196],[-111.45211,37.74188],[-111.45236,37.74181],[-111.45254,37.74177],[-111.45267,37.74174],[-111.45288,37.74171],[-111.45293,37.7417],[-111.45294,37.7417],[-111.45298,37.7417],[-111.4531,37.74169],[-111.45327,37.74171],[-111.45333,37.74173],[-111.45337,37.74174],[-111.45339,37.74174],[-111.45342,37.74175],[-111.45352,37.74179],[-111.4536,37.74182],[-111.45369,37.74188],[-111.45372,37.7419],[-111.45376,37.74193],[-111.45377,37.74194],[-111.45379,37.74196],[-111.45386,37.74201],[-111.45388,37.74203],[-111.45392,37.74209],[-111.45399,37.74217],[-111.45406,37.74227],[-111.45412,37.74238],[-111.45413,37.74242],[-111.45417,37.74254],[-111.45423,37.74268],[-111.45423,37.74269],[-111.45425,37.74277],[-111.4543,37.7429],[-111.45431,37.74294],[-111.45432,37.74296],[-111.45442,37.74329],[-111.45455,37.74367],[-111.45459,37.74381],[-111.45466,37.74406],[-111.45471,37.74427],[-111.45475,37.74449],[-111.45474,37.74462],[-111.45474,37.74469],[-111.45471,37.74485],[-111.4547,37.74488],[-111.45467,37.74501],[-111.45461,37.74515],[-111.45459,37.74519],[-111.45458,37.74523],[-111.45454,37.74532],[-111.4545,37.7454],[-111.45443,37.74552],[-111.45441,37.74556],[-111.45436,37.74565],[-111.45432,37.74571],[-111.45431,37.74572],[-111.45427,37.74582],[-111.45422,37.74594],[-111.45417,37.74616],[-111.45417,37.7462],[-111.45418,37.74631],[-111.45424,37.74657],[-111.45437,37.74682],[-111.45442,37.74688],[-111.45447,37.74695],[-111.45452,37.74701],[-111.4546,37.74709],[-111.45471,37.74719],[-111.45482,37.74727],[-111.45484,37.74728],[-111.455,37.74738],[-111.45509,37.74743],[-111.45519,37.74749],[-111.45548,37.74764],[-111.45556,37.7477],[-111.45569,37.74778],[-111.45573,37.74781],[-111.45586,37.74792],[-111.45588,37.74795],[-111.45598,37.74806],[-111.45601,37.74809],[-111.45608,37.74819],[-111.45611,37.74825],[-111.45616,37.74833],[-111.45627,37.74861],[-111.45632,37.7488],[-111.45639,37.74906],[-111.45645,37.74928],[-111.45652,37.74947],[-111.45653,37.74951],[-111.45661,37.74966],[-111.45673,37.74984],[-111.45685,37.74998],[-111.457,37.75011],[-111.45721,37.75026],[-111.45735,37.75035],[-111.45751,37.75041],[-111.45753,37.75042],[-111.45769,37.75048],[-111.45788,37.75053],[-111.45808,37.75057],[-111.45816,37.75057],[-111.45839,37.75059],[-111.45884,37.75061],[-111.45888,37.75061],[-111.45939,37.75061],[-111.45957,37.75061],[-111.45958,37.75061],[-111.45975,37.75061],[-111.45985,37.75062],[-111.46002,37.75062],[-111.46045,37.75062],[-111.46184,37.75065],[-111.46216,37.75066],[-111.46293,37.75067],[-111.46378,37.75068],[-111.46389,37.75068],[-111.46391,37.75068],[-111.46413,37.75069],[-111.46417,37.75069],[-111.46487,37.7507],[-111.46503,37.7507],[-111.46504,37.7507],[-111.46527,37.75069],[-111.46548,37.75069],[-111.46553,37.75069],[-111.46554,37.75069],[-111.46591,37.75068],[-111.46594,37.75068],[-111.46618,37.75066],[-111.46667,37.75064],[-111.46676,37.75063],[-111.46822,37.75052],[-111.46865,37.75049],[-111.46867,37.75049],[-111.46888,37.75047],[-111.4689,37.75047],[-111.46956,37.75042],[-111.46958,37.75042],[-111.4698,37.7504],[-111.47001,37.75038],[-111.47026,37.75037],[-111.47047,37.75035],[-111.47048,37.75035],[-111.47092,37.75032],[-111.47094,37.75032],[-111.47116,37.7503],[-111.4716,37.75027],[-111.47162,37.75026],[-111.47184,37.75025],[-111.47275,37.75018],[-111.47341,37.75013],[-111.47456,37.75004],[-111.47658,37.74989],[-111.47749,37.74982],[-111.4775,37.74982],[-111.47794,37.74979],[-111.47867,37.74974],[-111.47884,37.74972],[-111.47886,37.74972],[-111.47907,37.74971],[-111.47909,37.7497],[-111.4793,37.74969],[-111.48022,37.74962],[-111.48043,37.7496],[-111.481,37.74956],[-111.48111,37.74955],[-111.48249,37.74945],[-111.48315,37.7494],[-111.48326,37.7494],[-111.48385,37.74935],[-111.48452,37.7493],[-111.48473,37.74929],[-111.48475,37.74929],[-111.48561,37.74922],[-111.48564,37.74922],[-111.48609,37.74918],[-111.48611,37.74918],[-111.4869,37.74912],[-111.48774,37.74905],[-111.48813,37.74901],[-111.48814,37.74901],[-111.48862,37.74895],[-111.48937,37.74882],[-111.48969,37.74876],[-111.49015,37.74867],[-111.49026,37.74865],[-111.49037,37.74863],[-111.49079,37.74853],[-111.49097,37.74849],[-111.49143,37.74836],[-111.49167,37.7483],[-111.49188,37.74824],[-111.49274,37.74798],[-111.49314,37.74783],[-111.49364,37.74765],[-111.49413,37.74746],[-111.49451,37.7473],[-111.49485,37.74714],[-111.49539,37.74689],[-111.49616,37.7465],[-111.49678,37.74615],[-111.49747,37.74573],[-111.49867,37.7449],[-111.49969,37.74415],[-111.50116,37.74307],[-111.50244,37.74213],[-111.50261,37.74201],[-111.50428,37.74079],[-111.50595,37.73957],[-111.50612,37.73945],[-111.50629,37.73932],[-111.50746,37.73847],[-111.50762,37.73835],[-111.50779,37.73823],[-111.50846,37.73774],[-111.50946,37.73701],[-111.51063,37.73615],[-111.51113,37.73579],[-111.5113,37.73566],[-111.51155,37.73548],[-111.51176,37.73533],[-111.51189,37.73524],[-111.51222,37.73499],[-111.51256,37.73475],[-111.51293,37.73448],[-111.51306,37.73439],[-111.51389,37.73378],[-111.5146,37.73326],[-111.51607,37.73219],[-111.51624,37.73207],[-111.51656,37.73184],[-111.51691,37.73158],[-111.51752,37.73113],[-111.51813,37.73067],[-111.51823,37.7306],[-111.5183,37.73055],[-111.51846,37.73043],[-111.51879,37.73018],[-111.51929,37.72981],[-111.51979,37.72944],[-111.52023,37.72912],[-111.52078,37.72872],[-111.5217,37.72804],[-111.5221,37.72776],[-111.52232,37.72762],[-111.52239,37.72758],[-111.52264,37.72744],[-111.52295,37.72728],[-111.52324,37.72715],[-111.52351,37.72705],[-111.52377,37.72696],[-111.52406,37.72687],[-111.5243,37.7268],[-111.52462,37.72673],[-111.52503,37.72666],[-111.52529,37.72662],[-111.5256,37.72659],[-111.52565,37.72659],[-111.52582,37.72657],[-111.52594,37.72656],[-111.52633,37.72655],[-111.52662,37.72656],[-111.52696,37.72658],[-111.52701,37.72659],[-111.52731,37.72662],[-111.52764,37.72667],[-111.52807,37.72676],[-111.52835,37.72683],[-111.52896,37.72699],[-111.52951,37.72715],[-111.52963,37.72718],[-111.52973,37.72721],[-111.53023,37.72734],[-111.53091,37.72755],[-111.53143,37.7277],[-111.53173,37.72781],[-111.5321,37.72797],[-111.53264,37.72822],[-111.533,37.7284],[-111.53334,37.72858],[-111.53381,37.72888],[-111.5346,37.72943],[-111.53469,37.7295],[-111.53472,37.72952],[-111.53594,37.73036],[-111.53657,37.73081],[-111.53757,37.73151],[-111.53877,37.73236],[-111.53885,37.73242],[-111.53895,37.73248],[-111.54014,37.73329],[-111.54042,37.73346],[-111.54124,37.734],[-111.54182,37.73437],[-111.54208,37.73454],[-111.54268,37.73495],[-111.54287,37.73507],[-111.54354,37.73551],[-111.54385,37.73571],[-111.5442,37.73594],[-111.54438,37.73606],[-111.54472,37.73629],[-111.5449,37.73641],[-111.54507,37.73652],[-111.54529,37.73667],[-111.54561,37.73687],[-111.54638,37.73732],[-111.5469,37.73759],[-111.54699,37.73763],[-111.5471,37.73768],[-111.5473,37.73778],[-111.54777,37.73798],[-111.54789,37.73803],[-111.5487,37.73836],[-111.5489,37.73845],[-111.5493,37.73861],[-111.54991,37.73886],[-111.55032,37.73902],[-111.55044,37.73907],[-111.55052,37.7391],[-111.55112,37.73935],[-111.55153,37.73952],[-111.5526,37.73996],[-111.55274,37.74002],[-111.55294,37.7401],[-111.55354,37.74035],[-111.55375,37.74043],[-111.55415,37.7406],[-111.55455,37.74077],[-111.55476,37.74085],[-111.55496,37.74093],[-111.55516,37.74101],[-111.55556,37.74118],[-111.55599,37.74134],[-111.55611,37.7414],[-111.55631,37.74148],[-111.55637,37.74151],[-111.55655,37.74158],[-111.55723,37.74185],[-111.55752,37.74198],[-111.55758,37.74201],[-111.55773,37.74208],[-111.55797,37.74219],[-111.55811,37.74226],[-111.55835,37.74238],[-111.55854,37.74249],[-111.55867,37.74256],[-111.55876,37.74261],[-111.5591,37.74282],[-111.55939,37.743],[-111.55962,37.74319],[-111.55989,37.7434],[-111.56,37.74349],[-111.56058,37.74402],[-111.56106,37.7445],[-111.56118,37.74462],[-111.5612,37.74464],[-111.56162,37.74507],[-111.56176,37.74521],[-111.56215,37.7456],[-111.56218,37.74564],[-111.56273,37.74621],[-111.56301,37.7465],[-111.56318,37.74667],[-111.56355,37.74707],[-111.56368,37.74722],[-111.56381,37.74736],[-111.5642,37.74781],[-111.56466,37.74838],[-111.56474,37.74848],[-111.56497,37.74877],[-111.56502,37.74884],[-111.56514,37.74899],[-111.56577,37.74981],[-111.56692,37.75129],[-111.56716,37.7516],[-111.56739,37.75191],[-111.56746,37.75199],[-111.56751,37.75206],[-111.56792,37.75259],[-111.56811,37.75283],[-111.56887,37.75382],[-111.56929,37.75437],[-111.56994,37.75521],[-111.57,37.75529],[-111.57037,37.75576],[-111.57069,37.75613],[-111.57105,37.75649],[-111.57138,37.75678],[-111.57173,37.75708],[-111.57193,37.75723],[-111.57196,37.75726],[-111.572,37.75729],[-111.57208,37.75735],[-111.5722,37.75745],[-111.57274,37.75783],[-111.5728,37.75786],[-111.57328,37.75815],[-111.57369,37.7584],[-111.57418,37.75869],[-111.57429,37.75875],[-111.57466,37.75897],[-111.57482,37.75907],[-111.57491,37.75912],[-111.57502,37.75918],[-111.57603,37.75977],[-111.57703,37.76036],[-111.57729,37.76051],[-111.57777,37.76079],[-111.57795,37.7609],[-111.57868,37.76133],[-111.5793,37.76169],[-111.57966,37.76191],[-111.57984,37.76202],[-111.5799,37.76205],[-111.57995,37.76208],[-111.5804,37.76234],[-111.58095,37.76265],[-111.581,37.76269],[-111.58178,37.76311],[-111.58219,37.76332],[-111.58244,37.76344],[-111.58252,37.76348],[-111.58265,37.76353],[-111.58332,37.76383],[-111.58339,37.76386],[-111.58437,37.76423],[-111.58559,37.76467],[-111.58593,37.76479],[-111.58641,37.76496],[-111.58682,37.76511],[-111.58703,37.76518],[-111.58714,37.76522],[-111.5875,37.76535],[-111.58771,37.76542],[-111.58776,37.76544],[-111.58812,37.76557],[-111.58859,37.76574],[-111.58974,37.76615],[-111.5902,37.76634],[-111.59052,37.76648],[-111.59084,37.76663],[-111.59117,37.7668],[-111.59144,37.76696],[-111.59153,37.76701],[-111.59188,37.76723],[-111.59192,37.76726],[-111.59218,37.76744],[-111.59219,37.76744],[-111.59234,37.76756],[-111.59247,37.76765],[-111.59252,37.76769],[-111.59269,37.76784],[-111.59303,37.76815],[-111.59319,37.76829],[-111.59326,37.76836],[-111.59352,37.76859],[-111.5937,37.76877],[-111.59396,37.76902],[-111.59401,37.76907],[-111.59414,37.7692],[-111.59442,37.76947],[-111.59474,37.76971],[-111.59495,37.76985],[-111.59514,37.76996],[-111.59537,37.77006],[-111.59562,37.77015],[-111.59577,37.77019],[-111.59592,37.77023],[-111.59604,37.77025],[-111.59618,37.77027],[-111.59636,37.77028],[-111.59834,37.7703],[-111.60028,37.77034],[-111.60144,37.77035],[-111.60167,37.77035],[-111.60226,37.77035],[-111.60418,37.77037],[-111.6044,37.77037],[-111.60463,37.77038],[-111.60554,37.77039],[-111.6061,37.7704],[-111.60629,37.7704],[-111.60648,37.7704]]}}]}