{"type":"FeatureCollection","features":[{"type":"Feature","properties":{"_gpxType":"trk","name":"Escalante Outfitters, West Main Street, Escalante, UT - Ruby's Inn RV Park & Campground, 300 S Main St, Bryce Canyon City, UT 84764","coordinateProperties":{},"id":85},"geometry":{"type":"LineString","coordinates":[[-111.60648,37.7704],[-111.60698,37.7704],[-111.60761,37.77041],[-111.60806,37.77042],[-111.60883,37.77044],[-111.60904,37.77045],[-111.60928,37.7705],[-111.60951,37.77055],[-111.60968,37.77061],[-111.60989,37.77069],[-111.61007,37.77077],[-111.61013,37.77081],[-111.61044,37.77098],[-111.61056,37.77104],[-111.61063,37.77108],[-111.61074,37.77114],[-111.611,37.77129],[-111.61119,37.77139],[-111.61149,37.77155],[-111.61156,37.77159],[-111.6116,37.77161],[-111.61234,37.77201],[-111.61285,37.77231],[-111.61339,37.77262],[-111.61368,37.77279],[-111.61395,37.77293],[-111.61437,37.77315],[-111.61444,37.77319],[-111.61449,37.77322],[-111.61491,37.77345],[-111.61535,37.7737],[-111.61554,37.7738],[-111.61572,37.7739],[-111.61574,37.77391],[-111.61609,37.77411],[-111.61618,37.77416],[-111.61627,37.77422],[-111.61646,37.77433],[-111.61675,37.77451],[-111.61706,37.77471],[-111.61721,37.77481],[-111.61758,37.77506],[-111.61808,37.77539],[-111.61825,37.77551],[-111.61886,37.77592],[-111.61897,37.77599],[-111.61945,37.77631],[-111.61949,37.77634],[-111.61978,37.77653],[-111.62028,37.77687],[-111.6205,37.777],[-111.62097,37.77723],[-111.62124,37.77734],[-111.62157,37.77744],[-111.62176,37.77749],[-111.62179,37.7775],[-111.62199,37.77753],[-111.62207,37.77754],[-111.62231,37.77757],[-111.6225,37.77759],[-111.62254,37.77759],[-111.62273,37.7776],[-111.62322,37.77759],[-111.62336,37.77758],[-111.62426,37.77757],[-111.62527,37.77754],[-111.6253,37.77754],[-111.62563,37.77753],[-111.62595,37.77752],[-111.62664,37.77749],[-111.6267,37.77749],[-111.62713,37.77749],[-111.62732,37.7775],[-111.62755,37.7775],[-111.62777,37.77748],[-111.62815,37.77742],[-111.62856,37.77733],[-111.62878,37.77726],[-111.62904,37.77719],[-111.62929,37.77709],[-111.62979,37.77687],[-111.62988,37.77683],[-111.6301,37.77673],[-111.63059,37.7765],[-111.63092,37.77636],[-111.631,37.77633],[-111.63112,37.77628],[-111.63149,37.77614],[-111.63173,37.77607],[-111.63197,37.776],[-111.63218,37.77596],[-111.6322,37.77595],[-111.63262,37.77588],[-111.63283,37.77585],[-111.63303,37.77584],[-111.63322,37.77583],[-111.63329,37.77583],[-111.63346,37.77582],[-111.6341,37.77584],[-111.63427,37.77585],[-111.63522,37.77588],[-111.63545,37.77589],[-111.63546,37.77589],[-111.63603,37.77591],[-111.63658,37.77592],[-111.63698,37.77591],[-111.63704,37.77591],[-111.63728,37.7759],[-111.63731,37.7759],[-111.6376,37.77588],[-111.63801,37.77584],[-111.63838,37.77579],[-111.63869,37.77573],[-111.63896,37.77569],[-111.63915,37.77565],[-111.63929,37.77561],[-111.63944,37.77558],[-111.63951,37.77556],[-111.63987,37.77547],[-111.63995,37.77545],[-111.64009,37.77542],[-111.64044,37.77532],[-111.64074,37.77525],[-111.64094,37.77519],[-111.64095,37.77519],[-111.64124,37.77512],[-111.64138,37.77508],[-111.64191,37.77495],[-111.6424,37.77486],[-111.64248,37.77485],[-111.64256,37.77483],[-111.64271,37.77481],[-111.64293,37.77477],[-111.64315,37.77474],[-111.64319,37.77473],[-111.64323,37.77472],[-111.64367,37.77465],[-111.6438,37.77463],[-111.64382,37.77463],[-111.64417,37.77457],[-111.64459,37.77448],[-111.64475,37.77443],[-111.64491,37.77438],[-111.64499,37.77436],[-111.64526,37.77426],[-111.64539,37.7742],[-111.64553,37.77415],[-111.64712,37.77345],[-111.64747,37.77331],[-111.64781,37.77317],[-111.64824,37.773],[-111.64867,37.77285],[-111.64923,37.77269],[-111.64926,37.77268],[-111.64944,37.77264],[-111.64971,37.77258],[-111.64992,37.77253],[-111.65014,37.77249],[-111.65031,37.77246],[-111.6508,37.77239],[-111.65149,37.77232],[-111.65154,37.77232],[-111.65172,37.77231],[-111.65223,37.77227],[-111.65252,37.77226],[-111.65299,37.77224],[-111.65353,37.77221],[-111.65359,37.77221],[-111.65376,37.7722],[-111.65397,37.77219],[-111.65449,37.77216],[-111.65485,37.77215],[-111.65489,37.77215],[-111.65518,37.77215],[-111.65557,37.77217],[-111.65602,37.7722],[-111.65638,37.77223],[-111.65686,37.77227],[-111.65714,37.7723],[-111.65736,37.77232],[-111.65739,37.77232],[-111.6576,37.77231],[-111.65761,37.77231],[-111.65775,37.77231],[-111.65784,37.7723],[-111.65792,37.7723],[-111.6581,37.77228],[-111.65828,37.77225],[-111.65847,37.77221],[-111.65863,37.77216],[-111.65872,37.77214],[-111.65882,37.7721],[-111.65893,37.77206],[-111.65905,37.77201],[-111.65932,37.77189],[-111.65933,37.77189],[-111.65952,37.7718],[-111.65992,37.77162],[-111.6611,37.77108],[-111.6619,37.7707],[-111.66253,37.77046],[-111.66487,37.76963],[-111.66564,37.76936],[-111.66584,37.7693],[-111.66628,37.76916],[-111.66691,37.76897],[-111.66703,37.76893],[-111.66713,37.7689],[-111.66788,37.76869],[-111.6687,37.76847],[-111.66921,37.76833],[-111.66965,37.76821],[-111.6698,37.76817],[-111.66998,37.76811],[-111.67015,37.76806],[-111.67032,37.76801],[-111.67069,37.76788],[-111.6709,37.76779],[-111.671,37.76775],[-111.6711,37.7677],[-111.67127,37.76763],[-111.67174,37.76741],[-111.67243,37.76707],[-111.67273,37.76693],[-111.67305,37.76678],[-111.67317,37.76672],[-111.67325,37.76669],[-111.67337,37.76663],[-111.67365,37.76651],[-111.67385,37.76644],[-111.67403,37.76636],[-111.67406,37.76636],[-111.6744,37.76623],[-111.67481,37.76609],[-111.67512,37.76598],[-111.67531,37.76592],[-111.67547,37.76587],[-111.67595,37.76573],[-111.67638,37.76562],[-111.67641,37.76561],[-111.67672,37.76553],[-111.67706,37.76546],[-111.67739,37.7654],[-111.6777,37.76534],[-111.67772,37.76533],[-111.678,37.76529],[-111.67834,37.76525],[-111.67849,37.76523],[-111.67931,37.76515],[-111.68081,37.76501],[-111.68101,37.76499],[-111.68103,37.76499],[-111.68149,37.76496],[-111.68239,37.76488],[-111.68249,37.76487],[-111.68307,37.76482],[-111.68339,37.7648],[-111.68366,37.76476],[-111.6839,37.76472],[-111.68409,37.76467],[-111.68418,37.76464],[-111.6842,37.76463],[-111.68438,37.76457],[-111.68462,37.76448],[-111.6848,37.76442],[-111.68508,37.76431],[-111.68541,37.76418],[-111.68602,37.76395],[-111.68623,37.76387],[-111.68632,37.76384],[-111.68706,37.76357],[-111.68747,37.76342],[-111.68768,37.76334],[-111.68779,37.7633],[-111.68809,37.76318],[-111.68912,37.76278],[-111.68963,37.7626],[-111.68975,37.76256],[-111.68991,37.76251],[-111.6903,37.76239],[-111.69067,37.76229],[-111.69084,37.76225],[-111.69105,37.76219],[-111.6917,37.76203],[-111.6924,37.76184],[-111.69263,37.76178],[-111.69326,37.7616],[-111.69333,37.76159],[-111.69348,37.76155],[-111.69409,37.76138],[-111.69412,37.76137],[-111.6947,37.76122],[-111.6952,37.76109],[-111.69521,37.76109],[-111.69551,37.76101],[-111.69576,37.76094],[-111.69585,37.76091],[-111.69588,37.7609],[-111.69603,37.76084],[-111.69605,37.76083],[-111.69617,37.76079],[-111.69631,37.76072],[-111.69638,37.76069],[-111.69646,37.76065],[-111.69658,37.76057],[-111.69675,37.76046],[-111.69692,37.76034],[-111.69696,37.7603],[-111.697,37.76027],[-111.69711,37.76018],[-111.69719,37.76011],[-111.69725,37.76004],[-111.69737,37.75991],[-111.69739,37.75988],[-111.69753,37.7597],[-111.6979,37.75918],[-111.69834,37.75854],[-111.69861,37.75815],[-111.69876,37.75794],[-111.69917,37.75737],[-111.69924,37.75729],[-111.69966,37.75669],[-111.70007,37.7561],[-111.70039,37.75564],[-111.70041,37.75561],[-111.70061,37.75533],[-111.70072,37.75517],[-111.70072,37.75516],[-111.70099,37.75476],[-111.70104,37.75469],[-111.70106,37.75466],[-111.70114,37.75453],[-111.70116,37.7545],[-111.70123,37.75438],[-111.70132,37.7542],[-111.70135,37.75415],[-111.70147,37.75389],[-111.70155,37.75372],[-111.70163,37.75353],[-111.70168,37.7534],[-111.7017,37.75336],[-111.70171,37.7533],[-111.70175,37.75318],[-111.7019,37.75268],[-111.70196,37.75248],[-111.70199,37.75236],[-111.70201,37.75231],[-111.70207,37.75213],[-111.70212,37.752],[-111.70226,37.75169],[-111.70232,37.75155],[-111.70237,37.75145],[-111.70242,37.75135],[-111.70245,37.75128],[-111.70253,37.75114],[-111.70262,37.75099],[-111.70275,37.7508],[-111.70298,37.75049],[-111.70323,37.75012],[-111.7033,37.75001],[-111.70332,37.74998],[-111.70346,37.74974],[-111.70359,37.74953],[-111.70362,37.74948],[-111.70424,37.74847],[-111.70457,37.7479],[-111.70458,37.74788],[-111.70466,37.74776],[-111.7048,37.74752],[-111.70488,37.74738],[-111.70505,37.74707],[-111.70522,37.74674],[-111.70535,37.74648],[-111.70548,37.74619],[-111.70574,37.74562],[-111.70576,37.74557],[-111.70633,37.74421],[-111.70641,37.74404],[-111.70642,37.74401],[-111.70648,37.74387],[-111.70649,37.74383],[-111.70657,37.74366],[-111.70662,37.74357],[-111.70668,37.74347],[-111.70678,37.7433],[-111.70684,37.74322],[-111.70691,37.74309],[-111.70718,37.74276],[-111.70727,37.74265],[-111.70737,37.74256],[-111.70751,37.74242],[-111.70778,37.7422],[-111.70789,37.7421],[-111.70815,37.74192],[-111.70824,37.74185],[-111.7084,37.74175],[-111.70853,37.74168],[-111.70859,37.74165],[-111.70868,37.7416],[-111.70897,37.74145],[-111.70912,37.74139],[-111.70937,37.74129],[-111.70995,37.74105],[-111.70998,37.74104],[-111.71021,37.74096],[-111.71087,37.74071],[-111.71104,37.74064],[-111.71124,37.74056],[-111.7114,37.74051],[-111.71163,37.74043],[-111.71182,37.74037],[-111.71203,37.74032],[-111.71234,37.74025],[-111.7126,37.7402],[-111.71265,37.74019],[-111.71271,37.74018],[-111.71283,37.74016],[-111.71303,37.74013],[-111.7133,37.74009],[-111.7136,37.74006],[-111.71382,37.74005],[-111.71407,37.74004],[-111.71431,37.74004],[-111.71456,37.74005],[-111.71465,37.74006],[-111.71491,37.74008],[-111.71606,37.74016],[-111.71647,37.74019],[-111.7165,37.74019],[-111.7166,37.7402],[-111.71677,37.74022],[-111.71693,37.74025],[-111.71702,37.74027],[-111.71716,37.7403],[-111.71733,37.74035],[-111.71749,37.74041],[-111.71763,37.74046],[-111.71778,37.74052],[-111.71798,37.74063],[-111.71805,37.74066],[-111.71813,37.74072],[-111.71816,37.74073],[-111.71822,37.74077],[-111.71827,37.74081],[-111.71841,37.74091],[-111.71863,37.74108],[-111.71888,37.74128],[-111.71898,37.74136],[-111.71907,37.74142],[-111.71923,37.74152],[-111.71936,37.74159],[-111.71947,37.74165],[-111.7196,37.74171],[-111.7197,37.74175],[-111.71979,37.74179],[-111.72001,37.74188],[-111.72013,37.74192],[-111.72027,37.74196],[-111.72043,37.742],[-111.72058,37.74204],[-111.72067,37.74206],[-111.72077,37.74208],[-111.72089,37.7421],[-111.721,37.74212],[-111.72109,37.74213],[-111.72119,37.74214],[-111.72132,37.74215],[-111.72147,37.74216],[-111.72164,37.74216],[-111.72181,37.74216],[-111.72205,37.74215],[-111.72214,37.74214],[-111.72225,37.74213],[-111.72236,37.74212],[-111.72246,37.74211],[-111.72258,37.74209],[-111.72259,37.74209],[-111.72271,37.74207],[-111.72287,37.74204],[-111.72303,37.742],[-111.72325,37.74194],[-111.72341,37.74189],[-111.72345,37.74187],[-111.72348,37.74186],[-111.72359,37.74182],[-111.72366,37.7418],[-111.72379,37.74174],[-111.72415,37.74157],[-111.72464,37.74134],[-111.72509,37.74113],[-111.72542,37.74097],[-111.72561,37.74087],[-111.72717,37.74013],[-111.72736,37.74004],[-111.72756,37.73994],[-111.72788,37.73979],[-111.72843,37.73954],[-111.72865,37.73944],[-111.72888,37.73935],[-111.72915,37.73925],[-111.72942,37.73916],[-111.72957,37.73911],[-111.72963,37.73909],[-111.72983,37.73903],[-111.72999,37.73899],[-111.73019,37.73893],[-111.73021,37.73893],[-111.7304,37.73888],[-111.73061,37.73883],[-111.73087,37.73879],[-111.73093,37.73877],[-111.73109,37.73875],[-111.7313,37.73871],[-111.73174,37.73865],[-111.73176,37.73865],[-111.73226,37.73858],[-111.73333,37.73845],[-111.73353,37.73843],[-111.73356,37.73843],[-111.73446,37.73831],[-111.73486,37.73826],[-111.73523,37.73822],[-111.73555,37.73819],[-111.73583,37.73817],[-111.73627,37.73815],[-111.73647,37.73814],[-111.73669,37.73814],[-111.73672,37.73814],[-111.73695,37.73815],[-111.73708,37.73815],[-111.73784,37.73819],[-111.73785,37.73819],[-111.73808,37.7382],[-111.73861,37.73822],[-111.73957,37.73826],[-111.74008,37.73827],[-111.74035,37.73827],[-111.74063,37.73826],[-111.74109,37.73823],[-111.74139,37.73821],[-111.74171,37.73819],[-111.74216,37.73813],[-111.74217,37.73813],[-111.74239,37.7381],[-111.74262,37.73806],[-111.74296,37.738],[-111.74333,37.73793],[-111.74379,37.73783],[-111.74404,37.73777],[-111.74415,37.73774],[-111.74429,37.7377],[-111.74458,37.73762],[-111.74479,37.73756],[-111.74485,37.73754],[-111.74507,37.73747],[-111.74528,37.7374],[-111.74551,37.73731],[-111.7457,37.73724],[-111.74591,37.73716],[-111.74603,37.73711],[-111.74615,37.73707],[-111.74623,37.73703],[-111.74641,37.73695],[-111.74673,37.7368],[-111.74725,37.73655],[-111.74818,37.7361],[-111.74836,37.73601],[-111.74876,37.73582],[-111.74915,37.73563],[-111.74934,37.73554],[-111.7507,37.73488],[-111.75111,37.73467],[-111.75163,37.73442],[-111.75334,37.73359],[-111.75431,37.73312],[-111.7547,37.73293],[-111.75567,37.73246],[-111.75644,37.73208],[-111.7578,37.73142],[-111.75799,37.73132],[-111.75819,37.73123],[-111.75947,37.7306],[-111.75977,37.73046],[-111.75993,37.73039],[-111.76014,37.7303],[-111.76034,37.73021],[-111.76067,37.73008],[-111.76106,37.72993],[-111.76143,37.72979],[-111.76146,37.72978],[-111.76156,37.72974],[-111.76177,37.72967],[-111.76182,37.72965],[-111.76228,37.7295],[-111.76247,37.72944],[-111.76275,37.72936],[-111.76325,37.72922],[-111.76326,37.72922],[-111.7636,37.72912],[-111.7641,37.729],[-111.76465,37.72886],[-111.76519,37.72872],[-111.7652,37.72872],[-111.76572,37.72858],[-111.76606,37.7285],[-111.76647,37.7284],[-111.76715,37.72822],[-111.7676,37.72811],[-111.76825,37.72795],[-111.76853,37.72787],[-111.76875,37.72782],[-111.76896,37.72776],[-111.76983,37.72755],[-111.77022,37.72745],[-111.77067,37.72733],[-111.77091,37.72727],[-111.77113,37.72721],[-111.77114,37.72721],[-111.77155,37.72711],[-111.77175,37.72706],[-111.77204,37.72697],[-111.77256,37.72681],[-111.77283,37.72671],[-111.773,37.72664],[-111.77328,37.72652],[-111.77355,37.7264],[-111.77363,37.72636],[-111.7738,37.72628],[-111.77382,37.72627],[-111.77418,37.72608],[-111.7742,37.72607],[-111.77439,37.72597],[-111.77446,37.72594],[-111.7746,37.72587],[-111.77512,37.72559],[-111.77572,37.72528],[-111.77591,37.72518],[-111.77594,37.72517],[-111.77606,37.7251],[-111.77654,37.72485],[-111.777,37.72462],[-111.77754,37.72433],[-111.77781,37.72418],[-111.77804,37.72403],[-111.77818,37.72393],[-111.77832,37.72383],[-111.77842,37.72376],[-111.77849,37.72371],[-111.77867,37.72357],[-111.77894,37.72334],[-111.77918,37.72311],[-111.77924,37.72304],[-111.77947,37.7228],[-111.77966,37.72257],[-111.77977,37.72243],[-111.77989,37.72226],[-111.77999,37.72211],[-111.78007,37.72199],[-111.78008,37.72197],[-111.78022,37.72172],[-111.78032,37.72154],[-111.78039,37.72142],[-111.7805,37.72124],[-111.78056,37.72113],[-111.78078,37.72075],[-111.78106,37.72026],[-111.78132,37.71978],[-111.78156,37.71935],[-111.78173,37.71908],[-111.78186,37.71888],[-111.78201,37.71866],[-111.78215,37.7185],[-111.78218,37.71846],[-111.7823,37.71832],[-111.78231,37.71831],[-111.78246,37.71815],[-111.78258,37.71803],[-111.78269,37.71792],[-111.78295,37.71766],[-111.78301,37.7176],[-111.78315,37.71746],[-111.78325,37.71737],[-111.7835,37.71711],[-111.78375,37.71684],[-111.78397,37.7166],[-111.78399,37.71659],[-111.78418,37.71637],[-111.78436,37.71616],[-111.78453,37.71596],[-111.78476,37.71568],[-111.78495,37.71544],[-111.78501,37.71535],[-111.78512,37.7152],[-111.78539,37.71479],[-111.78562,37.71444],[-111.78571,37.71429],[-111.78588,37.71401],[-111.78605,37.71372],[-111.7862,37.71342],[-111.78627,37.71329],[-111.78635,37.71313],[-111.78636,37.71311],[-111.78655,37.71272],[-111.78676,37.7122],[-111.7868,37.71209],[-111.78687,37.71191],[-111.78689,37.71186],[-111.787,37.71157],[-111.78712,37.71128],[-111.78714,37.71123],[-111.78747,37.71037],[-111.78749,37.71033],[-111.78754,37.7102],[-111.78761,37.71002],[-111.78814,37.70865],[-111.78821,37.70848],[-111.78839,37.708],[-111.78861,37.70745],[-111.78873,37.70713],[-111.78874,37.7071],[-111.7888,37.70693],[-111.78881,37.70692],[-111.78889,37.70671],[-111.78902,37.70638],[-111.78907,37.70624],[-111.78914,37.70607],[-111.78927,37.70573],[-111.78947,37.70521],[-111.78964,37.70477],[-111.78986,37.70419],[-111.78999,37.70386],[-111.79012,37.70351],[-111.79013,37.7035],[-111.79019,37.70333],[-111.79029,37.7031],[-111.79039,37.70281],[-111.79041,37.70276],[-111.79046,37.70264],[-111.79059,37.70232],[-111.79059,37.7023],[-111.79073,37.70196],[-111.79079,37.70178],[-111.79088,37.70155],[-111.79093,37.70144],[-111.79106,37.70109],[-111.79112,37.70092],[-111.79118,37.70075],[-111.79119,37.70075],[-111.79125,37.70058],[-111.79145,37.70006],[-111.79147,37.7],[-111.79151,37.69989],[-111.79165,37.69954],[-111.79167,37.69948],[-111.79178,37.6992],[-111.79179,37.69918],[-111.79207,37.69852],[-111.79211,37.69842],[-111.79218,37.69829],[-111.79226,37.69812],[-111.79232,37.69802],[-111.79236,37.69794],[-111.79246,37.69777],[-111.79262,37.69754],[-111.79278,37.69731],[-111.79296,37.69707],[-111.79296,37.69706],[-111.79321,37.69676],[-111.79322,37.69675],[-111.79334,37.69662],[-111.79342,37.69652],[-111.79363,37.69631],[-111.79376,37.69619],[-111.79387,37.69608],[-111.79415,37.69583],[-111.79432,37.6957],[-111.79459,37.69549],[-111.79486,37.6953],[-111.795,37.69519],[-111.79539,37.69493],[-111.79545,37.69489],[-111.79562,37.69477],[-111.79579,37.69466],[-111.79667,37.69406],[-111.79683,37.69395],[-111.79786,37.69325],[-111.79916,37.69237],[-111.80064,37.69137],[-111.80081,37.69125],[-111.80097,37.69114],[-111.80152,37.69076],[-111.80202,37.69043],[-111.80219,37.69031],[-111.80227,37.69025],[-111.80236,37.69019],[-111.80409,37.68902],[-111.80426,37.6889],[-111.80448,37.68875],[-111.80528,37.68821],[-111.80622,37.68757],[-111.80695,37.68707],[-111.80697,37.68706],[-111.80712,37.68696],[-111.80759,37.68664],[-111.80816,37.68625],[-111.80874,37.68586],[-111.80902,37.68567],[-111.80912,37.6856],[-111.8105,37.68466],[-111.81084,37.68443],[-111.81136,37.68408],[-111.81171,37.68384],[-111.81178,37.68379],[-111.81188,37.68373],[-111.81309,37.68291],[-111.81331,37.68275],[-111.81424,37.68212],[-111.81493,37.68165],[-111.81533,37.68138],[-111.81562,37.68118],[-111.81628,37.68073],[-111.81665,37.68048],[-111.8167,37.68044],[-111.81746,37.67993],[-111.81825,37.67939],[-111.81843,37.67927],[-111.8186,37.67916],[-111.81949,37.67855],[-111.81959,37.67848],[-111.82024,37.67804],[-111.82058,37.67781],[-111.82073,37.6777],[-111.82075,37.67769],[-111.82101,37.67752],[-111.82124,37.67736],[-111.82155,37.67715],[-111.82165,37.67708],[-111.82195,37.67688],[-111.82196,37.67688],[-111.82226,37.67667],[-111.82249,37.67653],[-111.82261,37.67646],[-111.82312,37.67616],[-111.82322,37.67611],[-111.82365,37.67588],[-111.82384,37.67578],[-111.82403,37.67569],[-111.82422,37.67559],[-111.82442,37.67549],[-111.82481,37.6753],[-111.82519,37.67511],[-111.82538,37.67501],[-111.82555,37.67493],[-111.82557,37.67492],[-111.82576,37.67482],[-111.82596,37.67472],[-111.82612,37.67464],[-111.82635,37.67451],[-111.82655,37.67439],[-111.82681,37.67422],[-111.82686,37.67419],[-111.82697,37.67411],[-111.82713,37.67398],[-111.82719,37.67394],[-111.82732,37.67383],[-111.82744,37.67372],[-111.82773,37.67343],[-111.82784,37.67332],[-111.82793,37.67323],[-111.8281,37.67304],[-111.82825,37.67285],[-111.82838,37.67265],[-111.82843,37.67255],[-111.82852,37.67239],[-111.82867,37.67207],[-111.82868,37.67205],[-111.82883,37.67171],[-111.82891,37.67154],[-111.82906,37.6712],[-111.82935,37.67056],[-111.8296,37.67001],[-111.83007,37.66896],[-111.83021,37.66866],[-111.83028,37.66849],[-111.83044,37.66815],[-111.83059,37.66781],[-111.83067,37.66764],[-111.83074,37.66747],[-111.83097,37.66697],[-111.83154,37.66572],[-111.83174,37.66527],[-111.83181,37.6651],[-111.83239,37.66383],[-111.83244,37.66372],[-111.8328,37.66291],[-111.83288,37.66273],[-111.83306,37.66234],[-111.83334,37.66175],[-111.83354,37.66136],[-111.83372,37.66103],[-111.83383,37.66084],[-111.8339,37.66073],[-111.83404,37.66049],[-111.83424,37.66018],[-111.83456,37.65971],[-111.8349,37.65927],[-111.83505,37.65907],[-111.8351,37.65902],[-111.83511,37.659],[-111.83538,37.65868],[-111.83587,37.65811],[-111.83635,37.65755],[-111.83651,37.65736],[-111.83681,37.65703],[-111.8373,37.65646],[-111.83755,37.65618],[-111.83785,37.65583],[-111.83843,37.65518],[-111.83883,37.65472],[-111.83885,37.6547],[-111.83898,37.65456],[-111.83916,37.65435],[-111.83936,37.65412],[-111.83954,37.65391],[-111.84001,37.65337],[-111.84014,37.65323],[-111.84026,37.65309],[-111.84058,37.65272],[-111.84099,37.65225],[-111.84143,37.65175],[-111.84155,37.65161],[-111.84156,37.6516],[-111.84204,37.65104],[-111.84293,37.65002],[-111.84346,37.64941],[-111.84358,37.64926],[-111.84376,37.64905],[-111.84384,37.64896],[-111.84399,37.64879],[-111.84414,37.64863],[-111.84431,37.64841],[-111.84443,37.64824],[-111.84445,37.64821],[-111.84446,37.6482],[-111.84462,37.64795],[-111.84475,37.64769],[-111.84488,37.64742],[-111.84498,37.64716],[-111.84507,37.64685],[-111.84512,37.64668],[-111.84513,37.64663],[-111.84517,37.64649],[-111.84519,37.64637],[-111.8452,37.64633],[-111.84522,37.64615],[-111.84522,37.64604],[-111.84522,37.646],[-111.84523,37.64597],[-111.84523,37.64587],[-111.84523,37.64582],[-111.84523,37.64573],[-111.84523,37.64559],[-111.84522,37.64543],[-111.84521,37.64543],[-111.8452,37.64528],[-111.8452,37.64525],[-111.84519,37.64515],[-111.84518,37.64511],[-111.84518,37.64507],[-111.84514,37.64483],[-111.8451,37.64454],[-111.84508,37.64436],[-111.84504,37.64411],[-111.84503,37.64403],[-111.84503,37.644],[-111.84497,37.64364],[-111.84495,37.64346],[-111.84487,37.64296],[-111.84486,37.64292],[-111.84484,37.64275],[-111.84483,37.64266],[-111.84482,37.64257],[-111.8448,37.64247],[-111.84479,37.64243],[-111.84479,37.64239],[-111.84473,37.64202],[-111.84471,37.64189],[-111.8447,37.64186],[-111.84468,37.64171],[-111.84468,37.6417],[-111.84467,37.64168],[-111.84462,37.64141],[-111.84456,37.64114],[-111.84451,37.64097],[-111.84446,37.6408],[-111.84445,37.64076],[-111.84442,37.64065],[-111.84436,37.64048],[-111.84435,37.64045],[-111.84431,37.6403],[-111.8443,37.64027],[-111.84424,37.6401],[-111.8442,37.63997],[-111.84419,37.63992],[-111.84412,37.63969],[-111.8441,37.6396],[-111.84409,37.63957],[-111.84405,37.63945],[-111.84404,37.63943],[-111.84403,37.6394],[-111.84399,37.63925],[-111.84398,37.63922],[-111.84396,37.63917],[-111.84394,37.63908],[-111.84393,37.63905],[-111.84388,37.63891],[-111.84388,37.6389],[-111.84387,37.63887],[-111.84383,37.63873],[-111.84381,37.63865],[-111.84378,37.63855],[-111.84377,37.63852],[-111.84375,37.63845],[-111.84373,37.63838],[-111.84372,37.63835],[-111.8437,37.6383],[-111.84366,37.63823],[-111.84365,37.63821],[-111.84363,37.63818],[-111.84361,37.63814],[-111.84355,37.63807],[-111.84354,37.63806],[-111.84351,37.63803],[-111.84349,37.63801],[-111.8434,37.63794],[-111.84335,37.63791],[-111.84326,37.63786],[-111.84319,37.63782],[-111.84316,37.63781],[-111.84316,37.6378],[-111.84306,37.63776],[-111.84296,37.63772],[-111.84295,37.63771],[-111.84239,37.63749],[-111.84228,37.63744],[-111.84218,37.63737],[-111.84217,37.63737],[-111.84212,37.63732],[-111.84208,37.63727],[-111.84205,37.63721],[-111.84203,37.63716],[-111.84202,37.6371],[-111.84202,37.63702],[-111.84203,37.63691],[-111.84203,37.63686],[-111.84205,37.63677],[-111.84206,37.63672],[-111.84207,37.63668],[-111.84207,37.63666],[-111.8421,37.63656],[-111.84212,37.63651],[-111.84214,37.63649],[-111.84218,37.63641],[-111.84223,37.63635],[-111.84229,37.63629],[-111.84236,37.63625],[-111.84239,37.63623],[-111.84246,37.63619],[-111.84256,37.63616],[-111.8426,37.63615],[-111.84266,37.63614],[-111.84273,37.63613],[-111.8428,37.63613],[-111.84282,37.63613],[-111.84293,37.63613],[-111.84304,37.63614],[-111.84316,37.63615],[-111.84331,37.63616],[-111.84345,37.63616],[-111.84354,37.63614],[-111.84363,37.63612],[-111.84371,37.63608],[-111.84374,37.63606],[-111.84381,37.63601],[-111.84384,37.63598],[-111.84387,37.63595],[-111.84388,37.63594],[-111.84392,37.6359],[-111.84396,37.63583],[-111.84398,37.6358],[-111.84404,37.6357],[-111.84407,37.63563],[-111.84415,37.63551],[-111.84423,37.63536],[-111.84426,37.63531],[-111.84433,37.63519],[-111.84434,37.63517],[-111.84436,37.63514],[-111.84443,37.63504],[-111.84444,37.63501],[-111.84446,37.63498],[-111.84451,37.63491],[-111.84462,37.63474],[-111.84471,37.63461],[-111.84477,37.63452],[-111.84487,37.63436],[-111.84488,37.63434],[-111.84496,37.63421],[-111.84498,37.63418],[-111.845,37.63414],[-111.84505,37.63405],[-111.84505,37.63404],[-111.84509,37.63396],[-111.84513,37.63385],[-111.84513,37.63384],[-111.84516,37.63376],[-111.84518,37.63369],[-111.84519,37.63363],[-111.84521,37.63354],[-111.84523,37.63342],[-111.84526,37.63327],[-111.8453,37.63305],[-111.84533,37.63296],[-111.84536,37.63282],[-111.84545,37.63256],[-111.84552,37.63236],[-111.84556,37.63226],[-111.84562,37.63212],[-111.84563,37.63209],[-111.8457,37.63196],[-111.84579,37.63181],[-111.84585,37.63173],[-111.84592,37.63164],[-111.84593,37.63163],[-111.84594,37.63161],[-111.84598,37.63158],[-111.84605,37.63151],[-111.84606,37.6315],[-111.84609,37.63148],[-111.84611,37.63146],[-111.84621,37.6314],[-111.84623,37.63138],[-111.8463,37.63135],[-111.84642,37.63129],[-111.84653,37.63124],[-111.84662,37.6312],[-111.84671,37.63116],[-111.84685,37.6311],[-111.84686,37.6311],[-111.84699,37.63104],[-111.84716,37.63095],[-111.84721,37.63092],[-111.8473,37.63086],[-111.84737,37.6308],[-111.84749,37.63071],[-111.84756,37.63065],[-111.84762,37.6306],[-111.84771,37.6305],[-111.84783,37.63035],[-111.84791,37.63024],[-111.84799,37.63013],[-111.84808,37.62999],[-111.84814,37.62988],[-111.84821,37.62977],[-111.84822,37.62975],[-111.84824,37.62972],[-111.8483,37.62959],[-111.84831,37.62958],[-111.84837,37.62947],[-111.84843,37.62935],[-111.84849,37.62925],[-111.84851,37.62922],[-111.84858,37.62908],[-111.8486,37.62906],[-111.84872,37.62885],[-111.84878,37.62877],[-111.8488,37.62874],[-111.84886,37.62866],[-111.84889,37.62862],[-111.84892,37.62858],[-111.84902,37.62846],[-111.84904,37.62843],[-111.84905,37.62842],[-111.84925,37.62818],[-111.84929,37.62813],[-111.84942,37.62798],[-111.84949,37.62791],[-111.84966,37.62772],[-111.84968,37.62769],[-111.84975,37.62762],[-111.84984,37.62752],[-111.85011,37.62723],[-111.85024,37.6271],[-111.85034,37.62699],[-111.85045,37.62685],[-111.85045,37.62684],[-111.85047,37.62681],[-111.85052,37.62675],[-111.85053,37.62673],[-111.8506,37.62664],[-111.85069,37.6265],[-111.85071,37.62647],[-111.85082,37.6263],[-111.8509,37.62617],[-111.85096,37.62607],[-111.85111,37.62584],[-111.85126,37.62563],[-111.85138,37.62546],[-111.85142,37.6254],[-111.85143,37.62538],[-111.85159,37.62515],[-111.85171,37.62499],[-111.85188,37.62477],[-111.85208,37.62455],[-111.85224,37.62437],[-111.85229,37.62432],[-111.85244,37.62419],[-111.85244,37.62418],[-111.8525,37.62413],[-111.85256,37.62408],[-111.85258,37.62406],[-111.85271,37.62397],[-111.85285,37.62388],[-111.85299,37.62381],[-111.85313,37.62374],[-111.85314,37.62374],[-111.85328,37.62368],[-111.85342,37.62363],[-111.85357,37.62359],[-111.85368,37.62357],[-111.85383,37.62355],[-111.85409,37.62351],[-111.85429,37.62349],[-111.85462,37.62345],[-111.85484,37.62343],[-111.85517,37.6234],[-111.85535,37.62338],[-111.85546,37.62336],[-111.85566,37.62334],[-111.85576,37.62333],[-111.8558,37.62332],[-111.85587,37.62331],[-111.85598,37.62329],[-111.85615,37.62326],[-111.85635,37.62322],[-111.85659,37.62317],[-111.85702,37.62305],[-111.85732,37.62295],[-111.85803,37.62272],[-111.85877,37.62246],[-111.85943,37.6222],[-111.85956,37.62216],[-111.85959,37.62215],[-111.85976,37.62209],[-111.86001,37.622],[-111.86033,37.6219],[-111.86099,37.6217],[-111.86129,37.62163],[-111.86145,37.62159],[-111.86206,37.6215],[-111.86241,37.62148],[-111.86263,37.62147],[-111.86282,37.62146],[-111.86286,37.62146],[-111.86304,37.62147],[-111.86309,37.62147],[-111.86327,37.62147],[-111.86331,37.62147],[-111.8635,37.62149],[-111.86372,37.62152],[-111.86376,37.62152],[-111.86395,37.62154],[-111.86399,37.62154],[-111.86417,37.62156],[-111.86421,37.62157],[-111.86444,37.62159],[-111.86462,37.62161],[-111.86507,37.62166],[-111.86561,37.62171],[-111.86584,37.62173],[-111.86599,37.62175],[-111.86629,37.62176],[-111.86687,37.62179],[-111.86742,37.62174],[-111.86795,37.62168],[-111.86831,37.62159],[-111.86917,37.62138],[-111.86939,37.62132],[-111.87002,37.62117],[-111.87004,37.62116],[-111.87025,37.62109],[-111.87066,37.62094],[-111.87108,37.62079],[-111.87128,37.62072],[-111.87149,37.62065],[-111.87191,37.6205],[-111.87211,37.62043],[-111.87253,37.62028],[-111.87274,37.62021],[-111.87356,37.61992],[-111.87398,37.61977],[-111.87419,37.6197],[-111.87522,37.61933],[-111.8761,37.619],[-111.87625,37.61895],[-111.87646,37.61888],[-111.87957,37.61778],[-111.87978,37.6177],[-111.88061,37.61741],[-111.88154,37.61708],[-111.88384,37.61626],[-111.8842,37.61614],[-111.88459,37.61602],[-111.88494,37.61593],[-111.88512,37.61589],[-111.88531,37.61584],[-111.88542,37.61583],[-111.88571,37.61578],[-111.88604,37.61576],[-111.88621,37.61575],[-111.88624,37.61575],[-111.88672,37.61574],[-111.88696,37.61575],[-111.88716,37.61576],[-111.88734,37.61578],[-111.88802,37.61589],[-111.88871,37.61602],[-111.88914,37.6161],[-111.88936,37.61614],[-111.89025,37.6163],[-111.89091,37.61642],[-111.89113,37.61647],[-111.8918,37.61659],[-111.89207,37.61662],[-111.89223,37.61663],[-111.89235,37.61663],[-111.89247,37.61663],[-111.89262,37.61663],[-111.8927,37.61662],[-111.89274,37.61661],[-111.8929,37.61659],[-111.89292,37.61659],[-111.89321,37.61655],[-111.89336,37.61651],[-111.89339,37.61651],[-111.89359,37.61645],[-111.89384,37.61637],[-111.89399,37.6163],[-111.89415,37.61624],[-111.89419,37.61621],[-111.89437,37.61611],[-111.89438,37.61611],[-111.89449,37.61604],[-111.89472,37.61588],[-111.89473,37.61587],[-111.89481,37.6158],[-111.89504,37.61559],[-111.89521,37.6154],[-111.89531,37.61525],[-111.89537,37.61515],[-111.89554,37.61488],[-111.89565,37.61466],[-111.89574,37.61449],[-111.89577,37.61442],[-111.89591,37.61416],[-111.896,37.61399],[-111.8961,37.61381],[-111.89617,37.61366],[-111.89629,37.61343],[-111.89645,37.61317],[-111.89654,37.613],[-111.89664,37.61284],[-111.89707,37.61211],[-111.89713,37.61203],[-111.89739,37.61174],[-111.89745,37.61167],[-111.89785,37.6113],[-111.89822,37.61104],[-111.89839,37.61095],[-111.8987,37.61079],[-111.89946,37.6104],[-111.89954,37.61036],[-111.89984,37.6102],[-111.89989,37.61018],[-111.90004,37.6101],[-111.90061,37.60982],[-111.901,37.60963],[-111.90196,37.60915],[-111.90215,37.60905],[-111.90273,37.60877],[-111.90331,37.60848],[-111.9035,37.60839],[-111.90369,37.60829],[-111.90446,37.60791],[-111.90455,37.60787],[-111.90599,37.60713],[-111.9062,37.60702],[-111.90655,37.60682],[-111.90673,37.60672],[-111.90683,37.60666],[-111.9072,37.60644],[-111.90746,37.60628],[-111.90752,37.60624],[-111.90763,37.60617],[-111.90788,37.606],[-111.90826,37.60573],[-111.90857,37.6055],[-111.90881,37.60532],[-111.90912,37.60509],[-111.90945,37.60484],[-111.90998,37.60444],[-111.91013,37.60434],[-111.91041,37.60419],[-111.91058,37.60412],[-111.91085,37.60404],[-111.91131,37.60393],[-111.91189,37.60388],[-111.91203,37.60387],[-111.91248,37.60384],[-111.91263,37.60383],[-111.91294,37.60381],[-111.91339,37.60377],[-111.91362,37.60376],[-111.91366,37.60375],[-111.91411,37.60372],[-111.91448,37.60368],[-111.91477,37.60361],[-111.91492,37.60357],[-111.91509,37.60351],[-111.91516,37.60349],[-111.91528,37.60344],[-111.91544,37.60337],[-111.91561,37.60329],[-111.91579,37.60318],[-111.91602,37.60303],[-111.91616,37.60292],[-111.91624,37.60285],[-111.91626,37.60283],[-111.91645,37.60266],[-111.91658,37.6025],[-111.91667,37.60236],[-111.9169,37.60199],[-111.91702,37.6018],[-111.91704,37.60177],[-111.9172,37.60149],[-111.91742,37.60113],[-111.91762,37.60079],[-111.91763,37.60077],[-111.91781,37.60046],[-111.9179,37.6003],[-111.91797,37.60019],[-111.918,37.60014],[-111.91811,37.59998],[-111.9182,37.59981],[-111.91839,37.59949],[-111.91855,37.5992],[-111.91876,37.59883],[-111.91901,37.59844],[-111.91916,37.59819],[-111.9193,37.59797],[-111.91938,37.59788],[-111.91971,37.5974],[-111.91994,37.59714],[-111.92003,37.59704],[-111.92045,37.59664],[-111.92053,37.59656],[-111.92067,37.59644],[-111.92099,37.59616],[-111.921,37.59616],[-111.92115,37.59603],[-111.92147,37.59578],[-111.92163,37.59565],[-111.92176,37.59554],[-111.92195,37.5954],[-111.92219,37.59525],[-111.92233,37.59516],[-111.92252,37.59505],[-111.92283,37.5949],[-111.92324,37.59474],[-111.92356,37.59463],[-111.92393,37.59454],[-111.92414,37.59448],[-111.92421,37.59447],[-111.92475,37.59434],[-111.92518,37.59422],[-111.92543,37.59413],[-111.92562,37.59406],[-111.92563,37.59405],[-111.92582,37.59397],[-111.92595,37.5939],[-111.92615,37.5938],[-111.92621,37.59377],[-111.92635,37.59369],[-111.92664,37.5935],[-111.92691,37.59331],[-111.92699,37.59325],[-111.92758,37.59282],[-111.92793,37.59257],[-111.92818,37.59243],[-111.92838,37.59234],[-111.92865,37.59222],[-111.92896,37.59213],[-111.92927,37.59206],[-111.92938,37.59204],[-111.92971,37.59201],[-111.92986,37.592],[-111.92998,37.592],[-111.93018,37.592],[-111.93038,37.59201],[-111.93061,37.59204],[-111.93069,37.59206],[-111.93084,37.59208],[-111.93129,37.59218],[-111.93157,37.59224],[-111.93179,37.59229],[-111.93266,37.59248],[-111.93288,37.59253],[-111.93332,37.59263],[-111.93374,37.59272],[-111.93388,37.59275],[-111.93441,37.59287],[-111.93463,37.59292],[-111.93537,37.59308],[-111.93735,37.59352],[-111.93791,37.59365],[-111.93857,37.59379],[-111.93893,37.59387],[-111.93944,37.59399],[-111.94035,37.59419],[-111.94048,37.59422],[-111.94075,37.59429],[-111.94096,37.59435],[-111.94098,37.59435],[-111.94118,37.59441],[-111.94132,37.59445],[-111.94164,37.59454],[-111.94207,37.59468],[-111.94226,37.59474],[-111.94261,37.59486],[-111.94303,37.59502],[-111.94342,37.59517],[-111.94424,37.5955],[-111.94525,37.59591],[-111.94571,37.5961],[-111.94916,37.5975],[-111.9497,37.59772],[-111.95037,37.598],[-111.95058,37.59808],[-111.95098,37.59824],[-111.95129,37.59837],[-111.95199,37.59865],[-111.95219,37.59874],[-111.95398,37.59946],[-111.95442,37.59964],[-111.95462,37.59972],[-111.95522,37.59997],[-111.95667,37.60056],[-111.95744,37.60087],[-111.95757,37.60092],[-111.95775,37.601],[-111.95823,37.60119],[-111.95884,37.60144],[-111.9594,37.60167],[-111.95946,37.60169],[-111.96003,37.60192],[-111.96007,37.60194],[-111.96051,37.60211],[-111.96088,37.60227],[-111.96105,37.60234],[-111.96108,37.60235],[-111.96137,37.60246],[-111.96158,37.60253],[-111.96182,37.6026],[-111.96209,37.60268],[-111.96234,37.60274],[-111.9625,37.60277],[-111.96271,37.60281],[-111.96296,37.60285],[-111.96318,37.60287],[-111.96338,37.60289],[-111.96346,37.6029],[-111.96357,37.60291],[-111.96379,37.60292],[-111.964,37.60292],[-111.96441,37.60292],[-111.96459,37.60291],[-111.96477,37.60289],[-111.96509,37.60286],[-111.96522,37.60284],[-111.96542,37.60281],[-111.9658,37.60274],[-111.96593,37.60271],[-111.96595,37.60271],[-111.96614,37.60266],[-111.96615,37.60266],[-111.96639,37.6026],[-111.9666,37.60253],[-111.96685,37.60244],[-111.96703,37.60237],[-111.96723,37.60229],[-111.96739,37.60221],[-111.96746,37.60218],[-111.96768,37.60207],[-111.96795,37.60193],[-111.9682,37.6018],[-111.96834,37.60172],[-111.96872,37.60152],[-111.97016,37.60076],[-111.97052,37.60056],[-111.97167,37.59995],[-111.97185,37.59985],[-111.97222,37.59965],[-111.97242,37.59955],[-111.97295,37.59926],[-111.97394,37.59873],[-111.97467,37.59834],[-111.97499,37.59817],[-111.97524,37.59804],[-111.97528,37.59801],[-111.97622,37.59751],[-111.97646,37.59739],[-111.97661,37.59731],[-111.97688,37.59716],[-111.9771,37.59704],[-111.9774,37.59688],[-111.97765,37.59675],[-111.97783,37.59665],[-111.97797,37.59657],[-111.97816,37.59646],[-111.97827,37.5964],[-111.97842,37.5963],[-111.97851,37.59624],[-111.97862,37.59616],[-111.97876,37.59606],[-111.97886,37.59599],[-111.97904,37.59584],[-111.9792,37.5957],[-111.97923,37.59568],[-111.97928,37.59563],[-111.97937,37.59555],[-111.97937,37.59554],[-111.97948,37.59543],[-111.97964,37.59525],[-111.9797,37.59518],[-111.97975,37.59511],[-111.97984,37.59501],[-111.97998,37.59482],[-111.98004,37.59472],[-111.98011,37.59461],[-111.98023,37.59443],[-111.98029,37.5943],[-111.9803,37.5943],[-111.98031,37.59426],[-111.98035,37.5942],[-111.98043,37.59402],[-111.9805,37.59384],[-111.98062,37.59351],[-111.98082,37.59299],[-111.98103,37.59239],[-111.98109,37.59223],[-111.98117,37.59203],[-111.98122,37.59189],[-111.98133,37.59158],[-111.98147,37.5912],[-111.98148,37.59116],[-111.98169,37.59059],[-111.98172,37.59051],[-111.98174,37.59047],[-111.98185,37.59016],[-111.98192,37.58999],[-111.98195,37.58989],[-111.98226,37.58905],[-111.98255,37.58826],[-111.98256,37.58823],[-111.9828,37.58757],[-111.98299,37.58705],[-111.983,37.58702],[-111.98307,37.58684],[-111.98324,37.58636],[-111.98356,37.5855],[-111.98357,37.58546],[-111.98362,37.58532],[-111.98384,37.58472],[-111.9843,37.58347],[-111.98444,37.58308],[-111.98445,37.58304],[-111.9845,37.5829],[-111.98469,37.58239],[-111.98477,37.58216],[-111.98488,37.58187],[-111.98489,37.58183],[-111.98513,37.58118],[-111.98514,37.58114],[-111.98519,37.58101],[-111.98519,37.581],[-111.98557,37.57995],[-111.986,37.57878],[-111.98601,37.57876],[-111.98609,37.57855],[-111.98614,37.57841],[-111.9862,37.57824],[-111.98639,37.57772],[-111.9864,37.57768],[-111.98644,37.57757],[-111.98645,37.57755],[-111.98664,37.57703],[-111.98665,37.57699],[-111.9867,37.57686],[-111.98695,37.57616],[-111.98708,37.57582],[-111.98747,37.57475],[-111.98752,37.57461],[-111.98771,37.57408],[-111.98778,37.57388],[-111.98783,37.57374],[-111.9879,37.57357],[-111.98796,37.5734],[-111.98803,37.57319],[-111.98832,37.5724],[-111.98852,37.57184],[-111.98881,37.57107],[-111.98916,37.57012],[-111.98928,37.56977],[-111.98935,37.5696],[-111.98936,37.56956],[-111.98942,37.56939],[-111.98973,37.56856],[-111.98986,37.56819],[-111.98993,37.56801],[-111.99004,37.5677],[-111.99033,37.5669],[-111.99046,37.56655],[-111.99061,37.56614],[-111.99067,37.56597],[-111.99083,37.56553],[-111.99092,37.56528],[-111.99099,37.5651],[-111.99126,37.56433],[-111.99136,37.56406],[-111.99142,37.56389],[-111.99147,37.56376],[-111.99152,37.56363],[-111.99156,37.56354],[-111.99158,37.5635],[-111.99163,37.56341],[-111.99167,37.56334],[-111.99172,37.56328],[-111.99176,37.56322],[-111.99178,37.5632],[-111.99188,37.56309],[-111.9919,37.56308],[-111.99196,37.56303],[-111.99203,37.56296],[-111.99205,37.56295],[-111.9921,37.56292],[-111.99217,37.56286],[-111.99227,37.5628],[-111.99239,37.56274],[-111.9925,37.56269],[-111.99261,37.56265],[-111.99265,37.56263],[-111.99282,37.56258],[-111.99298,37.56255],[-111.99309,37.56253],[-111.99317,37.56253],[-111.99324,37.56252],[-111.99337,37.56251],[-111.99355,37.56251],[-111.9937,37.56251],[-111.99392,37.56252],[-111.99407,37.56252],[-111.99453,37.56252],[-111.99631,37.56255],[-111.99725,37.56256],[-111.99735,37.56257],[-111.9977,37.56257],[-111.99792,37.56258],[-111.99923,37.5626],[-111.99961,37.5626],[-111.99991,37.56261],[-112.00014,37.56261],[-112.00075,37.56262],[-112.00093,37.56263],[-112.00162,37.56264],[-112.00178,37.56264],[-112.00203,37.56264],[-112.00249,37.56265],[-112.00329,37.56266],[-112.00391,37.56267],[-112.00399,37.56267],[-112.00422,37.56267],[-112.00464,37.56268],[-112.00467,37.56268],[-112.00565,37.5627],[-112.00633,37.56271],[-112.00659,37.56271],[-112.00754,37.56272],[-112.00842,37.56274],[-112.0086,37.56274],[-112.00882,37.56274],[-112.00883,37.56274],[-112.00895,37.56274],[-112.00924,37.56274],[-112.00963,37.56273],[-112.00973,37.56272],[-112.00989,37.56271],[-112.01013,37.56269],[-112.0104,37.56266],[-112.01064,37.56262],[-112.01074,37.56261],[-112.01085,37.56259],[-112.011,37.56257],[-112.01124,37.56252],[-112.01129,37.56251],[-112.01151,37.56246],[-112.01161,37.56244],[-112.01203,37.56234],[-112.01232,37.56226],[-112.01237,37.56224],[-112.01251,37.5622],[-112.01258,37.56218],[-112.0126,37.56217],[-112.01271,37.56214],[-112.01279,37.56211],[-112.01281,37.5621],[-112.013,37.56204],[-112.01321,37.56196],[-112.01322,37.56196],[-112.01334,37.56191],[-112.01341,37.56188],[-112.01342,37.56188],[-112.01358,37.56182],[-112.01378,37.56172],[-112.01395,37.56164],[-112.014,37.56162],[-112.01401,37.56161],[-112.01422,37.56151],[-112.01454,37.56134],[-112.01477,37.56121],[-112.01504,37.56104],[-112.01512,37.56099],[-112.0152,37.56094],[-112.01542,37.56079],[-112.01546,37.56076],[-112.01563,37.56064],[-112.01564,37.56063],[-112.0157,37.56059],[-112.0158,37.56051],[-112.0159,37.56043],[-112.01611,37.56025],[-112.01618,37.56019],[-112.01626,37.56012],[-112.01627,37.56012],[-112.01633,37.56007],[-112.01642,37.56],[-112.01652,37.55991],[-112.01673,37.55974],[-112.01689,37.55961],[-112.01703,37.55951],[-112.01707,37.55949],[-112.01727,37.55937],[-112.01741,37.5593],[-112.01759,37.55921],[-112.01774,37.55914],[-112.01783,37.5591],[-112.01789,37.55907],[-112.01803,37.55902],[-112.01807,37.55901],[-112.0182,37.55897],[-112.01824,37.55895],[-112.01832,37.55893],[-112.01855,37.55888],[-112.01882,37.55883],[-112.01898,37.55881],[-112.01912,37.55879],[-112.01915,37.55879],[-112.01926,37.55878],[-112.01935,37.55877],[-112.01936,37.55877],[-112.01952,37.55877],[-112.01969,37.55877],[-112.0198,37.55877],[-112.01984,37.55877],[-112.02002,37.55878],[-112.02003,37.55879],[-112.02022,37.55881],[-112.02038,37.55883],[-112.02048,37.55885],[-112.02058,37.55887],[-112.02069,37.5589],[-112.02086,37.55894],[-112.02091,37.55895],[-112.02112,37.55901],[-112.02114,37.55902],[-112.02141,37.5591],[-112.02176,37.55921],[-112.02197,37.55927],[-112.0225,37.55944],[-112.0229,37.55957],[-112.02302,37.55961],[-112.0233,37.55969],[-112.02402,37.55992],[-112.02429,37.56],[-112.0245,37.56007],[-112.02471,37.56014],[-112.02477,37.56016],[-112.02492,37.56021],[-112.02551,37.56039],[-112.02555,37.56041],[-112.02621,37.56061],[-112.02684,37.56082],[-112.02745,37.56101],[-112.02747,37.56102],[-112.02751,37.56103],[-112.02768,37.56108],[-112.02916,37.56155],[-112.02937,37.56162],[-112.02962,37.5617],[-112.03063,37.56202],[-112.03084,37.56208],[-112.03126,37.56222],[-112.03148,37.56228],[-112.03253,37.56261],[-112.03311,37.5628],[-112.03348,37.56292],[-112.03385,37.56302],[-112.0339,37.56304],[-112.03432,37.56315],[-112.03442,37.56318],[-112.03476,37.56327],[-112.03486,37.56329],[-112.03521,37.56338],[-112.03537,37.56341],[-112.03575,37.56349],[-112.03591,37.56352],[-112.03606,37.56355],[-112.03628,37.56359],[-112.03629,37.56359],[-112.03645,37.56362],[-112.03673,37.56367],[-112.03674,37.56367],[-112.03689,37.5637],[-112.03723,37.56376],[-112.0373,37.56377],[-112.03742,37.56379],[-112.03761,37.56382],[-112.03782,37.56386],[-112.03783,37.56386],[-112.03819,37.56392],[-112.03828,37.56394],[-112.0385,37.56397],[-112.0387,37.564],[-112.03872,37.56401],[-112.03917,37.56408],[-112.03947,37.56413],[-112.03983,37.56419],[-112.04003,37.56423],[-112.04006,37.56423],[-112.04113,37.56441],[-112.04116,37.56442],[-112.04183,37.56453],[-112.04205,37.56457],[-112.04233,37.56462],[-112.0425,37.56464],[-112.04272,37.56468],[-112.04338,37.56479],[-112.04368,37.56485],[-112.04375,37.56486],[-112.04429,37.56496],[-112.04449,37.565],[-112.04454,37.56501],[-112.04468,37.56504],[-112.04501,37.56512],[-112.04518,37.56516],[-112.0456,37.56526],[-112.0458,37.56531],[-112.04619,37.56543],[-112.04635,37.56547],[-112.04643,37.5655],[-112.04662,37.56555],[-112.04664,37.56556],[-112.04667,37.56557],[-112.04693,37.56565],[-112.04719,37.56574],[-112.04767,37.56591],[-112.04787,37.56598],[-112.04789,37.56599],[-112.04808,37.56605],[-112.04831,37.56614],[-112.04839,37.56617],[-112.04849,37.56621],[-112.04851,37.56622],[-112.04898,37.56642],[-112.04905,37.56645],[-112.04929,37.56656],[-112.04965,37.56673],[-112.05008,37.56694],[-112.05012,37.56696],[-112.05025,37.56702],[-112.05055,37.56717],[-112.05117,37.56746],[-112.052,37.56785],[-112.05203,37.56786],[-112.05226,37.56797],[-112.05273,37.5682],[-112.05297,37.56832],[-112.0534,37.56852],[-112.05396,37.56878],[-112.05431,37.56894],[-112.05457,37.56907],[-112.05485,37.56921],[-112.05513,37.56937],[-112.05524,37.56944],[-112.05546,37.56961],[-112.05568,37.56978],[-112.05586,37.56995],[-112.05603,37.57011],[-112.05617,37.57027],[-112.05637,37.57054],[-112.05653,37.57078],[-112.05665,37.57099],[-112.05675,37.57123],[-112.05676,37.57126],[-112.05686,37.57151],[-112.05691,37.57169],[-112.05693,37.57178],[-112.05696,37.57194],[-112.05698,37.5721],[-112.05699,37.57222],[-112.057,37.57228],[-112.057,37.57239],[-112.057,37.57255],[-112.057,37.57269],[-112.05698,37.57307],[-112.05697,37.57328],[-112.05694,37.5736],[-112.05694,37.57362],[-112.05694,37.57368],[-112.05693,37.57384],[-112.05692,37.574],[-112.05691,37.57422],[-112.05688,37.57465],[-112.05687,37.57492],[-112.05685,37.5751],[-112.05684,37.57528],[-112.05679,37.57618],[-112.05677,37.57654],[-112.05676,37.57671],[-112.05676,37.57673],[-112.05673,37.57723],[-112.05672,37.57742],[-112.05669,37.57791],[-112.05667,37.57833],[-112.05665,37.57867],[-112.05665,37.57898],[-112.05664,37.57979],[-112.05667,37.58031],[-112.05669,37.58042],[-112.0567,37.58054],[-112.05671,37.58072],[-112.05678,37.58116],[-112.05682,37.58149],[-112.05706,37.58291],[-112.05725,37.58398],[-112.05733,37.58447],[-112.05745,37.58523],[-112.05747,37.58534],[-112.05754,37.58566],[-112.05755,37.5857],[-112.05761,37.58591],[-112.05764,37.58598],[-112.05769,37.5861],[-112.05774,37.58621],[-112.05779,37.58631],[-112.05788,37.58645],[-112.05796,37.58659],[-112.05801,37.58666],[-112.05817,37.58684],[-112.05835,37.58705],[-112.05876,37.58747],[-112.05913,37.58785],[-112.05925,37.58798],[-112.05982,37.58856],[-112.06002,37.58876],[-112.06035,37.5891],[-112.06052,37.58928],[-112.06064,37.58942],[-112.06067,37.58945],[-112.06097,37.58982],[-112.06109,37.58998],[-112.06113,37.59003],[-112.06121,37.59015],[-112.06127,37.59024],[-112.06146,37.59056],[-112.06154,37.59071],[-112.06169,37.591],[-112.06182,37.59128],[-112.06184,37.59135],[-112.06191,37.59153],[-112.06199,37.59178],[-112.06202,37.59187],[-112.06206,37.59202],[-112.06215,37.59243],[-112.06219,37.59262],[-112.06222,37.59292],[-112.06224,37.59314],[-112.06225,37.59338],[-112.06224,37.59368],[-112.06222,37.59401],[-112.06218,37.59425],[-112.06215,37.59447],[-112.06213,37.59457],[-112.06212,37.59465],[-112.06208,37.59483],[-112.06207,37.59489],[-112.06195,37.59554],[-112.06194,37.59564],[-112.06192,37.59572],[-112.06183,37.59618],[-112.06182,37.59625],[-112.06179,37.59643],[-112.06175,37.59661],[-112.06165,37.59717],[-112.06152,37.59785],[-112.06149,37.59803],[-112.06135,37.59874],[-112.06121,37.59949],[-112.06106,37.60035],[-112.06102,37.60052],[-112.06096,37.60088],[-112.06093,37.60106],[-112.06078,37.60183],[-112.06075,37.602],[-112.0607,37.6024],[-112.06069,37.60248],[-112.06067,37.60266],[-112.06065,37.60279],[-112.06063,37.6031],[-112.06061,37.60356],[-112.0606,37.60409],[-112.06059,37.60453],[-112.06059,37.60464],[-112.06059,37.60482],[-112.06058,37.6054],[-112.06058,37.60595],[-112.06058,37.60644],[-112.06057,37.60662],[-112.06057,37.60679],[-112.06058,37.60698],[-112.06058,37.60716],[-112.06059,37.60766],[-112.06061,37.60781],[-112.06065,37.60805],[-112.06066,37.60808],[-112.0607,37.60823],[-112.06078,37.60846],[-112.06083,37.60857],[-112.06087,37.60866],[-112.0609,37.60874],[-112.06099,37.60892],[-112.06107,37.60905],[-112.06109,37.60907],[-112.06119,37.60923],[-112.06123,37.60928],[-112.06134,37.60944],[-112.06143,37.60954],[-112.06166,37.60985],[-112.06178,37.61],[-112.0619,37.61015],[-112.06202,37.61031],[-112.06214,37.61046],[-112.06226,37.61061],[-112.0625,37.61092],[-112.06257,37.61101],[-112.06262,37.61107],[-112.0628,37.6113],[-112.06288,37.6114],[-112.06297,37.6115],[-112.06299,37.61152],[-112.06304,37.61156],[-112.06312,37.61164],[-112.06326,37.61176],[-112.0633,37.61179],[-112.06339,37.61186],[-112.0635,37.61194],[-112.06364,37.61202],[-112.06383,37.61213],[-112.06391,37.61217],[-112.06401,37.61222],[-112.06412,37.61226],[-112.06422,37.6123],[-112.06427,37.61232],[-112.06443,37.61237],[-112.06444,37.61237],[-112.0647,37.61245],[-112.06481,37.61247],[-112.06536,37.61258],[-112.0654,37.61259],[-112.06558,37.61262],[-112.06573,37.61265],[-112.06603,37.61271],[-112.06629,37.61276],[-112.06691,37.61288],[-112.06705,37.6129],[-112.06713,37.61292],[-112.06735,37.61297],[-112.06746,37.61299],[-112.06757,37.61301],[-112.06779,37.61305],[-112.06801,37.6131],[-112.0689,37.61327],[-112.06955,37.6134],[-112.06973,37.61343],[-112.07,37.61349],[-112.07021,37.61353],[-112.07022,37.61353],[-112.07043,37.61357],[-112.07052,37.61359],[-112.07143,37.61376],[-112.07154,37.61378],[-112.07216,37.6139],[-112.0722,37.61391],[-112.07249,37.61397],[-112.07272,37.61401],[-112.07302,37.61407],[-112.0733,37.61413],[-112.07331,37.61413],[-112.07352,37.61418],[-112.07365,37.61422],[-112.07373,37.61424],[-112.07374,37.61424],[-112.07384,37.61428],[-112.07394,37.61431],[-112.07405,37.61435],[-112.07415,37.61439],[-112.07422,37.61442],[-112.07439,37.6145],[-112.07454,37.61457],[-112.07456,37.61458],[-112.0748,37.61471],[-112.07493,37.61479],[-112.07509,37.61489],[-112.07526,37.61501],[-112.0753,37.61503],[-112.0754,37.61511],[-112.07558,37.61526],[-112.07571,37.61538],[-112.07589,37.61556],[-112.07601,37.61569],[-112.07609,37.61579],[-112.07617,37.6159],[-112.0763,37.61607],[-112.07635,37.61616],[-112.07637,37.6162],[-112.07641,37.61627],[-112.07648,37.61639],[-112.07652,37.61646],[-112.0766,37.61663],[-112.07665,37.61677],[-112.07669,37.61689],[-112.07688,37.61754],[-112.07705,37.61816],[-112.07715,37.61852],[-112.07725,37.61888],[-112.07729,37.61905],[-112.07731,37.6191],[-112.07738,37.61932],[-112.07741,37.61941],[-112.07745,37.61951],[-112.07751,37.61966],[-112.07752,37.61967],[-112.07756,37.61975],[-112.07764,37.61987],[-112.07774,37.62002],[-112.07783,37.62013],[-112.07798,37.62029],[-112.07808,37.62039],[-112.07821,37.6205],[-112.07828,37.62056],[-112.07833,37.6206],[-112.07847,37.62069],[-112.07854,37.62074],[-112.07863,37.62079],[-112.07869,37.62082],[-112.07882,37.62089],[-112.07886,37.62091],[-112.07911,37.62103],[-112.0794,37.62117],[-112.08029,37.62156],[-112.0806,37.6217],[-112.08076,37.62178],[-112.08087,37.62184],[-112.08095,37.62188],[-112.08102,37.62193],[-112.08109,37.62198],[-112.08118,37.62204],[-112.08125,37.6221],[-112.08135,37.6222],[-112.0814,37.62225],[-112.08144,37.62231],[-112.08149,37.62238],[-112.08155,37.62247],[-112.0816,37.62257],[-112.08161,37.62259],[-112.08163,37.62263],[-112.08165,37.62269],[-112.08166,37.62272],[-112.08168,37.62277],[-112.08171,37.62289],[-112.08172,37.62297],[-112.08172,37.62319],[-112.08173,37.62334],[-112.08175,37.62384],[-112.08177,37.6246],[-112.08177,37.62487],[-112.08179,37.62538],[-112.08181,37.62624],[-112.08182,37.62696],[-112.08183,37.62776],[-112.08184,37.62835],[-112.08184,37.6288],[-112.08185,37.62909],[-112.08186,37.63006],[-112.08186,37.63056],[-112.08187,37.63137],[-112.08187,37.63155],[-112.08187,37.63191],[-112.08188,37.63233],[-112.08188,37.63245],[-112.08188,37.63263],[-112.08188,37.63281],[-112.08188,37.63299],[-112.08189,37.63407],[-112.0819,37.6347],[-112.0819,37.63478],[-112.08192,37.6365],[-112.08192,37.63658],[-112.08192,37.63668],[-112.08192,37.63686],[-112.08193,37.63709],[-112.08193,37.63758],[-112.08193,37.63759],[-112.0819,37.63831],[-112.08187,37.63878],[-112.08185,37.63892],[-112.08185,37.63899],[-112.08184,37.63902],[-112.0818,37.63928],[-112.08176,37.63955],[-112.08167,37.64009],[-112.08161,37.64044],[-112.08154,37.6408],[-112.08151,37.64098],[-112.08148,37.64116],[-112.08145,37.64133],[-112.08136,37.64185],[-112.08124,37.64248],[-112.08105,37.64355],[-112.08102,37.64373],[-112.08091,37.64434],[-112.08088,37.64455],[-112.08078,37.64507],[-112.08068,37.64561],[-112.08066,37.64569],[-112.08058,37.64615],[-112.08058,37.64619],[-112.08055,37.64646],[-112.08054,37.64661],[-112.08053,37.64668],[-112.08053,37.64679],[-112.08053,37.64702],[-112.08056,37.64733],[-112.08058,37.6474],[-112.08059,37.64747],[-112.08061,37.64758],[-112.08062,37.64763],[-112.08065,37.64776],[-112.08071,37.648],[-112.08076,37.64816],[-112.08079,37.64829],[-112.0809,37.64862],[-112.08106,37.64911],[-112.08109,37.64919],[-112.08123,37.64961],[-112.08132,37.64988],[-112.08135,37.64998],[-112.08136,37.65002],[-112.08141,37.65015],[-112.08144,37.65025],[-112.08156,37.65054],[-112.08157,37.65057],[-112.08163,37.65072],[-112.08169,37.65083],[-112.08177,37.651],[-112.08186,37.65117],[-112.0819,37.65124],[-112.082,37.65141],[-112.08206,37.65149],[-112.08211,37.65157],[-112.08216,37.65165],[-112.08221,37.65171],[-112.08227,37.65181],[-112.08235,37.65191],[-112.08246,37.65205],[-112.08258,37.6522],[-112.08272,37.65237],[-112.08284,37.6525],[-112.08296,37.65262],[-112.08303,37.6527],[-112.08309,37.65275],[-112.0831,37.65276],[-112.08327,37.65293],[-112.08333,37.65298],[-112.08348,37.65311],[-112.08357,37.65319],[-112.08378,37.65335],[-112.08395,37.65348],[-112.08411,37.6536],[-112.08425,37.65369],[-112.08447,37.65384],[-112.08464,37.65394],[-112.0847,37.65398],[-112.08483,37.65404],[-112.08502,37.65414],[-112.08521,37.65424],[-112.08528,37.65428],[-112.08577,37.65451],[-112.08599,37.65462],[-112.08612,37.65468],[-112.08624,37.65474],[-112.08635,37.65479],[-112.08637,37.6548],[-112.08684,37.65503],[-112.08715,37.65518],[-112.08771,37.65545],[-112.08851,37.65584],[-112.08861,37.65588],[-112.08889,37.65602],[-112.08953,37.65632],[-112.08979,37.65645],[-112.09006,37.65658],[-112.09013,37.65661],[-112.09103,37.65704],[-112.09104,37.65705],[-112.09192,37.65748],[-112.09203,37.65752],[-112.09231,37.65766],[-112.09234,37.65767],[-112.09251,37.65775],[-112.09266,37.65782],[-112.09293,37.65794],[-112.09304,37.65799],[-112.0933,37.6581],[-112.09333,37.65812],[-112.0935,37.65819],[-112.09351,37.65819],[-112.09374,37.65828],[-112.09382,37.65831],[-112.09391,37.65835],[-112.09394,37.65836],[-112.09412,37.65842],[-112.09431,37.65849],[-112.09456,37.65858],[-112.09469,37.65862],[-112.09477,37.65865],[-112.09508,37.65876],[-112.09519,37.6588],[-112.09548,37.65891],[-112.09557,37.65894],[-112.0956,37.65895],[-112.09571,37.65899],[-112.0958,37.65903],[-112.09598,37.65909],[-112.09609,37.65915],[-112.09618,37.65918],[-112.0963,37.65925],[-112.09639,37.6593],[-112.09642,37.65932],[-112.09653,37.65939],[-112.09669,37.65951],[-112.09678,37.65958],[-112.09694,37.65972],[-112.09697,37.65975],[-112.09723,37.66],[-112.09737,37.66014],[-112.09764,37.6604],[-112.09806,37.6608],[-112.09828,37.66102],[-112.09837,37.66112],[-112.09852,37.66126],[-112.09862,37.66136],[-112.09894,37.66168],[-112.09908,37.66182],[-112.09922,37.66196],[-112.09923,37.66197],[-112.09951,37.66224],[-112.09968,37.66239],[-112.09975,37.66244],[-112.09983,37.66249],[-112.09983,37.6625],[-112.1,37.66261],[-112.10005,37.66264],[-112.10015,37.66269],[-112.10041,37.66281],[-112.10053,37.66286],[-112.10069,37.66291],[-112.10096,37.66297],[-112.10111,37.663],[-112.10122,37.66302],[-112.10125,37.66302],[-112.10138,37.66303],[-112.10152,37.66304],[-112.1017,37.66304],[-112.10182,37.66303],[-112.10198,37.66301],[-112.10211,37.66299],[-112.10215,37.66299],[-112.10229,37.66296],[-112.10237,37.66294],[-112.10251,37.6629],[-112.10266,37.66285],[-112.10292,37.66275],[-112.10318,37.66263],[-112.1034,37.66252],[-112.10363,37.66242],[-112.10388,37.66232],[-112.10405,37.66226],[-112.10421,37.66222],[-112.10436,37.66219],[-112.10442,37.66218],[-112.10451,37.66217],[-112.10466,37.66215],[-112.10483,37.66214],[-112.10499,37.66215],[-112.10512,37.66215],[-112.10523,37.66216],[-112.10532,37.66217],[-112.10536,37.66217],[-112.10552,37.6622],[-112.10562,37.66222],[-112.10579,37.66226],[-112.10596,37.66231],[-112.10607,37.66235],[-112.10618,37.66239],[-112.10633,37.66245],[-112.10665,37.66262],[-112.10693,37.66276],[-112.10711,37.66285],[-112.10714,37.66287],[-112.10764,37.66312],[-112.10783,37.66322],[-112.10791,37.66326],[-112.10804,37.66333],[-112.1081,37.66336],[-112.10817,37.6634],[-112.10825,37.66345],[-112.10828,37.66346],[-112.10841,37.66355],[-112.10853,37.66365],[-112.1086,37.66372],[-112.10868,37.66379],[-112.1087,37.66382],[-112.10874,37.66386],[-112.10875,37.66388],[-112.10887,37.66402],[-112.10899,37.66421],[-112.10915,37.66448],[-112.10926,37.66466],[-112.10934,37.66477],[-112.10962,37.66512],[-112.10978,37.66532],[-112.10982,37.66537],[-112.10989,37.66547],[-112.10997,37.66561],[-112.11004,37.66575],[-112.1101,37.6659],[-112.11012,37.66598],[-112.11013,37.66601],[-112.11016,37.66615],[-112.11018,37.66627],[-112.11018,37.66639],[-112.11018,37.66651],[-112.11017,37.66658],[-112.11017,37.6666],[-112.11015,37.6667],[-112.11013,37.66676],[-112.11009,37.66693],[-112.11004,37.66711],[-112.10997,37.66733],[-112.10993,37.66746],[-112.10988,37.66764],[-112.10987,37.66766],[-112.10981,37.66789],[-112.10975,37.66817],[-112.10971,37.66843],[-112.10968,37.6687],[-112.10967,37.66892],[-112.10969,37.66907],[-112.1097,37.66924],[-112.1097,37.66925],[-112.10974,37.66941],[-112.10974,37.66942],[-112.10979,37.66958],[-112.10979,37.66959],[-112.10983,37.66969],[-112.10988,37.6698],[-112.10993,37.66989],[-112.10999,37.66999],[-112.11012,37.67018],[-112.11029,37.67042],[-112.11063,37.67076],[-112.11142,37.67153],[-112.11175,37.67186],[-112.11197,37.67207],[-112.11207,37.67217],[-112.11222,37.67233],[-112.11233,37.67248],[-112.11237,37.67255],[-112.11245,37.67268],[-112.11253,37.67287],[-112.11255,37.6729],[-112.11257,37.67297],[-112.11259,37.67304],[-112.11259,37.67305],[-112.11262,37.67323],[-112.11263,37.67333],[-112.11265,37.67346],[-112.11263,37.67358],[-112.11263,37.67364],[-112.1126,37.67378],[-112.11255,37.67394],[-112.11253,37.67403],[-112.11252,37.67405],[-112.1125,37.67411],[-112.11245,37.67429],[-112.11241,37.67441],[-112.11234,37.67464],[-112.11234,37.67466],[-112.11222,37.67502],[-112.11214,37.67526],[-112.1121,37.67542],[-112.11208,37.67551],[-112.11206,37.6756],[-112.11206,37.67561],[-112.11205,37.67569],[-112.11204,37.67579],[-112.11205,37.67599],[-112.11207,37.67611],[-112.11207,37.67614],[-112.11208,37.67621],[-112.11209,37.67623],[-112.1121,37.6763],[-112.11214,37.67642],[-112.11218,37.67652],[-112.11225,37.67668],[-112.11236,37.67689],[-112.11264,37.67734],[-112.11283,37.67764],[-112.11288,37.67772],[-112.11301,37.67792],[-112.1132,37.67823],[-112.11326,37.67837],[-112.11329,37.67843],[-112.11336,37.67862],[-112.11338,37.67872],[-112.1134,37.67877],[-112.11341,37.67889],[-112.11342,37.67898],[-112.11342,37.67922],[-112.11341,37.67925],[-112.11339,37.67941],[-112.11339,37.67943],[-112.11334,37.67964],[-112.11333,37.6797],[-112.11327,37.67988],[-112.11326,37.67995],[-112.11321,37.68012],[-112.11315,37.68034],[-112.11312,37.68047],[-112.11312,37.68048],[-112.11311,37.68061],[-112.1131,37.68066],[-112.1131,37.68077],[-112.1131,37.68092],[-112.11312,37.68114],[-112.11315,37.6813],[-112.11318,37.68145],[-112.1132,37.68155],[-112.11322,37.68159],[-112.1133,37.68181],[-112.11333,37.68189],[-112.11364,37.68269],[-112.1138,37.68311],[-112.11396,37.68351],[-112.11402,37.68366],[-112.11408,37.68378],[-112.11408,37.68379],[-112.11417,37.68392],[-112.1143,37.68409],[-112.11442,37.68423],[-112.11457,37.68436],[-112.11469,37.68447],[-112.11484,37.68457],[-112.11491,37.68463],[-112.11495,37.68466],[-112.11509,37.68474],[-112.11532,37.68483],[-112.11547,37.6849],[-112.11549,37.6849],[-112.11563,37.68495],[-112.11581,37.685],[-112.11603,37.68505],[-112.11623,37.68509],[-112.1164,37.6851],[-112.11662,37.68511],[-112.11682,37.6851],[-112.11695,37.68509],[-112.11716,37.68507],[-112.11738,37.68503],[-112.11742,37.68502],[-112.1177,37.68495],[-112.11804,37.68484],[-112.11861,37.68464],[-112.11917,37.68445],[-112.11938,37.68437],[-112.11958,37.6843],[-112.11979,37.68423],[-112.11993,37.68418],[-112.12025,37.68408],[-112.12052,37.68401],[-112.12064,37.68398],[-112.12086,37.68392],[-112.12089,37.68392],[-112.12127,37.68383],[-112.12138,37.68381],[-112.12171,37.68374],[-112.1224,37.68361],[-112.12243,37.6836],[-112.12291,37.68351],[-112.12332,37.68343],[-112.12353,37.68337],[-112.12369,37.68333],[-112.12388,37.68327],[-112.12421,37.68316],[-112.12448,37.68307],[-112.12456,37.68305],[-112.12473,37.68301],[-112.12478,37.683],[-112.1249,37.68298],[-112.125,37.68297],[-112.1251,37.68295],[-112.1253,37.68294],[-112.12545,37.68293],[-112.12552,37.68292],[-112.12568,37.68292],[-112.12584,37.68291],[-112.12611,37.68288],[-112.12637,37.68284],[-112.12665,37.68277],[-112.12679,37.68274],[-112.12713,37.68265],[-112.12754,37.68254],[-112.12765,37.68252],[-112.12802,37.68246],[-112.12845,37.68246],[-112.12893,37.68251],[-112.12924,37.68258],[-112.12972,37.68276],[-112.13015,37.68298],[-112.13086,37.68339],[-112.13144,37.68368],[-112.13194,37.6839],[-112.13204,37.68394],[-112.13252,37.68411],[-112.13298,37.68428],[-112.13317,37.68436],[-112.13348,37.68449],[-112.13417,37.68479],[-112.13494,37.68518],[-112.13514,37.68528],[-112.1359,37.68566],[-112.1361,37.68576],[-112.13633,37.68587],[-112.13668,37.68604],[-112.13687,37.68613],[-112.13766,37.6865],[-112.13823,37.68675],[-112.13877,37.68699],[-112.13921,37.68717],[-112.1396,37.68734],[-112.14045,37.68769],[-112.14508,37.6896],[-112.1468,37.69031],[-112.14704,37.69041],[-112.14984,37.69157],[-112.15018,37.69171],[-112.15066,37.6919],[-112.15076,37.69194],[-112.15086,37.69198],[-112.15092,37.69203],[-112.15098,37.69207],[-112.15102,37.69209],[-112.15118,37.69216],[-112.15136,37.69222],[-112.1516,37.6923],[-112.15196,37.69241],[-112.15204,37.69244],[-112.15213,37.69248],[-112.15219,37.69253],[-112.15219,37.69253],[-112.15219,37.69257],[-112.1522,37.69259],[-112.15222,37.69264],[-112.15224,37.69266],[-112.15226,37.69268],[-112.15228,37.6927],[-112.15231,37.69271],[-112.15236,37.69274],[-112.15239,37.69275],[-112.1524,37.69275],[-112.15242,37.69275],[-112.15245,37.69276],[-112.15248,37.69276],[-112.15254,37.69275],[-112.15257,37.69275],[-112.1526,37.69274],[-112.15263,37.69273],[-112.15265,37.69272],[-112.15268,37.6927],[-112.1527,37.69269],[-112.15272,37.69267],[-112.15275,37.69263],[-112.15276,37.6926],[-112.15277,37.69258],[-112.15278,37.69255],[-112.15278,37.69249],[-112.15277,37.69247],[-112.15276,37.69245],[-112.15275,37.69242],[-112.15273,37.6924],[-112.15272,37.69238],[-112.1527,37.69236],[-112.15267,37.69235],[-112.15262,37.69216],[-112.15257,37.69201],[-112.15248,37.69169],[-112.1524,37.69142],[-112.15234,37.69125],[-112.1523,37.69115],[-112.15228,37.69109],[-112.15226,37.69106],[-112.15223,37.69104],[-112.1522,37.6909],[-112.15219,37.69074],[-112.15217,37.69059],[-112.15217,37.69049],[-112.15217,37.69037],[-112.15218,37.69023],[-112.15222,37.69005],[-112.15227,37.68983],[-112.15234,37.68954],[-112.15236,37.68948],[-112.15246,37.6891],[-112.15249,37.68898],[-112.1525,37.68895],[-112.15261,37.68853],[-112.1528,37.68781],[-112.15287,37.68754],[-112.15298,37.68714],[-112.1531,37.68666],[-112.15316,37.68646],[-112.15322,37.68621],[-112.15331,37.68589],[-112.15338,37.68561],[-112.15344,37.68539],[-112.15348,37.68525],[-112.15358,37.68488],[-112.15375,37.6842],[-112.15394,37.68349],[-112.15399,37.68332],[-112.15402,37.68321],[-112.15424,37.68235],[-112.15426,37.68226],[-112.15437,37.68182],[-112.15453,37.68126],[-112.15459,37.68103],[-112.1547,37.68061],[-112.15489,37.67985],[-112.15527,37.67841],[-112.1555,37.67755],[-112.15567,37.67693],[-112.15571,37.67675],[-112.1558,37.6764],[-112.15582,37.67635],[-112.15594,37.67587],[-112.15597,37.67576],[-112.15598,37.67571],[-112.15629,37.6745],[-112.15642,37.67397],[-112.15642,37.67397],[-112.15683,37.67251],[-112.15686,37.67239],[-112.15713,37.67127],[-112.15726,37.67077],[-112.15727,37.67076],[-112.15732,37.67061],[-112.15768,37.66944],[-112.15792,37.66831],[-112.15792,37.66831],[-112.15798,37.66834],[-112.15804,37.66834],[-112.15813,37.66832],[-112.15824,37.6683],[-112.15836,37.66826],[-112.15839,37.66825],[-112.15844,37.66824],[-112.15854,37.66825],[-112.15854,37.66825],[-112.15855,37.66824],[-112.15861,37.66802],[-112.15871,37.66789],[-112.15893,37.66775],[-112.15895,37.66773],[-112.15895,37.66773],[-112.15899,37.66763],[-112.15904,37.66749],[-112.15905,37.66745],[-112.15912,37.66735],[-112.1592,37.66729],[-112.15926,37.66725],[-112.15937,37.66722],[-112.15943,37.66722],[-112.15949,37.66721],[-112.15969,37.66722],[-112.15984,37.66723],[-112.15988,37.66724],[-112.16024,37.66728],[-112.16024,37.66728],[-112.16037,37.66746],[-112.16054,37.66768],[-112.16066,37.66779],[-112.16066,37.66779],[-112.16064,37.66792],[-112.16061,37.66807],[-112.16061,37.66816],[-112.16061,37.66816],[-112.16055,37.66824]]}}]}