{"type":"FeatureCollection","features":[{"type":"Feature","properties":{"_gpxType":"trk","name":"Ruby's Inn RV Park & Campground, South Main Street, Bryce Canyon City, UT - Aspen Cove Resort, North Shore Road, Panguitch, UT","coordinateProperties":{},"id":87},"geometry":{"type":"LineString","coordinates":[[-112.16055,37.66824],[-112.16061,37.66816],[-112.16061,37.66807],[-112.16064,37.66792],[-112.16066,37.66779],[-112.16066,37.66779],[-112.16054,37.66768],[-112.16037,37.66746],[-112.16024,37.66728],[-112.16024,37.66728],[-112.15988,37.66724],[-112.15984,37.66723],[-112.15969,37.66722],[-112.15949,37.66721],[-112.15943,37.66722],[-112.15937,37.66722],[-112.15926,37.66725],[-112.15926,37.66725],[-112.1592,37.66729],[-112.15912,37.66735],[-112.15905,37.66745],[-112.15904,37.66749],[-112.15899,37.66763],[-112.15895,37.66773],[-112.15895,37.66773],[-112.15893,37.66775],[-112.15871,37.66789],[-112.15861,37.66802],[-112.15855,37.66824],[-112.15854,37.66825],[-112.15854,37.66825],[-112.15844,37.66824],[-112.15839,37.66825],[-112.15836,37.66826],[-112.15824,37.6683],[-112.15813,37.66832],[-112.15804,37.66834],[-112.15798,37.66834],[-112.15792,37.66831],[-112.15792,37.66831],[-112.15768,37.66944],[-112.15732,37.67061],[-112.15727,37.67076],[-112.15726,37.67077],[-112.15713,37.67127],[-112.15686,37.67239],[-112.15683,37.67251],[-112.15642,37.67397],[-112.15629,37.6745],[-112.15598,37.67571],[-112.15597,37.67576],[-112.15594,37.67587],[-112.15582,37.67635],[-112.1558,37.6764],[-112.15571,37.67675],[-112.15567,37.67693],[-112.1555,37.67755],[-112.15527,37.67841],[-112.15489,37.67985],[-112.1547,37.68061],[-112.15459,37.68103],[-112.15453,37.68126],[-112.15437,37.68182],[-112.15426,37.68226],[-112.15424,37.68235],[-112.15402,37.68321],[-112.15399,37.68332],[-112.15394,37.68349],[-112.15375,37.6842],[-112.15358,37.68488],[-112.15348,37.68525],[-112.15344,37.68539],[-112.15338,37.68561],[-112.15331,37.68589],[-112.15322,37.68621],[-112.15316,37.68646],[-112.1531,37.68666],[-112.15298,37.68714],[-112.15287,37.68754],[-112.1528,37.68781],[-112.15261,37.68853],[-112.1525,37.68895],[-112.15249,37.68898],[-112.15246,37.6891],[-112.15236,37.68948],[-112.15234,37.68954],[-112.15227,37.68983],[-112.15222,37.69005],[-112.15218,37.69023],[-112.15217,37.69037],[-112.15217,37.69049],[-112.15217,37.69059],[-112.15219,37.69074],[-112.1522,37.6909],[-112.15223,37.69104],[-112.15222,37.69108],[-112.15223,37.69114],[-112.15224,37.69121],[-112.15226,37.69128],[-112.15229,37.69137],[-112.15232,37.69149],[-112.15235,37.69161],[-112.15239,37.69175],[-112.15244,37.69191],[-112.15248,37.69204],[-112.15249,37.69211],[-112.15248,37.69216],[-112.15244,37.69224],[-112.15239,37.6923],[-112.15239,37.6923],[-112.15238,37.69231],[-112.15236,37.69231],[-112.15235,37.69232],[-112.15232,37.69233],[-112.15231,37.69234],[-112.1523,37.69234],[-112.15229,37.69235],[-112.15226,37.69237],[-112.15224,37.69239],[-112.15222,37.69241],[-112.15221,37.69243],[-112.15219,37.69248],[-112.15219,37.6925],[-112.15219,37.69253],[-112.15219,37.69257],[-112.1522,37.69259],[-112.15222,37.69264],[-112.15224,37.69266],[-112.15226,37.69268],[-112.15228,37.6927],[-112.15231,37.69271],[-112.15236,37.69274],[-112.15239,37.69275],[-112.1524,37.69275],[-112.15242,37.69275],[-112.15245,37.69276],[-112.15248,37.69276],[-112.15254,37.69275],[-112.15257,37.69275],[-112.1526,37.69274],[-112.15263,37.69273],[-112.15289,37.69276],[-112.15312,37.6928],[-112.15323,37.69282],[-112.15359,37.69291],[-112.15388,37.69299],[-112.15424,37.69309],[-112.15431,37.69311],[-112.15435,37.69311],[-112.1544,37.69311],[-112.15444,37.69311],[-112.15449,37.6931],[-112.15492,37.69319],[-112.15525,37.69326],[-112.15565,37.69333],[-112.15578,37.69335],[-112.1567,37.69351],[-112.15686,37.69353],[-112.15715,37.69359],[-112.15745,37.69363],[-112.15851,37.69379],[-112.15978,37.69399],[-112.16062,37.69413],[-112.16158,37.6943],[-112.16264,37.69446],[-112.16411,37.69469],[-112.16656,37.69509],[-112.17189,37.69595],[-112.17434,37.69634],[-112.17519,37.69648],[-112.17638,37.69669],[-112.17857,37.69702],[-112.17978,37.69721],[-112.18475,37.69802],[-112.18493,37.69804],[-112.18503,37.69806],[-112.18617,37.69824],[-112.1871,37.69839],[-112.18875,37.69866],[-112.1899,37.69885],[-112.19031,37.69894],[-112.19063,37.69901],[-112.19072,37.69903],[-112.19125,37.69917],[-112.19135,37.69919],[-112.19198,37.69937],[-112.19226,37.69945],[-112.19289,37.69966],[-112.19328,37.69979],[-112.19352,37.69988],[-112.19388,37.70002],[-112.19425,37.70017],[-112.19452,37.70028],[-112.19477,37.70039],[-112.19488,37.70044],[-112.19503,37.70051],[-112.19525,37.70061],[-112.19552,37.70074],[-112.19586,37.70091],[-112.19588,37.70092],[-112.19618,37.70107],[-112.1964,37.70119],[-112.19663,37.70132],[-112.19696,37.70152],[-112.19729,37.70172],[-112.19751,37.70186],[-112.1976,37.70192],[-112.19792,37.70213],[-112.19854,37.70256],[-112.19916,37.70301],[-112.19943,37.70321],[-112.19977,37.70345],[-112.19987,37.70353],[-112.19994,37.70357],[-112.20094,37.7043],[-112.20109,37.70442],[-112.2017,37.70485],[-112.20253,37.70545],[-112.20362,37.70623],[-112.20405,37.70655],[-112.20429,37.70672],[-112.20455,37.7069],[-112.20471,37.70701],[-112.20508,37.70724],[-112.2055,37.7075],[-112.2057,37.70761],[-112.20611,37.70784],[-112.20643,37.70801],[-112.20697,37.70828],[-112.20702,37.7083],[-112.20783,37.70867],[-112.20813,37.70881],[-112.20855,37.70899],[-112.20886,37.7091],[-112.20904,37.70917],[-112.20936,37.70929],[-112.20977,37.70943],[-112.21027,37.70958],[-112.21103,37.70982],[-112.21209,37.71014],[-112.2138,37.71066],[-112.21463,37.71091],[-112.21485,37.71097],[-112.21844,37.71206],[-112.2193,37.71232],[-112.22164,37.71303],[-112.22178,37.71308],[-112.22206,37.71316],[-112.22357,37.71362],[-112.22376,37.71367],[-112.2258,37.71429],[-112.22717,37.7147],[-112.22908,37.71528],[-112.22929,37.71535],[-112.23197,37.71615],[-112.23302,37.71646],[-112.23331,37.71655],[-112.23388,37.7167],[-112.23435,37.71681],[-112.23494,37.71693],[-112.23545,37.71702],[-112.23597,37.71711],[-112.23721,37.71727],[-112.23844,37.71743],[-112.23973,37.7176],[-112.24096,37.71777],[-112.24299,37.71803],[-112.24724,37.71858],[-112.24927,37.71885],[-112.25029,37.71898],[-112.25357,37.71941],[-112.25452,37.71953],[-112.25533,37.71963],[-112.25824,37.72002],[-112.26028,37.72028],[-112.2613,37.72042],[-112.26219,37.72056],[-112.26275,37.7207],[-112.26305,37.7208],[-112.26322,37.72086],[-112.26354,37.721],[-112.26387,37.72117],[-112.26418,37.72135],[-112.2645,37.72157],[-112.26454,37.72161],[-112.26471,37.72173],[-112.26495,37.72192],[-112.26503,37.72198],[-112.26527,37.72219],[-112.26561,37.72249],[-112.26585,37.72274],[-112.26603,37.72296],[-112.26613,37.72308],[-112.26627,37.72331],[-112.26634,37.72344],[-112.26638,37.72351],[-112.26659,37.72392],[-112.26675,37.72425],[-112.26691,37.72452],[-112.2671,37.72476],[-112.26724,37.72492],[-112.26751,37.72517],[-112.26776,37.72537],[-112.26801,37.72554],[-112.26818,37.72565],[-112.26844,37.72582],[-112.26896,37.72615],[-112.26944,37.72646],[-112.2696,37.72658],[-112.26975,37.72669],[-112.26982,37.72675],[-112.2699,37.72683],[-112.26994,37.72686],[-112.27004,37.72697],[-112.27022,37.72717],[-112.27042,37.72742],[-112.27079,37.72787],[-112.27118,37.72833],[-112.27147,37.72859],[-112.27157,37.72867],[-112.27163,37.72872],[-112.27201,37.72898],[-112.27248,37.72922],[-112.27254,37.72925],[-112.27275,37.72933],[-112.27288,37.72938],[-112.27309,37.72946],[-112.27334,37.72953],[-112.27366,37.72961],[-112.27377,37.72962],[-112.27388,37.72964],[-112.27403,37.72966],[-112.2742,37.72968],[-112.27432,37.72969],[-112.27467,37.7297],[-112.27499,37.72972],[-112.27528,37.72973],[-112.27558,37.72975],[-112.27579,37.72977],[-112.27592,37.72979],[-112.27602,37.7298],[-112.27615,37.72983],[-112.27623,37.72985],[-112.27648,37.72991],[-112.27668,37.72997],[-112.27688,37.73004],[-112.27705,37.73011],[-112.27721,37.73019],[-112.27736,37.73027],[-112.27753,37.73037],[-112.2777,37.73048],[-112.27784,37.73058],[-112.2779,37.73063],[-112.27799,37.7307],[-112.27806,37.73076],[-112.27812,37.73082],[-112.27832,37.73099],[-112.27848,37.73115],[-112.27864,37.7313],[-112.27873,37.73138],[-112.2788,37.73144],[-112.27881,37.73145],[-112.27892,37.73154],[-112.27902,37.73161],[-112.27909,37.73167],[-112.27913,37.73169],[-112.27925,37.73177],[-112.27937,37.73184],[-112.27948,37.7319],[-112.27967,37.73199],[-112.27986,37.73208],[-112.28002,37.73214],[-112.28018,37.73219],[-112.2803,37.73223],[-112.28038,37.73226],[-112.28058,37.73232],[-112.28072,37.73237],[-112.28077,37.73238],[-112.28093,37.73244],[-112.28097,37.73245],[-112.28119,37.73253],[-112.28143,37.73263],[-112.28154,37.73268],[-112.2816,37.7327],[-112.28169,37.73275],[-112.2818,37.7328],[-112.28192,37.73288],[-112.28204,37.73294],[-112.28215,37.73301],[-112.28234,37.73313],[-112.28264,37.73331],[-112.28264,37.73332],[-112.28299,37.73354],[-112.28335,37.73376],[-112.28385,37.73407],[-112.28407,37.73421],[-112.28425,37.73432],[-112.28449,37.73447],[-112.28492,37.73475],[-112.28524,37.73495],[-112.28545,37.73508],[-112.2857,37.73524],[-112.28585,37.73533],[-112.28638,37.73567],[-112.28656,37.73578],[-112.28678,37.73592],[-112.2872,37.73617],[-112.28737,37.73627],[-112.28757,37.73638],[-112.28768,37.73642],[-112.28783,37.73649],[-112.28806,37.73658],[-112.28812,37.73661],[-112.28839,37.7367],[-112.28851,37.73673],[-112.28864,37.73677],[-112.2887,37.73678],[-112.28891,37.73683],[-112.28894,37.73684],[-112.28914,37.73687],[-112.28917,37.73688],[-112.28936,37.73691],[-112.2898,37.73696],[-112.29009,37.73699],[-112.29031,37.73701],[-112.29044,37.73703],[-112.29061,37.73705],[-112.29077,37.73708],[-112.29089,37.7371],[-112.29104,37.73714],[-112.29119,37.73718],[-112.29128,37.73721],[-112.29135,37.73723],[-112.29145,37.73726],[-112.29153,37.73729],[-112.29155,37.7373],[-112.2917,37.73736],[-112.29177,37.73739],[-112.29182,37.73741],[-112.29194,37.73746],[-112.29206,37.73753],[-112.29217,37.7376],[-112.29232,37.73768],[-112.29243,37.73775],[-112.29254,37.73782],[-112.29265,37.73789],[-112.29276,37.73795],[-112.29283,37.73799],[-112.29284,37.738],[-112.29291,37.73804],[-112.29298,37.73808],[-112.29305,37.73812],[-112.29317,37.73818],[-112.29332,37.73825],[-112.2934,37.73828],[-112.29345,37.7383],[-112.29357,37.73835],[-112.29362,37.73836],[-112.29372,37.7384],[-112.29388,37.73845],[-112.29402,37.7385],[-112.29418,37.73856],[-112.29424,37.73858],[-112.29434,37.73862],[-112.29444,37.73866],[-112.29445,37.73866],[-112.29448,37.73868],[-112.29458,37.73872],[-112.29464,37.73875],[-112.29465,37.73876],[-112.29468,37.73877],[-112.29475,37.73881],[-112.29484,37.73886],[-112.29494,37.73892],[-112.29506,37.739],[-112.29517,37.73909],[-112.2952,37.73911],[-112.29532,37.73921],[-112.29533,37.73922],[-112.2955,37.73938],[-112.29565,37.73952],[-112.29569,37.73956],[-112.29583,37.73969],[-112.29594,37.7398],[-112.29597,37.73983],[-112.29604,37.73988],[-112.29606,37.7399],[-112.29606,37.73991],[-112.29609,37.73993],[-112.29617,37.73999],[-112.29623,37.74003],[-112.29627,37.74006],[-112.29629,37.74007],[-112.29637,37.74012],[-112.29642,37.74014],[-112.29649,37.74018],[-112.29654,37.7402],[-112.29664,37.74024],[-112.29671,37.74026],[-112.29679,37.74028],[-112.2969,37.74031],[-112.29708,37.74034],[-112.29713,37.74035],[-112.29725,37.74037],[-112.2973,37.74038],[-112.2974,37.74039],[-112.29765,37.74042],[-112.29769,37.74042],[-112.29784,37.74044],[-112.29798,37.74045],[-112.29813,37.74048],[-112.2983,37.74051],[-112.29846,37.74055],[-112.29856,37.74057],[-112.29873,37.74063],[-112.29877,37.74064],[-112.2989,37.74069],[-112.29906,37.74075],[-112.29921,37.74082],[-112.29936,37.7409],[-112.29937,37.74091],[-112.29939,37.74092],[-112.29949,37.74098],[-112.29952,37.741],[-112.2996,37.74105],[-112.29975,37.74117],[-112.29987,37.74127],[-112.29997,37.74137],[-112.30007,37.74147],[-112.30015,37.74156],[-112.30019,37.74161],[-112.30023,37.74166],[-112.3003,37.74176],[-112.30038,37.74189],[-112.30046,37.74201],[-112.30051,37.74212],[-112.30056,37.74222],[-112.30058,37.74226],[-112.30061,37.74233],[-112.30063,37.74239],[-112.30064,37.74241],[-112.30068,37.74252],[-112.3007,37.74262],[-112.30073,37.74272],[-112.30073,37.74276],[-112.30075,37.74287],[-112.30079,37.7431],[-112.30084,37.74345],[-112.30086,37.74353],[-112.30087,37.74359],[-112.30088,37.74363],[-112.30089,37.74364],[-112.30092,37.74374],[-112.30101,37.74392],[-112.30114,37.7441],[-112.3012,37.74416],[-112.30126,37.74421],[-112.30136,37.7443],[-112.30146,37.74437],[-112.30157,37.74444],[-112.30168,37.74448],[-112.30177,37.74453],[-112.30189,37.74457],[-112.302,37.7446],[-112.30209,37.74463],[-112.30216,37.74464],[-112.30221,37.74466],[-112.30229,37.74467],[-112.30237,37.74468],[-112.30243,37.74469],[-112.30252,37.7447],[-112.30258,37.7447],[-112.30266,37.7447],[-112.30276,37.7447],[-112.30283,37.7447],[-112.30292,37.74469],[-112.30306,37.74468],[-112.30318,37.74466],[-112.3033,37.74464],[-112.30347,37.7446],[-112.30375,37.74455],[-112.30402,37.74449],[-112.30412,37.74447],[-112.30423,37.74445],[-112.30434,37.74444],[-112.30448,37.74443],[-112.30461,37.74442],[-112.30474,37.74442],[-112.3049,37.74441],[-112.30509,37.74442],[-112.30531,37.74444],[-112.30558,37.74446],[-112.30577,37.74448],[-112.30592,37.74449],[-112.30604,37.7445],[-112.30617,37.74451],[-112.30633,37.74451],[-112.30645,37.74451],[-112.30657,37.7445],[-112.30666,37.74449],[-112.30678,37.74447],[-112.30687,37.74445],[-112.30696,37.74444],[-112.30706,37.74441],[-112.30714,37.74439],[-112.30715,37.74438],[-112.30727,37.74435],[-112.30735,37.74432],[-112.30747,37.74428],[-112.30765,37.74422],[-112.30784,37.74415],[-112.308,37.7441],[-112.30815,37.74405],[-112.30831,37.744],[-112.30844,37.74397],[-112.30858,37.74394],[-112.30876,37.74391],[-112.30885,37.7439],[-112.30892,37.74389],[-112.30908,37.74387],[-112.3092,37.74387],[-112.30932,37.74387],[-112.30943,37.74388],[-112.30956,37.74389],[-112.30967,37.7439],[-112.30977,37.74392],[-112.30991,37.74395],[-112.30994,37.74395],[-112.31004,37.74398],[-112.31022,37.74403],[-112.31036,37.74407],[-112.31059,37.74415],[-112.31075,37.74421],[-112.31109,37.74435],[-112.31123,37.7444],[-112.31143,37.74448],[-112.31158,37.74454],[-112.31171,37.74458],[-112.31182,37.74462],[-112.31196,37.74466],[-112.31203,37.74467],[-112.31206,37.74468],[-112.31219,37.7447],[-112.31231,37.74472],[-112.3124,37.74473],[-112.31253,37.74474],[-112.31261,37.74475],[-112.31272,37.74475],[-112.31283,37.74474],[-112.31291,37.74474],[-112.313,37.74473],[-112.3131,37.74471],[-112.31322,37.74469],[-112.3134,37.74465],[-112.31366,37.74459],[-112.31383,37.74455],[-112.31403,37.74451],[-112.31424,37.74446],[-112.31442,37.74443],[-112.31459,37.7444],[-112.31481,37.74437],[-112.31496,37.74436],[-112.31506,37.74435],[-112.3151,37.74435],[-112.31527,37.74434],[-112.31529,37.74434],[-112.31545,37.74433],[-112.31562,37.74433],[-112.31583,37.74434],[-112.31607,37.74435],[-112.31626,37.74437],[-112.31637,37.74438],[-112.31649,37.7444],[-112.31676,37.74445],[-112.31687,37.74447],[-112.31695,37.74449],[-112.31717,37.74455],[-112.31744,37.74462],[-112.31764,37.74469],[-112.31789,37.74477],[-112.31811,37.74486],[-112.31832,37.74494],[-112.3185,37.74501],[-112.31874,37.74512],[-112.31882,37.74516],[-112.3191,37.74529],[-112.3193,37.74539],[-112.31944,37.74546],[-112.31951,37.7455],[-112.31958,37.74554],[-112.31978,37.74566],[-112.31986,37.74571],[-112.32009,37.74586],[-112.32024,37.74596],[-112.32031,37.74601],[-112.32053,37.74616],[-112.32085,37.7464],[-112.32097,37.74649],[-112.32103,37.74653],[-112.32118,37.74664],[-112.3214,37.74679],[-112.32151,37.74686],[-112.32156,37.74689],[-112.3216,37.74691],[-112.3217,37.74697],[-112.32178,37.74701],[-112.32188,37.74706],[-112.32201,37.74711],[-112.32215,37.74716],[-112.32234,37.74722],[-112.32249,37.74725],[-112.32265,37.74729],[-112.32279,37.74731],[-112.32292,37.74732],[-112.32305,37.74733],[-112.32319,37.74734],[-112.32332,37.74734],[-112.32344,37.74734],[-112.32357,37.74733],[-112.32373,37.74732],[-112.32384,37.7473],[-112.32393,37.74728],[-112.32402,37.74727],[-112.32409,37.74725],[-112.32418,37.74722],[-112.32426,37.7472],[-112.32437,37.74717],[-112.32446,37.74714],[-112.32451,37.74712],[-112.32458,37.74709],[-112.32466,37.74706],[-112.32472,37.74704],[-112.32479,37.747],[-112.32486,37.74697],[-112.32494,37.74693],[-112.32504,37.74688],[-112.32516,37.74682],[-112.32529,37.74675],[-112.32543,37.74667],[-112.32554,37.7466],[-112.32562,37.74654],[-112.32574,37.74646],[-112.32582,37.74641],[-112.3259,37.74634],[-112.32597,37.74628],[-112.32603,37.74624],[-112.3261,37.74618],[-112.32618,37.74611],[-112.32626,37.74603],[-112.32632,37.74597],[-112.32638,37.74592],[-112.32642,37.74586],[-112.32658,37.74567],[-112.32685,37.74532],[-112.32696,37.74519],[-112.32699,37.74515],[-112.32705,37.74507],[-112.32714,37.74496],[-112.32722,37.74487],[-112.32724,37.74485],[-112.32729,37.7448],[-112.32732,37.74477],[-112.32739,37.74471],[-112.32747,37.74464],[-112.32754,37.7446],[-112.32755,37.74459],[-112.32761,37.74455],[-112.32769,37.7445],[-112.32774,37.74447],[-112.3278,37.74445],[-112.32786,37.74442],[-112.32792,37.74439],[-112.32802,37.74435],[-112.32808,37.74433],[-112.32813,37.74432],[-112.32822,37.74429],[-112.32833,37.74426],[-112.32846,37.74423],[-112.32869,37.74418],[-112.32881,37.74416],[-112.32906,37.74411],[-112.32915,37.74409],[-112.32945,37.74404],[-112.32952,37.74402],[-112.32972,37.74399],[-112.32998,37.74394],[-112.33018,37.7439],[-112.33024,37.74389],[-112.33052,37.74383],[-112.33086,37.74376],[-112.33103,37.74373],[-112.33106,37.74372],[-112.33138,37.74366],[-112.33192,37.74356],[-112.3321,37.74352],[-112.33223,37.7435],[-112.33245,37.74345],[-112.33258,37.74343],[-112.3329,37.74337],[-112.33307,37.74334],[-112.33312,37.74334],[-112.33324,37.74332],[-112.33336,37.7433],[-112.33346,37.74329],[-112.33364,37.74328],[-112.33377,37.74327],[-112.3338,37.74327],[-112.33399,37.74326],[-112.33426,37.74327],[-112.33448,37.74328],[-112.3346,37.74329],[-112.33474,37.7433],[-112.33486,37.74331],[-112.33493,37.74332],[-112.33515,37.74336],[-112.33532,37.74339],[-112.33561,37.74346],[-112.33563,37.74347],[-112.33623,37.74363],[-112.33722,37.74391],[-112.33754,37.74399],[-112.33858,37.74428],[-112.33946,37.74452],[-112.34009,37.74469],[-112.34072,37.74484],[-112.34166,37.74502],[-112.34175,37.74503],[-112.34264,37.7452],[-112.34374,37.74541],[-112.34418,37.74549],[-112.34706,37.74604],[-112.35303,37.74718],[-112.35644,37.74783],[-112.35891,37.7483],[-112.35938,37.74839],[-112.35986,37.74848],[-112.36021,37.74852],[-112.36043,37.74854],[-112.36095,37.74858],[-112.36251,37.74868],[-112.36353,37.74875],[-112.36485,37.74884],[-112.36545,37.74888],[-112.36602,37.74892],[-112.36639,37.74895],[-112.36667,37.74897],[-112.36759,37.74906],[-112.36863,37.7491],[-112.36922,37.74915],[-112.36946,37.74916],[-112.3702,37.7492],[-112.3711,37.74928],[-112.37115,37.74929],[-112.37292,37.74939],[-112.37337,37.74942],[-112.37396,37.74945],[-112.37482,37.74952],[-112.37551,37.74956],[-112.376,37.7496],[-112.376,37.7496],[-112.37602,37.74964],[-112.37603,37.74964],[-112.37603,37.74965],[-112.37604,37.74965],[-112.37608,37.74966],[-112.37614,37.74968],[-112.37618,37.7497],[-112.37622,37.74971],[-112.37626,37.74973],[-112.37629,37.74975],[-112.3763,37.74975],[-112.37634,37.74977],[-112.37638,37.74979],[-112.37641,37.74982],[-112.37642,37.74983],[-112.37645,37.74984],[-112.37647,37.74987],[-112.3765,37.74989],[-112.37652,37.74991],[-112.37656,37.74996],[-112.37659,37.75],[-112.37662,37.75003],[-112.37665,37.75007],[-112.37667,37.75011],[-112.37669,37.75014],[-112.37671,37.75016],[-112.37672,37.75019],[-112.37673,37.75022],[-112.37674,37.75025],[-112.37676,37.7503],[-112.37677,37.75036],[-112.37679,37.75042],[-112.37679,37.75047],[-112.3768,37.75049],[-112.37681,37.75067],[-112.37681,37.75072],[-112.37683,37.75087],[-112.37684,37.75095],[-112.37684,37.75099],[-112.37685,37.75102],[-112.37686,37.75104],[-112.37698,37.75117],[-112.37701,37.7513],[-112.37703,37.75139],[-112.37705,37.75147],[-112.37712,37.75172],[-112.37718,37.75189],[-112.37726,37.7521],[-112.37735,37.7523],[-112.37755,37.7526],[-112.37791,37.75308],[-112.37803,37.75323],[-112.3781,37.75332],[-112.37838,37.75369],[-112.3784,37.75372],[-112.37846,37.75379],[-112.3785,37.75385],[-112.37871,37.75412],[-112.379,37.75448],[-112.37939,37.75498],[-112.37955,37.75519],[-112.37985,37.75558],[-112.38004,37.75582],[-112.38035,37.75622],[-112.38054,37.75646],[-112.38088,37.75689],[-112.38115,37.75724],[-112.3812,37.7573],[-112.38145,37.75763],[-112.38159,37.75781],[-112.38181,37.7581],[-112.38197,37.75829],[-112.3821,37.75847],[-112.38267,37.75923],[-112.38335,37.76015],[-112.38344,37.76026],[-112.38364,37.76052],[-112.38389,37.76085],[-112.38407,37.76109],[-112.38413,37.76117],[-112.38443,37.76156],[-112.3846,37.76178],[-112.38478,37.76202],[-112.38502,37.76233],[-112.38516,37.76251],[-112.38543,37.76286],[-112.38557,37.76305],[-112.38572,37.76324],[-112.38584,37.76339],[-112.38591,37.76349],[-112.38632,37.76403],[-112.38667,37.76447],[-112.38705,37.76497],[-112.38738,37.76539],[-112.38746,37.7655],[-112.38761,37.7657],[-112.38785,37.76603],[-112.38792,37.76613],[-112.38831,37.76663],[-112.38845,37.7668],[-112.38863,37.76704],[-112.38882,37.76729],[-112.38918,37.76775],[-112.38938,37.76801],[-112.38939,37.76802],[-112.38968,37.76839],[-112.38977,37.76851],[-112.38998,37.76879],[-112.39009,37.76893],[-112.39019,37.76905],[-112.39044,37.76939],[-112.39044,37.7694],[-112.39059,37.7696],[-112.39075,37.76983],[-112.391,37.77022],[-112.39111,37.77041],[-112.39112,37.77043],[-112.39129,37.77074],[-112.39141,37.77097],[-112.39151,37.77118],[-112.39157,37.7713],[-112.39165,37.7715],[-112.39173,37.77169],[-112.39186,37.77207],[-112.39196,37.77238],[-112.39202,37.7726],[-112.39209,37.77284],[-112.39215,37.77311],[-112.39221,37.77342],[-112.39224,37.77365],[-112.39228,37.77392],[-112.3923,37.77412],[-112.39232,37.77435],[-112.39235,37.77463],[-112.39235,37.7748],[-112.39236,37.7749],[-112.39237,37.7752],[-112.39238,37.77531],[-112.39243,37.77611],[-112.39243,37.77619],[-112.39248,37.77709],[-112.39248,37.77715],[-112.3925,37.77754],[-112.39255,37.77845],[-112.39259,37.77922],[-112.39262,37.78011],[-112.39263,37.78039],[-112.39269,37.78165],[-112.39273,37.78223],[-112.39277,37.78288],[-112.3928,37.78344],[-112.39283,37.78378],[-112.39287,37.78417],[-112.39293,37.78462],[-112.39299,37.78503],[-112.39303,37.78523],[-112.39305,37.78532],[-112.3931,37.78557],[-112.39318,37.7859],[-112.39319,37.78593],[-112.39323,37.78611],[-112.39333,37.78646],[-112.39335,37.78653],[-112.39339,37.78668],[-112.39343,37.78681],[-112.39349,37.78699],[-112.39353,37.78711],[-112.39354,37.78716],[-112.39358,37.78728],[-112.39372,37.78768],[-112.39373,37.78769],[-112.39384,37.78798],[-112.39397,37.78829],[-112.394,37.78837],[-112.39402,37.7884],[-112.39408,37.78854],[-112.39409,37.78857],[-112.39419,37.7888],[-112.39428,37.78898],[-112.39435,37.78912],[-112.39439,37.78919],[-112.39454,37.78949],[-112.39477,37.78993],[-112.39487,37.79011],[-112.39492,37.79019],[-112.3951,37.79049],[-112.39546,37.79107],[-112.39557,37.79123],[-112.39566,37.79137],[-112.3957,37.79144],[-112.39575,37.79153],[-112.39576,37.79153],[-112.39578,37.79157],[-112.39592,37.79179],[-112.396,37.79192],[-112.3963,37.79238],[-112.39643,37.79261],[-112.39663,37.79294],[-112.39673,37.79311],[-112.39684,37.79331],[-112.39693,37.79348],[-112.397,37.7936],[-112.39705,37.79371],[-112.39719,37.79401],[-112.39737,37.79438],[-112.39737,37.7944],[-112.39753,37.79475],[-112.39753,37.79476],[-112.39756,37.79483],[-112.39776,37.79536],[-112.39814,37.79638],[-112.39828,37.79675],[-112.39843,37.79717],[-112.39866,37.7978],[-112.39879,37.79815],[-112.3989,37.79844],[-112.3991,37.79897],[-112.39925,37.79939],[-112.39937,37.7997],[-112.39942,37.79984],[-112.39965,37.80044],[-112.39974,37.8007],[-112.39984,37.80096],[-112.39999,37.80139],[-112.40001,37.80142],[-112.40007,37.80161],[-112.40022,37.80202],[-112.40043,37.80258],[-112.40061,37.80308],[-112.40068,37.80329],[-112.40075,37.80351],[-112.40084,37.80382],[-112.40091,37.80404],[-112.40097,37.80425],[-112.40103,37.80446],[-112.40104,37.80447],[-112.40109,37.80468],[-112.40114,37.80488],[-112.40125,37.80533],[-112.40133,37.80563],[-112.40136,37.80576],[-112.40148,37.8063],[-112.40165,37.80703],[-112.40186,37.80794],[-112.40188,37.80801],[-112.40193,37.80824],[-112.40196,37.80836],[-112.40198,37.80846],[-112.40213,37.80908],[-112.40219,37.80933],[-112.40221,37.80942],[-112.40222,37.80947],[-112.40232,37.80988],[-112.40237,37.81013],[-112.40241,37.8103],[-112.40254,37.81084],[-112.40263,37.81124],[-112.40266,37.81137],[-112.40267,37.81141],[-112.4027,37.81155],[-112.4029,37.81243],[-112.40296,37.81267],[-112.40303,37.81299],[-112.40332,37.81427],[-112.40359,37.81543],[-112.40361,37.8155],[-112.40364,37.81561],[-112.40371,37.81595],[-112.40372,37.81599],[-112.40373,37.81603],[-112.40378,37.81623],[-112.40386,37.81655],[-112.40393,37.8168],[-112.40397,37.81697],[-112.40399,37.81704],[-112.40401,37.81711],[-112.40408,37.81731],[-112.40413,37.81743],[-112.40416,37.81753],[-112.40428,37.8178],[-112.40436,37.81796],[-112.40446,37.81816],[-112.40453,37.81831],[-112.40462,37.81847],[-112.40464,37.8185],[-112.40471,37.8186],[-112.40479,37.81873],[-112.40488,37.81887],[-112.40493,37.81895],[-112.40499,37.81903],[-112.40509,37.81915],[-112.40511,37.81918],[-112.40517,37.81926],[-112.40523,37.81933],[-112.40529,37.81941],[-112.4053,37.81941],[-112.40545,37.81959],[-112.40551,37.81966],[-112.40557,37.81972],[-112.40569,37.81985],[-112.4057,37.81986],[-112.40576,37.81992],[-112.40582,37.81999],[-112.40589,37.82007],[-112.40592,37.8201],[-112.40607,37.82024],[-112.40626,37.82041],[-112.4063,37.82044],[-112.40634,37.82048],[-112.40641,37.82054],[-112.40643,37.82055],[-112.40665,37.82073],[-112.40665,37.82074],[-112.4068,37.82085],[-112.40692,37.82094],[-112.40698,37.82098],[-112.40702,37.82101],[-112.40713,37.82109],[-112.40715,37.8211],[-112.40721,37.82114],[-112.40735,37.82123],[-112.40752,37.82135],[-112.40755,37.82136],[-112.4078,37.82151],[-112.40805,37.82165],[-112.40815,37.82171],[-112.40834,37.82181],[-112.40843,37.82185],[-112.40863,37.82194],[-112.40871,37.82198],[-112.40889,37.82205],[-112.40903,37.82212],[-112.40932,37.82224],[-112.40964,37.82235],[-112.40981,37.82241],[-112.40993,37.82245],[-112.41007,37.82249],[-112.41018,37.82253],[-112.41045,37.8226],[-112.41063,37.82265],[-112.4108,37.82269],[-112.41094,37.82272],[-112.41114,37.82277],[-112.41125,37.82279],[-112.41127,37.82279],[-112.41141,37.82282],[-112.41149,37.82283],[-112.41166,37.82286],[-112.41186,37.82289],[-112.41202,37.82291],[-112.41229,37.82295],[-112.41237,37.82295],[-112.41238,37.82295],[-112.41249,37.82296],[-112.41255,37.82297],[-112.4126,37.82297],[-112.41261,37.82297],[-112.41284,37.82299],[-112.41306,37.823],[-112.41324,37.823],[-112.41328,37.823],[-112.41329,37.823],[-112.41347,37.82301],[-112.4138,37.82301],[-112.41422,37.823],[-112.41464,37.823],[-112.4151,37.82299],[-112.4159,37.82298],[-112.41657,37.82297],[-112.41742,37.82296],[-112.4188,37.82294],[-112.42101,37.82292],[-112.4218,37.82291],[-112.42194,37.82291],[-112.42208,37.82291],[-112.42254,37.82291],[-112.42296,37.8229],[-112.42323,37.8229],[-112.42407,37.82289],[-112.42574,37.82287],[-112.4259,37.82287],[-112.42784,37.82284],[-112.42907,37.82283],[-112.42974,37.82282],[-112.43171,37.82279],[-112.43368,37.82277],[-112.43404,37.82277],[-112.43442,37.82277],[-112.43495,37.82276],[-112.43563,37.82275],[-112.43563,37.82275],[-112.43563,37.82224],[-112.43561,37.82158],[-112.4356,37.8212],[-112.43559,37.81967],[-112.43557,37.8185],[-112.43557,37.81812],[-112.43554,37.81701],[-112.43554,37.81657],[-112.43553,37.81625],[-112.43552,37.81577],[-112.43551,37.81501],[-112.4355,37.81458],[-112.43549,37.81431],[-112.43548,37.81403],[-112.43546,37.81243],[-112.43546,37.81228],[-112.43544,37.81126],[-112.43541,37.80992],[-112.4354,37.80911],[-112.43537,37.80752],[-112.43537,37.80734],[-112.43536,37.80713],[-112.43535,37.80652],[-112.43534,37.80605],[-112.43534,37.80589],[-112.43532,37.80479],[-112.43532,37.80463],[-112.43532,37.80445],[-112.43531,37.80436],[-112.43531,37.80425],[-112.43531,37.80409],[-112.4353,37.80373],[-112.4353,37.80355],[-112.43529,37.80338],[-112.43529,37.80321],[-112.43529,37.80303],[-112.43529,37.8029],[-112.43529,37.80271],[-112.4353,37.80252],[-112.43533,37.80233],[-112.43537,37.80216],[-112.43543,37.802],[-112.43545,37.80196],[-112.4355,37.80184],[-112.43553,37.8018],[-112.43558,37.8017],[-112.43562,37.80163],[-112.43567,37.80155],[-112.43577,37.80141],[-112.43588,37.80128],[-112.43605,37.8011],[-112.43645,37.80072],[-112.43671,37.80047],[-112.43684,37.80033],[-112.43685,37.80032],[-112.43698,37.80015],[-112.43709,37.79998],[-112.43718,37.79982],[-112.43724,37.79969],[-112.43725,37.79966],[-112.43731,37.79951],[-112.43736,37.79934],[-112.43736,37.79933],[-112.43739,37.79917],[-112.43741,37.79903],[-112.43742,37.79889],[-112.43741,37.79876],[-112.4374,37.79863],[-112.43739,37.79845],[-112.43738,37.79837],[-112.43735,37.79809],[-112.43722,37.7968],[-112.43711,37.79576],[-112.43708,37.7955],[-112.43694,37.79415],[-112.43685,37.79321],[-112.43684,37.79303],[-112.43683,37.79289],[-112.43683,37.79285],[-112.43682,37.79276],[-112.43683,37.79261],[-112.43685,37.79249],[-112.43688,37.79233],[-112.43693,37.79218],[-112.43701,37.792],[-112.43712,37.79183],[-112.43722,37.79169],[-112.43735,37.79153],[-112.43738,37.79151],[-112.43751,37.79137],[-112.43796,37.79096],[-112.43821,37.79072],[-112.43845,37.79049],[-112.43846,37.79049],[-112.43851,37.79044],[-112.43878,37.79017],[-112.43896,37.78997],[-112.43908,37.78981],[-112.43914,37.78972],[-112.43924,37.78955],[-112.43937,37.78926],[-112.4394,37.78916],[-112.43941,37.7891],[-112.43944,37.78897],[-112.43946,37.78885],[-112.43947,37.78877],[-112.43948,37.78862],[-112.43949,37.78837],[-112.4395,37.78804],[-112.43952,37.78765],[-112.43953,37.78728],[-112.43956,37.78642],[-112.43958,37.78591],[-112.43958,37.78575],[-112.43958,37.78573],[-112.43959,37.78521],[-112.43961,37.78483],[-112.43961,37.78463],[-112.43962,37.78429],[-112.43963,37.78413],[-112.43964,37.78401],[-112.43965,37.78384],[-112.43966,37.78371],[-112.43968,37.78357],[-112.43972,37.78338],[-112.43975,37.78328],[-112.43977,37.78322],[-112.43979,37.78314],[-112.43989,37.78289],[-112.44,37.78263],[-112.44029,37.78201],[-112.44037,37.78186],[-112.44042,37.78174],[-112.44054,37.7815],[-112.44085,37.78085],[-112.44108,37.78039],[-112.44151,37.77951],[-112.44153,37.77947],[-112.44181,37.77888],[-112.44191,37.77867],[-112.44199,37.7785],[-112.44211,37.77826],[-112.44215,37.77817],[-112.44246,37.77753],[-112.44256,37.77733],[-112.44278,37.77687],[-112.44308,37.77625],[-112.44312,37.77615],[-112.4432,37.77598],[-112.44336,37.77564],[-112.44349,37.77538],[-112.44361,37.77514],[-112.44369,37.77497],[-112.44414,37.77401],[-112.44428,37.77374],[-112.44438,37.77355],[-112.44447,37.77339],[-112.44458,37.77321],[-112.44466,37.77309],[-112.44476,37.77295],[-112.44487,37.77282],[-112.44495,37.77272],[-112.44502,37.77266],[-112.44507,37.77261],[-112.44517,37.77252],[-112.44533,37.77238],[-112.44546,37.77228],[-112.44564,37.77214],[-112.44582,37.77202],[-112.44619,37.77174],[-112.44683,37.7713],[-112.447,37.77118],[-112.44751,37.77082],[-112.44767,37.77071],[-112.44792,37.77056],[-112.44806,37.77049],[-112.44822,37.7704],[-112.44837,37.77033],[-112.44852,37.77026],[-112.44869,37.77019],[-112.44885,37.77013],[-112.44906,37.77004],[-112.44931,37.76996],[-112.44943,37.76992],[-112.44962,37.76985],[-112.44964,37.76985],[-112.44987,37.76976],[-112.45003,37.7697],[-112.45005,37.76969],[-112.45016,37.76965],[-112.45025,37.7696],[-112.45033,37.76956],[-112.4505,37.76948],[-112.45062,37.76941],[-112.45079,37.76932],[-112.45082,37.76931],[-112.45099,37.76921],[-112.451,37.76921],[-112.45118,37.76912],[-112.45134,37.76904],[-112.45155,37.76895],[-112.45176,37.76887],[-112.45199,37.7688],[-112.45216,37.76875],[-112.45232,37.76871],[-112.45252,37.76866],[-112.45272,37.76862],[-112.45288,37.7686],[-112.45307,37.76857],[-112.45324,37.76856],[-112.45338,37.76855],[-112.45353,37.76854],[-112.45366,37.76854],[-112.4538,37.76854],[-112.45399,37.76854],[-112.45422,37.76855],[-112.45443,37.76855],[-112.45466,37.76856],[-112.45483,37.76855],[-112.45501,37.76855],[-112.45518,37.76853],[-112.45532,37.76852],[-112.45545,37.7685],[-112.45556,37.76848],[-112.45568,37.76846],[-112.4558,37.76843],[-112.45593,37.76839],[-112.45606,37.76834],[-112.45622,37.76828],[-112.45639,37.76821],[-112.45644,37.76819],[-112.45653,37.76815],[-112.45671,37.76806],[-112.45691,37.76794],[-112.45725,37.76773],[-112.45759,37.76752],[-112.45781,37.76738],[-112.45853,37.76694],[-112.45882,37.76676],[-112.45901,37.76666],[-112.45919,37.76659],[-112.45939,37.76651],[-112.4596,37.76646],[-112.4598,37.76643],[-112.45994,37.76641],[-112.46008,37.7664],[-112.46028,37.7664],[-112.46046,37.76641],[-112.46069,37.76645],[-112.46088,37.76649],[-112.46104,37.76655],[-112.46118,37.7666],[-112.46127,37.76664],[-112.46141,37.7667],[-112.46157,37.76679],[-112.46172,37.76688],[-112.46177,37.76691],[-112.46199,37.76704],[-112.46218,37.76716],[-112.46236,37.76727],[-112.46262,37.76743],[-112.46282,37.76754],[-112.46303,37.76764],[-112.46321,37.76771],[-112.46342,37.76776],[-112.4636,37.76779],[-112.46365,37.7678],[-112.46374,37.76781],[-112.46391,37.76781],[-112.4641,37.76781],[-112.46429,37.76779],[-112.46447,37.76777],[-112.46463,37.76773],[-112.46499,37.76765],[-112.46509,37.76762],[-112.46519,37.7676],[-112.46547,37.76753],[-112.46572,37.76747],[-112.46597,37.76742],[-112.46606,37.7674],[-112.46621,37.76737],[-112.46643,37.76735],[-112.46663,37.76734],[-112.46674,37.76733],[-112.46677,37.76733],[-112.46695,37.76733],[-112.46716,37.76735],[-112.46733,37.76736],[-112.46751,37.76738],[-112.46768,37.7674],[-112.46784,37.76743],[-112.46852,37.76753],[-112.46921,37.76764],[-112.46931,37.76766],[-112.46998,37.76777],[-112.47073,37.76788],[-112.47117,37.76795],[-112.47166,37.76804],[-112.47211,37.76811],[-112.47223,37.76813],[-112.4727,37.7682],[-112.47323,37.76828],[-112.47381,37.76835],[-112.47397,37.76836],[-112.47417,37.76837],[-112.47445,37.76837],[-112.47467,37.76836],[-112.47491,37.76834],[-112.47522,37.76831],[-112.47554,37.76826],[-112.4758,37.76822],[-112.47797,37.76786],[-112.47873,37.76774],[-112.47918,37.76766],[-112.4796,37.76759],[-112.48116,37.76734],[-112.48296,37.76704],[-112.48302,37.76704],[-112.48319,37.76701],[-112.48366,37.76693],[-112.48437,37.76681],[-112.48454,37.76678],[-112.48547,37.76663],[-112.48566,37.7666],[-112.48616,37.76652],[-112.48631,37.7665],[-112.48632,37.76649],[-112.48699,37.76638],[-112.48749,37.7663],[-112.48788,37.76624],[-112.48809,37.7662],[-112.48811,37.7662],[-112.48853,37.76613],[-112.48855,37.76613],[-112.48915,37.76603],[-112.4899,37.76591],[-112.49042,37.76582],[-112.49054,37.7658],[-112.49056,37.7658],[-112.49076,37.76577],[-112.49078,37.76576],[-112.49113,37.76571],[-112.49232,37.76551],[-112.49234,37.76551],[-112.49254,37.76547],[-112.49293,37.76541],[-112.49323,37.76536],[-112.49424,37.7652],[-112.49568,37.76496],[-112.49613,37.76489],[-112.49657,37.76481],[-112.49702,37.76474],[-112.49725,37.7647],[-112.49747,37.76466],[-112.4977,37.76463],[-112.49826,37.76453],[-112.49881,37.76444],[-112.49895,37.76442],[-112.49903,37.7644],[-112.49925,37.76436],[-112.49927,37.76435],[-112.49947,37.76431],[-112.49951,37.7643],[-112.49965,37.76426],[-112.4998,37.76422],[-112.5,37.76416],[-112.50026,37.76408],[-112.50051,37.764],[-112.50069,37.76393],[-112.50088,37.76385],[-112.50124,37.7637],[-112.50144,37.76363],[-112.50156,37.76354],[-112.50172,37.76346],[-112.50191,37.76336],[-112.50192,37.76336],[-112.50218,37.76321],[-112.50237,37.76309],[-112.50251,37.76301],[-112.50266,37.76291],[-112.50312,37.76257],[-112.50313,37.76256],[-112.50314,37.76256],[-112.50353,37.76226],[-112.50379,37.76206],[-112.50396,37.76194],[-112.50453,37.76151],[-112.50492,37.76123],[-112.50504,37.76115],[-112.50513,37.76109],[-112.50531,37.76098],[-112.5054,37.76093],[-112.50551,37.76088],[-112.50566,37.76082],[-112.5058,37.76077],[-112.50593,37.76073],[-112.50608,37.76069],[-112.50623,37.76066],[-112.50635,37.76064],[-112.5065,37.76063],[-112.50663,37.76062],[-112.50675,37.76061],[-112.50681,37.76062],[-112.50703,37.76064],[-112.50704,37.76064],[-112.5076,37.76068],[-112.50851,37.76103],[-112.50892,37.76121],[-112.50932,37.76138],[-112.50952,37.76146],[-112.50952,37.76147],[-112.50962,37.76151],[-112.50973,37.76153],[-112.50995,37.76157],[-112.5101,37.7616],[-112.51053,37.76163],[-112.51108,37.76164],[-112.51109,37.76164],[-112.51122,37.76164],[-112.51153,37.76157],[-112.51171,37.76154],[-112.51175,37.76152],[-112.51236,37.76128],[-112.5127,37.76115],[-112.51315,37.76102],[-112.51359,37.76096],[-112.51395,37.76098],[-112.5141,37.76101],[-112.5143,37.76104],[-112.51472,37.76121],[-112.51473,37.76121],[-112.51513,37.76138],[-112.51533,37.76146],[-112.51538,37.76149],[-112.51674,37.76207],[-112.51687,37.76212],[-112.51714,37.76221],[-112.51724,37.76225],[-112.51735,37.76228],[-112.51751,37.76232],[-112.51771,37.76237],[-112.51778,37.76239],[-112.5179,37.76242],[-112.51824,37.76248],[-112.51845,37.76251],[-112.51851,37.76252],[-112.51868,37.76254],[-112.51888,37.76256],[-112.5191,37.76258],[-112.51912,37.76258],[-112.51932,37.76259],[-112.51935,37.76259],[-112.51936,37.76259],[-112.51963,37.76259],[-112.51991,37.76259],[-112.52032,37.76257],[-112.52094,37.76254],[-112.52095,37.76254],[-112.52102,37.76253],[-112.52117,37.76252],[-112.52162,37.7625],[-112.52163,37.7625],[-112.52185,37.76249],[-112.52213,37.76247],[-112.5223,37.76246],[-112.52231,37.76246],[-112.52254,37.76245],[-112.52362,37.76239],[-112.52367,37.76239],[-112.52412,37.76237],[-112.52412,37.76236],[-112.52457,37.76234],[-112.52476,37.76233],[-112.52481,37.76233],[-112.52503,37.76234],[-112.52508,37.76234],[-112.52526,37.76235],[-112.52547,37.76237],[-112.52577,37.76239],[-112.52594,37.7624],[-112.52601,37.76241],[-112.52616,37.76243],[-112.52638,37.76247],[-112.52661,37.76252],[-112.52682,37.76257],[-112.52701,37.76261],[-112.52721,37.76267],[-112.52746,37.76275],[-112.52777,37.76286],[-112.528,37.76295],[-112.52841,37.76314],[-112.52869,37.76329],[-112.52889,37.76341],[-112.52905,37.7635],[-112.52934,37.7637],[-112.52953,37.76383],[-112.52986,37.76406],[-112.52989,37.76409],[-112.52993,37.76411],[-112.52998,37.76415],[-112.5309,37.76481],[-112.53107,37.76494],[-112.53139,37.76516],[-112.53141,37.76518],[-112.53157,37.7653],[-112.53174,37.76542],[-112.53186,37.76552],[-112.53205,37.76568],[-112.53234,37.76593],[-112.5326,37.76617],[-112.53281,37.76636],[-112.53296,37.76648],[-112.53315,37.76664],[-112.53324,37.76671],[-112.53328,37.76674],[-112.53333,37.76678],[-112.53342,37.76684],[-112.53346,37.76686],[-112.53352,37.7669],[-112.53361,37.76695],[-112.53373,37.76701],[-112.53391,37.76709],[-112.53407,37.76715],[-112.53423,37.7672],[-112.53436,37.76724],[-112.5345,37.76728],[-112.53468,37.76731],[-112.53485,37.76734],[-112.53491,37.76735],[-112.53502,37.76736],[-112.53513,37.76738],[-112.53517,37.76738],[-112.5353,37.76739],[-112.53552,37.7674],[-112.53582,37.76741],[-112.53641,37.76744],[-112.53672,37.76745],[-112.53674,37.76745],[-112.53718,37.76746],[-112.53722,37.76747],[-112.53749,37.76747],[-112.53763,37.76748],[-112.53767,37.76748],[-112.53788,37.76749],[-112.53802,37.76749],[-112.53838,37.76749],[-112.5385,37.76749],[-112.53861,37.76749],[-112.53875,37.76748],[-112.5389,37.76747],[-112.53904,37.76746],[-112.53927,37.76744],[-112.53947,37.76741],[-112.53951,37.7674],[-112.53983,37.76735],[-112.54004,37.76732],[-112.5401,37.76731],[-112.54036,37.76727],[-112.54056,37.76724],[-112.54077,37.76721],[-112.54096,37.76718],[-112.54122,37.76715],[-112.5413,37.76714],[-112.54136,37.76714],[-112.54149,37.76713],[-112.5416,37.76712],[-112.54173,37.76712],[-112.54175,37.76712],[-112.54176,37.76712],[-112.54189,37.76712],[-112.54198,37.76712],[-112.54214,37.76712],[-112.54221,37.76713],[-112.54227,37.76713],[-112.54243,37.76714],[-112.54244,37.76715],[-112.54259,37.76716],[-112.54268,37.76717],[-112.54276,37.76718],[-112.54289,37.7672],[-112.5431,37.76723],[-112.54311,37.76723],[-112.5432,37.76722],[-112.54332,37.76726],[-112.5436,37.76729],[-112.5438,37.76732],[-112.5441,37.76736],[-112.54423,37.76738],[-112.54431,37.7674],[-112.54445,37.76741],[-112.5449,37.76748],[-112.54511,37.7675],[-112.54535,37.76754],[-112.54537,37.76754],[-112.54556,37.76759],[-112.54571,37.76758],[-112.54599,37.7676],[-112.54619,37.76764],[-112.54647,37.76768],[-112.54663,37.7677],[-112.54678,37.76771],[-112.54694,37.76772],[-112.54719,37.76774],[-112.54727,37.76776],[-112.54738,37.76775],[-112.54761,37.76772],[-112.54777,37.76772],[-112.54788,37.76771],[-112.54799,37.7677],[-112.54812,37.76768],[-112.54822,37.76767],[-112.54837,37.76765],[-112.54849,37.76763],[-112.54856,37.76762],[-112.54857,37.76762],[-112.54881,37.7676],[-112.5489,37.76755],[-112.549,37.76753],[-112.54915,37.76749],[-112.54937,37.76743],[-112.54943,37.76741],[-112.54955,37.76737],[-112.54973,37.76731],[-112.54991,37.76724],[-112.55004,37.76718],[-112.55005,37.76717],[-112.55007,37.76716],[-112.55027,37.76707],[-112.5505,37.76694],[-112.55068,37.76684],[-112.55084,37.76674],[-112.55104,37.7666],[-112.55114,37.76654],[-112.55114,37.76653],[-112.5513,37.76642],[-112.5525,37.76559],[-112.55251,37.76558],[-112.55252,37.76557],[-112.55327,37.76505],[-112.55369,37.76475],[-112.55369,37.76474],[-112.55391,37.76459],[-112.55454,37.76415],[-112.55455,37.76415],[-112.55488,37.76391],[-112.55489,37.76391],[-112.55523,37.76367],[-112.55556,37.76344],[-112.55557,37.76343],[-112.55593,37.76318],[-112.55619,37.763],[-112.55629,37.76294],[-112.55676,37.76262],[-112.55712,37.76237],[-112.55731,37.76224],[-112.55766,37.762],[-112.55767,37.76199],[-112.55783,37.76188],[-112.55808,37.76172],[-112.55818,37.76165],[-112.55835,37.76154],[-112.55848,37.76145],[-112.55868,37.76131],[-112.5587,37.7613],[-112.55895,37.76112],[-112.5591,37.761],[-112.55921,37.7609],[-112.55929,37.76082],[-112.55932,37.76078],[-112.55938,37.76071],[-112.55944,37.76062],[-112.55951,37.76051],[-112.55964,37.76022],[-112.55999,37.75945],[-112.56006,37.75928],[-112.56024,37.75888],[-112.56039,37.75857],[-112.56056,37.75827],[-112.56065,37.75811],[-112.56072,37.75798],[-112.561,37.75761],[-112.5613,37.75724],[-112.56147,37.75703],[-112.56152,37.75697],[-112.56172,37.75673],[-112.56174,37.7567],[-112.5621,37.75628],[-112.56272,37.75553],[-112.56282,37.75541],[-112.56294,37.75527],[-112.56295,37.75527],[-112.56307,37.75512],[-112.56319,37.75498],[-112.56353,37.75458],[-112.56372,37.75435],[-112.56383,37.75422],[-112.56396,37.75407],[-112.56401,37.75401],[-112.56409,37.75392],[-112.56422,37.75378],[-112.56423,37.75377],[-112.56434,37.75365],[-112.56447,37.75352],[-112.5645,37.75349],[-112.56456,37.75344],[-112.56462,37.75339],[-112.56466,37.75336],[-112.56467,37.75335],[-112.56482,37.75324],[-112.56499,37.75312],[-112.56504,37.75308],[-112.56521,37.75297],[-112.56534,37.75289],[-112.56548,37.75282],[-112.5658,37.75264],[-112.56584,37.75262],[-112.56609,37.75249],[-112.56622,37.75242],[-112.56648,37.75229],[-112.56691,37.75206],[-112.56723,37.75189],[-112.56735,37.75182],[-112.56751,37.75177],[-112.56756,37.75174],[-112.56775,37.75164],[-112.56793,37.75154],[-112.56829,37.75134],[-112.5685,37.75123],[-112.56852,37.75122],[-112.56868,37.75113],[-112.56878,37.75107],[-112.56898,37.75094],[-112.56911,37.75085],[-112.56926,37.75072],[-112.56935,37.75064],[-112.56937,37.75062],[-112.56947,37.75051],[-112.56954,37.75042],[-112.56961,37.75032],[-112.56966,37.75022],[-112.56973,37.75005],[-112.56987,37.7497],[-112.56994,37.74956],[-112.57001,37.74944],[-112.57008,37.74932],[-112.57015,37.74923],[-112.57016,37.74922],[-112.57022,37.74914],[-112.57032,37.74904],[-112.57042,37.74895],[-112.57054,37.74887],[-112.57062,37.74882],[-112.57068,37.74878],[-112.57085,37.7487],[-112.57098,37.74864],[-112.571,37.74863],[-112.57111,37.74859],[-112.57122,37.74857],[-112.57135,37.74854],[-112.57156,37.74851],[-112.57174,37.74849],[-112.57192,37.74848],[-112.57228,37.74845],[-112.57273,37.74842],[-112.57309,37.7484],[-112.57319,37.7484],[-112.57342,37.74839],[-112.57358,37.74838],[-112.57387,37.74836],[-112.57432,37.74834],[-112.5747,37.74832],[-112.57484,37.74831],[-112.5752,37.74828],[-112.57523,37.74828],[-112.57536,37.74827],[-112.57562,37.74825],[-112.57574,37.74823],[-112.5759,37.74821],[-112.57596,37.7482],[-112.57619,37.74816],[-112.57643,37.7481],[-112.57656,37.74806],[-112.57662,37.74804],[-112.57674,37.748],[-112.57687,37.74795],[-112.57701,37.7479],[-112.57716,37.74784],[-112.57735,37.74775],[-112.57754,37.74766],[-112.57757,37.74765],[-112.57791,37.74749],[-112.57796,37.74747],[-112.57826,37.74733],[-112.57855,37.74719],[-112.57859,37.74717],[-112.57891,37.74703],[-112.57915,37.74693],[-112.57928,37.74688],[-112.57935,37.74686],[-112.57953,37.7468],[-112.57969,37.74675],[-112.57986,37.74671],[-112.58003,37.74668],[-112.58016,37.74666],[-112.58022,37.74665],[-112.5803,37.74664],[-112.58045,37.74663],[-112.5806,37.74662],[-112.5809,37.74661],[-112.58091,37.74661],[-112.58136,37.74659],[-112.58178,37.74658],[-112.58204,37.74657],[-112.58356,37.74653],[-112.58363,37.74653],[-112.58433,37.7465],[-112.58466,37.74649],[-112.58476,37.74648],[-112.58484,37.74647],[-112.58499,37.74645],[-112.58503,37.74644],[-112.58518,37.74642],[-112.58533,37.74639],[-112.58558,37.74632],[-112.58564,37.7463],[-112.5858,37.74624],[-112.58585,37.74622],[-112.58595,37.74618],[-112.58612,37.7461],[-112.58639,37.74594],[-112.58641,37.74592],[-112.58658,37.7458],[-112.58678,37.74566],[-112.58722,37.74532],[-112.58771,37.74494],[-112.58786,37.74482],[-112.58807,37.74465],[-112.58847,37.74434],[-112.58867,37.7442],[-112.58897,37.744],[-112.58962,37.7436],[-112.58963,37.74359],[-112.5898,37.74349],[-112.58981,37.74348],[-112.5899,37.74341],[-112.58996,37.74335],[-112.59007,37.74322],[-112.59008,37.74321],[-112.59013,37.74313],[-112.59022,37.74298],[-112.59029,37.74282],[-112.59031,37.74272],[-112.59032,37.7427],[-112.59034,37.7426],[-112.59035,37.74253],[-112.59037,37.74235],[-112.59042,37.74199],[-112.59045,37.74174],[-112.59051,37.74127],[-112.59055,37.74092],[-112.59069,37.73984],[-112.5907,37.73973],[-112.59071,37.73966],[-112.59073,37.73948],[-112.59074,37.73944],[-112.59076,37.7393],[-112.59077,37.73924],[-112.59079,37.73913],[-112.5908,37.73909],[-112.59088,37.73877],[-112.59094,37.73858],[-112.59098,37.73848],[-112.59103,37.73837],[-112.59107,37.7383],[-112.5911,37.73824],[-112.59115,37.73814],[-112.59118,37.73809],[-112.59136,37.73782],[-112.59136,37.73781],[-112.59145,37.73769],[-112.59147,37.73766],[-112.59153,37.73757],[-112.59158,37.7375],[-112.59159,37.73749],[-112.59163,37.73743],[-112.59168,37.73738],[-112.5917,37.73735],[-112.59178,37.73726],[-112.59188,37.73718],[-112.59198,37.73711],[-112.59201,37.73709],[-112.59211,37.73704],[-112.59219,37.737],[-112.59227,37.73697],[-112.59242,37.73693],[-112.59244,37.73692],[-112.59263,37.73687],[-112.59274,37.73683],[-112.59283,37.73681],[-112.59291,37.73678],[-112.59298,37.73674],[-112.59306,37.7367],[-112.59322,37.7366],[-112.59336,37.73648],[-112.59337,37.73647],[-112.59349,37.73632],[-112.59357,37.73623],[-112.59368,37.73609],[-112.5938,37.73596],[-112.59387,37.7359],[-112.59393,37.73585],[-112.59401,37.73579],[-112.59409,37.73574],[-112.59418,37.7357],[-112.59426,37.73567],[-112.59436,37.73564],[-112.59444,37.73562],[-112.59448,37.73562],[-112.59456,37.73561],[-112.59465,37.73561],[-112.59475,37.73561],[-112.59486,37.73562],[-112.59498,37.73565],[-112.59512,37.73568],[-112.59514,37.73569],[-112.59539,37.73578],[-112.59581,37.73597],[-112.59594,37.73604],[-112.596,37.73607],[-112.59613,37.73612],[-112.59626,37.73617],[-112.59637,37.73621],[-112.59648,37.73624],[-112.59656,37.73626],[-112.59662,37.73628],[-112.59673,37.7363],[-112.59688,37.73631],[-112.59703,37.73632],[-112.59719,37.73631],[-112.59737,37.73629],[-112.59767,37.73623],[-112.59789,37.73618],[-112.59799,37.73616],[-112.59829,37.7361],[-112.59862,37.73608],[-112.59887,37.73609],[-112.599,37.7361],[-112.59902,37.73611],[-112.59914,37.73612],[-112.59924,37.73614],[-112.59937,37.73618],[-112.59963,37.73625],[-112.60017,37.73641],[-112.60052,37.73651],[-112.60058,37.73652],[-112.60074,37.73656],[-112.60077,37.73657],[-112.60099,37.7366],[-112.6011,37.73662],[-112.60123,37.73663],[-112.60153,37.73662],[-112.60228,37.73658],[-112.60255,37.73656],[-112.60296,37.73653],[-112.60321,37.73651],[-112.60336,37.73649],[-112.60351,37.73646],[-112.60369,37.73643],[-112.60392,37.73637],[-112.60413,37.7363],[-112.60431,37.73624],[-112.60443,37.7362],[-112.60461,37.73612],[-112.60483,37.73602],[-112.6049,37.73598],[-112.605,37.73593],[-112.60516,37.73583],[-112.60523,37.73578],[-112.60529,37.73573],[-112.60535,37.73568],[-112.6054,37.73563],[-112.60544,37.73559],[-112.60547,37.73555],[-112.60552,37.7355],[-112.60555,37.73545],[-112.60558,37.73541],[-112.60565,37.73531],[-112.60568,37.73525],[-112.60572,37.73516],[-112.60579,37.73502],[-112.60588,37.73482],[-112.60594,37.73467],[-112.60607,37.73441],[-112.60619,37.73418],[-112.60625,37.73407],[-112.60633,37.73395],[-112.60645,37.7338],[-112.60655,37.73367],[-112.60661,37.7336],[-112.60666,37.73354],[-112.60669,37.73348],[-112.60672,37.73343],[-112.60675,37.73337],[-112.60675,37.73336],[-112.60678,37.73327],[-112.6068,37.73323],[-112.6068,37.73318],[-112.60681,37.73314],[-112.60682,37.73302],[-112.60681,37.73291],[-112.6068,37.73283],[-112.60678,37.73277],[-112.60672,37.73264],[-112.60667,37.73256],[-112.60663,37.73249],[-112.60657,37.7324],[-112.60653,37.73234],[-112.60633,37.7321],[-112.60621,37.73195],[-112.60605,37.73171],[-112.60596,37.73155],[-112.60593,37.73145],[-112.60591,37.73134],[-112.60589,37.73121],[-112.60589,37.7312],[-112.60588,37.73108],[-112.6059,37.73091],[-112.60591,37.73084],[-112.60592,37.7308],[-112.60601,37.73055],[-112.60611,37.73032],[-112.60613,37.73027],[-112.60624,37.73007],[-112.6064,37.72982],[-112.60651,37.72968],[-112.60661,37.72958],[-112.60676,37.72944],[-112.60681,37.72941],[-112.60686,37.72937],[-112.60698,37.72929],[-112.607,37.72928],[-112.60717,37.72919],[-112.60729,37.72911],[-112.60743,37.72904],[-112.60766,37.72892],[-112.60812,37.72869],[-112.6083,37.72859],[-112.6085,37.7285],[-112.60863,37.72843],[-112.60876,37.72836],[-112.609,37.72824],[-112.60916,37.72815],[-112.60938,37.72802],[-112.60943,37.72799],[-112.60959,37.72788],[-112.60961,37.72787],[-112.60969,37.72782],[-112.60982,37.72772],[-112.60992,37.72765],[-112.6101,37.72749],[-112.61024,37.72735],[-112.61042,37.72718],[-112.61062,37.72697],[-112.61066,37.72693],[-112.61084,37.72674],[-112.61094,37.72665],[-112.61107,37.72651],[-112.61107,37.7265],[-112.61121,37.72636],[-112.61138,37.72619],[-112.61149,37.72608],[-112.61191,37.72565],[-112.61196,37.7256],[-112.61213,37.72543],[-112.61219,37.72537],[-112.6124,37.72517],[-112.61256,37.725],[-112.61261,37.72494],[-112.61291,37.72465],[-112.61303,37.72452],[-112.61324,37.72431],[-112.61333,37.72422],[-112.61349,37.72405],[-112.61368,37.72386],[-112.61375,37.72379],[-112.61382,37.72373],[-112.61388,37.72367],[-112.61392,37.72363],[-112.61402,37.72355],[-112.6142,37.7234],[-112.61424,37.72337],[-112.61429,37.72333],[-112.61438,37.72327],[-112.6145,37.72319],[-112.61457,37.72315],[-112.61458,37.72314],[-112.61468,37.72308],[-112.61476,37.72303],[-112.61477,37.72302],[-112.61489,37.72295],[-112.61494,37.72292],[-112.61498,37.7229],[-112.6151,37.72284],[-112.61526,37.72276],[-112.61538,37.7227],[-112.61545,37.72267],[-112.61552,37.72263],[-112.61556,37.72261],[-112.61562,37.72259],[-112.61578,37.72253],[-112.61589,37.72249],[-112.61609,37.72242],[-112.61628,37.72236],[-112.61635,37.72234],[-112.61647,37.72231],[-112.61659,37.72227],[-112.61673,37.72224],[-112.61686,37.7222],[-112.61707,37.72216],[-112.61722,37.72213],[-112.61731,37.72212],[-112.61736,37.72211],[-112.61743,37.7221],[-112.61744,37.7221],[-112.61757,37.72209],[-112.61767,37.72208],[-112.6177,37.72208],[-112.61789,37.72206],[-112.61799,37.72205],[-112.61813,37.72205],[-112.61835,37.72204],[-112.61851,37.72204],[-112.61858,37.72204],[-112.61866,37.72205],[-112.6188,37.72205],[-112.61891,37.72206],[-112.61906,37.72207],[-112.6192,37.72208],[-112.61942,37.7221],[-112.61948,37.72211],[-112.61971,37.72214],[-112.61981,37.72216],[-112.61986,37.72217],[-112.62049,37.72233],[-112.62057,37.72236],[-112.62078,37.72243],[-112.62098,37.7225],[-112.62144,37.72267],[-112.62161,37.72273],[-112.62181,37.72281],[-112.62204,37.7229],[-112.62261,37.7231],[-112.62315,37.72331],[-112.62325,37.72334],[-112.62348,37.72343],[-112.62367,37.72348],[-112.62372,37.72349],[-112.62396,37.72353],[-112.62417,37.72355],[-112.62435,37.72355],[-112.62442,37.72354],[-112.62456,37.72353],[-112.62479,37.72348],[-112.62479,37.72348],[-112.62484,37.72357],[-112.62486,37.7236],[-112.62487,37.72363],[-112.62484,37.72371],[-112.62477,37.72379],[-112.62474,37.72381],[-112.62467,37.72388],[-112.62456,37.72398],[-112.62441,37.72411],[-112.62432,37.72419],[-112.6242,37.72429],[-112.62416,37.72432],[-112.62386,37.72453],[-112.6236,37.72471],[-112.62347,37.72479],[-112.62345,37.7248],[-112.62339,37.72483],[-112.62325,37.72492],[-112.62309,37.72499],[-112.62305,37.725],[-112.62285,37.72507],[-112.62256,37.72515],[-112.62245,37.72518],[-112.62242,37.72518],[-112.62224,37.72524],[-112.62205,37.72531],[-112.62183,37.7254],[-112.62164,37.72548],[-112.62145,37.72563],[-112.62138,37.72574],[-112.62137,37.7258],[-112.62134,37.72589],[-112.62133,37.72597],[-112.62133,37.72598],[-112.62134,37.72605],[-112.62135,37.72616],[-112.62136,37.72625],[-112.62138,37.72634],[-112.6214,37.72646],[-112.62142,37.72651],[-112.62144,37.72661],[-112.62146,37.72669],[-112.62148,37.72674],[-112.6215,37.72687],[-112.62151,37.72695],[-112.62152,37.727],[-112.62151,37.72705],[-112.6215,37.72711],[-112.62148,37.72717],[-112.62146,37.72722],[-112.62143,37.72726],[-112.62139,37.72732],[-112.62135,37.72737],[-112.62134,37.72738],[-112.62128,37.72745],[-112.62117,37.72755],[-112.62104,37.72763],[-112.62104,37.72764],[-112.62093,37.72771],[-112.62085,37.72775],[-112.62075,37.7278],[-112.62067,37.72785],[-112.62052,37.72795],[-112.62049,37.72796],[-112.62033,37.72805],[-112.6203,37.72806],[-112.62017,37.72815],[-112.62012,37.72817],[-112.62003,37.72823],[-112.61995,37.72829],[-112.61994,37.7283],[-112.61991,37.72834],[-112.6199,37.72838],[-112.6199,37.72845],[-112.6199,37.72846],[-112.61992,37.7285],[-112.61995,37.72855],[-112.61998,37.7286],[-112.62019,37.72861],[-112.62021,37.72861],[-112.62023,37.72861],[-112.62044,37.72862],[-112.62046,37.72862],[-112.62049,37.72862],[-112.62089,37.72862],[-112.62092,37.72862],[-112.62128,37.72862],[-112.62173,37.72862],[-112.62215,37.72861],[-112.62259,37.7286],[-112.62281,37.72859],[-112.62283,37.72858],[-112.62306,37.72858],[-112.62334,37.72859],[-112.6235,37.72863],[-112.62364,37.72871],[-112.6238,37.72886],[-112.62381,37.72888],[-112.62393,37.72903],[-112.62405,37.72918],[-112.62407,37.7292],[-112.62419,37.72933],[-112.62429,37.72944],[-112.62433,37.72947],[-112.6245,37.72961],[-112.62468,37.72969],[-112.62476,37.72968],[-112.62483,37.72969],[-112.62496,37.72965],[-112.62509,37.7296],[-112.62516,37.72957],[-112.62519,37.72955],[-112.62528,37.72945],[-112.62533,37.72933],[-112.62533,37.72926],[-112.62532,37.72909],[-112.6253,37.72898],[-112.62531,37.72885],[-112.62531,37.72872],[-112.62532,37.72872],[-112.62535,37.7286],[-112.62541,37.72853],[-112.62554,37.72841],[-112.62574,37.72833],[-112.62605,37.72826],[-112.6264,37.72818],[-112.62644,37.72817],[-112.62678,37.72808],[-112.62713,37.72797],[-112.62756,37.72787],[-112.62783,37.72776],[-112.62788,37.72773],[-112.62806,37.72762],[-112.62818,37.72755],[-112.62844,37.72728],[-112.62864,37.72705],[-112.62877,37.72692],[-112.62891,37.72678],[-112.62891,37.72677],[-112.62926,37.72656],[-112.62926,37.72656],[-112.62968,37.72638],[-112.63003,37.72626],[-112.63008,37.72625],[-112.63048,37.72619],[-112.63062,37.72621],[-112.63086,37.72625],[-112.63092,37.72627],[-112.63115,37.72636],[-112.63139,37.72647],[-112.6316,37.72657],[-112.63191,37.72672],[-112.63193,37.72672],[-112.63207,37.72678],[-112.63211,37.72679],[-112.63216,37.7268],[-112.63226,37.7268],[-112.63233,37.72678],[-112.63243,37.72671],[-112.63246,37.72665],[-112.63247,37.72664],[-112.63248,37.7266],[-112.63247,37.72655],[-112.63245,37.72646],[-112.63237,37.72629],[-112.63229,37.72613],[-112.63226,37.72599],[-112.63225,37.72595],[-112.63224,37.72587],[-112.63225,37.72577],[-112.63225,37.72576],[-112.63229,37.72565],[-112.63232,37.7256],[-112.63234,37.72555],[-112.63243,37.72544],[-112.63246,37.7254],[-112.63262,37.72526],[-112.6329,37.72506],[-112.63299,37.72499],[-112.63307,37.72493],[-112.63322,37.72481],[-112.63336,37.72466],[-112.63343,37.72459],[-112.63348,37.72451],[-112.63362,37.72427],[-112.63366,37.72418],[-112.63374,37.72401],[-112.63376,37.72398],[-112.63382,37.72384],[-112.63389,37.72369],[-112.63403,37.72347],[-112.63412,37.72333],[-112.63423,37.7232],[-112.63424,37.72319],[-112.63441,37.72303],[-112.63453,37.72294],[-112.63461,37.72287],[-112.63486,37.72272],[-112.63522,37.72254],[-112.63562,37.72249],[-112.63567,37.72248],[-112.6359,37.72247],[-112.63605,37.72246],[-112.63688,37.72238],[-112.63749,37.72232],[-112.6377,37.72231],[-112.63776,37.7223],[-112.63791,37.7223],[-112.63797,37.7223],[-112.63804,37.72231],[-112.6383,37.72236],[-112.6385,37.72241],[-112.63868,37.72244],[-112.63872,37.72245],[-112.63912,37.72253],[-112.63937,37.72258],[-112.63953,37.7226],[-112.63961,37.7226],[-112.63962,37.7226],[-112.6397,37.72259],[-112.63977,37.72257],[-112.63983,37.72255],[-112.63988,37.72253],[-112.64002,37.72244],[-112.64012,37.72235],[-112.64025,37.72221],[-112.64034,37.72213],[-112.64042,37.72207],[-112.64052,37.72204],[-112.64067,37.72201],[-112.64104,37.72202],[-112.64115,37.72203],[-112.64138,37.72204],[-112.64146,37.72204],[-112.64168,37.72205],[-112.64182,37.72205],[-112.64206,37.72203],[-112.64219,37.72201],[-112.64228,37.722],[-112.64237,37.72199],[-112.64261,37.72198],[-112.64273,37.72199],[-112.64295,37.72201],[-112.64296,37.72201],[-112.64315,37.72203],[-112.6433,37.72205],[-112.64341,37.72204],[-112.64343,37.72204],[-112.64355,37.72203],[-112.64366,37.722],[-112.64379,37.72197],[-112.64385,37.72197],[-112.64391,37.72197],[-112.64401,37.72199],[-112.64416,37.72205],[-112.64433,37.72211],[-112.64441,37.72212],[-112.64452,37.72213],[-112.64463,37.72213],[-112.64481,37.72214],[-112.64495,37.72214],[-112.64508,37.72214],[-112.64518,37.72216],[-112.64523,37.72217],[-112.64547,37.72228],[-112.64556,37.72235],[-112.64571,37.72245],[-112.64573,37.72247],[-112.64628,37.7229],[-112.64676,37.72337],[-112.64689,37.72357],[-112.647,37.72372],[-112.64702,37.72376],[-112.64732,37.72404],[-112.64776,37.72432],[-112.64798,37.72446],[-112.64816,37.72458],[-112.64822,37.72461],[-112.64829,37.72472],[-112.6484,37.72488],[-112.64851,37.72503],[-112.64854,37.72508],[-112.64873,37.72535],[-112.64891,37.7256]]}}]}