{"type":"FeatureCollection","features":[{"type":"Feature","properties":{"_gpxType":"trk","name":"425 East Liberty Street, Medina, OH - 1991 Eby Rd - Turkey Hollow Campground, Township Road 102, Millersburg, OH","coordinateProperties":{},"id":9},"geometry":{"type":"LineString","coordinates":[[-81.85758,41.13913],[-81.85664,41.13913],[-81.85664,41.13913],[-81.85664,41.13877],[-81.85664,41.13859],[-81.85663,41.13804],[-81.85663,41.1377],[-81.85663,41.13752],[-81.85663,41.1368],[-81.85663,41.13662],[-81.85663,41.13626],[-81.85663,41.13626],[-81.85759,41.13626],[-81.85779,41.13626],[-81.85806,41.13626],[-81.85851,41.13626],[-81.8592,41.13626],[-81.8597,41.13626],[-81.85991,41.13626],[-81.8603,41.13626],[-81.86053,41.13626],[-81.86105,41.13626],[-81.86125,41.13626],[-81.86136,41.13626],[-81.86163,41.13626],[-81.86176,41.13626],[-81.86214,41.13626],[-81.86222,41.13626],[-81.86261,41.13626],[-81.86304,41.13626],[-81.86339,41.13626],[-81.86359,41.13626],[-81.86379,41.13626],[-81.86401,41.13626],[-81.86469,41.13626],[-81.86496,41.13626],[-81.86517,41.13626],[-81.86544,41.13626],[-81.86603,41.13626],[-81.8666,41.13626],[-81.86696,41.13626],[-81.867,41.13626],[-81.86711,41.13626],[-81.86728,41.13626],[-81.86779,41.13627],[-81.86797,41.13627],[-81.8683,41.13626],[-81.86855,41.13626],[-81.86951,41.13625],[-81.86963,41.13625],[-81.87002,41.13625],[-81.8701,41.13625],[-81.87022,41.13625],[-81.87092,41.13625],[-81.87126,41.13625],[-81.87161,41.13624],[-81.87184,41.13624],[-81.87187,41.13624],[-81.872,41.13624],[-81.87219,41.13624],[-81.87259,41.13623],[-81.87272,41.13623],[-81.87298,41.13623],[-81.87318,41.13623],[-81.87332,41.13623],[-81.87332,41.13623],[-81.87345,41.13598],[-81.8736,41.13568],[-81.87372,41.13545],[-81.87376,41.13536],[-81.8739,41.13509],[-81.87412,41.13466],[-81.8743,41.13432],[-81.87445,41.13403],[-81.8745,41.13394],[-81.87463,41.13367],[-81.87467,41.13361],[-81.87469,41.13356],[-81.87474,41.13347],[-81.87474,41.13323],[-81.87474,41.13314],[-81.87474,41.13307],[-81.87474,41.13296],[-81.87474,41.13215],[-81.87474,41.13152],[-81.87474,41.13132],[-81.87473,41.13108],[-81.87473,41.13091],[-81.87473,41.13091],[-81.87537,41.13066],[-81.87537,41.13066],[-81.87537,41.12994],[-81.87537,41.12976],[-81.87538,41.12887],[-81.87538,41.12803],[-81.87539,41.12767],[-81.87539,41.12708],[-81.8754,41.12641],[-81.8754,41.12636],[-81.8754,41.12623],[-81.87541,41.12516],[-81.87541,41.12475],[-81.87542,41.12395],[-81.87544,41.12387],[-81.87544,41.12386],[-81.87548,41.12378],[-81.87554,41.12369],[-81.87561,41.12362],[-81.87586,41.12344],[-81.87603,41.12331],[-81.87625,41.12315],[-81.87631,41.12309],[-81.87636,41.12301],[-81.8764,41.12294],[-81.87642,41.12285],[-81.87642,41.12252],[-81.87643,41.12198],[-81.87644,41.1218],[-81.87644,41.12126],[-81.87645,41.12108],[-81.87645,41.1209],[-81.87645,41.12085],[-81.87648,41.12075],[-81.87649,41.12072],[-81.87652,41.12065],[-81.87659,41.12055],[-81.87665,41.12048],[-81.87673,41.12041],[-81.87673,41.12041],[-81.87687,41.12049],[-81.87699,41.12054],[-81.87711,41.12058],[-81.87726,41.12061],[-81.87741,41.12063],[-81.87762,41.12063],[-81.87786,41.12063],[-81.87857,41.12063],[-81.87917,41.12063],[-81.8795,41.12064],[-81.87964,41.12064],[-81.87965,41.12064],[-81.88036,41.12063],[-81.8806,41.12063],[-81.88083,41.12063],[-81.88098,41.12063],[-81.88107,41.12062],[-81.88115,41.1206],[-81.88132,41.12055],[-81.88153,41.12048],[-81.8816,41.12046],[-81.8817,41.12044],[-81.88176,41.12043],[-81.88185,41.12042],[-81.882,41.12041],[-81.88293,41.12041],[-81.88369,41.12041],[-81.88392,41.12041],[-81.88392,41.12041],[-81.88393,41.11974],[-81.88393,41.11942],[-81.88393,41.11936],[-81.88393,41.11923],[-81.88393,41.11867],[-81.88393,41.11821],[-81.88392,41.11777],[-81.88392,41.11742],[-81.88392,41.11703],[-81.88393,41.11685],[-81.88393,41.11559],[-81.88393,41.1153],[-81.88393,41.1148],[-81.88392,41.11433],[-81.88392,41.1139],[-81.88392,41.11354],[-81.88392,41.11336],[-81.88392,41.1132],[-81.88392,41.11285],[-81.88392,41.11213],[-81.88392,41.11202],[-81.88392,41.11184],[-81.88392,41.11177],[-81.88392,41.11112],[-81.88392,41.10979],[-81.88392,41.10978],[-81.88392,41.10971],[-81.88392,41.10906],[-81.88392,41.10872],[-81.88392,41.10836],[-81.88392,41.10834],[-81.88392,41.10674],[-81.88392,41.10659],[-81.88392,41.10651],[-81.88392,41.106],[-81.88393,41.10549],[-81.88393,41.10528],[-81.88393,41.1051],[-81.88394,41.10441],[-81.88394,41.10352],[-81.88395,41.10315],[-81.88395,41.10298],[-81.88395,41.10279],[-81.88395,41.10248],[-81.88395,41.10213],[-81.88396,41.10194],[-81.88396,41.10189],[-81.88396,41.10158],[-81.88396,41.10153],[-81.88396,41.1014],[-81.88397,41.10104],[-81.88398,41.10032],[-81.88398,41.10027],[-81.88398,41.09986],[-81.88398,41.09974],[-81.88399,41.09932],[-81.884,41.09872],[-81.884,41.09854],[-81.884,41.09842],[-81.884,41.09836],[-81.884,41.09824],[-81.884,41.09818],[-81.88401,41.09752],[-81.88401,41.09746],[-81.88402,41.09716],[-81.88402,41.0971],[-81.88402,41.09698],[-81.88402,41.09692],[-81.88402,41.0968],[-81.88402,41.09667],[-81.88403,41.09656],[-81.88403,41.09644],[-81.88403,41.09639],[-81.88403,41.09626],[-81.88404,41.09621],[-81.88404,41.0959],[-81.88405,41.09572],[-81.88405,41.09567],[-81.88405,41.09554],[-81.88405,41.09549],[-81.88405,41.09543],[-81.88406,41.09518],[-81.88406,41.09513],[-81.88406,41.09477],[-81.88406,41.09465],[-81.88406,41.09459],[-81.88406,41.09405],[-81.88406,41.09393],[-81.88406,41.09361],[-81.88406,41.09357],[-81.88406,41.09351],[-81.88406,41.09339],[-81.88407,41.09333],[-81.88407,41.09321],[-81.88407,41.09315],[-81.88407,41.09303],[-81.88407,41.09297],[-81.88407,41.09285],[-81.88407,41.09279],[-81.88407,41.09267],[-81.88407,41.09265],[-81.88407,41.09225],[-81.88408,41.09213],[-81.88408,41.09177],[-81.88408,41.09171],[-81.88409,41.09119],[-81.88409,41.09105],[-81.88409,41.09099],[-81.88408,41.09087],[-81.88408,41.09081],[-81.88408,41.09069],[-81.88408,41.09063],[-81.88408,41.0906],[-81.88409,41.09015],[-81.88409,41.09009],[-81.88409,41.08991],[-81.88409,41.08979],[-81.88409,41.08973],[-81.88409,41.08961],[-81.8841,41.08937],[-81.8841,41.08927],[-81.8841,41.08925],[-81.8841,41.08913],[-81.8841,41.08907],[-81.88411,41.08853],[-81.88411,41.08851],[-81.88411,41.08832],[-81.88411,41.08821],[-81.88412,41.08793],[-81.88412,41.08779],[-81.88412,41.08732],[-81.88412,41.08727],[-81.88413,41.08686],[-81.88413,41.08673],[-81.88413,41.08655],[-81.88413,41.0865],[-81.88413,41.08637],[-81.88413,41.08601],[-81.88413,41.08583],[-81.88413,41.08565],[-81.88414,41.08511],[-81.88414,41.08493],[-81.88414,41.08483],[-81.88414,41.0848],[-81.88414,41.08462],[-81.88414,41.08444],[-81.88414,41.08443],[-81.88414,41.08436],[-81.88414,41.084],[-81.88415,41.08392],[-81.88415,41.0839],[-81.88415,41.08384],[-81.88416,41.08381],[-81.88416,41.08373],[-81.88417,41.08366],[-81.88418,41.08361],[-81.8842,41.08354],[-81.88421,41.08349],[-81.88422,41.08347],[-81.88425,41.08339],[-81.88428,41.08332],[-81.88431,41.08327],[-81.88435,41.08321],[-81.88435,41.0832],[-81.88438,41.08315],[-81.88445,41.08304],[-81.88454,41.08292],[-81.88456,41.08288],[-81.8846,41.08281],[-81.88465,41.08272],[-81.88471,41.08262],[-81.88474,41.08255],[-81.88474,41.08254],[-81.88479,41.08242],[-81.8848,41.08238],[-81.8848,41.08237],[-81.88482,41.0823],[-81.88484,41.08221],[-81.88485,41.08214],[-81.88486,41.08206],[-81.88486,41.08194],[-81.88486,41.08186],[-81.88486,41.08184],[-81.88486,41.08183],[-81.88487,41.08166],[-81.88488,41.08129],[-81.88488,41.08108],[-81.88488,41.08094],[-81.88488,41.08093],[-81.88489,41.08076],[-81.88489,41.08075],[-81.8849,41.0804],[-81.8849,41.08022],[-81.8849,41.08018],[-81.8849,41.07986],[-81.88491,41.07968],[-81.88491,41.0795],[-81.88491,41.07946],[-81.88491,41.07938],[-81.8849,41.07868],[-81.88491,41.07834],[-81.88491,41.07824],[-81.88491,41.07788],[-81.88491,41.0777],[-81.88491,41.0774],[-81.88491,41.07716],[-81.88492,41.07681],[-81.88492,41.07669],[-81.88493,41.07645],[-81.88493,41.07635],[-81.88494,41.07582],[-81.88493,41.07573],[-81.88493,41.07552],[-81.88493,41.07541],[-81.88493,41.07537],[-81.88492,41.07523],[-81.88492,41.07519],[-81.88488,41.07457],[-81.88486,41.07421],[-81.88484,41.07392],[-81.88484,41.0739],[-81.88483,41.07385],[-81.88483,41.07372],[-81.88482,41.07367],[-81.88481,41.07347],[-81.88478,41.073],[-81.88477,41.07282],[-81.88475,41.07258],[-81.8847,41.07185],[-81.88468,41.07143],[-81.88468,41.07142],[-81.88465,41.07092],[-81.88464,41.07084],[-81.88463,41.07066],[-81.88461,41.07039],[-81.88461,41.07031],[-81.88461,41.0703],[-81.88457,41.06977],[-81.88457,41.06969],[-81.88456,41.06959],[-81.88455,41.06941],[-81.88454,41.06931],[-81.88451,41.06895],[-81.8845,41.06887],[-81.8845,41.06885],[-81.8845,41.06877],[-81.88449,41.0687],[-81.88449,41.06859],[-81.88447,41.06841],[-81.88444,41.0679],[-81.88444,41.06779],[-81.88443,41.06769],[-81.8844,41.06711],[-81.8844,41.06708],[-81.88438,41.06689],[-81.88437,41.06671],[-81.88437,41.06669],[-81.88436,41.06654],[-81.88436,41.06636],[-81.88435,41.06635],[-81.88434,41.06617],[-81.88431,41.06562],[-81.88431,41.06546],[-81.88431,41.06545],[-81.8843,41.06528],[-81.88429,41.06511],[-81.88428,41.06508],[-81.88427,41.06491],[-81.88426,41.06475],[-81.88426,41.06474],[-81.88425,41.0646],[-81.88425,41.06457],[-81.88424,41.06439],[-81.88424,41.06438],[-81.88423,41.06423],[-81.88423,41.06421],[-81.88423,41.0642],[-81.88422,41.06405],[-81.88422,41.06403],[-81.88422,41.06402],[-81.88419,41.0638],[-81.88416,41.06366],[-81.88413,41.06349],[-81.88413,41.06348],[-81.88413,41.06347],[-81.8841,41.06331],[-81.88409,41.0633],[-81.88408,41.06324],[-81.88406,41.06314],[-81.88403,41.063],[-81.88402,41.06296],[-81.884,41.06291],[-81.88397,41.06278],[-81.88396,41.06277],[-81.88395,41.06272],[-81.88385,41.06242],[-81.88381,41.06234],[-81.88377,41.06225],[-81.88372,41.06215],[-81.88369,41.06208],[-81.88367,41.06204],[-81.88363,41.06195],[-81.88361,41.06188],[-81.88357,41.06177],[-81.88356,41.06174],[-81.88355,41.0617],[-81.88354,41.0616],[-81.88353,41.06156],[-81.88351,41.06136],[-81.88349,41.0612],[-81.88348,41.06111],[-81.88345,41.06084],[-81.88343,41.06066],[-81.88342,41.06059],[-81.88341,41.06049],[-81.88338,41.06031],[-81.88337,41.06021],[-81.88336,41.06013],[-81.88331,41.05977],[-81.88331,41.05972],[-81.8833,41.05967],[-81.88329,41.05959],[-81.88327,41.05938],[-81.88324,41.05914],[-81.88324,41.05913],[-81.88323,41.05905],[-81.88322,41.05898],[-81.88321,41.05897],[-81.8832,41.05887],[-81.88319,41.05878],[-81.88316,41.05861],[-81.88314,41.05843],[-81.88314,41.05842],[-81.88313,41.05834],[-81.88312,41.05825],[-81.88311,41.0582],[-81.8831,41.05816],[-81.88309,41.05807],[-81.88308,41.05801],[-81.88304,41.05782],[-81.88302,41.05772],[-81.88302,41.05771],[-81.88298,41.05755],[-81.88296,41.05745],[-81.88295,41.05742],[-81.88294,41.05736],[-81.88291,41.05725],[-81.88287,41.05709],[-81.88282,41.05692],[-81.88272,41.05655],[-81.88268,41.05639],[-81.88266,41.05631],[-81.88263,41.05619],[-81.88253,41.05579],[-81.88247,41.05554],[-81.88246,41.0555],[-81.88239,41.05526],[-81.88232,41.05496],[-81.8823,41.05488],[-81.88227,41.0548],[-81.88223,41.05462],[-81.88223,41.05461],[-81.88218,41.05445],[-81.88218,41.05443],[-81.88214,41.05427],[-81.88213,41.05425],[-81.88198,41.05363],[-81.88196,41.05356],[-81.88195,41.05355],[-81.88194,41.05349],[-81.88191,41.0534],[-81.88191,41.05339],[-81.88189,41.05332],[-81.88177,41.05283],[-81.88173,41.05268],[-81.88172,41.05265],[-81.88162,41.05227],[-81.88158,41.05212],[-81.88154,41.05197],[-81.88153,41.05192],[-81.88148,41.05174],[-81.88145,41.05162],[-81.88143,41.05157],[-81.8814,41.05144],[-81.88136,41.05127],[-81.88129,41.05103],[-81.88124,41.05081],[-81.8812,41.05068],[-81.88119,41.05063],[-81.88112,41.05033],[-81.88111,41.05033],[-81.88106,41.0501],[-81.88102,41.04997],[-81.88101,41.04993],[-81.88096,41.04975],[-81.88093,41.04963],[-81.88083,41.04922],[-81.88078,41.04904],[-81.88073,41.04887],[-81.88069,41.0487],[-81.88064,41.04851],[-81.88055,41.04816],[-81.88053,41.04812],[-81.8805,41.04798],[-81.88046,41.04782],[-81.88037,41.04745],[-81.88035,41.04737],[-81.88033,41.0473],[-81.88028,41.0471],[-81.88026,41.04702],[-81.88021,41.04682],[-81.88019,41.04675],[-81.8801,41.0464],[-81.88009,41.04637],[-81.88005,41.04622],[-81.87993,41.04577],[-81.87991,41.04569],[-81.87986,41.04551],[-81.87982,41.04534],[-81.87973,41.045],[-81.87972,41.04498],[-81.87968,41.04481],[-81.87968,41.0448],[-81.87967,41.04475],[-81.87964,41.0446],[-81.87963,41.04449],[-81.87962,41.04445],[-81.87962,41.04438],[-81.87963,41.04418],[-81.87963,41.04364],[-81.87963,41.04336],[-81.87964,41.04328],[-81.87964,41.043],[-81.87964,41.04292],[-81.87964,41.04282],[-81.87964,41.04281],[-81.87964,41.04239],[-81.87965,41.04174],[-81.87965,41.04166],[-81.87965,41.04157],[-81.87965,41.04156],[-81.87965,41.04148],[-81.87965,41.04102],[-81.87965,41.04094],[-81.87965,41.04062],[-81.87965,41.04035],[-81.87965,41.04022],[-81.87965,41.04006],[-81.87966,41.03984],[-81.87966,41.03977],[-81.87967,41.03968],[-81.87968,41.03958],[-81.87969,41.03954],[-81.87969,41.03953],[-81.8797,41.03948],[-81.87972,41.03941],[-81.87975,41.03933],[-81.87976,41.03928],[-81.8798,41.0392],[-81.87982,41.03915],[-81.87985,41.03908],[-81.87986,41.03906],[-81.87987,41.03903],[-81.87988,41.03901],[-81.87991,41.03897],[-81.88,41.03881],[-81.88004,41.03873],[-81.88006,41.0387],[-81.88014,41.03856],[-81.88016,41.03853],[-81.88022,41.0384],[-81.88025,41.03832],[-81.88028,41.03823],[-81.88029,41.03819],[-81.88031,41.0381],[-81.88033,41.03799],[-81.88034,41.03794],[-81.88035,41.03786],[-81.88036,41.03776],[-81.88036,41.03769],[-81.88037,41.03763],[-81.88037,41.03755],[-81.88036,41.03744],[-81.88035,41.03736],[-81.88034,41.03726],[-81.88032,41.0372],[-81.88031,41.03714],[-81.88028,41.03705],[-81.88025,41.03696],[-81.88022,41.03687],[-81.88006,41.03654],[-81.87982,41.03606],[-81.87976,41.03592],[-81.8796,41.03558],[-81.87938,41.03512],[-81.87929,41.03494],[-81.87903,41.03439],[-81.87862,41.03353],[-81.87836,41.033],[-81.87811,41.03249],[-81.87795,41.03215],[-81.87787,41.03198],[-81.87773,41.03169],[-81.87763,41.0315],[-81.87733,41.03088],[-81.87732,41.03085],[-81.87723,41.03068],[-81.87708,41.03036],[-81.87697,41.03013],[-81.87689,41.02998],[-81.87674,41.02967],[-81.87666,41.02951],[-81.87666,41.0295],[-81.87627,41.02873],[-81.87599,41.02816],[-81.8759,41.02799],[-81.87582,41.02782],[-81.87576,41.02771],[-81.87568,41.02755],[-81.87557,41.02733],[-81.87556,41.02731],[-81.87526,41.02672],[-81.87507,41.02637],[-81.87504,41.02631],[-81.87486,41.02598],[-81.87482,41.02591],[-81.87478,41.02583],[-81.87469,41.02565],[-81.87464,41.02557],[-81.87458,41.02548],[-81.87458,41.02548],[-81.87479,41.02541],[-81.87491,41.02536],[-81.87496,41.02533],[-81.87497,41.02533],[-81.87499,41.02532],[-81.87508,41.02527],[-81.87518,41.02519],[-81.87521,41.02516],[-81.87524,41.02514],[-81.87535,41.02502],[-81.87537,41.02497],[-81.87545,41.02484],[-81.87549,41.02468],[-81.8755,41.02459],[-81.87551,41.02443],[-81.87551,41.02385],[-81.87551,41.02363],[-81.87551,41.0236],[-81.87552,41.02283],[-81.87552,41.0224],[-81.87552,41.02222],[-81.87553,41.02178],[-81.87553,41.02126],[-81.87554,41.02111],[-81.87554,41.02093],[-81.87554,41.02084],[-81.87554,41.02069],[-81.87555,41.02061],[-81.87556,41.02057],[-81.87556,41.02056],[-81.87558,41.0205],[-81.87563,41.0204],[-81.87568,41.0203],[-81.87576,41.02019],[-81.87584,41.02011],[-81.87607,41.0199],[-81.87641,41.0196],[-81.87642,41.01959],[-81.87645,41.01956],[-81.87652,41.01951],[-81.87659,41.01946],[-81.87668,41.0194],[-81.87673,41.01938],[-81.87681,41.01935],[-81.87687,41.01933],[-81.877,41.0193],[-81.877,41.0193],[-81.87683,41.01913],[-81.8767,41.019],[-81.87662,41.01892],[-81.87644,41.01874],[-81.87642,41.01873],[-81.87614,41.01846],[-81.87584,41.01817],[-81.87563,41.01796],[-81.87529,41.01763],[-81.87522,41.01756],[-81.87519,41.01753],[-81.87515,41.01749],[-81.87497,41.01731],[-81.87479,41.01714],[-81.87465,41.01701],[-81.87457,41.01693],[-81.87439,41.01679],[-81.87437,41.01677],[-81.87432,41.01673],[-81.87424,41.01666],[-81.87415,41.0166],[-81.87403,41.01652],[-81.87361,41.01625],[-81.87352,41.01618],[-81.8733,41.01604],[-81.87261,41.01558],[-81.87254,41.01553],[-81.87193,41.01513],[-81.87149,41.01484],[-81.87148,41.01484],[-81.871,41.01452],[-81.87085,41.01441],[-81.87075,41.01435],[-81.87042,41.01414],[-81.86963,41.01363],[-81.86958,41.0136],[-81.86955,41.01358],[-81.86901,41.01323],[-81.86872,41.01304],[-81.86865,41.01299],[-81.86854,41.01292],[-81.86853,41.01291],[-81.86799,41.01256],[-81.86789,41.01247],[-81.86785,41.01243],[-81.86782,41.01239],[-81.86779,41.01233],[-81.86777,41.01228],[-81.86774,41.01217],[-81.86771,41.01195],[-81.86765,41.01165],[-81.86757,41.01128],[-81.86753,41.01104],[-81.86749,41.01083],[-81.86749,41.01082],[-81.86747,41.01066],[-81.86746,41.0105],[-81.86746,41.01049],[-81.86742,41.01012],[-81.86742,41.01002],[-81.86741,41.00986],[-81.8674,41.00971],[-81.86737,41.00958],[-81.86737,41.00958],[-81.86733,41.00959],[-81.86694,41.00972],[-81.86651,41.00987],[-81.86651,41.00987],[-81.86651,41.00969],[-81.86652,41.00951],[-81.86653,41.00916],[-81.86655,41.00881],[-81.86656,41.0087],[-81.86657,41.00845],[-81.86658,41.00827],[-81.86659,41.00798],[-81.8666,41.00791],[-81.86661,41.00773],[-81.86664,41.00718],[-81.86664,41.00708],[-81.8667,41.006],[-81.86673,41.00553],[-81.86677,41.00482],[-81.86683,41.00375],[-81.86684,41.00357],[-81.86688,41.00285],[-81.86691,41.0024],[-81.86693,41.00207],[-81.86695,41.00177],[-81.86704,41.00027],[-81.86704,41.00015],[-81.86705,41.00009],[-81.86706,40.99991],[-81.86712,40.99883],[-81.86714,40.99857],[-81.86715,40.99835],[-81.86716,40.99812],[-81.86717,40.99793],[-81.86722,40.9971],[-81.86723,40.99704],[-81.86723,40.99703],[-81.86724,40.99685],[-81.86732,40.99548],[-81.86735,40.99487],[-81.86738,40.99437],[-81.86739,40.99422],[-81.86739,40.99416],[-81.86741,40.99387],[-81.86744,40.99342],[-81.86746,40.99311],[-81.86746,40.99296],[-81.86747,40.99293],[-81.86747,40.99291],[-81.86747,40.99278],[-81.86748,40.9926],[-81.8675,40.99224],[-81.86751,40.99207],[-81.86752,40.99204],[-81.86752,40.99201],[-81.86752,40.99194],[-81.86752,40.99184],[-81.86753,40.99174],[-81.86752,40.99158],[-81.8675,40.99152],[-81.86749,40.99146],[-81.86746,40.99137],[-81.8674,40.99126],[-81.86735,40.99117],[-81.86729,40.99109],[-81.86724,40.99101],[-81.86713,40.99087],[-81.86711,40.99084],[-81.86709,40.99082],[-81.86683,40.99046],[-81.86677,40.99038],[-81.86651,40.99003],[-81.86641,40.98989],[-81.86637,40.98984],[-81.86623,40.98965],[-81.86606,40.9894],[-81.86598,40.98928],[-81.86589,40.98916],[-81.86573,40.98892],[-81.86568,40.98883],[-81.86563,40.98874],[-81.86563,40.98874],[-81.86548,40.98836],[-81.86544,40.98828],[-81.86542,40.98821],[-81.8654,40.98817],[-81.86513,40.98748],[-81.8651,40.98742],[-81.86497,40.98707],[-81.86487,40.98682],[-81.86479,40.98661],[-81.86471,40.98639],[-81.86459,40.9861],[-81.8645,40.98586],[-81.86439,40.98558],[-81.86432,40.98541],[-81.86431,40.98538],[-81.86427,40.98524],[-81.86423,40.98512],[-81.86421,40.985],[-81.86419,40.98479],[-81.86419,40.98458],[-81.8642,40.98417],[-81.86418,40.98272],[-81.86417,40.98236],[-81.86417,40.98129],[-81.86417,40.98122],[-81.86417,40.98111],[-81.86418,40.98093],[-81.86418,40.98033],[-81.86418,40.98021],[-81.86418,40.97979],[-81.86418,40.97931],[-81.86418,40.97923],[-81.86418,40.97841],[-81.86418,40.97823],[-81.86419,40.97784],[-81.86419,40.97771],[-81.86419,40.97733],[-81.86419,40.97722],[-81.86419,40.97715],[-81.86419,40.97697],[-81.86419,40.97614],[-81.86419,40.97589],[-81.86419,40.97578],[-81.86419,40.97571],[-81.86419,40.97542],[-81.86419,40.97538],[-81.86419,40.97534],[-81.86419,40.97509],[-81.8642,40.97473],[-81.8642,40.97457],[-81.8642,40.97401],[-81.86421,40.97275],[-81.86421,40.97259],[-81.86421,40.97257],[-81.86421,40.97241],[-81.86422,40.97205],[-81.86422,40.97203],[-81.86422,40.97133],[-81.86422,40.97131],[-81.86422,40.97116],[-81.86423,40.97066],[-81.86423,40.97061],[-81.86426,40.97025],[-81.86424,40.96986],[-81.86425,40.96963],[-81.86426,40.96918],[-81.86426,40.96904],[-81.86426,40.969],[-81.86426,40.96868],[-81.86427,40.96846],[-81.86428,40.96779],[-81.86428,40.96738],[-81.86429,40.96689],[-81.86429,40.96684],[-81.86429,40.96671],[-81.86429,40.96666],[-81.8643,40.9663],[-81.8643,40.96595],[-81.8643,40.96576],[-81.86431,40.96559],[-81.86431,40.96558],[-81.86431,40.96546],[-81.86431,40.96539],[-81.8643,40.96495],[-81.8643,40.96486],[-81.8643,40.96441],[-81.8643,40.96432],[-81.86429,40.96423],[-81.86429,40.96378],[-81.86429,40.96351],[-81.86429,40.96342],[-81.86428,40.96315],[-81.86428,40.96306],[-81.86428,40.96261],[-81.86428,40.96252],[-81.86428,40.96229],[-81.86428,40.96224],[-81.86428,40.96206],[-81.86428,40.96198],[-81.8643,40.96124],[-81.86431,40.96106],[-81.86432,40.96052],[-81.86433,40.9597],[-81.86434,40.95964],[-81.86435,40.95892],[-81.86438,40.95802],[-81.86438,40.95801],[-81.86439,40.95765],[-81.8644,40.95701],[-81.8644,40.95693],[-81.86442,40.95641],[-81.86443,40.95603],[-81.86444,40.95582],[-81.86444,40.95571],[-81.86445,40.95533],[-81.86446,40.95487],[-81.86446,40.95473],[-81.86446,40.95466],[-81.8645,40.95335],[-81.86451,40.95317],[-81.86452,40.9523],[-81.86453,40.95137],[-81.86454,40.95083],[-81.86454,40.95065],[-81.86454,40.95055],[-81.86454,40.95047],[-81.86455,40.95029],[-81.86455,40.95011],[-81.86456,40.94957],[-81.86458,40.94885],[-81.86458,40.94867],[-81.86459,40.94831],[-81.8646,40.94777],[-81.8646,40.94759],[-81.8646,40.94741],[-81.86461,40.94705],[-81.86461,40.94696],[-81.86463,40.94652],[-81.86463,40.94634],[-81.86465,40.9458],[-81.86465,40.9458],[-81.8637,40.9458],[-81.86346,40.9458],[-81.86322,40.9458],[-81.86203,40.94581],[-81.86156,40.94581],[-81.86108,40.94581],[-81.86084,40.94582],[-81.8606,40.94582],[-81.86009,40.94582],[-81.85945,40.94582],[-81.85945,40.94582],[-81.85945,40.94546],[-81.85945,40.94492],[-81.85945,40.94456],[-81.85945,40.94438],[-81.85946,40.9442],[-81.85946,40.94402],[-81.85946,40.94383],[-81.85946,40.9433],[-81.85947,40.94316],[-81.85947,40.94312],[-81.85947,40.94294],[-81.85947,40.94276],[-81.85948,40.94258],[-81.85948,40.9424],[-81.85949,40.94165],[-81.85947,40.94114],[-81.85946,40.94096],[-81.85946,40.94078],[-81.85946,40.94066],[-81.85947,40.93988],[-81.85947,40.9397],[-81.85947,40.93916],[-81.85947,40.93898],[-81.85947,40.9388],[-81.85947,40.93862],[-81.85947,40.93813],[-81.85948,40.93798],[-81.85948,40.9378],[-81.85948,40.93762],[-81.8595,40.93708],[-81.8595,40.93672],[-81.85951,40.93663],[-81.85948,40.93582],[-81.85948,40.93564],[-81.85946,40.93493],[-81.85946,40.93475],[-81.85944,40.93421],[-81.85944,40.93403],[-81.85944,40.93401],[-81.85944,40.93385],[-81.85944,40.93367],[-81.85943,40.93331],[-81.85943,40.93295],[-81.85943,40.93277],[-81.85943,40.93241],[-81.85942,40.93187],[-81.85942,40.93169],[-81.85942,40.93151],[-81.85942,40.93115],[-81.85941,40.9309],[-81.85941,40.93072],[-81.85941,40.93036],[-81.85941,40.93018],[-81.8594,40.93],[-81.8594,40.92982],[-81.8594,40.92931],[-81.85939,40.92877],[-81.85939,40.92859],[-81.85938,40.92841],[-81.85938,40.92823],[-81.85938,40.92787],[-81.85937,40.92769],[-81.85936,40.92697],[-81.85936,40.92661],[-81.85936,40.92635],[-81.85935,40.92592],[-81.85935,40.92521],[-81.85934,40.92449],[-81.85932,40.92334],[-81.85932,40.92317],[-81.85933,40.92226],[-81.85933,40.9219],[-81.85933,40.92172],[-81.85934,40.92108],[-81.85933,40.92074],[-81.85933,40.9202],[-81.85933,40.92002],[-81.85932,40.9193],[-81.85932,40.91912],[-81.85932,40.91856],[-81.85931,40.91838],[-81.85931,40.9182],[-81.8593,40.91712],[-81.85929,40.9164],[-81.85928,40.91559],[-81.85928,40.91541],[-81.85927,40.91451],[-81.85926,40.91361],[-81.85926,40.91343],[-81.85925,40.91235],[-81.85925,40.91217],[-81.85925,40.91199],[-81.85924,40.91091],[-81.85924,40.91073],[-81.85923,40.91055],[-81.85923,40.90983],[-81.85922,40.90947],[-81.85922,40.90875],[-81.85921,40.90803],[-81.8592,40.90731],[-81.85919,40.90659],[-81.85919,40.90645],[-81.85919,40.90641],[-81.85918,40.90605],[-81.85918,40.90572],[-81.85917,40.9051],[-81.85917,40.90492],[-81.85917,40.90438],[-81.85916,40.90348],[-81.85915,40.9033],[-81.85915,40.90312],[-81.85915,40.90302],[-81.85915,40.90294],[-81.85914,40.90276],[-81.85913,40.90258],[-81.85913,40.9024],[-81.8591,40.90168],[-81.8591,40.90168],[-81.85957,40.90168],[-81.85981,40.90168],[-81.86029,40.90168],[-81.86053,40.90168],[-81.86076,40.90167],[-81.86076,40.90167],[-81.8608,40.90048],[-81.8608,40.9003],[-81.86081,40.90012],[-81.86082,40.89958],[-81.86084,40.89886],[-81.86087,40.89796],[-81.86088,40.89742],[-81.8609,40.89688],[-81.8609,40.8967],[-81.86093,40.89598],[-81.86093,40.8958],[-81.86097,40.89472],[-81.86099,40.894],[-81.86102,40.89292],[-81.86103,40.89274],[-81.86106,40.8917],[-81.86108,40.89106],[-81.86109,40.89052],[-81.8611,40.89034],[-81.86111,40.8898],[-81.86112,40.88962],[-81.86112,40.88944],[-81.86113,40.88926],[-81.86114,40.88872],[-81.86115,40.88854],[-81.86116,40.88843],[-81.86116,40.88826],[-81.86116,40.88824],[-81.86116,40.88808],[-81.86117,40.88717],[-81.86118,40.88699],[-81.86118,40.88681],[-81.86119,40.88627],[-81.86119,40.88609],[-81.86119,40.88555],[-81.8612,40.88537],[-81.8612,40.88501],[-81.8612,40.88483],[-81.86121,40.88447],[-81.86121,40.88429],[-81.86121,40.88411],[-81.86121,40.88393],[-81.86122,40.88375],[-81.86122,40.88357],[-81.86122,40.88303],[-81.86123,40.88285],[-81.86123,40.88267],[-81.86124,40.88177],[-81.86124,40.88159],[-81.86125,40.88069],[-81.86128,40.87942],[-81.86129,40.87852],[-81.8613,40.87834],[-81.8613,40.87813],[-81.8613,40.87778],[-81.86131,40.87744],[-81.86131,40.87741],[-81.86132,40.87726],[-81.86132,40.87723],[-81.86135,40.87582],[-81.86136,40.87546],[-81.86136,40.87544],[-81.86136,40.87528],[-81.86136,40.87526],[-81.86137,40.87492],[-81.86137,40.87474],[-81.86137,40.87472],[-81.86138,40.8742],[-81.86139,40.87382],[-81.86141,40.8733],[-81.86141,40.87323],[-81.86142,40.8727],[-81.86142,40.87256],[-81.86142,40.87252],[-81.86142,40.87238],[-81.86143,40.87234],[-81.86145,40.87144],[-81.86145,40.87125],[-81.86146,40.87063],[-81.86147,40.87045],[-81.86149,40.86973],[-81.86149,40.86973],[-81.8615,40.86946],[-81.8615,40.86919],[-81.8615,40.86901],[-81.8615,40.8689],[-81.86151,40.86856],[-81.86151,40.86837],[-81.86152,40.86829],[-81.86152,40.86819],[-81.86152,40.86803],[-81.86155,40.8672],[-81.86155,40.86703],[-81.86155,40.86693],[-81.86156,40.86651],[-81.86156,40.86641],[-81.86158,40.8659],[-81.8616,40.86517],[-81.8616,40.86489],[-81.86161,40.86472],[-81.86161,40.86468],[-81.86161,40.86463],[-81.86161,40.86459],[-81.86162,40.86401],[-81.86162,40.86315],[-81.86162,40.86279],[-81.86162,40.86243],[-81.86162,40.86227],[-81.86162,40.86211],[-81.86163,40.86175],[-81.86164,40.86161],[-81.86164,40.86141],[-81.86164,40.86107],[-81.86164,40.86105],[-81.86165,40.86028],[-81.86165,40.8601],[-81.86166,40.85959],[-81.86167,40.85851],[-81.86167,40.85821],[-81.86166,40.8574],[-81.86166,40.85689],[-81.86165,40.85653],[-81.86165,40.85638],[-81.86165,40.85617],[-81.86164,40.85581],[-81.86163,40.85499],[-81.86163,40.85482],[-81.86162,40.85446],[-81.86162,40.85375],[-81.8616,40.85301],[-81.8616,40.85222],[-81.86159,40.8519],[-81.86159,40.8517],[-81.86159,40.85152],[-81.86158,40.85116],[-81.86158,40.85116],[-81.86157,40.85008],[-81.86157,40.84993],[-81.86157,40.84897],[-81.86156,40.84807],[-81.86156,40.84802],[-81.86156,40.84789],[-81.86156,40.84631],[-81.86155,40.84523],[-81.86155,40.84505],[-81.86155,40.84483],[-81.86154,40.84372],[-81.86154,40.8433],[-81.86153,40.84318],[-81.8615,40.8412],[-81.8615,40.84102],[-81.86149,40.84038],[-81.86149,40.84033],[-81.86149,40.84007],[-81.86148,40.83935],[-81.86147,40.83844],[-81.86146,40.83809],[-81.86146,40.83791],[-81.86146,40.83762],[-81.86146,40.83683],[-81.86146,40.83593],[-81.86146,40.83571],[-81.86145,40.83539],[-81.86145,40.83467],[-81.86144,40.83427],[-81.86144,40.83381],[-81.86144,40.83376],[-81.86144,40.83363],[-81.86143,40.83327],[-81.86143,40.83309],[-81.86143,40.83291],[-81.86143,40.83283],[-81.86143,40.83273],[-81.86143,40.83255],[-81.86142,40.83219],[-81.86142,40.83165],[-81.86142,40.83147],[-81.86141,40.83129],[-81.86141,40.83111],[-81.86141,40.83071],[-81.86141,40.83057],[-81.86141,40.83039],[-81.8614,40.82895],[-81.86136,40.82751],[-81.86134,40.82679],[-81.86133,40.82661],[-81.86133,40.82643],[-81.86132,40.82636],[-81.86131,40.82578],[-81.86131,40.82557],[-81.8613,40.82529],[-81.86128,40.82457]]}},{"type":"Feature","properties":{"_gpxType":"trk","name":"425 East Liberty Street, Medina, OH - 1991 Eby Rd - Turkey Hollow Campground, Township Road 102, Millersburg, OH","coordinateProperties":{},"id":9},"geometry":{"type":"LineString","coordinates":[[-81.86128,40.82457],[-81.86127,40.82414],[-81.86125,40.82312],[-81.86125,40.82294],[-81.86124,40.82276],[-81.86123,40.82195],[-81.86123,40.82188],[-81.86125,40.8218],[-81.8613,40.82168],[-81.8613,40.82168],[-81.86137,40.82161],[-81.86144,40.82155],[-81.86155,40.82146],[-81.86165,40.82139],[-81.86194,40.82117],[-81.86207,40.82107],[-81.86232,40.82086],[-81.86266,40.82051],[-81.86274,40.82042],[-81.86307,40.82007],[-81.86313,40.82],[-81.8632,40.81992],[-81.86334,40.81978],[-81.86361,40.81948],[-81.86389,40.81919],[-81.8641,40.81896],[-81.86457,40.81845],[-81.86506,40.81792],[-81.86519,40.81778],[-81.8652,40.81777],[-81.86534,40.81762],[-81.86588,40.81704],[-81.86615,40.81674],[-81.86629,40.8166],[-81.86657,40.8163],[-81.86659,40.81627],[-81.86684,40.81601],[-81.86697,40.81586],[-81.86738,40.81542],[-81.86751,40.81527],[-81.86758,40.8152],[-81.86765,40.81512],[-81.86778,40.81497],[-81.86783,40.81492],[-81.86819,40.81453],[-81.86826,40.81446],[-81.86836,40.81436],[-81.86856,40.81414],[-81.86929,40.81343],[-81.86944,40.81329],[-81.86988,40.81287],[-81.87011,40.81264],[-81.87017,40.81258],[-81.87032,40.81244],[-81.87043,40.81234],[-81.87047,40.8123],[-81.87092,40.81189],[-81.87093,40.81189],[-81.87108,40.81175],[-81.87124,40.81162],[-81.87127,40.81159],[-81.87139,40.81148],[-81.87171,40.81121],[-81.87187,40.81108],[-81.87202,40.81094],[-81.87218,40.81081],[-81.87249,40.81054],[-81.87265,40.8104],[-81.87303,40.81008],[-81.87317,40.80997],[-81.87326,40.80991],[-81.87331,40.80988],[-81.87337,40.80984],[-81.87343,40.80982],[-81.87347,40.8098],[-81.87352,40.80979],[-81.87362,40.80977],[-81.87368,40.80975],[-81.87375,40.80975],[-81.87381,40.80974],[-81.87395,40.80973],[-81.87436,40.80973],[-81.87452,40.80972],[-81.87476,40.80972],[-81.87484,40.80972],[-81.87547,40.80972],[-81.87571,40.80972],[-81.87618,40.80971],[-81.87714,40.80971],[-81.87714,40.80971],[-81.87714,40.80953],[-81.87714,40.80917],[-81.87714,40.80899],[-81.87714,40.80881],[-81.87714,40.80873],[-81.87714,40.80863],[-81.87713,40.80845],[-81.87713,40.80827],[-81.87712,40.80774],[-81.87712,40.80755],[-81.87711,40.80737],[-81.87711,40.80719],[-81.8771,40.80668],[-81.8771,40.80665],[-81.8771,40.80647],[-81.8771,40.80629],[-81.8771,40.80593],[-81.8771,40.80575],[-81.8771,40.80487],[-81.8771,40.80417],[-81.8771,40.80377],[-81.8771,40.80361],[-81.8771,40.80348],[-81.8771,40.80321],[-81.87711,40.80294],[-81.87711,40.8029],[-81.87713,40.80256],[-81.87716,40.80227],[-81.87723,40.80179],[-81.87729,40.80145],[-81.87731,40.80137],[-81.87736,40.80122],[-81.87743,40.80095],[-81.87744,40.80092],[-81.87749,40.80075],[-81.87751,40.80069],[-81.87767,40.80019],[-81.87774,40.79995],[-81.87777,40.79984],[-81.87779,40.79978],[-81.87781,40.79965],[-81.87783,40.79948],[-81.87783,40.79932],[-81.87781,40.79913],[-81.87781,40.79905],[-81.87779,40.79895],[-81.87777,40.79883],[-81.87771,40.79865],[-81.87749,40.79817],[-81.87748,40.79814],[-81.87732,40.7978],[-81.87726,40.79767],[-81.87724,40.79764],[-81.87723,40.79761],[-81.87721,40.79759],[-81.87716,40.79755],[-81.87712,40.7975],[-81.87711,40.79748],[-81.87709,40.79746],[-81.87707,40.7974],[-81.87705,40.79734],[-81.87704,40.79731],[-81.87704,40.79729],[-81.87704,40.79718],[-81.87704,40.79713],[-81.87704,40.79705],[-81.87705,40.79696],[-81.87705,40.79695],[-81.87706,40.79686],[-81.87706,40.79677],[-81.87706,40.79666],[-81.87704,40.79645],[-81.87704,40.79641],[-81.87702,40.79623],[-81.87701,40.79605],[-81.87701,40.79602],[-81.87696,40.79578],[-81.87694,40.7957],[-81.8769,40.7956],[-81.87685,40.79544],[-81.87683,40.79533],[-81.8768,40.79521],[-81.8768,40.79514],[-81.87679,40.79504],[-81.8768,40.79488],[-81.87681,40.79482],[-81.87682,40.79477],[-81.87684,40.79456],[-81.87687,40.79429],[-81.87687,40.79428],[-81.8769,40.79393],[-81.8769,40.79392],[-81.8769,40.79375],[-81.87692,40.79267],[-81.87693,40.79213],[-81.87693,40.79213],[-81.87741,40.79212],[-81.87778,40.79211],[-81.87802,40.79212],[-81.87804,40.79212],[-81.87807,40.79211],[-81.87812,40.7921],[-81.87818,40.79207],[-81.87822,40.79205],[-81.87824,40.79203],[-81.87826,40.79201],[-81.8783,40.79196],[-81.87832,40.79193],[-81.87835,40.79187],[-81.87853,40.79135],[-81.87859,40.79117],[-81.87866,40.79095],[-81.87871,40.79084],[-81.87874,40.79076],[-81.87877,40.79069],[-81.87878,40.79066],[-81.87881,40.7906],[-81.87886,40.79049],[-81.87894,40.79033],[-81.87894,40.79032],[-81.87904,40.79015],[-81.87914,40.78999],[-81.87915,40.78998],[-81.87928,40.7898],[-81.87931,40.78976],[-81.87935,40.78972],[-81.8794,40.78969],[-81.87941,40.78968],[-81.87946,40.78965],[-81.87952,40.78963],[-81.8796,40.7896],[-81.87962,40.7896],[-81.87977,40.78956],[-81.87983,40.78955],[-81.87996,40.78952],[-81.88003,40.7895],[-81.88006,40.78949],[-81.88013,40.78947],[-81.88028,40.78942],[-81.88039,40.78937],[-81.88047,40.78933],[-81.88056,40.78927],[-81.88065,40.78921],[-81.88068,40.78919],[-81.88079,40.7891],[-81.88086,40.78903],[-81.88089,40.78899],[-81.88094,40.78892],[-81.88096,40.78889],[-81.88097,40.78885],[-81.88099,40.7888],[-81.88099,40.78875],[-81.881,40.78839],[-81.881,40.78823],[-81.881,40.78821],[-81.88103,40.7871],[-81.88106,40.78654],[-81.88108,40.78597],[-81.88109,40.78564],[-81.8811,40.78534],[-81.88112,40.78511],[-81.88113,40.78493],[-81.88114,40.78457],[-81.88115,40.78434],[-81.88117,40.78398],[-81.88118,40.7838],[-81.88118,40.78367],[-81.88119,40.78362],[-81.88119,40.78344],[-81.8812,40.78326],[-81.8812,40.78308],[-81.88121,40.78294],[-81.88121,40.7829],[-81.88121,40.78272],[-81.88121,40.78252],[-81.88121,40.78236],[-81.8812,40.78221],[-81.8812,40.78218],[-81.8812,40.78182],[-81.8812,40.7815],[-81.8812,40.78133],[-81.88119,40.78107],[-81.8812,40.78097],[-81.8812,40.78087],[-81.8812,40.78079],[-81.88119,40.78071],[-81.88118,40.78057],[-81.88115,40.78027],[-81.88111,40.78007],[-81.88107,40.77991],[-81.88107,40.77989],[-81.88098,40.77954],[-81.8808,40.77886],[-81.88075,40.77866],[-81.8807,40.77848],[-81.8805,40.77778],[-81.88045,40.7776],[-81.88035,40.77725],[-81.88002,40.77602],[-81.87993,40.77569],[-81.87976,40.77507],[-81.87973,40.77496],[-81.87968,40.77478],[-81.87966,40.7747],[-81.87952,40.77407],[-81.87949,40.77397],[-81.87948,40.7739],[-81.87943,40.77367],[-81.87932,40.77311],[-81.8793,40.77301],[-81.8793,40.773],[-81.87929,40.77287],[-81.87929,40.77283],[-81.87928,40.77271],[-81.87928,40.77265],[-81.87927,40.77252],[-81.87928,40.77247],[-81.87929,40.77172],[-81.87929,40.77157],[-81.87928,40.77139],[-81.87928,40.77114],[-81.87928,40.77039],[-81.87929,40.76994],[-81.87928,40.76971],[-81.87927,40.76957],[-81.87924,40.7694],[-81.8792,40.76923],[-81.87917,40.76905],[-81.87914,40.76893],[-81.87913,40.76887],[-81.87906,40.76853],[-81.87902,40.76834],[-81.87902,40.76833],[-81.87899,40.76816],[-81.87892,40.76773],[-81.8789,40.76766],[-81.87887,40.76755],[-81.87875,40.76695],[-81.87864,40.76642],[-81.87851,40.76571],[-81.87847,40.7655],[-81.87844,40.76535],[-81.87841,40.76517],[-81.87818,40.76374],[-81.87809,40.7632],[-81.87807,40.7631],[-81.878,40.76265],[-81.87797,40.76249],[-81.87794,40.76231],[-81.87791,40.76213],[-81.8779,40.76208],[-81.87788,40.76195],[-81.87785,40.76178],[-81.87781,40.76154],[-81.87778,40.76135],[-81.87776,40.76124],[-81.87773,40.76106],[-81.87768,40.76076],[-81.87767,40.76071],[-81.87763,40.76053],[-81.8776,40.7604],[-81.87759,40.76035],[-81.87755,40.76017],[-81.87748,40.75984],[-81.87747,40.75982],[-81.87743,40.75964],[-81.8774,40.75946],[-81.87737,40.75931],[-81.87736,40.75929],[-81.8773,40.75903],[-81.87728,40.75893],[-81.87723,40.75875],[-81.87714,40.7584],[-81.8771,40.75822],[-81.87705,40.75805],[-81.87701,40.75787],[-81.87696,40.75769],[-81.87686,40.75729],[-81.87686,40.75708],[-81.87687,40.7569],[-81.87687,40.75654],[-81.87688,40.75618],[-81.87689,40.7559],[-81.87688,40.75466],[-81.87687,40.75322],[-81.87687,40.75304],[-81.87687,40.75286],[-81.87687,40.7525],[-81.87687,40.75233],[-81.87687,40.75197],[-81.87688,40.75143],[-81.87688,40.75125],[-81.87688,40.75105],[-81.87688,40.75071],[-81.87688,40.75009],[-81.87689,40.74999],[-81.87689,40.74996],[-81.8769,40.74945],[-81.8769,40.74941],[-81.87691,40.74909],[-81.87692,40.74901],[-81.87691,40.74837],[-81.87691,40.74832],[-81.87691,40.74819],[-81.87691,40.74805],[-81.8769,40.7474],[-81.8769,40.74729],[-81.8769,40.74704],[-81.8769,40.74686],[-81.87691,40.7463],[-81.8769,40.74614],[-81.8769,40.74596],[-81.8769,40.74524],[-81.8769,40.74506],[-81.87689,40.74485],[-81.8769,40.74326],[-81.87691,40.74308],[-81.87691,40.74272],[-81.87691,40.74254],[-81.87691,40.74236],[-81.87691,40.74182],[-81.87691,40.74146],[-81.87691,40.74135],[-81.87691,40.74081],[-81.8769,40.74036],[-81.87691,40.73962],[-81.87692,40.73948],[-81.87692,40.73898],[-81.87693,40.73854],[-81.87693,40.73746],[-81.87693,40.73728],[-81.87693,40.73638],[-81.87693,40.73602],[-81.87693,40.7353],[-81.87693,40.73512],[-81.87693,40.73476],[-81.87694,40.73386],[-81.87694,40.73346],[-81.87694,40.73311],[-81.87694,40.73293],[-81.87694,40.73288],[-81.87694,40.73203],[-81.87694,40.73131],[-81.87694,40.72915],[-81.87694,40.72897],[-81.87694,40.72866],[-81.87694,40.72839],[-81.87695,40.72749],[-81.87695,40.72734],[-81.87695,40.72667],[-81.87696,40.72616],[-81.87698,40.72595],[-81.87698,40.72522],[-81.87698,40.72486],[-81.87698,40.72468],[-81.87699,40.7245],[-81.87699,40.72378],[-81.87699,40.72343],[-81.877,40.72271],[-81.877,40.72253],[-81.877,40.72235],[-81.877,40.72217],[-81.87701,40.72127],[-81.87701,40.72073],[-81.87702,40.71983],[-81.87702,40.71965],[-81.87702,40.71947],[-81.87702,40.71929],[-81.87702,40.71893],[-81.87702,40.71857],[-81.87703,40.71762],[-81.87702,40.71687],[-81.877,40.71579],[-81.877,40.71507],[-81.877,40.71387],[-81.87697,40.71315],[-81.87698,40.71223],[-81.87698,40.71208],[-81.87698,40.71172],[-81.87698,40.71169],[-81.87698,40.7116],[-81.87698,40.71116],[-81.87698,40.71106],[-81.87698,40.71064],[-81.87698,40.71046],[-81.87698,40.7101],[-81.87698,40.70992],[-81.87698,40.70962],[-81.87698,40.7092],[-81.87699,40.7083],[-81.87699,40.70758],[-81.87699,40.70669],[-81.87699,40.70597],[-81.877,40.70579],[-81.877,40.70543],[-81.877,40.70453],[-81.877,40.70415],[-81.87701,40.70343],[-81.87701,40.70308],[-81.87701,40.70254],[-81.87702,40.70146],[-81.87702,40.70128],[-81.87702,40.7011],[-81.87703,40.7002],[-81.87703,40.69988],[-81.87704,40.69953],[-81.87703,40.69935],[-81.87703,40.69883],[-81.87703,40.69881],[-81.87703,40.69847],[-81.87703,40.69845],[-81.87703,40.69827],[-81.87703,40.69811],[-81.87703,40.69809],[-81.87703,40.69791],[-81.87703,40.69774],[-81.87703,40.69773],[-81.87703,40.69757],[-81.87703,40.69755],[-81.87703,40.69737],[-81.87704,40.69702],[-81.87704,40.69696],[-81.87704,40.69685],[-81.87704,40.69684],[-81.87704,40.69666],[-81.87705,40.69649],[-81.87705,40.69648],[-81.87705,40.69631],[-81.87705,40.6963],[-81.87705,40.69594],[-81.87705,40.69559],[-81.87705,40.69558],[-81.87705,40.69522],[-81.87705,40.69505],[-81.87705,40.69504],[-81.87706,40.69468],[-81.87706,40.69451],[-81.87706,40.6945],[-81.87706,40.69432],[-81.87706,40.69415],[-81.87706,40.69414],[-81.87706,40.69361],[-81.87706,40.69343],[-81.87707,40.69307],[-81.87707,40.69301],[-81.87707,40.69289],[-81.87707,40.69271],[-81.87707,40.69253],[-81.87707,40.69235],[-81.87707,40.69218],[-81.87707,40.69217],[-81.87707,40.69181],[-81.87707,40.69146],[-81.87707,40.69145],[-81.87707,40.69076],[-81.87708,40.69037],[-81.87708,40.68966],[-81.87709,40.68948],[-81.87709,40.6893],[-81.87709,40.68912],[-81.87709,40.68894],[-81.87709,40.68893],[-81.87709,40.68875],[-81.87709,40.68839],[-81.8771,40.68804],[-81.8771,40.68803],[-81.87711,40.68738],[-81.87715,40.68722],[-81.87715,40.68722],[-81.87645,40.68608],[-81.87621,40.68569],[-81.87539,40.68432],[-81.87519,40.68397],[-81.87465,40.68308],[-81.87456,40.68292],[-81.87447,40.68278],[-81.87428,40.68245],[-81.87428,40.68245],[-81.87406,40.68209],[-81.87386,40.68174],[-81.87351,40.68117],[-81.87342,40.68101],[-81.87307,40.68043],[-81.87302,40.68035],[-81.87284,40.68008],[-81.87281,40.68003],[-81.87263,40.67977],[-81.8722,40.67915],[-81.87179,40.67854],[-81.87141,40.67803],[-81.87135,40.67794],[-81.87122,40.67777],[-81.87103,40.67751],[-81.87087,40.67729],[-81.87039,40.6766],[-81.87039,40.6766],[-81.87122,40.67628],[-81.87184,40.67603],[-81.87272,40.67568],[-81.87321,40.67547],[-81.87338,40.6754],[-81.87338,40.6754],[-81.87342,40.67527],[-81.87344,40.6752],[-81.87351,40.67506],[-81.87352,40.67503],[-81.87368,40.67472],[-81.87376,40.67457],[-81.87376,40.67456],[-81.87388,40.67441],[-81.87394,40.67432],[-81.87427,40.67387],[-81.87435,40.67379],[-81.87447,40.67365],[-81.87449,40.67363],[-81.87466,40.67347],[-81.87475,40.67338],[-81.87491,40.67318],[-81.875,40.67305],[-81.87511,40.67289],[-81.87585,40.67181],[-81.8759,40.67176],[-81.876,40.67162],[-81.87611,40.67147],[-81.87659,40.67083],[-81.87665,40.67074],[-81.87678,40.67057],[-81.87735,40.66972],[-81.87742,40.66963],[-81.87775,40.66912],[-81.87804,40.66865],[-81.87815,40.66848],[-81.87824,40.66833],[-81.87844,40.668],[-81.87859,40.66774],[-81.87881,40.66734],[-81.87898,40.66703],[-81.87909,40.66684],[-81.87919,40.66664],[-81.87937,40.66628],[-81.87959,40.66583],[-81.87966,40.66567],[-81.87966,40.66566],[-81.87989,40.66514],[-81.87993,40.66505],[-81.87996,40.66498],[-81.88011,40.66464],[-81.88028,40.66424],[-81.88032,40.66411],[-81.88043,40.66377],[-81.88044,40.66373],[-81.88056,40.66347],[-81.88064,40.66325],[-81.88067,40.66314],[-81.88075,40.66291],[-81.88075,40.6629],[-81.88081,40.66272],[-81.88086,40.66256],[-81.88086,40.66255],[-81.88101,40.66207],[-81.88107,40.66184],[-81.88117,40.66151],[-81.88122,40.66131],[-81.88126,40.66115],[-81.88134,40.6608],[-81.88143,40.66046],[-81.88154,40.65991],[-81.88154,40.65989],[-81.88159,40.65966],[-81.88172,40.65882],[-81.88174,40.65869],[-81.88174,40.65866],[-81.88185,40.65795],[-81.88186,40.65793],[-81.88191,40.6576],[-81.88198,40.65703],[-81.882,40.65685],[-81.88204,40.65655],[-81.88207,40.65634],[-81.88209,40.65619],[-81.88215,40.65577],[-81.88215,40.65576],[-81.88218,40.6556],[-81.88218,40.65555],[-81.88222,40.65526],[-81.88229,40.65473],[-81.8823,40.6547],[-81.88238,40.65408],[-81.88239,40.65401],[-81.88242,40.6538],[-81.88256,40.65294],[-81.88262,40.65253],[-81.88263,40.6524],[-81.88261,40.65234],[-81.88259,40.65227],[-81.88258,40.6522],[-81.88259,40.65213],[-81.8826,40.65202],[-81.8826,40.65201],[-81.88262,40.6519],[-81.88263,40.65187],[-81.88272,40.6515],[-81.8828,40.65124],[-81.88293,40.65092],[-81.88304,40.65065],[-81.88306,40.65062],[-81.88311,40.65049],[-81.88325,40.65023],[-81.88341,40.64998],[-81.88354,40.6498],[-81.88375,40.64952],[-81.88401,40.64917],[-81.8844,40.64872],[-81.88446,40.64866],[-81.88466,40.64846],[-81.88484,40.64828],[-81.88495,40.64818],[-81.88499,40.64815],[-81.88515,40.64802],[-81.88525,40.64793],[-81.88562,40.64768],[-81.8858,40.64756],[-81.88584,40.64753],[-81.88625,40.64725],[-81.88633,40.6472],[-81.88637,40.64717],[-81.88711,40.64672],[-81.88726,40.64663],[-81.88729,40.64661],[-81.88796,40.64618],[-81.888,40.64615],[-81.88856,40.64578],[-81.88927,40.64531],[-81.88948,40.64516],[-81.8899,40.6449],[-81.89008,40.64478],[-81.89026,40.64467],[-81.89171,40.64374],[-81.89186,40.64364],[-81.89389,40.64235],[-81.89424,40.64212],[-81.89504,40.64162],[-81.89624,40.64084],[-81.89679,40.64049],[-81.89841,40.63945],[-81.89914,40.63898],[-81.89968,40.63863],[-81.90004,40.6384],[-81.90022,40.63829],[-81.90077,40.63794],[-81.90095,40.63783],[-81.90199,40.63718],[-81.90206,40.63715],[-81.90242,40.63694],[-81.90244,40.63693],[-81.90281,40.63675],[-81.90304,40.63665],[-81.90324,40.63656],[-81.90345,40.63646],[-81.90365,40.63637],[-81.90368,40.63636],[-81.90386,40.63629],[-81.90407,40.63621],[-81.90465,40.63599],[-81.90471,40.63597],[-81.90493,40.63589],[-81.90556,40.63566],[-81.90557,40.63566],[-81.90578,40.63559],[-81.906,40.63552],[-81.90665,40.6353],[-81.90724,40.63508],[-81.90746,40.635],[-81.90767,40.63492],[-81.90874,40.63453],[-81.91002,40.63407],[-81.91024,40.63399],[-81.91045,40.63391],[-81.91066,40.63383],[-81.9113,40.6336],[-81.91173,40.63344],[-81.91237,40.63321],[-81.91321,40.63291],[-81.91323,40.6329],[-81.91363,40.63272],[-81.91384,40.63262],[-81.91399,40.63256],[-81.91404,40.63253],[-81.91447,40.63231],[-81.91482,40.63212],[-81.91501,40.63201],[-81.91506,40.63198],[-81.91519,40.63189],[-81.91537,40.63178],[-81.91555,40.63166],[-81.91573,40.63155],[-81.91582,40.63149],[-81.91591,40.63143],[-81.91608,40.6313],[-81.91625,40.63118],[-81.91659,40.63093],[-81.91676,40.6308],[-81.91676,40.6308],[-81.91744,40.63079],[-81.91789,40.63077],[-81.91789,40.63077],[-81.918,40.63071],[-81.9181,40.63063],[-81.91815,40.63058],[-81.91819,40.63053],[-81.91825,40.63045],[-81.91832,40.63035],[-81.91839,40.63026],[-81.9185,40.63013],[-81.91861,40.62999],[-81.91868,40.6299],[-81.91877,40.62979],[-81.91884,40.62969],[-81.91888,40.62964],[-81.9191,40.62941],[-81.91915,40.62937],[-81.91933,40.6292],[-81.91939,40.62914],[-81.91941,40.62913],[-81.91957,40.629],[-81.91962,40.62895],[-81.91966,40.62889],[-81.91968,40.62887],[-81.9197,40.62881],[-81.91973,40.62872],[-81.91976,40.62858],[-81.91978,40.62848],[-81.9198,40.62842],[-81.91981,40.62838],[-81.91988,40.62809],[-81.9199,40.62799],[-81.91993,40.62785],[-81.92004,40.62738],[-81.92006,40.62725],[-81.92006,40.62725],[-81.91995,40.62726],[-81.91961,40.62726],[-81.91949,40.62727],[-81.91949,40.62727],[-81.91974,40.62654],[-81.91975,40.6265],[-81.91979,40.6264],[-81.91989,40.62597],[-81.91992,40.62584],[-81.91999,40.62544],[-81.92006,40.62502],[-81.92007,40.6249],[-81.92008,40.62477],[-81.92011,40.62447],[-81.92011,40.62403],[-81.92005,40.62327],[-81.92002,40.62297],[-81.91995,40.62247],[-81.91992,40.62226],[-81.91991,40.62221],[-81.91986,40.6219],[-81.91985,40.62186],[-81.91983,40.62172],[-81.9198,40.62154],[-81.91979,40.6215],[-81.91977,40.62136],[-81.91968,40.62083],[-81.91967,40.62079],[-81.91967,40.62076],[-81.91965,40.62065],[-81.91965,40.62061],[-81.91962,40.62047],[-81.91962,40.62043],[-81.9196,40.62029],[-81.91954,40.61993],[-81.91954,40.61989],[-81.91952,40.61976],[-81.91951,40.61971],[-81.91947,40.61943],[-81.91946,40.61936],[-81.91943,40.61922],[-81.91943,40.61918],[-81.9194,40.61904],[-81.9194,40.619],[-81.91937,40.61886],[-81.91937,40.61882],[-81.91934,40.61868],[-81.91932,40.61851],[-81.91931,40.61846],[-81.91923,40.61797],[-81.91922,40.61793],[-81.91917,40.61761],[-81.91913,40.61739],[-81.91911,40.61726],[-81.91907,40.61704],[-81.91902,40.61668],[-81.91893,40.61619],[-81.9189,40.61597],[-81.91879,40.61529],[-81.91878,40.61525],[-81.91868,40.61462],[-81.91867,40.61458],[-81.91842,40.61297],[-81.91836,40.61261],[-81.91827,40.61204],[-81.91824,40.61186],[-81.91822,40.61172],[-81.91819,40.61154],[-81.91819,40.6115],[-81.91807,40.61079],[-81.91805,40.61065],[-81.91804,40.61061],[-81.91793,40.60994],[-81.91793,40.6099],[-81.91784,40.60936],[-81.91782,40.60922],[-81.91781,40.60918],[-81.91779,40.60904],[-81.9177,40.60851],[-81.9177,40.60847],[-81.91758,40.60775],[-81.91739,40.6065],[-81.91725,40.60561],[-81.9171,40.60472],[-81.91696,40.60382],[-81.9168,40.60278],[-81.9166,40.6015],[-81.91635,40.59989],[-81.91616,40.59868],[-81.91615,40.59864],[-81.91608,40.5978],[-81.91608,40.59757],[-81.91606,40.59619],[-81.91612,40.59559],[-81.91619,40.59493],[-81.91631,40.59413],[-81.91634,40.59398],[-81.91653,40.59309],[-81.91668,40.59241],[-81.91669,40.59238],[-81.91676,40.59215],[-81.91688,40.59174],[-81.91703,40.59134],[-81.91716,40.59099],[-81.91726,40.59072],[-81.91737,40.59047],[-81.91752,40.59013],[-81.91821,40.5886],[-81.91835,40.5883],[-81.91868,40.58758],[-81.91906,40.58673],[-81.91908,40.58668],[-81.91961,40.58554],[-81.92,40.58469],[-81.92038,40.58384],[-81.92136,40.5817],[-81.92151,40.58139],[-81.92163,40.58113],[-81.92179,40.58078],[-81.92234,40.57959],[-81.92241,40.57943],[-81.92241,40.57942],[-81.92288,40.57841],[-81.92288,40.5784],[-81.9229,40.57837],[-81.92304,40.57806],[-81.92349,40.57705],[-81.9235,40.57704],[-81.92357,40.57687],[-81.92407,40.57577],[-81.92427,40.57535],[-81.92427,40.57534],[-81.92435,40.57517],[-81.9245,40.57484],[-81.9245,40.57483],[-81.92461,40.57459],[-81.92472,40.57432],[-81.92486,40.57397],[-81.92493,40.57381],[-81.92493,40.5738],[-81.92507,40.57347],[-81.92507,40.57346],[-81.92514,40.57329],[-81.92521,40.57312],[-81.92528,40.57295],[-81.92528,40.57294],[-81.92549,40.57243],[-81.92554,40.57225],[-81.92563,40.57191],[-81.92563,40.5719],[-81.92567,40.57173],[-81.92567,40.57172],[-81.92568,40.57168],[-81.92587,40.57103],[-81.92588,40.57102],[-81.92593,40.57085],[-81.92593,40.57084],[-81.92594,40.57081],[-81.92597,40.57067],[-81.92601,40.57049],[-81.92606,40.56999],[-81.92606,40.56995],[-81.92611,40.5696],[-81.92611,40.56959],[-81.92613,40.56939],[-81.92616,40.56906],[-81.92619,40.5687],[-81.92621,40.56851],[-81.92621,40.56834],[-81.92621,40.56798],[-81.92621,40.56767],[-81.92621,40.56762],[-81.92617,40.56676],[-81.92616,40.56672],[-81.92614,40.56655],[-81.92613,40.56654],[-81.9261,40.56632],[-81.92605,40.566],[-81.926,40.56565],[-81.92591,40.56507],[-81.92588,40.56493],[-81.92585,40.56476],[-81.92584,40.56476],[-81.92577,40.56441],[-81.92577,40.5644],[-81.92576,40.56436],[-81.92561,40.56388],[-81.92555,40.5637],[-81.92542,40.5633],[-81.92538,40.56318],[-81.92533,40.56301],[-81.92533,40.563],[-81.92523,40.56268],[-81.92509,40.56231],[-81.92509,40.5623],[-81.92499,40.56202],[-81.92478,40.56144],[-81.92477,40.56143],[-81.92452,40.56075],[-81.92452,40.56074],[-81.92446,40.56056],[-81.92412,40.55964],[-81.92397,40.55919],[-81.92396,40.55917],[-81.92383,40.55876],[-81.92371,40.5585],[-81.9237,40.55848],[-81.92355,40.55814],[-81.92354,40.55811],[-81.92328,40.55766],[-81.92327,40.55765],[-81.92317,40.55748],[-81.92296,40.55716],[-81.92286,40.55701],[-81.92285,40.557],[-81.92233,40.55621],[-81.92232,40.5562],[-81.92199,40.55571],[-81.92189,40.55556],[-81.92162,40.55513],[-81.92142,40.55478],[-81.9214,40.55474],[-81.92126,40.55442],[-81.92125,40.5544],[-81.92121,40.5543],[-81.92118,40.55423],[-81.92116,40.55418],[-81.9211,40.55404],[-81.92105,40.55388],[-81.921,40.5537],[-81.92098,40.55365],[-81.92094,40.55353],[-81.92088,40.55336],[-81.92086,40.55328],[-81.92077,40.55293],[-81.92074,40.55279],[-81.92072,40.55269],[-81.92073,40.55255],[-81.92074,40.55229],[-81.92077,40.55211],[-81.92082,40.55192],[-81.92087,40.55176],[-81.92102,40.55123],[-81.92108,40.55103],[-81.92109,40.55097],[-81.9211,40.55093],[-81.92111,40.55089],[-81.92112,40.5508],[-81.9212,40.54981],[-81.92122,40.5497],[-81.92122,40.54964],[-81.92121,40.5496],[-81.92119,40.54956],[-81.92115,40.54953],[-81.92112,40.54951],[-81.92107,40.54951],[-81.92103,40.5495],[-81.92094,40.5495],[-81.92059,40.54951],[-81.92051,40.54951],[-81.9204,40.54951],[-81.92037,40.54951],[-81.92035,40.54951],[-81.92033,40.5495],[-81.92032,40.5495],[-81.92031,40.54949],[-81.9203,40.54949],[-81.92029,40.54948],[-81.92028,40.54947],[-81.92027,40.54945],[-81.92026,40.54944],[-81.92026,40.54943],[-81.92026,40.54942],[-81.92025,40.54934],[-81.92024,40.54918],[-81.92024,40.5491],[-81.92022,40.54882],[-81.92016,40.54816],[-81.92016,40.5481],[-81.92013,40.54774],[-81.92011,40.54747],[-81.92008,40.54703],[-81.92006,40.54676],[-81.92,40.54618],[-81.92,40.54613],[-81.91997,40.54594],[-81.91993,40.54562],[-81.91993,40.54559],[-81.91989,40.54524],[-81.91988,40.54505],[-81.91988,40.54495],[-81.91988,40.54483],[-81.91988,40.54477],[-81.91988,40.54469],[-81.91987,40.54457],[-81.91984,40.54412],[-81.91983,40.54402],[-81.91981,40.5438],[-81.91979,40.54362],[-81.91976,40.54326],[-81.91973,40.54293],[-81.91971,40.54272],[-81.91968,40.54236],[-81.91961,40.54167],[-81.91958,40.54126],[-81.91954,40.54049],[-81.91954,40.54036],[-81.91953,40.54018],[-81.91953,40.53992],[-81.91952,40.53965],[-81.91953,40.53953],[-81.91954,40.53947],[-81.91955,40.53942],[-81.91956,40.53931],[-81.91956,40.53929],[-81.91956,40.53922],[-81.91956,40.53915],[-81.91955,40.53894],[-81.91957,40.53877],[-81.91962,40.53842],[-81.91962,40.53839],[-81.91965,40.53821],[-81.91967,40.53808],[-81.91972,40.53782],[-81.91976,40.53754],[-81.91981,40.53732],[-81.91982,40.53726],[-81.91989,40.53697],[-81.91993,40.53679],[-81.91999,40.53652],[-81.92001,40.53643],[-81.92003,40.53633],[-81.92005,40.53626],[-81.9201,40.5361],[-81.9201,40.53608],[-81.92016,40.53591],[-81.92018,40.53585],[-81.92028,40.53558],[-81.92037,40.53535],[-81.92041,40.53525],[-81.92043,40.5352],[-81.92069,40.53451],[-81.9207,40.53447],[-81.92075,40.53435],[-81.92076,40.53434],[-81.92083,40.53414],[-81.92089,40.53399],[-81.92092,40.5339],[-81.92099,40.5337],[-81.92108,40.53347],[-81.92108,40.53346],[-81.92131,40.5328],[-81.92137,40.53267],[-81.92142,40.53253],[-81.92159,40.53199],[-81.92168,40.53176],[-81.92187,40.5312],[-81.92192,40.53106],[-81.92223,40.53019],[-81.92226,40.53012],[-81.92236,40.52985],[-81.92269,40.52893],[-81.92304,40.52789],[-81.92334,40.52702],[-81.92341,40.52683],[-81.92364,40.52633],[-81.9238,40.52598],[-81.92426,40.52516],[-81.92484,40.52418],[-81.92544,40.52317],[-81.92552,40.52303],[-81.92562,40.52287],[-81.92614,40.52196],[-81.92638,40.52155],[-81.92666,40.52106],[-81.92727,40.52],[-81.92733,40.51991],[-81.92743,40.51974],[-81.92753,40.51958],[-81.92772,40.51925],[-81.92811,40.5186],[-81.92821,40.51843],[-81.9284,40.5181],[-81.9286,40.51778],[-81.9287,40.51761],[-81.92909,40.51696],[-81.92919,40.51679],[-81.92928,40.51663],[-81.92929,40.51662],[-81.92937,40.51646],[-81.92955,40.51613],[-81.92964,40.51596],[-81.92991,40.51544],[-81.92991,40.51544],[-81.92974,40.51546],[-81.92944,40.51546],[-81.92935,40.51546],[-81.9292,40.51545],[-81.92896,40.51545],[-81.92868,40.51544],[-81.92826,40.51543],[-81.92809,40.51542],[-81.92802,40.51543],[-81.92798,40.51543],[-81.92787,40.51545],[-81.92771,40.5155],[-81.92758,40.51555],[-81.92729,40.51566],[-81.92715,40.5157],[-81.92709,40.51571],[-81.92694,40.51573],[-81.92692,40.51573],[-81.92673,40.51573],[-81.92668,40.51573],[-81.92644,40.51572],[-81.92622,40.51571],[-81.92621,40.5157],[-81.92554,40.51566],[-81.92526,40.51565],[-81.92479,40.51563],[-81.92463,40.51563],[-81.92455,40.51563],[-81.92432,40.51562],[-81.92408,40.51562],[-81.92384,40.51561],[-81.92361,40.51561],[-81.92337,40.51561],[-81.9231,40.5156],[-81.92297,40.5156],[-81.92273,40.51559],[-81.92273,40.51559],[-81.92276,40.51541],[-81.9228,40.51506],[-81.9228,40.51505],[-81.9228,40.51494],[-81.9228,40.51479],[-81.9228,40.51467],[-81.92279,40.51457],[-81.92277,40.5144],[-81.92273,40.51426],[-81.92271,40.51416],[-81.9227,40.51411],[-81.9227,40.51411],[-81.9225,40.51411],[-81.92246,40.51411],[-81.92231,40.51412],[-81.92202,40.51413],[-81.92199,40.51413],[-81.92175,40.51415],[-81.92164,40.51415],[-81.92152,40.51418],[-81.92141,40.5142],[-81.92129,40.51425],[-81.92119,40.51433],[-81.92099,40.51451],[-81.92097,40.51452],[-81.92084,40.51465],[-81.92069,40.51479],[-81.92059,40.51488],[-81.92056,40.51494],[-81.92047,40.51511],[-81.92041,40.51521],[-81.92025,40.5154],[-81.92006,40.51554],[-81.91973,40.51579],[-81.91973,40.5158],[-81.91957,40.51588],[-81.91946,40.51592],[-81.91935,40.51594],[-81.91931,40.51594],[-81.91917,40.51594],[-81.91907,40.51594],[-81.9186,40.51595],[-81.91812,40.51595],[-81.91789,40.51595],[-81.91787,40.51595],[-81.91702,40.51596],[-81.91671,40.51592],[-81.91664,40.51591],[-81.91647,40.51585],[-81.91626,40.51574],[-81.91612,40.51563],[-81.91578,40.51538],[-81.91556,40.51522],[-81.91545,40.51514],[-81.91544,40.51513],[-81.91535,40.51508],[-81.91524,40.51504],[-81.91508,40.515],[-81.91501,40.51499],[-81.91478,40.51495],[-81.91455,40.51491],[-81.91441,40.51489],[-81.91431,40.51489],[-81.91411,40.51489],[-81.91408,40.51489],[-81.91384,40.51488],[-81.91348,40.51486],[-81.91288,40.51485],[-81.91257,40.51484],[-81.91233,40.51483],[-81.91202,40.51482],[-81.91193,40.51482],[-81.91175,40.51481],[-81.91163,40.5148],[-81.91116,40.51477],[-81.91105,40.51476],[-81.91092,40.51476],[-81.91084,40.51476],[-81.91077,40.51477],[-81.91066,40.51479],[-81.91051,40.51482],[-81.91023,40.51489],[-81.91022,40.51489],[-81.91001,40.51495],[-81.90983,40.51501],[-81.90949,40.51509],[-81.90944,40.5151],[-81.90934,40.51512],[-81.90911,40.51516],[-81.90888,40.51521],[-81.90865,40.51525],[-81.90857,40.51527],[-81.90849,40.51529],[-81.90832,40.51533],[-81.90824,40.51536],[-81.90822,40.51536],[-81.90813,40.51537],[-81.90798,40.51538],[-81.90779,40.51539],[-81.90777,40.51539],[-81.90774,40.51539],[-81.90768,40.51539],[-81.90768,40.51539],[-81.90769,40.51534],[-81.90769,40.51534],[-81.90774,40.51533],[-81.90777,40.51532],[-81.90781,40.51529],[-81.90786,40.51523],[-81.90791,40.51515],[-81.908,40.51502],[-81.90808,40.5149],[-81.90814,40.51479],[-81.90816,40.51475],[-81.90817,40.51471],[-81.90817,40.51468],[-81.90816,40.51466],[-81.90816,40.51465],[-81.90815,40.51464],[-81.90813,40.51463],[-81.90807,40.51461],[-81.90795,40.51459],[-81.90795,40.51459],[-81.90797,40.51454],[-81.90797,40.51454],[-81.90794,40.51451],[-81.90792,40.51446],[-81.9079,40.51437],[-81.90788,40.51426],[-81.90787,40.51419],[-81.90785,40.51409],[-81.90786,40.51397],[-81.90787,40.51388],[-81.9079,40.5138],[-81.90794,40.51371],[-81.90796,40.51366],[-81.90798,40.51362]]}}]}