{"type":"FeatureCollection","features":[{"type":"Feature","properties":{"_gpxType":"trk","name":"594 South 515 West, Cedar City, UT - 451 N Main St - Travelodge by Wyndham Milford, Utah 21, Milford, UT","coordinateProperties":{},"id":90},"geometry":{"type":"LineString","coordinates":[[-113.07022,37.66657],[-113.07012,37.66657],[-113.07002,37.66658],[-113.06995,37.66657],[-113.06982,37.66657],[-113.06921,37.66657],[-113.06909,37.66657],[-113.06895,37.66657],[-113.06879,37.66657],[-113.06862,37.66657],[-113.0683,37.66657],[-113.06672,37.66657],[-113.06649,37.66657],[-113.0662,37.66656],[-113.0661,37.66656],[-113.06576,37.66656],[-113.0656,37.66656],[-113.06548,37.66653],[-113.06546,37.66652],[-113.06543,37.66651],[-113.06541,37.6665],[-113.06536,37.66648],[-113.06519,37.66637],[-113.06498,37.66619],[-113.06491,37.66614],[-113.06485,37.66609],[-113.06476,37.66602],[-113.06443,37.66577],[-113.06443,37.66577],[-113.06392,37.66616],[-113.06366,37.66637],[-113.06346,37.66654],[-113.06304,37.6669],[-113.06304,37.66691],[-113.0627,37.66728],[-113.0627,37.66729],[-113.06255,37.66748],[-113.06244,37.66764],[-113.06238,37.66772],[-113.06232,37.66783],[-113.0621,37.66821],[-113.0621,37.66821],[-113.06191,37.66864],[-113.06179,37.66904],[-113.06178,37.66907],[-113.06174,37.66925],[-113.06171,37.66938],[-113.0617,37.66942],[-113.0617,37.66943],[-113.06164,37.66983],[-113.06164,37.67014],[-113.06163,37.67041],[-113.06164,37.67097],[-113.06164,37.6711],[-113.06164,37.67115],[-113.06165,37.67149],[-113.06165,37.67151],[-113.06165,37.67173],[-113.06166,37.67187],[-113.06166,37.67225],[-113.06168,37.67301],[-113.06169,37.67345],[-113.06169,37.67385],[-113.0617,37.67447],[-113.0617,37.6747],[-113.06171,37.67496],[-113.06171,37.67514],[-113.06171,37.6755],[-113.06172,37.67588],[-113.06172,37.67614],[-113.06172,37.67628],[-113.06173,37.67646],[-113.06173,37.67682],[-113.06174,37.67712],[-113.06174,37.67736],[-113.06175,37.6779],[-113.06176,37.67835],[-113.06177,37.67856],[-113.06178,37.67906],[-113.06178,37.67968],[-113.06179,37.68051],[-113.06179,37.6809],[-113.06181,37.68154],[-113.06182,37.68202],[-113.06183,37.68251],[-113.06183,37.68259],[-113.06184,37.68311],[-113.06184,37.68336],[-113.06186,37.68444],[-113.06187,37.68466],[-113.06187,37.685],[-113.06187,37.68508]]}},{"type":"Feature","properties":{"_gpxType":"trk","name":"594 South 515 West, Cedar City, UT - 451 N Main St - Travelodge by Wyndham Milford, Utah 21, Milford, UT","coordinateProperties":{},"id":90},"geometry":{"type":"LineString","coordinates":[[-113.06187,37.68508],[-113.06188,37.6854],[-113.06188,37.68556],[-113.06188,37.68557],[-113.06189,37.68629],[-113.0619,37.68656],[-113.0619,37.68665],[-113.06189,37.68675],[-113.06189,37.68683],[-113.0619,37.68708],[-113.0619,37.68732],[-113.06191,37.68762],[-113.06191,37.68786],[-113.06191,37.68795],[-113.06192,37.68838],[-113.06192,37.68894],[-113.06192,37.68926],[-113.06193,37.68988],[-113.06193,37.69011],[-113.06193,37.69056],[-113.06195,37.69112],[-113.06195,37.69146],[-113.06196,37.69183],[-113.06203,37.69266],[-113.06207,37.69292],[-113.06218,37.69342],[-113.06232,37.69386],[-113.06254,37.69456],[-113.06257,37.69466],[-113.06276,37.69521],[-113.06276,37.69521],[-113.06322,37.69654],[-113.06339,37.697],[-113.06353,37.6974],[-113.06366,37.69781],[-113.0637,37.69793],[-113.06374,37.69811],[-113.06374,37.6982],[-113.06375,37.69824],[-113.06382,37.69858],[-113.06393,37.69919],[-113.06399,37.69972],[-113.064,37.70036],[-113.06399,37.7005],[-113.06395,37.70106],[-113.06392,37.70124],[-113.06388,37.70142],[-113.06379,37.70195],[-113.06366,37.70268],[-113.06362,37.70286],[-113.06356,37.70318],[-113.06352,37.70342],[-113.06348,37.7036],[-113.06342,37.70395],[-113.06337,37.70413],[-113.0633,37.70445],[-113.06326,37.70462],[-113.06323,37.70476],[-113.06321,37.7048],[-113.06311,37.70515],[-113.06296,37.70568],[-113.06276,37.70638],[-113.06239,37.70753],[-113.06228,37.70789],[-113.06207,37.70863],[-113.06186,37.70933],[-113.06178,37.70964],[-113.06171,37.70988],[-113.06165,37.7101],[-113.06139,37.71091],[-113.06131,37.7112],[-113.06129,37.71127],[-113.06119,37.71162],[-113.06108,37.71203],[-113.06096,37.71236],[-113.06073,37.71314],[-113.0606,37.7136],[-113.06042,37.71419],[-113.06032,37.71455],[-113.06011,37.71524],[-113.06005,37.71545],[-113.05979,37.71633],[-113.05969,37.71668],[-113.05951,37.71732],[-113.05949,37.71738],[-113.05944,37.71754],[-113.05934,37.71777],[-113.0593,37.71786],[-113.05924,37.71795],[-113.05916,37.71808],[-113.05892,37.71838],[-113.05861,37.71863],[-113.05842,37.71876],[-113.05829,37.71884],[-113.05781,37.71909],[-113.0578,37.71909],[-113.05704,37.71947],[-113.05672,37.71964],[-113.05631,37.71985],[-113.05536,37.72035],[-113.05479,37.72064],[-113.05403,37.72104],[-113.05345,37.72135],[-113.0527,37.72173],[-113.05261,37.72178],[-113.05232,37.72193],[-113.05173,37.72223],[-113.05134,37.72243],[-113.05122,37.7225],[-113.05115,37.72253],[-113.05099,37.72263],[-113.05088,37.72269],[-113.0508,37.72276],[-113.05069,37.72285],[-113.05061,37.72291],[-113.05049,37.72302],[-113.05039,37.72313],[-113.05036,37.72317],[-113.05034,37.7232],[-113.05026,37.72331],[-113.05014,37.72349],[-113.05005,37.72365],[-113.05004,37.72367],[-113.05,37.72376],[-113.04998,37.72382],[-113.04996,37.72388],[-113.04993,37.724],[-113.04992,37.72403],[-113.04989,37.72419],[-113.04988,37.72431],[-113.04988,37.72448],[-113.04989,37.72463],[-113.04994,37.72493],[-113.05,37.72525],[-113.05008,37.72576],[-113.05008,37.72578],[-113.05011,37.72594],[-113.05012,37.726],[-113.05016,37.72611],[-113.05019,37.7262],[-113.05024,37.7263],[-113.0503,37.72643],[-113.05032,37.72645],[-113.05037,37.72654],[-113.0504,37.72659],[-113.05042,37.72662],[-113.05043,37.72664],[-113.05051,37.72673],[-113.05064,37.72688],[-113.05078,37.72702],[-113.05079,37.72703],[-113.05092,37.72714],[-113.05095,37.72716],[-113.05129,37.7274],[-113.05187,37.72775],[-113.05223,37.72797],[-113.05251,37.72814],[-113.05253,37.72815],[-113.05258,37.72818],[-113.05276,37.72829],[-113.05277,37.7283],[-113.05283,37.72833],[-113.05312,37.72851],[-113.05341,37.72868],[-113.05377,37.7289],[-113.05398,37.72903],[-113.05436,37.72928],[-113.05451,37.72941],[-113.05452,37.72942],[-113.05462,37.7295],[-113.05466,37.72955],[-113.05472,37.72961],[-113.05479,37.7297],[-113.0548,37.72971],[-113.05489,37.72983],[-113.05502,37.73006],[-113.05515,37.73035],[-113.05518,37.73044],[-113.05518,37.73047],[-113.05521,37.73062],[-113.05522,37.73066],[-113.05523,37.7308],[-113.05523,37.73084],[-113.05524,37.73096],[-113.05523,37.73134],[-113.05523,37.73214],[-113.05523,37.73226],[-113.05523,37.73342],[-113.05523,37.73408],[-113.05522,37.73497],[-113.05523,37.73682],[-113.05523,37.73808],[-113.05523,37.73845],[-113.05523,37.73889],[-113.05523,37.73943],[-113.05523,37.73961],[-113.05524,37.73997],[-113.05524,37.74013],[-113.05524,37.74033],[-113.05524,37.7417],[-113.05524,37.74201],[-113.05524,37.7431],[-113.05524,37.74495],[-113.05524,37.74682],[-113.05524,37.74699],[-113.05524,37.74712],[-113.05524,37.74769],[-113.05525,37.74825],[-113.05525,37.74915],[-113.05525,37.75051],[-113.05526,37.75256],[-113.05526,37.75382],[-113.05525,37.75423],[-113.05525,37.75528],[-113.05527,37.75809],[-113.05529,37.76034],[-113.0553,37.76082],[-113.0553,37.76113],[-113.05529,37.76186],[-113.05529,37.76279],[-113.05529,37.76417],[-113.05527,37.76421],[-113.05526,37.76421],[-113.05525,37.76439],[-113.05524,37.76445],[-113.05519,37.76454],[-113.05519,37.76454],[-113.05517,37.76455],[-113.05516,37.76456],[-113.05514,37.76457],[-113.05512,37.76458],[-113.05511,37.7646],[-113.05509,37.76461],[-113.05508,37.76463],[-113.05508,37.76464],[-113.05507,37.76464],[-113.05506,37.76466],[-113.05506,37.76467],[-113.05505,37.76469],[-113.05505,37.76471],[-113.05505,37.76472],[-113.05505,37.76474],[-113.05505,37.76476],[-113.05506,37.76477],[-113.05506,37.76479],[-113.05506,37.7648],[-113.05507,37.76481],[-113.05508,37.76482],[-113.05509,37.76484],[-113.0551,37.76485],[-113.05512,37.76486],[-113.05514,37.76487],[-113.05515,37.76488],[-113.05517,37.76489],[-113.05519,37.7649],[-113.05524,37.76504],[-113.05525,37.76509],[-113.05525,37.76526],[-113.05524,37.76568],[-113.05526,37.76673],[-113.05526,37.76674],[-113.05528,37.76679],[-113.05527,37.76709],[-113.05527,37.76778],[-113.05527,37.76897],[-113.05527,37.76944],[-113.05526,37.77063],[-113.05525,37.77217],[-113.05527,37.77343],[-113.05526,37.77619],[-113.05526,37.77669],[-113.05526,37.77806],[-113.05526,37.77912],[-113.05525,37.77936],[-113.05525,37.77948],[-113.05524,37.77962],[-113.05522,37.77977],[-113.05522,37.77985],[-113.0552,37.77996],[-113.05517,37.78013],[-113.05514,37.78023],[-113.0551,37.78037],[-113.05508,37.78048],[-113.05501,37.78069],[-113.05495,37.78083],[-113.05491,37.78096],[-113.05488,37.78101],[-113.05483,37.78114],[-113.05476,37.78128],[-113.05472,37.78135],[-113.05465,37.78148],[-113.05456,37.78163],[-113.05448,37.78175],[-113.0544,37.78187],[-113.05435,37.78195],[-113.05427,37.78204],[-113.05416,37.78218],[-113.05409,37.78228],[-113.05399,37.78239],[-113.05383,37.78255],[-113.05372,37.78266],[-113.05356,37.7828],[-113.05345,37.7829],[-113.05323,37.78307],[-113.053,37.78324],[-113.05278,37.78343],[-113.05262,37.78355],[-113.05248,37.78367],[-113.05243,37.78371],[-113.05239,37.78374],[-113.05225,37.78387],[-113.05214,37.78398],[-113.05207,37.78404],[-113.05196,37.78416],[-113.05176,37.7844],[-113.05161,37.7846],[-113.05148,37.78478],[-113.0514,37.78491],[-113.05128,37.7851],[-113.05118,37.78528],[-113.05112,37.78542],[-113.05104,37.78561],[-113.05096,37.78579],[-113.05092,37.78591],[-113.05086,37.78611],[-113.05081,37.78629],[-113.05078,37.78642],[-113.05075,37.78661],[-113.05073,37.78674],[-113.05072,37.78686],[-113.05071,37.78699],[-113.05071,37.78709],[-113.0507,37.78731],[-113.0507,37.78796],[-113.0507,37.7884],[-113.05067,37.7909],[-113.05064,37.79492],[-113.05061,37.79786],[-113.0506,37.79845],[-113.0506,37.79856],[-113.05059,37.80101],[-113.05058,37.80223],[-113.05054,37.80491],[-113.05053,37.80653],[-113.0505,37.80976],[-113.05048,37.8125],[-113.05048,37.81322],[-113.05045,37.81718],[-113.05043,37.81942],[-113.05041,37.8232],[-113.05039,37.82424],[-113.05038,37.82613],[-113.05036,37.82811],[-113.05034,37.83155],[-113.05033,37.83194],[-113.05033,37.83234],[-113.05033,37.83266],[-113.05032,37.83349],[-113.05031,37.8339],[-113.05031,37.83394],[-113.05029,37.83425],[-113.05026,37.83448],[-113.05023,37.83466],[-113.05022,37.83471],[-113.05014,37.83506],[-113.05007,37.83531],[-113.05003,37.83543],[-113.04995,37.83565],[-113.04987,37.83584],[-113.04975,37.83609],[-113.04966,37.83626],[-113.04951,37.83652],[-113.0494,37.83669],[-113.04927,37.83687],[-113.04921,37.83695],[-113.04904,37.83717],[-113.04891,37.83732],[-113.04882,37.83743],[-113.04866,37.83761],[-113.04838,37.83787],[-113.04803,37.83819],[-113.0478,37.83842],[-113.04734,37.83885],[-113.047,37.83918],[-113.04686,37.83932],[-113.04615,37.84],[-113.04578,37.84038],[-113.04526,37.84084],[-113.04487,37.84118],[-113.04451,37.84155],[-113.04424,37.8418],[-113.04364,37.84238],[-113.04281,37.84316],[-113.04236,37.84361],[-113.04232,37.84364],[-113.04102,37.84492],[-113.0408,37.84516],[-113.04,37.84593],[-113.03841,37.84747],[-113.03813,37.84774],[-113.03812,37.84775],[-113.03712,37.84872],[-113.0364,37.84942],[-113.03511,37.85078],[-113.03452,37.85145],[-113.03439,37.8516],[-113.03426,37.85175],[-113.03421,37.8518],[-113.03383,37.85226],[-113.03367,37.85247],[-113.03349,37.85275],[-113.03335,37.85299],[-113.0333,37.85306],[-113.03325,37.85315],[-113.03325,37.85316],[-113.0332,37.85325],[-113.03286,37.85386],[-113.0327,37.85418],[-113.03255,37.85447],[-113.03255,37.85449],[-113.03228,37.85501],[-113.03193,37.8557],[-113.03184,37.85591],[-113.03176,37.85615],[-113.03173,37.85626],[-113.03171,37.85638],[-113.03168,37.85657],[-113.03168,37.85658],[-113.03167,37.85664],[-113.03166,37.85676],[-113.03166,37.8568],[-113.03166,37.85707],[-113.03166,37.85717],[-113.03166,37.85737],[-113.03165,37.85792],[-113.03165,37.85809],[-113.03165,37.85857],[-113.03165,37.8586],[-113.03165,37.85875],[-113.03165,37.85924],[-113.03165,37.85968],[-113.03165,37.85985],[-113.03164,37.86076],[-113.03164,37.86219],[-113.03164,37.86309],[-113.03163,37.86865],[-113.03163,37.86883],[-113.03163,37.87191],[-113.03162,37.87242],[-113.03162,37.87353],[-113.03162,37.87368],[-113.03161,37.87865],[-113.0316,37.88189],[-113.0316,37.8832],[-113.0316,37.88337],[-113.0316,37.88338],[-113.0316,37.88446],[-113.0316,37.88536],[-113.03159,37.88608],[-113.03159,37.88815],[-113.03158,37.88838],[-113.03158,37.88887],[-113.03158,37.88941],[-113.03158,37.8905],[-113.03158,37.89103],[-113.03158,37.89144],[-113.03158,37.89247],[-113.03158,37.89312],[-113.03157,37.89369],[-113.03156,37.89482],[-113.03156,37.89513],[-113.03156,37.89693],[-113.03156,37.89697],[-113.03156,37.897],[-113.03156,37.89729],[-113.03156,37.89821],[-113.03156,37.89897],[-113.03155,37.9016],[-113.03155,37.90164],[-113.03155,37.9034],[-113.03155,37.90363],[-113.03154,37.90395],[-113.03154,37.90507],[-113.03154,37.9065],[-113.03154,37.90668],[-113.03154,37.9074],[-113.03154,37.90812],[-113.03154,37.90884],[-113.03154,37.9092],[-113.03153,37.9101],[-113.03153,37.91028],[-113.03153,37.91167],[-113.03153,37.91179],[-113.03153,37.91263],[-113.03152,37.91407],[-113.03152,37.91409],[-113.03152,37.91443],[-113.03152,37.91551],[-113.03153,37.91655],[-113.03153,37.91677],[-113.03152,37.91892],[-113.03152,37.91928],[-113.03152,37.91946],[-113.03151,37.92092],[-113.03151,37.92234],[-113.03151,37.92252],[-113.03151,37.9227],[-113.03151,37.92389],[-113.03151,37.92468],[-113.03151,37.92486],[-113.03151,37.92547],[-113.03149,37.92585],[-113.03147,37.92602],[-113.03144,37.9263],[-113.03139,37.9265],[-113.03135,37.92666],[-113.0313,37.92683],[-113.03127,37.92692],[-113.03119,37.92711],[-113.03098,37.92754],[-113.03082,37.92781],[-113.03067,37.92804],[-113.02963,37.92958],[-113.02955,37.92969],[-113.02944,37.92985],[-113.02848,37.93128],[-113.02837,37.93143],[-113.0282,37.93168],[-113.02751,37.93269],[-113.0274,37.93286],[-113.02718,37.93318],[-113.02699,37.93346],[-113.02665,37.93397],[-113.02654,37.93413],[-113.02633,37.93445],[-113.02626,37.93455],[-113.02538,37.93583],[-113.02535,37.93587],[-113.02513,37.93619],[-113.02492,37.93651],[-113.02416,37.93761],[-113.02319,37.93904],[-113.02287,37.93952],[-113.02244,37.94015],[-113.02233,37.94031],[-113.02203,37.94077],[-113.0218,37.9411],[-113.02167,37.94129],[-113.02093,37.94237],[-113.0205,37.94301],[-113.01997,37.94379],[-113.01981,37.94402],[-113.0192,37.94491],[-113.0187,37.94565],[-113.01867,37.9457],[-113.01856,37.94586],[-113.01833,37.9462],[-113.01813,37.9465],[-113.01803,37.94665],[-113.01781,37.94697],[-113.01738,37.94761],[-113.01721,37.94786],[-113.01654,37.94885],[-113.01591,37.94976],[-113.01533,37.95062],[-113.01522,37.95077],[-113.01511,37.95093],[-113.01468,37.95157],[-113.01436,37.95204],[-113.01369,37.95303],[-113.01339,37.95347],[-113.01311,37.95389],[-113.01221,37.95521],[-113.0121,37.95537],[-113.01203,37.95547],[-113.01199,37.95553],[-113.01146,37.95632],[-113.01113,37.95681],[-113.01077,37.95734],[-113.0106,37.95759],[-113.0102,37.95819],[-113.01007,37.95837],[-113.00985,37.9587],[-113.00969,37.95893],[-113.00961,37.95905],[-113.0094,37.95936],[-113.00921,37.95967],[-113.00914,37.95979],[-113.00906,37.95993],[-113.00893,37.96019],[-113.00882,37.96041],[-113.00876,37.96056],[-113.0087,37.96071],[-113.00861,37.96095],[-113.00854,37.96115],[-113.00845,37.96149],[-113.00841,37.96164],[-113.0084,37.96167],[-113.00837,37.96179],[-113.00822,37.96236],[-113.00808,37.96291],[-113.00806,37.963],[-113.00795,37.9634],[-113.00792,37.96351],[-113.00777,37.96408],[-113.00764,37.9646],[-113.00748,37.96521],[-113.00735,37.96569],[-113.00732,37.96579],[-113.00721,37.96625],[-113.00719,37.96632],[-113.00717,37.9664],[-113.00707,37.96682],[-113.00699,37.9671],[-113.00695,37.96728],[-113.00695,37.96729],[-113.0069,37.96746],[-113.00689,37.96749],[-113.00685,37.96766],[-113.00675,37.96802],[-113.00661,37.96855],[-113.0065,37.96896],[-113.00642,37.9693],[-113.00629,37.96982],[-113.00622,37.9701],[-113.00617,37.97025],[-113.00617,37.97028],[-113.00602,37.97088],[-113.0058,37.97172],[-113.00576,37.97186],[-113.00573,37.97199],[-113.00571,37.97204],[-113.00544,37.9731],[-113.00537,37.97336],[-113.0052,37.974],[-113.00474,37.97574],[-113.0046,37.97626],[-113.00409,37.97821],[-113.00409,37.97822],[-113.00371,37.9797],[-113.00368,37.97979],[-113.0035,37.98046],[-113.0034,37.98085],[-113.00295,37.98259],[-113.00267,37.98367],[-113.00221,37.98543],[-113.00168,37.98744],[-113.00152,37.98804],[-113.00119,37.9893],[-113.00103,37.98993],[-113.00086,37.9906],[-113.0007,37.99121],[-113.00065,37.99138],[-113.00064,37.99145],[-113.00056,37.99174],[-113.00045,37.99214],[-113.00026,37.99288],[-113.00024,37.99297],[-113.00013,37.99339],[-113.0001,37.9935],[-113.00001,37.99386],[-112.99989,37.99433],[-112.99978,37.99476],[-112.99966,37.9952],[-112.99953,37.9957],[-112.99941,37.99618],[-112.99928,37.99666],[-112.99919,37.99702],[-112.99915,37.99715],[-112.99914,37.9972],[-112.99901,37.99768],[-112.999,37.99773],[-112.99887,37.99821],[-112.99877,37.9986],[-112.99867,37.99896],[-112.99864,37.99909],[-112.99849,37.99965],[-112.99849,37.99966],[-112.99844,37.99984],[-112.99837,38.00012],[-112.99825,38.00057],[-112.99812,38.00109],[-112.99801,38.00157],[-112.99793,38.00206],[-112.99786,38.0025],[-112.99785,38.00253],[-112.99782,38.00285],[-112.9978,38.00312],[-112.99779,38.00344],[-112.99779,38.00357],[-112.99778,38.00375],[-112.99779,38.00421],[-112.99779,38.00492],[-112.9978,38.00537],[-112.99782,38.00664],[-112.99783,38.0076],[-112.99783,38.00789],[-112.99783,38.00801],[-112.99784,38.00861],[-112.99784,38.00879],[-112.99785,38.00923],[-112.99785,38.00957],[-112.99786,38.0099],[-112.99788,38.01023],[-112.99789,38.01065],[-112.99791,38.0111],[-112.99791,38.01131],[-112.99792,38.01149],[-112.99792,38.01154],[-112.99793,38.01167],[-112.99794,38.01231],[-112.99794,38.01286],[-112.99795,38.01341],[-112.99795,38.01427],[-112.99796,38.01454],[-112.99796,38.01472],[-112.99797,38.01505],[-112.99797,38.01559],[-112.99799,38.01602],[-112.998,38.01634],[-112.99801,38.01657],[-112.99803,38.01701],[-112.99804,38.01792],[-112.99804,38.01814],[-112.99806,38.01904],[-112.99806,38.01922],[-112.99807,38.01976],[-112.9981,38.02142],[-112.99814,38.02335],[-112.99816,38.02479],[-112.99817,38.02537],[-112.99817,38.02551],[-112.99818,38.02641],[-112.99819,38.02653],[-112.9982,38.02713],[-112.9982,38.02731],[-112.99821,38.02771],[-112.99825,38.02907],[-112.99827,38.02978],[-112.99829,38.03068],[-112.99831,38.0314],[-112.99832,38.03194],[-112.99834,38.03247],[-112.99834,38.0327],[-112.99836,38.03301],[-112.99838,38.03347],[-112.99838,38.03361],[-112.99837,38.03386],[-112.99836,38.03404],[-112.99832,38.03424],[-112.99826,38.03451],[-112.99824,38.03461],[-112.99811,38.03512],[-112.99805,38.03529],[-112.99802,38.03538],[-112.99795,38.03556],[-112.99785,38.0358],[-112.99775,38.03601],[-112.99762,38.03624],[-112.9975,38.03647],[-112.99737,38.03668],[-112.99735,38.03672],[-112.99726,38.03687],[-112.99725,38.03688],[-112.99714,38.03704],[-112.99713,38.03707],[-112.997,38.03724],[-112.9968,38.03749],[-112.99661,38.0377],[-112.99627,38.03808],[-112.99626,38.0381],[-112.99584,38.0385],[-112.9957,38.03864],[-112.99541,38.03892],[-112.99438,38.03993],[-112.99417,38.04014],[-112.99392,38.04038],[-112.99384,38.04046],[-112.99367,38.04063],[-112.99345,38.04084],[-112.99341,38.04088],[-112.99319,38.04109],[-112.99298,38.04129],[-112.99294,38.04133],[-112.99269,38.04157],[-112.99246,38.04179],[-112.9924,38.04185],[-112.99224,38.042],[-112.99211,38.04213],[-112.99201,38.04222],[-112.99182,38.04241],[-112.99178,38.04245],[-112.99152,38.0427],[-112.99139,38.04283],[-112.99133,38.04289],[-112.99125,38.04297],[-112.99114,38.04307],[-112.99089,38.04331],[-112.99081,38.04339],[-112.99065,38.04354],[-112.99052,38.04366],[-112.99037,38.04382],[-112.9901,38.04407],[-112.98986,38.0443],[-112.98967,38.0445],[-112.98947,38.04469],[-112.98938,38.04478],[-112.98926,38.0449],[-112.98907,38.04509],[-112.98895,38.04521],[-112.9889,38.04526],[-112.98868,38.04548],[-112.98852,38.04563],[-112.98844,38.0457],[-112.98837,38.04576],[-112.9882,38.04594],[-112.98796,38.04616],[-112.98774,38.04638],[-112.98753,38.04658],[-112.98751,38.0466],[-112.9873,38.04679],[-112.98721,38.04688],[-112.98709,38.04699],[-112.98707,38.04701],[-112.98688,38.04719],[-112.98678,38.04729],[-112.98669,38.04738],[-112.98663,38.04743],[-112.98648,38.04758],[-112.98629,38.04777],[-112.98609,38.04795],[-112.98589,38.04813],[-112.98574,38.04825],[-112.98574,38.04826],[-112.98559,38.04837],[-112.98534,38.04855],[-112.98524,38.04861],[-112.9851,38.0487],[-112.98482,38.04887],[-112.98469,38.04893],[-112.98458,38.04899],[-112.98449,38.04903],[-112.98422,38.04916],[-112.9839,38.0493],[-112.98355,38.04945],[-112.9835,38.04947],[-112.98311,38.04964],[-112.9831,38.04964],[-112.98289,38.04973],[-112.98252,38.04988],[-112.98249,38.0499],[-112.9817,38.05023],[-112.98108,38.05049],[-112.98096,38.05055],[-112.98068,38.05066],[-112.98048,38.05075],[-112.98015,38.05089],[-112.97988,38.05101],[-112.97941,38.0512],[-112.97867,38.05152],[-112.97863,38.05153],[-112.97827,38.05169],[-112.97812,38.05175],[-112.97751,38.05201],[-112.97746,38.05203],[-112.97686,38.05228],[-112.97681,38.05231],[-112.97646,38.05245],[-112.97616,38.05258],[-112.97585,38.05271],[-112.97559,38.05282],[-112.97545,38.05288],[-112.97507,38.05304],[-112.97458,38.05325],[-112.97425,38.05339],[-112.97416,38.05343],[-112.97384,38.05356],[-112.97375,38.05361],[-112.97364,38.05365],[-112.97327,38.05381],[-112.97324,38.05382],[-112.97293,38.05396],[-112.97265,38.0541],[-112.97257,38.05414],[-112.97227,38.05429],[-112.97218,38.05434],[-112.97208,38.05439],[-112.97186,38.05451],[-112.97151,38.05472],[-112.97119,38.05492],[-112.97117,38.05493],[-112.97086,38.05515],[-112.97082,38.05517],[-112.97058,38.05535],[-112.97032,38.05554],[-112.97023,38.05561],[-112.97016,38.05567],[-112.97001,38.0558],[-112.96998,38.05582],[-112.96975,38.05601],[-112.96946,38.05628],[-112.96926,38.05648],[-112.96912,38.05662],[-112.96902,38.05673],[-112.96899,38.05677],[-112.96883,38.05693],[-112.96862,38.05718],[-112.96837,38.05748],[-112.96835,38.05751],[-112.96824,38.05767],[-112.96809,38.05788],[-112.96774,38.0584],[-112.96748,38.05878],[-112.96718,38.05925],[-112.96674,38.0599],[-112.96664,38.06005],[-112.96642,38.06037],[-112.96619,38.06072],[-112.96579,38.06133],[-112.96568,38.06149],[-112.96537,38.06195],[-112.96536,38.06196],[-112.96525,38.06212],[-112.96494,38.0626],[-112.96483,38.06276],[-112.96462,38.06308],[-112.96452,38.06324],[-112.96336,38.06498],[-112.96335,38.065],[-112.96305,38.06545],[-112.96279,38.06583],[-112.96274,38.06591],[-112.96273,38.06592],[-112.96269,38.066],[-112.96241,38.06646],[-112.9624,38.06649],[-112.96223,38.06682],[-112.96212,38.06708],[-112.96209,38.06716],[-112.96209,38.06717],[-112.96196,38.06753],[-112.96194,38.0676],[-112.96191,38.06768],[-112.96186,38.06786],[-112.96185,38.0679],[-112.96182,38.06803],[-112.96175,38.06831],[-112.96174,38.06839],[-112.96167,38.06873],[-112.96162,38.06902],[-112.96154,38.06946],[-112.96151,38.06963],[-112.96148,38.06979],[-112.96148,38.06981],[-112.96142,38.07017],[-112.96139,38.0703],[-112.96133,38.0707],[-112.96132,38.07078],[-112.9613,38.07088],[-112.96116,38.07164],[-112.9611,38.07193],[-112.96103,38.07216],[-112.96099,38.0723],[-112.96098,38.07231],[-112.96092,38.07247],[-112.96082,38.07268],[-112.96075,38.0728],[-112.96069,38.07291],[-112.96065,38.07297],[-112.96057,38.07309],[-112.96043,38.07328],[-112.9603,38.07343],[-112.96012,38.07359],[-112.95991,38.07378],[-112.95962,38.07401],[-112.95931,38.07426],[-112.95902,38.07451],[-112.95885,38.07467],[-112.95872,38.07481],[-112.95861,38.07493],[-112.95846,38.07511],[-112.95835,38.07526],[-112.95824,38.07544],[-112.95814,38.0756],[-112.95807,38.07573],[-112.95804,38.07582],[-112.95797,38.07597],[-112.9579,38.07616],[-112.95784,38.07636],[-112.95781,38.07649],[-112.95776,38.07677],[-112.95771,38.0772],[-112.95768,38.07745],[-112.95765,38.07763],[-112.95765,38.07768],[-112.9576,38.07799],[-112.95759,38.07811],[-112.95758,38.07817],[-112.95756,38.07834],[-112.95752,38.07861],[-112.95749,38.07879],[-112.95748,38.07888],[-112.95745,38.07901],[-112.95741,38.07927],[-112.95739,38.07943],[-112.95735,38.0797],[-112.95734,38.07981],[-112.95732,38.07993],[-112.95732,38.07995],[-112.9573,38.08007],[-112.95728,38.08024],[-112.95724,38.08051],[-112.9572,38.0808],[-112.95719,38.08085],[-112.95716,38.08102],[-112.95714,38.0812],[-112.95712,38.08134],[-112.95712,38.08138],[-112.95708,38.08166],[-112.95705,38.08185],[-112.95704,38.08192],[-112.95703,38.082],[-112.957,38.08214],[-112.95698,38.08226],[-112.95696,38.08234],[-112.95694,38.08245],[-112.95693,38.08248],[-112.9569,38.08262],[-112.9569,38.08263],[-112.95687,38.08274],[-112.95683,38.08287],[-112.9568,38.08298],[-112.95676,38.0831],[-112.95674,38.08315],[-112.95674,38.08318],[-112.95669,38.08332],[-112.95665,38.08342],[-112.95662,38.08351],[-112.95657,38.08362],[-112.95653,38.08372],[-112.95647,38.08384],[-112.95642,38.08394],[-112.95634,38.08409],[-112.95629,38.08417],[-112.95627,38.0842],[-112.95619,38.08435],[-112.956,38.08466],[-112.9558,38.08498],[-112.95571,38.08513],[-112.95549,38.08547],[-112.95544,38.08555],[-112.9552,38.08595],[-112.95517,38.08599],[-112.95488,38.08646],[-112.9548,38.0866],[-112.95458,38.08695],[-112.95439,38.08724],[-112.95415,38.08761],[-112.95398,38.08789],[-112.95388,38.08805],[-112.9538,38.08818],[-112.95357,38.08853],[-112.95355,38.08858],[-112.9533,38.08894],[-112.95327,38.08898],[-112.95298,38.08937],[-112.95281,38.08961],[-112.95236,38.09023],[-112.95225,38.09039],[-112.95206,38.09065],[-112.9516,38.09131],[-112.95158,38.09133],[-112.95137,38.09164],[-112.95137,38.09165],[-112.95128,38.09181],[-112.95119,38.09196],[-112.95105,38.09226],[-112.95097,38.09245],[-112.95088,38.09266],[-112.95084,38.09275],[-112.95081,38.09283],[-112.95076,38.09296],[-112.95065,38.0933],[-112.9506,38.0935],[-112.95055,38.09371],[-112.95047,38.09406],[-112.95043,38.09421],[-112.95035,38.09459],[-112.9503,38.09483],[-112.95021,38.0953],[-112.95017,38.09547],[-112.95017,38.09548],[-112.95014,38.09565],[-112.9501,38.09583],[-112.95005,38.09605],[-112.94992,38.09672],[-112.94991,38.09678],[-112.94989,38.0969],[-112.94985,38.09708],[-112.94982,38.09725],[-112.9498,38.09733],[-112.94969,38.09783],[-112.94963,38.09814],[-112.94959,38.09832],[-112.94958,38.09839],[-112.94952,38.09867],[-112.94946,38.09903],[-112.94942,38.09921],[-112.94938,38.09938],[-112.9493,38.09978],[-112.94928,38.09992],[-112.94923,38.10014],[-112.94913,38.10062],[-112.94905,38.10097],[-112.94893,38.10138],[-112.9489,38.10147],[-112.94882,38.10173],[-112.94868,38.10216],[-112.94866,38.1022],[-112.94865,38.10225],[-112.94861,38.10238],[-112.94851,38.10273],[-112.9485,38.10278],[-112.94849,38.10282],[-112.94839,38.10313],[-112.94833,38.1033],[-112.94827,38.10351],[-112.94822,38.10365],[-112.94817,38.10378],[-112.94816,38.1038],[-112.94815,38.10382],[-112.94811,38.104],[-112.94805,38.10422],[-112.94797,38.10447],[-112.94787,38.10476],[-112.94784,38.10486],[-112.94782,38.10494],[-112.94777,38.10509],[-112.94762,38.10555],[-112.94759,38.10563],[-112.94757,38.1057],[-112.94754,38.10581],[-112.94753,38.10586],[-112.94749,38.10598],[-112.94747,38.10604],[-112.94743,38.10616],[-112.94735,38.10633],[-112.9473,38.10642],[-112.94727,38.10649],[-112.94723,38.10656],[-112.94717,38.10666],[-112.94716,38.10667],[-112.94707,38.10682],[-112.94705,38.10686],[-112.94693,38.10703],[-112.94676,38.1073],[-112.94673,38.10734],[-112.94667,38.10747],[-112.94663,38.10754],[-112.9466,38.10764],[-112.94655,38.10777],[-112.94654,38.10781],[-112.94651,38.10796],[-112.94651,38.10799],[-112.9465,38.10817],[-112.9465,38.10818],[-112.9465,38.10836],[-112.94653,38.10855],[-112.94658,38.1087],[-112.94659,38.10876],[-112.94664,38.10887],[-112.9467,38.10899],[-112.94673,38.10904],[-112.94681,38.10916],[-112.94693,38.10936],[-112.94704,38.10952],[-112.94704,38.10953],[-112.94724,38.10984],[-112.94731,38.10994],[-112.94747,38.1102],[-112.94755,38.11033],[-112.94765,38.11049],[-112.94788,38.11086],[-112.94805,38.1111],[-112.94814,38.11124],[-112.94828,38.11139],[-112.9484,38.11152],[-112.94856,38.11165],[-112.94865,38.11172],[-112.94872,38.11177],[-112.94883,38.11184],[-112.94899,38.11192],[-112.94913,38.11199],[-112.94925,38.11203],[-112.94939,38.11208],[-112.94972,38.11217],[-112.95,38.11226],[-112.95019,38.11232],[-112.95031,38.11238],[-112.95048,38.11246],[-112.95064,38.11255],[-112.95081,38.11266],[-112.95099,38.1128],[-112.95113,38.11291],[-112.95139,38.11315],[-112.95149,38.11327],[-112.95155,38.11336],[-112.95163,38.11345],[-112.95169,38.11355],[-112.95179,38.11371],[-112.95185,38.11385],[-112.95191,38.11401],[-112.95197,38.11418],[-112.95204,38.1144],[-112.95212,38.11468],[-112.95215,38.1148],[-112.95215,38.11487],[-112.95217,38.11497],[-112.95217,38.11513],[-112.95215,38.11539],[-112.95212,38.11574],[-112.95209,38.11607],[-112.95206,38.11644],[-112.95204,38.11665],[-112.95202,38.11684],[-112.95199,38.11703],[-112.95197,38.11721],[-112.95193,38.11739],[-112.95191,38.11749],[-112.9519,38.1175],[-112.95187,38.11762],[-112.95183,38.11776],[-112.95178,38.11792],[-112.9517,38.11817],[-112.95164,38.11835],[-112.95157,38.11855],[-112.95156,38.11859],[-112.95147,38.11884],[-112.95146,38.11889],[-112.95141,38.11903],[-112.9514,38.11907],[-112.95134,38.11928],[-112.95129,38.11945],[-112.95125,38.11959],[-112.95125,38.1196],[-112.95121,38.11977],[-112.95121,38.11978],[-112.95118,38.11993],[-112.95118,38.11995],[-112.95114,38.12017],[-112.95111,38.12036],[-112.95109,38.12053],[-112.95108,38.1207],[-112.95106,38.12087],[-112.95105,38.12102],[-112.95105,38.12117],[-112.95106,38.1213],[-112.95107,38.12141],[-112.95109,38.12155],[-112.95112,38.1217],[-112.95113,38.12174],[-112.95116,38.12185],[-112.95118,38.12191],[-112.9512,38.12197],[-112.95124,38.12208],[-112.95128,38.12218],[-112.95134,38.1223],[-112.95139,38.12239],[-112.95143,38.12247],[-112.9515,38.12257],[-112.95158,38.12268],[-112.95166,38.12277],[-112.95173,38.12286],[-112.95184,38.12296],[-112.95193,38.12303],[-112.95202,38.12311],[-112.95215,38.12321],[-112.95231,38.12332],[-112.95248,38.12343],[-112.95272,38.12359],[-112.95277,38.12361],[-112.95328,38.12393],[-112.95411,38.12445],[-112.9542,38.12451],[-112.95442,38.12465],[-112.95454,38.12474],[-112.95467,38.12483],[-112.95472,38.12486],[-112.95484,38.12495],[-112.95499,38.12506],[-112.95516,38.12519],[-112.95534,38.12533],[-112.95545,38.12543],[-112.95561,38.12558],[-112.95567,38.12563],[-112.95579,38.12575],[-112.95596,38.12591],[-112.95597,38.12593],[-112.95611,38.12607],[-112.95628,38.12626],[-112.95644,38.12644],[-112.95656,38.12659],[-112.95675,38.12682],[-112.95689,38.12702],[-112.95711,38.12731],[-112.95732,38.12759],[-112.95755,38.1279],[-112.95767,38.12807],[-112.95801,38.12856],[-112.95801,38.12857],[-112.95811,38.12873],[-112.95821,38.12889],[-112.9584,38.12921],[-112.95861,38.12958],[-112.95879,38.12993],[-112.95891,38.13017],[-112.95904,38.13047],[-112.95917,38.13078],[-112.95922,38.1309],[-112.95924,38.13097],[-112.95941,38.13144],[-112.95959,38.13196],[-112.95962,38.13207],[-112.95972,38.13241],[-112.95984,38.13288],[-112.95992,38.13333],[-112.96,38.13378],[-112.96004,38.13409],[-112.96007,38.13432],[-112.96009,38.13455],[-112.96011,38.13488],[-112.96012,38.13498],[-112.96013,38.13516],[-112.96013,38.1352],[-112.96015,38.13557],[-112.96015,38.13615],[-112.96014,38.13642],[-112.96014,38.1366],[-112.96013,38.13696],[-112.96011,38.13746],[-112.96009,38.13811],[-112.96008,38.13846],[-112.95998,38.14146],[-112.95997,38.14169],[-112.95994,38.14272],[-112.95989,38.1443],[-112.95984,38.14577],[-112.95976,38.14829],[-112.95974,38.14888],[-112.95972,38.14934],[-112.95967,38.14989],[-112.9596,38.1504],[-112.95954,38.15077],[-112.95943,38.15132],[-112.95932,38.15176],[-112.95916,38.1523],[-112.95905,38.1526],[-112.95873,38.15352],[-112.95867,38.15369],[-112.95866,38.15371],[-112.95855,38.15404],[-112.95838,38.15456],[-112.95829,38.15482],[-112.9582,38.15508],[-112.95802,38.1556],[-112.95785,38.15612],[-112.95752,38.15708],[-112.95746,38.15725],[-112.9574,38.15742],[-112.95711,38.15829],[-112.9564,38.16038],[-112.95598,38.16159],[-112.95567,38.16249],[-112.95562,38.16263],[-112.95537,38.16337],[-112.95521,38.16385],[-112.95515,38.16402],[-112.95503,38.16437],[-112.95485,38.16489],[-112.95479,38.16506],[-112.95472,38.16526],[-112.95449,38.16593],[-112.95436,38.16631],[-112.95419,38.1668],[-112.95412,38.167],[-112.95368,38.1683],[-112.95365,38.16836],[-112.95364,38.16839],[-112.95351,38.16873],[-112.95349,38.1688],[-112.95343,38.16895],[-112.95319,38.16944],[-112.953,38.16985],[-112.95288,38.17006],[-112.95283,38.17016],[-112.9527,38.17039],[-112.95255,38.17066],[-112.9525,38.17074],[-112.95234,38.17098],[-112.95231,38.17103],[-112.95229,38.17106],[-112.9522,38.17119],[-112.95219,38.17122],[-112.95215,38.17127],[-112.952,38.17152],[-112.95137,38.17248],[-112.95073,38.17346],[-112.95052,38.17378],[-112.95031,38.1741],[-112.94998,38.17461],[-112.94923,38.17574],[-112.94892,38.17622],[-112.94873,38.17651],[-112.94836,38.17709],[-112.94811,38.17744],[-112.94798,38.17762],[-112.94789,38.17775],[-112.94751,38.17824],[-112.94746,38.1783],[-112.94715,38.17867],[-112.94683,38.17903],[-112.94674,38.17913],[-112.94661,38.17928],[-112.94595,38.18002],[-112.94593,38.18004],[-112.94582,38.18016],[-112.94542,38.1806],[-112.9446,38.18152],[-112.94305,38.18325],[-112.94231,38.18408],[-112.94147,38.18502],[-112.94141,38.18508],[-112.94025,38.18638],[-112.93968,38.18703],[-112.93951,38.18726],[-112.93923,38.18762],[-112.93885,38.18816],[-112.93868,38.18842],[-112.93835,38.18897],[-112.93825,38.18914],[-112.93807,38.18946],[-112.93798,38.18963],[-112.93779,38.18996],[-112.9377,38.19012],[-112.9376,38.19029],[-112.93697,38.19144],[-112.93669,38.19194],[-112.93624,38.19275],[-112.93615,38.19293],[-112.93606,38.19309],[-112.93597,38.19326],[-112.9356,38.19392],[-112.93551,38.19408],[-112.93542,38.19425],[-112.93517,38.1947],[-112.93472,38.1955],[-112.93384,38.19709],[-112.93379,38.19719],[-112.9337,38.19735],[-112.93361,38.19752],[-112.93352,38.19768],[-112.93343,38.19785],[-112.93334,38.19801],[-112.93308,38.19848],[-112.93278,38.19899],[-112.93253,38.19939],[-112.93225,38.1998],[-112.93195,38.20021],[-112.93171,38.20052],[-112.93159,38.20067],[-112.93146,38.20082],[-112.93105,38.2013],[-112.93025,38.20213],[-112.92848,38.20397],[-112.92737,38.20511],[-112.9257,38.20683],[-112.92567,38.20685],[-112.92556,38.20697],[-112.92553,38.207],[-112.92542,38.20711],[-112.92539,38.20714],[-112.92521,38.20732],[-112.92469,38.2079],[-112.92458,38.20805],[-112.9245,38.20816],[-112.92435,38.20841],[-112.92428,38.20851],[-112.92425,38.20857],[-112.9242,38.20867],[-112.92411,38.20887],[-112.92403,38.20906],[-112.92403,38.20907],[-112.92399,38.20919],[-112.92396,38.20929],[-112.92394,38.20936],[-112.92392,38.20941],[-112.92391,38.20945],[-112.92387,38.20966],[-112.92382,38.2099],[-112.92382,38.20994],[-112.92379,38.2103],[-112.92379,38.21047],[-112.92381,38.21083],[-112.92382,38.21109],[-112.92383,38.21145],[-112.92387,38.21254],[-112.92389,38.21333],[-112.92392,38.21405],[-112.92396,38.21524],[-112.92396,38.21542],[-112.92397,38.21554],[-112.92399,38.21622],[-112.924,38.21651],[-112.92401,38.21701],[-112.92404,38.21791],[-112.92404,38.21809],[-112.92405,38.21831],[-112.92406,38.21863],[-112.92406,38.21899],[-112.92407,38.21917],[-112.92407,38.21935],[-112.92407,38.21953],[-112.92407,38.21955],[-112.92408,38.21989],[-112.92408,38.22007],[-112.92408,38.22024],[-112.92408,38.22024],[-112.92471,38.22059],[-112.92484,38.22066],[-112.92489,38.2207],[-112.92524,38.22094],[-112.92557,38.22119],[-112.92569,38.2213],[-112.92572,38.22132],[-112.92585,38.22141],[-112.92614,38.22167],[-112.92648,38.22201],[-112.92656,38.2221],[-112.92665,38.2222],[-112.92669,38.22225],[-112.92681,38.2224],[-112.92685,38.22245],[-112.92704,38.22269],[-112.92768,38.22367],[-112.92797,38.22411],[-112.92804,38.22421],[-112.9289,38.22555],[-112.92976,38.22688],[-112.93022,38.2276],[-112.93088,38.22862],[-112.93156,38.22968],[-112.93215,38.2306],[-112.93311,38.23212],[-112.93321,38.23228],[-112.93331,38.23244],[-112.93342,38.2326],[-112.93358,38.23286],[-112.93485,38.23485],[-112.93495,38.23501],[-112.93496,38.23503],[-112.93506,38.23517],[-112.93608,38.23678],[-112.93632,38.23715],[-112.9368,38.23791],[-112.9369,38.23807],[-112.93701,38.23823],[-112.93733,38.23874],[-112.93775,38.23935],[-112.93799,38.23972],[-112.93839,38.24026],[-112.93854,38.24047],[-112.9386,38.24056],[-112.93888,38.24094],[-112.93926,38.24146],[-112.93956,38.24187],[-112.94037,38.24296],[-112.94041,38.24301],[-112.94048,38.24311],[-112.94052,38.24317],[-112.94053,38.24317],[-112.94099,38.24379],[-112.94157,38.24457],[-112.94176,38.24482],[-112.9418,38.24488],[-112.94181,38.24489],[-112.94187,38.24498],[-112.94199,38.24513],[-112.9421,38.24529],[-112.94364,38.24737],[-112.94371,38.24747],[-112.94452,38.24855],[-112.94475,38.24887],[-112.94521,38.24949],[-112.94532,38.24964],[-112.94544,38.2498],[-112.94553,38.24992],[-112.94578,38.25027],[-112.9459,38.25042],[-112.94613,38.25073],[-112.94624,38.25089],[-112.94637,38.25106],[-112.94647,38.2512],[-112.94659,38.25135],[-112.9467,38.25151],[-112.94682,38.25166],[-112.94693,38.25182],[-112.94738,38.25245],[-112.94741,38.2525],[-112.94788,38.25318],[-112.94813,38.25356],[-112.94828,38.25379],[-112.94852,38.25416],[-112.94854,38.2542],[-112.94875,38.25453],[-112.94883,38.25466],[-112.94885,38.25469],[-112.94894,38.25485],[-112.94901,38.25496],[-112.94904,38.25501],[-112.94925,38.25536],[-112.94948,38.25577],[-112.94971,38.25617],[-112.94993,38.25656],[-112.94998,38.25665],[-112.9502,38.25707],[-112.95025,38.25715],[-112.95034,38.25732],[-112.95043,38.25748],[-112.95071,38.25799],[-112.95079,38.25814],[-112.95092,38.25839],[-112.95115,38.2588],[-112.9512,38.25889],[-112.95137,38.2592],[-112.95143,38.2593],[-112.9517,38.25979],[-112.95183,38.26003],[-112.95192,38.2602],[-112.9521,38.26053],[-112.9528,38.2618],[-112.95306,38.26228],[-112.95397,38.26393],[-112.95551,38.26674],[-112.9556,38.26691],[-112.95569,38.26707],[-112.95579,38.26724],[-112.95588,38.2674],[-112.9576,38.27054],[-112.95769,38.27071],[-112.95778,38.27087],[-112.95887,38.27285],[-112.9596,38.27417],[-112.9601,38.27509],[-112.96072,38.27622],[-112.96127,38.27722],[-112.96166,38.27792],[-112.96183,38.27822],[-112.96205,38.27863],[-112.96224,38.27898],[-112.96233,38.27915],[-112.96251,38.27948],[-112.96305,38.28047],[-112.96308,38.28051],[-112.96387,38.28195],[-112.96433,38.28278],[-112.96451,38.28311],[-112.96497,38.28394],[-112.96515,38.28427],[-112.96542,38.28476],[-112.96566,38.2852],[-112.96595,38.28576],[-112.96623,38.28631],[-112.96637,38.28659],[-112.96645,38.28678],[-112.96659,38.28711],[-112.96674,38.28748],[-112.96679,38.28762],[-112.96704,38.28831],[-112.96707,38.28838],[-112.9671,38.28849],[-112.96727,38.28898],[-112.96739,38.28936],[-112.96743,38.28948],[-112.96758,38.29006],[-112.9676,38.29011],[-112.96766,38.29041],[-112.9677,38.29059],[-112.96774,38.29077],[-112.96776,38.29086],[-112.96784,38.29128],[-112.96787,38.29148],[-112.96791,38.29166],[-112.96792,38.29175],[-112.96793,38.29184],[-112.9681,38.29317],[-112.96825,38.29475],[-112.96848,38.29703],[-112.96868,38.2991],[-112.96869,38.29913],[-112.96875,38.29974],[-112.96881,38.30036],[-112.96881,38.30038],[-112.9689,38.30125],[-112.96894,38.30161],[-112.96894,38.30164],[-112.96896,38.30179],[-112.96901,38.30233],[-112.9692,38.30415],[-112.96922,38.3043],[-112.96927,38.30484],[-112.96928,38.30486],[-112.96929,38.30502],[-112.96931,38.3052],[-112.96933,38.3054],[-112.96937,38.30574],[-112.96939,38.30594],[-112.9694,38.3061],[-112.96942,38.30627],[-112.96948,38.30681],[-112.9695,38.30699],[-112.9695,38.30701],[-112.96952,38.30719],[-112.96954,38.30735],[-112.96961,38.30807],[-112.96974,38.30928],[-112.96976,38.30952],[-112.97003,38.31233],[-112.97005,38.3125],[-112.97009,38.31297],[-112.97019,38.31394],[-112.97022,38.3143],[-112.97024,38.31448],[-112.97026,38.31466],[-112.97027,38.31481],[-112.97027,38.31484],[-112.97029,38.31502],[-112.97031,38.3152],[-112.97039,38.31605],[-112.97046,38.31678],[-112.97048,38.31699],[-112.9705,38.31717],[-112.97053,38.31753],[-112.97059,38.31814],[-112.9706,38.31824],[-112.97068,38.31906],[-112.97073,38.3195],[-112.97076,38.31986],[-112.97088,38.32108],[-112.97093,38.32165],[-112.97095,38.32178],[-112.97098,38.32219],[-112.971,38.32243],[-112.97102,38.3226],[-112.97104,38.32271],[-112.9711,38.32303],[-112.97118,38.32344],[-112.97133,38.32399],[-112.9714,38.32424],[-112.97146,38.3245],[-112.97163,38.32514],[-112.97179,38.32575],[-112.97183,38.32593],[-112.97188,38.32611],[-112.97197,38.32646],[-112.97211,38.32699],[-112.97215,38.32716],[-112.9722,38.32734],[-112.9727,38.32927],[-112.97304,38.33057],[-112.97317,38.33104],[-112.97345,38.3321],[-112.97347,38.33219],[-112.97354,38.33245],[-112.97358,38.33263],[-112.9738,38.33346],[-112.97394,38.33401],[-112.97406,38.33445],[-112.97413,38.33474],[-112.97419,38.33491],[-112.97421,38.33499],[-112.97425,38.33509],[-112.97427,38.33515],[-112.97432,38.33526],[-112.9744,38.33546],[-112.97447,38.33562],[-112.97458,38.33583],[-112.97469,38.33602],[-112.97494,38.33642],[-112.9752,38.33682],[-112.97535,38.33706],[-112.97546,38.33722],[-112.97548,38.33725],[-112.97565,38.33751],[-112.97566,38.33754],[-112.97577,38.33771],[-112.97641,38.33869],[-112.977,38.33961],[-112.97794,38.34106],[-112.97804,38.34122],[-112.97835,38.3417],[-112.9797,38.34378],[-112.9798,38.34394],[-112.98115,38.34603],[-112.98191,38.3472],[-112.98201,38.34736],[-112.9823,38.34782],[-112.98263,38.34833],[-112.98284,38.34865],[-112.98419,38.35073],[-112.98429,38.35089],[-112.98439,38.35105],[-112.98585,38.3533],[-112.98641,38.35419],[-112.98688,38.3549],[-112.98752,38.35591],[-112.9877,38.35619],[-112.98843,38.35731],[-112.98862,38.35762],[-112.98863,38.35763],[-112.98874,38.35779],[-112.98895,38.35811],[-112.98916,38.35843],[-112.98947,38.35891],[-112.98959,38.35911],[-112.99009,38.35988],[-112.99123,38.36164],[-112.99175,38.36246],[-112.9933,38.36487],[-112.99386,38.36572],[-112.99403,38.36599],[-112.99424,38.36631],[-112.99527,38.36792],[-112.99627,38.36947],[-112.99647,38.36979],[-112.99658,38.36995],[-112.9972,38.37091],[-112.9973,38.37107],[-112.9974,38.37123],[-112.99813,38.37236],[-112.99823,38.37252],[-112.99895,38.37364],[-112.99926,38.37412],[-112.99967,38.37477],[-113.00029,38.37573],[-113.0004,38.37589],[-113.0005,38.37605],[-113.0006,38.37621],[-113.00153,38.37766],[-113.00172,38.37796],[-113.00253,38.37922],[-113.00271,38.3795],[-113.0039,38.38135],[-113.00418,38.38179],[-113.00442,38.38215],[-113.00468,38.38256],[-113.00515,38.38331],[-113.00577,38.38427],[-113.00659,38.38547],[-113.00661,38.3855],[-113.00663,38.38553],[-113.00689,38.38579],[-113.00692,38.38582],[-113.00719,38.38606],[-113.00728,38.38614],[-113.00737,38.38621],[-113.00754,38.38629],[-113.00771,38.38638],[-113.00793,38.38648],[-113.00802,38.38651],[-113.00821,38.38658],[-113.00855,38.38668],[-113.00893,38.38676],[-113.00941,38.38682],[-113.00958,38.38684],[-113.00979,38.38683],[-113.01094,38.3868],[-113.01096,38.3868],[-113.01142,38.38679],[-113.01162,38.38679],[-113.01185,38.38678],[-113.01208,38.38678],[-113.0121,38.38678],[-113.01217,38.38677],[-113.01254,38.38678],[-113.01256,38.38678],[-113.01264,38.38678],[-113.01279,38.3868],[-113.01302,38.38683],[-113.01312,38.38684],[-113.01321,38.38688],[-113.01323,38.38689],[-113.01336,38.38693],[-113.01341,38.38697],[-113.01343,38.38698],[-113.01356,38.38705],[-113.01359,38.38708],[-113.0136,38.38709],[-113.01373,38.38722],[-113.01374,38.38724],[-113.01387,38.38737],[-113.01388,38.38738],[-113.01395,38.38745],[-113.01398,38.38749],[-113.01406,38.38756],[-113.01418,38.38769],[-113.01419,38.38771],[-113.01429,38.38785],[-113.01433,38.38789],[-113.01437,38.38796],[-113.01439,38.38801],[-113.0144,38.38805],[-113.01443,38.38819],[-113.01446,38.3883],[-113.01446,38.38855],[-113.01443,38.38859],[-113.01432,38.38873],[-113.01428,38.38879],[-113.01421,38.38887],[-113.01418,38.3889],[-113.01412,38.38899],[-113.01401,38.3891],[-113.01397,38.38914],[-113.01373,38.38939],[-113.01346,38.38968],[-113.01316,38.39006],[-113.01286,38.39046],[-113.01268,38.39071],[-113.01229,38.39138],[-113.01197,38.39204],[-113.01187,38.39225],[-113.01184,38.39234],[-113.01179,38.39251],[-113.01178,38.39257],[-113.01174,38.39277],[-113.01153,38.39366],[-113.01143,38.39413],[-113.01142,38.39417],[-113.01141,38.39419],[-113.01134,38.39452],[-113.01132,38.39463],[-113.0113,38.3947],[-113.01126,38.39488],[-113.01119,38.39523],[-113.01111,38.39557],[-113.01104,38.39599],[-113.01096,38.39622],[-113.01095,38.39626],[-113.01094,38.39633],[-113.0109,38.39658],[-113.01079,38.39706],[-113.01079,38.39706],[-113.01132,38.39713],[-113.01159,38.39717],[-113.01187,38.3972],[-113.01204,38.39722],[-113.01209,38.39722],[-113.0122,38.39722],[-113.01229,38.39723],[-113.0125,38.39724],[-113.01273,38.39725],[-113.01299,38.39725],[-113.01321,38.39725],[-113.01327,38.39726],[-113.01335,38.39728],[-113.01343,38.39725],[-113.01348,38.39724],[-113.01362,38.39724],[-113.01378,38.39721],[-113.01396,38.39717],[-113.01414,38.39711],[-113.01436,38.39704],[-113.01453,38.397],[-113.01459,38.39699],[-113.01468,38.39698],[-113.01495,38.39698],[-113.01545,38.39698],[-113.01552,38.39698],[-113.01556,38.39698],[-113.0161,38.39698],[-113.01667,38.39698],[-113.01724,38.39698],[-113.01729,38.39698],[-113.01748,38.39698],[-113.01779,38.39698],[-113.01893,38.39699],[-113.01914,38.39699],[-113.02075,38.39699],[-113.02075,38.39699],[-113.02075,38.39683]]}}]}