{"type":"FeatureCollection","features":[{"type":"Feature","properties":{"_gpxType":"trk","name":"Travelodge by Wyndham Milford, Utah 21, Milford, UT - Whispering Elms Motel & RV Park, Baker Avenue, Baker, NV","coordinateProperties":{},"id":91},"geometry":{"type":"LineString","coordinates":[[-113.02075,38.39683],[-113.02075,38.39699],[-113.02075,38.39699],[-113.02123,38.39699],[-113.02127,38.39699],[-113.0214,38.39699],[-113.0215,38.397],[-113.02156,38.397],[-113.02182,38.397],[-113.02218,38.39703],[-113.02251,38.39706],[-113.02264,38.39708],[-113.02287,38.3971],[-113.02319,38.39715],[-113.02352,38.39721],[-113.02377,38.39726],[-113.02396,38.3973],[-113.02399,38.39731],[-113.02421,38.39736],[-113.02432,38.39739],[-113.02443,38.39741],[-113.02499,38.39755],[-113.02509,38.39758],[-113.02568,38.39773],[-113.02636,38.3979],[-113.02697,38.39805],[-113.02727,38.39813],[-113.02749,38.39818],[-113.02759,38.39821],[-113.02836,38.3984],[-113.02896,38.39853],[-113.02976,38.39874],[-113.03003,38.39882],[-113.03029,38.39889],[-113.03065,38.39901],[-113.03075,38.39904],[-113.03095,38.39911],[-113.03096,38.39912],[-113.03116,38.39919],[-113.03135,38.39925],[-113.03149,38.3993],[-113.03158,38.39934],[-113.0319,38.39946],[-113.032,38.39949],[-113.03242,38.39966],[-113.03285,38.39982],[-113.03344,38.40004],[-113.03386,38.4002],[-113.0353,38.40074],[-113.03634,38.40113],[-113.03717,38.40144],[-113.03737,38.40152],[-113.03796,38.40174],[-113.03924,38.40222],[-113.0413,38.403],[-113.04553,38.4046],[-113.04647,38.40495],[-113.04689,38.40511],[-113.04709,38.40519],[-113.04742,38.40531],[-113.0482,38.4056],[-113.04856,38.40574],[-113.04934,38.40601],[-113.04938,38.40602],[-113.05,38.40624],[-113.05081,38.40651],[-113.05087,38.40653],[-113.05102,38.40658],[-113.05123,38.40665],[-113.05151,38.40674],[-113.05208,38.40693],[-113.05253,38.40707],[-113.05298,38.40721],[-113.05314,38.40726],[-113.05397,38.4075],[-113.05443,38.40764],[-113.05465,38.4077],[-113.05584,38.40805],[-113.05615,38.40814],[-113.05665,38.40829],[-113.05701,38.40839],[-113.05708,38.40841],[-113.05744,38.40852],[-113.0603,38.40936],[-113.06073,38.40948],[-113.06088,38.40953],[-113.06095,38.40955],[-113.0611,38.40959],[-113.06224,38.40992],[-113.06245,38.40999],[-113.06282,38.41009],[-113.06288,38.41011],[-113.06476,38.41066],[-113.0661,38.41107],[-113.06661,38.4112],[-113.06858,38.41178],[-113.07033,38.4123],[-113.07055,38.41236],[-113.071,38.41249],[-113.07162,38.41268],[-113.07382,38.41333],[-113.07565,38.41385],[-113.07943,38.41496],[-113.08167,38.41561],[-113.08189,38.41567],[-113.0821,38.41574],[-113.0834,38.41612],[-113.08382,38.41624],[-113.08465,38.41648],[-113.08529,38.41667],[-113.08594,38.41685],[-113.08608,38.41689],[-113.08702,38.41717],[-113.08723,38.41723],[-113.08745,38.41729],[-113.08766,38.41736],[-113.08885,38.41771],[-113.09011,38.41808],[-113.09054,38.4182],[-113.09076,38.41827],[-113.09183,38.41858],[-113.09205,38.41864],[-113.09355,38.41908],[-113.09404,38.41923],[-113.09647,38.41993],[-113.09734,38.42019],[-113.09755,38.42025],[-113.09841,38.4205],[-113.099,38.42068],[-113.0997,38.42088],[-113.09992,38.42095],[-113.10013,38.42101],[-113.10035,38.42107],[-113.10072,38.42118],[-113.10228,38.42164],[-113.1025,38.4217],[-113.10377,38.42207],[-113.10443,38.42227],[-113.10465,38.42233],[-113.10508,38.42245],[-113.10527,38.42251],[-113.1053,38.42251],[-113.10618,38.42277],[-113.10681,38.42293],[-113.10684,38.42294],[-113.10743,38.42309],[-113.10812,38.42325],[-113.10892,38.42343],[-113.10956,38.42355],[-113.11003,38.42365],[-113.11018,38.42367],[-113.11074,38.42377],[-113.11135,38.42387],[-113.11138,38.42388],[-113.11217,38.42401],[-113.11275,38.42411],[-113.11349,38.42424],[-113.1135,38.42424],[-113.11381,38.42432],[-113.11412,38.4244],[-113.1148,38.4246],[-113.11511,38.42472],[-113.11534,38.42481],[-113.11581,38.42503],[-113.1164,38.42531],[-113.11659,38.4254],[-113.11679,38.4255],[-113.11698,38.42559],[-113.11817,38.42618],[-113.11854,38.42636],[-113.11873,38.42646],[-113.1195,38.42685],[-113.11964,38.42692],[-113.1197,38.42694],[-113.11989,38.42704],[-113.12008,38.42714],[-113.12116,38.42768],[-113.12124,38.42772],[-113.12244,38.42829],[-113.12393,38.42903],[-113.12397,38.42905],[-113.12538,38.42974],[-113.1265,38.4303],[-113.12665,38.43038],[-113.12669,38.4304],[-113.12753,38.4308],[-113.12866,38.43132],[-113.12885,38.43142],[-113.12905,38.43151],[-113.12925,38.4316],[-113.12951,38.43172],[-113.13121,38.43253],[-113.13137,38.4326],[-113.13208,38.43293],[-113.1328,38.43326],[-113.13288,38.4333],[-113.133,38.43334],[-113.1333,38.43347],[-113.13361,38.43359],[-113.13368,38.43361],[-113.13394,38.43371],[-113.13432,38.43384],[-113.13487,38.43401],[-113.13488,38.43401],[-113.13509,38.43408],[-113.13531,38.43415],[-113.13552,38.43421],[-113.13573,38.43428],[-113.13701,38.43467],[-113.13723,38.43474],[-113.1383,38.43507],[-113.13949,38.43544],[-113.14074,38.43582],[-113.14095,38.43589],[-113.1416,38.43608],[-113.14224,38.43628],[-113.14245,38.43634],[-113.14374,38.43673],[-113.14395,38.4368],[-113.14416,38.43686],[-113.14455,38.43698],[-113.14459,38.43699],[-113.14481,38.43706],[-113.14566,38.43731],[-113.14574,38.43734],[-113.14631,38.4375],[-113.14651,38.43755],[-113.14653,38.43756],[-113.14675,38.43762],[-113.14718,38.43774],[-113.1474,38.43779],[-113.14783,38.43791],[-113.14786,38.43791],[-113.14805,38.43796],[-113.14827,38.43801],[-113.14854,38.43808],[-113.14871,38.43812],[-113.14893,38.43817],[-113.14915,38.43822],[-113.14937,38.43827],[-113.1495,38.4383],[-113.14959,38.43832],[-113.15047,38.43851],[-113.1507,38.43856],[-113.15114,38.43866],[-113.1513,38.43869],[-113.15159,38.43875],[-113.15181,38.43879],[-113.15215,38.43886],[-113.1527,38.43896],[-113.15336,38.43908],[-113.15402,38.43919],[-113.15403,38.43919],[-113.15425,38.43923],[-113.15448,38.43927],[-113.15537,38.43944],[-113.1556,38.43948],[-113.15627,38.4396],[-113.15649,38.43964],[-113.15672,38.43968],[-113.15694,38.43972],[-113.15733,38.43979],[-113.15761,38.43984],[-113.15783,38.43988],[-113.15806,38.43992],[-113.15828,38.43996],[-113.15873,38.44004],[-113.15895,38.44009],[-113.15918,38.44013],[-113.1594,38.44017],[-113.15962,38.44021],[-113.15985,38.44025],[-113.16007,38.44029],[-113.16029,38.44033],[-113.16057,38.44038],[-113.16074,38.44041],[-113.16097,38.44045],[-113.16119,38.44049],[-113.16164,38.44057],[-113.16231,38.44068],[-113.16254,38.44072],[-113.1632,38.44084],[-113.16365,38.44092],[-113.16388,38.44096],[-113.1641,38.441],[-113.16433,38.44105],[-113.16589,38.44133],[-113.16611,38.44137],[-113.16644,38.44143],[-113.16656,38.44146],[-113.16866,38.44184],[-113.16933,38.44199],[-113.16955,38.44203],[-113.16959,38.44204],[-113.16977,38.44208],[-113.16999,38.44213],[-113.17032,38.4422],[-113.17034,38.44221],[-113.17054,38.44226],[-113.17075,38.44232],[-113.17119,38.44243],[-113.17149,38.44251],[-113.17162,38.44255],[-113.17184,38.44261],[-113.17188,38.44262],[-113.1721,38.44268],[-113.17227,38.44273],[-113.17231,38.44274],[-113.17249,38.44279],[-113.17271,38.44285],[-113.17288,38.4429],[-113.17335,38.44304],[-113.17378,38.44316],[-113.17447,38.44337],[-113.1745,38.44338],[-113.17571,38.44374],[-113.17575,38.44375],[-113.17593,38.4438],[-113.17597,38.44382],[-113.17618,38.44388],[-113.17652,38.44398],[-113.17661,38.44401],[-113.17671,38.44404],[-113.17704,38.44414],[-113.17757,38.44429],[-113.17843,38.44455],[-113.17854,38.44458],[-113.17864,38.44461],[-113.17876,38.44465],[-113.17886,38.44468],[-113.17897,38.44471],[-113.17907,38.44474],[-113.17913,38.44476],[-113.17919,38.44478],[-113.17929,38.44481],[-113.1794,38.44484],[-113.1795,38.44487],[-113.18057,38.44519],[-113.18155,38.44548],[-113.18165,38.44551],[-113.18176,38.44554],[-113.18186,38.44557],[-113.18208,38.44564],[-113.18229,38.4457],[-113.18348,38.44605],[-113.18358,38.44608],[-113.1837,38.44612],[-113.18379,38.44615],[-113.18391,38.44618],[-113.18498,38.4465],[-113.1852,38.44656],[-113.1853,38.44659],[-113.18545,38.44664],[-113.18606,38.44682],[-113.18616,38.44685],[-113.18627,38.44688],[-113.18637,38.44691],[-113.18735,38.4472],[-113.18744,38.44723],[-113.18756,38.44727],[-113.18766,38.4473],[-113.1882,38.44746],[-113.1883,38.44749],[-113.18842,38.44752],[-113.18873,38.44762],[-113.18949,38.44784],[-113.18959,38.44787],[-113.18971,38.44791],[-113.18981,38.44793],[-113.18992,38.44797],[-113.19014,38.44803],[-113.19045,38.44813],[-113.19067,38.44819],[-113.19078,38.44822],[-113.191,38.44829],[-113.19109,38.44832],[-113.19142,38.44842],[-113.19164,38.44848],[-113.19281,38.44883],[-113.19293,38.44886],[-113.19303,38.44889],[-113.19345,38.44902],[-113.19432,38.44927],[-113.19453,38.44934],[-113.19465,38.44937],[-113.19496,38.44946],[-113.19508,38.4495],[-113.19518,38.44953],[-113.19529,38.44956],[-113.19539,38.44959],[-113.19619,38.44983],[-113.19646,38.44991],[-113.19711,38.4501],[-113.19765,38.45026],[-113.19805,38.45038],[-113.1983,38.45046],[-113.1984,38.45049],[-113.19851,38.45052],[-113.19861,38.45055],[-113.19925,38.45074],[-113.1995,38.45082],[-113.19958,38.45084],[-113.19968,38.45087],[-113.1998,38.45091],[-113.1999,38.45094],[-113.20011,38.451],[-113.20109,38.45129],[-113.2013,38.45135],[-113.2014,38.45138],[-113.20152,38.45142],[-113.20161,38.45145],[-113.20259,38.45174],[-113.20323,38.45193],[-113.20366,38.45206],[-113.20388,38.45212],[-113.20449,38.45231],[-113.20452,38.45232],[-113.20473,38.45238],[-113.20516,38.45251],[-113.20538,38.45257],[-113.2056,38.45263],[-113.20581,38.45269],[-113.20689,38.45301],[-113.20696,38.45303],[-113.2071,38.45307],[-113.20753,38.4532],[-113.20775,38.45326],[-113.20818,38.45339],[-113.20839,38.45345],[-113.20882,38.45358],[-113.20903,38.45364],[-113.20968,38.45384],[-113.20976,38.45386],[-113.21032,38.45403],[-113.21054,38.45409],[-113.21097,38.45422],[-113.21118,38.45429],[-113.2118,38.45447],[-113.21182,38.45448],[-113.21204,38.45454],[-113.21376,38.45505],[-113.21389,38.45509],[-113.21397,38.45511],[-113.21419,38.45518],[-113.21596,38.45569],[-113.21713,38.45605],[-113.21741,38.45613],[-113.21763,38.45619],[-113.21784,38.45626],[-113.21797,38.45629],[-113.21806,38.45632],[-113.21827,38.45639],[-113.21848,38.45646],[-113.21865,38.45651],[-113.21869,38.45652],[-113.21891,38.45658],[-113.21906,38.45663],[-113.21955,38.45676],[-113.22008,38.45685],[-113.22024,38.45686],[-113.22047,38.45688],[-113.22048,38.45688],[-113.22069,38.4569],[-113.22113,38.45692],[-113.22182,38.45694],[-113.22312,38.45695],[-113.22413,38.45701],[-113.22442,38.45705],[-113.22494,38.45712],[-113.22549,38.45723],[-113.2267,38.45755],[-113.22691,38.45761],[-113.22887,38.45812],[-113.22974,38.45835],[-113.23061,38.45859],[-113.23065,38.4586],[-113.23083,38.45865],[-113.23127,38.45877],[-113.23147,38.45885],[-113.23152,38.45887],[-113.23166,38.45894],[-113.23172,38.45897],[-113.23188,38.45906],[-113.23205,38.45917],[-113.2322,38.45928],[-113.2325,38.45948],[-113.23289,38.45975],[-113.23307,38.45987],[-113.23324,38.45999],[-113.23345,38.46013],[-113.23366,38.46028],[-113.23396,38.46044],[-113.234,38.46046],[-113.23435,38.46062],[-113.23436,38.46062],[-113.23456,38.4607],[-113.23459,38.46071],[-113.23486,38.4608],[-113.23538,38.46095],[-113.23555,38.46099],[-113.23583,38.46106],[-113.23585,38.46106],[-113.23608,38.46109],[-113.23616,38.46111],[-113.23626,38.46112],[-113.23663,38.46115],[-113.23738,38.46117],[-113.23787,38.4612],[-113.23791,38.4612],[-113.23792,38.4612],[-113.23803,38.46121],[-113.23908,38.46126],[-113.23947,38.46128],[-113.23952,38.46128],[-113.2397,38.46129],[-113.23974,38.46129],[-113.23975,38.46129],[-113.2404,38.46132],[-113.24113,38.46135],[-113.24154,38.46137],[-113.24161,38.46137],[-113.24268,38.46142],[-113.24273,38.46143],[-113.24291,38.46143],[-113.24398,38.46148],[-113.2441,38.46149],[-113.24411,38.46149],[-113.24429,38.46149],[-113.24433,38.4615],[-113.24497,38.46152],[-113.24526,38.46154],[-113.24582,38.46158],[-113.24625,38.4616],[-113.2464,38.4616],[-113.24678,38.4616],[-113.24685,38.4616],[-113.24713,38.46159],[-113.24727,38.46158],[-113.24731,38.46158],[-113.24732,38.46158],[-113.2475,38.46157],[-113.24754,38.46156],[-113.2479,38.46152],[-113.24818,38.46148],[-113.24822,38.46147],[-113.24823,38.46147],[-113.24853,38.46143],[-113.24908,38.46135],[-113.24915,38.46134],[-113.2494,38.4613],[-113.24956,38.46128],[-113.24958,38.46128],[-113.24958,38.46127],[-113.24959,38.46127],[-113.24981,38.46123],[-113.24992,38.46121],[-113.25019,38.46114],[-113.25043,38.46108],[-113.25044,38.46107],[-113.25071,38.46099],[-113.25087,38.46094],[-113.25088,38.46094],[-113.25089,38.46094],[-113.25098,38.46091],[-113.25127,38.46079],[-113.25148,38.46069],[-113.2515,38.46068],[-113.25166,38.46061],[-113.25188,38.46049],[-113.25208,38.46038],[-113.25243,38.46016],[-113.25253,38.46011],[-113.2528,38.45995],[-113.25305,38.4598],[-113.25323,38.45969],[-113.25338,38.45959],[-113.25341,38.45958],[-113.2536,38.45947],[-113.25378,38.45937],[-113.25378,38.45936],[-113.25416,38.45915],[-113.25434,38.45905],[-113.25453,38.45894],[-113.25471,38.45883],[-113.25485,38.45876],[-113.25563,38.45829],[-113.256,38.45808],[-113.25618,38.45797],[-113.2563,38.4579],[-113.25655,38.45775],[-113.25691,38.45753],[-113.25709,38.45742],[-113.25743,38.45722],[-113.25785,38.45695],[-113.25805,38.45682],[-113.25824,38.45665],[-113.2583,38.4566],[-113.25845,38.45646],[-113.25847,38.45645],[-113.25854,38.45635],[-113.25857,38.45631],[-113.25867,38.45619],[-113.25891,38.45584],[-113.25901,38.45558],[-113.25905,38.45546],[-113.25914,38.4552],[-113.25919,38.45491],[-113.25922,38.4547],[-113.25923,38.45467],[-113.25924,38.45453],[-113.25925,38.45432],[-113.2593,38.45365],[-113.25931,38.45363],[-113.25932,38.45345],[-113.25936,38.45299],[-113.25942,38.45273],[-113.25944,38.4524],[-113.25949,38.45177],[-113.25949,38.45176],[-113.2595,38.45159],[-113.25951,38.45148],[-113.25953,38.45123],[-113.25953,38.45122],[-113.25956,38.45106],[-113.25957,38.451],[-113.25965,38.4507],[-113.2597,38.45053],[-113.2597,38.45051],[-113.25978,38.45032],[-113.25991,38.45002],[-113.25998,38.44986],[-113.25999,38.44985],[-113.26008,38.44968],[-113.26017,38.44952],[-113.2602,38.44948],[-113.26028,38.44936],[-113.2604,38.4492],[-113.26042,38.44917],[-113.26052,38.44905],[-113.26087,38.44859],[-113.26088,38.44859],[-113.26112,38.44828],[-113.26138,38.44796],[-113.26148,38.44782],[-113.26182,38.44739],[-113.26226,38.44683],[-113.26245,38.4466],[-113.26258,38.44645],[-113.2628,38.44617],[-113.26282,38.44615],[-113.26289,38.44606],[-113.26295,38.446],[-113.26321,38.4457],[-113.26334,38.44555],[-113.26353,38.44535],[-113.26397,38.44491],[-113.26437,38.44451],[-113.26462,38.44428],[-113.26522,38.44373],[-113.26603,38.44294],[-113.26659,38.44243],[-113.26711,38.44193],[-113.26714,38.4419],[-113.26726,38.44179],[-113.26769,38.44139],[-113.26784,38.44124],[-113.26837,38.44074],[-113.26858,38.44055],[-113.26916,38.43999],[-113.26963,38.43958],[-113.26992,38.43934],[-113.27022,38.4391],[-113.27027,38.43908],[-113.27045,38.43896],[-113.2705,38.43893],[-113.27081,38.43874],[-113.27099,38.43863],[-113.27117,38.43852],[-113.27131,38.43843],[-113.27153,38.43829],[-113.27169,38.43819],[-113.272,38.43802],[-113.27228,38.43785],[-113.2726,38.43767],[-113.27302,38.4374],[-113.2734,38.43717],[-113.27375,38.43695],[-113.27429,38.43663],[-113.27455,38.4365],[-113.2748,38.43638],[-113.27492,38.43632],[-113.27529,38.43617],[-113.27558,38.43605],[-113.2759,38.43593],[-113.2762,38.43583],[-113.2764,38.43577],[-113.27666,38.4357],[-113.27667,38.43569],[-113.27678,38.43566],[-113.27753,38.43543],[-113.27761,38.43541],[-113.27764,38.4354],[-113.27879,38.43505],[-113.27981,38.43475],[-113.27989,38.43473],[-113.28,38.4347],[-113.2801,38.43466],[-113.28028,38.4346],[-113.28109,38.43439],[-113.28127,38.43434],[-113.28155,38.43429],[-113.28174,38.43425],[-113.28183,38.43423],[-113.28219,38.43417],[-113.28264,38.43412],[-113.28265,38.43412],[-113.28276,38.43411],[-113.28298,38.43409],[-113.28333,38.43408],[-113.28341,38.43407],[-113.2839,38.43405],[-113.28493,38.434],[-113.28562,38.43396],[-113.28573,38.43396],[-113.28582,38.43396],[-113.28642,38.43393],[-113.28665,38.43393],[-113.28677,38.43393],[-113.28688,38.43393],[-113.287,38.43393],[-113.2873,38.43395],[-113.28753,38.43396],[-113.28772,38.43398],[-113.2878,38.43399],[-113.28791,38.434],[-113.28807,38.43402],[-113.28865,38.43409],[-113.28904,38.43415],[-113.28911,38.43416],[-113.28927,38.43418],[-113.28938,38.4342],[-113.29017,38.43431],[-113.29028,38.43433],[-113.2906,38.43437],[-113.29232,38.43462],[-113.2939,38.43484],[-113.29412,38.43487],[-113.29435,38.43491],[-113.29458,38.43494],[-113.29623,38.43517],[-113.29797,38.43541],[-113.29819,38.43544],[-113.30017,38.43572],[-113.30059,38.43578],[-113.30167,38.43593],[-113.30288,38.4361],[-113.30357,38.4362],[-113.30492,38.43639],[-113.30506,38.43641],[-113.30514,38.43642],[-113.30586,38.43653],[-113.30627,38.4366],[-113.30634,38.43661],[-113.30649,38.43664],[-113.30671,38.43669],[-113.30692,38.43673],[-113.30738,38.43683],[-113.3076,38.43688],[-113.30765,38.43689],[-113.30821,38.43703],[-113.30863,38.43716],[-113.30906,38.43728],[-113.30935,38.43737],[-113.30977,38.43752],[-113.30996,38.43758],[-113.30998,38.43759],[-113.31016,38.43766],[-113.31023,38.43768],[-113.31159,38.43824],[-113.31282,38.43873],[-113.31302,38.43881],[-113.31471,38.4395],[-113.3179,38.44083],[-113.3181,38.44091],[-113.31905,38.4413],[-113.32034,38.44183],[-113.32134,38.44223],[-113.32344,38.44309],[-113.32463,38.44355],[-113.32484,38.44363],[-113.32525,38.44379],[-113.3255,38.44388],[-113.32597,38.44405],[-113.32688,38.44437],[-113.32751,38.44458],[-113.32777,38.44467],[-113.32814,38.4448],[-113.32966,38.4453],[-113.33094,38.44572],[-113.33132,38.44585],[-113.33349,38.44655],[-113.33594,38.44735],[-113.33955,38.44852],[-113.34019,38.44873],[-113.34238,38.44944],[-113.34251,38.44948],[-113.34259,38.44951],[-113.34378,38.4499],[-113.34387,38.44993],[-113.34399,38.44997],[-113.3459,38.45059],[-113.34599,38.45062],[-113.3462,38.45069],[-113.34654,38.4508],[-113.34866,38.45149],[-113.34938,38.45173],[-113.34959,38.4518],[-113.35268,38.45281],[-113.3529,38.45288],[-113.35332,38.45302],[-113.35362,38.45311],[-113.35552,38.45374],[-113.35565,38.45378],[-113.35574,38.45381],[-113.35722,38.45429],[-113.35976,38.45512],[-113.35989,38.45516],[-113.3601,38.45523],[-113.3604,38.45533],[-113.36061,38.4554],[-113.36371,38.45641],[-113.36379,38.45644],[-113.36392,38.45648],[-113.36443,38.45664],[-113.36464,38.45671],[-113.36731,38.45759],[-113.3674,38.45761],[-113.36752,38.45766],[-113.36782,38.45775],[-113.36795,38.45779],[-113.36986,38.45842],[-113.37079,38.45872],[-113.371,38.45879],[-113.37113,38.45883],[-113.37121,38.45886],[-113.37134,38.4589],[-113.37142,38.45893],[-113.37164,38.459],[-113.37354,38.45962],[-113.37418,38.45983],[-113.37431,38.45987],[-113.37573,38.46033],[-113.37651,38.46059],[-113.37706,38.46077],[-113.37728,38.46084],[-113.37736,38.46086],[-113.37749,38.46091],[-113.37778,38.461],[-113.38046,38.46187],[-113.38163,38.46225],[-113.38237,38.46249],[-113.38428,38.46312],[-113.38555,38.46353],[-113.38619,38.46374],[-113.38725,38.46408],[-113.38822,38.4644],[-113.39064,38.46518],[-113.39192,38.4656],[-113.39255,38.4658],[-113.39446,38.46642],[-113.39467,38.46649],[-113.39552,38.46677],[-113.39743,38.46739],[-113.39934,38.46801],[-113.4004,38.46835],[-113.40061,38.46842],[-113.40083,38.46849],[-113.40528,38.46994],[-113.40549,38.47001],[-113.40613,38.47022],[-113.41143,38.47195],[-113.41164,38.47202],[-113.4127,38.47236],[-113.41419,38.47285],[-113.4144,38.47292],[-113.41695,38.47374],[-113.41716,38.47381],[-113.41737,38.47388],[-113.41992,38.47471],[-113.42013,38.47478],[-113.42204,38.4754],[-113.42395,38.47602],[-113.42416,38.47609],[-113.42734,38.47713],[-113.42755,38.4772],[-113.42776,38.47727],[-113.42883,38.47761],[-113.42904,38.47768],[-113.42967,38.47789],[-113.4299,38.47796],[-113.43116,38.47837],[-113.43158,38.47851],[-113.4326,38.47884],[-113.43451,38.47946],[-113.43536,38.47973],[-113.43557,38.4798],[-113.43748,38.48042],[-113.43833,38.4807],[-113.43875,38.48084],[-113.43896,38.4809],[-113.44257,38.48208],[-113.44427,38.48263],[-113.44597,38.48318],[-113.44618,38.48325],[-113.4483,38.48394],[-113.44851,38.48401],[-113.45021,38.48456],[-113.45042,38.48463],[-113.45297,38.48546],[-113.45462,38.48599],[-113.4553,38.48622],[-113.45552,38.48629],[-113.45594,38.48642],[-113.45709,38.4868],[-113.45764,38.48698],[-113.45785,38.48705],[-113.45806,38.48712],[-113.45827,38.48719],[-113.45936,38.48754],[-113.45997,38.48774],[-113.46146,38.48822],[-113.46188,38.48836],[-113.46209,38.48843],[-113.4623,38.4885],[-113.46252,38.48857],[-113.46379,38.48898],[-113.46549,38.48953],[-113.4657,38.4896],[-113.4674,38.49015],[-113.46761,38.49022],[-113.47271,38.49187],[-113.47292,38.49193],[-113.47505,38.49262],[-113.47611,38.49296],[-113.47844,38.49372],[-113.47936,38.49402],[-113.48,38.49423],[-113.48021,38.49429],[-113.48088,38.49451],[-113.48188,38.49483],[-113.48191,38.49485],[-113.48209,38.4949],[-113.48213,38.49491],[-113.48234,38.49498],[-113.48276,38.49512],[-113.4851,38.49588],[-113.48527,38.49594],[-113.48531,38.49595],[-113.48616,38.49622],[-113.48637,38.49629],[-113.48697,38.49649],[-113.48705,38.49651],[-113.48917,38.4972],[-113.49081,38.49773],[-113.4916,38.49802],[-113.49392,38.49876],[-113.49716,38.49983],[-113.49796,38.50009],[-113.49844,38.50025],[-113.50219,38.50144],[-113.50516,38.5024],[-113.5052,38.50241],[-113.50559,38.50254],[-113.50604,38.50269],[-113.50643,38.50281],[-113.50665,38.50288],[-113.50686,38.50295],[-113.50709,38.50302],[-113.50793,38.50335],[-113.50854,38.50359],[-113.50934,38.50395],[-113.51029,38.50441],[-113.51088,38.50469],[-113.51108,38.50478],[-113.51121,38.50484],[-113.51288,38.50564],[-113.51344,38.50589],[-113.51364,38.50598],[-113.51423,38.50625],[-113.51482,38.50652],[-113.51561,38.50691],[-113.51603,38.50712],[-113.51654,38.50738],[-113.51772,38.50794],[-113.51792,38.50803],[-113.51851,38.50831],[-113.51866,38.50838],[-113.51969,38.50887],[-113.51988,38.50896],[-113.52008,38.50906],[-113.52087,38.50943],[-113.52106,38.50953],[-113.52224,38.51009],[-113.52237,38.51015],[-113.52244,38.51018],[-113.52321,38.51057],[-113.5234,38.51067],[-113.5236,38.51077],[-113.52381,38.51087],[-113.52481,38.51159],[-113.52493,38.51168],[-113.52498,38.51171],[-113.52571,38.51215],[-113.52572,38.51215],[-113.52625,38.51241],[-113.52651,38.51249],[-113.52673,38.51256],[-113.52687,38.51261],[-113.52716,38.51267],[-113.52739,38.51271],[-113.52761,38.51276],[-113.52767,38.51277],[-113.52873,38.51295],[-113.52896,38.51299],[-113.52941,38.51306],[-113.5295,38.51308],[-113.53031,38.51318],[-113.53066,38.51324],[-113.53121,38.51335],[-113.53137,38.51338],[-113.53143,38.51339],[-113.53165,38.51345],[-113.53167,38.51345],[-113.53192,38.51353],[-113.53222,38.51366],[-113.53227,38.51368],[-113.53247,38.51377],[-113.53254,38.5138],[-113.53267,38.51386],[-113.53281,38.51394],[-113.53285,38.51397],[-113.53303,38.51408],[-113.53332,38.51429],[-113.53363,38.51453],[-113.53401,38.51486],[-113.53465,38.51537],[-113.53515,38.51572],[-113.53533,38.51584],[-113.53549,38.51596],[-113.5361,38.51633],[-113.53634,38.51646],[-113.53819,38.51743],[-113.53854,38.51756],[-113.53881,38.51765],[-113.53909,38.51772],[-113.53911,38.51772],[-113.53938,38.51777],[-113.53956,38.51779],[-113.53971,38.5178],[-113.53979,38.5178],[-113.54001,38.51781],[-113.54029,38.51779],[-113.54048,38.51777],[-113.54059,38.51776],[-113.54097,38.51768],[-113.54137,38.51758],[-113.54158,38.51753],[-113.54194,38.51744],[-113.54202,38.51742],[-113.54224,38.51736],[-113.54246,38.5173],[-113.54268,38.51725],[-113.54271,38.51724],[-113.5429,38.51721],[-113.54308,38.51717],[-113.54335,38.51714],[-113.54342,38.51714],[-113.54358,38.51713],[-113.54381,38.51712],[-113.54418,38.51712],[-113.54427,38.51712],[-113.5445,38.51713],[-113.54454,38.51714],[-113.54489,38.51717],[-113.54528,38.51721],[-113.54603,38.51732],[-113.54617,38.51734],[-113.5464,38.51738],[-113.54649,38.51739],[-113.54703,38.51745],[-113.54754,38.51749],[-113.54757,38.51749],[-113.54809,38.51751],[-113.54846,38.5175],[-113.54865,38.51749],[-113.54869,38.51749],[-113.54892,38.51748],[-113.54908,38.51747],[-113.54958,38.51742],[-113.5496,38.51742],[-113.54983,38.51739],[-113.5501,38.51735],[-113.55073,38.51724],[-113.55251,38.51688],[-113.55384,38.51661],[-113.55451,38.51647],[-113.55473,38.51642],[-113.55518,38.51633],[-113.5554,38.51629],[-113.55584,38.5162],[-113.55651,38.51606],[-113.55696,38.51597],[-113.55718,38.51593],[-113.55807,38.51575],[-113.55829,38.5157],[-113.55963,38.51543],[-113.55985,38.51539],[-113.56007,38.51534],[-113.56074,38.51521],[-113.56096,38.51516],[-113.5623,38.51489],[-113.56408,38.51453],[-113.56527,38.51429],[-113.5664,38.51408],[-113.56653,38.51406],[-113.56676,38.51403],[-113.56698,38.51399],[-113.5675,38.51391],[-113.56838,38.51383],[-113.56961,38.51373],[-113.56995,38.5137],[-113.57041,38.51367],[-113.57191,38.51355],[-113.57201,38.51354],[-113.57347,38.51343],[-113.57673,38.51316],[-113.57739,38.51311],[-113.57803,38.51306],[-113.57872,38.513],[-113.57908,38.51295],[-113.57931,38.51292],[-113.57958,38.51288],[-113.57981,38.51285],[-113.58007,38.51281],[-113.58021,38.51278],[-113.58032,38.51276],[-113.5805,38.51273],[-113.58081,38.51265],[-113.58105,38.51259],[-113.58144,38.51248],[-113.58175,38.51239],[-113.58222,38.51225],[-113.58227,38.51223],[-113.58259,38.51212],[-113.58275,38.51206],[-113.58311,38.51193],[-113.58321,38.51189],[-113.58325,38.51188],[-113.5838,38.51166],[-113.58412,38.51151],[-113.58462,38.51128],[-113.58516,38.511],[-113.58567,38.51071],[-113.58583,38.51061],[-113.58622,38.51036],[-113.58712,38.50971],[-113.5872,38.50965],[-113.58848,38.50872],[-113.58942,38.50802],[-113.58986,38.5077],[-113.59016,38.50749],[-113.59046,38.50729],[-113.591,38.507],[-113.5915,38.50678],[-113.59196,38.50661],[-113.59202,38.50659],[-113.59217,38.50655],[-113.59239,38.50649],[-113.59283,38.50637],[-113.59294,38.50634],[-113.59304,38.50631],[-113.59326,38.50625],[-113.59373,38.50613],[-113.59413,38.50602],[-113.59435,38.50596],[-113.59474,38.50586],[-113.59478,38.50585],[-113.5953,38.50571],[-113.59543,38.50567],[-113.59565,38.50561],[-113.59582,38.50557],[-113.59617,38.50549],[-113.59666,38.50544],[-113.59677,38.50544],[-113.59708,38.50544],[-113.59723,38.50545],[-113.59747,38.50546],[-113.59788,38.50551],[-113.59814,38.50556],[-113.59827,38.50558],[-113.59836,38.5056],[-113.59858,38.50565],[-113.59887,38.50571],[-113.59903,38.50574],[-113.59925,38.50578],[-113.59948,38.50581],[-113.59971,38.50585],[-113.60029,38.5059],[-113.60096,38.50594],[-113.60131,38.50593],[-113.60154,38.50593],[-113.60183,38.50593],[-113.602,38.50592],[-113.60338,38.50588],[-113.60451,38.50585],[-113.60474,38.50584],[-113.60612,38.50581],[-113.60735,38.50587],[-113.60763,38.5059],[-113.60832,38.50596],[-113.60838,38.50596],[-113.60854,38.50598],[-113.60877,38.506],[-113.60883,38.50601],[-113.609,38.50603],[-113.60923,38.50606],[-113.60925,38.50606],[-113.60945,38.50609],[-113.60968,38.50613],[-113.60969,38.50613],[-113.6099,38.50617],[-113.61013,38.50621],[-113.61026,38.50623],[-113.61035,38.50625],[-113.61057,38.50629],[-113.61152,38.50648],[-113.61266,38.50678],[-113.61303,38.5069],[-113.61345,38.50703],[-113.61422,38.50728],[-113.6143,38.50732],[-113.61451,38.50739],[-113.61472,38.50747],[-113.61576,38.50786],[-113.61647,38.50813],[-113.61751,38.50851],[-113.61959,38.50928],[-113.62062,38.50967],[-113.62395,38.5109],[-113.62498,38.51129],[-113.62519,38.51137],[-113.6254,38.51144],[-113.62581,38.5116],[-113.62603,38.51168],[-113.62852,38.5126],[-113.62997,38.51313],[-113.63018,38.51321],[-113.63392,38.51459],[-113.63621,38.51544],[-113.63829,38.51621],[-113.63891,38.51644],[-113.63912,38.51652],[-113.63975,38.51675],[-113.64037,38.51698],[-113.64099,38.51721],[-113.64121,38.51729],[-113.64287,38.51791],[-113.64308,38.51798],[-113.64348,38.51813],[-113.64516,38.51875],[-113.64535,38.51882],[-113.646,38.51906],[-113.6462,38.51914],[-113.6466,38.51928],[-113.64662,38.51929],[-113.64704,38.51945],[-113.64722,38.51951],[-113.64724,38.51952],[-113.64784,38.51975],[-113.6487,38.52006],[-113.64888,38.52013],[-113.64891,38.52014],[-113.64912,38.52022],[-113.65041,38.52069],[-113.65138,38.52105],[-113.65345,38.52182],[-113.6547,38.52228],[-113.65491,38.52236],[-113.65533,38.52251],[-113.65636,38.5229],[-113.65761,38.52336],[-113.65948,38.52405],[-113.66281,38.52528],[-113.66405,38.52574],[-113.66613,38.52651],[-113.66634,38.52659],[-113.66655,38.52666],[-113.66842,38.52735],[-113.67257,38.52889],[-113.67624,38.53024],[-113.67769,38.53078],[-113.6779,38.53086],[-113.68206,38.53239],[-113.68264,38.53261],[-113.68476,38.5334],[-113.68518,38.53355],[-113.69083,38.53564],[-113.6917,38.53595],[-113.6935,38.53662],[-113.69536,38.53732],[-113.69599,38.53755],[-113.69994,38.53901],[-113.70018,38.53909],[-113.70036,38.53916],[-113.70202,38.53978],[-113.70223,38.53985],[-113.70267,38.54001],[-113.70306,38.54016],[-113.70472,38.54078],[-113.70781,38.54191],[-113.71096,38.54308],[-113.71198,38.54346],[-113.71221,38.54354],[-113.7159,38.5449],[-113.71617,38.54499],[-113.71718,38.54537],[-113.71762,38.54553],[-113.71845,38.54584],[-113.72001,38.54642],[-113.72365,38.54777],[-113.72448,38.54808],[-113.72505,38.54829],[-113.72656,38.54884],[-113.72837,38.54952],[-113.72926,38.54984],[-113.72947,38.54992],[-113.72968,38.55],[-113.7298,38.55004],[-113.73092,38.55046],[-113.73157,38.5507],[-113.73391,38.55156],[-113.73507,38.55199],[-113.73798,38.55305],[-113.73819,38.55313],[-113.74192,38.5545],[-113.744,38.55526],[-113.74546,38.5558],[-113.7508,38.55776],[-113.75129,38.55794],[-113.75586,38.55964],[-113.75607,38.55971],[-113.7623,38.56202],[-113.76314,38.56233],[-113.77,38.56487],[-113.77226,38.56569],[-113.7733,38.56608],[-113.77341,38.56612],[-113.77351,38.56616],[-113.77393,38.56632],[-113.77413,38.56639],[-113.77429,38.56645],[-113.77517,38.56677],[-113.77518,38.56677],[-113.77538,38.56685],[-113.77549,38.56689],[-113.77674,38.56734],[-113.77726,38.56753],[-113.77767,38.56768],[-113.77768,38.56768],[-113.77778,38.56772],[-113.77802,38.56781],[-113.77851,38.56799],[-113.77862,38.56803],[-113.77872,38.56806],[-113.77893,38.56814],[-113.77913,38.56822],[-113.77924,38.56826],[-113.77945,38.56833],[-113.77976,38.56845],[-113.78122,38.56899],[-113.78142,38.56906],[-113.78174,38.56918],[-113.78246,38.56945],[-113.78288,38.5696],[-113.78298,38.56964],[-113.7835,38.56983],[-113.78361,38.56987],[-113.78448,38.57019],[-113.78486,38.57033],[-113.78573,38.57065],[-113.7861,38.57079],[-113.78735,38.57125],[-113.78802,38.5715],[-113.78839,38.57164],[-113.7885,38.57168],[-113.78885,38.57181],[-113.78947,38.57204],[-113.78964,38.5721],[-113.78989,38.57219],[-113.78995,38.57221],[-113.79031,38.57235],[-113.79051,38.57242],[-113.79091,38.57257],[-113.79104,38.57261],[-113.7912,38.57267],[-113.79141,38.57275],[-113.79162,38.57283],[-113.79224,38.57306],[-113.79287,38.57329],[-113.79328,38.57344],[-113.7937,38.57359],[-113.79412,38.57375],[-113.79453,38.5739],[-113.79495,38.57405],[-113.79518,38.57414],[-113.79539,38.57422],[-113.7956,38.57429],[-113.79581,38.57437],[-113.79783,38.57512],[-113.7985,38.57538],[-113.79889,38.57554],[-113.79909,38.57562],[-113.79912,38.57563],[-113.79932,38.57571],[-113.79947,38.57577],[-113.79953,38.5758],[-113.80063,38.57628],[-113.80151,38.5767],[-113.80173,38.57681],[-113.8022,38.57704],[-113.80282,38.57737],[-113.80361,38.57779],[-113.80362,38.5778],[-113.80414,38.5781],[-113.80417,38.57812],[-113.80451,38.57831],[-113.80468,38.57842],[-113.80494,38.57857],[-113.80543,38.57887],[-113.80633,38.57944],[-113.80693,38.57987],[-113.80701,38.57992],[-113.80718,38.58004],[-113.80752,38.58029],[-113.80769,38.58041],[-113.80819,38.58077],[-113.80828,38.58084],[-113.80958,38.58189],[-113.80979,38.58207],[-113.80994,38.5822],[-113.8101,38.58234],[-113.81136,38.58343],[-113.81181,38.58382],[-113.8132,38.58503],[-113.81336,38.58516],[-113.81366,38.58543],[-113.81458,38.58623],[-113.81535,38.5869],[-113.81551,38.58703],[-113.81566,38.58717],[-113.81597,38.58744],[-113.81628,38.5877],[-113.81643,38.58784],[-113.81658,38.58797],[-113.81766,38.58891],[-113.81828,38.58944],[-113.8192,38.59024],[-113.81936,38.59038],[-113.81982,38.59078],[-113.82013,38.59104],[-113.8209,38.59171],[-113.82188,38.59256],[-113.82383,38.59426],[-113.82599,38.59614],[-113.8288,38.59857],[-113.82911,38.59884],[-113.82927,38.59898],[-113.83038,38.59993],[-113.8305,38.60004],[-113.83172,38.60112],[-113.83175,38.60114],[-113.83188,38.60125],[-113.83234,38.60164],[-113.83278,38.60205],[-113.83342,38.60281],[-113.83352,38.60293],[-113.83405,38.60377],[-113.83414,38.60391],[-113.83432,38.60426],[-113.83438,38.60439],[-113.8344,38.60443],[-113.8346,38.60509],[-113.8348,38.60584],[-113.83486,38.60619],[-113.83499,38.60693],[-113.83505,38.60726],[-113.83519,38.60816],[-113.83522,38.60833],[-113.83526,38.60854],[-113.83546,38.60957],[-113.83553,38.60977],[-113.83558,38.60993],[-113.83559,38.60994],[-113.83572,38.61034],[-113.83587,38.61061],[-113.83588,38.61063],[-113.83597,38.61079],[-113.83645,38.61143],[-113.83648,38.61147],[-113.83655,38.61155],[-113.83658,38.61158],[-113.83687,38.61191],[-113.83741,38.61233],[-113.83745,38.61236],[-113.83814,38.61283],[-113.8382,38.61287],[-113.83832,38.61295],[-113.83838,38.61299],[-113.83847,38.61305],[-113.83884,38.6133],[-113.83901,38.61342],[-113.83909,38.61347],[-113.83926,38.61359],[-113.83958,38.6138],[-113.83962,38.61382],[-113.83971,38.61389],[-113.84014,38.61418],[-113.8405,38.61442],[-113.84067,38.61454],[-113.84147,38.61507],[-113.84163,38.61518],[-113.84232,38.61565],[-113.84267,38.61589],[-113.84279,38.61597],[-113.84296,38.61609],[-113.84302,38.61612],[-113.84311,38.61619],[-113.84314,38.61621],[-113.84331,38.61633],[-113.84336,38.61637],[-113.84348,38.61645],[-113.84353,38.61649],[-113.84365,38.61657],[-113.8437,38.61661],[-113.84383,38.6167],[-113.84395,38.61679],[-113.84399,38.61682],[-113.84403,38.61686],[-113.84414,38.61696],[-113.84418,38.61699],[-113.8443,38.6171],[-113.84445,38.61724],[-113.84448,38.61727],[-113.8446,38.61738],[-113.84472,38.61749],[-113.84489,38.61766],[-113.84491,38.61769],[-113.84502,38.61781],[-113.84516,38.61796],[-113.84549,38.61837],[-113.84564,38.6186],[-113.84574,38.61875],[-113.84575,38.61876],[-113.84585,38.61891],[-113.84586,38.61892],[-113.84605,38.6192],[-113.84656,38.62001],[-113.84691,38.62054],[-113.84769,38.62172],[-113.84776,38.62182],[-113.84794,38.62212],[-113.84822,38.62252],[-113.84824,38.62255],[-113.84833,38.62268],[-113.84928,38.62412],[-113.8496,38.6246],[-113.84961,38.62462],[-113.8497,38.62476],[-113.84981,38.62491],[-113.85138,38.62732],[-113.85139,38.62733],[-113.85149,38.62748],[-113.8519,38.6281],[-113.85356,38.63028],[-113.85368,38.63044],[-113.85391,38.63074],[-113.8545,38.63152],[-113.8553,38.63254],[-113.85534,38.63259],[-113.85614,38.63362],[-113.8564,38.63396],[-113.85641,38.63398],[-113.85653,38.63413],[-113.85701,38.63475],[-113.8574,38.63525],[-113.85752,38.6354],[-113.85763,38.63556],[-113.85775,38.63571],[-113.85787,38.63587],[-113.85811,38.63617],[-113.8587,38.63695],[-113.85882,38.6371],[-113.85893,38.63725],[-113.86,38.63864],[-113.86012,38.6388],[-113.86071,38.63957],[-113.86256,38.642],[-113.86348,38.64319],[-113.86491,38.64504],[-113.86515,38.64534],[-113.86539,38.64565],[-113.86677,38.64744],[-113.86764,38.64858],[-113.87049,38.65228],[-113.87203,38.65428],[-113.87227,38.65459],[-113.87313,38.65571],[-113.87326,38.65587],[-113.87574,38.6591],[-113.87575,38.65911],[-113.8782,38.6623],[-113.87892,38.66322],[-113.87903,38.66338],[-113.87975,38.6643],[-113.87987,38.66445],[-113.88046,38.66522],[-113.88058,38.66538],[-113.88117,38.66615],[-113.88175,38.6669],[-113.88208,38.66732],[-113.88232,38.66763],[-113.88236,38.66769],[-113.88255,38.66794],[-113.88279,38.66825],[-113.88303,38.66856],[-113.88327,38.66886],[-113.8835,38.66917],[-113.88362,38.66933],[-113.88382,38.66959],[-113.88394,38.66974],[-113.88406,38.66989],[-113.88667,38.67328],[-113.88774,38.67467],[-113.88778,38.67472],[-113.88786,38.67483],[-113.8879,38.67487],[-113.88846,38.6756],[-113.88917,38.67652],[-113.88964,38.67714],[-113.88976,38.67729],[-113.89024,38.67791],[-113.89107,38.67899],[-113.89131,38.67929],[-113.89202,38.68022],[-113.89265,38.68104],[-113.89309,38.68161],[-113.89321,38.68176],[-113.89356,38.68222],[-113.89416,38.68299],[-113.89452,38.68345],[-113.89487,38.68392],[-113.89511,38.68423],[-113.89541,38.68461],[-113.89553,38.68477],[-113.89565,38.68492],[-113.89576,38.68508],[-113.89669,38.68629],[-113.90114,38.69206],[-113.90126,38.69222],[-113.90138,38.69237],[-113.90352,38.69514],[-113.90491,38.69694],[-113.90547,38.69768],[-113.90626,38.69871],[-113.90631,38.69877],[-113.90643,38.69893],[-113.90679,38.69939],[-113.90691,38.69954],[-113.90715,38.69985],[-113.90822,38.70124],[-113.90881,38.70201],[-113.90929,38.70262],[-113.90976,38.70324],[-113.91036,38.70401],[-113.91048,38.70416],[-113.91155,38.70555],[-113.91167,38.7057],[-113.91191,38.70601],[-113.91298,38.7074],[-113.9139,38.70859],[-113.91458,38.70947],[-113.91474,38.70969],[-113.91546,38.71061],[-113.91558,38.71076],[-113.917,38.71261],[-113.91784,38.71369],[-113.91796,38.71385],[-113.91835,38.71436],[-113.91855,38.71462],[-113.91867,38.71477],[-113.91974,38.71616],[-113.91992,38.7164],[-113.92101,38.71782],[-113.92183,38.71888],[-113.92219,38.71934],[-113.92241,38.71961],[-113.92262,38.71986],[-113.92273,38.71998],[-113.9229,38.72018],[-113.92303,38.72033],[-113.92323,38.72053],[-113.92341,38.72072],[-113.92372,38.72102],[-113.92387,38.72116],[-113.92391,38.7212],[-113.92407,38.72134],[-113.9243,38.72154],[-113.92432,38.72156],[-113.92448,38.7217],[-113.92468,38.72187],[-113.92491,38.72206],[-113.92514,38.72223],[-113.92545,38.72247],[-113.92592,38.7228],[-113.92604,38.72289],[-113.92631,38.72306],[-113.92643,38.72314],[-113.92649,38.72318],[-113.92669,38.72331],[-113.92678,38.72337],[-113.92709,38.72356],[-113.9274,38.72374],[-113.92778,38.72395],[-113.92803,38.72408],[-113.92817,38.72416],[-113.92822,38.72418],[-113.92837,38.72425],[-113.9286,38.72437],[-113.92876,38.72445],[-113.92893,38.72453],[-113.92905,38.72459],[-113.92933,38.72471],[-113.92949,38.72479],[-113.92955,38.72481],[-113.93036,38.72516],[-113.93056,38.72524],[-113.93085,38.72536],[-113.93171,38.72573],[-113.93191,38.72582],[-113.93195,38.72584],[-113.93248,38.72606],[-113.93272,38.72616],[-113.93292,38.72625],[-113.93313,38.72633],[-113.9333,38.72641],[-113.93352,38.7265],[-113.93369,38.72658],[-113.93387,38.72666],[-113.93405,38.72675],[-113.93431,38.7269],[-113.93456,38.72705],[-113.93472,38.72716],[-113.93491,38.7273],[-113.93507,38.72742],[-113.93524,38.72756],[-113.93543,38.72772],[-113.93557,38.72786],[-113.93572,38.72801],[-113.93585,38.72815],[-113.93594,38.72828],[-113.93596,38.7283],[-113.93603,38.72839],[-113.93608,38.72845],[-113.93618,38.72859],[-113.93627,38.72873],[-113.93635,38.72887],[-113.93643,38.72901],[-113.93653,38.72918],[-113.93676,38.7296],[-113.93776,38.73141],[-113.93858,38.7329],[-113.93867,38.73307],[-113.93903,38.73373],[-113.9393,38.73422],[-113.94021,38.73588],[-113.94112,38.73753],[-113.94197,38.73909],[-113.94201,38.73915],[-113.94206,38.73925],[-113.9421,38.73932],[-113.94334,38.74157],[-113.94455,38.74377],[-113.94464,38.74392],[-113.94471,38.74406],[-113.94512,38.74481],[-113.94535,38.74522],[-113.94567,38.74583],[-113.94588,38.74621],[-113.94592,38.74629],[-113.94611,38.74661],[-113.94619,38.74678],[-113.94629,38.74694],[-113.94636,38.74707],[-113.94643,38.7472],[-113.94652,38.74737],[-113.94688,38.74803],[-113.947,38.74825],[-113.94714,38.7485],[-113.94786,38.74982],[-113.94815,38.75034],[-113.94856,38.75108],[-113.94898,38.75186],[-113.94952,38.75284],[-113.94993,38.75357],[-113.95088,38.75531],[-113.95101,38.75556],[-113.95102,38.75557],[-113.95127,38.75603],[-113.9515,38.75646],[-113.9516,38.75664],[-113.95169,38.75681],[-113.95245,38.75817],[-113.9525,38.75826],[-113.95288,38.75895],[-113.95314,38.75942],[-113.95365,38.76037],[-113.95368,38.76042],[-113.95413,38.76124],[-113.95451,38.76195],[-113.95458,38.76209],[-113.95526,38.76332],[-113.95608,38.7648],[-113.95617,38.76497],[-113.95626,38.76514],[-113.95761,38.76758],[-113.958,38.76831],[-113.95908,38.77026],[-113.96159,38.77484],[-113.96192,38.77543],[-113.96239,38.77632],[-113.96354,38.77838],[-113.96452,38.78016],[-113.96459,38.78029],[-113.96587,38.78261],[-113.96596,38.78278],[-113.96795,38.78642],[-113.96977,38.78972],[-113.97179,38.79343],[-113.9728,38.79525],[-113.97298,38.79558],[-113.97317,38.79591],[-113.97335,38.79624],[-113.97363,38.79674],[-113.97381,38.79706],[-113.97418,38.79773],[-113.97427,38.79789],[-113.97463,38.79856],[-113.97508,38.79938],[-113.97531,38.79979],[-113.97572,38.80054],[-113.97573,38.80055],[-113.97582,38.80071],[-113.97589,38.80085],[-113.97682,38.80253],[-113.97754,38.80385],[-113.97781,38.80435],[-113.97818,38.80501],[-113.97826,38.80517],[-113.97827,38.80518],[-113.9789,38.80633],[-113.97899,38.80649],[-113.97908,38.80666],[-113.97926,38.807],[-113.97953,38.80748],[-113.9798,38.80798],[-113.98006,38.80845],[-113.98025,38.80879],[-113.98034,38.80896],[-113.98052,38.80929],[-113.98273,38.81332],[-113.98306,38.81394],[-113.98355,38.8148],[-113.98369,38.81506],[-113.98373,38.81513],[-113.98382,38.8153],[-113.98391,38.81546],[-113.98418,38.81595],[-113.98458,38.81666],[-113.98473,38.81695],[-113.98481,38.81712],[-113.98498,38.81746],[-113.98499,38.81748],[-113.98529,38.81813],[-113.98538,38.81831],[-113.98545,38.81847],[-113.98552,38.81864],[-113.98559,38.81881],[-113.98571,38.81908],[-113.98599,38.81977],[-113.98626,38.82052],[-113.98659,38.82153],[-113.98687,38.82258],[-113.98743,38.82466],[-113.98748,38.82484],[-113.98749,38.82487],[-113.98788,38.82633],[-113.98791,38.82646],[-113.98794,38.82657],[-113.98814,38.82731],[-113.98848,38.82856],[-113.98862,38.82909],[-113.98867,38.82924],[-113.98871,38.82942],[-113.98891,38.83015],[-113.989,38.83047],[-113.98914,38.831],[-113.98919,38.83118],[-113.98972,38.83314],[-113.99002,38.83427],[-113.99006,38.83439],[-113.99011,38.83456],[-113.99037,38.83544],[-113.99074,38.83689],[-113.99087,38.83734],[-113.99106,38.83805],[-113.9913,38.83892],[-113.99153,38.83978],[-113.99159,38.84002],[-113.99164,38.84019],[-113.99169,38.84037],[-113.99202,38.84159],[-113.99221,38.8423],[-113.9924,38.84301],[-113.99255,38.84354],[-113.99264,38.84389],[-113.99283,38.84459],[-113.99288,38.84477],[-113.99293,38.84494],[-113.99293,38.84495],[-113.99297,38.84512],[-113.99302,38.8453],[-113.99323,38.84618],[-113.99327,38.84636],[-113.99335,38.84671],[-113.9935,38.84737],[-113.99374,38.8486],[-113.99382,38.84902],[-113.99386,38.8492],[-113.99405,38.85021],[-113.99412,38.85057],[-113.99437,38.85181],[-113.99441,38.85199],[-113.9949,38.85447],[-113.9949,38.85448],[-113.99494,38.85465],[-113.99494,38.85466],[-113.99501,38.85501],[-113.99512,38.85554],[-113.99551,38.8575],[-113.99554,38.85768],[-113.99556,38.85778],[-113.9956,38.85795],[-113.99562,38.85803],[-113.99564,38.85813],[-113.99576,38.85874],[-113.9959,38.85945],[-113.99594,38.85963],[-113.99611,38.86052],[-113.99628,38.86133],[-113.99629,38.86142],[-113.99639,38.86185],[-113.99654,38.86263],[-113.99661,38.86303],[-113.99674,38.86367],[-113.99689,38.86445],[-113.99691,38.86459],[-113.99693,38.86472],[-113.99714,38.86576],[-113.99721,38.86615],[-113.99724,38.86632],[-113.99731,38.86668],[-113.99732,38.86672],[-113.99743,38.86726],[-113.99756,38.86791],[-113.99767,38.86846],[-113.99773,38.86866],[-113.99777,38.86881],[-113.99778,38.86883],[-113.99782,38.86894],[-113.99784,38.86898],[-113.99787,38.86905],[-113.99793,38.86917],[-113.998,38.86928],[-113.99807,38.86939],[-113.99816,38.86952],[-113.99823,38.86961],[-113.99824,38.86962],[-113.99834,38.86973],[-113.99837,38.86977],[-113.99843,38.86984],[-113.99851,38.86991],[-113.99853,38.86993],[-113.99862,38.87002],[-113.99866,38.87005],[-113.9987,38.87008],[-113.99877,38.87014],[-113.99882,38.87018],[-113.99885,38.87021],[-113.99893,38.87027],[-113.99902,38.87033],[-113.99914,38.87041],[-113.99955,38.87069],[-113.99968,38.87078],[-113.99987,38.87091],[-114.00016,38.87111],[-114.00038,38.87126],[-114.00054,38.87138],[-114.00066,38.87146],[-114.00071,38.8715],[-114.00084,38.8716],[-114.00117,38.87185],[-114.00122,38.8719],[-114.00148,38.87213],[-114.00178,38.87241],[-114.00192,38.87254],[-114.00199,38.87261],[-114.00206,38.87268],[-114.00218,38.8728],[-114.00239,38.87302],[-114.00253,38.87318],[-114.00275,38.87344],[-114.00302,38.87378],[-114.0032,38.87403],[-114.00335,38.87424],[-114.00356,38.87457],[-114.00363,38.87469],[-114.00383,38.87504],[-114.004,38.87536],[-114.00415,38.87569],[-114.00425,38.87593],[-114.00432,38.87611],[-114.00441,38.87636],[-114.00444,38.87644],[-114.00455,38.8768],[-114.00462,38.87705],[-114.0047,38.87742],[-114.00478,38.87779],[-114.00481,38.87802],[-114.00484,38.87828],[-114.00486,38.87853],[-114.00488,38.87887],[-114.00489,38.87911],[-114.0049,38.87929],[-114.0049,38.87938],[-114.00491,38.87947],[-114.00492,38.87972],[-114.00495,38.88018],[-114.00498,38.88037],[-114.00499,38.88044],[-114.00502,38.88064],[-114.00508,38.88091],[-114.00521,38.88126],[-114.00527,38.88142],[-114.00533,38.88157],[-114.00544,38.88177],[-114.00559,38.88201],[-114.00572,38.88221],[-114.00583,38.88237],[-114.00597,38.88255],[-114.00616,38.88277],[-114.00623,38.88285],[-114.00694,38.88356],[-114.00698,38.88361],[-114.00708,38.8837],[-114.00759,38.88421],[-114.00764,38.88427],[-114.00778,38.88442],[-114.00792,38.88456],[-114.00806,38.8847],[-114.00819,38.88484],[-114.00857,38.88522],[-114.00887,38.88553],[-114.00902,38.88569],[-114.0092,38.8859],[-114.00929,38.88601],[-114.00961,38.88644],[-114.0098,38.88674],[-114.00983,38.88677],[-114.00987,38.88684],[-114.00993,38.88694],[-114.00997,38.887],[-114.00999,38.88704],[-114.01021,38.88747],[-114.01045,38.88798],[-114.0106,38.88828],[-114.01063,38.88835],[-114.01068,38.88845],[-114.01072,38.88853],[-114.01084,38.88879],[-114.01092,38.88896],[-114.01093,38.88898],[-114.01095,38.88902],[-114.01112,38.88939],[-114.01119,38.88953],[-114.01141,38.88999],[-114.01159,38.89037],[-114.01165,38.89048],[-114.01167,38.89052],[-114.01168,38.89054],[-114.01176,38.89071],[-114.01181,38.89081],[-114.0119,38.891],[-114.012,38.89121],[-114.01212,38.89147],[-114.01213,38.89149],[-114.01225,38.89175],[-114.01239,38.89207],[-114.01248,38.89231],[-114.01258,38.89265],[-114.01264,38.89288],[-114.01268,38.89309],[-114.01272,38.89329],[-114.01274,38.89339],[-114.01278,38.89375],[-114.01278,38.89377],[-114.01279,38.89401],[-114.0128,38.89415],[-114.0128,38.89455],[-114.0128,38.89467],[-114.0128,38.89481],[-114.0128,38.89532],[-114.0128,38.89537],[-114.0128,38.89607],[-114.0128,38.89699],[-114.0128,38.89707],[-114.0128,38.89735],[-114.0128,38.89756],[-114.0128,38.89772],[-114.01282,38.8979],[-114.01284,38.89806],[-114.01289,38.89823],[-114.01294,38.89844],[-114.013,38.89859],[-114.01307,38.89873],[-114.01318,38.89893],[-114.01322,38.899],[-114.01329,38.8991],[-114.01347,38.89935],[-114.01362,38.89952],[-114.01377,38.89969],[-114.01381,38.89974],[-114.01396,38.8999],[-114.01408,38.90003],[-114.01418,38.90014],[-114.01422,38.90017],[-114.01457,38.90054],[-114.01476,38.90075],[-114.0149,38.9009],[-114.01503,38.90105],[-114.01544,38.90148],[-114.01545,38.90149],[-114.01583,38.90191],[-114.01598,38.90207],[-114.01611,38.90222],[-114.01612,38.90222],[-114.01625,38.90236],[-114.01652,38.90265],[-114.01692,38.90309],[-114.01693,38.9031],[-114.01706,38.90324],[-114.0174,38.90361],[-114.01782,38.90407],[-114.01813,38.90441],[-114.01822,38.90451],[-114.01864,38.90495],[-114.01868,38.90499],[-114.01891,38.90522],[-114.01912,38.90547],[-114.01921,38.90557],[-114.01962,38.90601],[-114.01968,38.90608],[-114.01975,38.90616],[-114.01989,38.90631],[-114.02002,38.90645],[-114.02016,38.9066],[-114.02023,38.90666],[-114.02042,38.9069],[-114.02057,38.90706],[-114.02068,38.90719],[-114.02085,38.90737],[-114.02099,38.90751],[-114.02104,38.90757],[-114.02113,38.90768],[-114.02126,38.90781],[-114.02141,38.90796],[-114.02164,38.90821],[-114.02167,38.90824],[-114.02182,38.90841],[-114.02229,38.90891],[-114.02272,38.90938],[-114.02275,38.90941],[-114.02312,38.90981],[-114.02328,38.90998],[-114.0235,38.91023],[-114.02383,38.91058],[-114.02386,38.91062],[-114.02419,38.91097],[-114.02469,38.91151],[-114.02514,38.91199],[-114.02558,38.91248],[-114.02562,38.91252],[-114.02571,38.91263],[-114.02584,38.91278],[-114.02591,38.91286],[-114.02596,38.91293],[-114.02613,38.91315],[-114.02634,38.91343],[-114.02654,38.91371],[-114.02674,38.91399],[-114.0269,38.91422],[-114.02703,38.91445],[-114.02716,38.91464],[-114.0273,38.91487],[-114.02745,38.91514],[-114.02758,38.91538],[-114.02764,38.91549],[-114.02772,38.91566],[-114.02774,38.91569],[-114.02788,38.916],[-114.02789,38.916],[-114.02796,38.91616],[-114.02803,38.91631],[-114.02804,38.91633],[-114.02815,38.91662],[-114.02818,38.91668],[-114.02828,38.91693],[-114.02839,38.91726],[-114.02848,38.91755],[-114.02854,38.91772],[-114.02856,38.91778],[-114.02859,38.91789],[-114.02863,38.91801],[-114.02865,38.91807],[-114.02872,38.91832],[-114.02882,38.91863],[-114.02889,38.91887],[-114.02898,38.91918],[-114.02914,38.91971],[-114.02918,38.91982],[-114.02923,38.91999],[-114.02928,38.92014],[-114.02941,38.92056],[-114.02977,38.92174],[-114.0302,38.92315],[-114.03025,38.92332],[-114.03062,38.92455],[-114.031,38.92577],[-114.0312,38.92644],[-114.03125,38.92661],[-114.03141,38.92714],[-114.03147,38.92731],[-114.03216,38.92959],[-114.03252,38.93077],[-114.03275,38.93152],[-114.03296,38.93222],[-114.03307,38.93258],[-114.03315,38.93282],[-114.03322,38.93308],[-114.03328,38.93337],[-114.03332,38.93356],[-114.03335,38.93385],[-114.03337,38.93408],[-114.03337,38.93412],[-114.03339,38.93444],[-114.03339,38.93471],[-114.03339,38.93644],[-114.03339,38.93668],[-114.03339,38.93696],[-114.0334,38.9372],[-114.03341,38.93737],[-114.03342,38.93752],[-114.03344,38.93775],[-114.03347,38.93789],[-114.0335,38.93805],[-114.03352,38.93817],[-114.03359,38.93847],[-114.03366,38.93871],[-114.03373,38.93892],[-114.03381,38.93914],[-114.03382,38.93918],[-114.0339,38.93939],[-114.034,38.9396],[-114.03409,38.93978],[-114.03418,38.93996],[-114.0343,38.94017],[-114.03442,38.94038],[-114.03449,38.94048],[-114.0346,38.94064],[-114.03476,38.94087],[-114.0349,38.94106],[-114.03503,38.94121],[-114.0352,38.94141],[-114.03526,38.94148],[-114.03544,38.94167],[-114.03562,38.94184],[-114.03589,38.94209],[-114.03607,38.94225],[-114.03625,38.9424],[-114.03646,38.94256],[-114.03667,38.94271],[-114.03689,38.94287],[-114.03711,38.94301],[-114.03732,38.94314],[-114.03755,38.94327],[-114.03789,38.94346],[-114.03859,38.94384],[-114.03928,38.94421],[-114.03998,38.94459],[-114.04067,38.94495],[-114.04133,38.94531],[-114.04217,38.94576],[-114.04288,38.94614],[-114.04335,38.94639],[-114.04444,38.94697],[-114.04601,38.94782],[-114.04731,38.94852],[-114.04867,38.94925],[-114.04867,38.94925],[-114.05023,38.9501],[-114.05048,38.95023],[-114.05114,38.95059],[-114.05219,38.95116],[-114.05354,38.95188],[-114.05763,38.95409],[-114.05851,38.95456],[-114.05876,38.9547],[-114.06023,38.95548],[-114.06166,38.95625],[-114.06185,38.95635],[-114.06311,38.95703],[-114.06413,38.95758],[-114.06434,38.95769],[-114.06554,38.95832],[-114.06568,38.9584],[-114.06663,38.9589],[-114.06728,38.95924],[-114.06797,38.95961],[-114.06816,38.95972],[-114.06835,38.95982],[-114.06854,38.95992],[-114.0693,38.96033],[-114.07006,38.96074],[-114.07025,38.96084],[-114.07082,38.96115],[-114.07139,38.96146],[-114.07158,38.96156],[-114.07329,38.96248],[-114.07348,38.96258],[-114.07462,38.9632],[-114.075,38.9634],[-114.07519,38.9635],[-114.07651,38.96421],[-114.07876,38.96543],[-114.08014,38.96616],[-114.0811,38.96667],[-114.08127,38.96676],[-114.08167,38.96698],[-114.08186,38.96708],[-114.08318,38.96778],[-114.08417,38.96832],[-114.08485,38.96868],[-114.08655,38.96961],[-114.08708,38.9699],[-114.08808,38.97043],[-114.08827,38.97053],[-114.08941,38.97114],[-114.08951,38.97119],[-114.0896,38.97124],[-114.09073,38.97185],[-114.09246,38.97277],[-114.09297,38.97304],[-114.09379,38.97349],[-114.09398,38.97359],[-114.09417,38.97369],[-114.09553,38.97442],[-114.09779,38.97564],[-114.09813,38.97582],[-114.09839,38.97596],[-114.09936,38.97648],[-114.10048,38.97709],[-114.1014,38.97757],[-114.10238,38.97811],[-114.103,38.97845],[-114.10305,38.97847],[-114.10324,38.97858],[-114.10362,38.9788],[-114.10418,38.97914],[-114.10434,38.97924],[-114.10488,38.97956],[-114.10649,38.98066],[-114.10738,38.98134],[-114.10821,38.98202],[-114.10873,38.98246],[-114.10911,38.98279],[-114.10958,38.98323],[-114.10977,38.98343],[-114.10995,38.98359],[-114.11057,38.98421],[-114.11069,38.98434],[-114.11083,38.98448],[-114.11113,38.9848],[-114.11183,38.98558],[-114.11197,38.98575],[-114.11238,38.98626],[-114.11299,38.98703],[-114.11339,38.98761],[-114.11379,38.9882],[-114.11392,38.98837],[-114.11411,38.98866],[-114.11442,38.98917],[-114.11451,38.98932],[-114.11478,38.98983],[-114.11492,38.99008],[-114.11514,38.99049],[-114.11538,38.99094],[-114.11553,38.99124],[-114.1159,38.99197],[-114.1162,38.99257],[-114.11684,38.99381],[-114.11699,38.99408],[-114.11708,38.99425],[-114.11709,38.99427],[-114.11743,38.99492],[-114.11766,38.99535],[-114.11783,38.99568],[-114.11817,38.99635],[-114.11835,38.99668],[-114.1186,38.99718],[-114.11862,38.99721],[-114.11886,38.99769],[-114.11894,38.99784],[-114.11895,38.99785],[-114.11928,38.99847],[-114.11935,38.99859],[-114.11953,38.99892],[-114.11959,38.99902],[-114.12003,38.99992],[-114.12051,39.00083],[-114.12099,39.00175],[-114.12111,39.002],[-114.12119,39.00217],[-114.12144,39.00267],[-114.12145,39.0027],[-114.12183,39.0034],[-114.12198,39.00369],[-114.12214,39.00406],[-114.12227,39.00439],[-114.1224,39.00472],[-114.12258,39.00522],[-114.1227,39.00569],[-114.12274,39.00586],[-114.12279,39.00607],[-114.12282,39.00624],[-114.12285,39.00641],[-114.12292,39.00679],[-114.12298,39.00731],[-114.12303,39.00825],[-114.12303,39.00919],[-114.12303,39.00983],[-114.12303,39.01022],[-114.12307,39.01109],[-114.1231,39.01144],[-114.1231,39.01148],[-114.12311,39.01167],[-114.12312,39.01181],[-114.12314,39.01192],[-114.12316,39.01207],[-114.12323,39.01241],[-114.12324,39.01244],[-114.12327,39.01255],[-114.12329,39.01265],[-114.12333,39.01279],[-114.12338,39.01294],[-114.12344,39.01305],[-114.12346,39.01314],[-114.1235,39.01321],[-114.12355,39.01332],[-114.12359,39.0134],[-114.12359,39.0134],[-114.12335,39.01345]]}}]}