{"type":"FeatureCollection","features":[{"type":"Feature","properties":{"_gpxType":"trk","name":"Whispering Elms Motel & RV Park, Baker Avenue, Baker, NV - 843 Murry St, Ely, NV 89301","coordinateProperties":{},"id":92},"geometry":{"type":"LineString","coordinates":[[-114.12335,39.01345],[-114.12359,39.0134],[-114.12359,39.0134],[-114.12361,39.01343],[-114.1237,39.01359],[-114.12381,39.01375],[-114.12411,39.01419],[-114.12446,39.01459],[-114.12465,39.01478],[-114.12499,39.01513],[-114.12574,39.01599],[-114.12577,39.01602],[-114.12591,39.01617],[-114.12633,39.01662],[-114.12658,39.0169],[-114.12687,39.0172],[-114.12725,39.01763],[-114.12772,39.01817],[-114.12836,39.01886],[-114.12873,39.01926],[-114.12902,39.01959],[-114.12948,39.02013],[-114.12983,39.02049],[-114.13016,39.02085],[-114.13081,39.02156],[-114.13117,39.02197],[-114.13128,39.02208],[-114.13153,39.02235],[-114.13166,39.0225],[-114.13193,39.02279],[-114.1326,39.02352],[-114.1328,39.02374],[-114.13327,39.02426],[-114.13367,39.0247],[-114.13381,39.02484],[-114.13414,39.02522],[-114.13598,39.02723],[-114.13635,39.02763],[-114.13643,39.02771],[-114.13649,39.02778],[-114.13701,39.02837],[-114.13722,39.02859],[-114.13815,39.0296],[-114.13954,39.03114],[-114.13967,39.03129],[-114.13988,39.03152],[-114.14041,39.03209],[-114.14065,39.03235],[-114.14078,39.0325],[-114.14091,39.03265],[-114.14145,39.03324],[-114.14158,39.03338],[-114.14185,39.03368],[-114.14251,39.03441],[-114.14265,39.03456],[-114.14288,39.03482],[-114.14345,39.03544],[-114.14411,39.03613],[-114.14414,39.03616],[-114.14461,39.03669],[-114.14497,39.03707],[-114.1453,39.03741],[-114.14536,39.03748],[-114.14577,39.03792],[-114.1459,39.03806],[-114.14625,39.03845],[-114.14663,39.03887],[-114.14697,39.03927],[-114.14738,39.0397],[-114.14793,39.04032],[-114.14822,39.04061],[-114.14831,39.0407],[-114.14844,39.04085],[-114.14857,39.041],[-114.1486,39.04104],[-114.14913,39.04162],[-114.14924,39.04173],[-114.14978,39.04232],[-114.14992,39.04246],[-114.14993,39.04248],[-114.15044,39.04305],[-114.15051,39.04313],[-114.1506,39.04323],[-114.15082,39.04347],[-114.15084,39.0435],[-114.15111,39.04379],[-114.15138,39.04408],[-114.15159,39.04432],[-114.1518,39.04455],[-114.15202,39.0448],[-114.15231,39.04511],[-114.15248,39.0453],[-114.15297,39.04583],[-114.15312,39.04599],[-114.15332,39.04619],[-114.1536,39.04652],[-114.15411,39.04707],[-114.15433,39.04731],[-114.15467,39.04769],[-114.1549,39.04793],[-114.1554,39.04849],[-114.15561,39.04873],[-114.1558,39.04894],[-114.15607,39.04922],[-114.15608,39.04924],[-114.1562,39.04936],[-114.15634,39.04951],[-114.15688,39.05009],[-114.15695,39.05017],[-114.15728,39.05054],[-114.15741,39.05068],[-114.15764,39.05094],[-114.15794,39.05127],[-114.15833,39.05172],[-114.15847,39.05187],[-114.1586,39.05201],[-114.15889,39.05234],[-114.159,39.05245],[-114.15914,39.0526],[-114.15917,39.05262],[-114.15944,39.05292],[-114.15963,39.05314],[-114.15983,39.05336],[-114.16018,39.05373],[-114.16138,39.05505],[-114.16151,39.0552],[-114.16165,39.05535],[-114.16183,39.05555],[-114.16231,39.05608],[-114.16264,39.05644],[-114.16285,39.05667],[-114.16309,39.05693],[-114.16326,39.05711],[-114.16331,39.05717],[-114.16365,39.05754],[-114.16394,39.05785],[-114.16406,39.05799],[-114.16414,39.05807],[-114.1642,39.05813],[-114.16448,39.05843],[-114.16498,39.05899],[-114.16527,39.05931],[-114.1653,39.05934],[-114.1657,39.05977],[-114.16622,39.06035],[-114.16664,39.06082],[-114.16694,39.06114],[-114.1674,39.06165],[-114.16771,39.06199],[-114.1678,39.06209],[-114.16798,39.06229],[-114.16829,39.06262],[-114.16865,39.06302],[-114.16874,39.06312],[-114.16932,39.06375],[-114.16953,39.06399],[-114.16959,39.06405],[-114.16986,39.06434],[-114.1699,39.06439],[-114.17032,39.06484],[-114.17117,39.06578],[-114.17146,39.06609],[-114.17164,39.06629],[-114.17171,39.06636],[-114.17184,39.06651],[-114.17197,39.06666],[-114.17309,39.06788],[-114.17328,39.06814],[-114.17333,39.06841],[-114.17333,39.06842],[-114.17332,39.06858],[-114.17331,39.06864],[-114.17327,39.0688],[-114.17321,39.06893],[-114.1732,39.06896],[-114.1731,39.06909],[-114.17298,39.06924],[-114.17298,39.06925],[-114.17285,39.0694],[-114.17261,39.06968],[-114.1726,39.0697],[-114.17249,39.06986],[-114.17239,39.07002],[-114.17239,39.07002],[-114.17316,39.07041],[-114.17336,39.07051],[-114.17344,39.07056],[-114.17455,39.07113],[-114.1748,39.07126],[-114.17572,39.07176],[-114.17604,39.07192],[-114.17646,39.07214],[-114.17729,39.07258],[-114.17808,39.07298],[-114.17881,39.07336],[-114.17884,39.07338],[-114.17945,39.07369],[-114.18077,39.07438],[-114.18078,39.07439],[-114.18161,39.07481],[-114.18207,39.07504],[-114.18382,39.07594],[-114.18561,39.07687],[-114.18667,39.07742],[-114.18813,39.07817],[-114.18851,39.07836],[-114.18966,39.07896],[-114.19006,39.07916],[-114.19025,39.07926],[-114.19052,39.07939],[-114.19122,39.07976],[-114.1916,39.07996],[-114.1918,39.08006],[-114.19199,39.08016],[-114.19218,39.08026],[-114.19276,39.08056],[-114.19314,39.08076],[-114.19376,39.08107],[-114.19488,39.08165],[-114.19507,39.08175],[-114.19584,39.08215],[-114.19662,39.08255],[-114.1972,39.08285],[-114.19758,39.08305],[-114.19823,39.08338],[-114.19852,39.08352],[-114.19884,39.08366],[-114.19903,39.08374],[-114.1992,39.08382],[-114.19958,39.08398],[-114.20001,39.08414],[-114.20006,39.08416],[-114.20101,39.08448],[-114.20155,39.08465],[-114.20178,39.08471],[-114.20207,39.08478],[-114.20257,39.0849],[-114.20309,39.08502],[-114.20353,39.08511],[-114.20422,39.08522],[-114.20547,39.08542],[-114.20557,39.08544],[-114.20678,39.08563],[-114.20726,39.08571],[-114.20758,39.08576],[-114.20793,39.08582],[-114.20832,39.08588],[-114.20852,39.08591],[-114.20947,39.08606],[-114.21192,39.08645],[-114.2122,39.0865],[-114.21418,39.0868],[-114.2142,39.0868],[-114.21506,39.08694],[-114.21601,39.08709],[-114.21609,39.0871],[-114.21624,39.08713],[-114.21734,39.08731],[-114.21809,39.08743],[-114.22018,39.08775],[-114.22033,39.08777],[-114.22055,39.08781],[-114.22146,39.08795],[-114.22192,39.08802],[-114.22203,39.08804],[-114.22312,39.08822],[-114.22364,39.08831],[-114.22411,39.08842],[-114.22436,39.08847],[-114.22467,39.08855],[-114.22498,39.08863],[-114.22506,39.08865],[-114.22528,39.08871],[-114.22556,39.08879],[-114.22593,39.0889],[-114.22614,39.08897],[-114.22642,39.08907],[-114.22673,39.08918],[-114.22698,39.08928],[-114.22703,39.0893],[-114.22719,39.08935],[-114.22743,39.08945],[-114.22791,39.08965],[-114.22831,39.08983],[-114.22876,39.09004],[-114.2288,39.09006],[-114.22917,39.09025],[-114.22986,39.09064],[-114.23028,39.09089],[-114.2303,39.0909],[-114.23048,39.09102],[-114.23064,39.09112],[-114.23169,39.09181],[-114.23201,39.09203],[-114.23224,39.09219],[-114.23459,39.09375],[-114.23616,39.09481],[-114.23744,39.09567],[-114.23761,39.09578],[-114.23779,39.0959],[-114.23832,39.09625],[-114.23937,39.09695],[-114.2397,39.09714],[-114.23989,39.09725],[-114.24004,39.09733],[-114.24028,39.09746],[-114.24075,39.09771],[-114.24117,39.0979],[-114.24175,39.0981],[-114.2418,39.09812],[-114.24201,39.09819],[-114.2422,39.09826],[-114.24267,39.09839],[-114.24288,39.09845],[-114.2431,39.0985],[-114.24398,39.09873],[-114.24457,39.09888],[-114.24596,39.09925],[-114.24617,39.09931],[-114.24903,39.10006],[-114.25034,39.10041],[-114.25102,39.10057],[-114.2513,39.10065],[-114.25153,39.10073],[-114.25175,39.1008],[-114.25204,39.10091],[-114.25222,39.10099],[-114.25237,39.10105],[-114.25265,39.10119],[-114.25304,39.10141],[-114.25325,39.10153],[-114.25419,39.10205],[-114.25516,39.10258],[-114.25568,39.10288],[-114.25587,39.10299],[-114.25609,39.10312],[-114.25624,39.1032],[-114.25734,39.10386],[-114.25786,39.10417],[-114.25808,39.1043],[-114.25824,39.10439],[-114.25862,39.10464],[-114.25889,39.10485],[-114.25925,39.10516],[-114.25938,39.10531],[-114.25951,39.10545],[-114.25986,39.10581],[-114.26021,39.10618],[-114.26035,39.10632],[-114.26062,39.10661],[-114.26084,39.10685],[-114.26101,39.10703],[-114.26116,39.10717],[-114.26124,39.10725],[-114.26139,39.10738],[-114.26147,39.10745],[-114.26155,39.10751],[-114.26163,39.10756],[-114.26174,39.10764],[-114.26215,39.1079],[-114.26229,39.10799],[-114.26267,39.1082],[-114.26311,39.10843],[-114.26332,39.10855],[-114.26351,39.10865],[-114.26408,39.10896],[-114.2644,39.10913],[-114.26542,39.10968],[-114.26599,39.10999],[-114.26654,39.11028],[-114.26739,39.11071],[-114.26823,39.11116],[-114.26829,39.11119],[-114.26848,39.1113],[-114.26887,39.1115],[-114.26983,39.11201],[-114.2704,39.1123],[-114.2706,39.1124],[-114.27067,39.11244],[-114.27158,39.11293],[-114.27228,39.11328],[-114.2734,39.11388],[-114.27398,39.11418],[-114.27452,39.11447],[-114.27573,39.1151],[-114.27621,39.11535],[-114.27634,39.11541],[-114.2766,39.11553],[-114.27672,39.11558],[-114.27692,39.11566],[-114.27708,39.11571],[-114.2772,39.11576],[-114.27736,39.11581],[-114.27748,39.11584],[-114.27753,39.11586],[-114.27761,39.11588],[-114.27774,39.11591],[-114.27775,39.11592],[-114.27783,39.11593],[-114.2782,39.11602],[-114.27837,39.11604],[-114.27852,39.11607],[-114.27909,39.11612],[-114.27977,39.11619],[-114.28026,39.11624],[-114.28054,39.11627],[-114.28072,39.1163],[-114.28116,39.11638],[-114.2814,39.11643],[-114.28163,39.11648],[-114.28184,39.11653],[-114.28202,39.11658],[-114.28206,39.11659],[-114.28232,39.11667],[-114.28256,39.11675],[-114.28278,39.11683],[-114.28291,39.11688],[-114.28309,39.11695],[-114.28312,39.11696],[-114.28327,39.11702],[-114.28352,39.11713],[-114.2836,39.11716],[-114.28372,39.11722],[-114.28385,39.11729],[-114.28411,39.11743],[-114.28441,39.11759],[-114.28463,39.11774],[-114.28529,39.11816],[-114.28537,39.11822],[-114.28589,39.11857],[-114.28603,39.11867],[-114.28606,39.11869],[-114.28624,39.11881],[-114.28641,39.11893],[-114.28692,39.11928],[-114.28728,39.11953],[-114.28757,39.11974],[-114.28762,39.11977],[-114.28793,39.11998],[-114.28815,39.12013],[-114.28821,39.12017],[-114.2886,39.12042],[-114.28868,39.12047],[-114.28886,39.12057],[-114.28903,39.12067],[-114.28926,39.12077],[-114.28934,39.12081],[-114.28954,39.1209],[-114.28972,39.12098],[-114.28993,39.12106],[-114.29007,39.12111],[-114.29008,39.12111],[-114.29024,39.12116],[-114.29045,39.12123],[-114.2905,39.12124],[-114.29065,39.12129],[-114.29094,39.12136],[-114.29104,39.12138],[-114.29125,39.12142],[-114.29137,39.12144],[-114.29147,39.12146],[-114.29162,39.12148],[-114.29164,39.12149],[-114.29193,39.12152],[-114.29219,39.12155],[-114.29267,39.12157],[-114.29363,39.12159],[-114.2937,39.12159],[-114.2941,39.12159],[-114.29595,39.12162],[-114.29703,39.12164],[-114.29724,39.12164],[-114.29748,39.12164],[-114.29794,39.12165],[-114.29973,39.12167],[-114.30026,39.12168],[-114.30049,39.12169],[-114.30132,39.12171],[-114.30211,39.12174],[-114.30231,39.12175],[-114.30234,39.12175],[-114.30257,39.12177],[-114.3028,39.12179],[-114.303,39.1218],[-114.30368,39.12187],[-114.30429,39.12194],[-114.30459,39.12198],[-114.30487,39.12202],[-114.30592,39.12219],[-114.3069,39.12235],[-114.30783,39.12251],[-114.30865,39.12266],[-114.30915,39.12274],[-114.30948,39.12281],[-114.30961,39.12283],[-114.30986,39.12289],[-114.31004,39.12294],[-114.31034,39.12303],[-114.31067,39.12314],[-114.31081,39.12319],[-114.31089,39.12322],[-114.31102,39.12327],[-114.31116,39.12333],[-114.31145,39.12347],[-114.31166,39.12358],[-114.3118,39.12366],[-114.31198,39.12377],[-114.31258,39.12415],[-114.31293,39.12439],[-114.31358,39.12483],[-114.31375,39.12494],[-114.31381,39.12498],[-114.31432,39.12532],[-114.31462,39.12553],[-114.31524,39.12594],[-114.31532,39.126],[-114.3154,39.12605],[-114.31567,39.12623],[-114.31584,39.12636],[-114.31596,39.12644],[-114.31626,39.12666],[-114.31682,39.12713],[-114.31718,39.12743],[-114.31822,39.12833],[-114.31969,39.12959],[-114.32015,39.12999],[-114.32053,39.13036],[-114.32082,39.13065],[-114.32104,39.1309],[-114.32117,39.13105],[-114.32131,39.13119],[-114.32163,39.13155],[-114.32198,39.13193],[-114.32211,39.13208],[-114.32221,39.13218],[-114.32241,39.1324],[-114.32258,39.13257],[-114.32275,39.13274],[-114.32292,39.13288],[-114.3231,39.13302],[-114.32324,39.13313],[-114.32352,39.13332],[-114.32387,39.13355],[-114.32402,39.13362],[-114.32495,39.1341],[-114.32565,39.13445],[-114.32609,39.13468],[-114.32634,39.13482],[-114.32652,39.13493],[-114.32661,39.13498],[-114.32678,39.1351],[-114.32701,39.13527],[-114.32722,39.13543],[-114.32736,39.13555],[-114.32758,39.13576],[-114.32771,39.13589],[-114.32845,39.13669],[-114.3287,39.13691],[-114.32884,39.13703],[-114.32905,39.1372],[-114.3291,39.13724],[-114.32913,39.13726],[-114.32922,39.13733],[-114.32941,39.13746],[-114.32947,39.1375],[-114.32971,39.13766],[-114.33018,39.13796],[-114.33078,39.13834],[-114.3314,39.13873],[-114.33182,39.139],[-114.33197,39.1391],[-114.33212,39.1392],[-114.33215,39.13922],[-114.33273,39.13962],[-114.33322,39.13999],[-114.33345,39.14016],[-114.3336,39.14027],[-114.33365,39.14031],[-114.33399,39.14059],[-114.33404,39.14062],[-114.33435,39.14089],[-114.33446,39.14099],[-114.33457,39.14108],[-114.33507,39.14154],[-114.33521,39.14167],[-114.33531,39.14177],[-114.33576,39.14223],[-114.33585,39.14232],[-114.33595,39.14243],[-114.33609,39.14258],[-114.33645,39.143],[-114.33647,39.14302],[-114.33658,39.14315],[-114.3367,39.1433],[-114.33696,39.1436],[-114.33699,39.14364],[-114.3373,39.14404],[-114.33732,39.14406],[-114.33752,39.14433],[-114.33784,39.14475],[-114.33801,39.14499],[-114.33808,39.1451],[-114.33812,39.14515],[-114.33823,39.1453],[-114.33836,39.14547],[-114.33852,39.14565],[-114.33864,39.14577],[-114.3389,39.14604],[-114.3391,39.14623],[-114.33932,39.14641],[-114.3395,39.14655],[-114.33965,39.14667],[-114.33989,39.14685],[-114.34009,39.14698],[-114.34027,39.14709],[-114.34042,39.14718],[-114.34065,39.14731],[-114.34083,39.1474],[-114.34115,39.14756],[-114.34162,39.14779],[-114.34202,39.14797],[-114.34224,39.14808],[-114.34253,39.14822],[-114.3428,39.14835],[-114.34302,39.14847],[-114.34323,39.14859],[-114.34335,39.14866],[-114.34336,39.14867],[-114.34353,39.14878],[-114.34375,39.14894],[-114.34388,39.14903],[-114.34391,39.14906],[-114.34404,39.14916],[-114.34415,39.14925],[-114.34434,39.14943],[-114.34448,39.14956],[-114.34457,39.14966],[-114.3449,39.15007],[-114.34505,39.15026],[-114.34521,39.1505],[-114.34595,39.15164],[-114.34631,39.15218],[-114.34707,39.15333],[-114.34712,39.1534],[-114.34734,39.15372],[-114.34763,39.15415],[-114.34777,39.15435],[-114.34788,39.15451],[-114.3482,39.15499],[-114.34828,39.15512],[-114.34887,39.15599],[-114.34898,39.15614],[-114.34905,39.15623],[-114.34923,39.15644],[-114.34936,39.15657],[-114.34964,39.15684],[-114.34975,39.15693],[-114.34981,39.15699],[-114.34999,39.15713],[-114.35011,39.15722],[-114.3503,39.15735],[-114.35044,39.15745],[-114.35077,39.15764],[-114.35083,39.15768],[-114.35106,39.15781],[-114.35121,39.15789],[-114.35167,39.15814],[-114.35227,39.15847],[-114.35284,39.15878],[-114.35328,39.15903],[-114.35351,39.15917],[-114.35365,39.15926],[-114.35371,39.15929],[-114.35383,39.15937],[-114.35386,39.15938],[-114.35404,39.15951],[-114.35414,39.15957],[-114.3543,39.15969],[-114.35471,39.16],[-114.35499,39.16022],[-114.35515,39.16035],[-114.35558,39.16075],[-114.35622,39.16137],[-114.3564,39.16155],[-114.35668,39.16182],[-114.35689,39.16201],[-114.357,39.1621],[-114.35715,39.16221],[-114.35722,39.16226],[-114.35735,39.16236],[-114.35755,39.16249],[-114.35788,39.16269],[-114.35838,39.16297],[-114.35979,39.16371],[-114.35992,39.16378],[-114.36056,39.16411],[-114.36095,39.16431],[-114.36124,39.16447],[-114.36158,39.16464],[-114.36251,39.16514],[-114.36277,39.16527],[-114.3632,39.16552],[-114.36344,39.16566],[-114.36371,39.16582],[-114.36392,39.16596],[-114.36424,39.16618],[-114.36433,39.16625],[-114.36451,39.16637],[-114.36452,39.16637],[-114.36496,39.16671],[-114.3652,39.1669],[-114.36544,39.16709],[-114.36584,39.16743],[-114.36621,39.16778],[-114.36628,39.16784],[-114.36667,39.16823],[-114.36838,39.16989],[-114.36843,39.16994],[-114.36881,39.17031],[-114.36915,39.17064],[-114.36929,39.17078],[-114.3694,39.17088],[-114.36955,39.17102],[-114.36991,39.17132],[-114.37031,39.17162],[-114.3706,39.17182],[-114.37069,39.17188],[-114.37096,39.17205],[-114.37133,39.17226],[-114.37162,39.17242],[-114.37186,39.17254],[-114.37234,39.17276],[-114.37239,39.17278],[-114.3726,39.17286],[-114.37273,39.17292],[-114.37323,39.1731],[-114.37362,39.17323],[-114.37431,39.17342],[-114.37448,39.17346],[-114.37459,39.17349],[-114.37493,39.17356],[-114.37513,39.17361],[-114.37582,39.17377],[-114.37604,39.17382],[-114.37778,39.17423],[-114.37859,39.17442],[-114.37915,39.17454],[-114.3796,39.17465],[-114.37982,39.1747],[-114.38026,39.1748],[-114.38098,39.17497],[-114.38204,39.17521],[-114.38245,39.17531],[-114.38316,39.17548],[-114.3852,39.17595],[-114.38543,39.176],[-114.38559,39.17603],[-114.38577,39.17606],[-114.38583,39.17607],[-114.38607,39.17611],[-114.38638,39.17616],[-114.38669,39.1762],[-114.38697,39.17623],[-114.38716,39.17625],[-114.38735,39.17626],[-114.38764,39.17628],[-114.3881,39.1763],[-114.38857,39.1763],[-114.38875,39.1763],[-114.38898,39.1763],[-114.38921,39.1763],[-114.38947,39.17628],[-114.38977,39.17626],[-114.39001,39.17624],[-114.39056,39.17618],[-114.39095,39.17612],[-114.39109,39.1761],[-114.39132,39.17606],[-114.39141,39.17604],[-114.39188,39.17594],[-114.39216,39.17588],[-114.3924,39.17582],[-114.39283,39.17571],[-114.39296,39.17567],[-114.39314,39.17562],[-114.39332,39.17556],[-114.39347,39.17551],[-114.39354,39.17549],[-114.39391,39.17535],[-114.39411,39.17527],[-114.39416,39.17525],[-114.39473,39.17501],[-114.39507,39.17485],[-114.39531,39.17473],[-114.39536,39.1747],[-114.39555,39.1746],[-114.39574,39.1745],[-114.39593,39.17439],[-114.39611,39.17428],[-114.39612,39.17428],[-114.3963,39.17417],[-114.39642,39.1741],[-114.39658,39.17399],[-114.3969,39.17376],[-114.39707,39.17364],[-114.39719,39.17355],[-114.39764,39.17319],[-114.39765,39.17318],[-114.39775,39.1731],[-114.3978,39.17305],[-114.39819,39.17268],[-114.3985,39.17236],[-114.39852,39.17234],[-114.39875,39.17209],[-114.39905,39.17175],[-114.39915,39.17163],[-114.39938,39.17136],[-114.39954,39.17117],[-114.39974,39.17093],[-114.40009,39.17051],[-114.40065,39.16984],[-114.40115,39.16925],[-114.40145,39.16889],[-114.40215,39.16806],[-114.40233,39.16783],[-114.40238,39.16777],[-114.40297,39.16708],[-114.40298,39.16706],[-114.40331,39.16666],[-114.40347,39.16647],[-114.40359,39.16632],[-114.40385,39.16602],[-114.40391,39.16594],[-114.40423,39.16557],[-114.40435,39.16542],[-114.40499,39.16466],[-114.40587,39.16362],[-114.40613,39.16331],[-114.40626,39.16316],[-114.40638,39.16301],[-114.40652,39.16284],[-114.40707,39.16219],[-114.40739,39.1618],[-114.40797,39.16111],[-114.4084,39.16059],[-114.40853,39.16044],[-114.40866,39.16029],[-114.40904,39.15984],[-114.40916,39.15969],[-114.40929,39.15954],[-114.4093,39.15952],[-114.40967,39.15909],[-114.41025,39.1584],[-114.41059,39.15797],[-114.41092,39.15752],[-114.41124,39.15703],[-114.41141,39.15675],[-114.41155,39.15651],[-114.41186,39.15592],[-114.412,39.15562],[-114.41224,39.15504],[-114.41251,39.15431],[-114.41291,39.1531],[-114.41321,39.15219],[-114.41348,39.15134],[-114.41354,39.15117],[-114.41359,39.15099],[-114.41363,39.15089],[-114.41381,39.15033],[-114.41416,39.14925],[-114.41418,39.1492],[-114.41422,39.14908],[-114.41445,39.14838],[-114.4145,39.1482],[-114.41457,39.14801],[-114.4148,39.1473],[-114.41513,39.14629],[-114.41561,39.14481],[-114.41576,39.14437],[-114.41584,39.14412],[-114.41587,39.14402],[-114.41604,39.1435],[-114.4162,39.14302],[-114.41677,39.14127],[-114.41684,39.14106],[-114.41695,39.14071],[-114.41729,39.13966],[-114.41754,39.13891],[-114.4178,39.1381],[-114.41803,39.13739],[-114.41814,39.13708],[-114.41832,39.13652],[-114.41834,39.13644],[-114.41837,39.13635],[-114.41894,39.1346],[-114.4192,39.13381],[-114.4195,39.13291],[-114.41975,39.13216],[-114.42015,39.13092],[-114.42047,39.12997],[-114.42051,39.12983],[-114.42058,39.12966],[-114.42064,39.12948],[-114.42084,39.12891],[-114.42102,39.12849],[-114.42107,39.12835],[-114.42125,39.12794],[-114.4214,39.12762],[-114.42148,39.12743],[-114.42153,39.12733],[-114.42189,39.12659],[-114.42205,39.12626],[-114.42236,39.12562],[-114.42238,39.12558],[-114.42246,39.12541],[-114.42265,39.12499],[-114.42308,39.12411],[-114.42319,39.12389],[-114.42325,39.12377],[-114.42327,39.12372],[-114.42377,39.12268],[-114.42391,39.1224],[-114.42416,39.12187],[-114.42441,39.12136],[-114.42463,39.12092],[-114.42545,39.11922],[-114.42562,39.11888],[-114.4257,39.11871],[-114.4261,39.11787],[-114.42635,39.11736],[-114.42716,39.11568],[-114.42743,39.11512],[-114.42789,39.11416],[-114.42812,39.1137],[-114.42814,39.11366],[-114.42843,39.11307],[-114.42881,39.11227],[-114.42895,39.11198],[-114.4293,39.11125],[-114.42952,39.1108],[-114.4296,39.11063],[-114.42977,39.11029],[-114.4299,39.11],[-114.43001,39.10979],[-114.43009,39.10962],[-114.43047,39.10883],[-114.4309,39.10793],[-114.43164,39.10642],[-114.43172,39.10625],[-114.43188,39.10591],[-114.43214,39.10538],[-114.43221,39.10524],[-114.43237,39.1049],[-114.4327,39.10422],[-114.43298,39.10364],[-114.43326,39.10305],[-114.4333,39.10297],[-114.43355,39.10246],[-114.43378,39.10198],[-114.43392,39.10168],[-114.43421,39.1011],[-114.43458,39.10033],[-114.43469,39.10011],[-114.43493,39.09961],[-114.43562,39.0982],[-114.43588,39.09765],[-114.43677,39.09581],[-114.43712,39.09509],[-114.43762,39.09406],[-114.43782,39.09364],[-114.43803,39.09321],[-114.43831,39.09262],[-114.43838,39.09248],[-114.43889,39.09142],[-114.43933,39.09052],[-114.43971,39.08972],[-114.43982,39.08951],[-114.44009,39.08893],[-114.44053,39.08802],[-114.44077,39.08753],[-114.44088,39.08729],[-114.44175,39.08552],[-114.4419,39.0852],[-114.44207,39.08484],[-114.44211,39.08476],[-114.4423,39.08436],[-114.44248,39.084],[-114.44256,39.08383],[-114.44275,39.08342],[-114.44337,39.08216],[-114.44361,39.08166],[-114.4437,39.08147],[-114.44378,39.0813],[-114.44401,39.08083],[-114.44443,39.07996],[-114.4455,39.07775],[-114.44575,39.07724],[-114.44601,39.0767],[-114.44635,39.07597],[-114.44668,39.07532],[-114.44692,39.07486],[-114.44693,39.07485],[-114.44704,39.07466],[-114.44719,39.0744],[-114.44735,39.07415],[-114.44748,39.07396],[-114.44761,39.07378],[-114.44774,39.0736],[-114.44788,39.0734],[-114.44806,39.07318],[-114.44819,39.07302],[-114.44855,39.07259],[-114.44883,39.07227],[-114.44901,39.0721],[-114.44918,39.07192],[-114.44938,39.07173],[-114.44961,39.07151],[-114.44987,39.07127],[-114.45024,39.07096],[-114.45051,39.07074],[-114.45082,39.0705],[-114.45108,39.07032],[-114.45115,39.07026],[-114.45144,39.07007],[-114.45178,39.06984],[-114.45182,39.06982],[-114.45239,39.06946],[-114.45312,39.06905],[-114.45345,39.06888],[-114.45366,39.06877],[-114.45404,39.06859],[-114.45417,39.06853],[-114.45426,39.06849],[-114.45444,39.06841],[-114.45445,39.0684],[-114.45464,39.06833],[-114.45497,39.06819],[-114.45592,39.06785],[-114.45696,39.0675],[-114.45706,39.06746],[-114.45759,39.06728],[-114.45784,39.06719],[-114.45864,39.06692],[-114.45887,39.06685],[-114.4615,39.06595],[-114.46241,39.06565],[-114.46368,39.06521],[-114.46472,39.06486],[-114.46563,39.06455],[-114.46651,39.06425],[-114.46801,39.06374],[-114.4682,39.06367],[-114.46841,39.0636],[-114.46905,39.06338],[-114.46958,39.0632],[-114.47009,39.06304],[-114.47258,39.06218],[-114.47436,39.06159],[-114.47472,39.06146],[-114.475,39.06137],[-114.47728,39.06059],[-114.47802,39.06034],[-114.47902,39.06],[-114.48072,39.05942],[-114.48186,39.05904],[-114.482,39.05899],[-114.48221,39.05892],[-114.48299,39.05865],[-114.48373,39.0584],[-114.48402,39.0583],[-114.48535,39.05785],[-114.48587,39.05768],[-114.48622,39.05756],[-114.48679,39.05736],[-114.48724,39.05721],[-114.48891,39.05664],[-114.48982,39.05633],[-114.49011,39.05624],[-114.49072,39.05603],[-114.49151,39.05577],[-114.49312,39.05522],[-114.49351,39.05508],[-114.49372,39.05501],[-114.49393,39.05494],[-114.49395,39.05494],[-114.49479,39.05465],[-114.49549,39.05441],[-114.49611,39.0542],[-114.49669,39.054],[-114.4969,39.05393],[-114.4986,39.05335],[-114.50327,39.05177],[-114.50765,39.05028],[-114.50957,39.04962],[-114.50962,39.04961],[-114.5104,39.04935],[-114.51106,39.04912],[-114.51127,39.04905],[-114.5121,39.04877],[-114.51318,39.0484],[-114.51324,39.04838],[-114.51339,39.04833],[-114.51453,39.04794],[-114.51678,39.04718],[-114.51742,39.04696],[-114.51869,39.04653],[-114.51991,39.04611],[-114.5202,39.04601],[-114.52055,39.04589],[-114.52093,39.04576],[-114.52177,39.04547],[-114.52203,39.04539],[-114.52304,39.04504],[-114.5233,39.04495],[-114.52458,39.04452],[-114.52479,39.04445],[-114.52532,39.04427],[-114.5267,39.0438],[-114.52691,39.04373],[-114.52749,39.04353],[-114.52803,39.04335],[-114.52903,39.04301],[-114.52925,39.04293],[-114.52953,39.04284],[-114.52967,39.04279],[-114.52988,39.04272],[-114.5303,39.04257],[-114.53034,39.04256],[-114.53052,39.0425],[-114.53119,39.04227],[-114.5315,39.04217],[-114.53222,39.04192],[-114.53243,39.04185],[-114.53264,39.04178],[-114.53298,39.04167],[-114.53363,39.04145],[-114.53406,39.0413],[-114.53454,39.04114],[-114.53476,39.04106],[-114.53505,39.04096],[-114.53561,39.04077],[-114.53571,39.04074],[-114.53582,39.0407],[-114.5366,39.04044],[-114.53773,39.04005],[-114.53782,39.04003],[-114.53795,39.03998],[-114.53865,39.03974],[-114.53967,39.03939],[-114.54028,39.03919],[-114.54031,39.03918],[-114.54049,39.03911],[-114.5407,39.03904],[-114.54121,39.03887],[-114.54182,39.03866],[-114.54282,39.03832],[-114.54304,39.03825],[-114.54335,39.03814],[-114.54414,39.03787],[-114.54724,39.03682],[-114.54791,39.03659],[-114.54855,39.03637],[-114.54873,39.03631],[-114.54895,39.03623],[-114.54916,39.03616],[-114.5494,39.03607],[-114.54978,39.03594],[-114.54997,39.03588],[-114.55061,39.03566],[-114.55149,39.03536],[-114.55159,39.03533],[-114.55171,39.03529],[-114.55192,39.03522],[-114.55255,39.035],[-114.55317,39.03479],[-114.55381,39.03457],[-114.55404,39.0345],[-114.55425,39.03443],[-114.55453,39.03433],[-114.55533,39.03406],[-114.55574,39.03392],[-114.55698,39.0335],[-114.55702,39.03348],[-114.55723,39.03341],[-114.55741,39.03335],[-114.55766,39.03327],[-114.55787,39.0332],[-114.55792,39.03318],[-114.55841,39.03301],[-114.55914,39.03276],[-114.55932,39.0327],[-114.55996,39.03249],[-114.56058,39.03227],[-114.56124,39.03205],[-114.56201,39.03179],[-114.56277,39.03153],[-114.56278,39.03153],[-114.56351,39.03128],[-114.56407,39.03109],[-114.56469,39.03088],[-114.56518,39.03071],[-114.56533,39.03066],[-114.56554,39.03059],[-114.56571,39.03053],[-114.56575,39.03051],[-114.56618,39.03036],[-114.56659,39.03022],[-114.56703,39.03007],[-114.56744,39.02993],[-114.56751,39.02991],[-114.56793,39.02976],[-114.56846,39.02958],[-114.56893,39.02942],[-114.56914,39.02935],[-114.56915,39.02935],[-114.56972,39.02915],[-114.57049,39.02889],[-114.57189,39.02841],[-114.57317,39.02797],[-114.57369,39.0278],[-114.57417,39.02763],[-114.57503,39.02734],[-114.5757,39.02712],[-114.57607,39.027],[-114.577,39.02668],[-114.57746,39.02653],[-114.57823,39.02627],[-114.57929,39.0259],[-114.58023,39.02558],[-114.58036,39.02553],[-114.58054,39.02547],[-114.58078,39.02539],[-114.58105,39.0253],[-114.5813,39.02523],[-114.5815,39.02518],[-114.58167,39.02514],[-114.58193,39.02508],[-114.58216,39.02503],[-114.58244,39.02498],[-114.58267,39.02496],[-114.58286,39.02494],[-114.58306,39.02492],[-114.58331,39.02491],[-114.58347,39.02491],[-114.58372,39.0249],[-114.5839,39.0249],[-114.58416,39.02491],[-114.58435,39.02491],[-114.5845,39.02492],[-114.5846,39.02493],[-114.58478,39.02494],[-114.58497,39.02496],[-114.5851,39.02497],[-114.58519,39.02498],[-114.58544,39.02501],[-114.5856,39.02503],[-114.58573,39.02505],[-114.58589,39.02508],[-114.58605,39.02511],[-114.58632,39.02517],[-114.58668,39.02525],[-114.58704,39.02535],[-114.58732,39.02542],[-114.58768,39.02552],[-114.5879,39.02558],[-114.58807,39.02562],[-114.58808,39.02562],[-114.5883,39.02568],[-114.58836,39.02569],[-114.58852,39.02573],[-114.58855,39.02573],[-114.58876,39.02578],[-114.58892,39.02581],[-114.58922,39.02586],[-114.58936,39.02588],[-114.58952,39.02591],[-114.58965,39.02593],[-114.58976,39.02594],[-114.5899,39.02596],[-114.59002,39.02597],[-114.59013,39.02599],[-114.59031,39.026],[-114.59045,39.02601],[-114.59059,39.02602],[-114.59075,39.02603],[-114.5909,39.02604],[-114.59103,39.02605],[-114.59116,39.02606],[-114.59132,39.02607],[-114.59144,39.02608],[-114.59155,39.02609],[-114.59174,39.0261],[-114.59192,39.02611],[-114.59208,39.02613],[-114.5923,39.02615],[-114.59257,39.02618],[-114.5928,39.02622],[-114.59309,39.02626],[-114.59336,39.02631],[-114.59354,39.02635],[-114.59367,39.02637],[-114.59395,39.02643],[-114.59399,39.02644],[-114.59425,39.02649],[-114.59444,39.02652],[-114.59474,39.02657],[-114.59496,39.02661],[-114.59509,39.02663],[-114.59518,39.02664],[-114.59527,39.02665],[-114.59544,39.02667],[-114.59566,39.02668],[-114.5958,39.02669],[-114.59605,39.0267],[-114.59622,39.0267],[-114.59635,39.02671],[-114.59654,39.02672],[-114.5967,39.02673],[-114.59691,39.02675],[-114.59711,39.02679],[-114.59728,39.02682],[-114.59748,39.02688],[-114.59759,39.02691],[-114.59778,39.02698],[-114.59789,39.02703],[-114.59797,39.02706],[-114.59805,39.0271],[-114.59816,39.02715],[-114.59825,39.0272],[-114.59835,39.02726],[-114.59845,39.02732],[-114.5986,39.02744],[-114.59871,39.02752],[-114.59881,39.02762],[-114.59891,39.02772],[-114.59901,39.02782],[-114.59911,39.02794],[-114.59919,39.02806],[-114.59923,39.02812],[-114.59928,39.02819],[-114.59934,39.02831],[-114.59938,39.02838],[-114.59944,39.02853],[-114.59947,39.02859],[-114.59951,39.02872],[-114.59953,39.02882],[-114.59955,39.02894],[-114.59956,39.02904],[-114.59957,39.02912],[-114.59957,39.02923],[-114.59956,39.02934],[-114.59955,39.02947],[-114.59953,39.02961],[-114.59952,39.02969],[-114.59951,39.02976],[-114.59948,39.0299],[-114.59945,39.03005],[-114.59944,39.03008],[-114.59939,39.0303],[-114.59938,39.03041],[-114.59935,39.03063],[-114.59935,39.03078],[-114.59936,39.03093],[-114.59937,39.03101],[-114.59939,39.03115],[-114.5994,39.03117],[-114.59941,39.03126],[-114.59946,39.03141],[-114.59948,39.03148],[-114.59952,39.03157],[-114.59958,39.0317],[-114.59962,39.0318],[-114.59966,39.03187],[-114.59974,39.03201],[-114.59982,39.03211],[-114.59996,39.0323],[-114.60007,39.03242],[-114.60014,39.03249],[-114.6002,39.03255],[-114.60033,39.03266],[-114.60044,39.03275],[-114.60058,39.03285],[-114.60064,39.0329],[-114.60077,39.03298],[-114.60089,39.03305],[-114.60103,39.03313],[-114.60112,39.03317],[-114.6012,39.03321],[-114.60129,39.03325],[-114.60134,39.03327],[-114.60136,39.03328],[-114.60146,39.03332],[-114.60154,39.03336],[-114.60162,39.03339],[-114.60174,39.03343],[-114.60187,39.03348],[-114.60213,39.03357],[-114.60236,39.03366],[-114.60259,39.03373],[-114.60289,39.03384],[-114.6032,39.03395],[-114.60362,39.03409],[-114.60393,39.0342],[-114.60414,39.03427],[-114.60452,39.03441],[-114.6047,39.03448],[-114.60485,39.03453],[-114.60505,39.03462],[-114.60517,39.03467],[-114.60528,39.03472],[-114.60549,39.03483],[-114.60567,39.03494],[-114.60578,39.03501],[-114.60589,39.03508],[-114.60613,39.03524],[-114.60627,39.03535],[-114.60641,39.03547],[-114.60652,39.03556],[-114.60663,39.03567],[-114.60678,39.03582],[-114.60691,39.03596],[-114.60703,39.03608],[-114.60722,39.0363],[-114.60736,39.03646],[-114.60747,39.03659],[-114.60749,39.03661],[-114.60762,39.03677],[-114.60776,39.03693],[-114.60784,39.03703],[-114.60793,39.03715],[-114.60805,39.0373],[-114.60813,39.03741],[-114.60818,39.03748],[-114.60823,39.03755],[-114.60828,39.03763],[-114.60841,39.03783],[-114.60852,39.03798],[-114.60866,39.03817],[-114.60888,39.03845],[-114.60898,39.03855],[-114.60907,39.03866],[-114.60925,39.03884],[-114.60951,39.03911],[-114.60965,39.03925],[-114.60979,39.03939],[-114.60992,39.03953],[-114.60998,39.03959],[-114.61003,39.03964],[-114.61015,39.03976],[-114.61031,39.03992],[-114.61045,39.04005],[-114.6106,39.04019],[-114.61077,39.04036],[-114.61092,39.0405],[-114.61107,39.04064],[-114.61121,39.04079],[-114.61128,39.04086],[-114.61135,39.04093],[-114.61149,39.04106],[-114.61162,39.04119],[-114.61175,39.04132],[-114.61188,39.04146],[-114.61199,39.04159],[-114.61209,39.04172],[-114.61217,39.04183],[-114.61223,39.04193],[-114.61227,39.04202],[-114.61231,39.0421],[-114.61234,39.04216],[-114.6124,39.04229],[-114.6124,39.0423],[-114.61243,39.04236],[-114.61246,39.04243],[-114.6125,39.04254],[-114.61254,39.04268],[-114.61256,39.04277],[-114.61257,39.04282],[-114.61259,39.04289],[-114.6126,39.043],[-114.61262,39.0431],[-114.61262,39.04317],[-114.61263,39.04329],[-114.61262,39.04339],[-114.61262,39.04351],[-114.6126,39.04364],[-114.61258,39.04377],[-114.61256,39.04389],[-114.61254,39.044],[-114.61252,39.04414],[-114.61251,39.04424],[-114.61249,39.04438],[-114.61247,39.0445],[-114.61245,39.04461],[-114.61243,39.04474],[-114.61242,39.04486],[-114.6124,39.04501],[-114.61238,39.04514],[-114.61237,39.04526],[-114.61237,39.04532],[-114.61237,39.04539],[-114.61238,39.0455],[-114.61239,39.04567],[-114.6124,39.04578],[-114.61242,39.04587],[-114.61246,39.046],[-114.61246,39.04601],[-114.61249,39.04611],[-114.61252,39.04618],[-114.61253,39.04622],[-114.61255,39.04627],[-114.61257,39.04631],[-114.61259,39.04636],[-114.61264,39.04643],[-114.61267,39.04649],[-114.6127,39.04653],[-114.61274,39.04659],[-114.61276,39.04661],[-114.61278,39.04664],[-114.61282,39.04668],[-114.61286,39.04673],[-114.6129,39.04676],[-114.61293,39.0468],[-114.61298,39.04684],[-114.61303,39.04688],[-114.61305,39.04691],[-114.61312,39.04696],[-114.61321,39.04702],[-114.61326,39.04706],[-114.61332,39.04709],[-114.61336,39.04712],[-114.61341,39.04714],[-114.61347,39.04717],[-114.61355,39.04721],[-114.61358,39.04723],[-114.61362,39.04725],[-114.61367,39.04727],[-114.61372,39.04729],[-114.61381,39.04732],[-114.61389,39.04734],[-114.61395,39.04736],[-114.61402,39.04738],[-114.61407,39.04739],[-114.61417,39.04741],[-114.61427,39.04743],[-114.61437,39.04745],[-114.61446,39.04746],[-114.61457,39.04747],[-114.61464,39.04748],[-114.61472,39.04748],[-114.61478,39.04749],[-114.61485,39.04749],[-114.61492,39.04748],[-114.61499,39.04748],[-114.61508,39.04747],[-114.61516,39.04746],[-114.61531,39.04744],[-114.61555,39.0474],[-114.61564,39.04738],[-114.61578,39.04736],[-114.61591,39.04733],[-114.61602,39.04731],[-114.61611,39.04729],[-114.61624,39.04726],[-114.61632,39.04724],[-114.61644,39.04722],[-114.61653,39.04721],[-114.61661,39.0472],[-114.61672,39.04719],[-114.61679,39.04718],[-114.61686,39.04718],[-114.61694,39.04718],[-114.61709,39.04719],[-114.61722,39.04719],[-114.61738,39.04721],[-114.61757,39.04723],[-114.61758,39.04724],[-114.61785,39.04727],[-114.61804,39.04728],[-114.61823,39.04729],[-114.6184,39.04729],[-114.61862,39.04727],[-114.61872,39.04725],[-114.61884,39.04724],[-114.61892,39.04722],[-114.619,39.0472],[-114.61909,39.04719],[-114.61917,39.04717],[-114.61927,39.04714],[-114.6194,39.0471],[-114.61949,39.04707],[-114.61956,39.04704],[-114.61964,39.047],[-114.61976,39.04693],[-114.61988,39.04686],[-114.62,39.04678],[-114.62013,39.04669],[-114.62022,39.04661],[-114.62034,39.04651],[-114.62043,39.04643],[-114.62054,39.04634],[-114.62065,39.04625],[-114.62074,39.04619],[-114.62084,39.04612],[-114.62097,39.04604],[-114.62111,39.04597],[-114.62123,39.04592],[-114.62136,39.04587],[-114.62145,39.04583],[-114.62154,39.0458],[-114.62162,39.04578],[-114.62169,39.04576],[-114.62179,39.04573],[-114.62186,39.04572],[-114.62194,39.0457],[-114.62209,39.04568],[-114.62224,39.04566],[-114.62243,39.04566],[-114.62258,39.04565],[-114.62279,39.04565],[-114.62292,39.04565],[-114.62307,39.04565],[-114.62335,39.04565],[-114.6235,39.04564],[-114.62362,39.04564],[-114.62373,39.04563],[-114.62382,39.04562],[-114.62391,39.0456],[-114.62406,39.04558],[-114.62416,39.04555],[-114.62428,39.04552],[-114.62441,39.04548],[-114.62451,39.04545],[-114.62463,39.0454],[-114.62474,39.04535],[-114.62484,39.0453],[-114.62493,39.04524],[-114.62506,39.04515],[-114.6252,39.04505],[-114.62537,39.04491],[-114.62541,39.04487],[-114.62551,39.04479],[-114.6257,39.04464],[-114.62581,39.04454],[-114.62595,39.04441],[-114.6266,39.04383],[-114.62664,39.0438],[-114.62683,39.04362],[-114.62702,39.04347],[-114.62715,39.04338],[-114.62726,39.04328],[-114.6274,39.04318],[-114.62755,39.04308],[-114.62769,39.043],[-114.62787,39.0429],[-114.62801,39.04284],[-114.62802,39.04284],[-114.6281,39.04281],[-114.6282,39.04277],[-114.62837,39.04272],[-114.62845,39.0427],[-114.62854,39.04268],[-114.6286,39.04267],[-114.62873,39.04265],[-114.62882,39.04263],[-114.62893,39.04262],[-114.62904,39.0426],[-114.62917,39.0426],[-114.62926,39.04259],[-114.62936,39.04259],[-114.62956,39.04261],[-114.62967,39.04262],[-114.6298,39.04263],[-114.6299,39.04265],[-114.63004,39.04268],[-114.63018,39.04271],[-114.63033,39.04276],[-114.63055,39.04283],[-114.63082,39.04291],[-114.63101,39.04296],[-114.63129,39.04303],[-114.63151,39.04308],[-114.63165,39.0431],[-114.63195,39.04315],[-114.6322,39.04318],[-114.63238,39.04319],[-114.63261,39.04321],[-114.63278,39.04321],[-114.63294,39.04321],[-114.63308,39.04321],[-114.63323,39.0432],[-114.63342,39.04318],[-114.63371,39.04313],[-114.63386,39.04311],[-114.63399,39.04309],[-114.63415,39.04306],[-114.63428,39.04303],[-114.63439,39.043],[-114.6345,39.04296],[-114.63462,39.04293],[-114.63476,39.04288],[-114.6349,39.04283],[-114.635,39.0428],[-114.63511,39.04276],[-114.63529,39.04268],[-114.6354,39.04263],[-114.6355,39.04259],[-114.63557,39.04255],[-114.63563,39.04252],[-114.6358,39.04242],[-114.63596,39.04232],[-114.63612,39.04222],[-114.63632,39.04207],[-114.63635,39.04206],[-114.63655,39.04191],[-114.63667,39.04183],[-114.63673,39.04179],[-114.63684,39.04172],[-114.63696,39.04165],[-114.63705,39.0416],[-114.63717,39.04155],[-114.63725,39.04151],[-114.63732,39.04149],[-114.63741,39.04145],[-114.63748,39.04143],[-114.63755,39.04142],[-114.63764,39.04139],[-114.63766,39.04139],[-114.63776,39.04136],[-114.63785,39.04135],[-114.63796,39.04133],[-114.6381,39.04131],[-114.63829,39.04128],[-114.63851,39.04126],[-114.63877,39.04122],[-114.63888,39.0412],[-114.63901,39.04118],[-114.63915,39.04115],[-114.63925,39.04112],[-114.63936,39.04109],[-114.63944,39.04106],[-114.63952,39.04103],[-114.63963,39.04099],[-114.63971,39.04096],[-114.63978,39.04092],[-114.63988,39.04087],[-114.63996,39.04082],[-114.64001,39.04079],[-114.64009,39.04073],[-114.64021,39.04065],[-114.6403,39.04059],[-114.64047,39.04045],[-114.64066,39.04031],[-114.64102,39.04003],[-114.64111,39.03997],[-114.64121,39.0399],[-114.64133,39.03983],[-114.64152,39.03972],[-114.64173,39.03962],[-114.64188,39.03955],[-114.64208,39.03947],[-114.64227,39.0394],[-114.64242,39.03935],[-114.64258,39.0393],[-114.64272,39.03926],[-114.64297,39.0392],[-114.64319,39.03915],[-114.6433,39.03913],[-114.64341,39.03912],[-114.64359,39.03909],[-114.64377,39.03908],[-114.64393,39.03907],[-114.64415,39.03906],[-114.64429,39.03905],[-114.64502,39.03905],[-114.64529,39.03905],[-114.64547,39.03904],[-114.64564,39.03904],[-114.6457,39.03903],[-114.64585,39.03902],[-114.64604,39.039],[-114.64625,39.03898],[-114.64639,39.03896],[-114.64656,39.03894],[-114.64672,39.03891],[-114.647,39.03886],[-114.64723,39.0388],[-114.64728,39.03879],[-114.64751,39.03874],[-114.64753,39.03873],[-114.64792,39.03863],[-114.64827,39.03854],[-114.64914,39.0383],[-114.64936,39.03824],[-114.6497,39.03815],[-114.65005,39.03805],[-114.65046,39.03794],[-114.65056,39.03791],[-114.65075,39.03785],[-114.65098,39.03778],[-114.65121,39.03769],[-114.65143,39.03761],[-114.65161,39.03753],[-114.65183,39.03743],[-114.652,39.03734],[-114.65211,39.03729],[-114.65223,39.03722],[-114.65233,39.03716],[-114.65234,39.03716],[-114.65251,39.03706],[-114.65268,39.03695],[-114.65284,39.03684],[-114.65303,39.0367],[-114.65319,39.03658],[-114.65329,39.0365],[-114.65338,39.03642],[-114.65346,39.03635],[-114.6536,39.03623],[-114.654,39.03583],[-114.65442,39.03542],[-114.65518,39.03467],[-114.65549,39.03435],[-114.65567,39.03418],[-114.65575,39.0341],[-114.65585,39.034],[-114.656,39.03387],[-114.65609,39.0338],[-114.65618,39.03373],[-114.65629,39.03365],[-114.65642,39.03357],[-114.65656,39.03349],[-114.65672,39.03342],[-114.65683,39.03338],[-114.65693,39.03334],[-114.65704,39.03331],[-114.65719,39.03327],[-114.65735,39.03323],[-114.65745,39.03322],[-114.65756,39.03321],[-114.65773,39.03319],[-114.65791,39.03318],[-114.658,39.03319],[-114.65809,39.03319],[-114.65823,39.03319],[-114.65825,39.03319],[-114.65842,39.03321],[-114.65863,39.03322],[-114.65883,39.03323],[-114.65904,39.03324],[-114.65922,39.03324],[-114.6594,39.03322],[-114.65955,39.03321],[-114.6597,39.03318],[-114.65982,39.03316],[-114.65996,39.03312],[-114.66009,39.03308],[-114.6602,39.03304],[-114.66033,39.03298],[-114.66045,39.03292],[-114.6606,39.03283],[-114.66073,39.03276],[-114.66087,39.03267],[-114.66105,39.03255],[-114.66127,39.0324],[-114.66135,39.03234],[-114.66143,39.03228],[-114.66159,39.03217],[-114.66173,39.03208],[-114.66184,39.03201],[-114.66197,39.03193],[-114.66208,39.03187],[-114.66226,39.03177],[-114.66238,39.0317],[-114.6625,39.03164],[-114.66265,39.03157],[-114.66282,39.03149],[-114.66295,39.03143],[-114.66311,39.03136],[-114.6633,39.03129],[-114.66354,39.0312],[-114.66371,39.03115],[-114.66389,39.03109],[-114.66417,39.03102],[-114.66435,39.03097],[-114.66457,39.03092],[-114.66488,39.03085],[-114.66515,39.03078],[-114.6652,39.03077],[-114.66534,39.03073],[-114.66559,39.03065],[-114.66574,39.0306],[-114.66586,39.03055],[-114.666,39.03049],[-114.66614,39.03042],[-114.6663,39.03034],[-114.66641,39.03027],[-114.66653,39.03019],[-114.66663,39.03013],[-114.66675,39.03003],[-114.66688,39.02993],[-114.66698,39.02985],[-114.66706,39.02977],[-114.66707,39.02976],[-114.66713,39.02971],[-114.6672,39.02963],[-114.66729,39.02953],[-114.66734,39.02947],[-114.66737,39.02942],[-114.66746,39.02929],[-114.66756,39.02915],[-114.66761,39.02905],[-114.66764,39.02898],[-114.66769,39.02889],[-114.66775,39.02875],[-114.66789,39.02836],[-114.66804,39.02796],[-114.66809,39.02784],[-114.66814,39.0277],[-114.66819,39.02761],[-114.66822,39.02753],[-114.66828,39.02742],[-114.66835,39.0273],[-114.66851,39.02708],[-114.66864,39.02691],[-114.6687,39.02684],[-114.66876,39.02676],[-114.66891,39.02659],[-114.66902,39.02648],[-114.66912,39.02638],[-114.66923,39.02628],[-114.66933,39.0262],[-114.66944,39.02611],[-114.66947,39.02608],[-114.66959,39.02599],[-114.66988,39.0258],[-114.66996,39.02575],[-114.67021,39.0256],[-114.67051,39.02542],[-114.67059,39.02537],[-114.67069,39.02531],[-114.67091,39.02518],[-114.67106,39.02509],[-114.67123,39.02499],[-114.67157,39.02479],[-114.67185,39.02462],[-114.67215,39.02445],[-114.67239,39.0243],[-114.67259,39.0242],[-114.67273,39.02413],[-114.67275,39.02411],[-114.67292,39.02403],[-114.67311,39.02393],[-114.67312,39.02393],[-114.67361,39.02371],[-114.67407,39.02353],[-114.67462,39.02334],[-114.67508,39.02321],[-114.67542,39.02311],[-114.676,39.02295],[-114.67664,39.02277],[-114.67728,39.02259],[-114.67762,39.02249],[-114.67784,39.02243],[-114.67831,39.0223],[-114.67883,39.02215],[-114.67953,39.02195],[-114.68043,39.0217],[-114.68064,39.02164],[-114.68089,39.02157],[-114.68131,39.02144],[-114.68184,39.0213],[-114.68233,39.02115],[-114.68284,39.02101],[-114.68307,39.02095],[-114.68324,39.02091],[-114.68339,39.02088],[-114.68354,39.02086],[-114.68367,39.02084],[-114.68382,39.02083],[-114.68413,39.02081],[-114.68443,39.0208],[-114.68448,39.0208],[-114.68471,39.0208],[-114.685,39.02081],[-114.68525,39.02084],[-114.68555,39.02088],[-114.6858,39.02093],[-114.68605,39.02098],[-114.68639,39.02107],[-114.68664,39.02115],[-114.68676,39.02119],[-114.68687,39.02124],[-114.68713,39.02135],[-114.68725,39.0214],[-114.68742,39.02148],[-114.68768,39.02163],[-114.68791,39.02177],[-114.6881,39.0219],[-114.68837,39.02212],[-114.68863,39.02236],[-114.68884,39.02258],[-114.689,39.02277],[-114.68909,39.02289],[-114.68911,39.02293],[-114.68932,39.02322],[-114.68957,39.02365],[-114.68993,39.02427],[-114.69021,39.02475],[-114.69031,39.02493],[-114.69045,39.02518],[-114.69076,39.0257],[-114.69094,39.02601],[-114.69104,39.0262],[-114.69111,39.02631],[-114.69122,39.0265],[-114.69134,39.0267],[-114.69146,39.0269],[-114.69161,39.02715],[-114.69174,39.02737],[-114.69187,39.02759],[-114.69198,39.02778],[-114.69211,39.02799],[-114.69223,39.0282],[-114.69239,39.02845],[-114.69251,39.02863],[-114.69257,39.02873],[-114.69262,39.02881],[-114.6927,39.02892],[-114.69284,39.0291],[-114.69304,39.02934],[-114.69328,39.02962],[-114.69354,39.02988],[-114.69379,39.03012],[-114.69405,39.03036],[-114.69433,39.03059],[-114.69475,39.03091],[-114.69499,39.03108],[-114.69536,39.03131],[-114.69565,39.03148],[-114.69593,39.03164],[-114.69638,39.03186],[-114.69675,39.03202],[-114.69681,39.03205],[-114.69706,39.03216],[-114.69753,39.03233],[-114.69802,39.03249],[-114.69855,39.03264],[-114.69911,39.03278],[-114.69977,39.03295],[-114.70047,39.03312],[-114.70114,39.03328],[-114.70185,39.03345],[-114.70238,39.03358],[-114.70287,39.03371],[-114.70339,39.03383],[-114.70382,39.03395],[-114.70417,39.03406],[-114.70467,39.03425],[-114.70496,39.03437],[-114.70505,39.03441],[-114.7051,39.03444],[-114.70527,39.03452],[-114.70544,39.03461],[-114.7055,39.03464],[-114.70599,39.03491],[-114.70656,39.03524],[-114.70675,39.03535],[-114.70712,39.03557],[-114.70735,39.03571],[-114.7092,39.0368],[-114.70933,39.03687],[-114.71049,39.03756],[-114.71124,39.038],[-114.71136,39.03807],[-114.71155,39.03818],[-114.71184,39.03835],[-114.71273,39.03888],[-114.71321,39.03916],[-114.71332,39.03922],[-114.71394,39.03959],[-114.71431,39.03981],[-114.71449,39.03993],[-114.71579,39.0408],[-114.71585,39.04084],[-114.71619,39.04108],[-114.7166,39.04139],[-114.71693,39.04163],[-114.71733,39.04195],[-114.71779,39.04232],[-114.71827,39.04272],[-114.71865,39.04305],[-114.71902,39.04338],[-114.7194,39.04373],[-114.71983,39.04414],[-114.72043,39.04475],[-114.72085,39.0452],[-114.72113,39.04551],[-114.72126,39.04566],[-114.7214,39.04582],[-114.72175,39.04623],[-114.72206,39.0466],[-114.72215,39.04671],[-114.72229,39.04689],[-114.72264,39.04736],[-114.72289,39.04769],[-114.72339,39.0484],[-114.72409,39.0494],[-114.72423,39.04959],[-114.72476,39.05034],[-114.72522,39.05099],[-114.72563,39.05156],[-114.72611,39.05223],[-114.72636,39.05257],[-114.72658,39.05289],[-114.72669,39.05305],[-114.72881,39.05604],[-114.72931,39.05673],[-114.72949,39.05699],[-114.72965,39.05722],[-114.72985,39.05749],[-114.73039,39.05827],[-114.73083,39.05889],[-114.73094,39.05905],[-114.73141,39.05972],[-114.73206,39.06063],[-114.73237,39.06106],[-114.73307,39.06204],[-114.73373,39.06296],[-114.73418,39.06359],[-114.73458,39.06416],[-114.73512,39.0649],[-114.73543,39.06534],[-114.73579,39.06586],[-114.73621,39.06645],[-114.73632,39.06661],[-114.73633,39.06661],[-114.73694,39.06749],[-114.73763,39.06845],[-114.73811,39.06913],[-114.73844,39.0696],[-114.73865,39.06989],[-114.73878,39.07007],[-114.73919,39.07066],[-114.73979,39.07151],[-114.73989,39.07165],[-114.74021,39.0721],[-114.74023,39.07212],[-114.74062,39.07267],[-114.74095,39.07315],[-114.74136,39.07372],[-114.7417,39.07421],[-114.7421,39.07477],[-114.74235,39.07512],[-114.74246,39.07527],[-114.74275,39.07568],[-114.7434,39.07659],[-114.74394,39.07735],[-114.74493,39.07874],[-114.74504,39.0789],[-114.74526,39.07921],[-114.74537,39.07937],[-114.74739,39.0822],[-114.74794,39.08299],[-114.74864,39.08396],[-114.74889,39.08431],[-114.74924,39.0848],[-114.74962,39.08534],[-114.74991,39.08575],[-114.7513,39.08771],[-114.75175,39.08834],[-114.75192,39.08859],[-114.75416,39.09174],[-114.75427,39.0919],[-114.75429,39.09193],[-114.75436,39.09202],[-114.75438,39.09206],[-114.75449,39.09221],[-114.75484,39.09271],[-114.75494,39.09285],[-114.75584,39.0941],[-114.75651,39.09505],[-114.75684,39.09552],[-114.75695,39.09568],[-114.7574,39.09631],[-114.75763,39.09662],[-114.75774,39.09678],[-114.75785,39.09694],[-114.75802,39.09718],[-114.75817,39.09739],[-114.75822,39.09745],[-114.75844,39.09776],[-114.75866,39.09808],[-114.75885,39.09834],[-114.759,39.09855],[-114.75945,39.09918],[-114.76012,39.10013],[-114.76023,39.10028],[-114.76037,39.10048],[-114.76045,39.10059],[-114.76059,39.1008],[-114.76068,39.10091],[-114.76071,39.10095],[-114.76098,39.10134],[-114.76157,39.10218],[-114.76162,39.10226],[-114.7619,39.10264],[-114.76281,39.10393],[-114.76305,39.10426],[-114.76316,39.10442],[-114.76421,39.1059],[-114.7645,39.10631],[-114.76458,39.10642],[-114.76462,39.10647],[-114.76475,39.10666],[-114.76492,39.1069],[-114.76653,39.10916],[-114.76693,39.10972],[-114.76733,39.1103],[-114.76761,39.11068],[-114.76924,39.11298],[-114.7698,39.11377],[-114.77025,39.1144],[-114.77215,39.11707],[-114.77237,39.11738],[-114.77316,39.11849],[-114.77432,39.12013],[-114.77472,39.12068],[-114.77503,39.12113],[-114.77523,39.1214],[-114.77534,39.12156],[-114.77557,39.12188],[-114.7759,39.12235],[-114.77624,39.12282],[-114.77687,39.1237],[-114.7774,39.12445],[-114.77792,39.12518],[-114.77841,39.12588],[-114.77879,39.12641],[-114.77969,39.12768],[-114.78114,39.12973],[-114.78148,39.13021],[-114.78242,39.13152],[-114.78311,39.13249],[-114.78352,39.13307],[-114.78379,39.13345],[-114.78383,39.13351],[-114.78399,39.13373],[-114.7842,39.13402],[-114.78454,39.1345],[-114.78475,39.13479],[-114.78498,39.1351],[-114.78523,39.13545],[-114.78599,39.13653],[-114.78714,39.13815],[-114.78823,39.13968],[-114.78834,39.13984],[-114.78884,39.14054],[-114.78917,39.141],[-114.78935,39.14125],[-114.78952,39.1415],[-114.78986,39.14198],[-114.79013,39.14236],[-114.79014,39.14236],[-114.79025,39.14251],[-114.79039,39.14272],[-114.79061,39.14303],[-114.79101,39.1436],[-114.79141,39.14416],[-114.79176,39.14465],[-114.79203,39.14502],[-114.79223,39.14532],[-114.7927,39.14597],[-114.79282,39.14614],[-114.7931,39.14655],[-114.79379,39.1475],[-114.79429,39.14822],[-114.79522,39.14952],[-114.79549,39.14989],[-114.79575,39.15026],[-114.7959,39.15048],[-114.7963,39.15104],[-114.79679,39.15171],[-114.79698,39.15199],[-114.79749,39.1527],[-114.79772,39.15301],[-114.79783,39.15317],[-114.79794,39.15333],[-114.79802,39.15343],[-114.79872,39.15443],[-114.79883,39.15459],[-114.79917,39.15506],[-114.80096,39.15758],[-114.80143,39.15821],[-114.8015,39.15829],[-114.80166,39.15848],[-114.80183,39.15868],[-114.80204,39.15891],[-114.80222,39.1591],[-114.8024,39.15928],[-114.80266,39.15954],[-114.80284,39.15972],[-114.8033,39.16012],[-114.80348,39.16028],[-114.80355,39.16034],[-114.8037,39.16046],[-114.80389,39.16061],[-114.8041,39.16077],[-114.80419,39.16084],[-114.8044,39.161],[-114.8047,39.16121],[-114.80471,39.16122],[-114.80489,39.16134],[-114.80491,39.16135],[-114.80513,39.16149],[-114.80532,39.16161],[-114.80576,39.16188],[-114.80579,39.1619],[-114.80598,39.16201],[-114.80646,39.16227],[-114.80673,39.16242],[-114.80692,39.16253],[-114.80793,39.16307],[-114.80932,39.16382],[-114.81084,39.16465],[-114.81087,39.16466],[-114.81103,39.16475],[-114.81132,39.16491],[-114.81198,39.16527],[-114.81239,39.16549],[-114.81331,39.16599],[-114.81449,39.16663],[-114.81475,39.16676],[-114.81603,39.16746],[-114.81686,39.16793],[-114.81721,39.16816],[-114.81739,39.16828],[-114.81744,39.16831],[-114.81783,39.16858],[-114.81807,39.16876],[-114.81808,39.16876],[-114.81823,39.16888],[-114.81845,39.16905],[-114.81857,39.16914],[-114.81884,39.16935],[-114.81951,39.16994],[-114.8197,39.17013],[-114.81977,39.17019],[-114.8199,39.17032],[-114.82013,39.17056],[-114.82026,39.17069],[-114.82039,39.17084],[-114.82057,39.17104],[-114.82066,39.17115],[-114.82078,39.17129],[-114.82078,39.1713],[-114.82096,39.17151],[-114.82111,39.17171],[-114.82122,39.17184],[-114.82171,39.1725],[-114.82206,39.17297],[-114.82265,39.17374],[-114.82382,39.1753],[-114.82394,39.17545],[-114.82396,39.17548],[-114.82424,39.17586],[-114.82475,39.17654],[-114.8248,39.17659],[-114.82499,39.17685],[-114.82534,39.17732],[-114.82557,39.17763],[-114.82569,39.17778],[-114.82604,39.17825],[-114.82616,39.1784],[-114.82704,39.17958],[-114.8281,39.18098],[-114.82822,39.18114],[-114.82885,39.18199],[-114.82912,39.18234],[-114.83106,39.18492],[-114.83149,39.1855],[-114.83263,39.187],[-114.8334,39.18803],[-114.83385,39.18862],[-114.83412,39.18898],[-114.83543,39.19073],[-114.83669,39.1924],[-114.83681,39.19256],[-114.83798,39.19411],[-114.83905,39.19553],[-114.83938,39.19597],[-114.83955,39.1962],[-114.84125,39.19845],[-114.8434,39.20131],[-114.8436,39.20157],[-114.84372,39.20173],[-114.8441,39.20224],[-114.84467,39.203],[-114.84525,39.20374],[-114.84629,39.20513],[-114.84774,39.20708],[-114.84908,39.20884],[-114.85021,39.21035],[-114.85077,39.2111],[-114.85105,39.21148],[-114.85159,39.2122],[-114.85181,39.2125],[-114.85279,39.21379],[-114.85282,39.21383],[-114.85314,39.21425],[-114.85326,39.21441],[-114.85343,39.21464],[-114.85406,39.2155],[-114.85438,39.21595],[-114.85477,39.21653],[-114.85482,39.21662],[-114.85492,39.21678],[-114.85527,39.21735],[-114.85531,39.21743],[-114.85541,39.2176],[-114.8556,39.21792],[-114.85563,39.21798],[-114.85604,39.21873],[-114.8566,39.2198],[-114.85675,39.22009],[-114.85683,39.22025],[-114.85731,39.22118],[-114.85758,39.22169],[-114.85784,39.22218],[-114.85827,39.22301],[-114.85835,39.22316],[-114.85882,39.22406],[-114.85927,39.22493],[-114.86011,39.22653],[-114.86037,39.22703],[-114.86052,39.2273],[-114.86074,39.22771],[-114.8609,39.22802],[-114.86135,39.22888],[-114.86195,39.23002],[-114.86206,39.23025],[-114.86305,39.23213],[-114.86384,39.23363],[-114.86411,39.23415],[-114.86428,39.23446],[-114.86453,39.23495],[-114.86479,39.23542],[-114.86492,39.23567],[-114.86547,39.23673],[-114.86588,39.23752],[-114.86613,39.23798],[-114.86646,39.23862],[-114.86655,39.23879],[-114.86664,39.23895],[-114.86676,39.23919],[-114.86693,39.2395],[-114.86722,39.24004],[-114.86746,39.24049],[-114.86762,39.2408],[-114.86774,39.24104],[-114.86792,39.24137],[-114.8682,39.2419],[-114.86846,39.2424],[-114.86861,39.24268],[-114.86883,39.24311],[-114.86883,39.24311],[-114.8691,39.24303],[-114.86939,39.24294],[-114.86963,39.24286],[-114.87003,39.24274],[-114.87045,39.2426],[-114.87072,39.24252],[-114.87146,39.24229],[-114.87208,39.2421],[-114.87257,39.24194],[-114.87312,39.24177],[-114.87318,39.24175],[-114.87404,39.24148],[-114.87437,39.24138],[-114.87499,39.24119],[-114.87572,39.24093],[-114.87585,39.24089],[-114.87665,39.24063],[-114.87713,39.24048],[-114.8775,39.24036],[-114.87761,39.24033],[-114.87782,39.24027],[-114.878,39.24022],[-114.87843,39.24011],[-114.87873,39.24004],[-114.87915,39.23996],[-114.87941,39.23991],[-114.87946,39.2399],[-114.87978,39.23986],[-114.88002,39.23983],[-114.88028,39.23981],[-114.88057,39.23978],[-114.88092,39.23976],[-114.88116,39.23975],[-114.88158,39.23975],[-114.88168,39.23975],[-114.88181,39.23975],[-114.88224,39.23976],[-114.88251,39.23976],[-114.8832,39.23977],[-114.88333,39.23977],[-114.88426,39.23979],[-114.88452,39.23979],[-114.8849,39.2398],[-114.88511,39.2398],[-114.88526,39.2398],[-114.88535,39.2398],[-114.88558,39.2398],[-114.88581,39.2398],[-114.88634,39.23982],[-114.88655,39.23982],[-114.88674,39.23982],[-114.88697,39.23983],[-114.88767,39.23984],[-114.88788,39.23984],[-114.8879,39.23984],[-114.88824,39.23983],[-114.88882,39.23976],[-114.88905,39.23972],[-114.88927,39.23967],[-114.88928,39.23967],[-114.88957,39.23959],[-114.8897,39.23955],[-114.8899,39.2395],[-114.89015,39.2394],[-114.89049,39.23925],[-114.89057,39.23922],[-114.89069,39.23916],[-114.89087,39.23906],[-114.89124,39.23883],[-114.89141,39.2387],[-114.89153,39.2386],[-114.89164,39.23851],[-114.89182,39.23834],[-114.89199,39.23817],[-114.89217,39.23797],[-114.89234,39.23777],[-114.89242,39.23766],[-114.89246,39.2376],[-114.89253,39.2375],[-114.89259,39.2374],[-114.89271,39.23717],[-114.89282,39.23695],[-114.89296,39.23667],[-114.89321,39.23616],[-114.89345,39.23568],[-114.89369,39.23523],[-114.89402,39.23465],[-114.89404,39.23463],[-114.8943,39.2342],[-114.89438,39.23414],[-114.89448,39.23399],[-114.89469,39.23371],[-114.89492,39.23346],[-114.8954,39.23298],[-114.89561,39.23279],[-114.89581,39.23262],[-114.89624,39.23228],[-114.89631,39.23223],[-114.89631,39.23223],[-114.89653,39.23241],[-114.89656,39.23252],[-114.89657,39.23258],[-114.89657,39.23265],[-114.89656,39.23269],[-114.89655,39.23272],[-114.89653,39.23277],[-114.89651,39.23281],[-114.89647,39.23286],[-114.89643,39.2329],[-114.89632,39.233],[-114.89629,39.23302],[-114.89618,39.23313],[-114.89617,39.23314],[-114.89611,39.2332],[-114.89606,39.23326],[-114.89604,39.23329],[-114.896,39.23335],[-114.89594,39.23345],[-114.89581,39.23372],[-114.89578,39.23378],[-114.8957,39.23395],[-114.89562,39.23412],[-114.89548,39.23443],[-114.89537,39.23467],[-114.89523,39.23497],[-114.89515,39.23514],[-114.89503,39.23539],[-114.89496,39.23556],[-114.89481,39.2359],[-114.89473,39.23599],[-114.89467,39.23608],[-114.8946,39.23622],[-114.89452,39.23637],[-114.8944,39.23671],[-114.89429,39.23699],[-114.89425,39.23709],[-114.89412,39.23734],[-114.89406,39.2375],[-114.89403,39.23756],[-114.89402,39.23767],[-114.894,39.2378],[-114.894,39.23785],[-114.894,39.23821],[-114.894,39.23839],[-114.89401,39.23911],[-114.89401,39.23956],[-114.894,39.24099],[-114.89399,39.24118],[-114.89399,39.24132],[-114.894,39.24144],[-114.89402,39.24153],[-114.89402,39.2416],[-114.89405,39.24183],[-114.89414,39.24241],[-114.89415,39.24252],[-114.89415,39.24261],[-114.89414,39.24269],[-114.89408,39.24309]]}}]}