{"type":"FeatureCollection","features":[{"type":"Feature","properties":{"_gpxType":"trk","name":"843 Murry St, Ely, NV 89301 - Illipah Campground, Ely, NV","coordinateProperties":{},"id":93},"geometry":{"type":"LineString","coordinates":[[-114.89408,39.24309],[-114.89402,39.24347],[-114.89402,39.24347],[-114.89492,39.24355],[-114.89492,39.24355],[-114.89475,39.24471],[-114.89467,39.24525],[-114.89465,39.24542],[-114.89462,39.24561],[-114.8946,39.24584],[-114.89461,39.246],[-114.89463,39.24616],[-114.89467,39.24643],[-114.89471,39.24665],[-114.89475,39.2468],[-114.89477,39.24694],[-114.89485,39.24729],[-114.89497,39.24773],[-114.89497,39.24773],[-114.896,39.24757],[-114.89705,39.24742],[-114.89728,39.24738],[-114.89769,39.24732],[-114.89778,39.24731],[-114.89797,39.24728],[-114.89819,39.24726],[-114.89835,39.24725],[-114.89857,39.24725],[-114.89872,39.24726],[-114.89887,39.24728],[-114.89909,39.24731],[-114.89922,39.24734],[-114.89925,39.24734],[-114.89943,39.24738],[-114.89945,39.24738],[-114.89957,39.2474],[-114.89966,39.24742],[-114.89975,39.24743],[-114.89986,39.24745],[-114.89996,39.24746],[-114.9001,39.24747],[-114.90013,39.24747],[-114.90021,39.24747],[-114.90032,39.24747],[-114.90047,39.24747],[-114.90059,39.24746],[-114.90066,39.24745],[-114.90092,39.24742],[-114.90105,39.24739],[-114.90113,39.24737],[-114.90122,39.24735],[-114.90133,39.24732],[-114.9014,39.24729],[-114.90153,39.24725],[-114.9017,39.24719],[-114.90172,39.24718],[-114.90178,39.24715],[-114.90229,39.24691],[-114.90252,39.24681],[-114.90282,39.24668],[-114.90296,39.24662],[-114.90309,39.24657],[-114.90313,39.24656],[-114.90321,39.24653],[-114.90333,39.24649],[-114.90348,39.24646],[-114.90359,39.24644],[-114.9037,39.24642],[-114.9038,39.24641],[-114.9039,39.2464],[-114.90401,39.24639],[-114.9041,39.24638],[-114.90422,39.24638],[-114.90446,39.24639],[-114.90457,39.2464],[-114.90463,39.2464],[-114.90468,39.24641],[-114.9048,39.24642],[-114.9049,39.24644],[-114.90502,39.24646],[-114.90513,39.24648],[-114.90521,39.2465],[-114.90527,39.24652],[-114.9053,39.24653],[-114.90539,39.24656],[-114.90549,39.24659],[-114.90557,39.24662],[-114.90564,39.24665],[-114.90577,39.24671],[-114.90589,39.24677],[-114.90597,39.24681],[-114.90611,39.24689],[-114.9062,39.24694],[-114.90627,39.24699],[-114.90632,39.24703],[-114.90636,39.24706],[-114.90642,39.24711],[-114.90649,39.24718],[-114.9066,39.24728],[-114.90673,39.24741],[-114.90682,39.2475],[-114.90686,39.24755],[-114.90689,39.24759],[-114.90691,39.24762],[-114.90696,39.24768],[-114.90717,39.24795],[-114.90726,39.24807],[-114.90734,39.24817],[-114.90743,39.24828],[-114.90757,39.24848],[-114.90768,39.24862],[-114.90793,39.24894],[-114.90798,39.24901],[-114.90803,39.24907],[-114.90805,39.2491],[-114.90812,39.24918],[-114.90821,39.24927],[-114.90828,39.24935],[-114.90833,39.24939],[-114.90837,39.24942],[-114.90854,39.24958],[-114.90864,39.24966],[-114.90875,39.24975],[-114.90884,39.24982],[-114.90893,39.24989],[-114.90897,39.24991],[-114.90903,39.24995],[-114.90914,39.25003],[-114.90933,39.25015],[-114.90948,39.25024],[-114.9095,39.25025],[-114.90959,39.25031],[-114.90968,39.25037],[-114.90973,39.2504],[-114.90987,39.25047],[-114.91024,39.25069],[-114.91077,39.25101],[-114.91094,39.25112],[-114.91111,39.25124],[-114.91123,39.25132],[-114.9113,39.25137],[-114.91134,39.2514],[-114.91141,39.25144],[-114.91159,39.25156],[-114.91175,39.25166],[-114.91187,39.25174],[-114.912,39.25183],[-114.91209,39.25189],[-114.91211,39.2519],[-114.91213,39.25191],[-114.91259,39.25223],[-114.91264,39.25226],[-114.91269,39.25229],[-114.9128,39.25236],[-114.91319,39.25263],[-114.91356,39.25288],[-114.91378,39.25302],[-114.91398,39.25316],[-114.91451,39.25352],[-114.91472,39.25365],[-114.91493,39.25378],[-114.91504,39.25384],[-114.91513,39.25389],[-114.91524,39.25395],[-114.91534,39.25399],[-114.91545,39.25404],[-114.91554,39.25408],[-114.91569,39.25414],[-114.9159,39.25423],[-114.91607,39.25429],[-114.91608,39.25429],[-114.91621,39.25434],[-114.91634,39.25438],[-114.91635,39.25438],[-114.9165,39.25443],[-114.91653,39.25444],[-114.91672,39.25448],[-114.91674,39.25449],[-114.91698,39.25454],[-114.91712,39.25457],[-114.91727,39.2546],[-114.9174,39.25462],[-114.91745,39.25463],[-114.91754,39.25464],[-114.91763,39.25465],[-114.91781,39.25467],[-114.91841,39.25473],[-114.91862,39.25476],[-114.91888,39.25479],[-114.91901,39.25481],[-114.91912,39.25482],[-114.91921,39.25484],[-114.91929,39.25485],[-114.91945,39.25489],[-114.91958,39.25492],[-114.91968,39.25494],[-114.91975,39.25496],[-114.91991,39.255],[-114.9201,39.25506],[-114.92032,39.25513],[-114.92033,39.25513],[-114.92054,39.25521],[-114.92068,39.25526],[-114.92157,39.25562],[-114.92162,39.25564],[-114.922,39.25579],[-114.9224,39.25595],[-114.9226,39.25603],[-114.92262,39.25604],[-114.92361,39.25643],[-114.92401,39.25659],[-114.92428,39.25669],[-114.92459,39.25679],[-114.92511,39.25698],[-114.92532,39.25705],[-114.92579,39.25722],[-114.92768,39.25787],[-114.92771,39.25788],[-114.92937,39.25846],[-114.93,39.25868],[-114.93038,39.25882],[-114.9306,39.2589],[-114.93092,39.25903],[-114.93127,39.25918],[-114.93167,39.25935],[-114.93241,39.25968],[-114.93283,39.25987],[-114.93411,39.26045],[-114.9346,39.26067],[-114.93511,39.2609],[-114.9354,39.26103],[-114.93573,39.26117],[-114.93608,39.26132],[-114.93662,39.26154],[-114.93714,39.26174],[-114.93753,39.2619],[-114.9379,39.26203],[-114.93842,39.26223],[-114.93883,39.26237],[-114.93916,39.26249],[-114.94011,39.26281],[-114.94066,39.26298],[-114.94103,39.26309],[-114.94182,39.26332],[-114.94261,39.26354],[-114.94318,39.26369],[-114.94328,39.26372],[-114.94345,39.26376],[-114.94373,39.26383],[-114.94483,39.26409],[-114.94577,39.2643],[-114.94651,39.26447],[-114.94726,39.26464],[-114.94755,39.26471],[-114.94785,39.26478],[-114.948,39.26481],[-114.94815,39.26485],[-114.94828,39.26489],[-114.94842,39.26493],[-114.94843,39.26493],[-114.94854,39.26497],[-114.94864,39.26501],[-114.94868,39.26502],[-114.94891,39.2651],[-114.94906,39.26516],[-114.94921,39.26522],[-114.94946,39.26534],[-114.94966,39.26544],[-114.94971,39.26546],[-114.94986,39.26554],[-114.94987,39.26554],[-114.95,39.26562],[-114.95015,39.26571],[-114.95034,39.26582],[-114.95044,39.26589],[-114.95051,39.26594],[-114.95078,39.26614],[-114.95092,39.26624],[-114.95134,39.26654],[-114.95185,39.26691],[-114.9524,39.26731],[-114.95275,39.26757],[-114.95303,39.26779],[-114.95382,39.26837],[-114.95387,39.2684],[-114.95455,39.2689],[-114.95488,39.26914],[-114.95505,39.26927],[-114.95519,39.26937],[-114.95552,39.26962],[-114.95597,39.26994],[-114.95673,39.27049],[-114.9569,39.27061],[-114.95692,39.27063],[-114.95791,39.27136],[-114.95804,39.27145],[-114.95862,39.27189],[-114.9588,39.27203],[-114.95892,39.27213],[-114.95898,39.27218],[-114.95907,39.27227],[-114.95924,39.27242],[-114.95937,39.27256],[-114.95946,39.27265],[-114.95954,39.27274],[-114.95967,39.2729],[-114.95969,39.27292],[-114.95981,39.27306],[-114.95986,39.27313],[-114.9599,39.27318],[-114.95992,39.27322],[-114.96014,39.27358],[-114.96027,39.27378],[-114.96038,39.27394],[-114.96054,39.27419],[-114.9606,39.27429],[-114.96076,39.27452],[-114.96093,39.27476],[-114.96097,39.27482],[-114.96104,39.27492],[-114.96127,39.27523],[-114.96171,39.27585],[-114.96184,39.27602],[-114.96195,39.27617],[-114.96202,39.27627],[-114.96238,39.27675],[-114.96278,39.27731],[-114.96297,39.2776],[-114.96303,39.2777],[-114.96306,39.27775],[-114.96309,39.27781],[-114.96317,39.27794],[-114.96324,39.27808],[-114.96331,39.27824],[-114.96334,39.27829],[-114.96336,39.27835],[-114.96341,39.27847],[-114.96341,39.27848],[-114.96345,39.27858],[-114.9635,39.27871],[-114.96353,39.27877],[-114.96354,39.27882],[-114.96363,39.27907],[-114.96369,39.2793],[-114.96373,39.27949],[-114.96376,39.27962],[-114.96378,39.27974],[-114.9638,39.27989],[-114.96382,39.28007],[-114.96384,39.28039],[-114.96386,39.28081],[-114.96383,39.28088],[-114.96383,39.28089],[-114.96383,39.2809],[-114.96385,39.2812],[-114.96389,39.28249],[-114.96391,39.2831],[-114.96393,39.28367],[-114.96395,39.28419],[-114.96396,39.2843],[-114.96397,39.28442],[-114.964,39.28473],[-114.96402,39.28486],[-114.96402,39.2849],[-114.96404,39.28502],[-114.96406,39.28512],[-114.96412,39.28544],[-114.96415,39.28557],[-114.96416,39.28558],[-114.96419,39.28564],[-114.96423,39.28579],[-114.96425,39.28587],[-114.96435,39.28616],[-114.96439,39.28628],[-114.96449,39.28656],[-114.96464,39.28694],[-114.96474,39.28719],[-114.96484,39.28739],[-114.96492,39.28756],[-114.96506,39.28783],[-114.96513,39.28796],[-114.96519,39.28806],[-114.96536,39.28833],[-114.96542,39.28845],[-114.96549,39.28855],[-114.96575,39.28893],[-114.9659,39.28914],[-114.96604,39.28931],[-114.96637,39.28972],[-114.96663,39.29001],[-114.96699,39.29039],[-114.96727,39.29065],[-114.96763,39.29097],[-114.96771,39.29103],[-114.96781,39.29111],[-114.9679,39.29119],[-114.96818,39.29141],[-114.96822,39.29144],[-114.9685,39.29166],[-114.96883,39.2919],[-114.9694,39.29233],[-114.97015,39.29288],[-114.97028,39.29298],[-114.97096,39.29348],[-114.97118,39.29365],[-114.97157,39.29394],[-114.97223,39.29442],[-114.97261,39.29471],[-114.97291,39.29493],[-114.97336,39.29526],[-114.97343,39.29532],[-114.97353,39.29539],[-114.97369,39.29551],[-114.97453,39.29613],[-114.9747,39.29626],[-114.97503,39.2965],[-114.97548,39.29683],[-114.97602,39.29724],[-114.97713,39.29806],[-114.97918,39.29959],[-114.98002,39.30021],[-114.98064,39.30067],[-114.98132,39.30117],[-114.98148,39.30129],[-114.98161,39.30138],[-114.98212,39.30176],[-114.98233,39.30191],[-114.98234,39.30192],[-114.98251,39.30204],[-114.98285,39.30228],[-114.98308,39.30243],[-114.9832,39.30251],[-114.98333,39.3026],[-114.98356,39.30274],[-114.98413,39.30309],[-114.98496,39.30358],[-114.98533,39.3038],[-114.9857,39.30403],[-114.98593,39.30418],[-114.98612,39.30431],[-114.98637,39.30448],[-114.9866,39.30464],[-114.98689,39.30485],[-114.98723,39.30513],[-114.98729,39.30518],[-114.98745,39.30531],[-114.98755,39.30539],[-114.98776,39.30558],[-114.98783,39.30564],[-114.98818,39.30596],[-114.9885,39.30626],[-114.98864,39.30641],[-114.98882,39.3066],[-114.98897,39.30676],[-114.98908,39.30689],[-114.98938,39.30723],[-114.99012,39.30812],[-114.99019,39.3082],[-114.99043,39.30849],[-114.99074,39.30884],[-114.99092,39.30904],[-114.99101,39.30913],[-114.99124,39.30936],[-114.99135,39.30947],[-114.99152,39.30962],[-114.99165,39.30975],[-114.99181,39.30989],[-114.99208,39.31012],[-114.99222,39.31023],[-114.99267,39.3106],[-114.99318,39.31101],[-114.99383,39.31153],[-114.99488,39.31236],[-114.99536,39.31274],[-114.99615,39.31336],[-114.99684,39.3139],[-114.99775,39.31463],[-114.99894,39.31557],[-114.99962,39.31612],[-115.00013,39.31652],[-115.00083,39.31708],[-115.00105,39.31725],[-115.00172,39.31778],[-115.00251,39.31841],[-115.0032,39.31896],[-115.0038,39.31944],[-115.0043,39.31983],[-115.0048,39.32022],[-115.00511,39.32046],[-115.0055,39.32077],[-115.0062,39.32132],[-115.0066,39.32164],[-115.00739,39.32226],[-115.00769,39.3225],[-115.00955,39.32397],[-115.01246,39.32628],[-115.01297,39.32668],[-115.01352,39.32715],[-115.01382,39.3274],[-115.01394,39.3275],[-115.0142,39.32773],[-115.01508,39.32852],[-115.01523,39.32866],[-115.01763,39.33085],[-115.01849,39.33163],[-115.01977,39.33281],[-115.02045,39.33343],[-115.02083,39.33378],[-115.02147,39.33437],[-115.02247,39.33529],[-115.02396,39.33665],[-115.02446,39.33711],[-115.02475,39.33738],[-115.0257,39.33824],[-115.02585,39.33838],[-115.02616,39.33866],[-115.02724,39.33965],[-115.02791,39.34026],[-115.02901,39.34127],[-115.03057,39.3427],[-115.03096,39.34305],[-115.03111,39.34319],[-115.03145,39.3435],[-115.03167,39.34371],[-115.03378,39.34563],[-115.03415,39.34597],[-115.03508,39.34682],[-115.03553,39.34723],[-115.03579,39.34747],[-115.036,39.34766],[-115.03608,39.34774],[-115.03634,39.348],[-115.0368,39.34845],[-115.03716,39.34884],[-115.03867,39.35048],[-115.03944,39.35133],[-115.03967,39.35158],[-115.04,39.35194],[-115.04024,39.35221],[-115.04049,39.35248],[-115.04537,39.35783],[-115.04592,39.35844],[-115.04614,39.35868],[-115.04772,39.3604],[-115.04779,39.36048],[-115.04805,39.36076],[-115.04838,39.36112],[-115.04886,39.36164],[-115.04935,39.36218],[-115.04994,39.36282],[-115.05007,39.36297],[-115.05011,39.36301],[-115.05076,39.36373],[-115.0514,39.36443],[-115.0523,39.36542],[-115.05248,39.36562],[-115.05275,39.36591],[-115.0533,39.36651],[-115.0536,39.36684],[-115.05385,39.36712],[-115.05428,39.36759],[-115.05496,39.36832],[-115.05561,39.36903],[-115.05611,39.36958],[-115.05643,39.36993],[-115.05656,39.37007],[-115.05692,39.37046],[-115.05732,39.3709],[-115.0588,39.37253],[-115.05966,39.37348],[-115.06026,39.37414],[-115.06064,39.37455],[-115.06157,39.37558],[-115.06304,39.3772],[-115.06338,39.37757],[-115.06387,39.3781],[-115.06496,39.37928],[-115.06563,39.38001],[-115.06594,39.38033],[-115.06606,39.38046],[-115.06624,39.38064],[-115.06648,39.38088],[-115.06654,39.38094],[-115.06659,39.38098],[-115.06668,39.38106],[-115.06681,39.38119],[-115.06697,39.38133],[-115.06721,39.38155],[-115.06749,39.3818],[-115.06758,39.38188],[-115.06773,39.38201],[-115.06787,39.38213],[-115.06797,39.38222],[-115.0681,39.38232],[-115.06849,39.38265],[-115.06865,39.38278],[-115.06887,39.38295],[-115.06889,39.38296],[-115.06918,39.38319],[-115.06941,39.38336],[-115.06945,39.38339],[-115.06958,39.38348],[-115.06977,39.38362],[-115.07008,39.38385],[-115.07119,39.38463],[-115.07127,39.38468],[-115.07137,39.38476],[-115.07159,39.38491],[-115.07214,39.3853],[-115.07284,39.3858],[-115.07316,39.38603],[-115.07353,39.38628],[-115.07358,39.38632],[-115.0737,39.38641],[-115.07399,39.38661],[-115.0742,39.38677],[-115.07461,39.38705],[-115.07483,39.38721],[-115.07515,39.38744],[-115.07541,39.38762],[-115.07547,39.38767],[-115.07584,39.38791],[-115.07601,39.38803],[-115.07628,39.38822],[-115.07645,39.38834],[-115.07691,39.38867],[-115.07721,39.38889],[-115.07842,39.38973],[-115.07859,39.38985],[-115.07871,39.38994],[-115.07935,39.39039],[-115.07979,39.3907],[-115.08039,39.39113],[-115.08072,39.39137],[-115.08103,39.39161],[-115.08121,39.39176],[-115.08128,39.39182],[-115.08134,39.39187],[-115.08145,39.39197],[-115.08159,39.39211],[-115.08173,39.39225],[-115.08197,39.39251],[-115.08207,39.39263],[-115.08218,39.39276],[-115.08227,39.39287],[-115.08239,39.39304],[-115.08245,39.39313],[-115.0825,39.39321],[-115.08258,39.39333],[-115.08263,39.39342],[-115.08267,39.39348],[-115.0827,39.39354],[-115.08275,39.39363],[-115.08283,39.39378],[-115.08286,39.39384],[-115.08292,39.39397],[-115.08295,39.39403],[-115.08299,39.39411],[-115.08301,39.39416],[-115.08305,39.39426],[-115.08307,39.39433],[-115.08313,39.39447],[-115.08317,39.3946],[-115.08324,39.39481],[-115.08328,39.39493],[-115.0833,39.39502],[-115.08332,39.39512],[-115.08335,39.39522],[-115.08336,39.39528],[-115.08337,39.39537],[-115.08339,39.39545],[-115.08341,39.39556],[-115.08341,39.39558],[-115.08343,39.39572],[-115.08343,39.39574],[-115.08344,39.39589],[-115.08345,39.39595],[-115.08345,39.39604],[-115.08345,39.39611],[-115.08346,39.39618],[-115.08346,39.39631],[-115.08346,39.39645],[-115.08345,39.39659],[-115.08344,39.39676],[-115.08342,39.39691],[-115.08341,39.39705],[-115.08338,39.3972],[-115.08336,39.39734],[-115.08309,39.39902],[-115.08292,39.40009],[-115.08289,39.40028],[-115.08281,39.40079],[-115.08274,39.40123],[-115.08269,39.40148],[-115.08267,39.40161],[-115.08265,39.40173],[-115.08261,39.40189],[-115.08255,39.40212],[-115.08251,39.40227],[-115.08249,39.40233],[-115.08246,39.4024],[-115.08239,39.4026],[-115.08236,39.40268],[-115.08233,39.40276],[-115.08226,39.40292],[-115.08212,39.4032],[-115.08207,39.40329],[-115.08201,39.4034],[-115.08196,39.40348],[-115.08182,39.40368],[-115.08165,39.40396],[-115.08155,39.40413],[-115.08133,39.40446],[-115.08112,39.40478],[-115.08091,39.40509],[-115.08031,39.40599],[-115.07987,39.40667],[-115.07985,39.4067],[-115.07947,39.40727],[-115.07921,39.40765],[-115.0791,39.40783],[-115.07875,39.40836],[-115.07845,39.40882],[-115.07836,39.40895],[-115.07829,39.40909],[-115.07822,39.40922],[-115.07815,39.40937],[-115.07809,39.4095],[-115.07801,39.40975],[-115.07798,39.40986],[-115.07795,39.40994],[-115.07793,39.41005],[-115.07791,39.41013],[-115.0779,39.41019],[-115.07789,39.41026],[-115.07787,39.41035],[-115.07786,39.41043],[-115.07785,39.41053],[-115.07784,39.41065],[-115.07784,39.41081],[-115.07784,39.41096],[-115.07785,39.41107],[-115.07786,39.41119],[-115.07787,39.41127],[-115.07788,39.41136],[-115.07789,39.41143],[-115.0779,39.41146],[-115.07791,39.41155],[-115.07793,39.41164],[-115.07794,39.41164],[-115.07796,39.41174],[-115.078,39.41184],[-115.07803,39.41196],[-115.07804,39.41199],[-115.07807,39.41205],[-115.07811,39.41216],[-115.07814,39.41222],[-115.07817,39.41229],[-115.07821,39.41237],[-115.07824,39.41242],[-115.07829,39.41252],[-115.07832,39.41258],[-115.07837,39.41266],[-115.0784,39.41271],[-115.07844,39.41278],[-115.0785,39.41287],[-115.07853,39.41291],[-115.07857,39.41297],[-115.07861,39.41302],[-115.07865,39.41307],[-115.0787,39.41314],[-115.07875,39.4132],[-115.07884,39.4133],[-115.07897,39.41344],[-115.07912,39.41358],[-115.07916,39.41362],[-115.0792,39.41366],[-115.07929,39.41374],[-115.07943,39.41386],[-115.07962,39.414],[-115.07965,39.41403],[-115.07968,39.41405],[-115.07977,39.41412],[-115.07985,39.41417],[-115.07994,39.41423],[-115.08007,39.41431],[-115.08016,39.41436],[-115.08025,39.41441],[-115.08035,39.41446],[-115.08042,39.4145],[-115.0805,39.41454],[-115.08057,39.41457],[-115.08063,39.4146],[-115.0807,39.41463],[-115.08078,39.41466],[-115.08086,39.41469],[-115.08096,39.41474],[-115.08112,39.41479],[-115.08123,39.41483],[-115.08133,39.41487],[-115.08144,39.4149],[-115.08153,39.41493],[-115.08161,39.41495],[-115.08165,39.41496],[-115.0817,39.41497],[-115.08176,39.41499],[-115.08182,39.415],[-115.08193,39.41503],[-115.08204,39.41505],[-115.08211,39.41506],[-115.08222,39.41508],[-115.08232,39.4151],[-115.0824,39.41511],[-115.08246,39.41512],[-115.08253,39.41513],[-115.08261,39.41514],[-115.08273,39.41515],[-115.08291,39.41517],[-115.08301,39.41518],[-115.08311,39.41519],[-115.08324,39.41519],[-115.08334,39.41519],[-115.08343,39.41519],[-115.08352,39.41519],[-115.08358,39.41519],[-115.08364,39.41519],[-115.0837,39.41519],[-115.08371,39.41519],[-115.08377,39.41519],[-115.08394,39.41517],[-115.08397,39.41517],[-115.08407,39.41517],[-115.08418,39.41516],[-115.08432,39.41514],[-115.08447,39.41512],[-115.0846,39.4151],[-115.08471,39.41508],[-115.08486,39.41506],[-115.08509,39.41502],[-115.08572,39.4149],[-115.08577,39.41489],[-115.08599,39.41485],[-115.08622,39.41481],[-115.08634,39.41479],[-115.08644,39.41477],[-115.08655,39.41476],[-115.08667,39.41475],[-115.08675,39.41474],[-115.08679,39.41474],[-115.08686,39.41473],[-115.08694,39.41473],[-115.08739,39.41472],[-115.08754,39.41472],[-115.08766,39.41473],[-115.08782,39.41474],[-115.08787,39.41474],[-115.08802,39.41475],[-115.0881,39.41476],[-115.0882,39.41477],[-115.08829,39.41478],[-115.08835,39.41479],[-115.08857,39.41483],[-115.08869,39.41485],[-115.0888,39.41487],[-115.08892,39.4149],[-115.08902,39.41492],[-115.08913,39.41495],[-115.08922,39.41498],[-115.0893,39.415],[-115.08939,39.41503],[-115.08949,39.41506],[-115.08959,39.4151],[-115.08974,39.41515],[-115.08993,39.41523],[-115.09012,39.41532],[-115.09029,39.4154],[-115.0905,39.41551],[-115.0906,39.41557],[-115.09068,39.41562],[-115.09076,39.41566],[-115.09085,39.41572],[-115.09103,39.41585],[-115.09124,39.41601],[-115.09132,39.41608],[-115.09146,39.41621],[-115.09153,39.41628],[-115.09157,39.41632],[-115.09161,39.41636],[-115.09167,39.41644],[-115.09175,39.41652],[-115.09183,39.41661],[-115.09204,39.41688],[-115.09231,39.41724],[-115.09408,39.41956],[-115.09413,39.41963],[-115.0942,39.41972],[-115.09431,39.41985],[-115.09446,39.42004],[-115.09457,39.42017],[-115.0947,39.42031],[-115.09488,39.4205],[-115.095,39.4206],[-115.09511,39.42071],[-115.09523,39.42081],[-115.09546,39.421],[-115.09558,39.42109],[-115.09566,39.42116],[-115.09574,39.42121],[-115.09605,39.42142],[-115.09625,39.42155],[-115.09642,39.42165],[-115.09651,39.4217],[-115.09659,39.42174],[-115.09667,39.42179],[-115.09678,39.42184],[-115.0969,39.42191],[-115.09697,39.42194],[-115.09705,39.42198],[-115.09721,39.42205],[-115.09736,39.42212],[-115.09743,39.42215],[-115.09756,39.42221],[-115.09766,39.42225],[-115.09838,39.42255],[-115.09854,39.42262],[-115.09879,39.42273],[-115.09899,39.42282],[-115.09914,39.42289],[-115.09928,39.42296],[-115.09935,39.423],[-115.09952,39.42309],[-115.09973,39.4232],[-115.09983,39.42326],[-115.09991,39.42331],[-115.10008,39.42342],[-115.10038,39.42363],[-115.10052,39.42374],[-115.10062,39.42381],[-115.1007,39.42387],[-115.10078,39.42394],[-115.10086,39.42401],[-115.10097,39.4241],[-115.10113,39.42424],[-115.10126,39.42436],[-115.1015,39.42457],[-115.10171,39.42476],[-115.10194,39.42496],[-115.10215,39.42514],[-115.10228,39.42524],[-115.10243,39.42535],[-115.10267,39.42551],[-115.10289,39.42566],[-115.10318,39.42583],[-115.10341,39.42596],[-115.10343,39.42597],[-115.10364,39.42607],[-115.10382,39.42616],[-115.104,39.42624],[-115.10448,39.42644],[-115.10485,39.42657],[-115.10494,39.4266],[-115.10506,39.42664],[-115.106,39.42694],[-115.10614,39.42699],[-115.10631,39.42706],[-115.10635,39.42707],[-115.10657,39.42715],[-115.1069,39.42729],[-115.1071,39.42738],[-115.10726,39.42746],[-115.10742,39.42755],[-115.10766,39.42767],[-115.10803,39.42789],[-115.10827,39.42804],[-115.10901,39.42851],[-115.10919,39.42863],[-115.10956,39.42887],[-115.10974,39.42897],[-115.10993,39.42906],[-115.11006,39.42913],[-115.11017,39.42919],[-115.11032,39.42925],[-115.11045,39.42931],[-115.11074,39.42943],[-115.11104,39.42955],[-115.11135,39.42965],[-115.11176,39.42977],[-115.11226,39.42988],[-115.11264,39.42995],[-115.11292,39.43],[-115.11311,39.43003],[-115.11335,39.43005],[-115.11358,39.43007],[-115.11379,39.43009],[-115.11392,39.43009],[-115.11407,39.4301],[-115.11424,39.4301],[-115.11457,39.4301],[-115.11503,39.4301],[-115.11758,39.43005],[-115.11789,39.43005],[-115.11905,39.43002],[-115.12021,39.43],[-115.12045,39.42999],[-115.12094,39.42998],[-115.12114,39.42998],[-115.12165,39.42997],[-115.12243,39.42995],[-115.12308,39.42995],[-115.12337,39.42994],[-115.12361,39.42994],[-115.1237,39.42994],[-115.12392,39.42995],[-115.12422,39.42996],[-115.12449,39.42998],[-115.12504,39.43003],[-115.12625,39.43015],[-115.1264,39.43016],[-115.12659,39.43017],[-115.12679,39.43018],[-115.12707,39.4302],[-115.12737,39.43019],[-115.12765,39.43019],[-115.12808,39.43016],[-115.1284,39.43013],[-115.12867,39.4301],[-115.12883,39.43007],[-115.12898,39.43005],[-115.12936,39.42998],[-115.12948,39.42996],[-115.12977,39.42989],[-115.12993,39.42986],[-115.13041,39.42976],[-115.13085,39.42966],[-115.13121,39.4296],[-115.13147,39.42955],[-115.13179,39.42951],[-115.13223,39.42946],[-115.1326,39.42944],[-115.13286,39.42943],[-115.13331,39.42943],[-115.1335,39.42944],[-115.13369,39.42945],[-115.13404,39.42948],[-115.13499,39.42954],[-115.13515,39.42955],[-115.13543,39.42957],[-115.13545,39.42957],[-115.13572,39.42957],[-115.13607,39.42958],[-115.1363,39.42957],[-115.1365,39.42956],[-115.13672,39.42955],[-115.13696,39.42953],[-115.13705,39.42952],[-115.13708,39.42952],[-115.13726,39.4295],[-115.13731,39.42949],[-115.13745,39.42948],[-115.13777,39.42943],[-115.13778,39.42943],[-115.13793,39.4294],[-115.13804,39.42938],[-115.13841,39.42929],[-115.13863,39.42923],[-115.13895,39.42913],[-115.13917,39.42905],[-115.13944,39.42896],[-115.13992,39.42877],[-115.13996,39.42875],[-115.14037,39.42858],[-115.14079,39.42841],[-115.14112,39.42827],[-115.14136,39.42815],[-115.14153,39.42808],[-115.14163,39.42804],[-115.14185,39.42796],[-115.14198,39.42791],[-115.14224,39.42783],[-115.14236,39.4278],[-115.14258,39.42775],[-115.1428,39.42769],[-115.14296,39.42766],[-115.1432,39.42761],[-115.14346,39.42756],[-115.14353,39.42755],[-115.14368,39.42752],[-115.14376,39.42751],[-115.14392,39.42749],[-115.14408,39.42747],[-115.14426,39.42746],[-115.14456,39.42744],[-115.14491,39.42742],[-115.14539,39.4274],[-115.14599,39.42739],[-115.14792,39.42731],[-115.14961,39.42726],[-115.14984,39.42725],[-115.15023,39.42724],[-115.15031,39.42724],[-115.15083,39.42725],[-115.1516,39.42728],[-115.15217,39.42732],[-115.15227,39.42732],[-115.1524,39.42733],[-115.15341,39.42739],[-115.15426,39.42744],[-115.15429,39.42744],[-115.15496,39.42748],[-115.15704,39.42761],[-115.1589,39.42773],[-115.15913,39.42774],[-115.15936,39.42776],[-115.16097,39.42786],[-115.16145,39.42789],[-115.16168,39.42791],[-115.16281,39.42798],[-115.16284,39.42798],[-115.16308,39.42799],[-115.16331,39.42801],[-115.16354,39.42802],[-115.16374,39.42804],[-115.16586,39.42816],[-115.16633,39.42819],[-115.1667,39.42821],[-115.16842,39.42831],[-115.16865,39.42832],[-115.16935,39.42836],[-115.16958,39.42838],[-115.17074,39.42845],[-115.17143,39.42849],[-115.17189,39.42851],[-115.1719,39.42851],[-115.17376,39.42862],[-115.17445,39.42867],[-115.17469,39.42868],[-115.17538,39.42872],[-115.17654,39.42879],[-115.17677,39.4288],[-115.17701,39.42882],[-115.17747,39.42885],[-115.1777,39.42886],[-115.17817,39.42889],[-115.17823,39.42889],[-115.1796,39.42897],[-115.17979,39.42898],[-115.18095,39.42905],[-115.18235,39.42913],[-115.18242,39.42914],[-115.18258,39.42915],[-115.18281,39.42916],[-115.18304,39.42918],[-115.18324,39.42919],[-115.18359,39.42922],[-115.18386,39.42923],[-115.18437,39.42926],[-115.18508,39.42929],[-115.18541,39.42928],[-115.18554,39.42928],[-115.18567,39.42927],[-115.18583,39.42926],[-115.18597,39.42924],[-115.18627,39.42921],[-115.1865,39.42917],[-115.18675,39.42913],[-115.1871,39.42906],[-115.18729,39.42901],[-115.18754,39.42895],[-115.18766,39.42891],[-115.1877,39.4289],[-115.18779,39.42887],[-115.18791,39.42883],[-115.18791,39.42882],[-115.18805,39.42878],[-115.1884,39.42864],[-115.18867,39.42852],[-115.18893,39.42839],[-115.18923,39.42825],[-115.1898,39.42795],[-115.19052,39.42757],[-115.19053,39.42756],[-115.19072,39.42745],[-115.1911,39.42725],[-115.19138,39.42709],[-115.19265,39.42633],[-115.19303,39.42608],[-115.19383,39.42556],[-115.195,39.42475],[-115.19569,39.42422],[-115.1957,39.42421],[-115.19586,39.42408],[-115.19664,39.42346],[-115.19697,39.4232],[-115.197,39.42318],[-115.19707,39.42313],[-115.19723,39.42301],[-115.1974,39.4229],[-115.19753,39.42282],[-115.19783,39.42265],[-115.19792,39.4226],[-115.19803,39.42254],[-115.19836,39.42238],[-115.19856,39.4223],[-115.19878,39.42222],[-115.19892,39.42217],[-115.19925,39.42207],[-115.19959,39.42197],[-115.19998,39.42186],[-115.2011,39.42155],[-115.20221,39.42125],[-115.20266,39.42112],[-115.20307,39.421],[-115.20425,39.42067],[-115.20462,39.42055],[-115.20504,39.42041],[-115.20536,39.42029],[-115.20666,39.41983],[-115.20755,39.41951],[-115.21003,39.41861],[-115.21045,39.41846],[-115.21193,39.41792],[-115.21277,39.41762],[-115.21312,39.41749],[-115.21488,39.41686],[-115.21551,39.41663],[-115.21677,39.41616],[-115.21695,39.4161],[-115.21804,39.4157],[-115.21846,39.41555],[-115.2185,39.41554],[-115.22021,39.41492],[-115.22107,39.41461],[-115.22112,39.41459],[-115.22133,39.41451],[-115.22184,39.41432],[-115.22201,39.41425],[-115.22224,39.41416],[-115.22259,39.41401],[-115.22296,39.41385],[-115.22318,39.41374],[-115.22337,39.41365],[-115.2237,39.41349],[-115.22434,39.41314],[-115.22518,39.41269],[-115.22679,39.41185],[-115.22683,39.41183],[-115.22833,39.41102],[-115.23105,39.40958],[-115.23181,39.40917],[-115.23204,39.40904],[-115.23295,39.40856],[-115.23296,39.40855],[-115.23315,39.40845],[-115.23388,39.40806],[-115.23427,39.40785],[-115.23772,39.40602],[-115.23987,39.40488],[-115.24184,39.40382],[-115.2431,39.40314],[-115.24366,39.40284],[-115.24385,39.40274],[-115.24446,39.40241],[-115.24481,39.40223],[-115.24611,39.40153],[-115.24649,39.40132],[-115.24802,39.40049],[-115.25051,39.39914],[-115.25221,39.39821],[-115.25272,39.39793],[-115.25292,39.39783],[-115.25363,39.39745],[-115.25422,39.39714],[-115.25594,39.39622],[-115.25684,39.39574],[-115.25713,39.39558],[-115.2577,39.39528],[-115.25806,39.39509],[-115.25847,39.39487],[-115.25962,39.39426],[-115.25964,39.39425],[-115.25981,39.39416],[-115.26141,39.39331],[-115.26173,39.39314],[-115.26365,39.39212],[-115.26398,39.39195],[-115.26479,39.39151],[-115.26561,39.39109],[-115.26712,39.3903],[-115.26818,39.38975],[-115.27047,39.38857],[-115.27092,39.38833],[-115.27459,39.38642],[-115.27633,39.38552],[-115.279,39.38414],[-115.28029,39.38346],[-115.28077,39.38321],[-115.28096,39.38311],[-115.28482,39.38109],[-115.28501,39.38099],[-115.28521,39.38089],[-115.28771,39.37958],[-115.28887,39.37898],[-115.28925,39.37878],[-115.29317,39.37673],[-115.29499,39.37578],[-115.29649,39.375],[-115.29696,39.37475],[-115.29832,39.37403],[-115.29994,39.37319],[-115.30192,39.37216],[-115.30223,39.37199],[-115.30242,39.37189],[-115.30261,39.37179],[-115.30335,39.37141],[-115.30711,39.36943],[-115.30865,39.36863],[-115.30926,39.36831],[-115.31031,39.36776],[-115.31096,39.36742],[-115.31183,39.36696],[-115.31212,39.36681],[-115.3125,39.36661],[-115.31308,39.36631],[-115.31327,39.3662],[-115.31385,39.3659],[-115.31443,39.3656],[-115.31459,39.36551],[-115.31681,39.36435],[-115.31859,39.36342],[-115.31878,39.36332],[-115.31897,39.36322],[-115.32013,39.36262],[-115.32085,39.36223],[-115.32104,39.36213],[-115.32115,39.36207],[-115.32159,39.36186],[-115.3219,39.36171],[-115.32215,39.36159],[-115.3224,39.36149],[-115.32273,39.36136],[-115.32303,39.36126],[-115.32334,39.36115],[-115.3238,39.361],[-115.32462,39.36076],[-115.32522,39.36058],[-115.32543,39.36051],[-115.3257,39.36043],[-115.32587,39.36038],[-115.32608,39.36031],[-115.32613,39.3603],[-115.3263,39.36025],[-115.32654,39.36017],[-115.32694,39.36003],[-115.32733,39.35988],[-115.32762,39.35977],[-115.32788,39.35965],[-115.32823,39.35948],[-115.3287,39.35922],[-115.32915,39.35895],[-115.32948,39.35874],[-115.33014,39.35828],[-115.33015,39.35827],[-115.33033,39.35815],[-115.33116,39.35756],[-115.33118,39.35755],[-115.33135,39.35742],[-115.33138,39.3574],[-115.33156,39.35729],[-115.33171,39.3572],[-115.33172,39.35719],[-115.3319,39.35709],[-115.33193,39.35707],[-115.33209,39.35699],[-115.33218,39.35694],[-115.33229,39.35689],[-115.33237,39.35685],[-115.33258,39.35676],[-115.33278,39.35668],[-115.33293,39.35662],[-115.33316,39.35654],[-115.33336,39.35648],[-115.3336,39.35641],[-115.33382,39.35635],[-115.33408,39.35629],[-115.33431,39.35624],[-115.33459,39.35619],[-115.33476,39.35617],[-115.33493,39.35614],[-115.33551,39.35608],[-115.33645,39.35599],[-115.33666,39.35597],[-115.337,39.35593],[-115.3372,39.3559],[-115.33737,39.35586],[-115.33759,39.35582],[-115.33786,39.35576],[-115.33812,39.3557],[-115.33879,39.35554],[-115.33923,39.35542],[-115.33945,39.35537],[-115.3397,39.35531],[-115.33988,39.35526],[-115.34002,39.35524],[-115.34012,39.35522],[-115.34022,39.35521],[-115.34034,39.3552],[-115.34049,39.35519],[-115.34061,39.35519],[-115.34073,39.3552],[-115.34082,39.35521],[-115.34088,39.35522],[-115.34099,39.35524],[-115.34108,39.35526],[-115.34119,39.35529],[-115.34198,39.35549],[-115.34215,39.35553],[-115.34217,39.35553],[-115.34231,39.35556],[-115.34245,39.35558],[-115.34257,39.35559],[-115.34281,39.35562],[-115.34301,39.35563],[-115.34319,39.35563],[-115.34337,39.35561],[-115.34355,39.35559],[-115.34377,39.35556],[-115.34404,39.35552],[-115.34422,39.35549],[-115.34424,39.35549],[-115.3444,39.35546],[-115.34458,39.35545],[-115.34466,39.35544],[-115.34476,39.35544],[-115.34487,39.35545],[-115.34501,39.35546],[-115.34514,39.35548],[-115.34526,39.35551],[-115.34536,39.35554],[-115.34546,39.35557],[-115.34559,39.35561],[-115.34601,39.35574],[-115.34665,39.35595],[-115.34687,39.35602],[-115.34778,39.3563],[-115.34789,39.35634],[-115.34801,39.35638],[-115.34814,39.35644],[-115.34826,39.3565],[-115.34838,39.35657],[-115.3485,39.35665],[-115.34851,39.35666],[-115.3486,39.35672],[-115.34866,39.35678],[-115.34872,39.35683],[-115.34879,39.35689],[-115.34882,39.35693],[-115.34884,39.35695],[-115.34899,39.35712],[-115.3492,39.35738],[-115.34928,39.35748],[-115.34932,39.35754],[-115.34996,39.35832],[-115.35023,39.35865],[-115.35031,39.35874],[-115.35038,39.3588],[-115.35051,39.35891],[-115.35064,39.35901],[-115.35066,39.35902],[-115.35074,39.35907],[-115.35084,39.35913],[-115.35096,39.35917],[-115.35103,39.3592],[-115.35106,39.35921],[-115.35116,39.35924],[-115.35128,39.35928],[-115.35139,39.3593],[-115.35154,39.35932],[-115.3517,39.35932],[-115.35182,39.35933],[-115.35193,39.35932],[-115.35203,39.35931],[-115.35214,39.35929],[-115.35232,39.35925],[-115.35246,39.3592],[-115.3526,39.35915],[-115.35274,39.35908],[-115.35285,39.35902],[-115.35294,39.35897],[-115.35304,39.35889],[-115.35315,39.35879],[-115.35328,39.35867],[-115.35344,39.35852],[-115.3535,39.35846],[-115.35364,39.35831],[-115.35461,39.3573],[-115.35462,39.3573],[-115.35471,39.35721],[-115.35479,39.35713],[-115.3549,39.35703],[-115.35499,39.35695],[-115.35509,39.35687],[-115.35518,39.35681],[-115.35532,39.35672],[-115.3555,39.35662],[-115.35575,39.35649],[-115.3564,39.35617],[-115.35668,39.35604],[-115.3569,39.35593],[-115.35706,39.35584],[-115.35717,39.35578],[-115.35718,39.35577],[-115.35732,39.35569],[-115.35742,39.35561],[-115.35752,39.35554],[-115.35753,39.35553],[-115.35765,39.35543],[-115.35774,39.35533],[-115.35784,39.35522],[-115.35798,39.35505],[-115.35812,39.35485],[-115.35816,39.35479],[-115.35827,39.35462],[-115.35839,39.35442],[-115.35847,39.35427],[-115.35855,39.35414],[-115.35859,39.35407],[-115.35868,39.35394],[-115.35878,39.35381],[-115.35889,39.35366],[-115.35895,39.35359],[-115.35904,39.35349],[-115.35913,39.35341],[-115.35925,39.35331],[-115.35938,39.35321],[-115.35946,39.35315],[-115.35954,39.35309],[-115.35967,39.35301],[-115.35983,39.35293],[-115.35998,39.35286],[-115.36014,39.35279],[-115.36034,39.35272],[-115.36055,39.35265],[-115.36071,39.3526],[-115.36093,39.35254],[-115.36165,39.35234],[-115.36192,39.35225],[-115.36208,39.3522],[-115.36227,39.35212],[-115.36246,39.35204],[-115.36283,39.35188],[-115.36303,39.35178],[-115.36356,39.35154],[-115.36372,39.35148],[-115.36385,39.35142],[-115.36392,39.3514],[-115.36402,39.35136],[-115.36413,39.35134],[-115.36431,39.35131],[-115.3644,39.3513],[-115.36449,39.3513],[-115.36466,39.3513],[-115.3648,39.35131],[-115.36492,39.35133],[-115.36497,39.35134],[-115.36502,39.35135],[-115.36513,39.35137],[-115.36519,39.35139],[-115.36522,39.3514],[-115.36533,39.35143],[-115.36544,39.35147],[-115.36554,39.3515],[-115.36583,39.35161],[-115.36631,39.35179],[-115.3665,39.35185],[-115.36674,39.35192],[-115.36696,39.35198],[-115.36711,39.35201],[-115.36728,39.35204],[-115.36742,39.35205],[-115.36764,39.35207],[-115.36783,39.35207],[-115.36804,39.35207],[-115.36806,39.35207],[-115.36827,39.35206],[-115.36851,39.35205],[-115.36872,39.35204],[-115.37031,39.35193],[-115.37155,39.35185],[-115.37221,39.3518],[-115.37228,39.3518],[-115.37245,39.35178],[-115.37268,39.35177],[-115.37283,39.35175],[-115.37373,39.35166],[-115.37578,39.35142],[-115.37622,39.35137],[-115.37641,39.35135],[-115.37654,39.35132],[-115.37665,39.35129],[-115.37676,39.35126],[-115.37687,39.35121],[-115.377,39.35116],[-115.37718,39.35107],[-115.37728,39.35101],[-115.37738,39.35095],[-115.37746,39.35089],[-115.37758,39.35079],[-115.37769,39.35069],[-115.37777,39.35059],[-115.37786,39.35047],[-115.37795,39.35032],[-115.37802,39.3502],[-115.37804,39.35016],[-115.37811,39.35004],[-115.37811,39.35003],[-115.37818,39.34989],[-115.37824,39.34977],[-115.3783,39.34966],[-115.37836,39.34958],[-115.37844,39.3495],[-115.37853,39.34943],[-115.37855,39.34942],[-115.37863,39.34937],[-115.37873,39.34932],[-115.37883,39.34929],[-115.37896,39.34926],[-115.37908,39.34924],[-115.37924,39.34924],[-115.37939,39.34925],[-115.37954,39.34926],[-115.37969,39.34929],[-115.37986,39.34933],[-115.38012,39.34939],[-115.38047,39.34948],[-115.38085,39.34958],[-115.38112,39.34964],[-115.38136,39.34969],[-115.38157,39.34972],[-115.38175,39.34973],[-115.38197,39.34975],[-115.38229,39.34976],[-115.3826,39.34975],[-115.38279,39.34973],[-115.38296,39.34972],[-115.38314,39.34969],[-115.38333,39.34966],[-115.38352,39.34961],[-115.38373,39.34955],[-115.38395,39.34948],[-115.38412,39.34942],[-115.38431,39.34935],[-115.38446,39.34928],[-115.38463,39.34919],[-115.38485,39.34907],[-115.38502,39.34896],[-115.38556,39.34859],[-115.38582,39.3484],[-115.38595,39.3483],[-115.38604,39.34825],[-115.38615,39.34818],[-115.38626,39.34812],[-115.38638,39.34807],[-115.38647,39.34804],[-115.38652,39.34802],[-115.3866,39.348],[-115.38668,39.34798],[-115.38669,39.34798],[-115.3868,39.34796],[-115.38692,39.34795],[-115.38707,39.34795],[-115.3872,39.34796],[-115.38729,39.34797],[-115.38737,39.34798],[-115.38749,39.34801],[-115.38813,39.34814],[-115.38994,39.34851],[-115.39023,39.34858],[-115.39044,39.34863],[-115.39061,39.34868],[-115.3908,39.34874],[-115.39095,39.34881],[-115.39109,39.34886],[-115.39134,39.34899],[-115.39158,39.34913],[-115.39173,39.34924],[-115.39184,39.34932],[-115.39199,39.34945],[-115.3921,39.34957],[-115.39221,39.34969],[-115.3923,39.34979],[-115.39241,39.34993],[-115.39256,39.35017],[-115.3927,39.35038],[-115.39272,39.35041],[-115.39282,39.35057],[-115.39292,39.35073],[-115.39312,39.35107],[-115.39346,39.35163],[-115.39391,39.35236],[-115.39406,39.3526],[-115.39458,39.35345],[-115.39458,39.35345],[-115.39551,39.35338],[-115.39646,39.35334],[-115.39646,39.35334],[-115.39647,39.35324],[-115.39644,39.35317],[-115.39626,39.35287],[-115.39611,39.3527],[-115.39599,39.35255],[-115.39515,39.35156],[-115.39498,39.35138],[-115.39474,39.35103],[-115.39473,39.35102],[-115.39448,39.35074],[-115.39429,39.35052],[-115.39419,39.35032],[-115.39416,39.35026],[-115.39402,39.34992],[-115.39395,39.34975],[-115.39391,39.34966],[-115.39387,39.34949],[-115.39382,39.3494],[-115.3937,39.34919],[-115.39339,39.34856],[-115.39339,39.34856],[-115.39322,39.3482],[-115.39319,39.34813],[-115.39316,39.34805],[-115.39307,39.34785],[-115.39305,39.34779],[-115.39302,39.34763],[-115.393,39.34735],[-115.39297,39.34702],[-115.39294,39.34684],[-115.39287,39.34654],[-115.39283,39.34639],[-115.39278,39.34601],[-115.39278,39.34601],[-115.39277,39.34573],[-115.39276,39.34563],[-115.39277,39.34537],[-115.39277,39.34529],[-115.39281,39.34495],[-115.39287,39.34465],[-115.3929,39.34447],[-115.39294,39.34424],[-115.39298,39.34392],[-115.39296,39.34375],[-115.39294,39.3436],[-115.39284,39.34337],[-115.39277,39.34312],[-115.39276,39.3431],[-115.39269,39.34261],[-115.39263,39.34228],[-115.39262,39.34223],[-115.39252,39.34184],[-115.3925,39.3417],[-115.39244,39.34114],[-115.39237,39.3409],[-115.39223,39.34058],[-115.39215,39.34042],[-115.39188,39.34],[-115.39171,39.3397],[-115.39161,39.33948],[-115.39157,39.33939],[-115.39148,39.33913],[-115.39138,39.33868],[-115.39131,39.33848],[-115.39122,39.33835],[-115.39116,39.33829],[-115.39104,39.33815],[-115.39091,39.33797],[-115.39074,39.33767],[-115.39061,39.3375],[-115.39051,39.33738],[-115.39025,39.3371],[-115.39019,39.33703],[-115.38994,39.33679],[-115.38982,39.33668],[-115.3896,39.33648],[-115.38951,39.33641],[-115.38944,39.33636],[-115.38944,39.33636],[-115.38944,39.33627],[-115.38952,39.33603],[-115.38958,39.33585],[-115.38968,39.33566],[-115.38978,39.33554],[-115.38999,39.33542]]}}]}