{"type":"FeatureCollection","features":[{"type":"Feature","properties":{"_gpxType":"trk","name":"Illipah Campground, Ely, NV - Eureka Gold Country Inn, North Main Street, Eureka, NV","coordinateProperties":{},"id":94},"geometry":{"type":"LineString","coordinates":[[-115.38999,39.33542],[-115.38978,39.33554],[-115.38968,39.33566],[-115.38958,39.33585],[-115.38952,39.33603],[-115.38944,39.33627],[-115.38944,39.33636],[-115.38944,39.33636],[-115.38951,39.33641],[-115.3896,39.33648],[-115.38982,39.33668],[-115.38994,39.33679],[-115.39019,39.33703],[-115.39025,39.3371],[-115.39051,39.33738],[-115.39061,39.3375],[-115.39074,39.33767],[-115.39091,39.33797],[-115.39104,39.33815],[-115.39116,39.33829],[-115.39122,39.33835],[-115.39131,39.33848],[-115.39138,39.33868],[-115.39148,39.33913],[-115.39157,39.33939],[-115.39161,39.33948],[-115.39171,39.3397],[-115.39188,39.34],[-115.39215,39.34042],[-115.39223,39.34058],[-115.39237,39.3409],[-115.39244,39.34114],[-115.3925,39.3417],[-115.39252,39.34184],[-115.39262,39.34223],[-115.39263,39.34228],[-115.39269,39.34261],[-115.39276,39.3431],[-115.39277,39.34312],[-115.39284,39.34337],[-115.39294,39.3436],[-115.39296,39.34375],[-115.39298,39.34392],[-115.39294,39.34424],[-115.3929,39.34447],[-115.39287,39.34465],[-115.39281,39.34495],[-115.39277,39.34529],[-115.39277,39.34537],[-115.39276,39.34563],[-115.39277,39.34573],[-115.39278,39.34601],[-115.39283,39.34639],[-115.39287,39.34654],[-115.39294,39.34684],[-115.39297,39.34702],[-115.393,39.34735],[-115.39302,39.34763],[-115.39305,39.34779],[-115.39307,39.34785],[-115.39316,39.34805],[-115.39319,39.34813],[-115.39322,39.3482],[-115.39339,39.34856],[-115.3937,39.34919],[-115.39382,39.3494],[-115.39387,39.34949],[-115.39391,39.34966],[-115.39395,39.34975],[-115.39402,39.34992],[-115.39416,39.35026],[-115.39419,39.35032],[-115.39429,39.35052],[-115.39448,39.35074],[-115.39473,39.35102],[-115.39474,39.35103],[-115.39498,39.35138],[-115.39515,39.35156],[-115.39599,39.35255],[-115.39611,39.3527],[-115.39626,39.35287],[-115.39644,39.35317],[-115.39647,39.35324],[-115.39646,39.35334],[-115.39646,39.35334],[-115.39551,39.35338],[-115.39458,39.35345],[-115.39458,39.35345],[-115.39538,39.35475],[-115.39587,39.35556],[-115.39615,39.35601],[-115.39617,39.35605],[-115.39727,39.35784],[-115.39747,39.35816],[-115.39757,39.35832],[-115.39766,39.35848],[-115.39777,39.35865],[-115.39846,39.35979],[-115.39866,39.36011],[-115.39906,39.36076],[-115.39976,39.3619],[-115.40056,39.3632],[-115.40102,39.36394],[-115.40106,39.36401],[-115.40124,39.36429],[-115.40147,39.36463],[-115.40166,39.36489],[-115.40184,39.36511],[-115.40205,39.36536],[-115.40233,39.36564],[-115.40247,39.36578],[-115.40262,39.36591],[-115.40288,39.36614],[-115.40319,39.3664],[-115.4036,39.36671],[-115.40407,39.36702],[-115.4044,39.36721],[-115.40461,39.36733],[-115.40469,39.36738],[-115.40481,39.36744],[-115.40503,39.36755],[-115.40525,39.36765],[-115.40566,39.36784],[-115.406,39.36797],[-115.40633,39.3681],[-115.40679,39.36827],[-115.40694,39.36832],[-115.40714,39.3684],[-115.40744,39.36851],[-115.40772,39.36861],[-115.40824,39.36879],[-115.40894,39.36904],[-115.40903,39.36908],[-115.40993,39.36941],[-115.41092,39.36977],[-115.41114,39.36984],[-115.41304,39.37052],[-115.41398,39.37085],[-115.41421,39.37094],[-115.41442,39.37104],[-115.41457,39.37112],[-115.41474,39.37122],[-115.41484,39.37129],[-115.415,39.37139],[-115.4151,39.37148],[-115.4152,39.37156],[-115.41527,39.37162],[-115.41534,39.37168],[-115.41545,39.3718],[-115.41557,39.37193],[-115.41566,39.37205],[-115.41577,39.37222],[-115.41583,39.3723],[-115.41591,39.37242],[-115.41601,39.37259],[-115.41618,39.37286],[-115.4163,39.37305],[-115.41653,39.37344],[-115.41675,39.37379],[-115.41694,39.37409],[-115.41712,39.37437],[-115.41729,39.37462],[-115.41751,39.37494],[-115.41758,39.37504],[-115.41764,39.37512],[-115.4177,39.3752],[-115.41778,39.37531],[-115.41791,39.37548],[-115.41807,39.37568],[-115.4184,39.37606],[-115.41883,39.37652],[-115.41918,39.37687],[-115.4194,39.3771],[-115.41958,39.37726],[-115.41973,39.37739],[-115.41988,39.37752],[-115.41994,39.37757],[-115.42013,39.37772],[-115.42037,39.37791],[-115.42058,39.37808],[-115.42085,39.37828],[-115.42117,39.37852],[-115.42141,39.37871],[-115.42162,39.37887],[-115.42183,39.37903],[-115.42196,39.37914],[-115.4221,39.37923],[-115.4223,39.3794],[-115.42239,39.37948],[-115.42249,39.37958],[-115.42261,39.37971],[-115.42262,39.37973],[-115.42269,39.37982],[-115.42278,39.37993],[-115.42285,39.38004],[-115.42292,39.38014],[-115.42299,39.38026],[-115.4231,39.38044],[-115.42321,39.38063],[-115.42332,39.3808],[-115.42335,39.38085],[-115.42342,39.38095],[-115.42347,39.381],[-115.42354,39.38109],[-115.42365,39.38121],[-115.42375,39.3813],[-115.42386,39.3814],[-115.42398,39.38149],[-115.42406,39.38155],[-115.42408,39.38157],[-115.42423,39.38166],[-115.42436,39.38173],[-115.42452,39.38182],[-115.42466,39.38188],[-115.42478,39.38195],[-115.4249,39.382],[-115.42501,39.38206],[-115.42519,39.38215],[-115.42533,39.38221],[-115.42554,39.3823],[-115.42628,39.38264],[-115.42656,39.38276],[-115.42671,39.38282],[-115.4269,39.38288],[-115.42707,39.38293],[-115.42723,39.38297],[-115.42739,39.38301],[-115.42754,39.38304],[-115.42758,39.38304],[-115.42765,39.38306],[-115.42778,39.38308],[-115.42787,39.38308],[-115.42803,39.38309],[-115.42824,39.3831],[-115.42843,39.38309],[-115.42854,39.38309],[-115.42866,39.38308],[-115.42882,39.38306],[-115.42897,39.38304],[-115.42898,39.38304],[-115.42917,39.38301],[-115.42939,39.38297],[-115.4297,39.38291],[-115.4301,39.38282],[-115.43037,39.38277],[-115.43059,39.38274],[-115.43078,39.38272],[-115.43096,39.38271],[-115.43113,39.38271],[-115.43148,39.38271],[-115.43171,39.38271],[-115.43211,39.38271],[-115.43268,39.38273],[-115.43433,39.38279],[-115.43497,39.38281],[-115.4356,39.38283],[-115.43657,39.38286],[-115.43703,39.38288],[-115.43719,39.3829],[-115.43738,39.38292],[-115.43755,39.38295],[-115.43768,39.38297],[-115.43786,39.38302],[-115.43801,39.38307],[-115.43816,39.38313],[-115.43827,39.38317],[-115.43835,39.38321],[-115.43845,39.38326],[-115.4386,39.38333],[-115.43869,39.38338],[-115.43879,39.38344],[-115.439,39.38356],[-115.43921,39.38369],[-115.43957,39.38394],[-115.43986,39.38413],[-115.44009,39.38428],[-115.4404,39.38447],[-115.44053,39.38455],[-115.44072,39.38466],[-115.44083,39.38472],[-115.441,39.38481],[-115.44114,39.38487],[-115.44127,39.38493],[-115.44146,39.38501],[-115.44163,39.38508],[-115.44187,39.38517],[-115.44215,39.38528],[-115.44258,39.38544],[-115.443,39.38559],[-115.44405,39.38597],[-115.4449,39.38628],[-115.44511,39.38635],[-115.44529,39.38642],[-115.44584,39.38663],[-115.44612,39.38674],[-115.44627,39.3868],[-115.44646,39.38688],[-115.44659,39.38695],[-115.44669,39.387],[-115.44679,39.38706],[-115.4469,39.38713],[-115.447,39.38721],[-115.44711,39.38729],[-115.44723,39.38739],[-115.44725,39.3874],[-115.44741,39.38754],[-115.44778,39.38784],[-115.44788,39.38793],[-115.44814,39.38815],[-115.44837,39.38834],[-115.44864,39.38855],[-115.44879,39.38866],[-115.44894,39.38876],[-115.4491,39.38886],[-115.44939,39.38902],[-115.44954,39.38911],[-115.44975,39.3892],[-115.45021,39.3894],[-115.45074,39.38963],[-115.45135,39.38988],[-115.45164,39.39],[-115.45184,39.39009],[-115.45213,39.39021],[-115.453,39.39056],[-115.45369,39.39085],[-115.4539,39.39093],[-115.45493,39.39135],[-115.45534,39.39152],[-115.456,39.39179],[-115.45643,39.39197],[-115.45667,39.39208],[-115.4568,39.39214],[-115.45693,39.39221],[-115.45712,39.39231],[-115.45727,39.3924],[-115.45857,39.39315],[-115.45908,39.39344],[-115.4594,39.39363],[-115.46015,39.39406],[-115.46052,39.39428],[-115.46077,39.39443],[-115.46144,39.39481],[-115.46255,39.39545],[-115.46274,39.39556],[-115.46292,39.39567],[-115.46318,39.39582],[-115.4633,39.39588],[-115.46349,39.39598],[-115.46368,39.39609],[-115.46377,39.39614],[-115.46387,39.39619],[-115.46406,39.39629],[-115.46422,39.39637],[-115.46426,39.39639],[-115.46454,39.39651],[-115.46497,39.39667],[-115.46509,39.39671],[-115.4653,39.39678],[-115.46531,39.39678],[-115.46574,39.39691],[-115.46585,39.39694],[-115.46596,39.39696],[-115.46617,39.39701],[-115.46641,39.39706],[-115.46664,39.3971],[-115.46673,39.39712],[-115.46686,39.39715],[-115.46708,39.39719],[-115.46709,39.39719],[-115.46732,39.39722],[-115.46754,39.39726],[-115.4676,39.39727],[-115.46797,39.39733],[-115.468,39.39733],[-115.46823,39.39737],[-115.46835,39.39739],[-115.46874,39.39746],[-115.46913,39.39754],[-115.46926,39.39757],[-115.46953,39.39763],[-115.46958,39.39765],[-115.4698,39.39769],[-115.46983,39.3977],[-115.47014,39.39778],[-115.47024,39.39781],[-115.4704,39.39786],[-115.47046,39.39787],[-115.47068,39.39794],[-115.47081,39.39798],[-115.4709,39.398],[-115.47127,39.39812],[-115.47154,39.3982],[-115.47176,39.39827],[-115.4721,39.39836],[-115.4724,39.39844],[-115.47263,39.39847],[-115.47265,39.39848],[-115.47282,39.3985],[-115.47296,39.3985],[-115.47311,39.3985],[-115.47318,39.3985],[-115.47335,39.39848],[-115.47358,39.39845],[-115.47375,39.39841],[-115.47392,39.39836],[-115.47401,39.39833],[-115.47412,39.39829],[-115.47428,39.39823],[-115.47441,39.39816],[-115.47442,39.39816],[-115.47456,39.39809],[-115.47468,39.39801],[-115.47482,39.3979],[-115.47494,39.3978],[-115.47506,39.39769],[-115.47519,39.39757],[-115.47532,39.39746],[-115.47543,39.39735],[-115.47554,39.39725],[-115.47556,39.39723],[-115.47568,39.39714],[-115.4758,39.39702],[-115.47594,39.3969],[-115.47605,39.39679],[-115.47618,39.39668],[-115.47625,39.39661],[-115.47632,39.39655],[-115.47639,39.39649],[-115.47644,39.39644],[-115.47645,39.39644],[-115.47651,39.39638],[-115.47658,39.39633],[-115.47661,39.3963],[-115.47665,39.39627],[-115.47671,39.39622],[-115.47677,39.39618],[-115.47678,39.39617],[-115.47686,39.39612],[-115.47697,39.39604],[-115.47708,39.39598],[-115.47714,39.39594],[-115.47721,39.3959],[-115.47728,39.39586],[-115.47737,39.39581],[-115.47746,39.39576],[-115.47757,39.39571],[-115.47772,39.39565],[-115.4779,39.39558],[-115.47807,39.39552],[-115.47817,39.39549],[-115.47829,39.39545],[-115.4784,39.39542],[-115.47852,39.39539],[-115.47862,39.39537],[-115.47874,39.39535],[-115.47889,39.39533],[-115.47936,39.39526],[-115.47949,39.39524],[-115.47994,39.39517],[-115.48017,39.39513],[-115.4804,39.3951],[-115.48042,39.39509],[-115.48146,39.39494],[-115.48245,39.39479],[-115.48246,39.39479],[-115.48268,39.39475],[-115.48321,39.39466],[-115.48343,39.39463],[-115.48365,39.3946],[-115.48388,39.39457],[-115.48403,39.39455],[-115.48406,39.39454],[-115.48414,39.39454],[-115.48426,39.39453],[-115.48429,39.39453],[-115.48438,39.39453],[-115.48447,39.39453],[-115.48456,39.39454],[-115.48463,39.39454],[-115.4847,39.39455],[-115.48478,39.39456],[-115.48486,39.39457],[-115.48498,39.3946],[-115.48515,39.39464],[-115.4852,39.39466],[-115.48535,39.39471],[-115.48564,39.39481],[-115.48593,39.39491],[-115.48614,39.39497],[-115.48625,39.39499],[-115.48636,39.39501],[-115.48647,39.39503],[-115.48656,39.39503],[-115.48665,39.39502],[-115.48674,39.39502],[-115.48683,39.395],[-115.48691,39.39498],[-115.48696,39.39497],[-115.487,39.39495],[-115.48708,39.39492],[-115.48716,39.39489],[-115.48725,39.39484],[-115.48731,39.39479],[-115.48739,39.39473],[-115.48744,39.39469],[-115.4875,39.39464],[-115.4875,39.39463],[-115.48754,39.39458],[-115.48758,39.39453],[-115.48761,39.39448],[-115.48764,39.39444],[-115.48766,39.3944],[-115.48768,39.39435],[-115.48784,39.39397],[-115.48814,39.39322],[-115.48818,39.39311],[-115.48822,39.39302],[-115.48825,39.39294],[-115.4883,39.39281],[-115.48835,39.3927],[-115.48838,39.39264],[-115.48842,39.39258],[-115.48845,39.39253],[-115.48851,39.39247],[-115.48856,39.39241],[-115.48861,39.39237],[-115.48868,39.39233],[-115.48874,39.39228],[-115.48881,39.39225],[-115.48888,39.39222],[-115.4889,39.39221],[-115.48907,39.39214],[-115.4892,39.39208],[-115.48931,39.39203],[-115.48946,39.39197],[-115.48962,39.39189],[-115.48968,39.39185],[-115.48977,39.39179],[-115.48985,39.39173],[-115.4899,39.39169],[-115.49,39.39159],[-115.49007,39.3915],[-115.49013,39.3914],[-115.49016,39.39131],[-115.4902,39.3912],[-115.49026,39.39101],[-115.49032,39.3908],[-115.49037,39.39056],[-115.49042,39.39042],[-115.49043,39.39039],[-115.49047,39.39028],[-115.49051,39.3902],[-115.49054,39.39014],[-115.49058,39.39008],[-115.49062,39.39003],[-115.49067,39.38997],[-115.49074,39.38991],[-115.4908,39.38987],[-115.49086,39.38983],[-115.49094,39.38979],[-115.49099,39.38977],[-115.49104,39.38974],[-115.49113,39.38971],[-115.49123,39.38968],[-115.49131,39.38967],[-115.4914,39.38965],[-115.49146,39.38965],[-115.49151,39.38964],[-115.49156,39.38964],[-115.49158,39.38964],[-115.49163,39.38964],[-115.49169,39.38965],[-115.49176,39.38966],[-115.49181,39.38967],[-115.49184,39.38967],[-115.49195,39.38971],[-115.49204,39.38974],[-115.49215,39.38978],[-115.49223,39.38983],[-115.49231,39.38988],[-115.49245,39.38998],[-115.49256,39.39006],[-115.49257,39.39007],[-115.49265,39.39015],[-115.49272,39.39021],[-115.49281,39.39028],[-115.49303,39.39047],[-115.49334,39.39074],[-115.4935,39.39088],[-115.49382,39.39116],[-115.4939,39.39122],[-115.49398,39.39127],[-115.49402,39.3913],[-115.49414,39.39136],[-115.49426,39.39143],[-115.49439,39.39149],[-115.49448,39.39153],[-115.49457,39.39157],[-115.49467,39.3916],[-115.49474,39.39162],[-115.49478,39.39163],[-115.49483,39.39164],[-115.49489,39.39165],[-115.495,39.39168],[-115.49507,39.39169],[-115.4952,39.3917],[-115.49531,39.39171],[-115.49541,39.39171],[-115.49546,39.39171],[-115.49548,39.39171],[-115.49555,39.3917],[-115.49655,39.3916],[-115.49731,39.39152],[-115.49873,39.39137],[-115.49915,39.39133],[-115.49938,39.3913],[-115.49985,39.39125],[-115.50008,39.39123],[-115.50054,39.39118],[-115.50058,39.39118],[-115.50077,39.39116],[-115.50115,39.39112],[-115.50145,39.39109],[-115.50174,39.39108],[-115.50198,39.39107],[-115.50216,39.39108],[-115.50227,39.39108],[-115.50239,39.39109],[-115.50249,39.3911],[-115.50262,39.39111],[-115.50273,39.39111],[-115.50285,39.39113],[-115.50308,39.39115],[-115.50344,39.3912],[-115.50384,39.39125],[-115.504,39.39127],[-115.50423,39.3913],[-115.50469,39.39137],[-115.50606,39.39156],[-115.50629,39.39159],[-115.50675,39.39166],[-115.50729,39.39173],[-115.50744,39.39175],[-115.50767,39.39178],[-115.50819,39.39185],[-115.50835,39.39188],[-115.50853,39.3919],[-115.50858,39.39191],[-115.50935,39.39201],[-115.50985,39.39208],[-115.51002,39.3921],[-115.51019,39.39213],[-115.51037,39.39215],[-115.51128,39.39228],[-115.51179,39.39235],[-115.51185,39.39236],[-115.51202,39.39238],[-115.51294,39.39251],[-115.5138,39.39263],[-115.51385,39.39264],[-115.51408,39.39267],[-115.51415,39.39268],[-115.51431,39.3927],[-115.51454,39.39273],[-115.515,39.3928],[-115.51506,39.39281],[-115.51523,39.39283],[-115.51538,39.39285],[-115.51546,39.39286],[-115.51568,39.39289],[-115.51614,39.39296],[-115.51621,39.39297],[-115.51683,39.39305],[-115.51729,39.39312],[-115.51862,39.3933],[-115.51873,39.39332],[-115.51889,39.39334],[-115.51912,39.39337],[-115.52125,39.39366],[-115.52279,39.39388],[-115.52302,39.39391],[-115.52324,39.39394],[-115.52331,39.39395],[-115.52439,39.3941],[-115.52579,39.39429],[-115.52674,39.39442],[-115.52722,39.39448],[-115.52874,39.3947],[-115.52903,39.39474],[-115.52971,39.39484],[-115.52993,39.39487],[-115.53108,39.39502],[-115.53178,39.39512],[-115.53246,39.39521],[-115.53348,39.39535],[-115.53384,39.3954],[-115.5343,39.39546],[-115.53453,39.3955],[-115.53521,39.39559],[-115.53636,39.39575],[-115.53638,39.39576],[-115.53659,39.39579],[-115.53682,39.39582],[-115.53704,39.39586],[-115.53722,39.39588],[-115.53769,39.39597],[-115.53822,39.39608],[-115.53862,39.39617],[-115.53891,39.39624],[-115.53927,39.39633],[-115.53947,39.39639],[-115.53958,39.39642],[-115.5397,39.39645],[-115.53992,39.39651],[-115.54001,39.39655],[-115.5402,39.39661],[-115.54022,39.39662],[-115.54061,39.39675],[-115.54139,39.39704],[-115.5417,39.39715],[-115.54284,39.39757],[-115.54359,39.39784],[-115.5438,39.39792],[-115.54432,39.39811],[-115.54591,39.39869],[-115.54675,39.399],[-115.54683,39.39903],[-115.54696,39.39908],[-115.54759,39.39931],[-115.54927,39.39993],[-115.55095,39.40055],[-115.55116,39.40063],[-115.55137,39.40071],[-115.55221,39.40102],[-115.5529,39.40126],[-115.55499,39.40203],[-115.55541,39.40219],[-115.55793,39.40311],[-115.55857,39.40335],[-115.55878,39.40342],[-115.56003,39.40388],[-115.56004,39.40389],[-115.56025,39.40396],[-115.56193,39.40459],[-115.56214,39.40466],[-115.56331,39.4051],[-115.56529,39.40582],[-115.56603,39.40609],[-115.56619,39.40615],[-115.56723,39.40654],[-115.56735,39.40658],[-115.56787,39.40677],[-115.5685,39.407],[-115.56859,39.40703],[-115.56995,39.40753],[-115.5706,39.40777],[-115.5712,39.40799],[-115.57208,39.4083],[-115.57236,39.4084],[-115.5725,39.40845],[-115.57272,39.40852],[-115.57297,39.4086],[-115.57348,39.40876],[-115.57407,39.40893],[-115.57423,39.40898],[-115.57445,39.40904],[-115.57462,39.40908],[-115.57515,39.40921],[-115.57575,39.40934],[-115.57601,39.4094],[-115.57609,39.40941],[-115.57661,39.40952],[-115.57669,39.40953],[-115.57715,39.40961],[-115.57758,39.40968],[-115.57783,39.40972],[-115.5783,39.40978],[-115.57852,39.40981],[-115.57881,39.40985],[-115.57926,39.40991],[-115.57975,39.40998],[-115.5801,39.41002],[-115.58058,39.41009],[-115.58157,39.41022],[-115.58286,39.41039],[-115.58374,39.4105],[-115.58515,39.41069],[-115.58653,39.41087],[-115.58722,39.41096],[-115.58726,39.41097],[-115.58985,39.41131],[-115.58997,39.41133],[-115.5902,39.41136],[-115.59353,39.4118],[-115.59364,39.41182],[-115.59387,39.41185],[-115.59708,39.41227],[-115.59718,39.41228],[-115.598,39.41239],[-115.59915,39.41254],[-115.60075,39.41276],[-115.60121,39.41282],[-115.60144,39.41285],[-115.6019,39.41291],[-115.60213,39.41294],[-115.60328,39.41309],[-115.60349,39.41312],[-115.60396,39.41318],[-115.60486,39.4133],[-115.60509,39.41333],[-115.60601,39.41346],[-115.60854,39.41379],[-115.60922,39.41388],[-115.60968,39.41394],[-115.6106,39.41406],[-115.6126,39.41432],[-115.61305,39.41438],[-115.61488,39.41462],[-115.61511,39.41465],[-115.61649,39.41484],[-115.61725,39.41494],[-115.61832,39.41508],[-115.61912,39.41519],[-115.6197,39.41526],[-115.62191,39.41556],[-115.62363,39.41578],[-115.62511,39.41598],[-115.62635,39.41614],[-115.6275,39.41629],[-115.62773,39.41632],[-115.62934,39.41653],[-115.63026,39.41665],[-115.63194,39.41688],[-115.63423,39.41718],[-115.63446,39.41721],[-115.63509,39.4173],[-115.63561,39.41737],[-115.63584,39.4174],[-115.6363,39.41746],[-115.63653,39.41749],[-115.63928,39.41785],[-115.64135,39.41813],[-115.64158,39.41816],[-115.64341,39.4184],[-115.64456,39.41855],[-115.64471,39.41857],[-115.64678,39.41884],[-115.64839,39.41905],[-115.64846,39.41906],[-115.64885,39.41911],[-115.64947,39.41919],[-115.64999,39.41926],[-115.65022,39.41929],[-115.65039,39.41931],[-115.65045,39.41932],[-115.65086,39.41937],[-115.65091,39.41938],[-115.65114,39.41941],[-115.65193,39.41952],[-115.65265,39.41961],[-115.65321,39.41968],[-115.65361,39.41974],[-115.65435,39.41983],[-115.65481,39.4199],[-115.65498,39.41992],[-115.65527,39.41995],[-115.65576,39.42001],[-115.656,39.42004],[-115.65619,39.42006],[-115.65642,39.42008],[-115.65668,39.4201],[-115.65696,39.42011],[-115.65735,39.42013],[-115.65736,39.42013],[-115.65768,39.42014],[-115.65804,39.42014],[-115.6584,39.42014],[-115.65875,39.42014],[-115.65876,39.42014],[-115.65895,39.42013],[-115.65898,39.42013],[-115.65922,39.42012],[-115.65928,39.42012],[-115.65968,39.4201],[-115.65985,39.42009],[-115.66014,39.42007],[-115.66021,39.42006],[-115.66061,39.42003],[-115.66093,39.41999],[-115.66124,39.41995],[-115.66143,39.41992],[-115.66315,39.41964],[-115.66436,39.41943],[-115.66571,39.41919],[-115.66572,39.41919],[-115.66595,39.41915],[-115.66731,39.41892],[-115.66774,39.41884],[-115.66777,39.41884],[-115.66798,39.4188],[-115.66799,39.4188],[-115.66821,39.41876],[-115.66845,39.41872],[-115.66958,39.41852],[-115.67021,39.41842],[-115.67071,39.41833],[-115.67109,39.41827],[-115.67191,39.41813],[-115.67207,39.4181],[-115.67208,39.4181],[-115.67254,39.41802],[-115.67277,39.41798],[-115.67304,39.41793],[-115.6739,39.41781],[-115.67472,39.41765],[-115.67503,39.4176],[-115.67527,39.41756],[-115.67548,39.41752],[-115.67576,39.41748],[-115.67595,39.41745],[-115.67617,39.41741],[-115.67647,39.41736],[-115.67663,39.41733],[-115.6769,39.41729],[-115.67717,39.41724],[-115.67803,39.41708],[-115.67837,39.41702],[-115.6792,39.41687],[-115.67962,39.41681],[-115.67999,39.41676],[-115.68044,39.4167],[-115.68058,39.41669],[-115.68101,39.41664],[-115.6814,39.4166],[-115.68186,39.41655],[-115.68394,39.41633],[-115.68413,39.41631],[-115.68463,39.41626],[-115.68509,39.41621],[-115.68682,39.41603],[-115.6874,39.41596],[-115.68743,39.41596],[-115.68772,39.41591],[-115.688,39.41587],[-115.6883,39.41581],[-115.68852,39.41575],[-115.68877,39.41569],[-115.68896,39.41563],[-115.68922,39.41554],[-115.68939,39.41548],[-115.68961,39.41539],[-115.68986,39.41528],[-115.69,39.41521],[-115.69019,39.41512],[-115.69021,39.41511],[-115.69047,39.41497],[-115.69065,39.41486],[-115.69082,39.41476],[-115.69098,39.41466],[-115.6911,39.41456],[-115.69127,39.41444],[-115.69162,39.41414],[-115.69187,39.41391],[-115.6922,39.41358],[-115.69234,39.41345],[-115.69234,39.41344],[-115.69284,39.41296],[-115.69328,39.41252],[-115.69392,39.41187],[-115.69406,39.41174],[-115.69411,39.41168],[-115.69463,39.41117],[-115.69477,39.41103],[-115.69492,39.41089],[-115.69506,39.41074],[-115.6951,39.4107],[-115.69535,39.41046],[-115.69549,39.41032],[-115.69575,39.41006],[-115.69592,39.40989],[-115.69606,39.40975],[-115.69635,39.40947],[-115.69647,39.40934],[-115.69649,39.40933],[-115.69663,39.40918],[-115.69677,39.40904],[-115.69734,39.40847],[-115.69737,39.40844],[-115.69777,39.40804],[-115.6982,39.40762],[-115.69845,39.40736],[-115.69889,39.4069],[-115.69896,39.40682],[-115.69903,39.40675],[-115.69917,39.40659],[-115.69932,39.40644],[-115.69957,39.40615],[-115.69982,39.40586],[-115.69993,39.40574],[-115.70018,39.40545],[-115.70073,39.40482],[-115.70079,39.40475],[-115.70086,39.40467],[-115.70104,39.40447],[-115.70147,39.40397],[-115.70165,39.40378],[-115.70191,39.40348],[-115.70197,39.40341],[-115.70226,39.40309],[-115.70243,39.40288],[-115.70268,39.4026],[-115.70315,39.40206],[-115.70339,39.40178],[-115.70361,39.40154],[-115.70376,39.40139],[-115.70394,39.40122],[-115.70408,39.4011],[-115.70421,39.40099],[-115.70438,39.40087],[-115.70453,39.40077],[-115.70469,39.40067],[-115.70483,39.40059],[-115.70493,39.40054],[-115.70503,39.40048],[-115.70522,39.4004],[-115.70538,39.40033],[-115.70557,39.40025],[-115.70574,39.40019],[-115.70584,39.40016],[-115.70608,39.40009],[-115.70635,39.40002],[-115.70654,39.39998],[-115.70667,39.39996],[-115.7068,39.39994],[-115.70693,39.39993],[-115.70708,39.39992],[-115.70728,39.3999],[-115.70761,39.39988],[-115.70801,39.39986],[-115.70839,39.39983],[-115.70855,39.39982],[-115.70869,39.3998],[-115.70885,39.39978],[-115.70886,39.39978],[-115.70898,39.39976],[-115.70909,39.39974],[-115.70911,39.39973],[-115.70923,39.3997],[-115.70941,39.39966],[-115.70956,39.39961],[-115.70968,39.39956],[-115.70986,39.39949],[-115.71005,39.3994],[-115.71032,39.39926],[-115.71052,39.39916],[-115.71068,39.39907],[-115.71091,39.39895],[-115.71111,39.39885],[-115.71126,39.39876],[-115.7115,39.39863],[-115.71167,39.39854],[-115.71183,39.39846],[-115.71218,39.39827],[-115.71244,39.39814],[-115.71254,39.39808],[-115.71264,39.39804],[-115.71304,39.39788],[-115.71367,39.39762],[-115.71388,39.39754],[-115.71389,39.39754],[-115.71449,39.39729],[-115.7147,39.39721],[-115.71568,39.39681],[-115.71573,39.39679],[-115.71614,39.39662],[-115.71656,39.39646],[-115.71676,39.39637],[-115.71718,39.39621],[-115.71739,39.39612],[-115.71759,39.39604],[-115.71951,39.39527],[-115.72027,39.39496],[-115.72068,39.3948],[-115.72089,39.39471],[-115.72105,39.39465],[-115.72151,39.39446],[-115.72213,39.39421],[-115.72228,39.39415],[-115.72233,39.39413],[-115.72275,39.39396],[-115.72284,39.39392],[-115.72325,39.39376],[-115.72337,39.39372],[-115.72356,39.39366],[-115.72385,39.39357],[-115.72402,39.39352],[-115.7241,39.3935],[-115.72433,39.39345],[-115.72486,39.39335],[-115.72537,39.39326],[-115.72582,39.39318],[-115.72583,39.39318],[-115.72628,39.3931],[-115.72742,39.39291],[-115.72753,39.39289],[-115.7281,39.3928],[-115.72856,39.39272],[-115.72878,39.39268],[-115.73004,39.39247],[-115.73015,39.39245],[-115.73174,39.39218],[-115.7327,39.39201],[-115.73378,39.39183],[-115.73469,39.39168],[-115.73915,39.39092],[-115.74073,39.39065],[-115.7416,39.39051],[-115.74311,39.39025],[-115.74334,39.39022],[-115.74698,39.3896],[-115.74721,39.38956],[-115.75061,39.38898],[-115.75243,39.38867],[-115.75471,39.38829],[-115.75789,39.38774],[-115.75939,39.38747],[-115.7603,39.38732],[-115.7605,39.38729],[-115.76368,39.38676],[-115.7658,39.38638],[-115.76936,39.38578],[-115.77186,39.38536],[-115.77209,39.38532],[-115.77212,39.38531],[-115.77266,39.38522],[-115.77277,39.3852],[-115.773,39.38517],[-115.77564,39.38471],[-115.77656,39.38456],[-115.77713,39.38446],[-115.77832,39.38426],[-115.779,39.38414],[-115.77923,39.3841],[-115.77968,39.38403],[-115.77991,39.38399],[-115.78218,39.3836],[-115.78286,39.38348],[-115.78354,39.38336],[-115.78377,39.38332],[-115.78456,39.38319],[-115.78491,39.38313],[-115.78536,39.38306],[-115.78559,39.38302],[-115.78695,39.38279],[-115.78718,39.38275],[-115.7878,39.38265],[-115.78809,39.3826],[-115.78832,39.38256],[-115.78854,39.38252],[-115.79157,39.382],[-115.79672,39.38112],[-115.79866,39.38079],[-115.79946,39.38066],[-115.8007,39.38045],[-115.80516,39.37969],[-115.80666,39.37944],[-115.80912,39.37902],[-115.80929,39.37899],[-115.81171,39.37857],[-115.81373,39.37823],[-115.8144,39.37812],[-115.81782,39.37753],[-115.82208,39.37681],[-115.82336,39.37658],[-115.82451,39.37639],[-115.82473,39.37635],[-115.82674,39.37601],[-115.82814,39.37577],[-115.8286,39.37569],[-115.82919,39.37559],[-115.83019,39.37542],[-115.83314,39.37491],[-115.83405,39.37476],[-115.83519,39.37457],[-115.83541,39.37453],[-115.83564,39.37449],[-115.83933,39.37386],[-115.84183,39.37343],[-115.84206,39.37339],[-115.84281,39.37326],[-115.84563,39.37278],[-115.84647,39.37263],[-115.84829,39.37232],[-115.84961,39.37209],[-115.85116,39.37183],[-115.85229,39.37164],[-115.85252,39.3716],[-115.85388,39.37137],[-115.85441,39.37128],[-115.85457,39.37125],[-115.85593,39.37102],[-115.85616,39.37098],[-115.85742,39.37076],[-115.85956,39.3704],[-115.86005,39.37031],[-115.86047,39.37024],[-115.8607,39.3702],[-115.86274,39.36985],[-115.86672,39.36917],[-115.86789,39.36897],[-115.86808,39.36894],[-115.86836,39.36889],[-115.86854,39.36886],[-115.86885,39.36881],[-115.86923,39.36876],[-115.86971,39.3687],[-115.87006,39.36866],[-115.87071,39.36861],[-115.87134,39.36858],[-115.87182,39.36857],[-115.87246,39.36856],[-115.87328,39.3686],[-115.87353,39.36861],[-115.87477,39.36872],[-115.87529,39.36878],[-115.87591,39.36888],[-115.87625,39.36894],[-115.87669,39.36903],[-115.87714,39.36912],[-115.87737,39.36918],[-115.87759,39.36923],[-115.87772,39.36926],[-115.87815,39.36938],[-115.87843,39.36946],[-115.87881,39.36959],[-115.87954,39.36982],[-115.8806,39.37019],[-115.88153,39.37051],[-115.88227,39.37076],[-115.88241,39.37081],[-115.88385,39.3713],[-115.88482,39.37164],[-115.8861,39.37208],[-115.88631,39.37215],[-115.8869,39.37235],[-115.88822,39.37281],[-115.89028,39.37352],[-115.8917,39.374],[-115.89325,39.37453],[-115.89346,39.37461],[-115.89378,39.37472],[-115.89494,39.37512],[-115.89644,39.37564],[-115.89656,39.37568],[-115.89665,39.37571],[-115.89784,39.37612],[-115.90047,39.37703],[-115.90111,39.37724],[-115.90196,39.37754],[-115.90218,39.37761],[-115.90239,39.37768],[-115.90312,39.37794],[-115.90366,39.37812],[-115.90388,39.37819],[-115.90558,39.37877],[-115.90652,39.37911],[-115.90706,39.37929],[-115.90723,39.37935],[-115.90749,39.37944],[-115.90792,39.37958],[-115.90795,39.37959],[-115.90869,39.37984],[-115.91002,39.3803],[-115.91004,39.38031],[-115.91026,39.38038],[-115.91047,39.38046],[-115.91115,39.38069],[-115.91132,39.38075],[-115.91153,39.38082],[-115.91323,39.38141],[-115.91334,39.38145],[-115.91363,39.38155],[-115.91394,39.38165],[-115.9144,39.38182],[-115.91463,39.38191],[-115.91502,39.38208],[-115.91563,39.38235],[-115.91565,39.38236],[-115.91618,39.38262],[-115.91624,39.38266],[-115.91642,39.38276],[-115.91684,39.383],[-115.91719,39.38321],[-115.91759,39.38347],[-115.91819,39.38393],[-115.91832,39.38403],[-115.91848,39.38416],[-115.91858,39.38424],[-115.9187,39.38434],[-115.91885,39.38448],[-115.91913,39.38473],[-115.91941,39.38501],[-115.91988,39.38554],[-115.92008,39.38576],[-115.9204,39.38616],[-115.92062,39.38645],[-115.92094,39.38692],[-115.92108,39.38715],[-115.9212,39.38735],[-115.92128,39.38751],[-115.92148,39.38792],[-115.92149,39.38794],[-115.92168,39.38837],[-115.92178,39.38864],[-115.92183,39.3888],[-115.92193,39.38909],[-115.922,39.38933],[-115.92206,39.38957],[-115.92214,39.38992],[-115.9222,39.39019],[-115.92223,39.39045],[-115.92225,39.39063],[-115.92227,39.39086],[-115.9223,39.39122],[-115.92231,39.39144],[-115.92231,39.3915],[-115.92232,39.39162],[-115.92232,39.3918],[-115.92233,39.39198],[-115.92234,39.39228],[-115.92235,39.39254],[-115.92238,39.39368],[-115.92239,39.39414],[-115.92239,39.39423],[-115.92239,39.39432],[-115.92239,39.39467],[-115.92238,39.39502],[-115.92237,39.39529],[-115.92236,39.3954],[-115.92234,39.3956],[-115.92232,39.39572],[-115.92229,39.39591],[-115.92225,39.39615],[-115.92221,39.39629],[-115.92218,39.39644],[-115.92213,39.39663],[-115.92212,39.39664],[-115.92205,39.39688],[-115.92199,39.39705],[-115.92191,39.39726],[-115.92179,39.39752],[-115.92165,39.39782],[-115.92156,39.39797],[-115.92151,39.39808],[-115.92145,39.39817],[-115.92138,39.39829],[-115.92129,39.39844],[-115.92125,39.3985],[-115.92115,39.39866],[-115.92114,39.39867],[-115.92103,39.39881],[-115.9209,39.399],[-115.92056,39.3994],[-115.92037,39.39963],[-115.91978,39.40033],[-115.9194,39.40076],[-115.91887,39.40138],[-115.91872,39.40154],[-115.91853,39.40176],[-115.91839,39.40193],[-115.91827,39.40209],[-115.91813,39.4023],[-115.91801,39.40247],[-115.91793,39.40261],[-115.9179,39.40266],[-115.91782,39.40281],[-115.91775,39.40295],[-115.91765,39.40317],[-115.91758,39.40333],[-115.91753,39.40346],[-115.91747,39.40363],[-115.91742,39.40378],[-115.91741,39.4038],[-115.91738,39.40395],[-115.91735,39.4041],[-115.91732,39.40429],[-115.91732,39.40434],[-115.9173,39.40452],[-115.91729,39.4047],[-115.91729,39.40471],[-115.91728,39.40492],[-115.91729,39.40513],[-115.9173,39.40529],[-115.91731,39.40541],[-115.91733,39.40553],[-115.91734,39.40559],[-115.91735,39.40565],[-115.91737,39.40577],[-115.91738,39.40583],[-115.91748,39.4062],[-115.91751,39.40629],[-115.91753,39.40638],[-115.91758,39.40652],[-115.91762,39.40661],[-115.91768,39.40673],[-115.91772,39.40682],[-115.91777,39.40691],[-115.91784,39.40705],[-115.91809,39.40748],[-115.91809,39.40749],[-115.91847,39.40815],[-115.91884,39.40879],[-115.91926,39.40957],[-115.91964,39.41026],[-115.91982,39.41058],[-115.91988,39.4107],[-115.91994,39.41082],[-115.92002,39.41098],[-115.92008,39.41112],[-115.92009,39.41114],[-115.9202,39.41139],[-115.92028,39.41159],[-115.9203,39.41163],[-115.92036,39.41179],[-115.92036,39.41181],[-115.92043,39.41199],[-115.92047,39.41211],[-115.9205,39.41221],[-115.92055,39.41234],[-115.92058,39.41247],[-115.92061,39.41257],[-115.92065,39.41274],[-115.92068,39.41287],[-115.92071,39.41299],[-115.92075,39.41317],[-115.92078,39.41329],[-115.92079,39.41339],[-115.92081,39.41352],[-115.92083,39.41367],[-115.92085,39.4138],[-115.92087,39.41396],[-115.92089,39.41412],[-115.9209,39.41442],[-115.92091,39.41471],[-115.92091,39.41504],[-115.92091,39.41592],[-115.92089,39.41642],[-115.92085,39.41851],[-115.92084,39.41951],[-115.92083,39.41999],[-115.92081,39.42112],[-115.9208,39.42177],[-115.92078,39.42262],[-115.92076,39.42351],[-115.92075,39.42424],[-115.92074,39.42441],[-115.92074,39.42459],[-115.92073,39.42469],[-115.92073,39.42477],[-115.92071,39.42524],[-115.92067,39.42583],[-115.92063,39.42624],[-115.92059,39.42671],[-115.92054,39.42705],[-115.92051,39.42732],[-115.92044,39.42783],[-115.92042,39.42802],[-115.92038,39.42836],[-115.92034,39.42868],[-115.92031,39.42891],[-115.92027,39.42922],[-115.92025,39.42949],[-115.92023,39.4298],[-115.92023,39.43016],[-115.92025,39.43047],[-115.92028,39.43071],[-115.92031,39.43092],[-115.92039,39.43141],[-115.92047,39.43168],[-115.92056,39.43198],[-115.92058,39.43205],[-115.92071,39.43238],[-115.92086,39.43275],[-115.92105,39.43313],[-115.92117,39.43333],[-115.92122,39.43342],[-115.92127,39.43349],[-115.92135,39.43362],[-115.9215,39.43385],[-115.92174,39.43417],[-115.92196,39.43444],[-115.92215,39.43466],[-115.92239,39.4349],[-115.92259,39.4351],[-115.92284,39.43534],[-115.92303,39.4355],[-115.92325,39.43569],[-115.92342,39.43583],[-115.92358,39.43594],[-115.92359,39.43595],[-115.92421,39.43643],[-115.92425,39.43646],[-115.92442,39.43658],[-115.92524,39.43722],[-115.92541,39.43734],[-115.92596,39.43777],[-115.92634,39.43805],[-115.9266,39.43827],[-115.9268,39.43842],[-115.92689,39.43849],[-115.92699,39.43858],[-115.92735,39.43889],[-115.9275,39.43903],[-115.92756,39.43909],[-115.92774,39.43926],[-115.92803,39.43955],[-115.92822,39.43974],[-115.9284,39.43992],[-115.92892,39.44047],[-115.92911,39.44069],[-115.92928,39.44089],[-115.92945,39.4411],[-115.92961,39.4413],[-115.92978,39.44152],[-115.92995,39.44174],[-115.93025,39.44216],[-115.93026,39.44217],[-115.93037,39.44231],[-115.93048,39.44247],[-115.93064,39.4427],[-115.93082,39.44299],[-115.93101,39.4433],[-115.93129,39.44378],[-115.93154,39.44422],[-115.9318,39.44472],[-115.93187,39.44486],[-115.93193,39.445],[-115.93206,39.44531],[-115.93216,39.44557],[-115.93248,39.44637],[-115.93278,39.44712],[-115.93293,39.44747],[-115.9333,39.44839],[-115.93334,39.44849],[-115.93341,39.44865],[-115.93349,39.44883],[-115.93352,39.44892],[-115.93372,39.44935],[-115.93379,39.44951],[-115.93387,39.44968],[-115.9339,39.44975],[-115.9341,39.45016],[-115.93419,39.45036],[-115.93427,39.45053],[-115.93438,39.45075],[-115.93454,39.45108],[-115.9347,39.45135],[-115.93471,39.45136],[-115.93481,39.45152],[-115.93493,39.45172],[-115.93531,39.45234],[-115.93533,39.45237],[-115.93541,39.4525],[-115.93592,39.4533],[-115.93603,39.45346],[-115.93604,39.45348],[-115.93657,39.4543],[-115.93708,39.4551],[-115.93717,39.45525],[-115.93718,39.45526],[-115.93778,39.45618],[-115.93906,39.45824],[-115.93962,39.45915],[-115.93972,39.45931],[-115.94009,39.4599],[-115.94023,39.46012],[-115.94043,39.46045],[-115.94079,39.46098],[-115.94161,39.46217],[-115.9419,39.46255],[-115.94221,39.46293],[-115.94265,39.46348],[-115.94297,39.46388],[-115.94309,39.46403],[-115.94368,39.46477],[-115.94401,39.46517],[-115.94432,39.46554],[-115.94454,39.46583],[-115.94465,39.46599],[-115.94467,39.46603],[-115.94472,39.46611],[-115.94477,39.46619],[-115.94483,39.46629],[-115.94498,39.46657],[-115.94511,39.46686],[-115.94521,39.46712],[-115.94528,39.46731],[-115.94535,39.46755],[-115.9454,39.46778],[-115.94543,39.46803],[-115.94545,39.46828],[-115.94546,39.4686],[-115.94548,39.46889],[-115.94548,39.46899],[-115.94548,39.46925],[-115.94548,39.4695],[-115.94549,39.46961],[-115.9455,39.47001],[-115.9455,39.47023],[-115.9455,39.47051],[-115.9455,39.47059],[-115.9455,39.47069],[-115.94551,39.471],[-115.94551,39.47105],[-115.94553,39.47136],[-115.94554,39.4719],[-115.94554,39.47213],[-115.94554,39.4722],[-115.94552,39.47261],[-115.94547,39.47305],[-115.94545,39.4732],[-115.94545,39.47323],[-115.94542,39.47335],[-115.94538,39.47348],[-115.94534,39.47363],[-115.94526,39.47385],[-115.94518,39.47406],[-115.94511,39.47426],[-115.94502,39.47445],[-115.94489,39.47472],[-115.94478,39.47499],[-115.94467,39.47528],[-115.94459,39.47544],[-115.94454,39.47556],[-115.9444,39.4759],[-115.94421,39.47634],[-115.94408,39.47664],[-115.94397,39.47687],[-115.94387,39.47714],[-115.94377,39.47737],[-115.94373,39.4775],[-115.9437,39.47758],[-115.94364,39.47775],[-115.94357,39.47798],[-115.94352,39.47819],[-115.94349,39.47836],[-115.94347,39.47854],[-115.94346,39.47885],[-115.94345,39.47919],[-115.94347,39.4795],[-115.9435,39.47973],[-115.94355,39.47999],[-115.94361,39.48027],[-115.94367,39.48044],[-115.94378,39.48072],[-115.94393,39.48102],[-115.94414,39.48138],[-115.94436,39.48172],[-115.9445,39.48191],[-115.94467,39.48213],[-115.94482,39.48231],[-115.94488,39.48238],[-115.94495,39.48246],[-115.94517,39.48273],[-115.9452,39.48276],[-115.94595,39.48364],[-115.94647,39.48426],[-115.94684,39.48472],[-115.94778,39.48592],[-115.94798,39.4862],[-115.94808,39.48635],[-115.94816,39.48649],[-115.94824,39.48666],[-115.9483,39.48681],[-115.94839,39.48706],[-115.94844,39.48722],[-115.94852,39.48746],[-115.9486,39.48769],[-115.94873,39.48809],[-115.94887,39.4885],[-115.94899,39.48883],[-115.94916,39.48925],[-115.94919,39.48931],[-115.94926,39.48947],[-115.94935,39.48965],[-115.94942,39.48976],[-115.94949,39.48988],[-115.94956,39.48999],[-115.94965,39.49011],[-115.94975,39.49022],[-115.94987,39.49036],[-115.95017,39.49065],[-115.95042,39.49088],[-115.95066,39.49109],[-115.95089,39.49126],[-115.95107,39.49139],[-115.95124,39.4915],[-115.95146,39.49163],[-115.95169,39.49175],[-115.95194,39.4919],[-115.95222,39.49206],[-115.95243,39.49217],[-115.95262,39.49227],[-115.95454,39.49329],[-115.95485,39.49345],[-115.9551,39.49359],[-115.95525,39.49368],[-115.95538,39.49376],[-115.95549,39.49383],[-115.95565,39.49395],[-115.95574,39.49401],[-115.95582,39.49407],[-115.95606,39.49424],[-115.95629,39.49443],[-115.95645,39.49456],[-115.95658,39.49469],[-115.95678,39.49489],[-115.95693,39.49507],[-115.9571,39.49527],[-115.95722,39.49543],[-115.95725,39.49548],[-115.9573,39.49556],[-115.95742,39.49574],[-115.95751,39.49589],[-115.95761,39.49611],[-115.95771,39.49632],[-115.95777,39.49645],[-115.95784,39.49663],[-115.9579,39.49682],[-115.95791,39.49685],[-115.95798,39.49709],[-115.95805,39.49736],[-115.95813,39.4977],[-115.9583,39.49841],[-115.9583,39.49844],[-115.95834,39.49859],[-115.95847,39.49917],[-115.95864,39.49989],[-115.95885,39.50091],[-115.95911,39.50204],[-115.95915,39.50222],[-115.95927,39.50275],[-115.95947,39.50363],[-115.95954,39.50399],[-115.9596,39.50426],[-115.95968,39.5047],[-115.95971,39.50488],[-115.95978,39.50536],[-115.95981,39.50555],[-115.95984,39.50605],[-115.95986,39.50676],[-115.95987,39.50721],[-115.95996,39.50773],[-115.96001,39.50811],[-115.96014,39.50886],[-115.9603,39.50959],[-115.96044,39.51032],[-115.96057,39.51099],[-115.96071,39.51172],[-115.9609,39.51249],[-115.96106,39.51289],[-115.96113,39.51306],[-115.96134,39.51358],[-115.96141,39.51374],[-115.96161,39.51426],[-115.96175,39.5146],[-115.96182,39.51477],[-115.96189,39.51494],[-115.96196,39.51511]]}}]}