{"type":"FeatureCollection","features":[{"type":"Feature","properties":{"_gpxType":"trk","name":"Eureka Gold Country Inn, North Main Street, Eureka, NV - Cozy Mountain Motel, Main Street, Austin, NV","coordinateProperties":{},"id":95},"geometry":{"type":"LineString","coordinates":[[-115.96196,39.51511],[-115.96196,39.51512],[-115.96216,39.51563],[-115.96239,39.51614],[-115.96256,39.51655],[-115.96279,39.51711],[-115.96294,39.51745],[-115.96325,39.51822],[-115.96361,39.51908],[-115.96368,39.51925],[-115.96376,39.51942],[-115.96377,39.51945],[-115.96397,39.51993],[-115.96404,39.5201],[-115.96426,39.52062],[-115.96427,39.52064],[-115.96433,39.52079],[-115.96455,39.5213],[-115.9647,39.52164],[-115.96484,39.52198],[-115.96491,39.52216],[-115.96509,39.52259],[-115.96531,39.52311],[-115.96559,39.52379],[-115.96565,39.52392],[-115.96566,39.52396],[-115.96568,39.52399],[-115.96571,39.52408],[-115.96597,39.5247],[-115.96609,39.52499],[-115.96614,39.5251],[-115.96616,39.52516],[-115.96617,39.52519],[-115.9663,39.5255],[-115.96658,39.52619],[-115.9666,39.52624],[-115.96664,39.52632],[-115.96665,39.52636],[-115.96672,39.52653],[-115.96685,39.52684],[-115.96712,39.52752],[-115.96763,39.5287],[-115.96792,39.52945],[-115.96816,39.53],[-115.96832,39.53039],[-115.96833,39.53041],[-115.96859,39.53104],[-115.96876,39.53142],[-115.96877,39.53144],[-115.96898,39.53188],[-115.96921,39.53236],[-115.96965,39.53305],[-115.96968,39.5331],[-115.96985,39.53338],[-115.9701,39.5338],[-115.97031,39.53415],[-115.97067,39.53469],[-115.97069,39.53472],[-115.97134,39.53571],[-115.97203,39.53674],[-115.9724,39.53732],[-115.97248,39.53744],[-115.9728,39.53792],[-115.97291,39.53808],[-115.97402,39.53975],[-115.97464,39.54066],[-115.97514,39.54142],[-115.97541,39.54182],[-115.97546,39.54188],[-115.97549,39.54194],[-115.97563,39.54213],[-115.97567,39.54218],[-115.97584,39.54242],[-115.97624,39.54292],[-115.97646,39.54318],[-115.97658,39.54332],[-115.97679,39.54355],[-115.97725,39.54403],[-115.97752,39.5443],[-115.97785,39.54462],[-115.97812,39.54487],[-115.9785,39.5452],[-115.97866,39.54534],[-115.97911,39.54568],[-115.97915,39.54572],[-115.97927,39.54581],[-115.97943,39.54594],[-115.97954,39.54602],[-115.9796,39.54607],[-115.9801,39.54645],[-115.98015,39.54649],[-115.98026,39.54657],[-115.98115,39.54726],[-115.98141,39.54747],[-115.98158,39.54759],[-115.9824,39.54823],[-115.98333,39.54896],[-115.9835,39.54908],[-115.98366,39.54921],[-115.98422,39.54965],[-115.98445,39.54983],[-115.98465,39.54997],[-115.98529,39.55047],[-115.98547,39.55061],[-115.9858,39.55087],[-115.98606,39.55107],[-115.98621,39.55118],[-115.9863,39.55125],[-115.98646,39.55138],[-115.98663,39.5515],[-115.98695,39.55175],[-115.98729,39.55201],[-115.98807,39.55259],[-115.98846,39.55287],[-115.98884,39.55312],[-115.98905,39.55325],[-115.98951,39.55352],[-115.98966,39.55361],[-115.98986,39.55371],[-115.99068,39.5541],[-115.99092,39.5542],[-115.99115,39.5543],[-115.99149,39.55442],[-115.9917,39.5545],[-115.99192,39.55457],[-115.9923,39.5547],[-115.99262,39.5548],[-115.99279,39.55485],[-115.99357,39.55507],[-115.99465,39.55539],[-115.99521,39.55555],[-115.99863,39.5565],[-115.99929,39.55669],[-116.00078,39.55711],[-116.0017,39.55736],[-116.00171,39.55737],[-116.00191,39.55743],[-116.00213,39.55749],[-116.00261,39.55763],[-116.00279,39.55768],[-116.00301,39.55774],[-116.00374,39.55794],[-116.0041,39.55805],[-116.00432,39.55811],[-116.00454,39.55817],[-116.00492,39.55828],[-116.00539,39.55841],[-116.00586,39.55854],[-116.00598,39.55857],[-116.00654,39.55874],[-116.00695,39.55885],[-116.00701,39.55887],[-116.00717,39.55892],[-116.00761,39.55904],[-116.00818,39.55921],[-116.00853,39.5593],[-116.00924,39.5595],[-116.00936,39.55953],[-116.00967,39.55962],[-116.01025,39.55978],[-116.01111,39.56002],[-116.01155,39.56014],[-116.01193,39.56025],[-116.01199,39.56027],[-116.01221,39.56033],[-116.01331,39.56064],[-116.01406,39.56085],[-116.01542,39.56124],[-116.01722,39.56175],[-116.01769,39.56188],[-116.0178,39.56191],[-116.0183,39.56205],[-116.01922,39.56231],[-116.01991,39.56251],[-116.02146,39.56294],[-116.02242,39.56321],[-116.02398,39.56365],[-116.02479,39.56388],[-116.02661,39.5644],[-116.02747,39.56464],[-116.02788,39.56476],[-116.0286,39.56496],[-116.02972,39.56527],[-116.03064,39.56553],[-116.03102,39.56564],[-116.03123,39.5657],[-116.03234,39.56601],[-116.03327,39.56628],[-116.03364,39.56638],[-116.03379,39.56642],[-116.03502,39.56676],[-116.03695,39.56731],[-116.03705,39.56734],[-116.03712,39.56736],[-116.03734,39.56742],[-116.03826,39.56767],[-116.03892,39.56787],[-116.03985,39.56813],[-116.04019,39.56822],[-116.04024,39.56823],[-116.04041,39.56827],[-116.04046,39.56828],[-116.04086,39.56839],[-116.04163,39.56861],[-116.04353,39.56913],[-116.0459,39.56981],[-116.04658,39.57],[-116.04699,39.57012],[-116.04725,39.57019],[-116.04747,39.57025],[-116.04787,39.57036],[-116.0486,39.57057],[-116.04875,39.57061],[-116.04879,39.57062],[-116.04901,39.57069],[-116.04978,39.5709],[-116.0505,39.57111],[-116.05054,39.57112],[-116.05071,39.57117],[-116.05096,39.57124],[-116.05313,39.57185],[-116.05357,39.57197],[-116.05361,39.57198],[-116.05363,39.57199],[-116.05439,39.5722],[-116.05751,39.57308],[-116.05755,39.57309],[-116.05777,39.57316],[-116.05821,39.57328],[-116.05874,39.57342],[-116.059,39.57348],[-116.05905,39.57349],[-116.05938,39.57356],[-116.05981,39.57365],[-116.06024,39.57372],[-116.06061,39.57377],[-116.06064,39.57378],[-116.06069,39.57378],[-116.06109,39.57384],[-116.06155,39.57388],[-116.06193,39.57391],[-116.06203,39.57391],[-116.06208,39.57392],[-116.06227,39.57393],[-116.06237,39.57393],[-116.06303,39.57395],[-116.06344,39.57395],[-116.06386,39.57393],[-116.06417,39.57392],[-116.06448,39.5739],[-116.06523,39.57382],[-116.0657,39.57376],[-116.06641,39.57364],[-116.06707,39.5735],[-116.07065,39.57272],[-116.07107,39.57264],[-116.07157,39.57256],[-116.07185,39.57252],[-116.0725,39.57246],[-116.07292,39.57244],[-116.07325,39.57243],[-116.07394,39.57244],[-116.07447,39.57247],[-116.07494,39.57251],[-116.07565,39.5726],[-116.07608,39.57268],[-116.07629,39.57273],[-116.07643,39.57276],[-116.07652,39.57278],[-116.07653,39.57278],[-116.07687,39.57286],[-116.07718,39.57295],[-116.07735,39.573],[-116.07747,39.57303],[-116.07765,39.57309],[-116.07805,39.57324],[-116.07832,39.57334],[-116.07869,39.57349],[-116.07989,39.57399],[-116.0801,39.57408],[-116.08096,39.57443],[-116.08125,39.57457],[-116.08191,39.57484],[-116.08234,39.57502],[-116.08283,39.57522],[-116.08333,39.57543],[-116.08389,39.57566],[-116.08423,39.5758],[-116.08424,39.57581],[-116.08464,39.57597],[-116.08511,39.57616],[-116.08545,39.5763],[-116.08581,39.57645],[-116.08625,39.57663],[-116.08644,39.57672],[-116.08657,39.57677],[-116.08737,39.5771],[-116.08853,39.57759],[-116.08856,39.5776],[-116.08873,39.57767],[-116.08876,39.57768],[-116.08998,39.5782],[-116.09049,39.57841],[-116.09058,39.57844],[-116.09061,39.57845],[-116.09079,39.57853],[-116.09258,39.57927],[-116.09284,39.57938],[-116.09371,39.57974],[-116.09428,39.57998],[-116.09527,39.58038],[-116.09603,39.5807],[-116.0963,39.58081],[-116.09725,39.58121],[-116.09976,39.58225],[-116.10007,39.58237],[-116.10075,39.58262],[-116.10146,39.58287],[-116.10184,39.58298],[-116.1026,39.5832],[-116.10293,39.58328],[-116.10357,39.58341],[-116.1039,39.58348],[-116.10441,39.58357],[-116.10469,39.58361],[-116.10494,39.58365],[-116.10524,39.58369],[-116.10577,39.58375],[-116.10622,39.58379],[-116.10638,39.58381],[-116.10656,39.58382],[-116.1068,39.58383],[-116.10693,39.58384],[-116.10761,39.58385],[-116.10809,39.58386],[-116.10901,39.58387],[-116.10934,39.58387],[-116.11229,39.5839],[-116.11252,39.58391],[-116.11395,39.58391],[-116.116,39.58393],[-116.11799,39.58394],[-116.11811,39.58395],[-116.11834,39.58395],[-116.11927,39.58396],[-116.12043,39.58397],[-116.12137,39.58398],[-116.12214,39.58399],[-116.12296,39.58399],[-116.12366,39.58399],[-116.12453,39.58397],[-116.12486,39.58397],[-116.12529,39.58394],[-116.12592,39.5839],[-116.12642,39.58387],[-116.12716,39.5838],[-116.12763,39.58376],[-116.12847,39.58366],[-116.12943,39.58354],[-116.12998,39.58345],[-116.13067,39.58334],[-116.13117,39.58325],[-116.13206,39.58307],[-116.13296,39.58289],[-116.13313,39.58286],[-116.13375,39.58274],[-116.13555,39.58237],[-116.13607,39.58227],[-116.13623,39.58224],[-116.13646,39.58219],[-116.1366,39.58216],[-116.13789,39.5819],[-116.13881,39.58172],[-116.14036,39.5814],[-116.14104,39.58126],[-116.14193,39.58109],[-116.14326,39.58082],[-116.14531,39.5804],[-116.1454,39.58038],[-116.14631,39.5802],[-116.14643,39.58018],[-116.14653,39.58016],[-116.14704,39.58005],[-116.14969,39.57952],[-116.15011,39.57943],[-116.15146,39.57916],[-116.15256,39.57895],[-116.15466,39.57853],[-116.15685,39.57808],[-116.15715,39.57802],[-116.15828,39.57779],[-116.16053,39.57734],[-116.16402,39.57663],[-116.16655,39.57612],[-116.1688,39.57566],[-116.16903,39.57562],[-116.17061,39.57529],[-116.17068,39.57528],[-116.17083,39.57525],[-116.17189,39.57504],[-116.17196,39.57502],[-116.17219,39.57498],[-116.17299,39.57481],[-116.17412,39.57459],[-116.17535,39.57435],[-116.17607,39.5742],[-116.17675,39.57406],[-116.17698,39.57402],[-116.17751,39.57391],[-116.17871,39.57366],[-116.17913,39.57357],[-116.17966,39.57345],[-116.18033,39.57329],[-116.1809,39.57314],[-116.18137,39.57302],[-116.1822,39.57278],[-116.18252,39.57268],[-116.18303,39.57252],[-116.1837,39.5723],[-116.18412,39.57215],[-116.18434,39.57208],[-116.1847,39.57196],[-116.18565,39.57163],[-116.18702,39.57116],[-116.18747,39.571],[-116.1886,39.57062],[-116.18942,39.57033],[-116.19026,39.57003],[-116.19051,39.56995],[-116.19072,39.56987],[-116.1921,39.56941],[-116.19222,39.56936],[-116.19337,39.56897],[-116.19566,39.56818],[-116.19616,39.56801],[-116.19646,39.5679],[-116.19738,39.56756],[-116.1981,39.56727],[-116.1988,39.56698],[-116.20044,39.56633],[-116.20106,39.56608],[-116.20107,39.56607],[-116.20203,39.56568],[-116.2025,39.56549],[-116.20274,39.56539],[-116.20292,39.56532],[-116.20313,39.56524],[-116.20328,39.56518],[-116.20419,39.56481],[-116.20499,39.56449],[-116.20591,39.56412],[-116.20644,39.56391],[-116.20664,39.56383],[-116.20685,39.56375],[-116.20706,39.56366],[-116.20747,39.5635],[-116.20755,39.56346],[-116.20768,39.56341],[-116.20789,39.56333],[-116.20809,39.56325],[-116.21066,39.56222],[-116.21161,39.56184],[-116.21182,39.56175],[-116.21203,39.56167],[-116.21265,39.56142],[-116.21288,39.56132],[-116.21306,39.56125],[-116.21327,39.56117],[-116.21406,39.56085],[-116.21409,39.56084],[-116.21496,39.56049],[-116.21513,39.56042],[-116.21564,39.56022],[-116.21689,39.55971],[-116.21802,39.55925],[-116.21889,39.55891],[-116.21913,39.55881],[-116.21967,39.5586],[-116.21992,39.55849],[-116.22004,39.55845],[-116.22025,39.55836],[-116.22066,39.5582],[-116.22087,39.55812],[-116.22107,39.55803],[-116.22142,39.55789],[-116.22169,39.55778],[-116.2219,39.5577],[-116.22294,39.55728],[-116.22438,39.5567],[-116.22498,39.55646],[-116.22607,39.55603],[-116.22715,39.55559],[-116.22749,39.55546],[-116.22832,39.55513],[-116.22873,39.55496],[-116.22956,39.55463],[-116.22977,39.55454],[-116.22997,39.55446],[-116.23015,39.55439],[-116.23126,39.55395],[-116.23163,39.5538],[-116.2325,39.55345],[-116.23333,39.55312],[-116.23413,39.55279],[-116.23453,39.55264],[-116.23479,39.55255],[-116.23562,39.55225],[-116.23694,39.55182],[-116.23709,39.55177],[-116.23807,39.55149],[-116.23914,39.55119],[-116.24044,39.55085],[-116.24061,39.55081],[-116.24246,39.55032],[-116.2436,39.55002],[-116.24463,39.54976],[-116.24679,39.54919],[-116.24683,39.54917],[-116.24723,39.54907],[-116.24869,39.54869],[-116.25063,39.54818],[-116.25233,39.54773],[-116.25418,39.54725],[-116.2543,39.54722],[-116.25501,39.54703],[-116.25584,39.54681],[-116.25606,39.54675],[-116.25629,39.54669],[-116.25685,39.54654],[-116.25859,39.54608],[-116.25964,39.54581],[-116.26041,39.54561],[-116.26213,39.54516],[-116.26338,39.54483],[-116.26473,39.54447],[-116.26569,39.54422],[-116.26664,39.54397],[-116.26766,39.54371],[-116.2687,39.54343],[-116.26981,39.54314],[-116.27156,39.54269],[-116.27258,39.54242],[-116.27428,39.54197],[-116.27614,39.54148],[-116.27733,39.54117],[-116.27805,39.54098],[-116.27926,39.54066],[-116.28028,39.5404],[-116.28263,39.53978],[-116.28293,39.53971],[-116.28358,39.53953],[-116.28439,39.53932],[-116.28774,39.53844],[-116.28915,39.53806],[-116.29198,39.53733],[-116.29234,39.53723],[-116.29256,39.53717],[-116.2959,39.53629],[-116.29761,39.53584],[-116.29908,39.53546],[-116.29985,39.53526],[-116.30158,39.5348],[-116.30384,39.53421],[-116.30614,39.5336],[-116.31074,39.5324],[-116.31155,39.53218],[-116.31238,39.53196],[-116.31315,39.53176],[-116.31424,39.53148],[-116.31496,39.53129],[-116.31563,39.53111],[-116.31613,39.53099],[-116.31663,39.53087],[-116.31763,39.53066],[-116.31808,39.53057],[-116.31829,39.53053],[-116.31901,39.53041],[-116.31975,39.53028],[-116.32095,39.53007],[-116.32171,39.52993],[-116.32292,39.52972],[-116.32434,39.52947],[-116.32506,39.52934],[-116.32655,39.52909],[-116.32756,39.52891],[-116.32867,39.52871],[-116.32917,39.52862],[-116.33009,39.52847],[-116.33109,39.52829],[-116.33198,39.52813],[-116.33345,39.52788],[-116.33476,39.52765],[-116.33581,39.52746],[-116.33735,39.52719],[-116.33838,39.52701],[-116.33909,39.52688],[-116.33932,39.52684],[-116.34079,39.52659],[-116.34091,39.52657],[-116.34332,39.52614],[-116.34595,39.52568],[-116.34842,39.52525],[-116.34864,39.52521],[-116.34887,39.52517],[-116.34973,39.52502],[-116.35144,39.52472],[-116.35427,39.52422],[-116.35634,39.52386],[-116.35842,39.52349],[-116.35911,39.52338],[-116.36171,39.52291],[-116.36214,39.52284],[-116.36314,39.52267],[-116.36468,39.52239],[-116.36595,39.52218],[-116.36829,39.52176],[-116.37029,39.52141],[-116.37045,39.52138],[-116.37276,39.52098],[-116.37515,39.52056],[-116.37684,39.52026],[-116.37807,39.52005],[-116.37967,39.51977],[-116.38068,39.51959],[-116.38204,39.51935],[-116.38608,39.51864],[-116.38894,39.51814],[-116.39152,39.51769],[-116.39175,39.51765],[-116.39334,39.51737],[-116.39993,39.51621],[-116.40016,39.51617],[-116.40175,39.51589],[-116.40243,39.51577],[-116.4038,39.51553],[-116.40539,39.51526],[-116.40675,39.51502],[-116.40744,39.5149],[-116.40903,39.51462],[-116.40925,39.51458],[-116.41562,39.51346],[-116.41939,39.5128],[-116.42903,39.5111],[-116.43585,39.50991],[-116.43608,39.50987],[-116.43676,39.50975],[-116.44858,39.50767],[-116.45153,39.50715],[-116.45469,39.50659],[-116.45538,39.50647],[-116.4562,39.50631],[-116.46022,39.50562],[-116.46196,39.50531],[-116.46241,39.50523],[-116.46449,39.50486],[-116.4656,39.50467],[-116.46628,39.50455],[-116.46678,39.50446],[-116.46923,39.50403],[-116.46946,39.50399],[-116.47312,39.50335],[-116.47358,39.50326],[-116.47398,39.50319],[-116.47499,39.50301],[-116.48198,39.50178],[-116.48757,39.50079],[-116.49035,39.50031],[-116.49057,39.50027],[-116.49231,39.49996],[-116.49361,39.49973],[-116.49792,39.49896],[-116.49997,39.4986],[-116.50361,39.49796],[-116.50828,39.49714],[-116.51646,39.49569],[-116.52329,39.49448],[-116.52441,39.49429],[-116.52676,39.49387],[-116.53238,39.49288],[-116.53413,39.49257],[-116.54367,39.49088],[-116.54435,39.49076],[-116.54629,39.49042],[-116.55188,39.48943],[-116.55208,39.4894],[-116.55276,39.48928],[-116.55576,39.48875],[-116.56003,39.48799],[-116.56025,39.48795],[-116.56048,39.48791],[-116.563,39.48746],[-116.56502,39.48711],[-116.56525,39.48707],[-116.56568,39.48699],[-116.56593,39.48695],[-116.56782,39.48661],[-116.57135,39.48599],[-116.57138,39.48598],[-116.5732,39.48566],[-116.57933,39.48457],[-116.5914,39.48243],[-116.59286,39.48217],[-116.59545,39.48172],[-116.59686,39.48147],[-116.5978,39.4813],[-116.59876,39.48113],[-116.60013,39.48088],[-116.6015,39.48065],[-116.60164,39.48062],[-116.6029,39.4804],[-116.60898,39.47932],[-116.60921,39.47928],[-116.60997,39.47914],[-116.61216,39.47875],[-116.61462,39.47832],[-116.61485,39.47828],[-116.61594,39.47808],[-116.61791,39.47773],[-116.62022,39.47732],[-116.6212,39.47715],[-116.62257,39.47691],[-116.62279,39.47686],[-116.62349,39.47674],[-116.62618,39.47627],[-116.62915,39.47574],[-116.63012,39.47556],[-116.63029,39.47553],[-116.63392,39.47489],[-116.63505,39.47469],[-116.64363,39.47316],[-116.64588,39.47276],[-116.65264,39.47156],[-116.66118,39.47004],[-116.66594,39.46919],[-116.66961,39.46854],[-116.66978,39.46851],[-116.67341,39.46786],[-116.67676,39.46726],[-116.67699,39.46722],[-116.67835,39.46698],[-116.67953,39.46677],[-116.68376,39.46602],[-116.68879,39.46512],[-116.68925,39.46504],[-116.69038,39.46484],[-116.6922,39.46452],[-116.69356,39.46428],[-116.69599,39.46384],[-116.69765,39.46355],[-116.69787,39.46351],[-116.70264,39.46266],[-116.70378,39.46245],[-116.70605,39.46205],[-116.71128,39.46112],[-116.714,39.46063],[-116.71446,39.46055],[-116.71605,39.46027],[-116.71786,39.45994],[-116.71836,39.45985],[-116.71878,39.45977],[-116.71912,39.45971],[-116.71931,39.45967],[-116.71954,39.45962],[-116.71972,39.45957],[-116.71985,39.45954],[-116.71993,39.45952],[-116.72007,39.45948],[-116.7202,39.45945],[-116.72033,39.45941],[-116.7205,39.45936],[-116.72062,39.45933],[-116.72076,39.45928],[-116.72114,39.45916],[-116.72144,39.45905],[-116.72167,39.45897],[-116.72178,39.45893],[-116.72187,39.45889],[-116.72208,39.45881],[-116.72227,39.45873],[-116.72236,39.45869],[-116.72251,39.45863],[-116.72277,39.45851],[-116.7228,39.45849],[-116.7232,39.45829],[-116.72379,39.458],[-116.72398,39.45791],[-116.72497,39.45743],[-116.72556,39.45714],[-116.72614,39.45685],[-116.72791,39.45598],[-116.72811,39.45588],[-116.73224,39.45385],[-116.73278,39.45359],[-116.73379,39.45309],[-116.73381,39.45308],[-116.734,39.45298],[-116.73403,39.45296],[-116.73421,39.45287],[-116.73431,39.45281],[-116.73449,39.4527],[-116.73461,39.45263],[-116.73472,39.45255],[-116.73483,39.45247],[-116.73499,39.45236],[-116.73514,39.45223],[-116.73534,39.45207],[-116.73554,39.45189],[-116.73565,39.45178],[-116.73582,39.4516],[-116.73593,39.45148],[-116.73595,39.45145],[-116.73602,39.45138],[-116.7361,39.45127],[-116.73621,39.45113],[-116.73629,39.45103],[-116.73634,39.45094],[-116.73641,39.45083],[-116.73642,39.45082],[-116.73651,39.45066],[-116.73671,39.45033],[-116.7368,39.45017],[-116.73749,39.44898],[-116.7377,39.44862],[-116.73792,39.44824],[-116.73807,39.44798],[-116.73824,39.44773],[-116.7383,39.44764],[-116.73839,39.44752],[-116.73841,39.44749],[-116.73858,39.44728],[-116.73874,39.44709],[-116.73904,39.44676],[-116.73926,39.44656],[-116.73934,39.44649],[-116.73944,39.44639],[-116.7396,39.44626],[-116.73968,39.4462],[-116.73982,39.44609],[-116.74012,39.44588],[-116.74047,39.44565],[-116.74078,39.44547],[-116.7411,39.44531],[-116.74134,39.44519],[-116.74167,39.44504],[-116.74188,39.44495],[-116.74213,39.44485],[-116.74229,39.44479],[-116.74279,39.44463],[-116.74299,39.44457],[-116.74342,39.44443],[-116.74375,39.44433],[-116.74406,39.44422],[-116.7442,39.44417],[-116.74427,39.44414],[-116.74434,39.44411],[-116.74447,39.44405],[-116.74453,39.44403],[-116.74471,39.44394],[-116.74483,39.44387],[-116.74486,39.44385],[-116.7449,39.44383],[-116.745,39.44378],[-116.74505,39.44375],[-116.7451,39.44371],[-116.7452,39.44365],[-116.74534,39.44357],[-116.7455,39.44345],[-116.74558,39.4434],[-116.74561,39.44338],[-116.74574,39.44327],[-116.74591,39.44313],[-116.74621,39.44287],[-116.74625,39.44283],[-116.74636,39.44273],[-116.74642,39.44268],[-116.74651,39.44259],[-116.74652,39.44258],[-116.74667,39.44242],[-116.74682,39.44225],[-116.7469,39.44214],[-116.74696,39.44206],[-116.74701,39.44199],[-116.74712,39.44184],[-116.74719,39.44174],[-116.74727,39.4416],[-116.74736,39.44144],[-116.74745,39.44126],[-116.74749,39.44117],[-116.74801,39.44013],[-116.74843,39.43919],[-116.74845,39.43914],[-116.7488,39.4384],[-116.74885,39.4383],[-116.74892,39.43813],[-116.74894,39.43809],[-116.74902,39.43792],[-116.74911,39.43767],[-116.74919,39.4374],[-116.74926,39.43718],[-116.7493,39.43705],[-116.74932,39.43698],[-116.74933,39.43691],[-116.74934,39.43688],[-116.74936,39.43674],[-116.74936,39.43673],[-116.74937,39.43662],[-116.74937,39.43654],[-116.74938,39.43633],[-116.74938,39.43626],[-116.74938,39.4361],[-116.74937,39.43547],[-116.74934,39.43511],[-116.74934,39.43509],[-116.7493,39.43459],[-116.74927,39.43413],[-116.74924,39.43365],[-116.74924,39.43357],[-116.74924,39.4335],[-116.74924,39.43332],[-116.74926,39.43314],[-116.74926,39.43308],[-116.74927,39.43302],[-116.7493,39.43281],[-116.74931,39.43276],[-116.74931,39.43273],[-116.74935,39.4325],[-116.74936,39.43244],[-116.74938,39.43239],[-116.74944,39.43215],[-116.7495,39.43196],[-116.74955,39.43182],[-116.74961,39.43168],[-116.74966,39.43155],[-116.74976,39.43134],[-116.74984,39.43117],[-116.74999,39.43088],[-116.75033,39.43032],[-116.75045,39.43012],[-116.75051,39.43002],[-116.751,39.42921],[-116.75104,39.42914],[-116.7511,39.42904],[-116.75114,39.42898],[-116.75129,39.42872],[-116.75133,39.42865],[-116.75153,39.42833],[-116.75159,39.42823],[-116.75163,39.42816],[-116.75223,39.42718],[-116.75326,39.4255],[-116.75383,39.42456],[-116.7542,39.42393],[-116.75426,39.42383],[-116.75444,39.42352],[-116.75483,39.42288],[-116.7552,39.42227],[-116.75555,39.42172],[-116.75557,39.42168],[-116.75559,39.42165],[-116.75575,39.42141],[-116.75588,39.42123],[-116.75606,39.42099],[-116.75633,39.42066],[-116.75652,39.42044],[-116.75675,39.42017],[-116.75698,39.41994],[-116.75708,39.41983],[-116.75716,39.41974],[-116.75722,39.41969],[-116.75729,39.41962],[-116.75766,39.41927],[-116.75781,39.41912],[-116.75834,39.41867],[-116.75864,39.4184],[-116.75874,39.41832],[-116.75893,39.41815],[-116.75898,39.41811],[-116.75905,39.41805],[-116.75961,39.41756],[-116.75966,39.41752],[-116.75976,39.41744],[-116.76038,39.4169],[-116.7606,39.41671],[-116.76177,39.41573],[-116.7621,39.41544],[-116.76217,39.41538],[-116.76226,39.41531],[-116.76242,39.41517],[-116.76248,39.41512],[-116.76254,39.41507],[-116.76269,39.41496],[-116.76282,39.41486],[-116.76297,39.41475],[-116.76298,39.41474],[-116.76308,39.41467],[-116.76344,39.41442],[-116.76362,39.41431],[-116.76368,39.41427],[-116.76379,39.4142],[-116.76382,39.41418],[-116.76387,39.41416],[-116.76418,39.41397],[-116.76443,39.41384],[-116.76455,39.41377],[-116.76494,39.41357],[-116.76513,39.41348],[-116.76521,39.41344],[-116.76533,39.41338],[-116.76554,39.41329],[-116.76576,39.4132],[-116.7661,39.41306],[-116.76669,39.41284],[-116.76698,39.41273],[-116.76707,39.4127],[-116.76743,39.41257],[-116.76783,39.41243],[-116.76791,39.4124],[-116.76815,39.41232],[-116.76982,39.41172],[-116.76994,39.41168],[-116.76998,39.41166],[-116.77003,39.41165],[-116.77116,39.41124],[-116.77216,39.41088],[-116.77226,39.41084],[-116.77277,39.41066],[-116.77311,39.41054],[-116.77404,39.41021],[-116.77431,39.41012],[-116.7746,39.41002],[-116.77462,39.41002],[-116.77484,39.40995],[-116.77494,39.40992],[-116.77525,39.40983],[-116.77549,39.40977],[-116.77564,39.40973],[-116.77572,39.40972],[-116.77598,39.40966],[-116.77635,39.40958],[-116.77654,39.40954],[-116.77676,39.4095],[-116.77699,39.40946],[-116.77717,39.40943],[-116.77739,39.4094],[-116.77765,39.40937],[-116.77803,39.40933],[-116.77822,39.40931],[-116.77825,39.40931],[-116.7785,39.40929],[-116.77881,39.40927],[-116.77908,39.40926],[-116.77938,39.40924],[-116.77941,39.40924],[-116.77961,39.40924],[-116.7801,39.40922],[-116.78078,39.40921],[-116.78101,39.4092],[-116.78102,39.4092],[-116.78205,39.40917],[-116.78238,39.40915],[-116.78265,39.40914],[-116.78289,39.40912],[-116.78307,39.40911],[-116.78324,39.4091],[-116.78351,39.40907],[-116.78379,39.40904],[-116.78389,39.40903],[-116.78402,39.40901],[-116.78432,39.40897],[-116.78456,39.40894],[-116.78479,39.4089],[-116.785,39.40886],[-116.78523,39.40881],[-116.7857,39.40871],[-116.78598,39.40865],[-116.78628,39.40857],[-116.78644,39.40853],[-116.78686,39.4084],[-116.78736,39.40824],[-116.78738,39.40824],[-116.78757,39.40817],[-116.78769,39.40814],[-116.78787,39.40807],[-116.78829,39.40791],[-116.78841,39.40786],[-116.78866,39.40775],[-116.78905,39.40758],[-116.7896,39.40732],[-116.78982,39.40722],[-116.79081,39.40676],[-116.79195,39.40622],[-116.79344,39.40553],[-116.7944,39.40508],[-116.79466,39.40497],[-116.79545,39.40459],[-116.7956,39.40453],[-116.79571,39.40448],[-116.79605,39.40433],[-116.7962,39.40426],[-116.79683,39.40399],[-116.79829,39.40343],[-116.79848,39.40336],[-116.79891,39.40322],[-116.79934,39.40308],[-116.80058,39.40266],[-116.80299,39.4019],[-116.80422,39.40151],[-116.80472,39.40136],[-116.80493,39.40129],[-116.80946,39.39986],[-116.81075,39.39946],[-116.81097,39.39939],[-116.81202,39.39906],[-116.81401,39.39843],[-116.81488,39.39816],[-116.81593,39.39783],[-116.81614,39.39776],[-116.81722,39.39742],[-116.81756,39.39732],[-116.82153,39.39606],[-116.82191,39.39594],[-116.82325,39.39551],[-116.82368,39.39538],[-116.82435,39.39516],[-116.82531,39.39487],[-116.828,39.39404],[-116.82822,39.39397],[-116.82907,39.39371],[-116.83167,39.39289],[-116.83189,39.39283],[-116.8321,39.39276],[-116.83232,39.39269],[-116.83343,39.39234],[-116.83747,39.39102],[-116.83768,39.39095],[-116.8379,39.39088],[-116.8414,39.38979],[-116.84286,39.38933],[-116.84307,39.38926],[-116.84329,39.38919],[-116.84391,39.389],[-116.84437,39.38885],[-116.8448,39.38872],[-116.84563,39.38847],[-116.84606,39.38836],[-116.84655,39.38824],[-116.84719,39.3881],[-116.84749,39.38804],[-116.84791,39.38798],[-116.84938,39.38778],[-116.84955,39.38777],[-116.84981,39.38775],[-116.85003,39.38773],[-116.8501,39.38773],[-116.85033,39.38771],[-116.85047,39.3877],[-116.85096,39.38769],[-116.85134,39.38769],[-116.85178,39.38769],[-116.85254,39.38771],[-116.85305,39.38774],[-116.85358,39.38778],[-116.85374,39.3878],[-116.85392,39.38782],[-116.85458,39.38789],[-116.85515,39.38798],[-116.85591,39.38811],[-116.85677,39.38828],[-116.85735,39.3884],[-116.87226,39.39129],[-116.87474,39.39179],[-116.87725,39.39227],[-116.8779,39.39239],[-116.88661,39.3941],[-116.88692,39.39416],[-116.8876,39.39429],[-116.89457,39.39565],[-116.90043,39.39679],[-116.90066,39.39684],[-116.90359,39.39741],[-116.90382,39.39745],[-116.90494,39.39767],[-116.90743,39.39816],[-116.91271,39.39919],[-116.91474,39.39958],[-116.91525,39.39968],[-116.91835,39.40028],[-116.92345,39.40128],[-116.92358,39.4013],[-116.92573,39.40172],[-116.92596,39.40177],[-116.92935,39.40243],[-116.92957,39.40247],[-116.93296,39.40313],[-116.93657,39.40384],[-116.93718,39.40396],[-116.93724,39.40397],[-116.93796,39.40411],[-116.93815,39.40415],[-116.93883,39.40428],[-116.93893,39.4043],[-116.93945,39.4044],[-116.9395,39.40441],[-116.93973,39.40445],[-116.94029,39.40456],[-116.94085,39.40467],[-116.94229,39.40494],[-116.94259,39.405],[-116.94266,39.40502],[-116.94289,39.40506],[-116.94455,39.40538],[-116.94515,39.4055],[-116.94537,39.40554],[-116.94585,39.40563],[-116.94673,39.40581],[-116.94709,39.40588],[-116.94738,39.40594],[-116.94752,39.40597],[-116.94764,39.40599],[-116.94778,39.40602],[-116.94811,39.4061],[-116.94841,39.40619],[-116.94859,39.40625],[-116.94873,39.4063],[-116.9489,39.40636],[-116.94904,39.40641],[-116.94924,39.4065],[-116.94942,39.40658],[-116.94957,39.40665],[-116.94972,39.40673],[-116.94986,39.4068],[-116.94999,39.40687],[-116.95014,39.40696],[-116.9503,39.40706],[-116.95052,39.4072],[-116.95065,39.40729],[-116.95086,39.40745],[-116.95098,39.40755],[-116.95119,39.40773],[-116.95152,39.40805],[-116.95157,39.4081],[-116.95165,39.40818],[-116.95184,39.4084],[-116.95185,39.40841],[-116.95203,39.40864],[-116.95208,39.40871],[-116.95213,39.40878],[-116.95221,39.40889],[-116.95236,39.40913],[-116.95244,39.40926],[-116.95249,39.40935],[-116.95252,39.40941],[-116.95258,39.40954],[-116.95267,39.40975],[-116.95278,39.41],[-116.95317,39.4109],[-116.95323,39.41106],[-116.95349,39.41165],[-116.95364,39.41199],[-116.95389,39.41259],[-116.95397,39.41276],[-116.95407,39.41299],[-116.95414,39.41315],[-116.95421,39.4133],[-116.95428,39.41344],[-116.95435,39.41357],[-116.95447,39.41381],[-116.95454,39.41394],[-116.95461,39.41407],[-116.95467,39.41417],[-116.95476,39.4143],[-116.95489,39.41449],[-116.955,39.41463],[-116.95514,39.41481],[-116.95529,39.41498],[-116.95545,39.41515],[-116.95548,39.41518],[-116.9556,39.4153],[-116.95581,39.41551],[-116.95607,39.41573],[-116.95635,39.41596],[-116.95673,39.41622],[-116.95693,39.41634],[-116.95706,39.41641],[-116.95747,39.41665],[-116.95771,39.41677],[-116.95797,39.41689],[-116.95817,39.41698],[-116.95843,39.41709],[-116.95903,39.4173],[-116.95979,39.41753],[-116.96062,39.41777],[-116.9609,39.41785],[-116.96117,39.41794],[-116.9613,39.41799],[-116.96148,39.41806],[-116.96208,39.41834],[-116.96253,39.41859],[-116.96349,39.4191],[-116.96397,39.41935],[-116.96435,39.41958],[-116.96473,39.41982],[-116.96493,39.41997],[-116.96515,39.42014],[-116.96528,39.42025],[-116.96543,39.42038],[-116.9659,39.42091],[-116.96617,39.42124],[-116.96629,39.42139],[-116.96653,39.42169],[-116.96679,39.422],[-116.96692,39.42215],[-116.96715,39.42245],[-116.96735,39.42269],[-116.9674,39.42277],[-116.96748,39.42289],[-116.96762,39.4231],[-116.96775,39.42332],[-116.96778,39.42337],[-116.96782,39.42347],[-116.96788,39.42359],[-116.96793,39.4237],[-116.96799,39.42385],[-116.96806,39.42403],[-116.96812,39.42423],[-116.96817,39.42442],[-116.96818,39.42445],[-116.96822,39.42462],[-116.96822,39.42463],[-116.96825,39.42483],[-116.96827,39.42502],[-116.96833,39.42576],[-116.96834,39.42588],[-116.96836,39.42624],[-116.9684,39.42686],[-116.96841,39.42696],[-116.96845,39.4275],[-116.96846,39.42768],[-116.96847,39.42779],[-116.96851,39.42816],[-116.96856,39.42847],[-116.96858,39.42856],[-116.96862,39.42871],[-116.96866,39.42883],[-116.96871,39.42897],[-116.96883,39.42927],[-116.9689,39.42944],[-116.96911,39.42995],[-116.96919,39.43012],[-116.96935,39.43052],[-116.96972,39.43137],[-116.96988,39.43176],[-116.9702,39.43253],[-116.97042,39.43292],[-116.97064,39.43321],[-116.97067,39.43325],[-116.97076,39.43336],[-116.97097,39.43362],[-116.97136,39.43401],[-116.97173,39.43434],[-116.97375,39.43608],[-116.9739,39.43622],[-116.97529,39.43742],[-116.97622,39.43824],[-116.97701,39.4389],[-116.97707,39.43894],[-116.97758,39.43927],[-116.97836,39.43971],[-116.97903,39.44003],[-116.97923,39.44013],[-116.98042,39.44071],[-116.9814,39.44118],[-116.98277,39.44184],[-116.98336,39.44215],[-116.98355,39.44225],[-116.98373,39.44234],[-116.98388,39.44243],[-116.98392,39.44247],[-116.98404,39.44257],[-116.98428,39.44282],[-116.98484,39.44345],[-116.985,39.44364],[-116.98513,39.44379],[-116.98541,39.44412],[-116.9855,39.44425],[-116.98572,39.44454],[-116.98592,39.44489],[-116.98601,39.44505],[-116.98603,39.44508],[-116.98636,39.44572],[-116.98653,39.44613],[-116.98666,39.44647],[-116.98677,39.44675],[-116.98684,39.44692],[-116.98685,39.44695],[-116.98695,39.44727],[-116.98701,39.44745],[-116.98708,39.44765],[-116.98737,39.4484],[-116.98741,39.44849],[-116.98751,39.44866],[-116.98761,39.44881],[-116.98771,39.44896],[-116.98792,39.44923],[-116.98796,39.44927],[-116.98826,39.44964],[-116.98868,39.45012],[-116.98885,39.45033],[-116.9891,39.45063],[-116.98945,39.45104],[-116.98966,39.45126],[-116.98977,39.45137],[-116.9899,39.45151],[-116.99007,39.45167],[-116.99026,39.45184],[-116.99045,39.452],[-116.99062,39.45213],[-116.9908,39.4523],[-116.99103,39.45253],[-116.99114,39.45265],[-116.99126,39.45279],[-116.99135,39.45292],[-116.99144,39.45307],[-116.99144,39.45308],[-116.99153,39.45325],[-116.99159,39.45339],[-116.99166,39.45356],[-116.99182,39.45393],[-116.99191,39.45415],[-116.99208,39.45456],[-116.99229,39.45497],[-116.99239,39.45509],[-116.99248,39.45518],[-116.99255,39.45524],[-116.99268,39.45533],[-116.99273,39.45536],[-116.99278,39.45539],[-116.99294,39.45549],[-116.99328,39.45567],[-116.99362,39.45584],[-116.99392,39.45599],[-116.99431,39.45616],[-116.99468,39.45633],[-116.99473,39.45636],[-116.99517,39.45657],[-116.99596,39.45695],[-116.99616,39.45704],[-116.9963,39.45711],[-116.99655,39.45723],[-116.99675,39.45733],[-116.99695,39.45743],[-116.99714,39.45752],[-116.99734,39.45762],[-116.99737,39.45763],[-116.99749,39.45769],[-116.99754,39.45771],[-116.99773,39.45782],[-116.99779,39.45785],[-116.99791,39.45793],[-116.99801,39.45799],[-116.99818,39.45813],[-116.99824,39.45818],[-116.99825,39.4582],[-116.99833,39.4583],[-116.99835,39.45834],[-116.99837,39.45837],[-116.99843,39.45848],[-116.99849,39.45863],[-116.99853,39.45878],[-116.99861,39.45939],[-116.99866,39.45984],[-116.99875,39.46065],[-116.99877,39.46083],[-116.99877,39.46088],[-116.99881,39.46118],[-116.99898,39.4628],[-116.99899,39.46285],[-116.99901,39.46303],[-116.99904,39.46322],[-116.99908,39.46338],[-116.99918,39.46367],[-116.99926,39.46387],[-116.99931,39.46398],[-116.99937,39.46409],[-116.99946,39.46426],[-116.99952,39.46435],[-116.99958,39.46445],[-116.99962,39.46451],[-116.99966,39.46457],[-116.99977,39.46471],[-117.00008,39.46507],[-117.00045,39.46545],[-117.00111,39.46612],[-117.00125,39.46626],[-117.00135,39.46637],[-117.00162,39.46661],[-117.0019,39.46689],[-117.00197,39.46697],[-117.0021,39.46712],[-117.00224,39.46727],[-117.00236,39.46743],[-117.00245,39.46757],[-117.00254,39.46774],[-117.00262,39.46795],[-117.00266,39.46804],[-117.0027,39.46819],[-117.00271,39.46828],[-117.00272,39.46837],[-117.00273,39.46853],[-117.00273,39.4687],[-117.00272,39.4688],[-117.00272,39.46884],[-117.0027,39.46901],[-117.0025,39.47023],[-117.00248,39.47031],[-117.00247,39.47041],[-117.00241,39.47076],[-117.00221,39.47199],[-117.0022,39.47201],[-117.00212,39.47247],[-117.00206,39.4728],[-117.00203,39.47302],[-117.00198,39.4734],[-117.00196,39.47365],[-117.00197,39.47387],[-117.00197,39.47392],[-117.00198,39.47401],[-117.00199,39.47405],[-117.002,39.47412],[-117.00204,39.47429],[-117.00208,39.47441],[-117.00217,39.47463],[-117.00227,39.4748],[-117.00303,39.47598],[-117.00325,39.4763],[-117.00336,39.47646],[-117.00348,39.47661],[-117.00365,39.47685],[-117.00371,39.47692],[-117.0038,39.47702],[-117.00385,39.47706],[-117.00391,39.47712],[-117.00402,39.47719],[-117.0041,39.47724],[-117.00417,39.47729],[-117.0042,39.4773],[-117.00425,39.47733],[-117.00435,39.47737],[-117.0044,39.47739],[-117.00447,39.47742],[-117.00459,39.47745],[-117.00468,39.47748],[-117.00478,39.4775],[-117.00493,39.47752],[-117.0051,39.47754],[-117.0059,39.4776],[-117.00637,39.47763],[-117.00706,39.47767],[-117.00737,39.4777],[-117.0075,39.47772],[-117.00768,39.47774],[-117.00783,39.47778],[-117.00803,39.47782],[-117.00866,39.47799],[-117.00972,39.47833],[-117.00988,39.47838],[-117.01,39.47843],[-117.01013,39.47846],[-117.01029,39.4785],[-117.01038,39.47852],[-117.01048,39.47854],[-117.01057,39.47854],[-117.01064,39.47855],[-117.01073,39.47855],[-117.01077,39.47855],[-117.01086,39.47854],[-117.01096,39.47854],[-117.01108,39.47852],[-117.01147,39.47846],[-117.0117,39.47843],[-117.01192,39.4784],[-117.01202,39.4784],[-117.01214,39.4784],[-117.01227,39.4784],[-117.01239,39.47841],[-117.01241,39.47842],[-117.01252,39.47844],[-117.01263,39.47846],[-117.01274,39.47849],[-117.01281,39.47851],[-117.01289,39.47853],[-117.01298,39.47856],[-117.01302,39.47858],[-117.01309,39.47861],[-117.01317,39.47865],[-117.01333,39.47874],[-117.01339,39.47878],[-117.01342,39.4788],[-117.01343,39.47881],[-117.01347,39.47884],[-117.01354,39.4789],[-117.0136,39.47896],[-117.01368,39.47904],[-117.01372,39.47908],[-117.01374,39.47911],[-117.01379,39.47917],[-117.01384,39.47923],[-117.01388,39.47932],[-117.01393,39.47939],[-117.01393,39.4794],[-117.01397,39.47948],[-117.01401,39.47957],[-117.01405,39.47968],[-117.01407,39.47974],[-117.01412,39.47992],[-117.01415,39.48],[-117.01418,39.48009],[-117.01421,39.48019],[-117.01434,39.48043],[-117.01454,39.48064],[-117.01468,39.48076],[-117.01484,39.48086],[-117.01506,39.48097],[-117.01518,39.48101],[-117.01527,39.48104],[-117.01543,39.48107],[-117.01551,39.48109],[-117.01562,39.4811],[-117.01575,39.48111],[-117.01583,39.48111],[-117.0159,39.48111],[-117.01597,39.4811],[-117.01606,39.48108],[-117.01613,39.48106],[-117.0162,39.48103],[-117.01627,39.481],[-117.01635,39.48094],[-117.0164,39.4809],[-117.01643,39.48087],[-117.01645,39.48084],[-117.01647,39.48082],[-117.01648,39.48079],[-117.0165,39.48075],[-117.01652,39.4807],[-117.01653,39.48067],[-117.01653,39.48066],[-117.01653,39.48064],[-117.01654,39.4806],[-117.01655,39.48055],[-117.01655,39.48042],[-117.01656,39.4803],[-117.01656,39.48025],[-117.01657,39.48021],[-117.01658,39.48017],[-117.01659,39.48013],[-117.01661,39.48008],[-117.01664,39.48004],[-117.01668,39.47994],[-117.0167,39.47991],[-117.01673,39.47986],[-117.01675,39.47983],[-117.01694,39.47956],[-117.017,39.47949],[-117.0171,39.47936],[-117.01711,39.47933],[-117.0174,39.47893],[-117.01757,39.4787],[-117.01791,39.47825],[-117.01794,39.47822],[-117.01797,39.47818],[-117.01801,39.47815],[-117.01806,39.4781],[-117.01807,39.4781],[-117.01812,39.47807],[-117.01817,39.47804],[-117.01822,39.47801],[-117.01825,39.47799],[-117.01828,39.47798],[-117.01836,39.47794],[-117.01841,39.47793],[-117.01845,39.47791],[-117.01851,39.4779],[-117.01858,39.47788],[-117.01864,39.47787],[-117.01871,39.47787],[-117.01943,39.47786],[-117.01974,39.47786],[-117.01983,39.47786],[-117.01994,39.47785],[-117.02,39.47784],[-117.02005,39.47784],[-117.02011,39.47783],[-117.02017,39.47782],[-117.02022,39.47781],[-117.02026,39.47779],[-117.02031,39.47778],[-117.02038,39.47775],[-117.02046,39.47772],[-117.02055,39.47767],[-117.02062,39.47761],[-117.02074,39.47752],[-117.02083,39.47743],[-117.02084,39.47742],[-117.02092,39.47732],[-117.02095,39.47728],[-117.02097,39.47724],[-117.02106,39.47712],[-117.02115,39.47702],[-117.02123,39.47695],[-117.02131,39.47689],[-117.02135,39.47687],[-117.02139,39.47684],[-117.02147,39.47681],[-117.02155,39.47679],[-117.02164,39.47678],[-117.02196,39.47674],[-117.02223,39.47671],[-117.02253,39.47668],[-117.02297,39.47664],[-117.02299,39.47664],[-117.0232,39.47662],[-117.02329,39.47662],[-117.02352,39.47661],[-117.02373,39.47662],[-117.02391,39.47665],[-117.02407,39.47668],[-117.02418,39.47671],[-117.02431,39.47674],[-117.02443,39.47678],[-117.02449,39.4768],[-117.02458,39.47684],[-117.02479,39.47693],[-117.02498,39.47701],[-117.02509,39.47706],[-117.02517,39.47709],[-117.02523,39.47711],[-117.02529,39.47713],[-117.02538,39.47715],[-117.02546,39.47717],[-117.02553,39.47718],[-117.0256,39.47719],[-117.02584,39.47721],[-117.02593,39.47722],[-117.02618,39.47723],[-117.02625,39.47724],[-117.02637,39.47724],[-117.02646,39.47725],[-117.02653,39.47726],[-117.0266,39.47728],[-117.02667,39.47729],[-117.02676,39.47731],[-117.02682,39.47733],[-117.0269,39.47735],[-117.02701,39.47739],[-117.02723,39.47749],[-117.02773,39.47771],[-117.02886,39.47818],[-117.02946,39.47842],[-117.02964,39.4785],[-117.02984,39.47859],[-117.03017,39.47873],[-117.03065,39.47892],[-117.03082,39.47899],[-117.03096,39.47904],[-117.03105,39.47906],[-117.03113,39.47909],[-117.03147,39.47917],[-117.03167,39.47921],[-117.03225,39.47934],[-117.03245,39.47938],[-117.03252,39.4794],[-117.03269,39.47944],[-117.03274,39.47946],[-117.03296,39.47952],[-117.03302,39.47953],[-117.03318,39.47959],[-117.03328,39.47962],[-117.03339,39.47966],[-117.03348,39.47969],[-117.03368,39.47978],[-117.0338,39.47984],[-117.03386,39.47987],[-117.03399,39.47994],[-117.03401,39.47995],[-117.03417,39.48004],[-117.03417,39.48005],[-117.03435,39.48016],[-117.03463,39.48039],[-117.03474,39.48047],[-117.03493,39.48063],[-117.03511,39.4808],[-117.03523,39.48089],[-117.0353,39.48095],[-117.03546,39.48108],[-117.03559,39.48119],[-117.03572,39.48129],[-117.03578,39.48133],[-117.03584,39.48136],[-117.03588,39.48139],[-117.03593,39.48141],[-117.03599,39.48144],[-117.03606,39.48147],[-117.03615,39.48151],[-117.03624,39.48154],[-117.0364,39.48159],[-117.03658,39.48165],[-117.03662,39.48166],[-117.03706,39.48179],[-117.03749,39.48192],[-117.03771,39.48198],[-117.03792,39.48205],[-117.03814,39.48212],[-117.03836,39.48218],[-117.03882,39.48232],[-117.03906,39.48239],[-117.03917,39.48241],[-117.03928,39.48243],[-117.0394,39.48245],[-117.03954,39.48246],[-117.03966,39.48246],[-117.03983,39.48247],[-117.04093,39.48243],[-117.04133,39.48241],[-117.04154,39.4824],[-117.04156,39.4824],[-117.04197,39.4824],[-117.04205,39.4824],[-117.04208,39.4824],[-117.04212,39.4824],[-117.04216,39.48241],[-117.04219,39.48242],[-117.04223,39.48242],[-117.04227,39.48243],[-117.0423,39.48244],[-117.04232,39.48244],[-117.04235,39.48245],[-117.04237,39.48246],[-117.0424,39.48247],[-117.04243,39.48249],[-117.04246,39.4825],[-117.04252,39.48254],[-117.04258,39.48259],[-117.04263,39.48263],[-117.04268,39.48267],[-117.04273,39.48272],[-117.04278,39.48278],[-117.04291,39.483],[-117.04301,39.48317],[-117.04306,39.48326],[-117.04307,39.48329],[-117.0431,39.48334],[-117.04315,39.4834],[-117.04317,39.48342],[-117.04318,39.48344],[-117.04321,39.48347],[-117.04323,39.48349],[-117.04328,39.48352],[-117.04333,39.48355],[-117.04338,39.48357],[-117.04345,39.4836],[-117.04351,39.48361],[-117.04357,39.48362],[-117.04364,39.48363],[-117.04374,39.48364],[-117.04382,39.48365],[-117.04396,39.48365],[-117.04447,39.48362],[-117.04455,39.48362],[-117.0447,39.48361],[-117.04493,39.48359],[-117.04542,39.48355],[-117.04736,39.48342],[-117.04749,39.48341],[-117.04772,39.48339],[-117.04796,39.48338],[-117.0481,39.48337],[-117.04824,39.48337],[-117.04835,39.48338],[-117.04842,39.48338],[-117.04843,39.48339],[-117.04853,39.48341],[-117.04861,39.48343],[-117.04863,39.48345],[-117.04872,39.48349],[-117.0488,39.48353],[-117.04885,39.48357],[-117.0489,39.4836],[-117.04898,39.48367],[-117.04926,39.48396],[-117.04926,39.48397],[-117.0494,39.4841],[-117.04953,39.48419],[-117.04966,39.48426],[-117.04994,39.4844],[-117.05008,39.48447],[-117.05021,39.48453],[-117.05031,39.48459],[-117.05038,39.48463],[-117.05047,39.48469],[-117.05057,39.48476],[-117.05064,39.48482],[-117.05074,39.4849],[-117.05084,39.485],[-117.05093,39.4851],[-117.05098,39.48516],[-117.05102,39.48523],[-117.05108,39.48535],[-117.05111,39.48543],[-117.05114,39.48554],[-117.05115,39.48564],[-117.05115,39.48568],[-117.05115,39.48571],[-117.05115,39.48581],[-117.05116,39.48596],[-117.05115,39.48604],[-117.05114,39.4861],[-117.05112,39.48619],[-117.0511,39.48628],[-117.05106,39.48637],[-117.05103,39.48643],[-117.05098,39.48651],[-117.05094,39.4866],[-117.05089,39.48667],[-117.05086,39.48671],[-117.05082,39.48675],[-117.0506,39.48701],[-117.05024,39.48737],[-117.05018,39.48744],[-117.04987,39.48779],[-117.04982,39.48785],[-117.04978,39.48792],[-117.04975,39.48798],[-117.04973,39.48804],[-117.04971,39.4881],[-117.0497,39.48815],[-117.04969,39.48819],[-117.04969,39.48824],[-117.04969,39.48828],[-117.0497,39.48834],[-117.04971,39.48839],[-117.04972,39.48845],[-117.04975,39.48851],[-117.04977,39.48855],[-117.04979,39.4886],[-117.04981,39.48862],[-117.04984,39.48866],[-117.04988,39.48871],[-117.04991,39.48874],[-117.04992,39.48875],[-117.04998,39.48879],[-117.05003,39.48883],[-117.05009,39.48887],[-117.05015,39.48891],[-117.05021,39.48893],[-117.05026,39.48896],[-117.05031,39.48897],[-117.05038,39.489],[-117.05047,39.48902],[-117.05066,39.48906],[-117.05075,39.48908],[-117.05086,39.48909],[-117.05094,39.4891],[-117.05104,39.4891],[-117.05111,39.4891],[-117.05122,39.48909],[-117.05132,39.48908],[-117.05145,39.48906],[-117.05154,39.48905],[-117.05166,39.48902],[-117.05195,39.48894],[-117.05208,39.48891],[-117.05229,39.48884],[-117.05239,39.48881],[-117.05313,39.48858],[-117.0533,39.48852],[-117.05339,39.4885],[-117.05347,39.48848],[-117.05352,39.48847],[-117.05359,39.48846],[-117.05369,39.48845],[-117.05378,39.48845],[-117.05388,39.48845],[-117.05399,39.48845],[-117.05406,39.48846],[-117.05411,39.48847],[-117.05419,39.48848],[-117.05424,39.48849],[-117.0543,39.48851],[-117.05435,39.48852],[-117.05443,39.48856],[-117.05449,39.48858],[-117.05456,39.48863],[-117.05467,39.4887],[-117.05475,39.48877],[-117.05483,39.48884],[-117.0549,39.48894],[-117.05495,39.48899],[-117.05496,39.48901],[-117.05507,39.48918],[-117.05512,39.48928],[-117.05515,39.48932],[-117.0552,39.48939],[-117.05522,39.48942],[-117.05526,39.48947],[-117.05529,39.48951],[-117.05535,39.48956],[-117.05544,39.48962],[-117.05549,39.48965],[-117.05554,39.48967],[-117.05587,39.48982],[-117.05615,39.48995],[-117.05654,39.49015],[-117.05661,39.49019],[-117.05667,39.49024],[-117.05672,39.49028],[-117.05675,39.49031],[-117.05678,39.49035],[-117.0568,39.4904],[-117.05685,39.49048],[-117.05688,39.49057],[-117.05698,39.4908],[-117.05701,39.49089],[-117.05706,39.49095],[-117.05713,39.49104],[-117.05718,39.49108],[-117.05724,39.49112],[-117.05725,39.49114],[-117.05735,39.49119],[-117.05743,39.49122],[-117.05744,39.49122],[-117.05758,39.49125],[-117.05774,39.49127],[-117.05789,39.49128],[-117.05809,39.49129],[-117.05835,39.49131],[-117.05859,39.49133],[-117.05869,39.49136],[-117.05879,39.49138],[-117.05891,39.49143],[-117.059,39.49149],[-117.05901,39.49149],[-117.0591,39.49154],[-117.05923,39.49165],[-117.05929,39.49173],[-117.05936,39.49182],[-117.0594,39.49189],[-117.05943,39.492],[-117.05944,39.49209],[-117.05944,39.49219],[-117.05944,39.49227],[-117.05942,39.49234],[-117.05938,39.49247],[-117.05933,39.4926],[-117.05931,39.49263],[-117.0593,39.49267],[-117.0593,39.4927],[-117.05929,39.49274],[-117.05929,39.49279],[-117.0593,39.49285],[-117.05932,39.49293],[-117.05934,39.49297],[-117.05938,39.49303],[-117.05941,39.49307],[-117.05947,39.49312],[-117.05951,39.49315],[-117.05953,39.49316],[-117.05956,39.49318],[-117.05959,39.4932],[-117.05963,39.49322],[-117.05967,39.49323],[-117.05971,39.49324],[-117.05975,39.49326],[-117.0598,39.49327],[-117.05986,39.49328],[-117.05991,39.49328],[-117.05997,39.49328],[-117.06002,39.49328],[-117.06006,39.49327],[-117.06009,39.49327],[-117.06013,39.49326],[-117.06016,39.49325],[-117.06021,39.49324],[-117.06023,39.49323],[-117.06026,39.49322],[-117.06028,39.49321],[-117.06031,39.4932],[-117.06038,39.49314],[-117.06047,39.49306],[-117.0605,39.49303],[-117.06052,39.49299],[-117.06084,39.49229],[-117.06097,39.49198],[-117.06103,39.49168],[-117.061,39.49145],[-117.06095,39.49129],[-117.06089,39.49113],[-117.06067,39.49082],[-117.06043,39.49054],[-117.0602,39.49029],[-117.06003,39.4901],[-117.0599,39.48993],[-117.05966,39.48954],[-117.05942,39.48903],[-117.05919,39.48853],[-117.05918,39.48849],[-117.05917,39.48845],[-117.05916,39.48841],[-117.05916,39.48838],[-117.05916,39.48834],[-117.05918,39.48824],[-117.05925,39.48814],[-117.05929,39.4881],[-117.05934,39.48806],[-117.05937,39.48804],[-117.0594,39.48802],[-117.05944,39.48801],[-117.05948,39.488],[-117.0595,39.48799],[-117.05955,39.48798],[-117.05958,39.48797],[-117.05961,39.48797],[-117.05965,39.48797],[-117.05969,39.48797],[-117.05973,39.48797],[-117.05978,39.48798],[-117.05984,39.48799],[-117.05991,39.48802],[-117.05997,39.48805],[-117.06002,39.48809],[-117.06007,39.48813],[-117.06011,39.48817],[-117.06017,39.48824],[-117.06021,39.48829],[-117.06024,39.48834],[-117.06026,39.48837],[-117.06032,39.48846],[-117.06039,39.48863],[-117.06055,39.48895],[-117.06062,39.48904],[-117.06069,39.48912],[-117.06077,39.48919],[-117.06085,39.48924],[-117.06086,39.48924],[-117.06096,39.48928],[-117.0611,39.48932],[-117.06125,39.48934],[-117.06187,39.48937],[-117.0628,39.48937],[-117.06301,39.48936],[-117.06303,39.48936],[-117.06324,39.48933],[-117.0635,39.48928],[-117.06378,39.48923],[-117.06394,39.4892],[-117.06418,39.48915],[-117.06463,39.48906],[-117.06487,39.48903],[-117.065,39.48901],[-117.06517,39.489],[-117.06544,39.48901],[-117.06563,39.48902],[-117.06572,39.48902],[-117.06581,39.48903],[-117.06602,39.48907],[-117.06619,39.48911],[-117.06624,39.48913],[-117.06633,39.48916],[-117.06646,39.4892],[-117.0665,39.48922],[-117.06671,39.48931],[-117.06686,39.48938],[-117.0669,39.4894],[-117.06703,39.48947],[-117.06715,39.48955],[-117.06723,39.4896],[-117.06748,39.48976],[-117.06779,39.48997],[-117.06796,39.49009],[-117.06813,39.4902],[-117.06835,39.49035],[-117.06885,39.49067],[-117.06911,39.49085],[-117.06942,39.49111],[-117.06972,39.49138],[-117.06976,39.49142],[-117.06996,39.4916],[-117.07011,39.49176],[-117.07056,39.49224],[-117.07069,39.49238],[-117.07078,39.49248],[-117.07098,39.49267],[-117.07128,39.49295],[-117.07151,39.49308],[-117.07174,39.4932],[-117.07185,39.49326],[-117.072,39.49334],[-117.07223,39.49346],[-117.0724,39.49354],[-117.07298,39.49385],[-117.07317,39.49395],[-117.07337,39.49403]]}}]}