{"type":"FeatureCollection","features":[{"type":"Feature","properties":{"_gpxType":"trk","name":"40 Main St - Middlegate Station, Austin Highway, Fallon, NV","coordinateProperties":{},"id":97},"geometry":{"type":"LineString","coordinates":[[-117.07345,39.49407],[-117.07363,39.49414],[-117.07374,39.4942],[-117.07385,39.49426],[-117.07392,39.49431],[-117.07395,39.49434],[-117.07398,39.49437],[-117.07405,39.49443],[-117.0741,39.49447],[-117.07412,39.49449],[-117.07417,39.49458],[-117.07421,39.49466],[-117.07423,39.49469],[-117.07425,39.49475],[-117.0743,39.49488],[-117.07434,39.49499],[-117.0744,39.49516],[-117.07444,39.49523],[-117.07447,39.49528],[-117.0745,39.49533],[-117.07453,39.49537],[-117.07455,39.4954],[-117.07459,39.49544],[-117.07467,39.49549],[-117.07475,39.49556],[-117.07485,39.49562],[-117.07495,39.49568],[-117.07508,39.49575],[-117.07518,39.4958],[-117.07522,39.49582],[-117.07562,39.49602],[-117.07585,39.49614],[-117.0764,39.4964],[-117.07645,39.49643],[-117.07646,39.49643],[-117.07653,39.49647],[-117.07664,39.49654],[-117.07669,39.49658],[-117.07676,39.49662],[-117.0768,39.49666],[-117.07684,39.49669],[-117.07693,39.49677],[-117.07695,39.49679],[-117.07711,39.49694],[-117.07722,39.49703],[-117.07726,39.49706],[-117.07729,39.49708],[-117.07732,39.49711],[-117.07736,39.49713],[-117.0774,39.49716],[-117.07744,39.49718],[-117.07748,39.4972],[-117.07753,39.49722],[-117.07757,39.49724],[-117.07762,39.49725],[-117.07764,39.49726],[-117.07769,39.49728],[-117.07779,39.49731],[-117.07793,39.49735],[-117.07812,39.4974],[-117.07822,39.49743],[-117.07828,39.49744],[-117.0783,39.49745],[-117.07833,39.49746],[-117.07835,39.49747],[-117.07838,39.49748],[-117.07844,39.49752],[-117.07854,39.49757],[-117.07863,39.49764],[-117.07871,39.49771],[-117.07879,39.4978],[-117.07887,39.49789],[-117.07903,39.49807],[-117.07909,39.49814],[-117.07916,39.4982],[-117.07923,39.49827],[-117.07931,39.49832],[-117.07941,39.49838],[-117.07959,39.49849],[-117.07973,39.49857],[-117.07988,39.49868],[-117.07993,39.49871],[-117.07995,39.49873],[-117.08006,39.49883],[-117.08013,39.49891],[-117.0802,39.499],[-117.08026,39.49908],[-117.08034,39.49922],[-117.08043,39.49937],[-117.08053,39.49953],[-117.08062,39.49965],[-117.08069,39.49973],[-117.08074,39.49978],[-117.08081,39.49985],[-117.08088,39.49991],[-117.0809,39.49993],[-117.08096,39.49997],[-117.08122,39.50014],[-117.08154,39.50026],[-117.08165,39.50029],[-117.08172,39.5003],[-117.0818,39.50032],[-117.08188,39.50033],[-117.08198,39.50035],[-117.08289,39.50048],[-117.08335,39.50055],[-117.08358,39.50058],[-117.08382,39.50061],[-117.08443,39.50071],[-117.08491,39.5008],[-117.08559,39.50093],[-117.08582,39.50097],[-117.0874,39.50127],[-117.08788,39.50136],[-117.08815,39.50141],[-117.08841,39.50145],[-117.08858,39.50147],[-117.08875,39.50149],[-117.08877,39.50149],[-117.08898,39.50151],[-117.089,39.50152],[-117.08913,39.50153],[-117.08929,39.50154],[-117.08942,39.50154],[-117.08973,39.50156],[-117.09095,39.5016],[-117.09263,39.50165],[-117.09328,39.50167],[-117.09423,39.5017],[-117.09445,39.5017],[-117.09491,39.50172],[-117.09585,39.50175],[-117.09649,39.50177],[-117.09771,39.50181],[-117.0983,39.50182],[-117.10088,39.5019],[-117.10228,39.50195],[-117.10251,39.50195],[-117.10298,39.50197],[-117.10321,39.50198],[-117.10344,39.50198],[-117.10461,39.50202],[-117.10625,39.50205],[-117.1067,39.50206],[-117.10687,39.50206],[-117.1072,39.50206],[-117.10768,39.50205],[-117.10796,39.50204],[-117.10831,39.50204],[-117.10885,39.50201],[-117.10984,39.50196],[-117.11036,39.50192],[-117.11136,39.50183],[-117.11175,39.50179],[-117.11184,39.50178],[-117.11207,39.50176],[-117.1123,39.50173],[-117.11242,39.50171],[-117.11253,39.5017],[-117.11289,39.50166],[-117.11368,39.50156],[-117.11391,39.50153],[-117.11421,39.50149],[-117.11529,39.50135],[-117.11552,39.50132],[-117.11575,39.50129],[-117.11713,39.50111],[-117.11943,39.50081],[-117.11966,39.50078],[-117.12081,39.50063],[-117.12149,39.50054],[-117.12195,39.50048],[-117.12218,39.50045],[-117.12241,39.50042],[-117.12287,39.50036],[-117.12407,39.50021],[-117.12444,39.50016],[-117.12488,39.5001],[-117.125,39.50009],[-117.12578,39.49999],[-117.12646,39.4999],[-117.12752,39.49976],[-117.1295,39.4995],[-117.12958,39.49949],[-117.13073,39.49934],[-117.1311,39.49929],[-117.13188,39.49919],[-117.13257,39.49911],[-117.13271,39.49909],[-117.13326,39.49902],[-117.13349,39.49898],[-117.13469,39.49883],[-117.13487,39.4988],[-117.1351,39.49877],[-117.13579,39.49869],[-117.13591,39.49867],[-117.13625,39.49862],[-117.13879,39.4983],[-117.13967,39.49818],[-117.14197,39.49788],[-117.14336,39.4977],[-117.14864,39.49702],[-117.14956,39.4969],[-117.14989,39.49685],[-117.15071,39.49675],[-117.15094,39.49672],[-117.15117,39.49669],[-117.15278,39.49648],[-117.15531,39.49615],[-117.15554,39.49612],[-117.15691,39.49594],[-117.1592,39.49564],[-117.15943,39.49561],[-117.16127,39.49538],[-117.16219,39.49526],[-117.16564,39.49481],[-117.17208,39.49398],[-117.17254,39.49392],[-117.17277,39.49389],[-117.17331,39.49382],[-117.17363,39.49378],[-117.17601,39.49348],[-117.17796,39.49322],[-117.18238,39.49265],[-117.18242,39.49264],[-117.18265,39.49261],[-117.18288,39.49258],[-117.18355,39.49249],[-117.18435,39.49238],[-117.18673,39.49208],[-117.18806,39.4919],[-117.1884,39.49185],[-117.18863,39.49182],[-117.19237,39.49133],[-117.19565,39.49091],[-117.19874,39.4905],[-117.19897,39.49047],[-117.1992,39.49044],[-117.20379,39.48984],[-117.20402,39.48981],[-117.20609,39.48954],[-117.20781,39.48931],[-117.21023,39.489],[-117.21403,39.4885],[-117.21693,39.48812],[-117.21785,39.488],[-117.21808,39.48797],[-117.21831,39.48794],[-117.21862,39.4879],[-117.21923,39.48782],[-117.22038,39.48767],[-117.22475,39.4871],[-117.22568,39.48698],[-117.22612,39.48692],[-117.2266,39.48686],[-117.22683,39.48683],[-117.22728,39.48677],[-117.22751,39.48674],[-117.22935,39.4865],[-117.23211,39.48613],[-117.23336,39.48597],[-117.23381,39.48591],[-117.23418,39.48586],[-117.23602,39.48562],[-117.23762,39.48541],[-117.23815,39.48535],[-117.24041,39.48505],[-117.24208,39.48483],[-117.24435,39.48454],[-117.24726,39.48416],[-117.24877,39.48396],[-117.25217,39.48351],[-117.25309,39.48339],[-117.25438,39.48322],[-117.2547,39.48318],[-117.25676,39.48291],[-117.257,39.48288],[-117.25815,39.48273],[-117.25865,39.48266],[-117.26096,39.48236],[-117.26237,39.48218],[-117.26271,39.48213],[-117.2632,39.48207],[-117.26322,39.48206],[-117.26343,39.48204],[-117.2652,39.4818],[-117.26688,39.48159],[-117.26835,39.48139],[-117.27242,39.48086],[-117.27395,39.48066],[-117.27403,39.48065],[-117.27518,39.4805],[-117.27541,39.48047],[-117.27839,39.48008],[-117.27878,39.48003],[-117.28015,39.47984],[-117.28183,39.47962],[-117.28209,39.47959],[-117.28778,39.47884],[-117.28783,39.47884],[-117.28875,39.47872],[-117.29395,39.47803],[-117.29426,39.47799],[-117.29802,39.4775],[-117.29932,39.47733],[-117.29954,39.4773],[-117.30116,39.47709],[-117.30184,39.477],[-117.30437,39.47667],[-117.30483,39.47661],[-117.30493,39.47659],[-117.30902,39.47605],[-117.30919,39.47603],[-117.31172,39.4757],[-117.31301,39.47553],[-117.31566,39.47519],[-117.31623,39.47511],[-117.31875,39.47478],[-117.32013,39.47459],[-117.32136,39.47443],[-117.32159,39.4744],[-117.32297,39.47422],[-117.32437,39.47404],[-117.32504,39.47395],[-117.32566,39.47387],[-117.32619,39.47381],[-117.32621,39.4738],[-117.32656,39.47376],[-117.32683,39.47374],[-117.32711,39.47372],[-117.32716,39.47371],[-117.3275,39.47369],[-117.32781,39.47367],[-117.32813,39.47366],[-117.32845,39.47365],[-117.32872,39.47365],[-117.3292,39.47365],[-117.32991,39.47367],[-117.33019,39.47368],[-117.3305,39.4737],[-117.33084,39.47373],[-117.33117,39.47376],[-117.3316,39.47381],[-117.33204,39.47387],[-117.33236,39.47392],[-117.33271,39.47397],[-117.33295,39.47401],[-117.33311,39.47404],[-117.33327,39.47407],[-117.33361,39.47414],[-117.33378,39.47418],[-117.33395,39.47422],[-117.33423,39.47429],[-117.33484,39.47444],[-117.33512,39.47452],[-117.33549,39.47464],[-117.33577,39.47472],[-117.33606,39.47482],[-117.33634,39.47492],[-117.33659,39.47502],[-117.33661,39.47502],[-117.33702,39.47518],[-117.33723,39.47527],[-117.33737,39.47533],[-117.33777,39.4755],[-117.33784,39.47554],[-117.33801,39.47561],[-117.33826,39.47573],[-117.33853,39.47586],[-117.33887,39.47605],[-117.33923,39.47624],[-117.3394,39.47633],[-117.33962,39.47646],[-117.33999,39.47669],[-117.34024,39.47685],[-117.34047,39.477],[-117.34133,39.47756],[-117.34204,39.47804],[-117.3437,39.47914],[-117.34473,39.47981],[-117.34477,39.47984],[-117.34509,39.48005],[-117.3465,39.48098],[-117.3469,39.48124],[-117.34983,39.48318],[-117.35146,39.48426],[-117.3527,39.48507],[-117.35467,39.48637],[-117.35642,39.48753],[-117.3566,39.48765],[-117.35766,39.48835],[-117.35943,39.48953],[-117.36297,39.49186],[-117.36314,39.49198],[-117.36556,39.49357],[-117.36598,39.49385],[-117.36741,39.49479],[-117.36775,39.49502],[-117.36792,39.49514],[-117.3681,39.49525],[-117.36829,39.49538],[-117.36876,39.49569],[-117.37008,39.49655],[-117.37053,39.49685],[-117.37124,39.49732],[-117.37139,39.49742],[-117.37142,39.49744],[-117.37195,39.49779],[-117.37213,39.49791],[-117.37264,39.49825],[-117.37266,39.49826],[-117.37319,39.49861],[-117.37356,39.49886],[-117.37372,39.49896],[-117.3739,39.49908],[-117.37407,39.4992],[-117.37465,39.49958],[-117.37577,39.50031],[-117.37662,39.50088],[-117.37776,39.50163],[-117.37797,39.50177],[-117.37833,39.502],[-117.3785,39.50212],[-117.37917,39.50256],[-117.37939,39.5027],[-117.37957,39.50282],[-117.38061,39.50352],[-117.3808,39.50364],[-117.38098,39.50376],[-117.38222,39.50458],[-117.3831,39.50517],[-117.38346,39.5054],[-117.38381,39.50563],[-117.38416,39.50587],[-117.38523,39.50657],[-117.387,39.50774],[-117.38827,39.50858],[-117.39107,39.51043],[-117.39125,39.51054],[-117.39196,39.51101],[-117.39214,39.51113],[-117.3931,39.51177],[-117.39338,39.51195],[-117.39408,39.51241],[-117.3948,39.51288],[-117.39505,39.51304],[-117.39645,39.51397],[-117.39745,39.51463],[-117.39791,39.51494],[-117.39851,39.51534],[-117.39899,39.51565],[-117.39958,39.51604],[-117.40021,39.51646],[-117.40074,39.5168],[-117.40101,39.51698],[-117.40123,39.51712],[-117.40147,39.51727],[-117.40154,39.51731],[-117.40171,39.51741],[-117.40172,39.51742],[-117.40191,39.51753],[-117.402,39.51759],[-117.40222,39.51772],[-117.40247,39.51786],[-117.40272,39.518],[-117.40284,39.51807],[-117.40296,39.51814],[-117.40322,39.51829],[-117.40352,39.51844],[-117.40407,39.51873],[-117.40427,39.51883],[-117.40448,39.51894],[-117.40468,39.51903],[-117.40494,39.51916],[-117.40537,39.51936],[-117.40544,39.51939],[-117.40557,39.51945],[-117.40581,39.51956],[-117.40605,39.51967],[-117.40635,39.5198],[-117.4066,39.51991],[-117.40678,39.51998],[-117.40712,39.52012],[-117.40733,39.52021],[-117.40766,39.52034],[-117.40774,39.52037],[-117.40795,39.52045],[-117.40816,39.52053],[-117.40818,39.52054],[-117.40874,39.52074],[-117.40935,39.52095],[-117.40983,39.52111],[-117.41042,39.5213],[-117.41104,39.52149],[-117.41199,39.52176],[-117.41284,39.52199],[-117.41291,39.52201],[-117.41379,39.52226],[-117.4141,39.52234],[-117.41522,39.52266],[-117.41583,39.52283],[-117.41643,39.52299],[-117.41716,39.5232],[-117.41796,39.52342],[-117.41837,39.52353],[-117.41861,39.5236],[-117.41905,39.52372],[-117.41927,39.52379],[-117.41996,39.52398],[-117.42037,39.52409],[-117.42055,39.52414],[-117.42105,39.52428],[-117.42168,39.52446],[-117.42187,39.52452],[-117.42339,39.52493],[-117.42393,39.52508],[-117.4246,39.52526],[-117.42705,39.52595],[-117.42881,39.52645],[-117.43612,39.52848],[-117.43745,39.52885],[-117.43789,39.52897],[-117.44121,39.5299],[-117.44215,39.53016],[-117.44274,39.53033],[-117.44296,39.53039],[-117.44318,39.53045],[-117.44384,39.53064],[-117.44406,39.5307],[-117.44516,39.531],[-117.44573,39.53116],[-117.44697,39.5315],[-117.44783,39.53175],[-117.44983,39.5323],[-117.45341,39.5333],[-117.45516,39.53379],[-117.45538,39.53385],[-117.46152,39.53556],[-117.46196,39.53568],[-117.46382,39.5362],[-117.46571,39.53673],[-117.46665,39.53699],[-117.46788,39.53733],[-117.46855,39.53752],[-117.4693,39.53773],[-117.47052,39.53807],[-117.47074,39.53813],[-117.47121,39.53825],[-117.47244,39.5386],[-117.47293,39.53873],[-117.47347,39.53888],[-117.4739,39.539],[-117.47413,39.53907],[-117.4744,39.53915],[-117.4749,39.53929],[-117.47532,39.53941],[-117.47661,39.53977],[-117.4779,39.54013],[-117.47863,39.54033],[-117.47885,39.54039],[-117.47894,39.54042],[-117.47907,39.54046],[-117.47913,39.54047],[-117.47931,39.54053],[-117.47951,39.54059],[-117.4797,39.54065],[-117.47993,39.54073],[-117.48012,39.5408],[-117.48032,39.54087],[-117.48051,39.54095],[-117.48075,39.54104],[-117.48092,39.54111],[-117.481,39.54114],[-117.48107,39.54117],[-117.4812,39.54122],[-117.48129,39.54126],[-117.4815,39.54135],[-117.48167,39.54142],[-117.48182,39.54149],[-117.48201,39.54158],[-117.48225,39.5417],[-117.48249,39.54182],[-117.4826,39.54188],[-117.48275,39.54196],[-117.48291,39.54205],[-117.48304,39.54213],[-117.48319,39.54221],[-117.48324,39.54225],[-117.48339,39.54234],[-117.48355,39.54244],[-117.48388,39.54265],[-117.48411,39.54279],[-117.48431,39.54292],[-117.48442,39.54299],[-117.48453,39.54307],[-117.48468,39.54319],[-117.48486,39.54332],[-117.48506,39.54347],[-117.48528,39.54363],[-117.48533,39.54367],[-117.48537,39.5437],[-117.48549,39.5438],[-117.4855,39.5438],[-117.48563,39.54391],[-117.48579,39.54404],[-117.48598,39.5442],[-117.48615,39.54434],[-117.48661,39.54473],[-117.487,39.54507],[-117.48731,39.54535],[-117.48777,39.54575],[-117.48782,39.54579],[-117.48823,39.54615],[-117.48836,39.54626],[-117.48839,39.54629],[-117.48855,39.54642],[-117.48892,39.54673],[-117.48902,39.54682],[-117.48913,39.54691],[-117.48924,39.54701],[-117.48943,39.54717],[-117.48956,39.54729],[-117.48975,39.54746],[-117.48981,39.54751],[-117.48987,39.54757],[-117.48999,39.54767],[-117.49017,39.54783],[-117.49028,39.54791],[-117.49037,39.54798],[-117.4905,39.5481],[-117.49082,39.54838],[-117.49088,39.54843],[-117.49092,39.54847],[-117.491,39.54853],[-117.49118,39.54868],[-117.49128,39.54876],[-117.4914,39.54887],[-117.49169,39.54911],[-117.49224,39.54959],[-117.49288,39.55015],[-117.49315,39.55039],[-117.49331,39.55054],[-117.49339,39.55061],[-117.49353,39.55072],[-117.49362,39.55081],[-117.49376,39.55095],[-117.49396,39.55114],[-117.49405,39.55123],[-117.49414,39.55132],[-117.49429,39.55147],[-117.49441,39.55161],[-117.49458,39.55179],[-117.49475,39.55199],[-117.49486,39.55212],[-117.49499,39.55229],[-117.4951,39.55243],[-117.4952,39.55257],[-117.49533,39.55274],[-117.49549,39.55296],[-117.49556,39.55307],[-117.49567,39.55323],[-117.49574,39.55333],[-117.49582,39.55345],[-117.49596,39.55368],[-117.49616,39.55402],[-117.4962,39.55408],[-117.49629,39.55422],[-117.49639,39.55439],[-117.4965,39.55458],[-117.49663,39.55481],[-117.4967,39.55492],[-117.49676,39.55503],[-117.49684,39.55516],[-117.49694,39.55532],[-117.49713,39.5556],[-117.4972,39.55571],[-117.49733,39.55589],[-117.49743,39.55602],[-117.49755,39.55617],[-117.4977,39.55637],[-117.49787,39.55657],[-117.49801,39.55674],[-117.49805,39.55678],[-117.49812,39.55687],[-117.49818,39.55693],[-117.49824,39.557],[-117.49839,39.55716],[-117.49857,39.55734],[-117.49868,39.55747],[-117.49886,39.55764],[-117.49918,39.55796],[-117.49975,39.5585],[-117.50011,39.55885],[-117.50062,39.55934],[-117.50085,39.55957],[-117.50095,39.55966],[-117.50106,39.55977],[-117.50118,39.55987],[-117.5013,39.55999],[-117.5016,39.56027],[-117.50206,39.56071],[-117.50228,39.56092],[-117.50256,39.56118],[-117.50305,39.56165],[-117.5034,39.56198],[-117.50364,39.5622],[-117.50379,39.56234],[-117.50405,39.56259],[-117.50424,39.56276],[-117.50439,39.56291],[-117.50453,39.56302],[-117.50468,39.56314],[-117.50486,39.56328],[-117.50495,39.56335],[-117.50519,39.56352],[-117.50532,39.56361],[-117.50543,39.56368],[-117.50582,39.56396],[-117.50601,39.56408],[-117.50619,39.56421],[-117.50659,39.56449],[-117.50722,39.56493],[-117.50776,39.56531],[-117.50833,39.5657],[-117.50858,39.56588],[-117.50887,39.56607],[-117.50888,39.56608],[-117.50912,39.56624],[-117.50937,39.5664],[-117.5099,39.56673],[-117.51089,39.56731],[-117.5119,39.56789],[-117.51232,39.56814],[-117.51321,39.56866],[-117.51323,39.56867],[-117.51339,39.56877],[-117.51382,39.56902],[-117.51412,39.5692],[-117.51432,39.56931],[-117.51438,39.56934],[-117.5146,39.56946],[-117.51483,39.56957],[-117.51503,39.56965],[-117.51512,39.56969],[-117.5152,39.56972],[-117.51533,39.56977],[-117.51539,39.56979],[-117.51559,39.56986],[-117.51575,39.56991],[-117.51578,39.56992],[-117.51597,39.56997],[-117.51609,39.57],[-117.51622,39.57003],[-117.51637,39.57007],[-117.5165,39.5701],[-117.51661,39.57012],[-117.5168,39.57015],[-117.51705,39.57019],[-117.51754,39.57027],[-117.51756,39.57027],[-117.51768,39.5703],[-117.51781,39.57032],[-117.51795,39.57036],[-117.51811,39.5704],[-117.51826,39.57044],[-117.51849,39.57052],[-117.51885,39.57065],[-117.51912,39.57077],[-117.5193,39.57085],[-117.51948,39.57094],[-117.51964,39.57103],[-117.51993,39.5712],[-117.52001,39.57126],[-117.52014,39.57135],[-117.52031,39.57148],[-117.52051,39.57164],[-117.52069,39.5718],[-117.52081,39.57192],[-117.52082,39.57192],[-117.52094,39.57205],[-117.52103,39.57214],[-117.52119,39.57233],[-117.52132,39.57247],[-117.52147,39.57265],[-117.5217,39.57292],[-117.52182,39.57304],[-117.52189,39.57312],[-117.52196,39.5732],[-117.52201,39.57324],[-117.52207,39.5733],[-117.52218,39.5734],[-117.52229,39.5735],[-117.52231,39.57352],[-117.5224,39.57359],[-117.52251,39.57367],[-117.52265,39.57378],[-117.52276,39.57386],[-117.52288,39.57394],[-117.52299,39.57401],[-117.523,39.57402],[-117.52316,39.57412],[-117.52317,39.57413],[-117.52336,39.57424],[-117.52354,39.57434],[-117.52366,39.5744],[-117.52379,39.57447],[-117.52397,39.57455],[-117.52413,39.57462],[-117.52426,39.57467],[-117.5244,39.57473],[-117.52457,39.5748],[-117.52496,39.57494],[-117.52498,39.57495],[-117.5254,39.57511],[-117.5269,39.57568],[-117.52728,39.57582],[-117.52749,39.5759],[-117.5277,39.57598],[-117.52812,39.57614],[-117.52886,39.57642],[-117.53021,39.57694],[-117.53043,39.57702],[-117.53063,39.5771],[-117.53119,39.57731],[-117.53149,39.57743],[-117.53198,39.57761],[-117.53282,39.57792],[-117.53335,39.57812],[-117.53373,39.57827],[-117.53417,39.57843],[-117.53441,39.57852],[-117.53455,39.57858],[-117.53465,39.57862],[-117.53504,39.57877],[-117.53518,39.57882],[-117.53533,39.57888],[-117.53556,39.57896],[-117.53577,39.57904],[-117.536,39.57911],[-117.53619,39.57917],[-117.53663,39.57931],[-117.53674,39.57934],[-117.53696,39.57941],[-117.53719,39.57948],[-117.5376,39.57961],[-117.53796,39.57971],[-117.53822,39.57978],[-117.53852,39.57986],[-117.53871,39.57992],[-117.5388,39.57994],[-117.53905,39.58001],[-117.53931,39.58007],[-117.5397,39.58016],[-117.54018,39.58028],[-117.54043,39.58034],[-117.54064,39.58039],[-117.54116,39.5805],[-117.54174,39.58061],[-117.54212,39.58068],[-117.54237,39.58073],[-117.54247,39.58074],[-117.54271,39.58079],[-117.54298,39.58083],[-117.54327,39.58088],[-117.54329,39.58088],[-117.54349,39.58091],[-117.54391,39.58097],[-117.54428,39.58102],[-117.54463,39.58107],[-117.54483,39.5811],[-117.54507,39.58113],[-117.54523,39.58115],[-117.54535,39.58116],[-117.5455,39.58117],[-117.54594,39.58121],[-117.54675,39.58128],[-117.54693,39.5813],[-117.54725,39.58132],[-117.54761,39.58134],[-117.54767,39.58135],[-117.54805,39.58137],[-117.54842,39.58139],[-117.54878,39.5814],[-117.54904,39.58141],[-117.54935,39.58141],[-117.54952,39.58142],[-117.54971,39.58142],[-117.54977,39.58142],[-117.54992,39.58142],[-117.55015,39.58142],[-117.55038,39.58142],[-117.55083,39.58142],[-117.55114,39.58142],[-117.55117,39.58142],[-117.5513,39.58141],[-117.55141,39.58141],[-117.55145,39.58141],[-117.55225,39.58138],[-117.55249,39.58137],[-117.55275,39.58136],[-117.55326,39.58133],[-117.55357,39.58131],[-117.55382,39.58129],[-117.55403,39.58127],[-117.55431,39.58125],[-117.55459,39.58123],[-117.55493,39.58119],[-117.55522,39.58115],[-117.55766,39.58087],[-117.55812,39.58082],[-117.55928,39.58069],[-117.55997,39.58061],[-117.56113,39.58047],[-117.56164,39.58041],[-117.56239,39.58033],[-117.56266,39.5803],[-117.56325,39.58023],[-117.56421,39.58011],[-117.56526,39.57999],[-117.56618,39.57989],[-117.56693,39.5798],[-117.56741,39.57975],[-117.56777,39.57971],[-117.568,39.57968],[-117.5682,39.57966],[-117.56879,39.5796],[-117.56938,39.57952],[-117.56989,39.57945],[-117.5715,39.57927],[-117.57496,39.57886],[-117.57884,39.57841],[-117.57917,39.57837],[-117.57967,39.57832],[-117.57998,39.57828],[-117.58027,39.57825],[-117.58258,39.57797],[-117.58353,39.57787],[-117.5864,39.57753],[-117.58696,39.57746],[-117.58704,39.57745],[-117.58719,39.57744],[-117.58812,39.57733],[-117.58829,39.57731],[-117.58883,39.57725],[-117.58927,39.5772],[-117.58933,39.57719],[-117.59004,39.57711],[-117.59054,39.57705],[-117.59111,39.57698],[-117.59131,39.57696],[-117.59202,39.57688],[-117.59254,39.57682],[-117.59278,39.57679],[-117.59312,39.57675],[-117.59386,39.57666],[-117.59412,39.57663],[-117.59454,39.57658],[-117.59527,39.5765],[-117.59561,39.57646],[-117.59642,39.57636],[-117.59664,39.57634],[-117.59665,39.57634],[-117.59749,39.57624],[-117.59792,39.57619],[-117.599,39.57606],[-117.59923,39.57604],[-117.59965,39.57599],[-117.59994,39.57595],[-117.60016,39.57592],[-117.60039,39.57589],[-117.60064,39.57586],[-117.60099,39.5758],[-117.60141,39.57574],[-117.60154,39.57572],[-117.60166,39.5757],[-117.60182,39.57567],[-117.60285,39.57549],[-117.60302,39.57546],[-117.60336,39.57539],[-117.60367,39.57532],[-117.60394,39.57526],[-117.60423,39.5752],[-117.60449,39.57514],[-117.60463,39.57511],[-117.60493,39.57503],[-117.60516,39.57498],[-117.60533,39.57493],[-117.60553,39.57488],[-117.60554,39.57488],[-117.60615,39.57471],[-117.60653,39.57461],[-117.60696,39.57448],[-117.60722,39.57441],[-117.60787,39.5742],[-117.60808,39.57413],[-117.60819,39.57409],[-117.6084,39.57402],[-117.60845,39.574],[-117.60889,39.57385],[-117.60927,39.57372],[-117.61012,39.57341],[-117.61096,39.57311],[-117.61264,39.57252],[-117.61284,39.57244],[-117.61354,39.5722],[-117.6146,39.57181],[-117.61649,39.57114],[-117.61826,39.57051],[-117.62051,39.56971],[-117.62101,39.56953],[-117.62298,39.56883],[-117.6239,39.5685],[-117.62431,39.56835],[-117.62591,39.56778],[-117.62709,39.56736],[-117.62833,39.56691],[-117.62962,39.56645],[-117.63058,39.56611],[-117.63322,39.56517],[-117.6364,39.56403],[-117.63661,39.56395],[-117.63686,39.56386],[-117.63788,39.5635],[-117.63957,39.56289],[-117.64401,39.5613],[-117.64473,39.56105],[-117.64507,39.56093],[-117.64586,39.56065],[-117.64642,39.56045],[-117.64801,39.55988],[-117.64835,39.55976],[-117.64912,39.55948],[-117.64983,39.55922],[-117.65241,39.5583],[-117.65251,39.55827],[-117.65272,39.55819],[-117.65348,39.55792],[-117.65656,39.55682],[-117.65674,39.55675],[-117.65806,39.55628],[-117.65907,39.55592],[-117.65928,39.55584],[-117.6598,39.55566],[-117.66355,39.55431],[-117.67086,39.55169],[-117.67509,39.55017],[-117.6753,39.5501],[-117.67551,39.55002],[-117.67593,39.54987],[-117.67595,39.54986],[-117.67679,39.54957],[-117.67911,39.54874],[-117.67975,39.54852],[-117.67996,39.54844],[-117.68186,39.54776],[-117.68292,39.54738],[-117.68427,39.54689],[-117.6863,39.54617],[-117.68778,39.54564],[-117.68884,39.54526],[-117.68969,39.54495],[-117.6918,39.5442],[-117.69218,39.54406],[-117.69455,39.54321],[-117.69476,39.54313],[-117.70014,39.54121],[-117.70301,39.54018],[-117.70323,39.5401],[-117.71137,39.53719],[-117.71226,39.53688],[-117.71311,39.53658],[-117.71661,39.53531],[-117.71702,39.53515],[-117.71732,39.53504],[-117.71763,39.53492],[-117.7179,39.53481],[-117.7181,39.53473],[-117.7183,39.53465],[-117.71855,39.53454],[-117.71915,39.53429],[-117.71938,39.53419],[-117.71964,39.53407],[-117.7198,39.534],[-117.72,39.53391],[-117.72055,39.53364],[-117.72083,39.5335],[-117.72097,39.53343],[-117.72129,39.53326],[-117.72165,39.53308],[-117.72238,39.5327],[-117.7228,39.53249],[-117.72349,39.53213],[-117.72409,39.53182],[-117.72599,39.53085],[-117.72627,39.5307],[-117.72708,39.53029],[-117.72943,39.52909],[-117.73097,39.52828],[-117.73115,39.52819],[-117.73116,39.52818],[-117.73155,39.52799],[-117.73346,39.52701],[-117.73369,39.52689],[-117.73555,39.52594],[-117.7376,39.52489],[-117.73854,39.5244],[-117.74007,39.52361],[-117.74145,39.5229],[-117.74483,39.52117],[-117.74569,39.52072],[-117.74769,39.51969],[-117.74835,39.51935],[-117.74961,39.51871],[-117.75092,39.51803],[-117.75379,39.51657],[-117.75445,39.51622],[-117.75542,39.51572],[-117.758,39.5144],[-117.75833,39.51423],[-117.76015,39.51329],[-117.7618,39.51245],[-117.76335,39.51165],[-117.76389,39.51137],[-117.76544,39.51058],[-117.7668,39.50988],[-117.76713,39.50971],[-117.76829,39.50911],[-117.77139,39.50751],[-117.77217,39.50711],[-117.77546,39.50543],[-117.77934,39.50343],[-117.78186,39.50214],[-117.78206,39.50204],[-117.78392,39.50108],[-117.78741,39.49928],[-117.78915,39.49838],[-117.79051,39.49769],[-117.79062,39.49763],[-117.79378,39.496],[-117.79437,39.49569],[-117.79477,39.49548],[-117.79511,39.49529],[-117.79555,39.49504],[-117.79608,39.49472],[-117.79626,39.49461],[-117.79647,39.49448],[-117.79689,39.49422],[-117.79715,39.49405],[-117.79745,39.49385],[-117.7983,39.49325],[-117.79851,39.4931],[-117.7987,39.49296],[-117.79886,39.49285],[-117.79905,39.49271],[-117.79926,39.49255],[-117.79943,39.49242],[-117.79987,39.49207],[-117.80035,39.49167],[-117.80076,39.49133],[-117.80105,39.49106],[-117.80126,39.49087],[-117.80145,39.49069],[-117.80205,39.49013],[-117.80224,39.48994],[-117.80238,39.4898],[-117.80239,39.4898],[-117.8025,39.48968],[-117.80284,39.48933],[-117.80294,39.48922],[-117.80308,39.48907],[-117.80315,39.48899],[-117.80338,39.48874],[-117.80356,39.48855],[-117.80384,39.48822],[-117.80406,39.48795],[-117.80419,39.4878],[-117.80433,39.48763],[-117.80441,39.48753],[-117.8045,39.48742],[-117.80457,39.48732],[-117.80466,39.48721],[-117.8049,39.48688],[-117.80512,39.48659],[-117.80526,39.48639],[-117.80599,39.48539],[-117.80719,39.48374],[-117.80724,39.48366],[-117.80793,39.48272],[-117.80926,39.48089],[-117.80964,39.48037],[-117.81105,39.47842],[-117.81158,39.4777],[-117.81226,39.47677],[-117.81249,39.47645],[-117.81294,39.47582],[-117.81361,39.4749],[-117.81479,39.47328],[-117.81488,39.47315],[-117.81511,39.47284],[-117.81522,39.47268],[-117.81535,39.47251],[-117.81568,39.47206],[-117.81597,39.47166],[-117.81671,39.47063],[-117.81705,39.47017],[-117.81798,39.46889],[-117.81819,39.46861],[-117.81831,39.46845],[-117.81865,39.46798],[-117.81874,39.46787],[-117.81877,39.46782],[-117.81911,39.46735],[-117.81923,39.4672],[-117.81934,39.46704],[-117.81948,39.46685],[-117.8199,39.46625],[-117.82002,39.4661],[-117.8202,39.46583],[-117.82035,39.46563],[-117.82109,39.46461],[-117.8215,39.46406],[-117.82241,39.4628],[-117.82251,39.46266],[-117.82333,39.46155],[-117.82349,39.46133],[-117.82356,39.46124],[-117.8249,39.45941],[-117.8263,39.45748],[-117.82721,39.45622],[-117.82733,39.45606],[-117.82881,39.45402],[-117.8292,39.45348],[-117.8296,39.45293],[-117.83043,39.45177],[-117.83046,39.45173],[-117.8308,39.45126],[-117.831,39.45097],[-117.83111,39.45083],[-117.83115,39.45076],[-117.83122,39.45067],[-117.83123,39.45064],[-117.83129,39.45055],[-117.83135,39.45046],[-117.83143,39.45033],[-117.83152,39.45018],[-117.83156,39.45011],[-117.83174,39.44981],[-117.83222,39.44899],[-117.83229,39.44887],[-117.83257,39.44836],[-117.83277,39.44797],[-117.8329,39.4477],[-117.83299,39.44751],[-117.83317,39.4471],[-117.83333,39.44675],[-117.83335,39.44668],[-117.8334,39.44658],[-117.83343,39.44651],[-117.83348,39.44638],[-117.83355,39.44619],[-117.83362,39.44602],[-117.83368,39.44587],[-117.83374,39.44571],[-117.83383,39.44546],[-117.8339,39.44525],[-117.83394,39.44513],[-117.83396,39.44507],[-117.83401,39.44494],[-117.83406,39.44479],[-117.83411,39.44463],[-117.83422,39.44427],[-117.8345,39.44325],[-117.83468,39.44265],[-117.83495,39.44169],[-117.83526,39.44054],[-117.83555,39.43951],[-117.8356,39.43933],[-117.83562,39.43926],[-117.8359,39.43826],[-117.83604,39.43775],[-117.83608,39.43761],[-117.83624,39.43705],[-117.83634,39.43672],[-117.83646,39.43625],[-117.83678,39.43511],[-117.83697,39.43443],[-117.83718,39.43369],[-117.83722,39.43353],[-117.8373,39.43325],[-117.83757,39.4323],[-117.83776,39.4316],[-117.83802,39.43069],[-117.83816,39.43019],[-117.83816,39.43018],[-117.83821,39.43002],[-117.83841,39.42931],[-117.83845,39.42915],[-117.83856,39.42879],[-117.8387,39.42826],[-117.83871,39.42823],[-117.83888,39.42765],[-117.83895,39.42738],[-117.83932,39.426],[-117.83963,39.42492],[-117.84001,39.42354],[-117.84002,39.42351],[-117.84007,39.42333],[-117.84018,39.42298],[-117.84035,39.4224],[-117.84038,39.42228],[-117.84065,39.42132],[-117.84086,39.42057],[-117.84101,39.42002],[-117.84113,39.41954],[-117.84126,39.41912],[-117.84136,39.41876],[-117.84155,39.4181],[-117.84156,39.41806],[-117.84179,39.41723],[-117.84201,39.41648],[-117.84234,39.41528],[-117.84273,39.41386],[-117.84291,39.41321],[-117.84302,39.41285],[-117.84316,39.41235],[-117.84328,39.41186],[-117.84337,39.4116],[-117.84354,39.41098],[-117.84364,39.41063],[-117.84374,39.41028],[-117.84392,39.40958],[-117.84396,39.40944],[-117.84407,39.40905],[-117.84416,39.40872],[-117.84424,39.40844],[-117.84433,39.40811],[-117.84448,39.40753],[-117.84471,39.40672],[-117.84483,39.4063],[-117.84508,39.40543],[-117.84515,39.40519],[-117.84523,39.40494],[-117.84533,39.40462],[-117.84572,39.40355],[-117.84584,39.40324],[-117.84599,39.40288],[-117.84615,39.40252],[-117.84619,39.40244],[-117.84637,39.40206],[-117.84652,39.40172],[-117.84668,39.4014],[-117.84683,39.4011],[-117.84695,39.40088],[-117.84722,39.40039],[-117.84735,39.40017],[-117.84744,39.4],[-117.84755,39.39981],[-117.84787,39.39931],[-117.84794,39.3992],[-117.84802,39.39907],[-117.84814,39.39889],[-117.84829,39.39866],[-117.84849,39.39835],[-117.84865,39.39812],[-117.85054,39.39521],[-117.85111,39.39432],[-117.85122,39.39416],[-117.85196,39.39301],[-117.85236,39.39239],[-117.85264,39.39197],[-117.85292,39.39154],[-117.85316,39.39117],[-117.85345,39.39072],[-117.85385,39.39008],[-117.8545,39.38908],[-117.8547,39.38877],[-117.85505,39.38824],[-117.85529,39.38787],[-117.85553,39.38752],[-117.85567,39.3873],[-117.85583,39.38709],[-117.85597,39.3869],[-117.85611,39.38671],[-117.85633,39.3864],[-117.85646,39.38623],[-117.8566,39.38606],[-117.85681,39.3858],[-117.857,39.38556],[-117.85712,39.38541],[-117.85731,39.38519],[-117.85747,39.385],[-117.85769,39.38474],[-117.85795,39.38446],[-117.85817,39.38422],[-117.85845,39.38394],[-117.85862,39.38376],[-117.85881,39.38357],[-117.8591,39.38328],[-117.85939,39.383],[-117.85959,39.38281],[-117.86,39.38243],[-117.86023,39.38221],[-117.86042,39.38204],[-117.86068,39.38182],[-117.86117,39.38141],[-117.8614,39.38121],[-117.8619,39.3808],[-117.86226,39.3805],[-117.86254,39.38026],[-117.86289,39.37997],[-117.86326,39.37966],[-117.86364,39.37934],[-117.86387,39.37915],[-117.86423,39.37884],[-117.86478,39.37837],[-117.8651,39.3781],[-117.86583,39.37748],[-117.86663,39.37682],[-117.86718,39.37636],[-117.86763,39.37598],[-117.86825,39.37547],[-117.86884,39.37498],[-117.86949,39.37443],[-117.87019,39.37384],[-117.87185,39.37244],[-117.8721,39.37223],[-117.87268,39.37173],[-117.8732,39.37129],[-117.8736,39.37095],[-117.87376,39.37082],[-117.87439,39.37029],[-117.87502,39.36976],[-117.87658,39.36846],[-117.8766,39.36844],[-117.87676,39.36831],[-117.87735,39.3678],[-117.87817,39.36712],[-117.87973,39.36581],[-117.88041,39.36524],[-117.88043,39.36523],[-117.88151,39.36431],[-117.88338,39.36273],[-117.88406,39.36216],[-117.88517,39.36124],[-117.8858,39.36071],[-117.88638,39.36022],[-117.88654,39.36009],[-117.88668,39.35997],[-117.88708,39.35964],[-117.88752,39.35927],[-117.88827,39.35864],[-117.88875,39.35824],[-117.8889,39.35811],[-117.88932,39.35776],[-117.88973,39.3574],[-117.89014,39.35706],[-117.8905,39.35675],[-117.8908,39.3565],[-117.89163,39.35582],[-117.89244,39.35512],[-117.89264,39.35495],[-117.89279,39.35483],[-117.89311,39.35457],[-117.89336,39.35436],[-117.89383,39.35396],[-117.89437,39.35351],[-117.89469,39.35324],[-117.8948,39.35315],[-117.89494,39.35303],[-117.89547,39.35257],[-117.89587,39.35224],[-117.896,39.35213],[-117.89611,39.35203],[-117.89627,39.35189],[-117.89644,39.35175],[-117.89666,39.35156],[-117.89684,39.35141],[-117.8972,39.35111],[-117.89832,39.35019],[-117.89949,39.34922],[-117.89966,39.34907],[-117.89982,39.34894],[-117.90117,39.34781],[-117.90124,39.34775],[-117.90284,39.34639],[-117.90379,39.3456],[-117.90442,39.34507],[-117.90486,39.34469],[-117.90631,39.34348],[-117.90638,39.34343],[-117.9074,39.34256],[-117.90817,39.34192],[-117.91032,39.34011],[-117.91279,39.33802],[-117.91602,39.33531],[-117.91646,39.33495],[-117.91915,39.3327],[-117.91939,39.33249],[-117.91978,39.33217],[-117.91994,39.33204],[-117.9201,39.33191],[-117.92066,39.33144],[-117.92464,39.32806],[-117.92557,39.32728],[-117.92594,39.32696],[-117.9261,39.32683],[-117.92754,39.32563],[-117.9283,39.32498],[-117.92846,39.32485],[-117.92937,39.32407],[-117.9309,39.32279],[-117.93097,39.32272],[-117.93145,39.32233],[-117.9316,39.32219],[-117.93207,39.3218],[-117.93271,39.32127],[-117.93286,39.32114],[-117.93318,39.32087],[-117.9337,39.32044],[-117.93492,39.31941],[-117.93632,39.31822],[-117.93914,39.31588],[-117.94142,39.31393],[-117.94259,39.31299],[-117.94318,39.31248],[-117.94399,39.31179],[-117.94414,39.31165],[-117.94415,39.31165],[-117.9443,39.31152],[-117.94515,39.3108],[-117.9465,39.30967],[-117.94698,39.30927],[-117.9479,39.3085],[-117.94824,39.30821],[-117.94918,39.30742],[-117.94918,39.30741],[-117.94934,39.30728],[-117.95081,39.30603],[-117.95106,39.30582],[-117.95196,39.30507],[-117.95252,39.30461],[-117.95283,39.30438],[-117.95332,39.30402],[-117.9535,39.3039],[-117.95396,39.30358],[-117.95457,39.30319],[-117.95532,39.30274],[-117.95607,39.30235],[-117.95691,39.30195],[-117.95767,39.30163],[-117.95849,39.30128],[-117.95884,39.30114],[-117.95978,39.30076],[-117.96117,39.3002],[-117.96144,39.30009],[-117.96306,39.29944],[-117.96344,39.29929],[-117.96631,39.29811],[-117.96632,39.29811],[-117.96714,39.29778],[-117.96834,39.2973],[-117.96902,39.29703],[-117.96956,39.29684],[-117.97021,39.29661],[-117.97093,39.29638],[-117.97094,39.29637],[-117.97208,39.29603],[-117.97245,39.29593],[-117.97282,39.29582],[-117.97323,39.29572],[-117.97397,39.29554],[-117.97426,39.29547],[-117.97458,39.2954],[-117.9753,39.29525],[-117.97611,39.29509],[-117.9767,39.29499],[-117.97689,39.29496],[-117.9776,39.29485],[-117.97849,39.29473],[-117.97901,39.29467],[-117.97962,39.29461],[-117.98062,39.29451],[-117.9822,39.29437],[-117.98267,39.29433],[-117.98337,39.29427],[-117.98382,39.29423],[-117.98475,39.29415],[-117.98521,39.2941],[-117.98759,39.29389],[-117.98989,39.2937],[-117.99012,39.29368],[-117.99151,39.29356],[-117.99314,39.2934],[-117.99566,39.29318],[-117.99587,39.29316],[-117.99872,39.29291],[-117.9989,39.29289],[-118.00054,39.29274],[-118.00196,39.29262],[-118.00374,39.29246],[-118.00387,39.29245],[-118.00561,39.29229],[-118.00651,39.29221],[-118.00758,39.29211],[-118.00951,39.29194],[-118.01161,39.29175],[-118.01368,39.29158],[-118.01546,39.29141],[-118.01713,39.29126],[-118.01731,39.29125],[-118.0184,39.29115],[-118.01898,39.2911],[-118.01957,39.29105],[-118.01967,39.29104],[-118.02211,39.29082],[-118.02607,39.29046],[-118.02819,39.29027],[-118.02819,39.29027],[-118.02783,39.28979],[-118.02757,39.28943],[-118.02642,39.28792],[-118.02642,39.28792],[-118.02658,39.28792],[-118.02658,39.28792],[-118.0266,39.28785],[-118.02662,39.2878],[-118.02665,39.28773],[-118.02666,39.2877],[-118.02667,39.28766],[-118.02669,39.28761],[-118.02669,39.28759],[-118.02669,39.28756],[-118.02669,39.28753],[-118.02668,39.28748],[-118.02666,39.28743],[-118.02665,39.28738],[-118.02664,39.28733],[-118.02663,39.28732]]}}]}