{"type":"FeatureCollection","features":[{"type":"Feature","properties":{"_gpxType":"trk","name":"Middlegate Station, Austin Highway, Fallon, NV - Motel 6 Fallon, NV, South Taylor Street, Fallon, NV","coordinateProperties":{},"id":98},"geometry":{"type":"LineString","coordinates":[[-118.02663,39.28732],[-118.02664,39.28733],[-118.02665,39.28738],[-118.02666,39.28743],[-118.02668,39.28748],[-118.02669,39.28753],[-118.02669,39.28756],[-118.02669,39.28759],[-118.02669,39.28761],[-118.02667,39.28766],[-118.02666,39.2877],[-118.02665,39.28773],[-118.02662,39.2878],[-118.0266,39.28785],[-118.02658,39.28792],[-118.02658,39.28792],[-118.02642,39.28792],[-118.02642,39.28792],[-118.02757,39.28943],[-118.02783,39.28979],[-118.02819,39.29027],[-118.02819,39.29027],[-118.02873,39.29023],[-118.02942,39.29018],[-118.03033,39.29012],[-118.03094,39.2901],[-118.03096,39.2901],[-118.03163,39.29008],[-118.0322,39.29008],[-118.03285,39.29008],[-118.03368,39.2901],[-118.0357,39.29016],[-118.03817,39.29024],[-118.04023,39.29031],[-118.04294,39.29039],[-118.04503,39.29045],[-118.04937,39.29058],[-118.05301,39.29069],[-118.05359,39.29071],[-118.05417,39.29073],[-118.05486,39.29075],[-118.05613,39.29079],[-118.05765,39.29084],[-118.05935,39.2909],[-118.06113,39.29095],[-118.06347,39.29102],[-118.06531,39.29108],[-118.06555,39.29109],[-118.06717,39.29114],[-118.06769,39.29116],[-118.06829,39.29117],[-118.06902,39.29116],[-118.0697,39.29115],[-118.07032,39.29112],[-118.07089,39.29109],[-118.07109,39.29108],[-118.07413,39.29087],[-118.07565,39.29076],[-118.07669,39.29069],[-118.07947,39.29049],[-118.0804,39.29042],[-118.08466,39.29011],[-118.08958,39.28975],[-118.09097,39.28965],[-118.09629,39.28925],[-118.09863,39.28909],[-118.10251,39.28881],[-118.103,39.28877],[-118.10485,39.28864],[-118.10615,39.28854],[-118.1084,39.28838],[-118.10933,39.28831],[-118.11025,39.28824],[-118.11257,39.28808],[-118.1188,39.28763],[-118.12172,39.28741],[-118.1245,39.28721],[-118.12519,39.28716],[-118.12542,39.28714],[-118.12566,39.28712],[-118.12658,39.28706],[-118.12681,39.28704],[-118.12751,39.28699],[-118.12797,39.28695],[-118.1282,39.28694],[-118.12843,39.28692],[-118.13012,39.2868],[-118.13177,39.28668],[-118.13268,39.28662],[-118.13359,39.28657],[-118.13436,39.28654],[-118.13507,39.28653],[-118.13545,39.28653],[-118.13568,39.28653],[-118.13575,39.28653],[-118.13639,39.28655],[-118.13661,39.28655],[-118.13755,39.28658],[-118.13995,39.28666],[-118.14274,39.28674],[-118.14373,39.28676],[-118.14506,39.28681],[-118.14664,39.28687],[-118.14738,39.2869],[-118.14761,39.2869],[-118.15039,39.287],[-118.15132,39.28703],[-118.15225,39.28705],[-118.15316,39.28707],[-118.15364,39.28706],[-118.15387,39.28706],[-118.15413,39.28706],[-118.15491,39.28704],[-118.1557,39.28701],[-118.1568,39.28695],[-118.15806,39.28687],[-118.1596,39.28678],[-118.16239,39.2866],[-118.16725,39.28633],[-118.17034,39.28616],[-118.17057,39.28614],[-118.17404,39.28595],[-118.17718,39.28577],[-118.1789,39.28567],[-118.1797,39.28562],[-118.18425,39.28535],[-118.18678,39.28521],[-118.18701,39.2852],[-118.18955,39.28505],[-118.18984,39.2851],[-118.19084,39.28504],[-118.19163,39.285],[-118.19276,39.28493],[-118.19351,39.28489],[-118.19434,39.28484],[-118.19566,39.28476],[-118.19713,39.28467],[-118.19851,39.28459],[-118.20013,39.2845],[-118.20152,39.28442],[-118.20221,39.28438],[-118.20384,39.28428],[-118.20402,39.28427],[-118.20407,39.28427],[-118.20662,39.28412],[-118.20764,39.28406],[-118.20874,39.284],[-118.21037,39.28391],[-118.21056,39.28389],[-118.21181,39.28382],[-118.21519,39.28362],[-118.22212,39.28322],[-118.22688,39.28295],[-118.23008,39.28276],[-118.23059,39.28273],[-118.23082,39.28272],[-118.23136,39.28268],[-118.23263,39.28259],[-118.23417,39.28246],[-118.23475,39.28241],[-118.23545,39.28235],[-118.23659,39.28225],[-118.23758,39.28216],[-118.23775,39.28215],[-118.23858,39.28207],[-118.23937,39.282],[-118.2396,39.28198],[-118.24283,39.2817],[-118.24398,39.2816],[-118.24566,39.28145],[-118.25483,39.28064],[-118.25645,39.2805],[-118.25668,39.28048],[-118.26799,39.27948],[-118.27051,39.27926],[-118.27081,39.27923],[-118.27114,39.2792],[-118.27127,39.27919],[-118.27173,39.27915],[-118.27435,39.27892],[-118.27542,39.27882],[-118.27566,39.2788],[-118.2835,39.27811],[-118.28469,39.278],[-118.28495,39.27798],[-118.28522,39.27794],[-118.28649,39.27774],[-118.28741,39.27759],[-118.28929,39.27728],[-118.29024,39.27712],[-118.29194,39.27683],[-118.29421,39.27646],[-118.29444,39.27642],[-118.29642,39.2761],[-118.29846,39.27576],[-118.29914,39.27565],[-118.29924,39.27563],[-118.29937,39.27561],[-118.29951,39.27559],[-118.29959,39.27556],[-118.30008,39.27543],[-118.30102,39.27527],[-118.30116,39.27524],[-118.30145,39.2752],[-118.30171,39.27515],[-118.30192,39.27512],[-118.30224,39.27506],[-118.3023,39.27505],[-118.30253,39.27502],[-118.30275,39.27498],[-118.30298,39.27494],[-118.30321,39.2749],[-118.30354,39.27485],[-118.30403,39.27477],[-118.30435,39.27472],[-118.30452,39.27469],[-118.30457,39.27468],[-118.30486,39.27463],[-118.30545,39.27453],[-118.30616,39.27441],[-118.30624,39.2744],[-118.30639,39.27438],[-118.30662,39.27434],[-118.30684,39.2743],[-118.30724,39.27423],[-118.30832,39.27405],[-118.30843,39.27403],[-118.30964,39.27383],[-118.31012,39.27375],[-118.31124,39.27357],[-118.31302,39.27328],[-118.3133,39.27323],[-118.31384,39.27313],[-118.31446,39.27304],[-118.31494,39.27295],[-118.3153,39.27289],[-118.31601,39.27278],[-118.31645,39.2727],[-118.31665,39.27267],[-118.31714,39.27258],[-118.31759,39.27251],[-118.31792,39.27246],[-118.31826,39.2724],[-118.31853,39.27236],[-118.31882,39.27232],[-118.31893,39.27231],[-118.3191,39.27229],[-118.31933,39.27227],[-118.31939,39.27227],[-118.31952,39.27226],[-118.31969,39.27225],[-118.31984,39.27225],[-118.31985,39.27225],[-118.31999,39.27224],[-118.32026,39.27224],[-118.32047,39.27224],[-118.32065,39.27224],[-118.32084,39.27224],[-118.32099,39.27225],[-118.32111,39.27225],[-118.32122,39.27226],[-118.32135,39.27227],[-118.3215,39.27228],[-118.32176,39.2723],[-118.32199,39.27233],[-118.3222,39.27235],[-118.3224,39.27238],[-118.32253,39.2724],[-118.32267,39.27243],[-118.32291,39.27247],[-118.32307,39.2725],[-118.32322,39.27254],[-118.32339,39.27258],[-118.32357,39.27262],[-118.32387,39.27269],[-118.32419,39.27277],[-118.32441,39.27283],[-118.3245,39.27285],[-118.32513,39.27301],[-118.3256,39.27313],[-118.32593,39.27321],[-118.32651,39.27336],[-118.32722,39.27353],[-118.32819,39.27377],[-118.32881,39.27393],[-118.32915,39.27401],[-118.32943,39.27407],[-118.32992,39.27418],[-118.33025,39.27425],[-118.33074,39.27434],[-118.33097,39.27439],[-118.33135,39.27446],[-118.3317,39.27452],[-118.33201,39.27457],[-118.33212,39.27459],[-118.33219,39.2746],[-118.33234,39.27462],[-118.33248,39.27464],[-118.33277,39.27469],[-118.33309,39.27473],[-118.33329,39.27476],[-118.33351,39.27479],[-118.33384,39.27483],[-118.33417,39.27487],[-118.33434,39.27489],[-118.3344,39.2749],[-118.33461,39.27492],[-118.335,39.27495],[-118.33521,39.27497],[-118.33544,39.27499],[-118.33593,39.27503],[-118.33613,39.27505],[-118.33658,39.27508],[-118.33685,39.27509],[-118.33706,39.2751],[-118.3373,39.27511],[-118.33764,39.27512],[-118.33776,39.27513],[-118.33799,39.27514],[-118.33853,39.27515],[-118.33879,39.27515],[-118.33907,39.27515],[-118.33935,39.27515],[-118.33979,39.27515],[-118.34,39.27514],[-118.34032,39.27514],[-118.34068,39.27513],[-118.34087,39.27512],[-118.34117,39.27511],[-118.34151,39.2751],[-118.34173,39.27508],[-118.34194,39.27507],[-118.3421,39.27506],[-118.34226,39.27505],[-118.34244,39.27504],[-118.34252,39.27504],[-118.34268,39.27502],[-118.34275,39.27502],[-118.3429,39.27501],[-118.34306,39.27499],[-118.34322,39.27498],[-118.34339,39.27497],[-118.34361,39.27494],[-118.3439,39.27492],[-118.34415,39.27489],[-118.34435,39.27487],[-118.34461,39.27484],[-118.34485,39.27481],[-118.34523,39.27476],[-118.34557,39.27471],[-118.34584,39.27467],[-118.34613,39.27463],[-118.34619,39.27462],[-118.34636,39.27459],[-118.34666,39.27455],[-118.34688,39.27451],[-118.34706,39.27448],[-118.3471,39.27447],[-118.34731,39.27443],[-118.34751,39.27439],[-118.3478,39.27434],[-118.34823,39.27425],[-118.34857,39.27418],[-118.34868,39.27416],[-118.34907,39.27408],[-118.35056,39.27378],[-118.3507,39.27375],[-118.3516,39.27357],[-118.35161,39.27357],[-118.35258,39.27337],[-118.35272,39.27334],[-118.35316,39.27326],[-118.35427,39.27303],[-118.35497,39.27289],[-118.35498,39.27289],[-118.3552,39.27284],[-118.35604,39.27267],[-118.3567,39.27254],[-118.3575,39.27238],[-118.35789,39.2723],[-118.35804,39.27226],[-118.35843,39.27218],[-118.35876,39.2721],[-118.359,39.27204],[-118.35917,39.272],[-118.35935,39.27195],[-118.35951,39.2719],[-118.35989,39.27179],[-118.36001,39.27175],[-118.36013,39.27171],[-118.36025,39.27168],[-118.36036,39.27164],[-118.36067,39.27154],[-118.36085,39.27147],[-118.361,39.27142],[-118.36122,39.27134],[-118.36146,39.27124],[-118.36164,39.27117],[-118.36171,39.27115],[-118.3618,39.27111],[-118.36191,39.27106],[-118.36203,39.27101],[-118.36221,39.27093],[-118.36253,39.27079],[-118.36277,39.27067],[-118.36278,39.27066],[-118.36295,39.27058],[-118.36322,39.27045],[-118.3636,39.27024],[-118.36403,39.27],[-118.36425,39.26986],[-118.36459,39.26965],[-118.36478,39.26953],[-118.365,39.26939],[-118.36513,39.2693],[-118.36536,39.26913],[-118.36548,39.26905],[-118.36576,39.26884],[-118.36617,39.26853],[-118.36644,39.26833],[-118.36668,39.26815],[-118.36705,39.26787],[-118.3674,39.2676],[-118.36773,39.26735],[-118.3679,39.26723],[-118.36815,39.26706],[-118.3683,39.26696],[-118.36842,39.26688],[-118.36851,39.26682],[-118.36865,39.26673],[-118.36876,39.26667],[-118.36891,39.26659],[-118.36908,39.26649],[-118.3692,39.26644],[-118.36928,39.26639],[-118.36951,39.26628],[-118.36965,39.26621],[-118.36994,39.26608],[-118.37015,39.26599],[-118.37046,39.26587],[-118.37059,39.26582],[-118.37081,39.26574],[-118.371,39.26568],[-118.37115,39.26563],[-118.37127,39.26559],[-118.3714,39.26555],[-118.37147,39.26554],[-118.37168,39.26548],[-118.37173,39.26546],[-118.372,39.2654],[-118.3723,39.26533],[-118.37292,39.26519],[-118.37347,39.26506],[-118.37381,39.26498],[-118.37429,39.26488],[-118.37453,39.26482],[-118.37468,39.26479],[-118.37504,39.26471],[-118.37536,39.26464],[-118.3756,39.26459],[-118.3761,39.26448],[-118.37627,39.26445],[-118.37638,39.26442],[-118.37648,39.2644],[-118.3766,39.26438],[-118.37707,39.2643],[-118.37728,39.26426],[-118.3775,39.26423],[-118.37771,39.2642],[-118.37795,39.26417],[-118.37821,39.26414],[-118.37841,39.26412],[-118.3786,39.26411],[-118.37864,39.2641],[-118.37876,39.26409],[-118.37904,39.26407],[-118.37939,39.26405],[-118.37957,39.26404],[-118.37977,39.26404],[-118.38008,39.26403],[-118.38046,39.26403],[-118.3808,39.26403],[-118.38112,39.26404],[-118.38124,39.26405],[-118.38137,39.26405],[-118.38153,39.26406],[-118.38187,39.26409],[-118.38203,39.2641],[-118.38218,39.26411],[-118.38232,39.26412],[-118.38244,39.26414],[-118.38263,39.26416],[-118.38279,39.26417],[-118.38296,39.2642],[-118.3831,39.26422],[-118.38326,39.26424],[-118.3834,39.26426],[-118.38353,39.26428],[-118.38377,39.26432],[-118.38397,39.26435],[-118.38414,39.26438],[-118.38429,39.26441],[-118.38455,39.26447],[-118.38472,39.2645],[-118.38484,39.26453],[-118.38503,39.26458],[-118.38525,39.26463],[-118.3855,39.26469],[-118.38617,39.26486],[-118.38719,39.26512],[-118.38811,39.26535],[-118.38884,39.26554],[-118.3895,39.2657],[-118.39063,39.26599],[-118.39182,39.26629],[-118.39193,39.26632],[-118.39284,39.26655],[-118.39372,39.26677],[-118.39392,39.26682],[-118.39427,39.26691],[-118.39474,39.26703],[-118.39524,39.26715],[-118.39568,39.26726],[-118.39657,39.26749],[-118.39675,39.26754],[-118.39728,39.26767],[-118.39757,39.26775],[-118.39787,39.26784],[-118.39815,39.26791],[-118.39871,39.26808],[-118.39908,39.26819],[-118.3994,39.26829],[-118.39974,39.2684],[-118.40039,39.26862],[-118.40091,39.26881],[-118.4011,39.26888],[-118.40128,39.26894],[-118.40185,39.26916],[-118.40233,39.26935],[-118.40258,39.26946],[-118.40276,39.26953],[-118.40308,39.26967],[-118.40342,39.26982],[-118.40391,39.27004],[-118.40415,39.27015],[-118.40447,39.27031],[-118.40495,39.27054],[-118.40781,39.272],[-118.4082,39.2722],[-118.40956,39.27289],[-118.41092,39.27358],[-118.41305,39.27467],[-118.41316,39.27473],[-118.41452,39.27542],[-118.41588,39.27611],[-118.41646,39.27641],[-118.41665,39.27651],[-118.41743,39.2769],[-118.41763,39.277],[-118.4184,39.2774],[-118.4186,39.2775],[-118.41879,39.2776],[-118.41937,39.27789],[-118.42103,39.27874],[-118.42203,39.27925],[-118.42388,39.28019],[-118.42434,39.28042],[-118.42479,39.28065],[-118.42493,39.28072],[-118.42588,39.28121],[-118.42714,39.28185],[-118.42909,39.28286],[-118.42938,39.283],[-118.42958,39.2831],[-118.42977,39.2832],[-118.43047,39.28356],[-118.43074,39.28369],[-118.43168,39.28417],[-118.43258,39.28463],[-118.43325,39.28497],[-118.43391,39.2853],[-118.43407,39.28538],[-118.43427,39.28547],[-118.43445,39.28555],[-118.43446,39.28555],[-118.43513,39.28585],[-118.43523,39.28589],[-118.43537,39.28595],[-118.43554,39.28602],[-118.436,39.2862],[-118.43608,39.28623],[-118.43629,39.28632],[-118.43648,39.2864],[-118.43649,39.2864],[-118.43667,39.28648],[-118.43711,39.28666],[-118.43716,39.28668],[-118.43769,39.2869],[-118.4383,39.28714],[-118.4389,39.28739],[-118.43989,39.28779],[-118.44065,39.28809],[-118.44187,39.28856],[-118.44236,39.28875],[-118.44308,39.28902],[-118.44332,39.28911],[-118.44394,39.28934],[-118.44458,39.28957],[-118.44476,39.28964],[-118.44563,39.28996],[-118.44604,39.29012],[-118.44656,39.29031],[-118.44765,39.2907],[-118.4486,39.29105],[-118.44962,39.29142],[-118.44964,39.29143],[-118.45042,39.29171],[-118.4512,39.292],[-118.45172,39.29219],[-118.45184,39.29224],[-118.45262,39.29252],[-118.45395,39.293],[-118.45424,39.29311],[-118.45454,39.29322],[-118.45496,39.29337],[-118.45584,39.29368],[-118.45679,39.29402],[-118.45788,39.29441],[-118.45925,39.29491],[-118.45951,39.295],[-118.46029,39.29528],[-118.46078,39.29545],[-118.4614,39.29567],[-118.46158,39.29574],[-118.46222,39.29595],[-118.46265,39.29609],[-118.46322,39.29628],[-118.46345,39.29635],[-118.46371,39.29644],[-118.46405,39.29653],[-118.4644,39.29663],[-118.46455,39.29667],[-118.4646,39.29669],[-118.46477,39.29673],[-118.46484,39.29675],[-118.46503,39.2968],[-118.46522,39.29684],[-118.46574,39.29696],[-118.46597,39.29702],[-118.46631,39.29709],[-118.46656,39.29714],[-118.46677,39.29718],[-118.46702,39.29723],[-118.46772,39.29736],[-118.46833,39.29746],[-118.46949,39.29767],[-118.46972,39.29771],[-118.47058,39.29787],[-118.4713,39.29799],[-118.47153,39.29803],[-118.4723,39.29817],[-118.47312,39.29831],[-118.47334,39.29835],[-118.47357,39.29839],[-118.47487,39.29862],[-118.47606,39.29883],[-118.47681,39.29897],[-118.47833,39.29924],[-118.47866,39.2993],[-118.47902,39.29936],[-118.47952,39.29944],[-118.47989,39.29951],[-118.4801,39.29956],[-118.48014,39.29957],[-118.48031,39.2996],[-118.48054,39.29966],[-118.48076,39.29971],[-118.48098,39.29977],[-118.4812,39.29983],[-118.48146,39.29991],[-118.48164,39.29997],[-118.48196,39.30007],[-118.48224,39.30017],[-118.48248,39.30026],[-118.48274,39.30036],[-118.48303,39.30048],[-118.48331,39.30061],[-118.48362,39.30076],[-118.4839,39.3009],[-118.48413,39.30102],[-118.4843,39.30112],[-118.48455,39.30127],[-118.48485,39.30145],[-118.48503,39.30158],[-118.48526,39.30173],[-118.48549,39.3019],[-118.48572,39.30208],[-118.48587,39.30219],[-118.48589,39.30221],[-118.48609,39.30237],[-118.48654,39.30274],[-118.48667,39.30284],[-118.48683,39.30298],[-118.48693,39.30306],[-118.48715,39.30324],[-118.48748,39.3035],[-118.4881,39.30402],[-118.48906,39.3048],[-118.49003,39.30559],[-118.49143,39.30675],[-118.49161,39.3069],[-118.49218,39.30736],[-118.49301,39.30805],[-118.49394,39.30881],[-118.49457,39.30932],[-118.49527,39.30991],[-118.49607,39.31056],[-118.49698,39.31131],[-118.49753,39.31176],[-118.49815,39.31226],[-118.49824,39.31234],[-118.4984,39.31247],[-118.49869,39.3127],[-118.49893,39.3129],[-118.49909,39.31304],[-118.49922,39.31315],[-118.4993,39.31323],[-118.4994,39.31332],[-118.49952,39.31343],[-118.49966,39.31357],[-118.50093,39.3148],[-118.50167,39.31551],[-118.50239,39.31621],[-118.50474,39.3185],[-118.505,39.31875],[-118.50514,39.31889],[-118.50587,39.31959],[-118.50641,39.32011],[-118.50674,39.32044],[-118.50681,39.3205],[-118.50759,39.32125],[-118.50822,39.32186],[-118.50848,39.32212],[-118.50863,39.32226],[-118.5092,39.32282],[-118.50949,39.32311],[-118.51048,39.32408],[-118.51079,39.32438],[-118.51093,39.32452],[-118.51338,39.32692],[-118.51382,39.32734],[-118.51486,39.32836],[-118.51656,39.33002],[-118.51737,39.33081],[-118.51757,39.33101],[-118.51771,39.33115],[-118.51844,39.33186],[-118.51906,39.33246],[-118.52052,39.33389],[-118.52198,39.33531],[-118.52234,39.33566],[-118.52304,39.33635],[-118.5232,39.3365],[-118.52332,39.33662],[-118.52349,39.33677],[-118.5235,39.33678],[-118.52368,39.33693],[-118.52395,39.33715],[-118.52524,39.3382],[-118.52526,39.33822],[-118.52622,39.339],[-118.52679,39.33946],[-118.52834,39.34073],[-118.52862,39.34096],[-118.52887,39.34117],[-118.52958,39.34175],[-118.53022,39.34227],[-118.53119,39.34307],[-118.5333,39.34479],[-118.53357,39.34502],[-118.53507,39.34626],[-118.53658,39.3475],[-118.53755,39.3483],[-118.53786,39.34856],[-118.53802,39.34869],[-118.53859,39.34916],[-118.53866,39.34921],[-118.53907,39.34954],[-118.54039,39.35063],[-118.54091,39.35106],[-118.54157,39.3516],[-118.54194,39.3519],[-118.54239,39.35225],[-118.54252,39.35235],[-118.54266,39.35246],[-118.54308,39.35277],[-118.54318,39.35284],[-118.54371,39.35323],[-118.54422,39.3536],[-118.54453,39.35383],[-118.54528,39.35438],[-118.54571,39.3547],[-118.54584,39.3548],[-118.54686,39.35554],[-118.54736,39.35591],[-118.54768,39.35615],[-118.54835,39.35663],[-118.54862,39.35683],[-118.54897,39.35709],[-118.54932,39.35734],[-118.54967,39.3576],[-118.5502,39.35801],[-118.55026,39.35805],[-118.55042,39.35818],[-118.55059,39.3583],[-118.55115,39.35873],[-118.55137,39.3589],[-118.55181,39.35924],[-118.55228,39.35959],[-118.55306,39.3602],[-118.55368,39.36068],[-118.55399,39.36091],[-118.55433,39.36117],[-118.55439,39.36121],[-118.55444,39.36124],[-118.55454,39.36132],[-118.55469,39.36142],[-118.5548,39.3615],[-118.55491,39.36157],[-118.55493,39.36158],[-118.55505,39.36165],[-118.55523,39.36176],[-118.55539,39.36185],[-118.55556,39.36194],[-118.55579,39.36206],[-118.55674,39.36256],[-118.55681,39.36261],[-118.5575,39.36297],[-118.55823,39.36335],[-118.55835,39.36341],[-118.55855,39.36351],[-118.55893,39.36372],[-118.5625,39.36559],[-118.56378,39.36626],[-118.56432,39.36655],[-118.5647,39.36675],[-118.56489,39.36685],[-118.56526,39.36705],[-118.56566,39.36726],[-118.56634,39.36761],[-118.56701,39.36796],[-118.56722,39.36807],[-118.5674,39.36817],[-118.56855,39.36877],[-118.56872,39.36886],[-118.56932,39.36917],[-118.56952,39.36927],[-118.56971,39.36938],[-118.5701,39.36958],[-118.57138,39.37025],[-118.57236,39.37076],[-118.5724,39.37079],[-118.57305,39.37113],[-118.57341,39.37131],[-118.57355,39.37138],[-118.57369,39.37144],[-118.57401,39.37159],[-118.57436,39.37175],[-118.57472,39.37192],[-118.57509,39.37208],[-118.57536,39.37219],[-118.57562,39.3723],[-118.57594,39.37244],[-118.57614,39.37253],[-118.57631,39.37259],[-118.5765,39.37267],[-118.57659,39.3727],[-118.57668,39.37274],[-118.57704,39.37287],[-118.57735,39.37299],[-118.57766,39.3731],[-118.57781,39.37315],[-118.57799,39.37321],[-118.57821,39.37329],[-118.57844,39.37336],[-118.57863,39.37342],[-118.57882,39.37348],[-118.57897,39.37353],[-118.57912,39.37357],[-118.57935,39.37365],[-118.57936,39.37365],[-118.57979,39.37378],[-118.57988,39.3738],[-118.58065,39.37404],[-118.58087,39.37411],[-118.58216,39.3745],[-118.58473,39.37528],[-118.58532,39.37547],[-118.58751,39.37613],[-118.59243,39.37763],[-118.59441,39.37823],[-118.59463,39.37829],[-118.59726,39.37909],[-118.59745,39.37915],[-118.59766,39.37922],[-118.59768,39.37922],[-118.59788,39.37928],[-118.59867,39.37953],[-118.59874,39.37955],[-118.59896,39.37961],[-118.59983,39.37987],[-118.60038,39.38004],[-118.6019,39.3805],[-118.60247,39.38067],[-118.60459,39.38132],[-118.60481,39.38138],[-118.60524,39.38152],[-118.60594,39.38173],[-118.6067,39.38196],[-118.60741,39.38217],[-118.60835,39.38246],[-118.60928,39.38274],[-118.61018,39.38301],[-118.61124,39.38334],[-118.61182,39.38351],[-118.6131,39.3839],[-118.61341,39.384],[-118.61643,39.38491],[-118.61868,39.3856],[-118.62033,39.3861],[-118.62038,39.38612],[-118.62054,39.38616],[-118.62076,39.38623],[-118.62089,39.38627],[-118.62224,39.38668],[-118.6234,39.38703],[-118.62453,39.38737],[-118.62574,39.38774],[-118.62575,39.38774],[-118.62596,39.38781],[-118.62674,39.38805],[-118.62699,39.38812],[-118.62731,39.38822],[-118.6283,39.38852],[-118.62855,39.38859],[-118.62887,39.38869],[-118.62952,39.38889],[-118.62981,39.38898],[-118.63009,39.38906],[-118.63069,39.38926],[-118.63089,39.38932],[-118.63119,39.38943],[-118.63172,39.38961],[-118.6322,39.38979],[-118.63248,39.38989],[-118.63267,39.38997],[-118.63302,39.3901],[-118.63338,39.39025],[-118.63355,39.39031],[-118.63367,39.39036],[-118.63379,39.39042],[-118.63417,39.39058],[-118.63439,39.39067],[-118.63468,39.39081],[-118.63489,39.3909],[-118.63511,39.391],[-118.63531,39.3911],[-118.63593,39.3914],[-118.63636,39.39161],[-118.63686,39.39186],[-118.63693,39.39189],[-118.63824,39.39253],[-118.63877,39.3928],[-118.64065,39.39374],[-118.6414,39.39411],[-118.64159,39.39421],[-118.64195,39.39439],[-118.64326,39.39503],[-118.64368,39.39525],[-118.6438,39.39531],[-118.64398,39.39541],[-118.64426,39.39557],[-118.64459,39.39577],[-118.64489,39.39595],[-118.64501,39.39603],[-118.64518,39.39614],[-118.64539,39.39628],[-118.6456,39.39643],[-118.6458,39.39657],[-118.64599,39.39671],[-118.64623,39.39689],[-118.64638,39.39701],[-118.64656,39.39716],[-118.6468,39.39736],[-118.64713,39.39765],[-118.64734,39.39785],[-118.64749,39.39798],[-118.64764,39.39813],[-118.64765,39.39814],[-118.64772,39.39821],[-118.64779,39.39828],[-118.64785,39.39834],[-118.6479,39.3984],[-118.64803,39.39853],[-118.64819,39.39871],[-118.64822,39.39874],[-118.64831,39.39885],[-118.6484,39.39894],[-118.64848,39.39904],[-118.64856,39.39913],[-118.64866,39.39924],[-118.64876,39.39937],[-118.64889,39.39954],[-118.64918,39.39993],[-118.6494,39.40026],[-118.64947,39.40036],[-118.64956,39.40051],[-118.64965,39.40063],[-118.64972,39.40075],[-118.64979,39.40088],[-118.64992,39.4011],[-118.65008,39.40141],[-118.65035,39.40194],[-118.65073,39.40272],[-118.65111,39.40349],[-118.65135,39.40399],[-118.65142,39.40413],[-118.65158,39.40447],[-118.6516,39.40452],[-118.65174,39.4048],[-118.65199,39.40531],[-118.652,39.40533],[-118.65224,39.40581],[-118.65242,39.40618],[-118.65267,39.40671],[-118.65334,39.4081],[-118.65338,39.40817],[-118.65383,39.40909],[-118.654,39.40946],[-118.65419,39.40986],[-118.6543,39.41008],[-118.65436,39.41019],[-118.65448,39.41043],[-118.65477,39.41104],[-118.65539,39.41232],[-118.65566,39.41288],[-118.65599,39.41356],[-118.65625,39.41411],[-118.6564,39.4144],[-118.65678,39.41519],[-118.65686,39.41536],[-118.65687,39.41538],[-118.65727,39.4162],[-118.6573,39.41625],[-118.6578,39.41729],[-118.65827,39.41825],[-118.65858,39.41889],[-118.65867,39.41908],[-118.65904,39.41983],[-118.65964,39.42108],[-118.66005,39.42192],[-118.66026,39.42235],[-118.66049,39.42282],[-118.66063,39.4231],[-118.66072,39.4233],[-118.66092,39.4237],[-118.66108,39.42402],[-118.6612,39.42428],[-118.66128,39.42445],[-118.66148,39.42485],[-118.66194,39.4258],[-118.66211,39.42615],[-118.66292,39.42783],[-118.66339,39.42879],[-118.66399,39.43002],[-118.66409,39.43023],[-118.66442,39.43091],[-118.66462,39.43131],[-118.66493,39.43195],[-118.66554,39.43323],[-118.66589,39.43394],[-118.66682,39.43585],[-118.66737,39.43697],[-118.66774,39.43775],[-118.66791,39.43809],[-118.66791,39.43809],[-118.66808,39.43809],[-118.6682,39.4381],[-118.66838,39.43811],[-118.66857,39.43813],[-118.66876,39.43817],[-118.66919,39.43828],[-118.6704,39.43851],[-118.67137,39.43869],[-118.67194,39.43879],[-118.67221,39.43884],[-118.67282,39.43895],[-118.67578,39.43948],[-118.67647,39.43964],[-118.67836,39.44011],[-118.67859,39.44017],[-118.6846,39.44161],[-118.68484,39.44167],[-118.68613,39.44198],[-118.68638,39.44205],[-118.68792,39.44245],[-118.69111,39.44311],[-118.69444,39.4438],[-118.69467,39.44385],[-118.69489,39.44389],[-118.69579,39.44408],[-118.69669,39.44426],[-118.69723,39.44438],[-118.69859,39.44465],[-118.69881,39.44469],[-118.69926,39.44479],[-118.70061,39.44506],[-118.70168,39.44527],[-118.70197,39.44533],[-118.70227,39.44539],[-118.70264,39.44544],[-118.703,39.44546],[-118.70357,39.44547],[-118.70468,39.44546],[-118.70475,39.44546],[-118.70498,39.44546],[-118.70561,39.44546],[-118.70682,39.44546],[-118.70805,39.44545],[-118.71112,39.44546],[-118.71368,39.44546],[-118.71764,39.44547],[-118.71788,39.44547],[-118.71811,39.44547],[-118.72044,39.44547],[-118.72058,39.44547],[-118.72109,39.4455],[-118.72151,39.44555],[-118.72201,39.44566],[-118.72229,39.44577],[-118.72248,39.44586],[-118.72294,39.44613],[-118.72479,39.44732],[-118.72516,39.44756],[-118.72546,39.44775],[-118.72597,39.44807],[-118.72789,39.44928],[-118.73237,39.45216],[-118.73305,39.45259],[-118.73383,39.45306],[-118.7341,39.45321],[-118.73421,39.45325],[-118.73513,39.45361],[-118.73525,39.45366],[-118.73539,39.45372],[-118.73556,39.45379],[-118.73586,39.45395],[-118.73617,39.45415],[-118.73666,39.45451],[-118.73817,39.45567],[-118.73847,39.45585],[-118.73853,39.45588],[-118.73875,39.456],[-118.73907,39.45613],[-118.73963,39.4563],[-118.74021,39.45644],[-118.74052,39.45651],[-118.74081,39.45657],[-118.74126,39.45668],[-118.7415,39.45675],[-118.74176,39.45684],[-118.74196,39.45695],[-118.74216,39.45709],[-118.74236,39.45724],[-118.74251,39.45737],[-118.74336,39.45817],[-118.74356,39.45834],[-118.74392,39.45865],[-118.74407,39.45875],[-118.74419,39.45883],[-118.74465,39.45911],[-118.7449,39.45923],[-118.74527,39.45941],[-118.74563,39.45957],[-118.74631,39.4598],[-118.7466,39.45988],[-118.74705,39.45998],[-118.74735,39.46004],[-118.74777,39.46009],[-118.74789,39.4601],[-118.74791,39.46011],[-118.7481,39.46013],[-118.74843,39.46015],[-118.74869,39.46016],[-118.74911,39.46016],[-118.7497,39.46016],[-118.75021,39.46016],[-118.75196,39.46017],[-118.75341,39.46016],[-118.75353,39.46016],[-118.75604,39.46016],[-118.7591,39.46017],[-118.75998,39.46018],[-118.76094,39.46019],[-118.7612,39.46019],[-118.76165,39.46019],[-118.76283,39.46019],[-118.7633,39.46019],[-118.7643,39.46019],[-118.76705,39.46019],[-118.76908,39.46019],[-118.76949,39.4602],[-118.77118,39.4602],[-118.77242,39.4602],[-118.77314,39.4602],[-118.77547,39.4602],[-118.77617,39.4602],[-118.7799,39.4602],[-118.78013,39.4602],[-118.78023,39.4602],[-118.78066,39.4602],[-118.78117,39.46016],[-118.78164,39.46007],[-118.78164,39.46007],[-118.78163,39.46017],[-118.78162,39.46045],[-118.78163,39.46061],[-118.78162,39.46109],[-118.7816,39.46137],[-118.7816,39.46142],[-118.78159,39.4622]]}}]}