{"type":"FeatureCollection","features":[{"type":"Feature","properties":{"_gpxType":"trk","name":"Motel 6 Fallon, NV, South Taylor Street, Fallon, NV - US-50 ALT - The Bike Smith, North Carson Street, Carson City, NV","coordinateProperties":{},"id":99},"geometry":{"type":"LineString","coordinates":[[-118.78159,39.4622],[-118.7816,39.46142],[-118.7816,39.46137],[-118.78162,39.46109],[-118.78163,39.46061],[-118.78162,39.46045],[-118.78163,39.46017],[-118.78164,39.46007],[-118.78164,39.46007],[-118.78192,39.46002],[-118.78347,39.45975],[-118.78385,39.4597],[-118.78415,39.45966],[-118.78441,39.45963],[-118.78467,39.45961],[-118.785,39.4596],[-118.7853,39.45959],[-118.78557,39.4596],[-118.78588,39.45962],[-118.78606,39.45964],[-118.78632,39.45967],[-118.78642,39.45968],[-118.78698,39.45976],[-118.78792,39.45988],[-118.78839,39.45992],[-118.78846,39.45992],[-118.78898,39.45994],[-118.79075,39.45993],[-118.79086,39.45993],[-118.79167,39.45993],[-118.7933,39.45993],[-118.794,39.45993],[-118.79423,39.45993],[-118.7947,39.45993],[-118.79819,39.45992],[-118.79842,39.45992],[-118.79866,39.45992],[-118.79912,39.45992],[-118.80036,39.45992],[-118.80079,39.4599],[-118.80153,39.4599],[-118.80161,39.45989],[-118.80176,39.4599],[-118.80194,39.4599],[-118.80221,39.45991],[-118.80248,39.45994],[-118.80279,39.45999],[-118.80303,39.46004],[-118.80332,39.46008],[-118.80337,39.46008],[-118.80359,39.46011],[-118.80384,39.46013],[-118.80416,39.46014],[-118.80461,39.46014],[-118.80503,39.46014],[-118.80546,39.46015],[-118.80551,39.46015],[-118.80591,39.46015],[-118.80667,39.46016],[-118.80686,39.46016],[-118.80709,39.46016],[-118.80717,39.46016],[-118.80762,39.46015],[-118.80802,39.46016],[-118.80816,39.46016],[-118.80878,39.46015],[-118.80948,39.46015],[-118.81005,39.46014],[-118.81012,39.46014],[-118.81035,39.46014],[-118.81089,39.46014],[-118.81159,39.46014],[-118.81177,39.46014],[-118.81243,39.46018],[-118.81279,39.46019],[-118.81309,39.4602],[-118.81503,39.46024],[-118.81507,39.46024],[-118.81526,39.46024],[-118.81549,39.46024],[-118.81551,39.46024],[-118.81674,39.46023],[-118.81924,39.46022],[-118.82394,39.46018],[-118.82761,39.46015],[-118.82849,39.46014],[-118.8288,39.46014],[-118.83109,39.46012],[-118.83179,39.46011],[-118.83179,39.46011],[-118.83189,39.46034],[-118.83199,39.46053],[-118.83216,39.46071],[-118.83232,39.46084],[-118.83233,39.46085],[-118.8326,39.46099],[-118.83305,39.46121],[-118.83311,39.46124],[-118.83331,39.46134],[-118.8335,39.46144],[-118.83353,39.46146],[-118.83406,39.46171],[-118.83454,39.46195],[-118.83488,39.46211],[-118.83517,39.46225],[-118.83534,39.46237],[-118.83542,39.46245],[-118.83549,39.46251],[-118.83554,39.4626],[-118.83564,39.46276],[-118.83584,39.46309],[-118.83603,39.46341],[-118.83615,39.4636],[-118.83663,39.46438],[-118.83663,39.46439],[-118.83673,39.46455],[-118.83683,39.46472],[-118.83704,39.46505],[-118.83723,39.46536],[-118.83738,39.46562],[-118.83754,39.46582],[-118.83784,39.46613],[-118.83798,39.46627],[-118.83812,39.46641],[-118.83907,39.46708],[-118.83984,39.46785],[-118.84025,39.46825],[-118.84034,39.46836],[-118.8409,39.46893],[-118.84105,39.46907],[-118.84212,39.47017],[-118.84248,39.47055],[-118.84285,39.47086],[-118.84301,39.47099],[-118.84347,39.4714],[-118.84368,39.47161],[-118.84416,39.47211],[-118.84458,39.47254],[-118.84524,39.4732],[-118.84538,39.47335],[-118.84587,39.47387],[-118.84599,39.47399],[-118.8464,39.47442],[-118.84668,39.47471],[-118.84771,39.4758],[-118.84888,39.47703],[-118.84907,39.47722],[-118.84984,39.47803],[-118.85052,39.47874],[-118.85094,39.47918],[-118.85104,39.47932],[-118.85111,39.47942],[-118.85116,39.47949],[-118.85124,39.47965],[-118.8515,39.4806],[-118.85169,39.48127],[-118.85173,39.48144],[-118.8518,39.4817],[-118.85187,39.48203],[-118.85202,39.48276],[-118.85205,39.48297],[-118.85224,39.48385],[-118.85227,39.48397],[-118.85227,39.48403],[-118.85231,39.48452],[-118.85233,39.48493],[-118.85233,39.48511],[-118.85235,39.48549],[-118.85235,39.48549],[-118.85339,39.48548],[-118.85482,39.48548],[-118.85568,39.48549],[-118.85636,39.48548],[-118.85693,39.48548],[-118.85762,39.48548],[-118.86101,39.48548],[-118.86172,39.48547],[-118.86199,39.48547],[-118.86295,39.48548],[-118.86317,39.48548],[-118.86333,39.48548],[-118.864,39.48548],[-118.86455,39.48548],[-118.8649,39.48549],[-118.86528,39.48551],[-118.86563,39.48553],[-118.86645,39.48561],[-118.86744,39.48576],[-118.86783,39.48582],[-118.87116,39.48639],[-118.87156,39.48645],[-118.87295,39.4867],[-118.87447,39.48695],[-118.87487,39.48702],[-118.87534,39.48709],[-118.87574,39.48716],[-118.8764,39.48727],[-118.87674,39.48733],[-118.87714,39.4874],[-118.87847,39.48763],[-118.87984,39.48786],[-118.88035,39.48796],[-118.8815,39.48815],[-118.88205,39.48825],[-118.88257,39.48836],[-118.88313,39.48849],[-118.88339,39.48856],[-118.88342,39.48856],[-118.88357,39.4886],[-118.88412,39.48875],[-118.88458,39.48889],[-118.88513,39.48906],[-118.88549,39.48918],[-118.88588,39.48933],[-118.88619,39.48945],[-118.88705,39.48982],[-118.88732,39.48993],[-118.88775,39.49015],[-118.88856,39.49056],[-118.88887,39.49073],[-118.88935,39.49102],[-118.89001,39.49143],[-118.89066,39.49185],[-118.8914,39.49233],[-118.89369,39.4938],[-118.89395,39.49396],[-118.89436,39.49422],[-118.89483,39.49453],[-118.8953,39.49482],[-118.89813,39.49664],[-118.89846,39.49686],[-118.89864,39.49696],[-118.89908,39.49724],[-118.89936,39.49742],[-118.89963,39.49759],[-118.90087,39.4984],[-118.90244,39.49939],[-118.90293,39.49971],[-118.90336,39.49999],[-118.90373,39.50024],[-118.90461,39.5008],[-118.90537,39.50127],[-118.90579,39.50151],[-118.90606,39.50165],[-118.90628,39.50176],[-118.90677,39.50198],[-118.90692,39.50204],[-118.90712,39.50213],[-118.90715,39.50214],[-118.90773,39.50235],[-118.90824,39.50252],[-118.90905,39.5028],[-118.91044,39.5033],[-118.91169,39.50373],[-118.91244,39.50398],[-118.91307,39.50419],[-118.91337,39.50431],[-118.91359,39.50438],[-118.91376,39.50444],[-118.91382,39.50446],[-118.91443,39.50463],[-118.91478,39.50472],[-118.91597,39.50502],[-118.91768,39.50544],[-118.9187,39.5057],[-118.9189,39.50575],[-118.91997,39.50601],[-118.92131,39.50634],[-118.92283,39.50672],[-118.92383,39.50697],[-118.926,39.50752],[-118.92694,39.50774],[-118.9271,39.50779],[-118.92843,39.50819],[-118.92897,39.50838],[-118.9294,39.50854],[-118.92991,39.50875],[-118.93027,39.50891],[-118.93069,39.5091],[-118.93176,39.5096],[-118.93278,39.51007],[-118.93406,39.51067],[-118.93482,39.51103],[-118.93505,39.51114],[-118.93549,39.51134],[-118.93702,39.51206],[-118.93719,39.5122],[-118.93812,39.51263],[-118.93885,39.51297],[-118.93943,39.51325],[-118.94031,39.51365],[-118.94031,39.51365],[-118.94039,39.51369],[-118.94093,39.51394],[-118.94189,39.51439],[-118.94209,39.51448],[-118.94409,39.51542],[-118.94487,39.51579],[-118.94562,39.51615],[-118.94565,39.51616],[-118.94588,39.5162],[-118.94645,39.51647],[-118.94867,39.51748],[-118.94907,39.51766],[-118.94927,39.51776],[-118.94947,39.51785],[-118.95033,39.51824],[-118.95289,39.5194],[-118.95316,39.51951],[-118.95359,39.51971],[-118.9536,39.51976],[-118.95374,39.51983],[-118.95392,39.51992],[-118.95425,39.52007],[-118.95505,39.52044],[-118.95605,39.52091],[-118.95659,39.52116],[-118.95765,39.52165],[-118.95805,39.52184],[-118.95825,39.52193],[-118.95827,39.52194],[-118.95845,39.52202],[-118.95905,39.5223],[-118.95964,39.52258],[-118.95984,39.52267],[-118.96019,39.52284],[-118.96064,39.52305],[-118.9614,39.52341],[-118.96164,39.52352],[-118.96264,39.52398],[-118.9635,39.52438],[-118.96424,39.52472],[-118.96512,39.52512],[-118.96623,39.52566],[-118.96832,39.52662],[-118.96978,39.52728],[-118.97089,39.52782],[-118.97257,39.52862],[-118.97387,39.52922],[-118.97436,39.52944],[-118.97836,39.5313],[-118.97856,39.53139],[-118.98031,39.53221],[-118.98266,39.53331],[-118.98425,39.53405],[-118.98534,39.53455],[-118.9865,39.5351],[-118.98814,39.53587],[-118.98871,39.53613],[-118.98953,39.53651],[-118.98993,39.5367],[-118.99013,39.53679],[-118.99272,39.538],[-118.99292,39.53809],[-118.99438,39.53877],[-118.99538,39.53924],[-118.99676,39.53988],[-118.99826,39.54058],[-118.99886,39.54086],[-118.99899,39.54092],[-118.99966,39.54123],[-119.00126,39.54198],[-119.00227,39.54245],[-119.00357,39.54306],[-119.00505,39.54375],[-119.00561,39.54401],[-119.00753,39.5449],[-119.01027,39.54617],[-119.01133,39.54666],[-119.01391,39.54786],[-119.01591,39.54879],[-119.0191,39.55027],[-119.01979,39.55059],[-119.0203,39.55083],[-119.0207,39.55101],[-119.0243,39.5527],[-119.02565,39.55333],[-119.02592,39.55345],[-119.02612,39.55355],[-119.02732,39.5541]]}},{"type":"Feature","properties":{"_gpxType":"trk","name":"Motel 6 Fallon, NV, South Taylor Street, Fallon, NV - US-50 ALT - The Bike Smith, North Carson Street, Carson City, NV","coordinateProperties":{},"id":99},"geometry":{"type":"LineString","coordinates":[[-119.02732,39.5541],[-119.02751,39.55393],[-119.0249,39.55272],[-119.02204,39.55138],[-119.0201,39.55047],[-119.01985,39.55035],[-119.01885,39.54989],[-119.01405,39.54767],[-119.00929,39.54544],[-119.00769,39.5447],[-119.00624,39.54404],[-119.00463,39.54328],[-119.00217,39.54214],[-119.00144,39.54179],[-119.00052,39.54137],[-118.99909,39.5407],[-118.99745,39.53994],[-118.99634,39.53942],[-118.99475,39.53867],[-118.99356,39.53812],[-118.99336,39.53803],[-118.99216,39.53748],[-118.98957,39.53628],[-118.98881,39.53592],[-118.98731,39.53522],[-118.98731,39.53522],[-118.98738,39.5351],[-118.9874,39.53505],[-118.98742,39.53501],[-118.98744,39.53493],[-118.98746,39.5347],[-118.98746,39.53468],[-118.98746,39.53452],[-118.98746,39.53434],[-118.98747,39.53403],[-118.98749,39.53321],[-118.98749,39.53276],[-118.98748,39.53271],[-118.98748,39.5324],[-118.98748,39.53207],[-118.98747,39.53186],[-118.98747,39.53182],[-118.98747,39.53048],[-118.98747,39.53024],[-118.98746,39.5302],[-118.98745,39.52999],[-118.98741,39.52923],[-118.98741,39.52809],[-118.98742,39.5277],[-118.98742,39.52737],[-118.98742,39.52732],[-118.98742,39.52701],[-118.98742,39.52595],[-118.98742,39.52549],[-118.98742,39.52498],[-118.98742,39.52485],[-118.98742,39.52467],[-118.98742,39.52377],[-118.98742,39.52359],[-118.98742,39.52337],[-118.98742,39.52323],[-118.98742,39.52319],[-118.98742,39.52285],[-118.98743,39.52193],[-118.98743,39.5218],[-118.98744,39.52126],[-118.98744,39.52055],[-118.98745,39.51982],[-118.98746,39.51826],[-118.98746,39.51736],[-118.98745,39.51646],[-118.98745,39.51628],[-118.98745,39.51467],[-118.98745,39.51466],[-118.98744,39.51394],[-118.98744,39.51333],[-118.98743,39.51099],[-118.98743,39.50973],[-118.98743,39.5097],[-118.98742,39.50847],[-118.98742,39.50772],[-118.98742,39.50704],[-118.98741,39.50686],[-118.98741,39.5065],[-118.9874,39.50402],[-118.9874,39.504],[-118.9874,39.50398],[-118.9874,39.5037],[-118.98741,39.50346],[-118.98746,39.50203],[-118.98746,39.50203],[-118.98992,39.50147],[-118.99273,39.50083],[-118.99401,39.50054],[-118.99462,39.50039],[-118.99484,39.50033],[-118.99494,39.50031],[-118.99613,39.5],[-118.99638,39.49993],[-118.9966,39.49986],[-118.99668,39.49984],[-118.99747,39.4996],[-118.99781,39.4995],[-118.99806,39.49941],[-118.99854,39.49924],[-118.99926,39.49899],[-119.00001,39.4987],[-119.00035,39.49857],[-119.00104,39.49828],[-119.00124,39.49819],[-119.00214,39.49781],[-119.00303,39.49741],[-119.00461,39.49671],[-119.0058,39.49617],[-119.00876,39.49484],[-119.00988,39.49435],[-119.01003,39.49428],[-119.01023,39.49419],[-119.01253,39.49316],[-119.01264,39.49311],[-119.01466,39.4922],[-119.01486,39.49211],[-119.01849,39.49049],[-119.0191,39.49022],[-119.02135,39.48921],[-119.02252,39.48868],[-119.02387,39.48807],[-119.02603,39.4871],[-119.02623,39.48701],[-119.02824,39.48611],[-119.02844,39.48602],[-119.02862,39.48594],[-119.02905,39.48575],[-119.02945,39.48557],[-119.03066,39.48503],[-119.03086,39.48494],[-119.03188,39.48448],[-119.03409,39.48349],[-119.0353,39.48296],[-119.03536,39.48293],[-119.0355,39.48286],[-119.0357,39.48277],[-119.03711,39.48214],[-119.03731,39.48205],[-119.03932,39.48114],[-119.04288,39.47955],[-119.04327,39.47938],[-119.04422,39.47894],[-119.04583,39.47823],[-119.04736,39.47754],[-119.0487,39.47694],[-119.04968,39.4765],[-119.0522,39.47537],[-119.05811,39.47271],[-119.05824,39.47268],[-119.05825,39.47268],[-119.05826,39.47267],[-119.05865,39.47251],[-119.05887,39.47242],[-119.05912,39.47231],[-119.05945,39.47216],[-119.05975,39.47203],[-119.0603,39.47178],[-119.06105,39.47143],[-119.0615,39.47123],[-119.06167,39.47112],[-119.06446,39.46988],[-119.06562,39.46935],[-119.06663,39.4689],[-119.0674,39.46858],[-119.06949,39.46767],[-119.06996,39.46746],[-119.07054,39.4672],[-119.07175,39.46664],[-119.07216,39.46646],[-119.07271,39.46621],[-119.07271,39.4662],[-119.07281,39.46616],[-119.07282,39.46615],[-119.07289,39.4661],[-119.07358,39.46578],[-119.07379,39.46569],[-119.07459,39.46533],[-119.07479,39.46524],[-119.0758,39.46478],[-119.07591,39.46473],[-119.076,39.46469],[-119.07634,39.46453],[-119.07653,39.46444],[-119.07671,39.46435],[-119.07693,39.46423],[-119.07717,39.4641],[-119.07741,39.46396],[-119.07759,39.46386],[-119.07777,39.46375],[-119.07799,39.4636],[-119.07807,39.46355],[-119.07808,39.46355],[-119.0782,39.46347],[-119.07833,39.46337],[-119.07848,39.46327],[-119.0791,39.4628],[-119.07938,39.46256],[-119.07962,39.46236],[-119.07979,39.4622],[-119.07995,39.46204],[-119.0802,39.46179],[-119.0803,39.46168],[-119.08035,39.46163],[-119.0805,39.46147],[-119.08072,39.46122],[-119.08085,39.46108],[-119.08101,39.46087],[-119.08117,39.46066],[-119.0813,39.46047],[-119.08142,39.46031],[-119.08166,39.45992],[-119.08175,39.45979],[-119.08188,39.45955],[-119.08202,39.45927],[-119.08211,39.45911],[-119.08224,39.45886],[-119.08238,39.45856],[-119.08261,39.45812],[-119.0827,39.45793],[-119.08315,39.45702],[-119.08345,39.45642],[-119.08369,39.45591],[-119.0839,39.45549],[-119.08403,39.45524],[-119.08411,39.45507],[-119.0842,39.4549],[-119.08455,39.45423],[-119.08463,39.45407],[-119.08483,39.45373],[-119.08507,39.4533],[-119.08532,39.4529],[-119.08566,39.45237],[-119.08596,39.45197],[-119.08615,39.45174],[-119.08638,39.45146],[-119.08652,39.4513],[-119.08717,39.45054],[-119.08741,39.45023],[-119.08754,39.45006],[-119.08823,39.44925],[-119.08858,39.44885],[-119.08973,39.44752],[-119.08979,39.44748],[-119.0898,39.44746],[-119.09051,39.44669],[-119.09092,39.44621],[-119.09112,39.44598],[-119.0915,39.44552],[-119.09164,39.44537],[-119.09205,39.44493],[-119.09228,39.4447],[-119.09249,39.44447],[-119.09266,39.44427],[-119.09287,39.444],[-119.09306,39.44378],[-119.09314,39.44369],[-119.09321,39.44359],[-119.09334,39.44344],[-119.09342,39.44335],[-119.09352,39.44325],[-119.09361,39.44316],[-119.09367,39.44307],[-119.094,39.44276],[-119.09419,39.44259],[-119.0943,39.44249],[-119.09436,39.44245],[-119.0944,39.44241],[-119.09449,39.44234],[-119.09463,39.44223],[-119.09475,39.44214],[-119.09494,39.44199],[-119.09504,39.44191],[-119.09514,39.44184],[-119.09523,39.44178],[-119.09548,39.44161],[-119.09555,39.44156],[-119.09574,39.44143],[-119.0958,39.4414],[-119.09584,39.44137],[-119.09604,39.44125],[-119.09625,39.44112],[-119.09638,39.44105],[-119.09653,39.44097],[-119.09678,39.44083],[-119.09691,39.44077],[-119.09707,39.44069],[-119.09729,39.44058],[-119.09751,39.44048],[-119.09776,39.44036],[-119.09801,39.44026],[-119.09829,39.44014],[-119.09863,39.44001],[-119.09886,39.43992],[-119.09896,39.43989],[-119.0991,39.43984],[-119.09949,39.43971],[-119.09976,39.43963],[-119.10003,39.43956],[-119.1002,39.43951],[-119.10036,39.43947],[-119.10051,39.43943],[-119.10066,39.4394],[-119.10082,39.43936],[-119.1011,39.4393],[-119.10135,39.43925],[-119.10145,39.43923],[-119.10185,39.43916],[-119.10229,39.4391],[-119.10244,39.43908],[-119.10285,39.43903],[-119.10326,39.43899],[-119.10398,39.43891],[-119.10436,39.43887],[-119.10467,39.43884],[-119.10506,39.43879],[-119.10552,39.43875],[-119.10595,39.4387],[-119.10866,39.43841],[-119.10884,39.4384],[-119.11349,39.4379],[-119.11528,39.43771],[-119.11809,39.43742],[-119.11921,39.4373],[-119.12144,39.43706],[-119.12224,39.43698],[-119.1227,39.43693],[-119.12359,39.43683],[-119.12363,39.43683],[-119.12409,39.43678],[-119.12593,39.43659],[-119.12765,39.4364],[-119.12796,39.43637],[-119.12854,39.43631],[-119.12939,39.43622],[-119.12962,39.43619],[-119.13033,39.43612],[-119.13177,39.43597],[-119.13208,39.43594],[-119.13256,39.43589],[-119.13289,39.43586],[-119.13309,39.43583],[-119.13325,39.43582],[-119.13346,39.4358],[-119.13365,39.43578],[-119.13398,39.43574],[-119.13406,39.43573],[-119.13421,39.43571],[-119.13474,39.43566],[-119.13513,39.43561],[-119.13536,39.43559],[-119.13559,39.43556],[-119.13578,39.43554],[-119.13592,39.43553],[-119.13601,39.43552],[-119.13621,39.4355],[-119.13628,39.43549],[-119.13639,39.43548],[-119.13652,39.43547],[-119.13663,39.43546],[-119.13696,39.43542],[-119.13721,39.43539],[-119.13738,39.43538],[-119.13779,39.43533],[-119.13805,39.4353],[-119.13813,39.43529],[-119.13837,39.43527],[-119.13867,39.43524],[-119.13896,39.4352],[-119.13905,39.4352],[-119.13969,39.43513],[-119.13997,39.43508],[-119.1414,39.43493],[-119.14179,39.43488],[-119.14211,39.43485],[-119.14234,39.43482],[-119.14239,39.43482],[-119.14294,39.43476],[-119.14322,39.43473],[-119.1435,39.4347],[-119.14379,39.43467],[-119.14434,39.43461],[-119.14465,39.43458],[-119.14489,39.43456],[-119.14589,39.43445],[-119.14719,39.43432],[-119.14854,39.43418],[-119.14884,39.43414],[-119.14927,39.4341],[-119.15009,39.43401],[-119.15037,39.43398],[-119.15061,39.43396],[-119.15076,39.43394],[-119.15107,39.43391],[-119.15136,39.43388],[-119.15165,39.43384],[-119.15195,39.4338],[-119.1525,39.43373],[-119.1527,39.4337],[-119.15296,39.43367],[-119.15324,39.43362],[-119.15348,39.43358],[-119.1537,39.43353],[-119.15382,39.4335],[-119.15395,39.43347],[-119.15408,39.43344],[-119.15441,39.43336],[-119.15451,39.43334],[-119.15464,39.4333],[-119.15476,39.43327],[-119.15489,39.43323],[-119.1552,39.43314],[-119.15529,39.43312],[-119.1554,39.43308],[-119.15557,39.43303],[-119.15593,39.43291],[-119.15604,39.43288],[-119.15622,39.43281],[-119.15651,39.43271],[-119.1567,39.43263],[-119.15691,39.43255],[-119.15722,39.43243],[-119.1576,39.43227],[-119.15925,39.43152],[-119.16016,39.43111],[-119.16026,39.43107],[-119.16106,39.4307],[-119.16144,39.43053],[-119.16171,39.43042],[-119.16187,39.43035],[-119.16207,39.43027],[-119.16208,39.43027],[-119.16217,39.43023],[-119.16228,39.43019],[-119.16229,39.43019],[-119.16244,39.43013],[-119.16264,39.43006],[-119.16276,39.43003],[-119.16286,39.42999],[-119.16295,39.42996],[-119.16305,39.42994],[-119.16318,39.4299],[-119.16329,39.42987],[-119.1635,39.42981],[-119.16368,39.42977],[-119.16378,39.42974],[-119.16388,39.42972],[-119.164,39.42969],[-119.16403,39.42969],[-119.16473,39.42955],[-119.16494,39.42951],[-119.1656,39.42939],[-119.16603,39.42931],[-119.16607,39.4293],[-119.16697,39.42913],[-119.1672,39.42908],[-119.1681,39.42891],[-119.16833,39.42887],[-119.16933,39.42868],[-119.16946,39.42865],[-119.16991,39.42856],[-119.17014,39.42852],[-119.17174,39.42821],[-119.17279,39.42801],[-119.17321,39.42793],[-119.17398,39.4278],[-119.17431,39.42774],[-119.17474,39.42768],[-119.1749,39.42766],[-119.17515,39.42763],[-119.17561,39.42757],[-119.17577,39.42755],[-119.17604,39.42752],[-119.1764,39.42748],[-119.17763,39.42733],[-119.17782,39.42731],[-119.17877,39.4272],[-119.18012,39.42705],[-119.18258,39.42677],[-119.18342,39.42667],[-119.18383,39.42662],[-119.18592,39.42638],[-119.18687,39.42627],[-119.1871,39.42624],[-119.18734,39.42622],[-119.18821,39.42612],[-119.18947,39.42598],[-119.1905,39.42586],[-119.19294,39.42558],[-119.19405,39.42545],[-119.19425,39.42543],[-119.19628,39.4252],[-119.19674,39.42514],[-119.1975,39.42505],[-119.19785,39.42501],[-119.19817,39.42497],[-119.19835,39.42494],[-119.19862,39.4249],[-119.19914,39.42482],[-119.19986,39.42471],[-119.20091,39.42451],[-119.20125,39.42444],[-119.20162,39.42436],[-119.20279,39.42409],[-119.20321,39.42399],[-119.20381,39.42383],[-119.20433,39.42369],[-119.20461,39.42361],[-119.20484,39.42354],[-119.20516,39.42345],[-119.2052,39.42344],[-119.20555,39.42333],[-119.20585,39.42323],[-119.20588,39.42322],[-119.20606,39.42316],[-119.20617,39.42312],[-119.20637,39.42305],[-119.20659,39.42297],[-119.20681,39.42289],[-119.20704,39.42281],[-119.20833,39.42234],[-119.20906,39.42207],[-119.20959,39.42188],[-119.21004,39.42172],[-119.21031,39.42162],[-119.21086,39.42142],[-119.21159,39.42116],[-119.21371,39.42038],[-119.21644,39.41939],[-119.21678,39.41926],[-119.2169,39.41922],[-119.21855,39.41861],[-119.2188,39.41852],[-119.21971,39.41818],[-119.22079,39.41777],[-119.22127,39.41759],[-119.22235,39.41725],[-119.22242,39.41723],[-119.22256,39.41718],[-119.2229,39.41708],[-119.22349,39.41689],[-119.22367,39.41682],[-119.22397,39.41668],[-119.22438,39.41644],[-119.22476,39.41636],[-119.22476,39.41636],[-119.22477,39.41637],[-119.22478,39.41638],[-119.2248,39.41639],[-119.22481,39.41639],[-119.22483,39.4164],[-119.22485,39.4164],[-119.22486,39.41641],[-119.22488,39.41641],[-119.2249,39.41641],[-119.22492,39.41641],[-119.22494,39.41641],[-119.22504,39.41641],[-119.22509,39.41637],[-119.22513,39.41633],[-119.22516,39.41628],[-119.22517,39.41624],[-119.22518,39.41617],[-119.22545,39.41608],[-119.22593,39.4159],[-119.22647,39.4157],[-119.22668,39.41562],[-119.22719,39.41541],[-119.22783,39.41518],[-119.22788,39.41516],[-119.22867,39.41487],[-119.23074,39.41416],[-119.23154,39.41388],[-119.23195,39.41373],[-119.23221,39.41365],[-119.23411,39.41296],[-119.23416,39.41294],[-119.23449,39.41282],[-119.23485,39.41269],[-119.2361,39.41223],[-119.23697,39.4119],[-119.23767,39.41166],[-119.23807,39.41152],[-119.23936,39.41106],[-119.23957,39.41099],[-119.23979,39.41091],[-119.24,39.41084],[-119.24127,39.41039],[-119.24148,39.41032],[-119.24191,39.41017],[-119.24212,39.4101],[-119.24275,39.40988],[-119.24517,39.40903],[-119.24651,39.40855],[-119.24772,39.4081],[-119.24814,39.40795],[-119.24974,39.40735],[-119.24982,39.40733],[-119.24984,39.40732],[-119.25003,39.40725],[-119.25024,39.40717],[-119.25035,39.40713],[-119.25045,39.40709],[-119.25444,39.40562],[-119.25906,39.40391],[-119.26321,39.4024],[-119.26416,39.40206],[-119.26479,39.40183],[-119.26535,39.40161],[-119.26589,39.40141],[-119.26596,39.40139],[-119.26654,39.40121],[-119.26687,39.40112],[-119.26709,39.40106],[-119.26731,39.401],[-119.26753,39.4009],[-119.26768,39.40082],[-119.26779,39.40075],[-119.26787,39.40071],[-119.26796,39.40064],[-119.26799,39.40062],[-119.26804,39.40057],[-119.26815,39.40048],[-119.26817,39.40046],[-119.2682,39.40045],[-119.26826,39.40042],[-119.26834,39.40039],[-119.2684,39.40038],[-119.26845,39.40037],[-119.2685,39.40037],[-119.26854,39.40037],[-119.26856,39.40037],[-119.26858,39.40037],[-119.26859,39.40037],[-119.2686,39.40037],[-119.2686,39.40036],[-119.26862,39.40035],[-119.26863,39.40034],[-119.26865,39.40032],[-119.26865,39.40032],[-119.26866,39.40032],[-119.26866,39.40033],[-119.26868,39.40034],[-119.2687,39.40035],[-119.26872,39.40035],[-119.26874,39.40036],[-119.26876,39.40037],[-119.26879,39.40037],[-119.26882,39.40037],[-119.26884,39.40037],[-119.26887,39.40037],[-119.26889,39.40037],[-119.26892,39.40036],[-119.26894,39.40035],[-119.26897,39.40035],[-119.26899,39.40034],[-119.26901,39.40032],[-119.26902,39.40032],[-119.26903,39.40031],[-119.26905,39.40029],[-119.26906,39.40028],[-119.26948,39.40008],[-119.26989,39.39989],[-119.27183,39.39924],[-119.27385,39.39849],[-119.27503,39.39808],[-119.27563,39.39786],[-119.27731,39.39724],[-119.27773,39.39708],[-119.27778,39.39706],[-119.27799,39.39699],[-119.2782,39.39691],[-119.27842,39.39683],[-119.27863,39.39675],[-119.27926,39.39652],[-119.2801,39.39622],[-119.28031,39.39614],[-119.28396,39.39481],[-119.28431,39.39468],[-119.2845,39.39461],[-119.28471,39.39453],[-119.28492,39.39446],[-119.28556,39.39423],[-119.28577,39.39415],[-119.28672,39.3938],[-119.28685,39.39375],[-119.28861,39.39311],[-119.28882,39.39304],[-119.28967,39.39273],[-119.29009,39.39258],[-119.29175,39.39197],[-119.29198,39.39189],[-119.29261,39.39165],[-119.29429,39.39103],[-119.29618,39.39033],[-119.29651,39.3902],[-119.29836,39.38953],[-119.29857,39.38946],[-119.29893,39.38933],[-119.29942,39.38915],[-119.29963,39.38908],[-119.29965,39.38907],[-119.29978,39.38902],[-119.30026,39.38884],[-119.30047,39.38876],[-119.30068,39.38869],[-119.3011,39.38853],[-119.30215,39.38814],[-119.30337,39.38769],[-119.30379,39.38754],[-119.30383,39.38752],[-119.30404,39.38745],[-119.30509,39.38706],[-119.30563,39.38686],[-119.30711,39.38631],[-119.30879,39.38569],[-119.30973,39.38534],[-119.31184,39.38457],[-119.31258,39.38431],[-119.31364,39.38394],[-119.31385,39.38387],[-119.31406,39.38379],[-119.31488,39.38349],[-119.3149,39.38348],[-119.31595,39.3831],[-119.31658,39.38286],[-119.31679,39.38279],[-119.31784,39.3824],[-119.31847,39.38216],[-119.31889,39.38201],[-119.3191,39.38193],[-119.31931,39.38185],[-119.32015,39.38154],[-119.32036,39.38146],[-119.32057,39.38139],[-119.32078,39.38131],[-119.32141,39.38108],[-119.32162,39.381],[-119.32183,39.38092],[-119.32204,39.38084],[-119.32267,39.38061],[-119.32392,39.38015],[-119.32414,39.38007],[-119.32519,39.37969],[-119.32549,39.37959],[-119.32562,39.37954],[-119.32684,39.37909],[-119.32798,39.37866],[-119.32819,39.37859],[-119.32944,39.37812],[-119.32965,39.37804],[-119.32988,39.37796],[-119.33007,39.37788],[-119.3307,39.37765],[-119.33091,39.37758],[-119.33112,39.3775],[-119.33133,39.37742],[-119.33154,39.37735],[-119.33176,39.37727],[-119.33196,39.37719],[-119.33197,39.37719],[-119.33217,39.37712],[-119.33292,39.37684],[-119.33302,39.37681],[-119.33322,39.37673],[-119.33323,39.37673],[-119.33343,39.37665],[-119.33344,39.37665],[-119.33365,39.37657],[-119.33575,39.3758],[-119.33743,39.37519],[-119.33813,39.37493],[-119.33827,39.37488],[-119.33974,39.37434],[-119.34037,39.37411],[-119.34058,39.37403],[-119.34079,39.37395],[-119.34205,39.37349],[-119.34237,39.37337],[-119.3431,39.3731],[-119.34478,39.37247],[-119.34504,39.37237],[-119.34625,39.37194],[-119.34773,39.37141],[-119.34857,39.37111],[-119.34862,39.37109],[-119.34983,39.37064],[-119.35046,39.3704],[-119.35129,39.37009],[-119.35171,39.36993],[-119.35214,39.36978],[-119.35235,39.3697],[-119.35319,39.3694],[-119.35446,39.36895],[-119.35488,39.3688],[-119.3552,39.36869],[-119.35531,39.36865],[-119.35786,39.36769],[-119.35891,39.3673],[-119.35996,39.3669],[-119.36013,39.36684],[-119.36059,39.36667],[-119.36144,39.36638],[-119.36566,39.36488],[-119.36567,39.36488],[-119.36629,39.36464],[-119.36695,39.36439],[-119.36778,39.36407],[-119.3706,39.36299],[-119.37067,39.36297],[-119.37279,39.36222],[-119.37406,39.36177],[-119.375,39.36144],[-119.37502,39.36143],[-119.37638,39.36093],[-119.37701,39.3607],[-119.37771,39.36044],[-119.3789,39.36],[-119.37932,39.35985],[-119.37974,39.35969],[-119.38121,39.35913],[-119.38402,39.35803],[-119.38572,39.35743],[-119.38593,39.35736],[-119.38654,39.35714],[-119.387,39.35696],[-119.38856,39.35643],[-119.38913,39.35621],[-119.39189,39.35518],[-119.39372,39.3545],[-119.39546,39.35388],[-119.39585,39.35374],[-119.39675,39.3534],[-119.39802,39.35293],[-119.39962,39.35235],[-119.40148,39.35165],[-119.40248,39.35128],[-119.40501,39.35036],[-119.40503,39.35035],[-119.40734,39.34952],[-119.40763,39.34941],[-119.41029,39.3484],[-119.41115,39.34808],[-119.41219,39.3477],[-119.41361,39.34718],[-119.41447,39.34688],[-119.4165,39.34612],[-119.4201,39.34479],[-119.42056,39.34462],[-119.42132,39.34434],[-119.42236,39.34396],[-119.42277,39.3438],[-119.4231,39.34368],[-119.42346,39.34355],[-119.42403,39.34335],[-119.42417,39.3433],[-119.42547,39.34282],[-119.42578,39.3427],[-119.42606,39.34259],[-119.42658,39.3424],[-119.42697,39.34226],[-119.42723,39.34216],[-119.42765,39.34201],[-119.42898,39.34152],[-119.42956,39.3413],[-119.43067,39.34089],[-119.43193,39.34043],[-119.43223,39.34032],[-119.43277,39.34012],[-119.43414,39.33963],[-119.43488,39.33936],[-119.4374,39.33842],[-119.43835,39.33807],[-119.43855,39.338],[-119.43912,39.33778],[-119.43987,39.3375],[-119.44039,39.33731],[-119.4405,39.33728],[-119.44414,39.33592],[-119.44423,39.33589],[-119.44435,39.33584],[-119.44605,39.33526],[-119.44882,39.33421],[-119.45125,39.3333],[-119.45125,39.3333],[-119.45202,39.33304],[-119.45327,39.33258],[-119.45446,39.33213],[-119.45563,39.3317],[-119.45639,39.3314],[-119.45701,39.33118],[-119.45768,39.33093],[-119.45805,39.3308],[-119.45846,39.33064],[-119.45926,39.33035],[-119.46022,39.33001],[-119.46057,39.32988],[-119.46078,39.3298],[-119.46092,39.32976],[-119.46175,39.32945],[-119.4631,39.32896],[-119.46324,39.32891],[-119.46431,39.32853],[-119.46556,39.32804],[-119.46611,39.32784],[-119.46626,39.32778],[-119.4663,39.32778],[-119.46648,39.32771],[-119.46666,39.32764],[-119.46704,39.3275],[-119.4676,39.3273],[-119.4682,39.32708],[-119.4684,39.32701],[-119.46896,39.32679],[-119.46941,39.32662],[-119.46998,39.32641],[-119.47002,39.32639],[-119.47047,39.32621],[-119.47081,39.32608],[-119.47102,39.32601],[-119.47124,39.32595],[-119.47243,39.32549],[-119.47277,39.3254],[-119.47339,39.32521],[-119.47408,39.32501],[-119.47521,39.32467],[-119.47817,39.32379],[-119.47904,39.32353],[-119.47968,39.32334],[-119.48008,39.32321],[-119.48033,39.32312],[-119.48064,39.32301],[-119.48084,39.32294],[-119.48087,39.32293],[-119.48107,39.32285],[-119.48128,39.32277],[-119.48151,39.32268],[-119.48178,39.32255],[-119.48245,39.32226],[-119.48264,39.32216],[-119.48276,39.3221],[-119.48307,39.32195],[-119.48336,39.32179],[-119.48386,39.3215],[-119.4848,39.32095],[-119.48501,39.32083],[-119.4856,39.32048],[-119.4861,39.32019],[-119.48702,39.31965],[-119.48813,39.31901],[-119.48918,39.3184],[-119.48955,39.31817],[-119.49005,39.31788],[-119.4905,39.31762],[-119.49079,39.31745],[-119.49098,39.31734],[-119.49172,39.3169],[-119.49231,39.31655],[-119.4928,39.31626],[-119.49348,39.31586],[-119.49375,39.31571],[-119.49557,39.31465],[-119.49734,39.3136],[-119.5004,39.3118],[-119.50222,39.31074],[-119.5037,39.30988],[-119.5046,39.30935],[-119.50605,39.30849],[-119.50785,39.30744],[-119.5103,39.306],[-119.51123,39.30546],[-119.51197,39.30502],[-119.51286,39.30451],[-119.51496,39.30327],[-119.51516,39.30314],[-119.51554,39.30293],[-119.51748,39.30179],[-119.51841,39.30124],[-119.51882,39.301],[-119.51969,39.30049],[-119.52051,39.30001],[-119.52101,39.29972],[-119.5213,39.29955],[-119.52174,39.29929],[-119.52212,39.29907],[-119.52291,39.29861],[-119.52409,39.29792],[-119.52449,39.29768],[-119.52523,39.29724],[-119.52628,39.29663],[-119.52759,39.29587],[-119.52787,39.29571],[-119.52908,39.295],[-119.52994,39.29449],[-119.53064,39.2941],[-119.53146,39.2936],[-119.53263,39.29292],[-119.53391,39.29219],[-119.53542,39.29126],[-119.53631,39.29074],[-119.53797,39.28976],[-119.54029,39.2884],[-119.54206,39.28736],[-119.5431,39.28675],[-119.54386,39.2863],[-119.54471,39.28581],[-119.54552,39.28533],[-119.54582,39.28516],[-119.5477,39.28405],[-119.54926,39.28313],[-119.55109,39.28206],[-119.55277,39.28107],[-119.55424,39.28021],[-119.55442,39.2801],[-119.55486,39.27985],[-119.55661,39.27882],[-119.55888,39.27749],[-119.56088,39.27631],[-119.56254,39.27534],[-119.56391,39.27453],[-119.56425,39.27433],[-119.56433,39.27429],[-119.56441,39.27425],[-119.56485,39.27399],[-119.5655,39.27361],[-119.56655,39.27299],[-119.56807,39.27209],[-119.56976,39.27109],[-119.57056,39.27063],[-119.5709,39.27045],[-119.5715,39.27011],[-119.57205,39.26981],[-119.57338,39.26903],[-119.57364,39.26888],[-119.5746,39.26831],[-119.57516,39.26799],[-119.5758,39.26759],[-119.57609,39.26739],[-119.57644,39.26715],[-119.57725,39.26658],[-119.5774,39.26646],[-119.5779,39.26608],[-119.57833,39.26572],[-119.57869,39.26541],[-119.57945,39.26473],[-119.5795,39.26468],[-119.57986,39.26435],[-119.58033,39.26386],[-119.5805,39.26367],[-119.5809,39.26324],[-119.5812,39.26289],[-119.58145,39.26259],[-119.58162,39.26237],[-119.58183,39.2621],[-119.58209,39.26175],[-119.58233,39.26144],[-119.58256,39.26113],[-119.58262,39.26105],[-119.58281,39.26077],[-119.58321,39.2602],[-119.58338,39.25995],[-119.58354,39.25972],[-119.58376,39.2594],[-119.584,39.25907],[-119.58421,39.25878],[-119.58467,39.25813],[-119.58499,39.25767],[-119.58503,39.25761],[-119.58504,39.25759],[-119.58515,39.25743],[-119.58521,39.25735],[-119.58537,39.25711],[-119.5855,39.25691],[-119.58559,39.25675],[-119.58576,39.25647],[-119.58584,39.25634],[-119.58589,39.25626],[-119.58591,39.25622],[-119.58604,39.25599],[-119.58617,39.25574],[-119.58618,39.25572],[-119.58629,39.25554],[-119.58645,39.25524],[-119.58654,39.25506],[-119.58659,39.25495],[-119.58676,39.25459],[-119.58697,39.25415],[-119.5872,39.25356],[-119.5873,39.2533],[-119.58734,39.25318],[-119.5875,39.25272],[-119.58752,39.25266],[-119.58759,39.25243],[-119.58772,39.25198],[-119.58777,39.25183],[-119.58783,39.25161],[-119.5879,39.25133],[-119.58792,39.25125],[-119.58797,39.25101],[-119.58803,39.25075],[-119.58808,39.25055],[-119.58809,39.25048],[-119.58811,39.25037],[-119.58814,39.25019],[-119.5882,39.24978],[-119.58822,39.24968],[-119.58825,39.24941],[-119.58831,39.24878],[-119.58833,39.24863],[-119.58839,39.248],[-119.58841,39.24755],[-119.58847,39.24684],[-119.58851,39.24627],[-119.58852,39.24624],[-119.58853,39.24609],[-119.58855,39.24573],[-119.58856,39.2456],[-119.58857,39.24547],[-119.58869,39.24401],[-119.58874,39.24342],[-119.58878,39.24295],[-119.58883,39.24231],[-119.58886,39.24186],[-119.58892,39.24106],[-119.58899,39.24022],[-119.58907,39.23931],[-119.5891,39.23895],[-119.58913,39.23841],[-119.58917,39.23796],[-119.5892,39.23765],[-119.58923,39.23739],[-119.58928,39.23712],[-119.58936,39.23672],[-119.58941,39.23646],[-119.58944,39.23636],[-119.58957,39.23603],[-119.58961,39.23592],[-119.58966,39.23579],[-119.58988,39.23532],[-119.58999,39.23507],[-119.59025,39.23462],[-119.59036,39.23446],[-119.59046,39.23432],[-119.59059,39.23411],[-119.59087,39.23374],[-119.591,39.23357],[-119.59115,39.23339],[-119.59132,39.23319],[-119.59145,39.23304],[-119.59146,39.23303],[-119.5918,39.2327],[-119.59217,39.23236],[-119.59271,39.23188],[-119.59313,39.23154],[-119.59366,39.23109],[-119.5939,39.23089],[-119.59442,39.23046],[-119.5955,39.22955],[-119.59572,39.22937],[-119.59616,39.22902],[-119.59664,39.22867],[-119.59666,39.22865],[-119.59723,39.22827],[-119.59778,39.22793],[-119.59834,39.2276],[-119.60038,39.22642],[-119.60099,39.22604],[-119.60153,39.2257],[-119.60165,39.22563],[-119.60171,39.22559],[-119.60189,39.22548],[-119.60213,39.22533],[-119.60236,39.22518],[-119.6026,39.22503],[-119.60297,39.2248],[-119.60347,39.22448],[-119.6035,39.22446],[-119.60367,39.22436],[-119.60389,39.22423],[-119.60409,39.22411],[-119.60436,39.22395],[-119.60452,39.22387],[-119.60465,39.2238],[-119.6053,39.2235],[-119.60575,39.22331],[-119.60595,39.22324],[-119.60626,39.22313],[-119.60667,39.22299],[-119.60698,39.22291],[-119.60724,39.22284],[-119.60768,39.22272],[-119.60783,39.22269],[-119.60809,39.22263],[-119.60856,39.22253],[-119.60866,39.22255],[-119.60868,39.22255],[-119.6087,39.22255],[-119.60873,39.22255],[-119.60883,39.22253],[-119.6091,39.22248],[-119.60915,39.22248],[-119.60938,39.22245],[-119.60939,39.22244],[-119.60968,39.22241],[-119.60984,39.2224],[-119.60995,39.22239],[-119.61007,39.22238],[-119.61023,39.22236],[-119.6103,39.22236],[-119.61065,39.22234],[-119.61076,39.22234],[-119.611,39.22233],[-119.61107,39.22233],[-119.6115,39.22232],[-119.61169,39.22232],[-119.61309,39.22232],[-119.61516,39.22232],[-119.61613,39.22232],[-119.6168,39.22232],[-119.61703,39.22232],[-119.61762,39.22232],[-119.61814,39.22232],[-119.61819,39.22233],[-119.61876,39.22236],[-119.61889,39.22237],[-119.61912,39.22238],[-119.61931,39.2224],[-119.62011,39.22247],[-119.62027,39.22249],[-119.62055,39.22253],[-119.62119,39.2226],[-119.62142,39.22263],[-119.62165,39.22265],[-119.62177,39.22267],[-119.62234,39.22273],[-119.62312,39.22282],[-119.62349,39.22287],[-119.62463,39.223],[-119.62508,39.22305],[-119.62601,39.22316],[-119.62647,39.22321],[-119.62693,39.22326],[-119.62768,39.22334],[-119.62854,39.22345],[-119.62858,39.22345],[-119.62894,39.22349],[-119.62944,39.22354],[-119.62999,39.22358],[-119.63018,39.22359],[-119.6306,39.22361],[-119.63062,39.22361],[-119.63081,39.22362],[-119.63107,39.22362],[-119.63108,39.22362],[-119.63131,39.22363],[-119.63141,39.22363],[-119.63178,39.22362],[-119.63206,39.22362],[-119.63224,39.22361],[-119.63247,39.2236],[-119.63265,39.2236],[-119.63321,39.22356],[-119.6334,39.22355],[-119.63363,39.22353],[-119.63373,39.22352],[-119.63386,39.22351],[-119.63419,39.22347],[-119.63476,39.22339],[-119.635,39.22336],[-119.63526,39.22332],[-119.63575,39.22323],[-119.63654,39.22305],[-119.63706,39.22293],[-119.63738,39.22286],[-119.63747,39.22284],[-119.63769,39.22278],[-119.63794,39.22272],[-119.63819,39.22266],[-119.63858,39.22256],[-119.63872,39.22246],[-119.63945,39.22225],[-119.63998,39.22211],[-119.64011,39.22208],[-119.64131,39.22176],[-119.64291,39.22136],[-119.64296,39.22137],[-119.64299,39.22138],[-119.64301,39.22139],[-119.64304,39.22139],[-119.64306,39.22139],[-119.6431,39.22138],[-119.64322,39.22135],[-119.64366,39.22124],[-119.64407,39.22114],[-119.64434,39.22106],[-119.64501,39.2209],[-119.64539,39.22079],[-119.64572,39.22071],[-119.64608,39.22062],[-119.64682,39.22042],[-119.64687,39.22041],[-119.64711,39.22036],[-119.64729,39.22031],[-119.64763,39.22022],[-119.64824,39.22007],[-119.64875,39.21994],[-119.64895,39.21988],[-119.64961,39.21971],[-119.6498,39.21965],[-119.64994,39.21956],[-119.65064,39.21939],[-119.65126,39.21923],[-119.65193,39.21906],[-119.65209,39.21901],[-119.65274,39.21886],[-119.65287,39.21882],[-119.65399,39.21853],[-119.65443,39.21846],[-119.65636,39.21798],[-119.65773,39.21762],[-119.65882,39.21734],[-119.65884,39.21734],[-119.66001,39.21703],[-119.66025,39.21691],[-119.66122,39.21662],[-119.66209,39.21634],[-119.66259,39.21619],[-119.66355,39.21589],[-119.66431,39.21565],[-119.66585,39.21517],[-119.66622,39.21505],[-119.66774,39.21458],[-119.66818,39.21444],[-119.66839,39.21437],[-119.66861,39.21431],[-119.66943,39.21404],[-119.67025,39.21379],[-119.67095,39.21355],[-119.6716,39.21335],[-119.67181,39.21329],[-119.67203,39.21322],[-119.67239,39.2131],[-119.67347,39.21277],[-119.67369,39.21271],[-119.67573,39.21208],[-119.67677,39.21175],[-119.67719,39.21161],[-119.67743,39.21154],[-119.67748,39.21152],[-119.67815,39.21129],[-119.67863,39.2111],[-119.67885,39.21102],[-119.67943,39.21078],[-119.67993,39.21053],[-119.68022,39.2104],[-119.68037,39.21031],[-119.68065,39.21017],[-119.6807,39.21015],[-119.68084,39.21007],[-119.68087,39.21005],[-119.68107,39.20994],[-119.68128,39.20981],[-119.68158,39.20963],[-119.6818,39.20956],[-119.68219,39.2093],[-119.68269,39.20894],[-119.68276,39.20889],[-119.68334,39.20843],[-119.68342,39.20829],[-119.68367,39.20808],[-119.68371,39.20804],[-119.68386,39.20791],[-119.68432,39.20747],[-119.68452,39.20728],[-119.68474,39.20704],[-119.6848,39.20698],[-119.68522,39.2065],[-119.68554,39.20611],[-119.68569,39.20592],[-119.68594,39.20558],[-119.68623,39.20515],[-119.6864,39.20488],[-119.68657,39.20459],[-119.68682,39.20415],[-119.68694,39.20389],[-119.68706,39.20366],[-119.68731,39.20311],[-119.6874,39.20287],[-119.68757,39.20236],[-119.68772,39.20185],[-119.68798,39.20092],[-119.68804,39.20068],[-119.68809,39.2005],[-119.68818,39.20022],[-119.6882,39.20018],[-119.68836,39.19969],[-119.68843,39.19952],[-119.68856,39.19921],[-119.68874,39.19884],[-119.68882,39.19867],[-119.68894,39.1984],[-119.68898,39.19833],[-119.68915,39.19815],[-119.68919,39.19808],[-119.6894,39.19776],[-119.68962,39.19743],[-119.68973,39.19727],[-119.68993,39.19698],[-119.69028,39.19652],[-119.6903,39.19649],[-119.69042,39.19634],[-119.69055,39.19619],[-119.69065,39.19606],[-119.69096,39.19571],[-119.6912,39.19546],[-119.69164,39.19502],[-119.69167,39.195],[-119.69207,39.19464],[-119.69239,39.19438],[-119.69251,39.19427],[-119.69269,39.19413],[-119.69308,39.19383],[-119.69324,39.19372],[-119.69339,39.19353],[-119.69398,39.19313],[-119.69472,39.19268],[-119.69543,39.19228],[-119.69574,39.19212],[-119.69614,39.19194],[-119.69627,39.19188],[-119.69685,39.19163],[-119.69729,39.19144],[-119.69752,39.19134],[-119.69818,39.19106],[-119.69889,39.19077],[-119.69961,39.19048],[-119.69964,39.19047],[-119.69997,39.19033],[-119.70001,39.19031],[-119.70083,39.18997],[-119.70138,39.18974],[-119.70261,39.18923],[-119.70323,39.18897],[-119.70378,39.18873],[-119.70461,39.18839],[-119.70661,39.18756],[-119.70706,39.18737],[-119.70763,39.18714],[-119.7082,39.1869],[-119.70943,39.18639],[-119.70963,39.1863],[-119.70998,39.18618],[-119.71118,39.18567],[-119.71172,39.18545],[-119.71272,39.18503],[-119.71411,39.18445],[-119.71468,39.18421],[-119.71693,39.18328],[-119.71847,39.18263],[-119.71922,39.18232],[-119.71967,39.18213],[-119.72053,39.18179],[-119.72069,39.18172],[-119.72181,39.18122],[-119.72341,39.18056],[-119.72381,39.18038],[-119.72394,39.18033],[-119.72437,39.18016],[-119.7249,39.17994],[-119.72542,39.17973],[-119.72618,39.1794],[-119.72791,39.17868],[-119.7283,39.17852],[-119.72863,39.17838],[-119.72883,39.17829],[-119.72942,39.17805],[-119.73041,39.17764],[-119.73082,39.17747],[-119.73129,39.17727],[-119.73139,39.17723],[-119.73175,39.17709],[-119.73222,39.17691],[-119.73224,39.17691],[-119.73246,39.17683],[-119.73248,39.17682],[-119.73273,39.17674],[-119.73304,39.17665],[-119.73322,39.17661],[-119.73398,39.17641],[-119.73535,39.17606],[-119.73608,39.17588],[-119.73694,39.17566],[-119.737,39.17568],[-119.73704,39.17568],[-119.73733,39.17565],[-119.73805,39.17545],[-119.73914,39.17518],[-119.73949,39.17508],[-119.73985,39.17499],[-119.74047,39.17484],[-119.74049,39.17483],[-119.74049,39.17483],[-119.74069,39.17478],[-119.74071,39.17477],[-119.74072,39.17477],[-119.74121,39.17465],[-119.74157,39.17456],[-119.74259,39.1743],[-119.7428,39.17424],[-119.74334,39.1741],[-119.74365,39.17401],[-119.74424,39.17389],[-119.74503,39.17369],[-119.74515,39.17364],[-119.7453,39.17354],[-119.74553,39.17347],[-119.74569,39.17342],[-119.74572,39.17341],[-119.74609,39.17331],[-119.74618,39.17334],[-119.74694,39.17313],[-119.74719,39.17307],[-119.7477,39.17292],[-119.74778,39.17287],[-119.74802,39.17278],[-119.7481,39.17276],[-119.74847,39.17267],[-119.74862,39.17263],[-119.7487,39.17261],[-119.74946,39.17241],[-119.74984,39.17231],[-119.75017,39.17222],[-119.75038,39.17217],[-119.75097,39.17202],[-119.75142,39.17189],[-119.75182,39.17179],[-119.75197,39.17175],[-119.75249,39.1716],[-119.75308,39.17145],[-119.75328,39.17139],[-119.75347,39.17134],[-119.75376,39.17127],[-119.75384,39.17125],[-119.75403,39.1712],[-119.75434,39.17113],[-119.75436,39.17113],[-119.75464,39.17107],[-119.7548,39.17103],[-119.75486,39.17102],[-119.75504,39.17099],[-119.7553,39.17094],[-119.75567,39.17087],[-119.75621,39.17079],[-119.75646,39.17075],[-119.75667,39.17072],[-119.7568,39.1707],[-119.75724,39.17065],[-119.75775,39.17059],[-119.75783,39.17059],[-119.75833,39.17054],[-119.7588,39.1705],[-119.75887,39.17049],[-119.7593,39.17046],[-119.75955,39.17043],[-119.75969,39.17043],[-119.75987,39.17042],[-119.76022,39.1704],[-119.76045,39.17039],[-119.76106,39.17038],[-119.76158,39.17038],[-119.76278,39.17037],[-119.76334,39.17037],[-119.76361,39.17036],[-119.76371,39.17036],[-119.76394,39.17037],[-119.76444,39.17037],[-119.76496,39.17039],[-119.76527,39.1704],[-119.7661,39.17039],[-119.76643,39.17042],[-119.76665,39.17042],[-119.76695,39.17042],[-119.76695,39.17042],[-119.76695,39.17012],[-119.76695,39.17005],[-119.76696,39.16975],[-119.76696,39.16953]]}}]}